{"type":"FeatureCollection","features":[{"type":"Feature","geometry":{"type":"MultiPolygon","coordinates":[[[[2.4144871,48.9980556],[2.4150948,48.9963813],[2.4155788,48.9952202],[2.4140377,48.9951514],[2.4138086,48.9937608],[2.4119637,48.9938123],[2.4118761,48.993579],[2.4110667,48.9936685],[2.4100509,48.993839],[2.409866,48.9935378],[2.4099146,48.9934968],[2.4090985,48.9922094],[2.4089111,48.9918482],[2.4100551,48.9916505],[2.4105909,48.9912517],[2.4099485,48.9907131],[2.4105322,48.9905421],[2.4109109,48.9902947],[2.4110082,48.990476],[2.4114923,48.99074],[2.4115226,48.9907168],[2.4129317,48.9914893],[2.4168419,48.9912168],[2.417026,48.9917116],[2.4171762,48.9918083],[2.416554,48.9930639],[2.4168777,48.9933972],[2.4188019,48.9946405],[2.4205105,48.9961999],[2.4204536,48.9962603],[2.4171047,48.9983063],[2.4164834,48.9986202],[2.4164214,48.9981593],[2.4144871,48.9980556]]]]},"properties":{"code_section":"95019000AB","code_commune":"95019","section_courte":"AB"}},{"type":"Feature","geometry":{"type":"MultiPolygon","coordinates":[[[[2.4204775,48.996161],[2.4188019,48.9946405],[2.4168777,48.9933972],[2.416554,48.9930639],[2.4171574,48.9918421],[2.4178199,48.9906445],[2.4174518,48.9899548],[2.4163196,48.9875457],[2.4194826,48.9872871],[2.4195678,48.9873901],[2.4191277,48.9882349],[2.4203216,48.9883142],[2.424428,48.9889112],[2.4240901,48.9897523],[2.423153,48.9925352],[2.4225802,48.9931862],[2.4218074,48.9930892],[2.4211802,48.9943144],[2.422196,48.9945156],[2.4206446,48.996062],[2.4204775,48.996161]]]]},"properties":{"code_section":"95019000AC","code_commune":"95019","section_courte":"AC"}},{"type":"Feature","geometry":{"type":"MultiPolygon","coordinates":[[[[2.424428,48.9889112],[2.4203216,48.9883142],[2.4191277,48.9882349],[2.4195678,48.9873901],[2.4195864,48.9872826],[2.4163196,48.9875457],[2.416023,48.9869757],[2.4158382,48.9870607],[2.4149719,48.9872144],[2.4159343,48.9851888],[2.4160305,48.9850528],[2.4162807,48.9848394],[2.4197412,48.9833011],[2.4217449,48.9823026],[2.4226286,48.9830178],[2.4237049,48.9834659],[2.4251983,48.9846209],[2.4262323,48.9839369],[2.4266598,48.9833472],[2.4269422,48.9835164],[2.4277658,48.9837379],[2.427632,48.9839528],[2.4279723,48.9840545],[2.4272533,48.9850959],[2.4271409,48.9853725],[2.42689,48.985381],[2.4265971,48.9859824],[2.4260125,48.9868453],[2.4254133,48.987365],[2.4254671,48.9873969],[2.4253915,48.9875515],[2.424573,48.9886532],[2.424428,48.9889112]]]]},"properties":{"code_section":"95019000AD","code_commune":"95019","section_courte":"AD"}},{"type":"Feature","geometry":{"type":"MultiPolygon","coordinates":[[[[2.4266307,48.9833964],[2.4262323,48.9839369],[2.4251983,48.9846209],[2.4237049,48.9834659],[2.4226286,48.9830178],[2.4217449,48.9823026],[2.4219655,48.9820829],[2.4225315,48.9812614],[2.4234493,48.9805444],[2.4233605,48.980463],[2.4233453,48.9803915],[2.4234115,48.9802218],[2.423591,48.9801333],[2.4239269,48.9801423],[2.4239946,48.9801012],[2.4246096,48.9796224],[2.4249676,48.979415],[2.4265814,48.9782283],[2.4265255,48.9782193],[2.4265645,48.9781903],[2.4262971,48.9781588],[2.4260633,48.9780297],[2.4256793,48.9777029],[2.4255332,48.9776706],[2.4255256,48.9774653],[2.4252448,48.9773066],[2.425057,48.9767182],[2.4250561,48.9762598],[2.4250132,48.9760344],[2.4252325,48.9759647],[2.4253105,48.976858],[2.4306733,48.9788941],[2.4308538,48.9790158],[2.4310371,48.9790157],[2.4314033,48.9791852],[2.4315109,48.9794394],[2.4315817,48.9795061],[2.4316969,48.9795587],[2.432092,48.979629],[2.4322036,48.9796826],[2.4323183,48.9798033],[2.4323798,48.9799508],[2.4323726,48.9800846],[2.4322565,48.9804077],[2.43217,48.9804605],[2.4310438,48.9821706],[2.430629,48.9828728],[2.429578,48.983727],[2.4273522,48.9853169],[2.4271555,48.985318],[2.4271852,48.985222],[2.4279723,48.9840545],[2.427632,48.9839528],[2.4277658,48.9837379],[2.4269422,48.9835164],[2.4266598,48.9833472],[2.4266307,48.9833964]]]]},"properties":{"code_section":"95019000AE","code_commune":"95019","section_courte":"AE"}},{"type":"Feature","geometry":{"type":"MultiPolygon","coordinates":[[[[2.4265535,48.9782574],[2.4249676,48.979415],[2.4246096,48.9796224],[2.4226219,48.9811698],[2.4218069,48.9822654],[2.4204371,48.9829691],[2.4186637,48.9837742],[2.4182146,48.9832733],[2.4175819,48.9822528],[2.4174407,48.9819292],[2.4173543,48.9813355],[2.4173879,48.9808452],[2.4185441,48.9804809],[2.4181868,48.9800016],[2.4180773,48.9799945],[2.4175541,48.9801505],[2.4174357,48.9799717],[2.4175626,48.9799334],[2.4165472,48.9784581],[2.4177402,48.9780944],[2.4176657,48.9779875],[2.4177517,48.9779618],[2.4177514,48.9778635],[2.4178402,48.9778035],[2.4179835,48.9778012],[2.4180853,48.9778621],[2.418168,48.977836],[2.4182445,48.9779404],[2.4210147,48.9770988],[2.4210418,48.9768853],[2.42122,48.9767376],[2.4210774,48.9765534],[2.4223001,48.9763791],[2.4223524,48.9762591],[2.4229399,48.9758629],[2.4233338,48.9753882],[2.42384,48.9751913],[2.424397,48.9747499],[2.4248008,48.9748685],[2.4248281,48.9751693],[2.4252166,48.9758834],[2.4250208,48.9760919],[2.4250428,48.9767187],[2.4252329,48.977294],[2.4255083,48.977463],[2.425517,48.9776661],[2.42561,48.9776663],[2.4256664,48.9776987],[2.4260443,48.9780268],[2.4262795,48.9781552],[2.4265511,48.9781921],[2.4265535,48.9782574]]]]},"properties":{"code_section":"95019000AH","code_commune":"95019","section_courte":"AH"}},{"type":"Feature","geometry":{"type":"MultiPolygon","coordinates":[[[[2.4173752,48.9808588],[2.4173716,48.9815585],[2.4174212,48.9818359],[2.4175467,48.9821738],[2.4182146,48.9832733],[2.4186637,48.9837742],[2.4162807,48.9848394],[2.4161676,48.984922],[2.4159343,48.9851888],[2.4154395,48.9861861],[2.413881,48.9861994],[2.4121006,48.9861332],[2.411225,48.9860526],[2.4099694,48.9858701],[2.4100856,48.9855235],[2.4100547,48.9854183],[2.4099036,48.9852323],[2.4095619,48.9845112],[2.4092321,48.9841761],[2.408223,48.9834486],[2.4076801,48.9828871],[2.4076428,48.9828853],[2.4076025,48.9826672],[2.4077773,48.9821956],[2.4079172,48.9821258],[2.4084682,48.9820622],[2.409012,48.9817256],[2.4091996,48.9817017],[2.4095277,48.9815217],[2.4120984,48.9808924],[2.4134911,48.9809885],[2.4150463,48.9809162],[2.4157325,48.9808462],[2.416225,48.9807027],[2.417209,48.9802571],[2.4180818,48.9799965],[2.4182025,48.9800126],[2.4185412,48.9804855],[2.4173752,48.9808588]]]]},"properties":{"code_section":"95019000AI","code_commune":"95019","section_courte":"AI"}},{"type":"Feature","geometry":{"type":"MultiPolygon","coordinates":[[[[2.4044348,48.9888566],[2.4035195,48.9879578],[2.4033288,48.9880325],[2.4025764,48.9870362],[2.4011144,48.9847569],[2.4017922,48.9847214],[2.4013215,48.9827711],[2.4018108,48.9826545],[2.4021241,48.9826641],[2.4022937,48.9825861],[2.4023101,48.9824938],[2.402359,48.9824796],[2.4027276,48.9825398],[2.4027856,48.9825139],[2.4028609,48.9823914],[2.403058,48.982452],[2.4031348,48.9824336],[2.4031848,48.9823629],[2.4037067,48.982333],[2.4038141,48.9822517],[2.4039057,48.9823632],[2.4037997,48.9824181],[2.40381,48.982587],[2.4039144,48.9826424],[2.4040709,48.9830564],[2.4042744,48.9828965],[2.4046496,48.9828806],[2.4049434,48.9828272],[2.4071249,48.9827994],[2.4074046,48.9826601],[2.4077229,48.9823463],[2.4076094,48.9826642],[2.4076456,48.982881],[2.408223,48.9834486],[2.4092321,48.9841761],[2.4095619,48.9845112],[2.4099036,48.9852323],[2.4100547,48.9854183],[2.4100856,48.9855235],[2.4099694,48.9858701],[2.411225,48.9860526],[2.4127556,48.9861693],[2.4113547,48.9880461],[2.4093492,48.9894116],[2.4084141,48.9888112],[2.4080194,48.9888886],[2.4081095,48.9889482],[2.407793,48.988971],[2.4073975,48.9891134],[2.4061945,48.9895578],[2.4057244,48.989796],[2.4048024,48.9889096],[2.4045904,48.9890095],[2.4044348,48.9888566]]]]},"properties":{"code_section":"95019000AK","code_commune":"95019","section_courte":"AK"}},{"type":"Feature","geometry":{"type":"MultiPolygon","coordinates":[[[[2.411189,48.9901323],[2.4111773,48.9900918],[2.4111019,48.9902421],[2.4110263,48.9902242],[2.4109592,48.9903208],[2.4108486,48.9903371],[2.4105322,48.9905421],[2.4100236,48.9906952],[2.4100084,48.990763],[2.4105909,48.9912517],[2.4100551,48.9916505],[2.4089111,48.9918482],[2.4090985,48.9922094],[2.4099146,48.9934968],[2.409863,48.9935424],[2.4093134,48.9936607],[2.4081722,48.9918468],[2.4063256,48.9895211],[2.407793,48.988971],[2.4080189,48.9889543],[2.4080256,48.9888874],[2.4084161,48.9888128],[2.4093038,48.9893837],[2.4094079,48.9893748],[2.4113547,48.9880461],[2.4122499,48.9868544],[2.4122995,48.9868793],[2.4123705,48.9867977],[2.4124087,48.9867371],[2.4123571,48.9867071],[2.4127291,48.986211],[2.412822,48.9862205],[2.4128354,48.9861696],[2.4142825,48.986203],[2.4153544,48.9861887],[2.415409,48.9862486],[2.4149719,48.9872144],[2.4160407,48.9870028],[2.4172423,48.9895349],[2.4178199,48.9906445],[2.4172437,48.9916881],[2.417048,48.9916621],[2.4168367,48.9912155],[2.4129532,48.9914846],[2.4110114,48.9904684],[2.4112112,48.9902074],[2.411189,48.9901323]]]]},"properties":{"code_section":"95019000AL","code_commune":"95019","section_courte":"AL"}}]}