{"type":"FeatureCollection","features":[{"type":"Feature","geometry":{"type":"MultiPolygon","coordinates":[[[[2.1645565,49.0907212],[2.1644943,49.0911948],[2.1647279,49.0912816],[2.1646987,49.0913629],[2.1651592,49.0915311],[2.1651321,49.0916556],[2.1644957,49.0914718],[2.1640701,49.0918844],[2.1649471,49.0921427],[2.1649439,49.0926628],[2.1648827,49.0930046],[2.1645011,49.0933529],[2.1641445,49.0935678],[2.163925,49.0937993],[2.1622499,49.0933246],[2.1619066,49.0937092],[2.1622068,49.0938055],[2.1618029,49.0944523],[2.1622114,49.0946026],[2.1618873,49.0952419],[2.1627235,49.0955968],[2.1625549,49.0959821],[2.1616473,49.0955458],[2.1612255,49.0958046],[2.1622958,49.0964458],[2.1616566,49.0973612],[2.1601382,49.0961834],[2.1603027,49.0948623],[2.1601606,49.094218],[2.1601714,49.0939935],[2.1604488,49.0929534],[2.1605154,49.0928392],[2.1607514,49.0917517],[2.1608218,49.0910516],[2.1612496,49.0903973],[2.1618239,49.0893397],[2.1621653,49.0889612],[2.1630863,49.0883587],[2.1634367,49.0878712],[2.1634535,49.0878993],[2.1699528,49.089651],[2.1694837,49.0900165],[2.1681215,49.089643],[2.1679787,49.0897957],[2.1650931,49.0890336],[2.16494,49.089375],[2.1657068,49.0895937],[2.1655633,49.0897457],[2.1658248,49.0898214],[2.1654335,49.0901233],[2.1651964,49.0900485],[2.1649482,49.0903727],[2.1647919,49.0903216],[2.1647203,49.0904205],[2.1645978,49.0903864],[2.1645565,49.0907212]]]]},"properties":{"code_section":"950390000C","code_commune":"95039","section_courte":"C"}},{"type":"Feature","geometry":{"type":"MultiPolygon","coordinates":[[[[2.1700469,49.0895738],[2.1699528,49.089651],[2.1634668,49.0878553],[2.1634367,49.0878712],[2.163624,49.0876261],[2.1640483,49.0872418],[2.1646854,49.0868257],[2.1654023,49.0864596],[2.1657622,49.0863082],[2.1661471,49.0862033],[2.1666609,49.086149],[2.1673243,49.086146],[2.1677172,49.0860908],[2.1681793,49.0858771],[2.1685057,49.0856022],[2.1685861,49.0854194],[2.1687183,49.0847182],[2.1686787,49.0840113],[2.1680996,49.0827757],[2.1680886,49.0824413],[2.1681618,49.0823282],[2.1692544,49.0817083],[2.1696863,49.0813643],[2.170112,49.0809246],[2.1707163,49.080431],[2.1709208,49.0801733],[2.1719529,49.0790898],[2.1727449,49.0804837],[2.1730409,49.0807187],[2.1734808,49.0811878],[2.1737018,49.0813719],[2.1742221,49.0816576],[2.1739582,49.0818527],[2.1738583,49.0822523],[2.173341,49.0821002],[2.1732931,49.0821654],[2.1716611,49.0810706],[2.1708348,49.0821004],[2.170329,49.0825721],[2.1702383,49.0826441],[2.1700786,49.0825598],[2.1698295,49.0827769],[2.1700036,49.082849],[2.1698094,49.0833544],[2.1711186,49.0838143],[2.1709609,49.0840164],[2.1716945,49.0842498],[2.1718286,49.0841782],[2.1725192,49.0843651],[2.1726917,49.0841417],[2.1729004,49.0842089],[2.1727527,49.0844923],[2.1728541,49.084521],[2.1728128,49.0846389],[2.1724576,49.085343],[2.1715582,49.0851632],[2.1705724,49.086535],[2.1694247,49.087618],[2.1696015,49.0876893],[2.1692692,49.0878365],[2.1689286,49.0881541],[2.1672546,49.0888381],[2.1673213,49.0888256],[2.1700469,49.0895738]]]]},"properties":{"code_section":"950390000D","code_commune":"95039","section_courte":"D"}},{"type":"Feature","geometry":{"type":"MultiPolygon","coordinates":[[[[2.1617403,49.0852353],[2.1620554,49.0849069],[2.1623069,49.0850187],[2.1625192,49.0848959],[2.163555,49.0849137],[2.1639612,49.0851105],[2.164443,49.0847063],[2.1651334,49.0840306],[2.1653276,49.0837357],[2.1659802,49.0832219],[2.1653452,49.0826866],[2.1661393,49.0819559],[2.166099,49.0818658],[2.1669218,49.0810844],[2.1672831,49.0812817],[2.1675824,49.0811112],[2.1672075,49.0808874],[2.1676026,49.0805669],[2.168004,49.080749],[2.1682663,49.0803998],[2.1675439,49.0800756],[2.1678619,49.0798145],[2.1680241,49.0798869],[2.1682277,49.0797297],[2.168708,49.0799878],[2.1696722,49.0795031],[2.1696201,49.079458],[2.1704307,49.0791095],[2.1697837,49.0787815],[2.1692498,49.0781862],[2.1693275,49.0778865],[2.1685468,49.0776676],[2.1686469,49.0774893],[2.1670504,49.0770309],[2.1683138,49.0768573],[2.1694718,49.0768814],[2.1700754,49.0768567],[2.1709542,49.0767323],[2.1711682,49.0777013],[2.1712738,49.078013],[2.1716888,49.078541],[2.1719529,49.0790898],[2.1709208,49.0801733],[2.1707163,49.080431],[2.170112,49.0809246],[2.1696863,49.0813643],[2.1692544,49.0817083],[2.1681618,49.0823282],[2.1680886,49.0824413],[2.1680996,49.0827757],[2.1686787,49.0840113],[2.1687183,49.0847182],[2.1685861,49.0854194],[2.1685057,49.0856022],[2.1681793,49.0858771],[2.1677172,49.0860908],[2.1673243,49.086146],[2.1666609,49.086149],[2.1661471,49.0862033],[2.1657622,49.0863082],[2.1648469,49.0867457],[2.1645033,49.0866112],[2.1639054,49.0863089],[2.1618749,49.0854877],[2.1616135,49.0853144],[2.1617403,49.0852353]]]]},"properties":{"code_section":"950390000E","code_commune":"95039","section_courte":"E"}},{"type":"Feature","geometry":{"type":"MultiPolygon","coordinates":[[[[2.1742687,49.0816178],[2.1742221,49.0816576],[2.1737018,49.0813719],[2.1734808,49.0811878],[2.1730409,49.0807187],[2.1727449,49.0804837],[2.1719529,49.0790898],[2.1716888,49.078541],[2.1712738,49.078013],[2.1710068,49.0770024],[2.170868,49.0757269],[2.1707553,49.0753527],[2.1704669,49.0748987],[2.1699547,49.0744407],[2.1698601,49.0742816],[2.1697616,49.0738731],[2.1699809,49.0732733],[2.1704467,49.0734235],[2.1706616,49.0734384],[2.1712962,49.0733806],[2.1715165,49.0733958],[2.1719684,49.0734842],[2.1719273,49.0746932],[2.1716621,49.0747369],[2.1719506,49.0752993],[2.1720813,49.0758944],[2.1721305,49.0763757],[2.1721111,49.0776279],[2.1721985,49.0777206],[2.172381,49.077911],[2.1729068,49.0779085],[2.1729164,49.0778119],[2.174318,49.0778265],[2.1741446,49.0782111],[2.1730903,49.0781601],[2.1734362,49.0786065],[2.173511,49.0787496],[2.1735964,49.0791018],[2.1732998,49.0796682],[2.1731456,49.0801193],[2.1732709,49.0803912],[2.1742637,49.0803828],[2.1743901,49.0808627],[2.1742687,49.0816178]]]]},"properties":{"code_section":"950390000F","code_commune":"95039","section_courte":"F"}},{"type":"Feature","geometry":{"type":"MultiPolygon","coordinates":[[[[2.1301176,49.076118],[2.1295015,49.0765223],[2.1297364,49.0766841],[2.1286977,49.0774303],[2.1297742,49.0780044],[2.1294844,49.0782159],[2.129545,49.0782569],[2.1293546,49.0783989],[2.1303478,49.0790673],[2.1301247,49.079253],[2.1302087,49.0793147],[2.1301076,49.0794015],[2.1289068,49.0788816],[2.1266489,49.0777245],[2.1266025,49.077757],[2.126243,49.0775902],[2.1260887,49.0775014],[2.1257483,49.0771872],[2.1256439,49.0770214],[2.1255992,49.0766668],[2.1254476,49.0764132],[2.1254148,49.0760939],[2.1252813,49.0759187],[2.1252726,49.0756919],[2.125185,49.0754517],[2.1251739,49.0751055],[2.124798,49.0742855],[2.1247277,49.0737491],[2.1247546,49.0736464],[2.1251747,49.0732868],[2.1256183,49.0731695],[2.1257498,49.0730729],[2.1260367,49.0726942],[2.125059,49.0724426],[2.1239825,49.0720205],[2.1235851,49.0719413],[2.1238816,49.0711121],[2.124226,49.0707694],[2.124084,49.0707023],[2.1238608,49.0704255],[2.1241043,49.0703401],[2.1235559,49.0696723],[2.125063,49.0693092],[2.1250657,49.0692806],[2.1262931,49.0690713],[2.126727,49.0690175],[2.1267765,49.0691056],[2.1268685,49.069145],[2.1273483,49.0691944],[2.1274675,49.0687872],[2.1285699,49.0691724],[2.1290025,49.0692091],[2.1292726,49.0693628],[2.1298008,49.0695911],[2.129981,49.0697922],[2.1322588,49.0704916],[2.132273,49.0705196],[2.1318292,49.0712152],[2.1318601,49.0712244],[2.1314038,49.0719324],[2.1309367,49.071844],[2.1302527,49.0716222],[2.1300237,49.0718846],[2.130705,49.0721701],[2.130498,49.0722704],[2.1308413,49.072825],[2.1299443,49.0730738],[2.1297153,49.0724929],[2.1295861,49.0724749],[2.1285789,49.0727303],[2.1283893,49.0722933],[2.1281273,49.0723003],[2.12806,49.0717152],[2.1279826,49.0716846],[2.127575,49.0717533],[2.1275119,49.0720868],[2.1275304,49.0723121],[2.1273502,49.0723719],[2.1272285,49.0724676],[2.1270565,49.0726997],[2.1273149,49.0727579],[2.1273215,49.0731785],[2.1274586,49.0731634],[2.1275922,49.0734538],[2.1278045,49.073373],[2.1280433,49.0738982],[2.1281021,49.0738717],[2.1290072,49.0746994],[2.1293761,49.0751138],[2.1295103,49.0753774],[2.1301539,49.0761232],[2.1301176,49.076118]]]]},"properties":{"code_section":"950390000S","code_commune":"95039","section_courte":"S"}},{"type":"Feature","geometry":{"type":"MultiPolygon","coordinates":[[[[2.1478972,49.0820821],[2.1471826,49.0823749],[2.1490026,49.0837919],[2.1511847,49.085773],[2.1472573,49.0887762],[2.1444063,49.0919237],[2.143863,49.0917311],[2.1439463,49.0916154],[2.1432395,49.0913579],[2.1424993,49.0922075],[2.1405777,49.0915593],[2.138137,49.0906489],[2.1377931,49.0907488],[2.1354545,49.089414],[2.133655,49.0883358],[2.1337805,49.0882735],[2.1329337,49.0876883],[2.13316,49.0875947],[2.1319152,49.0867058],[2.131042,49.0858543],[2.1305385,49.0860718],[2.1289411,49.0845187],[2.1312438,49.0835887],[2.1308684,49.0833312],[2.1305956,49.0831897],[2.1335705,49.0807511],[2.1312749,49.0798696],[2.1313548,49.0797182],[2.1303397,49.079387],[2.1301177,49.079264],[2.1303478,49.0790673],[2.1292911,49.0784208],[2.129487,49.0782812],[2.1294233,49.0782366],[2.1297035,49.0780299],[2.1287157,49.0774202],[2.1296535,49.0766119],[2.1295015,49.0765223],[2.1301176,49.076118],[2.1301539,49.0761232],[2.1295103,49.0753774],[2.1293761,49.0751138],[2.1290072,49.0746994],[2.1289601,49.0746909],[2.128647,49.0743465],[2.1281082,49.0738506],[2.1280337,49.0738692],[2.1278045,49.073373],[2.1275922,49.0734538],[2.1274589,49.0731286],[2.1273308,49.073143],[2.1272991,49.0727273],[2.1270565,49.0726997],[2.1272018,49.0724602],[2.1273281,49.0723722],[2.1275054,49.0723165],[2.1275726,49.0717721],[2.1278721,49.0716869],[2.1280208,49.0717166],[2.1280996,49.0722973],[2.1283464,49.0722633],[2.1285608,49.0727163],[2.1295472,49.0724366],[2.1296555,49.0724599],[2.1297153,49.0724929],[2.1299096,49.0730141],[2.1299622,49.0730283],[2.1308779,49.0728147],[2.1305204,49.072264],[2.1306788,49.0722121],[2.130705,49.0721701],[2.1300237,49.0718846],[2.1300746,49.0717964],[2.1303564,49.0715356],[2.1310324,49.0718809],[2.1314038,49.0719324],[2.1321933,49.0705278],[2.1322588,49.0704916],[2.1326992,49.0706252],[2.1332317,49.0707076],[2.1335695,49.0707293],[2.1349081,49.0711422],[2.1358372,49.071546],[2.1365363,49.071744],[2.1368029,49.0717781],[2.1371885,49.0717803],[2.1382664,49.0716356],[2.1391719,49.0716231],[2.1395873,49.071739],[2.14046,49.0717829],[2.1410355,49.0718845],[2.1413956,49.0714804],[2.1414523,49.0713363],[2.1415976,49.0713187],[2.142017,49.071469],[2.1426064,49.0715692],[2.1430429,49.0718008],[2.143922,49.0721289],[2.1447782,49.072593],[2.1449989,49.0729242],[2.1447897,49.0729662],[2.1446326,49.0730465],[2.1445057,49.0731599],[2.145438,49.0734572],[2.1454575,49.0735377],[2.1468682,49.0740604],[2.1472918,49.0741856],[2.1499625,49.0749026],[2.1511659,49.075182],[2.1515949,49.0755472],[2.1536115,49.0762127],[2.1543472,49.0763804],[2.15514,49.07647],[2.1548191,49.0767365],[2.1539553,49.0771922],[2.153614,49.0775538],[2.153424,49.0778222],[2.1529434,49.0782715],[2.1524601,49.079],[2.1520107,49.0793785],[2.1513639,49.0800571],[2.1493166,49.081514],[2.1486561,49.081804],[2.1478972,49.0820821]]]]},"properties":{"code_section":"950390000V","code_commune":"95039","section_courte":"V"}},{"type":"Feature","geometry":{"type":"MultiPolygon","coordinates":[[[[2.1490026,49.0837919],[2.1471826,49.0823749],[2.1486561,49.081804],[2.1493166,49.081514],[2.1513639,49.0800571],[2.1520107,49.0793785],[2.1524601,49.079],[2.1529434,49.0782715],[2.153424,49.0778222],[2.153614,49.0775538],[2.1539553,49.0771922],[2.1548191,49.0767365],[2.1555059,49.0761172],[2.1557335,49.0759549],[2.1568071,49.0753319],[2.1583694,49.0760038],[2.158251,49.0761384],[2.1590245,49.0764409],[2.1596351,49.076073],[2.1597504,49.0761331],[2.1598784,49.076014],[2.159546,49.0757726],[2.1596363,49.0756406],[2.1598196,49.0758207],[2.1603457,49.0754744],[2.1602083,49.0753523],[2.1605357,49.0751052],[2.1607967,49.0752251],[2.160848,49.0751853],[2.1610735,49.0753031],[2.1611523,49.0752348],[2.1619921,49.0756328],[2.1628896,49.0747621],[2.1635232,49.0750113],[2.1640767,49.0744871],[2.1641512,49.0745203],[2.1642492,49.0744247],[2.1643809,49.0744825],[2.1649748,49.0738828],[2.1652863,49.0741397],[2.1656359,49.074548],[2.1664987,49.0749993],[2.167938,49.0755691],[2.168426,49.0759123],[2.1680919,49.0762142],[2.1675466,49.0760403],[2.166996,49.0770003],[2.1686526,49.0775184],[2.1685165,49.0776681],[2.1693006,49.0779194],[2.1691394,49.0782134],[2.1694873,49.07852],[2.1697258,49.0788156],[2.1703971,49.0791114],[2.1695946,49.0794613],[2.1696464,49.079497],[2.1694694,49.0795577],[2.1694479,49.079594],[2.1686814,49.0799788],[2.1682277,49.0797297],[2.1680241,49.0798869],[2.1678619,49.0798145],[2.1675646,49.0800735],[2.1682663,49.0803998],[2.168004,49.080749],[2.1675809,49.0805676],[2.1672322,49.0809071],[2.1676006,49.0811105],[2.1673194,49.0812918],[2.1669631,49.0810944],[2.166099,49.0818658],[2.1661393,49.0819559],[2.1653872,49.082699],[2.1660295,49.0832293],[2.1653714,49.0837525],[2.1651638,49.0840568],[2.1644731,49.084716],[2.1642136,49.0848849],[2.1639612,49.0851105],[2.1635532,49.0849393],[2.1625192,49.0848959],[2.1622703,49.0850102],[2.1620198,49.0848919],[2.1616135,49.0853144],[2.1614418,49.084968],[2.1604159,49.0843963],[2.1590664,49.0837984],[2.1591636,49.0835312],[2.1554744,49.0818799],[2.1519723,49.0851868],[2.1511847,49.085773],[2.1490026,49.0837919]]]]},"properties":{"code_section":"950390000W","code_commune":"95039","section_courte":"W"}},{"type":"Feature","geometry":{"type":"MultiPolygon","coordinates":[[[[2.1706805,49.0903297],[2.1694837,49.0900165],[2.1700469,49.0895738],[2.1672546,49.0888381],[2.1689286,49.0881541],[2.1692692,49.0878365],[2.1696015,49.0876893],[2.1694247,49.087618],[2.1695085,49.0876401],[2.1705794,49.0865592],[2.1715582,49.0851632],[2.1724576,49.085343],[2.1728649,49.0845357],[2.1727472,49.0845082],[2.1729096,49.0842238],[2.1727019,49.0841557],[2.1725192,49.0843651],[2.1718286,49.0841782],[2.1716945,49.0842498],[2.1709929,49.0839637],[2.1711645,49.0837693],[2.1698601,49.0833264],[2.1700587,49.0828225],[2.1698775,49.0827441],[2.1701353,49.0825226],[2.1702995,49.0826021],[2.1708363,49.0820578],[2.1717067,49.0810334],[2.1732943,49.0821767],[2.1733503,49.08211],[2.1738735,49.0822771],[2.1739988,49.0819695],[2.1739582,49.0818527],[2.1742687,49.0816178],[2.1742446,49.0808771],[2.1741409,49.0803949],[2.1731547,49.0803453],[2.1730734,49.0800863],[2.1736231,49.0791001],[2.173511,49.0787496],[2.1730903,49.0781601],[2.1741446,49.0782111],[2.174293,49.0778114],[2.1729003,49.0778268],[2.1729068,49.0779085],[2.1724084,49.0779144],[2.1721789,49.0776232],[2.1721765,49.0770415],[2.1720813,49.0758944],[2.1719506,49.0752993],[2.1716481,49.0747021],[2.1719171,49.0746744],[2.1719684,49.0734842],[2.173535,49.0737618],[2.1782036,49.0751351],[2.1793724,49.0755075],[2.1796528,49.0756798],[2.1805198,49.0759795],[2.1815849,49.0762844],[2.1822919,49.0766758],[2.1828364,49.0762001],[2.1838784,49.0754197],[2.1840513,49.0753257],[2.1845732,49.0755978],[2.1849715,49.0752952],[2.1852765,49.0754293],[2.1856432,49.0758447],[2.1856002,49.0758758],[2.1860559,49.0763071],[2.1857304,49.0765538],[2.1876365,49.0776116],[2.1865109,49.0784915],[2.1853418,49.0780345],[2.1850265,49.0778623],[2.1844035,49.077433],[2.1835448,49.0771105],[2.1823004,49.0767203],[2.1819044,49.0771834],[2.1795341,49.0794532],[2.1792888,49.0795909],[2.1781343,49.0805928],[2.1760065,49.0826746],[2.1749307,49.0837824],[2.1734494,49.0851645],[2.1719298,49.0866975],[2.1717134,49.0870385],[2.1715497,49.0875393],[2.173465,49.0881553],[2.1717432,49.0908301],[2.1706805,49.0903297]]]]},"properties":{"code_section":"950390000X","code_commune":"95039","section_courte":"X"}},{"type":"Feature","geometry":{"type":"MultiPolygon","coordinates":[[[[2.1626981,49.0955864],[2.1619007,49.0952623],[2.1622642,49.0946297],[2.1618631,49.0944782],[2.162232,49.0938137],[2.1619431,49.093691],[2.1622913,49.0932834],[2.163925,49.0937993],[2.1641445,49.0935678],[2.1645011,49.0933529],[2.1648827,49.0930046],[2.1649439,49.0926628],[2.1649471,49.0921427],[2.1640828,49.0919199],[2.1644777,49.0915084],[2.1651321,49.0916556],[2.165178,49.091545],[2.1646773,49.0913972],[2.1647154,49.0912968],[2.1644647,49.0912119],[2.1645674,49.090411],[2.1647081,49.0904405],[2.1647702,49.0903378],[2.1649513,49.0903853],[2.165198,49.0900616],[2.1654335,49.0901233],[2.1658248,49.0898214],[2.1655633,49.0897457],[2.1657068,49.0895937],[2.1649375,49.0893613],[2.1650931,49.0890336],[2.1679787,49.0897957],[2.1681215,49.089643],[2.1706805,49.0903297],[2.1724822,49.0911822],[2.1715368,49.0928996],[2.1690662,49.0960207],[2.1665804,49.0984023],[2.1652782,49.09935],[2.1648047,49.0992157],[2.1641146,49.0989254],[2.1617061,49.0975676],[2.160902,49.0972152],[2.1597871,49.0966236],[2.1584644,49.0960323],[2.1573115,49.0952728],[2.1542259,49.0929205],[2.1534798,49.0923979],[2.1529354,49.0920754],[2.1522678,49.0917498],[2.1514506,49.0914248],[2.1504523,49.091128],[2.1487177,49.0905444],[2.1466023,49.0897438],[2.1464364,49.0896577],[2.1472573,49.0887762],[2.1481204,49.0880912],[2.1519723,49.0851868],[2.1554744,49.0818799],[2.1591636,49.0835312],[2.1590664,49.0837984],[2.1604159,49.0843963],[2.1614418,49.084968],[2.1616135,49.0853144],[2.1618749,49.0854877],[2.1639054,49.0863089],[2.1645033,49.0866112],[2.1648469,49.0867457],[2.1640483,49.0872418],[2.163624,49.0876261],[2.1630863,49.0883587],[2.1621653,49.0889612],[2.1619412,49.089179],[2.1616896,49.0895527],[2.1612496,49.0903973],[2.1608218,49.0910516],[2.1607514,49.0917517],[2.1605154,49.0928392],[2.1604488,49.0929534],[2.1601714,49.0939935],[2.1601606,49.094218],[2.1603027,49.0948623],[2.1601382,49.0961834],[2.1616566,49.0973612],[2.1622958,49.0964458],[2.1612056,49.0957891],[2.1616473,49.0955458],[2.1625549,49.0959821],[2.1627235,49.0955968],[2.1626981,49.0955864]]]]},"properties":{"code_section":"950390000Y","code_commune":"95039","section_courte":"Y"}},{"type":"Feature","geometry":{"type":"MultiPolygon","coordinates":[[[[2.1573115,49.0952728],[2.1584644,49.0960323],[2.1597871,49.0966236],[2.160902,49.0972152],[2.1617061,49.0975676],[2.1641146,49.0989254],[2.1648047,49.0992157],[2.1651252,49.0993048],[2.1637309,49.1007562],[2.1624616,49.1021645],[2.161448,49.1030292],[2.1598457,49.1036156],[2.1542689,49.1055407],[2.1508915,49.1038044],[2.1497758,49.1042314],[2.1485131,49.1029952],[2.1479017,49.1021255],[2.1477694,49.1017852],[2.1477414,49.1015955],[2.1474132,49.1016595],[2.1474093,49.1005132],[2.1475109,49.100284],[2.1453107,49.0992809],[2.1443069,49.0985367],[2.1421578,49.0967856],[2.1423279,49.0967452],[2.146253,49.0948688],[2.1470232,49.0942181],[2.1487464,49.0925809],[2.1477994,49.0921607],[2.1478785,49.0920704],[2.145818,49.091377],[2.1451168,49.0921748],[2.1444063,49.0919237],[2.1464364,49.0896577],[2.1466023,49.0897438],[2.1487177,49.0905444],[2.1504523,49.091128],[2.1514506,49.0914248],[2.1522678,49.0917498],[2.1529354,49.0920754],[2.1534798,49.0923979],[2.1542259,49.0929205],[2.1573115,49.0952728]]]]},"properties":{"code_section":"950390000Z","code_commune":"95039","section_courte":"Z"}},{"type":"Feature","geometry":{"type":"MultiPolygon","coordinates":[[[[2.1308394,49.070038],[2.1299688,49.0698129],[2.1298008,49.0695911],[2.1292726,49.0693628],[2.1290025,49.0692091],[2.1285699,49.0691724],[2.1274675,49.0687872],[2.1273691,49.0691578],[2.1267765,49.0691056],[2.1267825,49.0689827],[2.1267436,49.0689829],[2.1255808,49.0691981],[2.1250292,49.0692679],[2.1250319,49.069298],[2.1235559,49.0696723],[2.1225994,49.0685597],[2.1226242,49.0685504],[2.1222244,49.0680448],[2.1223343,49.067989],[2.1218529,49.0675788],[2.1228566,49.0669912],[2.1221961,49.0664489],[2.1214148,49.0659353],[2.1210606,49.0656643],[2.1209239,49.0655227],[2.1206789,49.0649946],[2.1203203,49.06466],[2.1211091,49.0642045],[2.1214951,49.0639379],[2.1217166,49.0640794],[2.1228115,49.0646208],[2.1234461,49.0649723],[2.1238721,49.0651702],[2.1241459,49.0652605],[2.1247516,49.0655593],[2.1250468,49.0653456],[2.1251443,49.065398],[2.1257543,49.0648887],[2.1258147,49.0649265],[2.1270293,49.0640105],[2.1286713,49.0645777],[2.1288521,49.0646656],[2.1292433,49.0649058],[2.130397,49.0659209],[2.1307596,49.0661746],[2.1316343,49.0665855],[2.1323889,49.0668329],[2.1320026,49.0675214],[2.1317366,49.0678806],[2.131896,49.0679386],[2.1311508,49.0686157],[2.1313989,49.0688131],[2.1315359,49.0688664],[2.1312807,49.0691841],[2.1313501,49.0692101],[2.1312324,49.0694608],[2.1308394,49.070038]]]]},"properties":{"code_section":"95039000AB","code_commune":"95039","section_courte":"AB"}},{"type":"Feature","geometry":{"type":"MultiPolygon","coordinates":[[[[2.1316133,49.0681985],[2.131896,49.0679386],[2.1317366,49.0678806],[2.1320026,49.0675214],[2.1323889,49.0668329],[2.1334037,49.0670783],[2.1341605,49.0672089],[2.1347837,49.0672656],[2.1352523,49.0672608],[2.1360075,49.0671988],[2.1366382,49.0671066],[2.1386161,49.0665872],[2.1390995,49.0665229],[2.1398935,49.0665093],[2.1403013,49.0665378],[2.1416835,49.0667981],[2.1427147,49.0669484],[2.1426421,49.0673409],[2.142529,49.0694609],[2.1424877,49.0694542],[2.1424811,49.0695527],[2.1425128,49.069554],[2.1425618,49.06982],[2.1425879,49.0701883],[2.1430608,49.0702029],[2.1430468,49.0705377],[2.1431109,49.0705399],[2.143173,49.0710709],[2.1431378,49.071085],[2.1433541,49.0711027],[2.1432584,49.0712212],[2.1435049,49.071345],[2.1430429,49.0718008],[2.1426064,49.0715692],[2.142017,49.071469],[2.1415976,49.0713187],[2.1414523,49.0713363],[2.1413956,49.0714804],[2.1410355,49.0718845],[2.14046,49.0717829],[2.1395873,49.071739],[2.1391719,49.0716231],[2.1382664,49.0716356],[2.1379528,49.0716611],[2.1375038,49.0717494],[2.1370276,49.0717861],[2.1365363,49.071744],[2.1361554,49.0716458],[2.1358372,49.071546],[2.1349081,49.0711422],[2.1335695,49.0707293],[2.1332317,49.0707076],[2.1326992,49.0706252],[2.1308307,49.0700504],[2.1312324,49.0694608],[2.1313501,49.0692101],[2.1312807,49.0691841],[2.1315359,49.0688664],[2.1313989,49.0688131],[2.1311508,49.0686157],[2.1316133,49.0681985]]]]},"properties":{"code_section":"95039000AC","code_commune":"95039","section_courte":"AC"}},{"type":"Feature","geometry":{"type":"MultiPolygon","coordinates":[[[[2.1433541,49.0711027],[2.1431378,49.071085],[2.1432921,49.07102],[2.143973,49.0709136],[2.1446421,49.0710304],[2.145692,49.0709856],[2.1463477,49.0711694],[2.1471101,49.0712956],[2.1471431,49.0711532],[2.1481545,49.0707154],[2.149868,49.0710274],[2.1542461,49.071455],[2.1548006,49.0712939],[2.1548467,49.0715467],[2.1550739,49.0718333],[2.1549798,49.0719753],[2.1551465,49.0725433],[2.1551358,49.0730316],[2.1549397,49.0736137],[2.1549269,49.0744076],[2.155066,49.0751146],[2.1550401,49.0755437],[2.1551646,49.0761789],[2.1552414,49.0763767],[2.15514,49.07647],[2.1543472,49.0763804],[2.1536115,49.0762127],[2.1515949,49.0755472],[2.1511659,49.075182],[2.1499625,49.0749026],[2.1468682,49.0740604],[2.1454575,49.0735377],[2.145438,49.0734572],[2.1445817,49.073199],[2.1445057,49.0731599],[2.1446326,49.0730465],[2.1447897,49.0729662],[2.1449989,49.0729242],[2.1447782,49.072593],[2.143922,49.0721289],[2.1430429,49.0718008],[2.1435049,49.071345],[2.1432584,49.0712212],[2.1433541,49.0711027]]]]},"properties":{"code_section":"95039000AD","code_commune":"95039","section_courte":"AD"}},{"type":"Feature","geometry":{"type":"MultiPolygon","coordinates":[[[[2.1471431,49.0711532],[2.1471101,49.0712956],[2.1463477,49.0711694],[2.145692,49.0709856],[2.1446421,49.0710304],[2.1440924,49.070916],[2.143617,49.0709633],[2.1432921,49.07102],[2.143173,49.0710709],[2.1431109,49.0705399],[2.1430468,49.0705377],[2.1430608,49.0702029],[2.1425879,49.0701883],[2.1425618,49.06982],[2.1425128,49.069554],[2.1424811,49.0695527],[2.1424877,49.0694542],[2.142529,49.0694609],[2.1426421,49.0673409],[2.1427147,49.0669484],[2.14442,49.0669949],[2.145688,49.0669279],[2.1458682,49.0670324],[2.1463014,49.0670615],[2.1485896,49.0668971],[2.1504395,49.0665581],[2.1517367,49.0662259],[2.1526952,49.0659154],[2.1538723,49.0656926],[2.1547221,49.0686094],[2.154755,49.0686078],[2.1547785,49.0686979],[2.1547464,49.0687031],[2.1547224,49.0696739],[2.1547898,49.0705332],[2.1547502,49.0709599],[2.1548006,49.0712939],[2.1542461,49.071455],[2.149868,49.0710274],[2.1481545,49.0707154],[2.1471431,49.0711532]]]]},"properties":{"code_section":"95039000AE","code_commune":"95039","section_courte":"AE"}},{"type":"Feature","geometry":{"type":"MultiPolygon","coordinates":[[[[2.1606029,49.0751356],[2.1605357,49.0751052],[2.1602083,49.0753523],[2.1603457,49.0754744],[2.1598196,49.0758207],[2.1596363,49.0756406],[2.159546,49.0757726],[2.1598784,49.076014],[2.1597504,49.0761331],[2.1596351,49.076073],[2.1590245,49.0764409],[2.158251,49.0761384],[2.1583694,49.0760038],[2.1568071,49.0753319],[2.1557335,49.0759549],[2.1555059,49.0761172],[2.1552414,49.0763767],[2.1551646,49.0761789],[2.1550401,49.0755437],[2.155066,49.0751146],[2.1549269,49.0744076],[2.1549397,49.0736137],[2.1551508,49.0729154],[2.1551187,49.0723743],[2.1549798,49.0719753],[2.1550739,49.0718333],[2.1558002,49.0716869],[2.1571714,49.0714983],[2.1583077,49.0712533],[2.1594253,49.0710842],[2.159983,49.0710526],[2.1628534,49.0712687],[2.1643933,49.0712376],[2.1646547,49.0712636],[2.1654561,49.0714291],[2.164927,49.0719645],[2.1641689,49.07229],[2.1640249,49.0724121],[2.1639251,49.072554],[2.1638726,49.0728219],[2.1640413,49.0733424],[2.1639836,49.0735825],[2.1638686,49.0737619],[2.1619921,49.0756328],[2.1611523,49.0752348],[2.1610735,49.0753031],[2.160848,49.0751853],[2.1607967,49.0752251],[2.1606029,49.0751356]]]]},"properties":{"code_section":"95039000AH","code_commune":"95039","section_courte":"AH"}},{"type":"Feature","geometry":{"type":"MultiPolygon","coordinates":[[[[2.1624218,49.0712225],[2.159983,49.0710526],[2.1594253,49.0710842],[2.1583077,49.0712533],[2.1569872,49.0715308],[2.1558002,49.0716869],[2.1550739,49.0718333],[2.1548467,49.0715467],[2.1547641,49.0710975],[2.1547898,49.0705332],[2.1547224,49.0696739],[2.1547503,49.0687681],[2.1564859,49.068532],[2.1573624,49.068449],[2.1590081,49.0683365],[2.1601752,49.0682837],[2.1612682,49.0682718],[2.1625553,49.0683134],[2.1628822,49.0684061],[2.1630817,49.0683756],[2.1648206,49.0685826],[2.1656367,49.0687891],[2.1654923,49.0694107],[2.1655212,49.0701066],[2.1653332,49.0714037],[2.1646547,49.0712636],[2.1643933,49.0712376],[2.1628534,49.0712687],[2.1624218,49.0712225]]]]},"properties":{"code_section":"95039000AI","code_commune":"95039","section_courte":"AI"}},{"type":"Feature","geometry":{"type":"MultiPolygon","coordinates":[[[[2.1538723,49.0656926],[2.1563815,49.0652984],[2.1584437,49.0646418],[2.1588594,49.0645436],[2.1631229,49.0646411],[2.1642533,49.0645874],[2.164305,49.0653768],[2.1639596,49.0665843],[2.1636182,49.0673041],[2.1632569,49.0681778],[2.1632903,49.0681788],[2.1630817,49.0683756],[2.1628822,49.0684061],[2.1625553,49.0683134],[2.1622606,49.0682899],[2.1601752,49.0682837],[2.1582984,49.0683788],[2.1569768,49.0684822],[2.1547503,49.0687681],[2.154755,49.0686078],[2.1547221,49.0686094],[2.1538723,49.0656926]]]]},"properties":{"code_section":"95039000AK","code_commune":"95039","section_courte":"AK"}},{"type":"Feature","geometry":{"type":"MultiPolygon","coordinates":[[[[2.173464,49.0665665],[2.1748737,49.0674928],[2.1737084,49.0687154],[2.1734462,49.068713],[2.1721629,49.0684387],[2.1716707,49.0690679],[2.1716375,49.0692526],[2.1716921,49.0694024],[2.1710241,49.0692532],[2.1709419,49.0694153],[2.1708194,49.0693404],[2.1707947,49.0693835],[2.1689236,49.0690009],[2.1688777,49.0691772],[2.1660687,49.0688942],[2.1648206,49.0685826],[2.1630817,49.0683756],[2.1632903,49.0681788],[2.1632569,49.0681778],[2.1632838,49.0681093],[2.1640497,49.0663075],[2.164305,49.0653768],[2.1642533,49.0645874],[2.166305,49.064254],[2.1670327,49.064171],[2.1682738,49.0641144],[2.1689451,49.0641592],[2.1694697,49.0642381],[2.1700101,49.0644076],[2.1705346,49.0646489],[2.1715183,49.0652645],[2.173464,49.0665665]]]]},"properties":{"code_section":"95039000AL","code_commune":"95039","section_courte":"AL"}},{"type":"Feature","geometry":{"type":"MultiPolygon","coordinates":[[[[2.164927,49.0719645],[2.1654561,49.0714291],[2.1653332,49.0714037],[2.1655212,49.0701066],[2.1654923,49.0694107],[2.1656367,49.0687891],[2.1660687,49.0688942],[2.1688777,49.0691772],[2.1689236,49.0690009],[2.1707947,49.0693835],[2.1708194,49.0693404],[2.1708621,49.0693497],[2.1708594,49.0694041],[2.1716985,49.0695996],[2.1717529,49.0695903],[2.1717511,49.0696832],[2.1713162,49.0705738],[2.1711198,49.0705963],[2.1712842,49.070861],[2.1714646,49.0710293],[2.1717954,49.0712377],[2.1711607,49.0716907],[2.1709022,49.0719231],[2.1702993,49.0726478],[2.1699809,49.0732733],[2.1697616,49.0738731],[2.1698601,49.0742816],[2.1699547,49.0744407],[2.1704669,49.0748987],[2.1707553,49.0753527],[2.170868,49.0757269],[2.1709542,49.0767323],[2.1700754,49.0768567],[2.1694718,49.0768814],[2.1683138,49.0768573],[2.1670504,49.0770309],[2.166996,49.0770003],[2.1675466,49.0760403],[2.1680919,49.0762142],[2.168426,49.0759123],[2.167938,49.0755691],[2.1664987,49.0749993],[2.1656359,49.074548],[2.1652863,49.0741397],[2.1649748,49.0738828],[2.1643809,49.0744825],[2.1642492,49.0744247],[2.1641512,49.0745203],[2.1640767,49.0744871],[2.1635232,49.0750113],[2.1628896,49.0747621],[2.1638686,49.0737619],[2.1639836,49.0735825],[2.1640413,49.0733424],[2.1638726,49.0728219],[2.1639251,49.072554],[2.1640249,49.0724121],[2.1641689,49.07229],[2.164927,49.0719645]]]]},"properties":{"code_section":"95039000AM","code_commune":"95039","section_courte":"AM"}},{"type":"Feature","geometry":{"type":"MultiPolygon","coordinates":[[[[2.1734462,49.068713],[2.1737084,49.0687154],[2.1748737,49.0674928],[2.1763363,49.0685014],[2.177474,49.0692415],[2.1782495,49.0696936],[2.1790299,49.0700875],[2.1802025,49.0704026],[2.1794509,49.0712926],[2.1790496,49.0716647],[2.1788937,49.072079],[2.1782765,49.072036],[2.1777846,49.0720895],[2.177408,49.0731834],[2.177335,49.0731946],[2.1775069,49.0735572],[2.1783498,49.0746136],[2.1782036,49.0751351],[2.173535,49.0737618],[2.1715165,49.0733958],[2.1712962,49.0733806],[2.1706616,49.0734384],[2.1704467,49.0734235],[2.1699809,49.0732733],[2.1702993,49.0726478],[2.1709022,49.0719231],[2.1711607,49.0716907],[2.1717954,49.0712377],[2.1714646,49.0710293],[2.1712842,49.070861],[2.1711198,49.0705963],[2.1713162,49.0705738],[2.1717511,49.0696832],[2.1717529,49.0695903],[2.1716985,49.0695996],[2.1709419,49.0694153],[2.1710241,49.0692532],[2.1716921,49.0694024],[2.1716375,49.0692526],[2.1716707,49.0690679],[2.1721629,49.0684387],[2.1734462,49.068713]]]]},"properties":{"code_section":"95039000AN","code_commune":"95039","section_courte":"AN"}},{"type":"Feature","geometry":{"type":"MultiPolygon","coordinates":[[[[2.1848257,49.0741632],[2.1848,49.0741859],[2.1854895,49.0745968],[2.1838784,49.0754197],[2.1828364,49.0762001],[2.1822919,49.0766758],[2.1815849,49.0762844],[2.1805198,49.0759795],[2.1796528,49.0756798],[2.1793724,49.0755075],[2.1782036,49.0751351],[2.1783498,49.0746136],[2.1775069,49.0735572],[2.177335,49.0731946],[2.177408,49.0731834],[2.1777846,49.0720895],[2.1782765,49.072036],[2.1788937,49.072079],[2.1790496,49.0716647],[2.1794509,49.0712926],[2.1802025,49.0704026],[2.1816907,49.0707035],[2.1850324,49.0711139],[2.1866093,49.0715363],[2.1862492,49.0721946],[2.1863783,49.0722513],[2.1859162,49.0730128],[2.1856885,49.0735371],[2.18526,49.0734205],[2.1847899,49.073816],[2.1850631,49.0739253],[2.1848257,49.0741632]]]]},"properties":{"code_section":"95039000AO","code_commune":"95039","section_courte":"AO"}},{"type":"Feature","geometry":{"type":"MultiPolygon","coordinates":[[[[2.192448,49.0746279],[2.1919402,49.0751086],[2.1918773,49.0750635],[2.1910896,49.0756437],[2.1911858,49.0757239],[2.1909615,49.0758566],[2.1905114,49.0755619],[2.1900479,49.0753291],[2.1898995,49.07547],[2.1898162,49.0754241],[2.1893457,49.0757167],[2.1892898,49.0756911],[2.1887293,49.0761412],[2.1885552,49.0760425],[2.1869954,49.0772457],[2.1857402,49.0765316],[2.1861061,49.0763018],[2.1856316,49.075885],[2.1856727,49.0758597],[2.1852695,49.0754502],[2.1849715,49.0752952],[2.1845732,49.0755978],[2.1840513,49.0753257],[2.1854895,49.0745968],[2.1848,49.0741859],[2.1850631,49.0739253],[2.1847899,49.073816],[2.18526,49.0734205],[2.1856885,49.0735371],[2.1859162,49.0730128],[2.1863783,49.0722513],[2.1862492,49.0721946],[2.1866093,49.0715363],[2.18788,49.0718736],[2.1892948,49.0721758],[2.1903224,49.0724712],[2.1933016,49.0738052],[2.192448,49.0746279]]]]},"properties":{"code_section":"95039000AP","code_commune":"95039","section_courte":"AP"}}]}