{"type":"FeatureCollection","features":[{"type":"Feature","geometry":{"type":"MultiPolygon","coordinates":[[[[2.187269,49.0229707],[2.1865561,49.0233274],[2.1852352,49.0241103],[2.1846661,49.0243537],[2.1829692,49.0254013],[2.1829188,49.0253854],[2.1816796,49.0245019],[2.181466,49.0243069],[2.1808979,49.0236057],[2.1804448,49.0232601],[2.1797351,49.0224148],[2.1797621,49.022394],[2.1792515,49.0217238],[2.1776472,49.0194053],[2.1772343,49.0192222],[2.1772738,49.0192068],[2.1775613,49.0193592],[2.177716,49.0193904],[2.1781202,49.0194085],[2.1791626,49.01936],[2.1802171,49.0191503],[2.1826388,49.0184946],[2.1833493,49.0195982],[2.1854913,49.0202045],[2.1861307,49.0221539],[2.187269,49.0229707]]]]},"properties":{"code_section":"95051000AB","code_commune":"95051","section_courte":"AB"}},{"type":"Feature","geometry":{"type":"MultiPolygon","coordinates":[[[[2.1826388,49.0184946],[2.1868435,49.0172809],[2.1874609,49.0173349],[2.1884118,49.0174896],[2.1914019,49.0161186],[2.1915989,49.0162356],[2.1917878,49.0162764],[2.1920849,49.016239],[2.1922209,49.0161758],[2.1923222,49.0160736],[2.1923679,49.0159394],[2.192353,49.0158333],[2.1941972,49.0153415],[2.1947187,49.0159441],[2.1940689,49.0161952],[2.1944613,49.0167882],[2.1958471,49.0181328],[2.1940421,49.0178564],[2.1940059,49.0178982],[2.1956763,49.0193877],[2.1957307,49.0194935],[2.1959596,49.0196604],[2.1970192,49.0209647],[2.1970241,49.0210144],[2.1961594,49.0211131],[2.1928058,49.021602],[2.1895649,49.0218434],[2.1872753,49.022961],[2.1861104,49.0221462],[2.1854942,49.0201992],[2.1833467,49.0195925],[2.1826388,49.0184946]]]]},"properties":{"code_section":"95051000AC","code_commune":"95051","section_courte":"AC"}},{"type":"Feature","geometry":{"type":"MultiPolygon","coordinates":[[[[2.1951669,49.0189328],[2.1940059,49.0178982],[2.1940421,49.0178564],[2.1958342,49.0181311],[2.1958342,49.0180917],[2.1944613,49.0167882],[2.1940689,49.0161952],[2.1940895,49.0161804],[2.19625,49.0153738],[2.1977848,49.0172112],[2.2035289,49.0155747],[2.2057248,49.0195483],[2.2039511,49.0197455],[2.2030831,49.0198793],[2.199536,49.0206018],[2.1975392,49.0209554],[2.1970241,49.0210144],[2.1957389,49.0193964],[2.1956264,49.0194269],[2.195125,49.0189708],[2.1951669,49.0189328]]]]},"properties":{"code_section":"95051000AD","code_commune":"95051","section_courte":"AD"}},{"type":"Feature","geometry":{"type":"MultiPolygon","coordinates":[[[[2.1961939,49.0154051],[2.1947025,49.0159274],[2.1934134,49.0143672],[2.1961125,49.0133999],[2.1974813,49.0126799],[2.1974279,49.0124725],[2.1974542,49.0123967],[2.1976143,49.0123077],[2.1978057,49.0122876],[2.1979751,49.0123173],[2.1981123,49.0124104],[2.2035126,49.0105311],[2.2054943,49.0129663],[2.2031468,49.0137405],[2.2035301,49.0155741],[2.1977848,49.0172112],[2.196467,49.0156129],[2.19625,49.0153738],[2.1961939,49.0154051]]]]},"properties":{"code_section":"95051000AE","code_commune":"95051","section_courte":"AE"}},{"type":"Feature","geometry":{"type":"MultiPolygon","coordinates":[[[[2.213264,49.0016914],[2.214975,49.0035387],[2.2086446,49.0055577],[2.20614,49.0064251],[2.2054275,49.006645],[2.2045601,49.0056838],[2.2044545,49.0056253],[2.20438,49.0056205],[2.2043818,49.0052404],[2.2042431,49.0050684],[2.213264,49.0016914]]]]},"properties":{"code_section":"95051000AH","code_commune":"95051","section_courte":"AH"}},{"type":"Feature","geometry":{"type":"MultiPolygon","coordinates":[[[[2.2015543,49.0080642],[2.2035086,49.010533],[2.1981123,49.0124104],[2.1979751,49.0123173],[2.1978057,49.0122876],[2.1976143,49.0123077],[2.1974542,49.0123967],[2.1974279,49.0124725],[2.1974821,49.0126792],[2.1966005,49.0131381],[2.195505,49.0122418],[2.1940463,49.0104689],[2.1940502,49.0103837],[2.1931351,49.009219],[2.1928903,49.0093017],[2.1926679,49.0090302],[2.1931101,49.0089085],[2.1930586,49.0088259],[2.195946,49.0080406],[2.1968842,49.0077445],[2.1996131,49.0068028],[2.1996376,49.0068157],[2.2042567,49.0050752],[2.2043971,49.0052412],[2.2043897,49.0055832],[2.2045601,49.0056838],[2.2054397,49.0066573],[2.2015534,49.008001],[2.2015186,49.0080141],[2.2015543,49.0080642]]]]},"properties":{"code_section":"95051000AI","code_commune":"95051","section_courte":"AI"}},{"type":"Feature","geometry":{"type":"MultiPolygon","coordinates":[[[[2.1940296,49.0104449],[2.195505,49.0122418],[2.1966015,49.0131403],[2.1960226,49.0134351],[2.1934134,49.0143672],[2.1942144,49.0153365],[2.192353,49.0158333],[2.1923679,49.0159394],[2.1923222,49.0160736],[2.1922209,49.0161758],[2.1920849,49.016239],[2.1917878,49.0162764],[2.1915989,49.0162356],[2.1914019,49.0161186],[2.1896861,49.0168966],[2.1865792,49.0128923],[2.1866165,49.0127742],[2.1858716,49.0120703],[2.1856871,49.0121544],[2.1848923,49.0111325],[2.185,49.0111037],[2.1849387,49.0110252],[2.1930585,49.0088235],[2.1931112,49.0089076],[2.1926685,49.0090283],[2.1928912,49.009301],[2.1931431,49.0092146],[2.1940839,49.0104192],[2.1940296,49.0104449]]]]},"properties":{"code_section":"95051000AK","code_commune":"95051","section_courte":"AK"}},{"type":"Feature","geometry":{"type":"MultiPolygon","coordinates":[[[[2.1805278,49.0148379],[2.1797436,49.0151007],[2.1782629,49.0130136],[2.179114,49.0128003],[2.1790186,49.012634],[2.1849396,49.0110292],[2.1850003,49.0111098],[2.1848979,49.0111378],[2.1856798,49.012152],[2.185697,49.0121698],[2.1858667,49.0120719],[2.1866036,49.0127779],[2.1865792,49.0128923],[2.1896814,49.0168908],[2.1884118,49.0174896],[2.1874609,49.0173349],[2.1868435,49.0172809],[2.1830313,49.0183834],[2.1819275,49.0167551],[2.1805278,49.0148379]]]]},"properties":{"code_section":"95051000AL","code_commune":"95051","section_courte":"AL"}},{"type":"Feature","geometry":{"type":"MultiPolygon","coordinates":[[[[2.1747994,49.0167621],[2.1745835,49.016528],[2.1730833,49.0142976],[2.179023,49.0126441],[2.1791212,49.0128029],[2.1782696,49.0130176],[2.1797593,49.0151116],[2.1805431,49.0148528],[2.1819273,49.0167551],[2.1830109,49.0183972],[2.1802171,49.0191503],[2.1791626,49.01936],[2.1781202,49.0194085],[2.1776699,49.0193828],[2.1773317,49.0191769],[2.1763749,49.0183045],[2.1750597,49.0167062],[2.1749774,49.0167022],[2.1747994,49.0167621]]]]},"properties":{"code_section":"95051000AM","code_commune":"95051","section_courte":"AM"}}]}