{"type":"FeatureCollection","features":[{"type":"Feature","geometry":{"type":"MultiPolygon","coordinates":[[[[2.209233,48.9364553],[2.210727,48.9370685],[2.2100983,48.9378861],[2.2103275,48.937959],[2.2103593,48.9389352],[2.2083262,48.939012],[2.2082765,48.9395753],[2.2073175,48.9394868],[2.2069085,48.9393995],[2.2067221,48.9413883],[2.2059442,48.9404859],[2.2057292,48.940302],[2.2054306,48.9401554],[2.2051939,48.9400878],[2.2027751,48.9399714],[2.2029901,48.937756],[2.2021007,48.9377167],[2.2020696,48.9376576],[2.2015472,48.9378459],[2.2016262,48.9378089],[2.2021187,48.9358045],[2.2021105,48.9357204],[2.2020389,48.9356981],[2.2019483,48.9357161],[2.2017003,48.9358713],[2.2010198,48.936091],[2.199279,48.9352826],[2.2001049,48.9338745],[2.201297,48.9320749],[2.2022506,48.932539],[2.2034089,48.9331944],[2.2045639,48.9336646],[2.2060462,48.934413],[2.2063931,48.9349556],[2.2067498,48.93473],[2.2080446,48.9353695],[2.208224,48.9351783],[2.2091958,48.9357056],[2.2089424,48.9359315],[2.2094511,48.9362167],[2.209233,48.9364553]]]]},"properties":{"code_section":"95063000AB","code_commune":"95063","section_courte":"AB"}},{"type":"Feature","geometry":{"type":"MultiPolygon","coordinates":[[[[2.2159132,48.9372812],[2.2159086,48.9373508],[2.2155919,48.9373497],[2.2151248,48.9371994],[2.2150428,48.9374038],[2.2141059,48.9370729],[2.2134719,48.9377629],[2.2132147,48.9376029],[2.2110157,48.9379941],[2.2103881,48.9379769],[2.2100983,48.9378861],[2.210727,48.9370685],[2.209233,48.9364553],[2.2094511,48.9362167],[2.2089424,48.9359315],[2.2091958,48.9357056],[2.208224,48.9351783],[2.2111925,48.9320838],[2.2136828,48.9331357],[2.2142689,48.9325149],[2.217969,48.9339736],[2.2176505,48.9343635],[2.2183193,48.9344892],[2.219757,48.9348428],[2.2172105,48.9359832],[2.2174383,48.9364914],[2.2173007,48.937236],[2.2162824,48.9369168],[2.216092,48.9371386],[2.2159373,48.9371297],[2.2159132,48.9372812]]]]},"properties":{"code_section":"95063000AC","code_commune":"95063","section_courte":"AC"}},{"type":"Feature","geometry":{"type":"MultiPolygon","coordinates":[[[[2.2026795,48.9289595],[2.2036934,48.9275806],[2.2056794,48.9281936],[2.206108,48.9277218],[2.2076058,48.9281845],[2.2094883,48.9288884],[2.2111109,48.9296125],[2.2127742,48.9304138],[2.2080446,48.9353695],[2.2067498,48.93473],[2.2063931,48.9349556],[2.2060462,48.934413],[2.2045639,48.9336646],[2.2034089,48.9331944],[2.2022506,48.932539],[2.2013303,48.9320886],[2.2019139,48.931354],[2.2017705,48.9312998],[2.2025245,48.9303261],[2.2022129,48.9302219],[2.2028025,48.9293239],[2.2024867,48.9292162],[2.2026795,48.9289595]]]]},"properties":{"code_section":"95063000AD","code_commune":"95063","section_courte":"AD"}},{"type":"Feature","geometry":{"type":"MultiPolygon","coordinates":[[[[2.2050396,48.9221417],[2.2051192,48.9220062],[2.2055581,48.9222],[2.2077869,48.92339],[2.2080013,48.923673],[2.2089467,48.9244643],[2.2115174,48.9256666],[2.2125995,48.9261241],[2.2156901,48.9272566],[2.2127742,48.9304138],[2.2111109,48.9296125],[2.2095813,48.9289269],[2.207158,48.9280367],[2.206108,48.9277218],[2.2056794,48.9281936],[2.2030524,48.9273784],[2.2038525,48.9262983],[2.2045535,48.9252561],[2.2039752,48.9250752],[2.2043392,48.9244914],[2.2040872,48.9245061],[2.20463,48.9237011],[2.2042992,48.9236002],[2.2048844,48.9227377],[2.2047371,48.922692],[2.205015,48.9222861],[2.205033,48.9222522],[2.2049722,48.9222498],[2.2050396,48.9221417]]]]},"properties":{"code_section":"95063000AE","code_commune":"95063","section_courte":"AE"}},{"type":"Feature","geometry":{"type":"MultiPolygon","coordinates":[[[[2.2179659,48.9300783],[2.2182971,48.9300548],[2.2186298,48.9301704],[2.2199175,48.9309765],[2.2215274,48.9316941],[2.221798,48.9318959],[2.2219374,48.9324537],[2.222833,48.9327332],[2.2232915,48.9329779],[2.2220558,48.9345938],[2.2212231,48.9347771],[2.219817,48.9348539],[2.2183193,48.9344892],[2.2176505,48.9343635],[2.217969,48.9339736],[2.2142689,48.9325149],[2.2136828,48.9331357],[2.2111925,48.9320838],[2.2156058,48.9273446],[2.2171428,48.9279905],[2.2190927,48.9288887],[2.2182064,48.9299067],[2.2179659,48.9300783]]]]},"properties":{"code_section":"95063000AH","code_commune":"95063","section_courte":"AH"}},{"type":"Feature","geometry":{"type":"MultiPolygon","coordinates":[[[[2.2198335,48.9246363],[2.2202422,48.9248116],[2.2205371,48.9247887],[2.2236881,48.9281607],[2.2256671,48.9292252],[2.2244463,48.9308047],[2.2245527,48.9308386],[2.2245349,48.9308737],[2.2239179,48.931806],[2.2231323,48.9328785],[2.222833,48.9327332],[2.2219374,48.9324537],[2.221798,48.9318959],[2.2215274,48.9316941],[2.2199175,48.9309765],[2.2186298,48.9301704],[2.2182971,48.9300548],[2.2179659,48.9300783],[2.2182064,48.9299067],[2.2190927,48.9288887],[2.2171428,48.9279905],[2.2156058,48.9273446],[2.2160908,48.9268983],[2.2167222,48.926183],[2.2179439,48.9265554],[2.2196498,48.9245163],[2.2197578,48.9245605],[2.2197271,48.9245912],[2.2198335,48.9246363]]]]},"properties":{"code_section":"95063000AI","code_commune":"95063","section_courte":"AI"}},{"type":"Feature","geometry":{"type":"MultiPolygon","coordinates":[[[[2.2197271,48.9245912],[2.2197578,48.9245605],[2.2196498,48.9245163],[2.2179439,48.9265554],[2.2167222,48.926183],[2.2160908,48.9268983],[2.2156901,48.9272566],[2.2125995,48.9261241],[2.2109486,48.9254044],[2.2089467,48.9244643],[2.2080013,48.923673],[2.2145446,48.9229253],[2.2143985,48.9228743],[2.2171418,48.9225371],[2.2183443,48.9218237],[2.2187643,48.9220451],[2.2188294,48.9219952],[2.2204567,48.9228788],[2.2214907,48.9232673],[2.2215309,48.9233528],[2.2214447,48.9233568],[2.2204649,48.9242248],[2.2201798,48.9243643],[2.2205371,48.9247887],[2.2202422,48.9248116],[2.2197271,48.9245912]]]]},"properties":{"code_section":"95063000AK","code_commune":"95063","section_courte":"AK"}},{"type":"Feature","geometry":{"type":"MultiPolygon","coordinates":[[[[2.2230947,48.9226682],[2.2281824,48.9257438],[2.2314323,48.9276341],[2.2304503,48.928286],[2.22787,48.9304253],[2.2236881,48.9281607],[2.2205371,48.9247887],[2.2201798,48.9243643],[2.2204649,48.9242248],[2.2214447,48.9233568],[2.2215309,48.9233528],[2.2214907,48.9232673],[2.2204567,48.9228788],[2.2188294,48.9219952],[2.2187643,48.9220451],[2.2183443,48.9218237],[2.2171418,48.9225371],[2.2143985,48.9228743],[2.2119221,48.9217614],[2.2142304,48.9195144],[2.2154309,48.9202481],[2.21775,48.9188481],[2.2201229,48.9207928],[2.2230947,48.9226682]]]]},"properties":{"code_section":"95063000AL","code_commune":"95063","section_courte":"AL"}},{"type":"Feature","geometry":{"type":"MultiPolygon","coordinates":[[[[2.20585,48.9108529],[2.2073086,48.9113942],[2.2075715,48.9115383],[2.2128458,48.914929],[2.2131334,48.9152629],[2.2135537,48.916102],[2.2137709,48.9163898],[2.21775,48.9188481],[2.2154309,48.9202481],[2.2142304,48.9195144],[2.2119221,48.9217614],[2.2132372,48.922367],[2.2145446,48.9229253],[2.2080013,48.923673],[2.2077869,48.92339],[2.2068767,48.9228811],[2.2089603,48.9203592],[2.2075498,48.9196666],[2.2056381,48.9186081],[2.204135,48.9180166],[2.2049062,48.9170726],[2.2039236,48.9167467],[2.2031763,48.9176574],[2.2028106,48.9175468],[2.2037805,48.9163292],[2.203741,48.9162928],[2.2048685,48.9149595],[2.2030646,48.9141978],[2.2005244,48.9131764],[2.2002918,48.9129703],[2.1981829,48.9120311],[2.2004057,48.9087197],[2.2022568,48.9093651],[2.2036723,48.9099139],[2.2052399,48.9105631],[2.20585,48.9108529]]]]},"properties":{"code_section":"95063000AM","code_commune":"95063","section_courte":"AM"}},{"type":"Feature","geometry":{"type":"MultiPolygon","coordinates":[[[[2.2047474,48.9170198],[2.2049062,48.9170726],[2.204135,48.9180166],[2.2056381,48.9186082],[2.2075498,48.9196666],[2.2089603,48.9203592],[2.2068767,48.9228811],[2.2056337,48.9222362],[2.2047663,48.9218431],[2.2022898,48.9209388],[2.1991904,48.9189828],[2.1998076,48.9187336],[2.2008113,48.9180005],[2.2014837,48.9172888],[2.2038758,48.914537],[2.2048685,48.9149595],[2.203741,48.9162928],[2.2037805,48.9163292],[2.2028106,48.9175468],[2.2031763,48.9176574],[2.2039236,48.9167467],[2.2047474,48.9170198]]]]},"properties":{"code_section":"95063000AN","code_commune":"95063","section_courte":"AN"}}]}