{"type":"FeatureCollection","features":[{"type":"Feature","geometry":{"type":"MultiPolygon","coordinates":[[[[2.2871156,49.0451894],[2.2846004,49.0465664],[2.2844576,49.0463148],[2.2839744,49.0459314],[2.2836714,49.0455152],[2.2834489,49.0453943],[2.2830928,49.0452759],[2.2822717,49.0446802],[2.2819975,49.0444657],[2.2817002,49.0440886],[2.2812806,49.0437268],[2.2805091,49.0433042],[2.2801244,49.0431333],[2.2793528,49.0428909],[2.2786677,49.0425545],[2.2781726,49.0422191],[2.2772707,49.0419392],[2.2767621,49.0418559],[2.2753296,49.0398441],[2.2747707,49.0363216],[2.2832555,49.0336908],[2.2836558,49.0331233],[2.2855463,49.0330909],[2.2865489,49.0326788],[2.2868672,49.0325769],[2.2938459,49.0304387],[2.2939497,49.030516],[2.2939652,49.030609],[2.2940091,49.0306339],[2.2940725,49.0306483],[2.2941653,49.0306224],[2.2942308,49.0306439],[2.2944011,49.0310664],[2.2954233,49.0318434],[2.2957491,49.03204],[2.297172,49.0325072],[2.2976639,49.032813],[2.2979549,49.0330545],[2.2981252,49.0333214],[2.2983635,49.0341457],[2.299041,49.0348504],[2.299285,49.0351953],[2.3009646,49.0339635],[2.3015682,49.03684],[2.3056905,49.0372613],[2.3056758,49.037356],[2.3059876,49.0381724],[2.306665,49.0387561],[2.3067017,49.0388935],[2.306641,49.0389555],[2.306228,49.0391664],[2.3062149,49.0392326],[2.3063352,49.0394244],[2.3062869,49.0395379],[2.3060773,49.0396521],[2.305829,49.0397388],[2.3051067,49.0402008],[2.3048046,49.0404452],[2.3047921,49.0405566],[2.3044089,49.0408282],[2.3041455,49.041223],[2.303949,49.0412797],[2.3038327,49.0413882],[2.3038411,49.0416471],[2.3037463,49.0421004],[2.3033075,49.0420868],[2.3029838,49.0421147],[2.3027482,49.042184],[2.3023806,49.0421617],[2.3022318,49.042181],[2.3022027,49.0421905],[2.3023007,49.0423485],[2.3018368,49.0422512],[2.3017044,49.0417386],[2.3019961,49.0417254],[2.3020329,49.04165],[2.3030302,49.0412132],[2.3025066,49.0408061],[2.3016124,49.0409098],[2.3016409,49.0411172],[2.3012513,49.0412437],[2.3008553,49.0415389],[2.3000905,49.041573],[2.2994831,49.0414643],[2.2993145,49.0413943],[2.2990694,49.0413579],[2.2988018,49.0412761],[2.2987101,49.0413147],[2.2983861,49.0417477],[2.2979052,49.0418481],[2.2975834,49.0419915],[2.297589,49.042099],[2.2975471,49.0421417],[2.2974743,49.042109],[2.2973727,49.0421131],[2.2973159,49.0421961],[2.297006,49.0422927],[2.2960446,49.0418868],[2.2958799,49.0418378],[2.2958051,49.0418531],[2.2956029,49.0417236],[2.2943594,49.0419372],[2.2943019,49.0418818],[2.2941769,49.0419043],[2.2940486,49.0417985],[2.2939236,49.0414306],[2.2933728,49.0415476],[2.2930777,49.04164],[2.2929768,49.0415534],[2.2916172,49.0409704],[2.2909024,49.0414877],[2.2896585,49.0427246],[2.2895992,49.0428899],[2.2896424,49.044215],[2.2892255,49.0441471],[2.2891037,49.0441607],[2.2888733,49.0442443],[2.2871156,49.0451894]]]]},"properties":{"code_section":"950910000C","code_commune":"95091","section_courte":"C"}},{"type":"Feature","geometry":{"type":"MultiPolygon","coordinates":[[[[2.2860383,49.050088],[2.2847449,49.0490282],[2.2847212,49.0489129],[2.28452,49.0485521],[2.2845371,49.0472963],[2.2846004,49.0465664],[2.2887183,49.0443125],[2.2891037,49.0441607],[2.2896302,49.0441571],[2.2915784,49.0443152],[2.2916807,49.0442865],[2.292266,49.0439236],[2.2926318,49.0435587],[2.2927153,49.0434955],[2.2928149,49.0434716],[2.2929965,49.043465],[2.2938115,49.043619],[2.2944144,49.0436719],[2.2955249,49.0435838],[2.2958394,49.0437719],[2.2960198,49.0439154],[2.2966176,49.044607],[2.2947269,49.0458446],[2.2935649,49.0462611],[2.2935534,49.0468613],[2.2937481,49.0481362],[2.2909504,49.0467485],[2.2902826,49.0463378],[2.289978,49.0466305],[2.2896595,49.0468351],[2.2890888,49.0472873],[2.2886333,49.0477115],[2.2875298,49.0489536],[2.2861887,49.0501907],[2.2860383,49.050088]]]]},"properties":{"code_section":"95091000AA","code_commune":"95091","section_courte":"AA"}},{"type":"Feature","geometry":{"type":"MultiPolygon","coordinates":[[[[2.2998269,49.0502961],[2.2990442,49.0502018],[2.2979176,49.0499509],[2.2972588,49.0497536],[2.296704,49.0495175],[2.2955015,49.0487305],[2.295179,49.0484842],[2.2948149,49.0487055],[2.2944932,49.0484362],[2.2937364,49.0479972],[2.2934851,49.0462944],[2.2947269,49.0458446],[2.2966176,49.044607],[2.2971216,49.0451888],[2.2973471,49.0456921],[2.298024,49.0464658],[2.2983514,49.0467597],[2.3006544,49.0485098],[2.3007851,49.0486714],[2.3007921,49.0488108],[2.3007434,49.0489346],[2.2998852,49.0503029],[2.2998269,49.0502961]]]]},"properties":{"code_section":"95091000AB","code_commune":"95091","section_courte":"AB"}},{"type":"Feature","geometry":{"type":"MultiPolygon","coordinates":[[[[2.2971216,49.0451888],[2.2960198,49.0439154],[2.2955249,49.0435838],[2.2944144,49.0436719],[2.2938115,49.043619],[2.2929965,49.043465],[2.2928149,49.0434716],[2.2927153,49.0434955],[2.2926318,49.0435587],[2.292266,49.0439236],[2.2916807,49.0442865],[2.2915784,49.0443152],[2.2896302,49.0441571],[2.2894688,49.0436559],[2.2893464,49.0430898],[2.2893903,49.0429171],[2.2896118,49.0426471],[2.2906543,49.0417106],[2.2915424,49.0409712],[2.2927827,49.0415386],[2.2929411,49.0416624],[2.2938342,49.0414828],[2.2940778,49.0419666],[2.2942082,49.0419252],[2.2943469,49.0419719],[2.2956029,49.0417236],[2.2958051,49.0418531],[2.2958799,49.0418378],[2.297006,49.0422927],[2.2973572,49.0422047],[2.2973448,49.0421332],[2.2974123,49.0421049],[2.2975209,49.042127],[2.2976282,49.0422228],[2.2975834,49.0419915],[2.297953,49.0418426],[2.2983059,49.0418026],[2.2989109,49.0422822],[2.2990986,49.0424859],[2.2994105,49.0430003],[2.3000372,49.0429312],[2.3002641,49.0433082],[2.3007883,49.0434876],[2.3017257,49.0442003],[2.3008601,49.0444038],[2.3006277,49.0445451],[2.3002356,49.0449355],[2.2992599,49.0439784],[2.2986785,49.0442279],[2.298758,49.0443069],[2.2984594,49.0445],[2.2983954,49.0444605],[2.2983886,49.0445891],[2.2982095,49.044811],[2.2977278,49.0451548],[2.2972062,49.0453745],[2.2971216,49.0451888]]]]},"properties":{"code_section":"95091000AC","code_commune":"95091","section_courte":"AC"}},{"type":"Feature","geometry":{"type":"MultiPolygon","coordinates":[[[[2.3011223,49.0482533],[2.3006544,49.0485098],[2.2983514,49.0467597],[2.298024,49.0464658],[2.2973471,49.0456921],[2.2972062,49.0453745],[2.2977278,49.0451548],[2.2981489,49.0448732],[2.2983886,49.0445891],[2.2983954,49.0444605],[2.2984594,49.0445],[2.298758,49.0443069],[2.2986785,49.0442279],[2.2992599,49.0439784],[2.3002356,49.0449355],[2.3007341,49.0444678],[2.3008601,49.0444038],[2.3017257,49.0442003],[2.301874,49.0441367],[2.3029605,49.0434204],[2.304666,49.0441518],[2.3061806,49.0449344],[2.30667,49.0458368],[2.307037,49.0468495],[2.3068127,49.0469257],[2.3064661,49.0469763],[2.30439,49.0469591],[2.303744,49.0472746],[2.302286,49.0477962],[2.3011223,49.0482533]]]]},"properties":{"code_section":"95091000AD","code_commune":"95091","section_courte":"AD"}},{"type":"Feature","geometry":{"type":"MultiPolygon","coordinates":[[[[2.301874,49.0441367],[2.3017257,49.0442003],[2.3007883,49.0434876],[2.3002641,49.0433082],[2.3000372,49.0429312],[2.2994105,49.0430003],[2.2990986,49.0424859],[2.2989109,49.0422822],[2.2983266,49.0418206],[2.298469,49.0417061],[2.2986647,49.0413004],[2.2991582,49.0413937],[2.2995077,49.0415018],[2.3002013,49.0415855],[2.300883,49.0415619],[2.3009125,49.041507],[2.3013291,49.0412453],[2.3016562,49.0411458],[2.3015925,49.04093],[2.302556,49.0408403],[2.3030725,49.041266],[2.3020329,49.04165],[2.3019918,49.0417672],[2.3017524,49.041755],[2.3018368,49.0422512],[2.3022505,49.0423292],[2.3021455,49.0422062],[2.3027482,49.042184],[2.3037346,49.0420391],[2.3038411,49.0416471],[2.3038327,49.0413882],[2.303949,49.0412797],[2.304155,49.0412506],[2.3044089,49.0408282],[2.3047921,49.0405566],[2.3047628,49.0404687],[2.3058528,49.039761],[2.3062189,49.0396217],[2.306368,49.039509],[2.306181,49.0392563],[2.3061771,49.0392079],[2.306228,49.0391664],[2.3064886,49.039041],[2.3067823,49.0387598],[2.3075871,49.0382934],[2.3083175,49.0385918],[2.3087815,49.038965],[2.3102545,49.0400034],[2.3099975,49.0402827],[2.3098848,49.0403688],[2.3093977,49.0406089],[2.3075595,49.0412477],[2.3065436,49.0418014],[2.3062549,49.0419134],[2.3059799,49.0419577],[2.3032537,49.0427157],[2.3018744,49.0428522],[2.301899,49.0429068],[2.3022986,49.043144],[2.3029605,49.0434204],[2.301874,49.0441367]]]]},"properties":{"code_section":"95091000AE","code_commune":"95091","section_courte":"AE"}},{"type":"Feature","geometry":{"type":"MultiPolygon","coordinates":[[[[2.3127437,49.0454189],[2.3125342,49.0456906],[2.3102406,49.0448901],[2.3100734,49.0448507],[2.3096702,49.0448184],[2.3067859,49.0448992],[2.3063526,49.0449514],[2.3061806,49.0449344],[2.304666,49.0441518],[2.3022986,49.043144],[2.301899,49.0429068],[2.3018744,49.0428522],[2.3032537,49.0427157],[2.3059799,49.0419577],[2.3062549,49.0419134],[2.3065436,49.0418014],[2.3075595,49.0412477],[2.3093977,49.0406089],[2.3098848,49.0403688],[2.3108128,49.0411381],[2.3105252,49.0412822],[2.3095779,49.0423215],[2.3091983,49.0424711],[2.3094483,49.0427629],[2.3096499,49.0427159],[2.3097807,49.0427214],[2.3098911,49.0427844],[2.3100343,49.042958],[2.3102459,49.0429406],[2.3105826,49.0429826],[2.3107975,49.0430437],[2.3109635,49.0431348],[2.3111403,49.0433148],[2.311491,49.0435287],[2.3128337,49.0440125],[2.3130715,49.0441344],[2.3122888,49.0446812],[2.3120723,49.0450875],[2.3124039,49.0452761],[2.3127437,49.0454189]]]]},"properties":{"code_section":"95091000AH","code_commune":"95091","section_courte":"AH"}},{"type":"Feature","geometry":{"type":"MultiPolygon","coordinates":[[[[2.3118082,49.0491098],[2.3086217,49.0478007],[2.3067594,49.0471588],[2.3068127,49.0469257],[2.307037,49.0468495],[2.30667,49.0458368],[2.3061806,49.0449344],[2.3063526,49.0449514],[2.3067859,49.0448992],[2.3096702,49.0448184],[2.3100734,49.0448507],[2.310703,49.0450395],[2.3138727,49.0461547],[2.3142788,49.0462238],[2.315646,49.0460588],[2.3180731,49.0455892],[2.3163408,49.0467276],[2.315862,49.047082],[2.3149671,49.0482262],[2.3136415,49.0494063],[2.3126137,49.0494009],[2.3118082,49.0491098]]]]},"properties":{"code_section":"95091000AI","code_commune":"95091","section_courte":"AI"}},{"type":"Feature","geometry":{"type":"MultiPolygon","coordinates":[[[[2.3206945,49.0506988],[2.3176175,49.0499147],[2.31733,49.0497242],[2.3170545,49.0493905],[2.3136432,49.0493991],[2.3149671,49.0482262],[2.315862,49.047082],[2.3163408,49.0467276],[2.3180731,49.0455892],[2.3182643,49.04555],[2.3191073,49.0464936],[2.3193974,49.0461612],[2.3195559,49.0458393],[2.3196741,49.0449903],[2.3222019,49.0451191],[2.3225299,49.0446178],[2.3225536,49.0445029],[2.3224428,49.0443881],[2.3224569,49.0442531],[2.3226405,49.0442608],[2.322672,49.0439405],[2.3230991,49.0440909],[2.3228984,49.0447593],[2.3225738,49.0449667],[2.3224876,49.0451351],[2.3224875,49.0452775],[2.322591,49.0455266],[2.3222403,49.0463501],[2.3222295,49.0464975],[2.3220583,49.0469342],[2.3221062,49.0469096],[2.3206945,49.0506988]]]]},"properties":{"code_section":"95091000AK","code_commune":"95091","section_courte":"AK"}},{"type":"Feature","geometry":{"type":"MultiPolygon","coordinates":[[[[2.3182643,49.04555],[2.315646,49.0460588],[2.3142788,49.0462238],[2.3138727,49.0461547],[2.3125342,49.0456906],[2.3127437,49.0454189],[2.3124039,49.0452761],[2.3120723,49.0450875],[2.3122888,49.0446812],[2.3130715,49.0441344],[2.3128337,49.0440125],[2.311491,49.0435287],[2.3111403,49.0433148],[2.3109635,49.0431348],[2.3107975,49.0430437],[2.3105826,49.0429826],[2.3102459,49.0429406],[2.3100343,49.042958],[2.3098911,49.0427844],[2.3097807,49.0427214],[2.3096499,49.0427159],[2.3094483,49.0427629],[2.3091983,49.0424711],[2.3095779,49.0423215],[2.3105252,49.0412822],[2.3108128,49.0411381],[2.3110632,49.041073],[2.3113041,49.0410472],[2.312993,49.0411341],[2.314435,49.0412329],[2.3149448,49.0413013],[2.3163601,49.0416085],[2.3172958,49.0418914],[2.318743,49.0424971],[2.3191583,49.0421631],[2.3192748,49.0413822],[2.3210548,49.0428513],[2.3214614,49.0431196],[2.3218609,49.0435693],[2.322672,49.0439405],[2.3226405,49.0442608],[2.3224569,49.0442531],[2.3224428,49.0443881],[2.3225428,49.0444766],[2.3225441,49.0445798],[2.3222019,49.0451191],[2.3196741,49.0449903],[2.3195559,49.0458393],[2.3193974,49.0461612],[2.3191073,49.0464936],[2.3182643,49.04555]]]]},"properties":{"code_section":"95091000AL","code_commune":"95091","section_courte":"AL"}},{"type":"Feature","geometry":{"type":"MultiPolygon","coordinates":[[[[2.3187842,49.0424595],[2.318743,49.0424971],[2.3172958,49.0418914],[2.3163601,49.0416085],[2.3149448,49.0413013],[2.3140755,49.0412022],[2.3115569,49.0410557],[2.3110632,49.041073],[2.3108128,49.0411381],[2.3098848,49.0403688],[2.3102545,49.0400034],[2.3106986,49.0393055],[2.311349,49.0384547],[2.312144,49.0375443],[2.3126031,49.0377628],[2.312651,49.0377281],[2.3131091,49.0380143],[2.3131608,49.0379803],[2.3135171,49.0381441],[2.3146664,49.0388629],[2.3150202,49.0392221],[2.3172319,49.0406057],[2.3175378,49.0407313],[2.3187693,49.0411287],[2.3192748,49.0413822],[2.3191583,49.0421631],[2.3187842,49.0424595]]]]},"properties":{"code_section":"95091000AM","code_commune":"95091","section_courte":"AM"}},{"type":"Feature","geometry":{"type":"MultiPolygon","coordinates":[[[[2.3217922,49.0509086],[2.3206138,49.0506925],[2.3207316,49.0504063],[2.3210712,49.0498101],[2.3221062,49.0469096],[2.3220583,49.0469342],[2.3222295,49.0464975],[2.3222403,49.0463501],[2.322591,49.0455266],[2.3224875,49.0452775],[2.3224876,49.0451351],[2.3225738,49.0449667],[2.3228984,49.0447593],[2.3230991,49.0440909],[2.3243796,49.0445812],[2.3217922,49.0509086]]]]},"properties":{"code_section":"95091000ZA","code_commune":"95091","section_courte":"ZA"}}]}