{"type":"FeatureCollection","features":[{"type":"Feature","geometry":{"type":"MultiPolygon","coordinates":[[[[2.1752858,49.0833801],[2.1781497,49.0805629],[2.1793807,49.079518],[2.1795348,49.0794365],[2.1818554,49.077211],[2.1823105,49.0766996],[2.1835687,49.077103],[2.1844085,49.077414],[2.1850422,49.0778517],[2.1853713,49.0780267],[2.1865273,49.0784759],[2.1883031,49.0771011],[2.1885908,49.077275],[2.1887409,49.0771566],[2.1897475,49.0777952],[2.1896621,49.0778548],[2.1899965,49.0781068],[2.1907029,49.0777636],[2.190888,49.077863],[2.1912884,49.0776231],[2.1923513,49.0788071],[2.1929639,49.0793551],[2.1931319,49.0796112],[2.1936223,49.0799676],[2.1942382,49.0812732],[2.1943417,49.0819226],[2.1945048,49.0824145],[2.1938469,49.0826684],[2.1944535,49.0829339],[2.1940555,49.0832003],[2.1944033,49.0835217],[2.194135,49.0836227],[2.1944295,49.0840333],[2.1945726,49.0840249],[2.1946882,49.0843711],[2.1944447,49.0844226],[2.1948666,49.0856777],[2.1952538,49.0864603],[2.1955516,49.0864141],[2.1956478,49.0867397],[2.1945562,49.0870796],[2.1948703,49.0877757],[2.1950414,49.0882975],[2.1924109,49.0892468],[2.1908951,49.0899732],[2.1891258,49.0887338],[2.1851357,49.0862373],[2.184608,49.0865738],[2.1834273,49.0857618],[2.1823556,49.0862542],[2.181296,49.0868055],[2.1805869,49.0871975],[2.179965,49.0876488],[2.1773989,49.0867067],[2.1763552,49.0880465],[2.1748764,49.0875416],[2.1742999,49.0884524],[2.1734703,49.0881532],[2.1715515,49.0875389],[2.1717147,49.0870312],[2.1719535,49.0866755],[2.1752858,49.0833801]]]]},"properties":{"code_section":"951200000X","code_commune":"95120","section_courte":"X"}},{"type":"Feature","geometry":{"type":"MultiPolygon","coordinates":[[[[2.2028664,49.0838197],[2.2033839,49.0836414],[2.2048828,49.0850967],[2.20541,49.0857149],[2.2060641,49.0866067],[2.2066055,49.0874249],[2.2072358,49.0888421],[2.2083623,49.0910509],[2.2055763,49.0915641],[2.2039385,49.0917859],[2.2013119,49.0923414],[2.200774,49.0920075],[2.2009643,49.0914256],[2.2008014,49.091005],[2.2007761,49.0908094],[2.2005661,49.0903369],[2.199652,49.0899708],[2.1993416,49.0896622],[2.1992135,49.0888834],[2.1989819,49.0883158],[2.1976487,49.085673],[2.1974375,49.0854038],[2.1975665,49.0851332],[2.1974867,49.0848015],[2.1985579,49.0846432],[2.1985484,49.0846237],[2.1988154,49.084577],[2.2003733,49.0843703],[2.2022446,49.0840011],[2.2028664,49.0838197]]]]},"properties":{"code_section":"95120000AB","code_commune":"95120","section_courte":"AB"}},{"type":"Feature","geometry":{"type":"MultiPolygon","coordinates":[[[[2.1990631,49.0785972],[2.1994223,49.0784321],[2.2001115,49.0791486],[2.2008954,49.0802075],[2.2012396,49.0807785],[2.201544,49.0814011],[2.2019203,49.0819617],[2.2033839,49.0836414],[2.2022384,49.0839926],[2.2002228,49.0843948],[2.1988154,49.084577],[2.1985426,49.0846263],[2.1985511,49.0846443],[2.1974867,49.0848015],[2.1974293,49.0846169],[2.1965757,49.0847015],[2.1965876,49.0847474],[2.1962707,49.0847763],[2.1962997,49.0848606],[2.1957562,49.0849289],[2.1959235,49.0852291],[2.1947543,49.0854167],[2.1944521,49.0844299],[2.1947179,49.0843791],[2.194586,49.0840238],[2.1944491,49.0840406],[2.1941592,49.0836292],[2.1944266,49.083537],[2.1941246,49.0831602],[2.1944535,49.0829339],[2.1938469,49.0826684],[2.1944929,49.0824229],[2.1943284,49.0819016],[2.1942325,49.0813036],[2.1936143,49.079983],[2.1946412,49.0796575],[2.1946635,49.079685],[2.1952026,49.079495],[2.1953693,49.0797172],[2.1962453,49.0793949],[2.1962827,49.0794555],[2.1970758,49.0791186],[2.1972151,49.0791894],[2.1975401,49.0794631],[2.1983314,49.0790901],[2.1982519,49.0790266],[2.1990631,49.0785972]]]]},"properties":{"code_section":"95120000AC","code_commune":"95120","section_courte":"AC"}},{"type":"Feature","geometry":{"type":"MultiPolygon","coordinates":[[[[2.1943714,49.0743311],[2.1948888,49.0746098],[2.1956078,49.0750618],[2.1968411,49.0760203],[2.1985301,49.0775182],[2.1994223,49.0784321],[2.1989721,49.078633],[2.1982468,49.0790224],[2.1983224,49.0790829],[2.1975388,49.0794562],[2.19722,49.0791878],[2.1970736,49.079111],[2.1962837,49.0794517],[2.1962464,49.0793918],[2.1953652,49.0797118],[2.1952026,49.079495],[2.1948442,49.0796391],[2.1947953,49.0796074],[2.1936152,49.0799828],[2.1931924,49.0796353],[2.1930083,49.0793549],[2.192369,49.0788038],[2.1913047,49.0776317],[2.1912711,49.0776183],[2.1908887,49.0778599],[2.1905998,49.0776999],[2.1899905,49.078102],[2.1896608,49.0778589],[2.1897385,49.0777933],[2.1887393,49.0771574],[2.1885868,49.0772691],[2.1883067,49.0771064],[2.187627,49.0776139],[2.1870004,49.0772435],[2.1885651,49.0760394],[2.1887409,49.0761362],[2.1893019,49.0756881],[2.1893572,49.0757153],[2.1898263,49.0754255],[2.1899099,49.0754681],[2.1900555,49.0753372],[2.1906066,49.075615],[2.1909695,49.0758597],[2.1912012,49.0757256],[2.1911034,49.0756436],[2.1918917,49.0750707],[2.1919587,49.0751072],[2.191988,49.0750849],[2.1933424,49.0737946],[2.1943714,49.0743311]]]]},"properties":{"code_section":"95120000AD","code_commune":"95120","section_courte":"AD"}},{"type":"Feature","geometry":{"type":"MultiPolygon","coordinates":[[[[2.1964845,49.0926797],[2.1959894,49.0917617],[2.1955749,49.0920222],[2.195015,49.0927208],[2.1947092,49.0927201],[2.19464,49.0926426],[2.1950177,49.091933],[2.19597,49.0910168],[2.1960807,49.090769],[2.1961029,49.0905377],[2.1960561,49.0901994],[2.1958961,49.089782],[2.1957288,49.0895882],[2.1953278,49.0889426],[2.1952561,49.0889569],[2.1948703,49.0877757],[2.1945348,49.0870289],[2.1956339,49.0867722],[2.1955684,49.0864423],[2.1952702,49.086506],[2.1947642,49.0854182],[2.1959235,49.0852291],[2.1957562,49.0849289],[2.1963079,49.0848602],[2.1962771,49.0847742],[2.1965987,49.0847454],[2.1965857,49.0846971],[2.1974283,49.0846091],[2.1975665,49.0851332],[2.1974375,49.0854038],[2.1976487,49.085673],[2.1989819,49.0883158],[2.1992135,49.0888834],[2.1993416,49.0896622],[2.199652,49.0899708],[2.2005661,49.0903369],[2.2007761,49.0908094],[2.2008014,49.091005],[2.2009643,49.0914256],[2.200774,49.0920075],[2.2004597,49.0919245],[2.2001448,49.0919002],[2.1983818,49.0919933],[2.1974658,49.0922368],[2.1964845,49.0926797]]]]},"properties":{"code_section":"95120000AE","code_commune":"95120","section_courte":"AE"}}]}