{"type":"FeatureCollection","features":[{"type":"Feature","geometry":{"type":"MultiPolygon","coordinates":[[[[2.0763676,49.0219061],[2.0763808,49.0219277],[2.0770808,49.0218624],[2.0778287,49.0220802],[2.0786332,49.0221574],[2.0811463,49.0225137],[2.0820366,49.0227535],[2.0826578,49.0230206],[2.0833622,49.0233795],[2.0836136,49.0235721],[2.0851546,49.0249985],[2.0844589,49.0251917],[2.0829847,49.0254628],[2.0806365,49.0261541],[2.0788305,49.0267599],[2.0757145,49.027749],[2.0757271,49.0277708],[2.0742652,49.0281682],[2.0727499,49.0286252],[2.0720207,49.0279503],[2.0717167,49.0281078],[2.0708413,49.0275405],[2.0715278,49.0268733],[2.0704462,49.0263487],[2.0714692,49.0253344],[2.0729148,49.0244439],[2.0736249,49.0240473],[2.0749918,49.0236656],[2.0745836,49.0229027],[2.0746949,49.0228703],[2.0743523,49.0221311],[2.075382,49.021987],[2.076375,49.0219281],[2.0756444,49.0194577],[2.0740514,49.0198099],[2.0710463,49.020811],[2.0701688,49.0211428],[2.0688166,49.0217712],[2.0686582,49.0214056],[2.0677699,49.02071],[2.0679966,49.0205609],[2.0683422,49.0204318],[2.0687431,49.0202036],[2.0691186,49.0200423],[2.0703515,49.019308],[2.070477,49.0192626],[2.0717342,49.0189739],[2.0722699,49.0187464],[2.0727206,49.0186827],[2.0732223,49.0185657],[2.0742269,49.0182682],[2.074925,49.0181494],[2.0754706,49.017992],[2.075823,49.0183431],[2.0759683,49.0183136],[2.0760853,49.0184321],[2.0759625,49.0184784],[2.0763771,49.0188913],[2.0766198,49.0192422],[2.0756491,49.0194566],[2.0763676,49.0219061]]]]},"properties":{"code_section":"951270000K","code_commune":"95127","section_courte":"K"}},{"type":"Feature","geometry":{"type":"MultiPolygon","coordinates":[[[[2.0688166,49.0217712],[2.0671069,49.0231097],[2.0651121,49.0253318],[2.0638974,49.0269535],[2.0633783,49.0274127],[2.0626238,49.0278817],[2.0619862,49.0281596],[2.0609866,49.0284787],[2.0606445,49.0286163],[2.0602573,49.0281042],[2.0598917,49.0274907],[2.0596948,49.0273585],[2.0590939,49.0270813],[2.0605748,49.0262982],[2.0611023,49.0259489],[2.0609316,49.0258708],[2.0617231,49.0251774],[2.0623321,49.024748],[2.0630297,49.0241802],[2.063702,49.0237632],[2.0640696,49.0234222],[2.0648229,49.0229642],[2.065281,49.0224737],[2.06587,49.0220129],[2.0666852,49.0214669],[2.0672898,49.0209953],[2.0677699,49.02071],[2.0686582,49.0214056],[2.0688166,49.0217712]]]]},"properties":{"code_section":"951270000L","code_commune":"95127","section_courte":"L"}},{"type":"Feature","geometry":{"type":"MultiPolygon","coordinates":[[[[2.0518236,49.0268486],[2.0537298,49.0280463],[2.0540373,49.0278356],[2.0563761,49.0292787],[2.05544,49.0301075],[2.0537489,49.0313874],[2.0533663,49.0317469],[2.0532239,49.0318386],[2.0525647,49.0321798],[2.0498271,49.0334231],[2.0476823,49.0342261],[2.0476876,49.0341889],[2.0467889,49.033858],[2.0457138,49.0333721],[2.0447268,49.0325999],[2.0435472,49.0313908],[2.0500842,49.0285184],[2.0493625,49.0279788],[2.049171,49.0278154],[2.0491969,49.0278006],[2.0491403,49.0277467],[2.0504905,49.027023],[2.0508726,49.0263346],[2.0514337,49.0266983],[2.0515099,49.0266509],[2.0518236,49.0268486]]]]},"properties":{"code_section":"951270000N","code_commune":"95127","section_courte":"N"}},{"type":"Feature","geometry":{"type":"MultiPolygon","coordinates":[[[[2.0334065,49.0373266],[2.0338218,49.0375382],[2.0341553,49.0378052],[2.034884,49.0386929],[2.0357401,49.0383086],[2.0357855,49.0382731],[2.0357571,49.038255],[2.0367511,49.0374106],[2.0368599,49.0374956],[2.0370358,49.0374038],[2.0376682,49.0378197],[2.0396011,49.0397641],[2.0407807,49.0404825],[2.0410472,49.0406862],[2.0394559,49.0418528],[2.0394102,49.0418305],[2.0392818,49.0419587],[2.0391187,49.041879],[2.0387279,49.0423449],[2.0383571,49.0422895],[2.0376164,49.0422821],[2.0375165,49.0418995],[2.0370508,49.0417638],[2.0375725,49.0413113],[2.0332656,49.0379619],[2.0325611,49.037743],[2.0314636,49.037564],[2.0307045,49.0375752],[2.0300258,49.0374939],[2.030038,49.0373931],[2.0305066,49.0374103],[2.0306527,49.0368193],[2.0307131,49.0368072],[2.0325711,49.0370568],[2.032695,49.0371406],[2.0330277,49.0372048],[2.0330446,49.0371884],[2.0334065,49.0373266]]]]},"properties":{"code_section":"95127000AC","code_commune":"95127","section_courte":"AC"}},{"type":"Feature","geometry":{"type":"MultiPolygon","coordinates":[[[[2.0400083,49.041422],[2.0410472,49.0406862],[2.0413351,49.0409246],[2.0413873,49.0409071],[2.0423463,49.0398535],[2.0425763,49.039937],[2.0436098,49.0384515],[2.0444792,49.0390902],[2.0465905,49.0405289],[2.048416,49.0411082],[2.0503636,49.0412902],[2.0511483,49.0412985],[2.0516985,49.0412219],[2.0518976,49.0421226],[2.0521228,49.0421337],[2.0522168,49.0425537],[2.0519803,49.0425537],[2.051895,49.0432974],[2.0518946,49.0436582],[2.0501443,49.0437119],[2.0493567,49.0436286],[2.048165,49.0434566],[2.0466223,49.0431099],[2.0459835,49.0429238],[2.0444738,49.0431674],[2.044382,49.0432396],[2.0448823,49.0437663],[2.0449137,49.0440441],[2.0457677,49.0444755],[2.0462472,49.0448504],[2.0464967,49.0451137],[2.0464511,49.0451431],[2.0457483,49.0451139],[2.0456568,49.0450944],[2.0456432,49.0450464],[2.0439441,49.0447207],[2.043864,49.044636],[2.0447126,49.0448015],[2.0448736,49.0445338],[2.0431425,49.0438821],[2.043061,49.0439548],[2.0430364,49.0439453],[2.0431189,49.0438727],[2.0426992,49.0437146],[2.0425409,49.0438962],[2.0414611,49.0435239],[2.0409067,49.0432883],[2.0408184,49.0429015],[2.0407253,49.0428661],[2.0392036,49.0425759],[2.0390811,49.0426831],[2.0389516,49.0426803],[2.0388707,49.0426003],[2.039043,49.0425151],[2.0389435,49.0424726],[2.0389851,49.0424217],[2.0387279,49.0423449],[2.0390841,49.0419527],[2.0390521,49.0419348],[2.0391187,49.041879],[2.0392818,49.0419587],[2.0394102,49.0418305],[2.0394559,49.0418528],[2.0400083,49.041422]]]]},"properties":{"code_section":"95127000AD","code_commune":"95127","section_courte":"AD"}},{"type":"Feature","geometry":{"type":"MultiPolygon","coordinates":[[[[2.048165,49.0434566],[2.0501443,49.0437119],[2.0510679,49.0436986],[2.0525333,49.043613],[2.0534149,49.0433714],[2.0546527,49.0429798],[2.0565858,49.0422494],[2.0570563,49.0421605],[2.0571115,49.0422188],[2.0563067,49.0429956],[2.0552814,49.0442335],[2.0553262,49.0442683],[2.0536808,49.0446768],[2.0528284,49.0448238],[2.052625,49.0445],[2.0525728,49.044566],[2.0524128,49.0446525],[2.0516471,49.0447967],[2.0506652,49.0449271],[2.0500182,49.0448939],[2.0488837,49.0450002],[2.0483769,49.0449423],[2.0470974,49.0449179],[2.0465286,49.0450053],[2.0465352,49.045029],[2.0464114,49.0449973],[2.0459519,49.044603],[2.0456858,49.0444206],[2.0451295,49.0441727],[2.0449137,49.0440441],[2.0448823,49.0437663],[2.044382,49.0432396],[2.0444738,49.0431674],[2.0459835,49.0429238],[2.0466223,49.0431099],[2.048165,49.0434566]]]]},"properties":{"code_section":"95127000AE","code_commune":"95127","section_courte":"AE"}},{"type":"Feature","geometry":{"type":"MultiPolygon","coordinates":[[[[2.0522168,49.0425537],[2.0521228,49.0421337],[2.0518976,49.0421226],[2.0516985,49.0412219],[2.0524017,49.0410871],[2.0533461,49.0406462],[2.0541945,49.0401058],[2.0548184,49.0394866],[2.0555498,49.0385126],[2.0571899,49.0357986],[2.0582482,49.0359283],[2.05825,49.0359716],[2.0599171,49.036176],[2.0609816,49.0363469],[2.061972,49.0363915],[2.0619747,49.0367941],[2.061858,49.0375142],[2.0616547,49.0379799],[2.0609486,49.0390827],[2.0606576,49.0397581],[2.0605155,49.0399606],[2.0601154,49.0403569],[2.0593225,49.0410128],[2.0586897,49.0413307],[2.0581836,49.0416634],[2.0572634,49.0421231],[2.0565858,49.0422494],[2.0546527,49.0429798],[2.0527841,49.0435521],[2.0525333,49.043613],[2.0518946,49.0436582],[2.051895,49.0432974],[2.0519803,49.0425537],[2.0522168,49.0425537]]]]},"properties":{"code_section":"95127000AH","code_commune":"95127","section_courte":"AH"}},{"type":"Feature","geometry":{"type":"MultiPolygon","coordinates":[[[[2.0552335,49.04438],[2.0553262,49.0442683],[2.0552814,49.0442335],[2.0563067,49.0429956],[2.0564879,49.0427892],[2.0570962,49.042256],[2.0571115,49.0422188],[2.0570563,49.0421605],[2.0572634,49.0421231],[2.0573839,49.04207],[2.0581836,49.0416634],[2.0586897,49.0413307],[2.0593225,49.0410128],[2.0600222,49.0404424],[2.0603693,49.0400967],[2.0615519,49.0407253],[2.062292,49.041234],[2.06273,49.041635],[2.0627829,49.0417045],[2.0625484,49.042084],[2.0623825,49.0422296],[2.0624053,49.0422665],[2.0618949,49.0426197],[2.0614608,49.0428046],[2.0552335,49.04438]]]]},"properties":{"code_section":"95127000AI","code_commune":"95127","section_courte":"AI"}},{"type":"Feature","geometry":{"type":"MultiPolygon","coordinates":[[[[2.0641873,49.0388228],[2.0640891,49.0390895],[2.063239,49.0407365],[2.063201,49.0407433],[2.06273,49.041635],[2.062292,49.041234],[2.0615519,49.0407253],[2.0603693,49.0400967],[2.0606576,49.0397581],[2.0609486,49.0390827],[2.0616547,49.0379799],[2.061858,49.0375142],[2.0619747,49.0367941],[2.061942,49.0360528],[2.0627052,49.0362274],[2.0632447,49.0353491],[2.0637838,49.0347674],[2.064027,49.0348563],[2.0647611,49.0341333],[2.066132,49.0331693],[2.0667461,49.0334534],[2.0672274,49.0337796],[2.0683502,49.0346209],[2.0683214,49.034626],[2.0684679,49.0347435],[2.0695115,49.0354977],[2.0693613,49.0354415],[2.0690989,49.0356145],[2.0691628,49.0356752],[2.0691675,49.0358543],[2.0688773,49.03619],[2.0686691,49.0362476],[2.0687521,49.0363238],[2.0681075,49.037118],[2.0678171,49.0371713],[2.0660222,49.0366179],[2.0657216,49.0366227],[2.0654014,49.0367229],[2.0650087,49.036936],[2.0648857,49.0370537],[2.0643787,49.0381026],[2.0641873,49.0388228]]]]},"properties":{"code_section":"95127000AK","code_commune":"95127","section_courte":"AK"}},{"type":"Feature","geometry":{"type":"MultiPolygon","coordinates":[[[[2.0598015,49.0320468],[2.0601806,49.0321323],[2.0603685,49.0322068],[2.0604053,49.0321729],[2.060953,49.0324913],[2.0613193,49.0325359],[2.0620529,49.0324123],[2.0624807,49.0322767],[2.0626494,49.0321979],[2.062622,49.0321735],[2.062745,49.032114],[2.063052,49.0317945],[2.0639845,49.0321842],[2.064174,49.032069],[2.064233,49.0321028],[2.0641828,49.0321471],[2.0642413,49.0322567],[2.0645884,49.0323868],[2.0646843,49.0323206],[2.066185,49.0331335],[2.0647611,49.0341333],[2.064027,49.0348563],[2.0637838,49.0347674],[2.0632447,49.0353491],[2.0627052,49.0362274],[2.0619877,49.0360467],[2.061942,49.0360528],[2.061972,49.0363915],[2.0612385,49.0363715],[2.0599171,49.036176],[2.05825,49.0359716],[2.0582482,49.0359283],[2.0571899,49.0357986],[2.0574593,49.0353333],[2.0580183,49.033756],[2.0587104,49.0324481],[2.0591442,49.0318454],[2.0596463,49.0319629],[2.0598015,49.0320468]]]]},"properties":{"code_section":"95127000AL","code_commune":"95127","section_courte":"AL"}},{"type":"Feature","geometry":{"type":"MultiPolygon","coordinates":[[[[2.0514337,49.0266983],[2.0508726,49.0263346],[2.0528839,49.0251311],[2.0542622,49.0243829],[2.0557475,49.02363],[2.0564072,49.0233823],[2.0563371,49.0231346],[2.0578014,49.0227531],[2.0580021,49.0230374],[2.0581538,49.0234745],[2.0583377,49.0237255],[2.0585231,49.0238917],[2.058663,49.0241267],[2.0589198,49.0242973],[2.0588254,49.0243698],[2.0592205,49.0247506],[2.0591665,49.0248238],[2.0591913,49.0248595],[2.0598939,49.0253904],[2.0611023,49.0259489],[2.0605748,49.0262982],[2.0590939,49.0270813],[2.0596948,49.0273585],[2.0598917,49.0274907],[2.0602573,49.0281042],[2.0606445,49.0286163],[2.0604819,49.02885],[2.0598326,49.0293784],[2.0596447,49.0298313],[2.0594414,49.0305507],[2.0591442,49.0318454],[2.0587104,49.0324481],[2.0583069,49.0322726],[2.0582197,49.0318528],[2.05795,49.0312199],[2.0579651,49.0310812],[2.0569666,49.0290428],[2.0568156,49.0289101],[2.0563761,49.0292787],[2.0540373,49.0278356],[2.0537298,49.0280463],[2.0515099,49.0266509],[2.0514337,49.0266983]]]]},"properties":{"code_section":"95127000AM","code_commune":"95127","section_courte":"AM"}},{"type":"Feature","geometry":{"type":"MultiPolygon","coordinates":[[[[2.0376589,49.0369438],[2.03977,49.0355887],[2.040951,49.036825],[2.0413729,49.0371665],[2.0420731,49.0376261],[2.0436098,49.0384515],[2.0425763,49.039937],[2.0423463,49.0398535],[2.0413873,49.0409071],[2.0413351,49.0409246],[2.0408169,49.0405064],[2.0396011,49.0397641],[2.0376682,49.0378197],[2.0370358,49.0374038],[2.0370709,49.0373844],[2.0370317,49.0373462],[2.0376589,49.0369438]]]]},"properties":{"code_section":"95127000AN","code_commune":"95127","section_courte":"AN"}},{"type":"Feature","geometry":{"type":"MultiPolygon","coordinates":[[[[2.0707777,49.0426961],[2.0712493,49.0428916],[2.0714692,49.0426387],[2.0716192,49.042685],[2.0713625,49.0429803],[2.0717691,49.043217],[2.0720548,49.0431626],[2.0731713,49.0435279],[2.0733066,49.04343],[2.0758805,49.044562],[2.0721962,49.04716],[2.0716914,49.0470868],[2.0698195,49.0463652],[2.0691178,49.0461276],[2.0688367,49.0459576],[2.0687197,49.0459449],[2.0686636,49.0459069],[2.0676916,49.0462884],[2.0668637,49.0465302],[2.0659145,49.0467322],[2.0650878,49.0468096],[2.0644258,49.0468202],[2.063706,49.0469449],[2.0629773,49.0470285],[2.0627897,49.0464778],[2.0625162,49.0464726],[2.0619623,49.0455901],[2.0624915,49.0454464],[2.0624358,49.0451843],[2.0633455,49.0449375],[2.0646544,49.0442731],[2.0645636,49.0436634],[2.0656508,49.0435304],[2.065627,49.0435042],[2.0657979,49.0434575],[2.0657804,49.0434963],[2.066521,49.0432788],[2.0685233,49.0422753],[2.0689063,49.0421908],[2.0693082,49.0422258],[2.0699626,49.0424497],[2.0699959,49.0425127],[2.0702396,49.0425338],[2.0707777,49.0426961]]]]},"properties":{"code_section":"95127000AS","code_commune":"95127","section_courte":"AS"}},{"type":"Feature","geometry":{"type":"MultiPolygon","coordinates":[[[[2.061397,49.0428251],[2.0618949,49.0426197],[2.0624053,49.0422665],[2.0623825,49.0422296],[2.0625484,49.042084],[2.0627829,49.0417045],[2.06273,49.041635],[2.063201,49.0407433],[2.064243,49.0416142],[2.0647045,49.0421481],[2.0639432,49.0422065],[2.064572,49.0429786],[2.0649075,49.042847],[2.0649316,49.0428746],[2.065011,49.0428455],[2.065187,49.043041],[2.0650998,49.0430729],[2.0654625,49.0434967],[2.0655792,49.0434515],[2.0656508,49.0435304],[2.0645636,49.0436634],[2.0646544,49.0442731],[2.0633455,49.0449375],[2.0624358,49.0451843],[2.0624915,49.0454464],[2.0619623,49.0455901],[2.0625162,49.0464726],[2.0627897,49.0464778],[2.0630658,49.0473839],[2.0629958,49.0474278],[2.0579982,49.0474319],[2.0573606,49.0474973],[2.0572874,49.0474551],[2.0558199,49.047597],[2.0557584,49.0473415],[2.0559343,49.0473263],[2.0558386,49.0470267],[2.0556083,49.0469133],[2.055469,49.0462372],[2.0553387,49.0458835],[2.0549508,49.0454744],[2.0542359,49.0449622],[2.0542459,49.0448427],[2.0548379,49.0445941],[2.0550501,49.0445409],[2.0552335,49.04438],[2.0554163,49.044323],[2.061397,49.0428251]]]]},"properties":{"code_section":"95127000AT","code_commune":"95127","section_courte":"AT"}},{"type":"Feature","geometry":{"type":"MultiPolygon","coordinates":[[[[2.0695115,49.0354977],[2.0699438,49.0356749],[2.0705513,49.0360928],[2.0716264,49.036734],[2.072415,49.0371169],[2.0735084,49.0374814],[2.0733632,49.0375848],[2.0734031,49.0375965],[2.0733696,49.0376417],[2.0735313,49.037692],[2.0733051,49.0378653],[2.0731833,49.0378229],[2.0729594,49.0378707],[2.0726794,49.0381964],[2.0719437,49.0387607],[2.0714515,49.0390288],[2.0710322,49.0391827],[2.0711753,49.0392542],[2.0708422,49.0392588],[2.0698077,49.039673],[2.069521,49.0399193],[2.0690741,49.0416748],[2.069313,49.0419771],[2.0689893,49.0421981],[2.0689063,49.0421908],[2.0685233,49.0422753],[2.066521,49.0432788],[2.0657804,49.0434963],[2.0657979,49.0434575],[2.065627,49.0435042],[2.0655792,49.0434515],[2.0654625,49.0434967],[2.0650998,49.0430729],[2.065187,49.043041],[2.065011,49.0428455],[2.0649316,49.0428746],[2.0649075,49.042847],[2.064572,49.0429786],[2.0639618,49.0422438],[2.0639432,49.0422065],[2.0647045,49.0421481],[2.064243,49.0416142],[2.063201,49.0407433],[2.063239,49.0407365],[2.0641444,49.0389728],[2.0643727,49.0381179],[2.0648857,49.0370537],[2.0650087,49.036936],[2.0654014,49.0367229],[2.0657216,49.0366227],[2.0660222,49.0366179],[2.0678171,49.0371713],[2.0681075,49.037118],[2.0687521,49.0363238],[2.0686691,49.0362476],[2.0688773,49.03619],[2.0691675,49.0358543],[2.0691628,49.0356752],[2.0690989,49.0356145],[2.0693613,49.0354415],[2.0695115,49.0354977]]]]},"properties":{"code_section":"95127000AV","code_commune":"95127","section_courte":"AV"}},{"type":"Feature","geometry":{"type":"MultiPolygon","coordinates":[[[[2.0717691,49.043217],[2.0713625,49.0429803],[2.0716192,49.042685],[2.0714692,49.0426387],[2.0712493,49.0428916],[2.0707777,49.0426961],[2.0702396,49.0425338],[2.0699959,49.0425127],[2.0699626,49.0424497],[2.0693082,49.0422258],[2.0689893,49.0421981],[2.069313,49.0419771],[2.0690741,49.0416748],[2.069521,49.0399193],[2.0698077,49.039673],[2.0708422,49.0392588],[2.0711753,49.0392542],[2.0710322,49.0391827],[2.0714515,49.0390288],[2.0719437,49.0387607],[2.0726794,49.0381964],[2.0729594,49.0378707],[2.0731833,49.0378229],[2.0733051,49.0378653],[2.0735244,49.0377034],[2.0733696,49.0376417],[2.0734031,49.0375965],[2.0733632,49.0375848],[2.0735084,49.0374814],[2.075644,49.0382075],[2.0765108,49.0384423],[2.0764618,49.0384856],[2.0767625,49.0385585],[2.0768231,49.0385187],[2.0770949,49.0385861],[2.0770437,49.0386265],[2.0777229,49.0387901],[2.077747,49.0387483],[2.0786839,49.0389811],[2.0787915,49.039048],[2.0788136,49.0390327],[2.0804274,49.0400063],[2.0803062,49.0400921],[2.0803099,49.0403949],[2.0805266,49.040522],[2.080792,49.0405892],[2.0816469,49.0410086],[2.0792569,49.0423503],[2.0758805,49.044562],[2.0733066,49.04343],[2.0731713,49.0435279],[2.0720548,49.0431626],[2.0717691,49.043217]]]]},"properties":{"code_section":"95127000AW","code_commune":"95127","section_courte":"AW"}},{"type":"Feature","geometry":{"type":"MultiPolygon","coordinates":[[[[2.0792314,49.0351595],[2.0805997,49.0342178],[2.0804669,49.0341348],[2.0813014,49.0335577],[2.0819361,49.0338658],[2.0822907,49.0340915],[2.0827594,49.0344567],[2.0830382,49.034446],[2.082671,49.0346972],[2.0875499,49.0385005],[2.0854288,49.0393119],[2.0841007,49.039857],[2.0816469,49.0410086],[2.080792,49.0405892],[2.0805266,49.040522],[2.0803099,49.0403949],[2.0803062,49.0400921],[2.0804274,49.0400063],[2.0788136,49.0390327],[2.0787915,49.039048],[2.0786839,49.0389811],[2.077747,49.0387483],[2.0777229,49.0387901],[2.0770437,49.0386265],[2.0770949,49.0385861],[2.0768231,49.0385187],[2.0767625,49.0385585],[2.0764618,49.0384856],[2.0765567,49.0383782],[2.0770253,49.0380442],[2.0761136,49.0374373],[2.076112,49.0373294],[2.0764367,49.0371022],[2.0764628,49.0371185],[2.0765329,49.0370699],[2.0763407,49.0369501],[2.0773031,49.0362841],[2.0774632,49.036384],[2.0792314,49.0351595]]]]},"properties":{"code_section":"95127000AX","code_commune":"95127","section_courte":"AX"}},{"type":"Feature","geometry":{"type":"MultiPolygon","coordinates":[[[[2.0705513,49.0360928],[2.0699438,49.0356749],[2.0695125,49.0354985],[2.0697407,49.0355187],[2.0702233,49.035218],[2.0712951,49.0341327],[2.0714473,49.0340302],[2.0716846,49.0338817],[2.0729634,49.0332742],[2.073323,49.0330624],[2.0735849,49.0328344],[2.0735213,49.0327581],[2.0739322,49.0320945],[2.07388,49.0319479],[2.07417,49.0315883],[2.0743557,49.031634],[2.0743689,49.0316112],[2.0747334,49.0317276],[2.0747165,49.031757],[2.076429,49.0321805],[2.0764469,49.0321481],[2.0794069,49.0328752],[2.0804115,49.0331849],[2.0813014,49.0335577],[2.0804669,49.0341348],[2.0805997,49.0342178],[2.0801156,49.0345546],[2.0800938,49.0345409],[2.0774632,49.036384],[2.0773031,49.0362841],[2.0763407,49.0369501],[2.0765329,49.0370699],[2.0764628,49.0371185],[2.0764367,49.0371022],[2.0761118,49.0373294],[2.0761136,49.0374372],[2.0770253,49.0380442],[2.0765567,49.0383782],[2.0765108,49.0384423],[2.075644,49.0382075],[2.072415,49.0371169],[2.0716264,49.036734],[2.0705513,49.0360928]]]]},"properties":{"code_section":"95127000AY","code_commune":"95127","section_courte":"AY"}},{"type":"Feature","geometry":{"type":"MultiPolygon","coordinates":[[[[2.0662165,49.0332078],[2.066132,49.0331693],[2.0683593,49.0317427],[2.0681924,49.0315687],[2.069624,49.0307079],[2.0692962,49.0303406],[2.0695214,49.0301433],[2.0690975,49.0299309],[2.0695524,49.0297551],[2.0711549,49.0305584],[2.0719343,49.0309021],[2.0723407,49.0310533],[2.0732982,49.0313422],[2.0732956,49.0314046],[2.0741507,49.0316185],[2.07388,49.0319479],[2.0739322,49.0320945],[2.0735213,49.0327581],[2.0735807,49.0328382],[2.0733125,49.0330699],[2.0729634,49.0332742],[2.0716846,49.0338817],[2.0713064,49.0341222],[2.0703107,49.035146],[2.0697407,49.0355187],[2.0695125,49.0354985],[2.0684679,49.0347435],[2.0683214,49.034626],[2.0683502,49.0346209],[2.0674092,49.0339055],[2.0667461,49.0334534],[2.0662165,49.0332078]]]]},"properties":{"code_section":"95127000AZ","code_commune":"95127","section_courte":"AZ"}},{"type":"Feature","geometry":{"type":"MultiPolygon","coordinates":[[[[2.0641543,49.0320874],[2.0639845,49.0321842],[2.063052,49.0317945],[2.062745,49.032114],[2.062622,49.0321735],[2.0626494,49.0321979],[2.0624807,49.0322767],[2.0620529,49.0324123],[2.0613193,49.0325359],[2.060953,49.0324913],[2.0604053,49.0321729],[2.0603685,49.0322068],[2.0601806,49.0321323],[2.0598015,49.0320468],[2.0596464,49.0319629],[2.0591442,49.0318454],[2.0594414,49.0305507],[2.0596447,49.0298313],[2.0598326,49.0293784],[2.0604819,49.02885],[2.0606445,49.0286163],[2.0609866,49.0284787],[2.0619862,49.0281596],[2.0626238,49.0278817],[2.0633783,49.0274127],[2.0638974,49.0269535],[2.0641273,49.0266708],[2.0649495,49.027035],[2.0648602,49.0271635],[2.0679145,49.0286635],[2.0683388,49.0290033],[2.06946,49.0297937],[2.0690975,49.0299309],[2.0695214,49.0301433],[2.0692962,49.0303406],[2.069624,49.0307079],[2.0681924,49.0315687],[2.0683593,49.0317427],[2.066185,49.0331335],[2.0646843,49.0323206],[2.0645884,49.0323868],[2.0642413,49.0322567],[2.0641828,49.0321471],[2.064233,49.0321028],[2.064174,49.032069],[2.0641543,49.0320874]]]]},"properties":{"code_section":"95127000BA","code_commune":"95127","section_courte":"BA"}},{"type":"Feature","geometry":{"type":"MultiPolygon","coordinates":[[[[2.0708454,49.0275106],[2.0708413,49.0275405],[2.0717167,49.0281078],[2.0720207,49.0279503],[2.0727499,49.0286252],[2.0742652,49.0281682],[2.0757271,49.0277708],[2.0758205,49.0277998],[2.0763086,49.0287942],[2.0767292,49.0298091],[2.0766797,49.0298212],[2.0770569,49.030559],[2.0769213,49.0307983],[2.0770023,49.0308183],[2.0769921,49.0308363],[2.0779611,49.0310544],[2.0783451,49.0310636],[2.0788438,49.0309348],[2.0790044,49.031142],[2.0785539,49.0312426],[2.0779532,49.0312221],[2.0768074,49.0309582],[2.076679,49.0311834],[2.076777,49.031572],[2.0766882,49.031616],[2.0766926,49.0316662],[2.0767633,49.0317212],[2.0765883,49.032028],[2.0765244,49.0320121],[2.076429,49.0321805],[2.0747165,49.031757],[2.0747334,49.0317276],[2.0743689,49.0316112],[2.0743557,49.031634],[2.07417,49.0315883],[2.0741507,49.0316185],[2.0732956,49.0314046],[2.0732982,49.0313422],[2.0723407,49.0310533],[2.0715216,49.0307277],[2.0695524,49.0297551],[2.06946,49.0297937],[2.0683388,49.0290033],[2.0679145,49.0286635],[2.0693629,49.0276694],[2.0697444,49.0270422],[2.0704462,49.0263487],[2.0715278,49.0268733],[2.0708454,49.0275106]]]]},"properties":{"code_section":"95127000BD","code_commune":"95127","section_courte":"BD"}},{"type":"Feature","geometry":{"type":"MultiPolygon","coordinates":[[[[2.0769056,49.030978],[2.0779532,49.0312221],[2.0785539,49.0312426],[2.0790044,49.031142],[2.0794703,49.030938],[2.0802042,49.0305305],[2.0806731,49.0304219],[2.0809967,49.03041],[2.0814055,49.0304379],[2.0822768,49.0308116],[2.0828224,49.0309617],[2.0831803,49.0310184],[2.0835292,49.0308534],[2.0836945,49.0308489],[2.083702,49.0310782],[2.0839144,49.0313925],[2.0842144,49.0322698],[2.0844553,49.0325905],[2.0847263,49.0327984],[2.085083,49.0329994],[2.0837787,49.0339538],[2.0830382,49.034446],[2.0827594,49.0344567],[2.0822907,49.0340915],[2.0819361,49.0338658],[2.0815497,49.0336654],[2.0806145,49.0332589],[2.0794069,49.0328752],[2.0764469,49.0321481],[2.0765244,49.0320121],[2.0765883,49.032028],[2.0767633,49.0317212],[2.0766926,49.0316662],[2.0766882,49.031616],[2.076777,49.031572],[2.076679,49.0311834],[2.0768074,49.0309582],[2.0769056,49.030978]]]]},"properties":{"code_section":"95127000BE","code_commune":"95127","section_courte":"BE"}},{"type":"Feature","geometry":{"type":"MultiPolygon","coordinates":[[[[2.0877197,49.0269896],[2.0887752,49.0278441],[2.0892757,49.0285005],[2.0893598,49.0286616],[2.0887644,49.0288188],[2.0878254,49.0288673],[2.0873781,49.0290212],[2.0871044,49.0288154],[2.0868774,49.0286943],[2.0866417,49.0286034],[2.086259,49.0285357],[2.0859418,49.028512],[2.085524,49.0285502],[2.0851306,49.0286381],[2.0848316,49.0287874],[2.0845668,49.0289775],[2.0844131,49.0291706],[2.0841103,49.0302426],[2.0840518,49.0303636],[2.0837607,49.030686],[2.0836945,49.0308489],[2.0835292,49.0308534],[2.0831803,49.0310184],[2.0828224,49.0309617],[2.0822768,49.0308116],[2.0814055,49.0304379],[2.0809967,49.03041],[2.0806731,49.0304219],[2.0802042,49.0305305],[2.0794703,49.030938],[2.0790044,49.031142],[2.0788438,49.0309348],[2.0783451,49.0310636],[2.0779611,49.0310544],[2.0769921,49.0308363],[2.0770023,49.0308183],[2.0769213,49.0307983],[2.0770569,49.030559],[2.0766797,49.0298212],[2.0767292,49.0298091],[2.0761272,49.028405],[2.0758205,49.0277998],[2.0757145,49.027749],[2.0788305,49.0267599],[2.0806365,49.0261541],[2.0829847,49.0254628],[2.0846884,49.0251419],[2.0847105,49.0251868],[2.0853635,49.0255461],[2.0858196,49.0256659],[2.0857903,49.025709],[2.0860373,49.025773],[2.0863792,49.025928],[2.0877197,49.0269896]]]]},"properties":{"code_section":"95127000BH","code_commune":"95127","section_courte":"BH"}},{"type":"Feature","geometry":{"type":"MultiPolygon","coordinates":[[[[2.013475,49.0467453],[2.0155037,49.0454745],[2.015433,49.0454257],[2.0157003,49.0452581],[2.0157712,49.045307],[2.016197,49.0450402],[2.0161261,49.0449914],[2.0163934,49.0448238],[2.0164643,49.0448727],[2.0168902,49.0446059],[2.0168193,49.0445571],[2.0170867,49.0443896],[2.0171576,49.0444384],[2.0175675,49.0441816],[2.0174968,49.0441327],[2.017539,49.0441062],[2.0177641,49.0439652],[2.0178348,49.044014],[2.0182327,49.0437649],[2.0181618,49.043716],[2.0182609,49.0436539],[2.0190844,49.0445013],[2.0199672,49.0452883],[2.0221063,49.0467288],[2.0219976,49.0468918],[2.0219628,49.0470683],[2.0156389,49.0476949],[2.0157935,49.0478859],[2.0156082,49.0482395],[2.0152565,49.0480066],[2.0153316,49.0479125],[2.0153472,49.0478194],[2.0152341,49.0476504],[2.0149823,49.0475687],[2.0147287,49.0476057],[2.013475,49.0467453]]]]},"properties":{"code_section":"95127000CP","code_commune":"95127","section_courte":"CP"}},{"type":"Feature","geometry":{"type":"MultiPolygon","coordinates":[[[[2.0478546,49.0513201],[2.0475041,49.051907],[2.0474278,49.0522398],[2.0474218,49.0529824],[2.0464198,49.0530951],[2.0463835,49.0524966],[2.0461268,49.052452],[2.0459114,49.0523503],[2.0457521,49.0522059],[2.0452741,49.0522535],[2.0452601,49.05223],[2.0455724,49.0519837],[2.0455574,49.0519524],[2.0457112,49.0519372],[2.0459106,49.0518437],[2.0460832,49.0516082],[2.0451234,49.0501426],[2.0448885,49.0496929],[2.0446836,49.0491511],[2.04462,49.0488085],[2.0449914,49.0487515],[2.0449468,49.0485574],[2.0451322,49.0484789],[2.0452905,49.0483575],[2.0468141,49.0482611],[2.0519249,49.0477109],[2.0557584,49.0473415],[2.0558156,49.0475914],[2.0555455,49.0477485],[2.0528206,49.0480521],[2.0500703,49.0482755],[2.0484716,49.0502951],[2.0478546,49.0513201]]]]},"properties":{"code_section":"95127000CV","code_commune":"95127","section_courte":"CV"}},{"type":"Feature","geometry":{"type":"MultiPolygon","coordinates":[[[[2.0453076,49.0459923],[2.045951,49.0454187],[2.0457013,49.0453001],[2.0456568,49.0450944],[2.0459675,49.0451315],[2.0464511,49.0451431],[2.0464967,49.0451137],[2.0463764,49.0449974],[2.0465352,49.045029],[2.0465286,49.0450053],[2.0470974,49.0449179],[2.0483769,49.0449423],[2.0488837,49.0450002],[2.0500182,49.0448939],[2.0506652,49.0449271],[2.0516471,49.0447967],[2.0524128,49.0446525],[2.0525728,49.044566],[2.052625,49.0445],[2.0528284,49.0448238],[2.0536808,49.0446768],[2.0553262,49.0442683],[2.0550501,49.0445409],[2.0548379,49.0445941],[2.0542459,49.0448427],[2.0542359,49.0449622],[2.0549508,49.0454744],[2.0553387,49.0458835],[2.055469,49.0462372],[2.0556083,49.0469133],[2.0558386,49.0470267],[2.0559343,49.0473263],[2.0519249,49.0477109],[2.0468141,49.0482611],[2.0452905,49.0483575],[2.0451322,49.0484789],[2.044313,49.0485651],[2.044068,49.04846],[2.0439533,49.0483579],[2.0438508,49.048115],[2.0441305,49.0477411],[2.0442485,49.0476754],[2.0445858,49.047597],[2.044516,49.0472934],[2.0447139,49.0472737],[2.0447045,49.0472323],[2.0448525,49.0472176],[2.0446904,49.046513],[2.0448001,49.0465008],[2.0450454,49.0462819],[2.0452537,49.0461497],[2.0453795,49.0460374],[2.0453076,49.0459923]]]]},"properties":{"code_section":"95127000CW","code_commune":"95127","section_courte":"CW"}},{"type":"Feature","geometry":{"type":"MultiPolygon","coordinates":[[[[2.0372351,49.0495661],[2.037005,49.0485646],[2.0371199,49.048461],[2.0392567,49.0482488],[2.0394128,49.0483242],[2.0392002,49.0474059],[2.0390184,49.0473179],[2.0390093,49.0472718],[2.039261,49.0470461],[2.0393342,49.0470798],[2.0400438,49.0464469],[2.0405836,49.0467084],[2.0407742,49.0465394],[2.0426492,49.0474493],[2.0425364,49.0475435],[2.043252,49.0478904],[2.0438508,49.048115],[2.0439533,49.0483579],[2.044068,49.04846],[2.0442401,49.048538],[2.044313,49.0485651],[2.0451322,49.0484789],[2.0449468,49.0485574],[2.0449914,49.0487515],[2.04462,49.0488085],[2.0446091,49.0488338],[2.0447936,49.0494635],[2.0451234,49.0501426],[2.0450381,49.0502407],[2.037982,49.0509399],[2.0377921,49.0508711],[2.037434,49.0502957],[2.0372351,49.0495661]]]]},"properties":{"code_section":"95127000CX","code_commune":"95127","section_courte":"CX"}},{"type":"Feature","geometry":{"type":"MultiPolygon","coordinates":[[[[2.0430364,49.0439453],[2.0431425,49.0438821],[2.0448736,49.0445338],[2.0447126,49.0448015],[2.043864,49.044636],[2.0439441,49.0447207],[2.0456432,49.0450464],[2.0457013,49.0453001],[2.045951,49.0454187],[2.0453001,49.0459991],[2.0453795,49.0460374],[2.0452537,49.0461497],[2.0450454,49.0462819],[2.0448001,49.0465008],[2.0446904,49.046513],[2.0448525,49.0472176],[2.0447045,49.0472323],[2.0447139,49.0472737],[2.044516,49.0472934],[2.0445858,49.047597],[2.0442485,49.0476754],[2.0441305,49.0477411],[2.0438508,49.048115],[2.043252,49.0478904],[2.0425364,49.0475435],[2.0426492,49.0474493],[2.0407742,49.0465394],[2.0405836,49.0467084],[2.0377028,49.0453117],[2.0376799,49.0452117],[2.037343,49.0450482],[2.0376727,49.0449775],[2.037837,49.044802],[2.035086,49.0434733],[2.0370508,49.0417638],[2.0375165,49.0418995],[2.0376164,49.0422821],[2.038554,49.0423094],[2.0389851,49.0424217],[2.0389435,49.0424726],[2.039043,49.0425151],[2.0388707,49.0426003],[2.0389516,49.0426803],[2.0390811,49.0426831],[2.0392036,49.0425759],[2.0407253,49.0428661],[2.0408184,49.0429015],[2.0409067,49.0432883],[2.0414611,49.0435239],[2.0425409,49.0438962],[2.0426992,49.0437146],[2.0431189,49.0438727],[2.0430364,49.0439453]]]]},"properties":{"code_section":"95127000CY","code_commune":"95127","section_courte":"CY"}},{"type":"Feature","geometry":{"type":"MultiPolygon","coordinates":[[[[2.030612,49.0454898],[2.0318791,49.0443257],[2.0318182,49.0442968],[2.0330971,49.0431569],[2.0333839,49.0431284],[2.0337522,49.0428267],[2.037837,49.044802],[2.0376727,49.0449775],[2.037343,49.0450482],[2.0376799,49.0452117],[2.0377028,49.0453117],[2.0400438,49.0464469],[2.0393342,49.0470798],[2.039261,49.0470461],[2.0390093,49.0472718],[2.0390184,49.0473179],[2.0392002,49.0474059],[2.0394128,49.0483242],[2.0392567,49.0482488],[2.0371199,49.048461],[2.037005,49.0485646],[2.0366894,49.0485825],[2.036541,49.0485144],[2.035663,49.0485973],[2.0355775,49.0486779],[2.0353479,49.0487007],[2.0352208,49.0486401],[2.0334331,49.0488182],[2.0330408,49.0487116],[2.0328614,49.0487294],[2.0328524,49.0486987],[2.0328029,49.0486974],[2.0327892,49.0486437],[2.0326414,49.0486047],[2.0326553,49.048659],[2.032482,49.0488124],[2.0316913,49.0488915],[2.0314731,49.0487857],[2.0311642,49.0487979],[2.0308434,49.0473997],[2.030473,49.0472203],[2.0305787,49.0471262],[2.0294707,49.046589],[2.030612,49.0454898]]]]},"properties":{"code_section":"95127000CZ","code_commune":"95127","section_courte":"CZ"}},{"type":"Feature","geometry":{"type":"MultiPolygon","coordinates":[[[[2.0282497,49.0491647],[2.0296112,49.0492065],[2.0310861,49.0490602],[2.031242,49.0491359],[2.0321106,49.0529154],[2.0318757,49.0530503],[2.0317353,49.0531789],[2.0316574,49.0533496],[2.0316718,49.0536047],[2.0319435,49.0537828],[2.0322708,49.0539133],[2.0324323,49.0556272],[2.0295374,49.0557452],[2.0291153,49.0557963],[2.0287188,49.055904],[2.0283649,49.0560633],[2.0280475,49.0562865],[2.0279067,49.0564686],[2.0261521,49.0556876],[2.0257015,49.05545],[2.0251521,49.0550392],[2.0247743,49.0546032],[2.0245226,49.0540688],[2.0252763,49.0540046],[2.0251015,49.0538462],[2.0249234,49.053752],[2.0247116,49.0536979],[2.0246376,49.0536373],[2.0245622,49.0533088],[2.0246434,49.0533007],[2.0244658,49.0525272],[2.0245692,49.0524351],[2.0245326,49.052275],[2.0243924,49.052207],[2.0240781,49.0508378],[2.0235892,49.0508869],[2.0235079,49.0505274],[2.0239972,49.0504854],[2.0238092,49.0496659],[2.0239124,49.0495738],[2.0241595,49.0495494],[2.0256125,49.0492454],[2.0264915,49.0491376],[2.0271635,49.0491126],[2.0282497,49.0491647]]]]},"properties":{"code_section":"95127000DK","code_commune":"95127","section_courte":"DK"}},{"type":"Feature","geometry":{"type":"MultiPolygon","coordinates":[[[[2.0301384,49.0469127],[2.0305787,49.0471262],[2.030473,49.0472203],[2.0308434,49.0473997],[2.031242,49.0491359],[2.0310861,49.0490602],[2.0296112,49.0492065],[2.0292926,49.0492147],[2.0268263,49.0491108],[2.0253162,49.0492981],[2.0241595,49.0495494],[2.0239124,49.0495738],[2.0238092,49.0496659],[2.0235832,49.0485006],[2.0235242,49.048425],[2.0233364,49.047607],[2.0236838,49.0474158],[2.023846,49.0472345],[2.0238744,49.0469747],[2.0238268,49.0468461],[2.0234732,49.0465459],[2.025943,49.0449984],[2.0263648,49.0446724],[2.0286405,49.0432458],[2.0287093,49.0429926],[2.0291064,49.0428644],[2.0294543,49.0429836],[2.0329135,49.0426403],[2.0330904,49.0425645],[2.033388,49.042535],[2.0336303,49.0426526],[2.0337522,49.0428267],[2.0333839,49.0431284],[2.0330971,49.0431569],[2.0318182,49.0442968],[2.0318791,49.0443257],[2.030764,49.0453349],[2.0294707,49.046589],[2.0301384,49.0469127]]]]},"properties":{"code_section":"95127000DS","code_commune":"95127","section_courte":"DS"}},{"type":"Feature","geometry":{"type":"MultiPolygon","coordinates":[[[[2.0338264,49.0487775],[2.0352208,49.0486401],[2.0353479,49.0487007],[2.0355775,49.0486779],[2.035663,49.0485973],[2.036541,49.0485144],[2.0366894,49.0485825],[2.037005,49.0485646],[2.0373469,49.0500527],[2.0375286,49.0504696],[2.0387423,49.0523128],[2.0391527,49.052403],[2.0395185,49.0525523],[2.0395266,49.0525833],[2.0377244,49.0527506],[2.0378004,49.0529956],[2.0382159,49.0529545],[2.0386758,49.0531487],[2.0391097,49.0531683],[2.040767,49.0547707],[2.0394476,49.0551421],[2.0387609,49.0552821],[2.0379423,49.0553926],[2.0324323,49.0556272],[2.0322708,49.0539133],[2.0319435,49.0537828],[2.0316718,49.0536047],[2.0316574,49.0533496],[2.0317353,49.0531789],[2.0318757,49.0530503],[2.0321106,49.0529154],[2.0311642,49.0487979],[2.0314731,49.0487857],[2.0316913,49.0488915],[2.032482,49.0488124],[2.0326553,49.048659],[2.0326414,49.0486047],[2.0327892,49.0486437],[2.0328029,49.0486974],[2.0328524,49.0486987],[2.0328614,49.0487294],[2.0330408,49.0487116],[2.0334331,49.0488182],[2.0338264,49.0487775]]]]},"properties":{"code_section":"95127000DT","code_commune":"95127","section_courte":"DT"}},{"type":"Feature","geometry":{"type":"MultiPolygon","coordinates":[[[[2.0141577,49.053612],[2.0145185,49.0536142],[2.0144979,49.05334],[2.0161132,49.0532732],[2.0182707,49.0530594],[2.018238,49.0528987],[2.0179731,49.0527699],[2.0179116,49.0524911],[2.0178398,49.0518406],[2.0179501,49.0511603],[2.0190611,49.0512277],[2.0201039,49.0512098],[2.0240781,49.0508378],[2.0243924,49.052207],[2.0245326,49.052275],[2.0245692,49.0524351],[2.0244658,49.0525272],[2.0246434,49.0533007],[2.0245622,49.0533088],[2.0246376,49.0536373],[2.0247116,49.0536979],[2.0249234,49.053752],[2.0251015,49.0538462],[2.0252763,49.0540046],[2.0245226,49.0540688],[2.0245459,49.054173],[2.0150242,49.055131],[2.0149299,49.0547122],[2.0147361,49.0542892],[2.0148027,49.0542225],[2.0146758,49.0540608],[2.0141577,49.053612]]]]},"properties":{"code_section":"95127000DV","code_commune":"95127","section_courte":"DV"}},{"type":"Feature","geometry":{"type":"MultiPolygon","coordinates":[[[[2.0157565,49.047956],[2.0157935,49.0478859],[2.0156389,49.0476949],[2.0219628,49.0470683],[2.0219976,49.0468918],[2.0221063,49.0467288],[2.0224305,49.04652],[2.0226787,49.0464508],[2.0229539,49.0464308],[2.0232263,49.0464634],[2.0234732,49.0465459],[2.0238268,49.0468461],[2.0238744,49.0469747],[2.023846,49.0472345],[2.0236838,49.0474158],[2.0233364,49.047607],[2.0235242,49.048425],[2.0235832,49.0485006],[2.0236725,49.0488903],[2.0236482,49.048965],[2.0239972,49.0504854],[2.0235079,49.0505274],[2.0235892,49.0508869],[2.0205437,49.0511854],[2.0198547,49.0512223],[2.0185219,49.0512087],[2.0175575,49.0511211],[2.0165304,49.0509522],[2.0157014,49.0507416],[2.014525,49.0503189],[2.0139873,49.0500619],[2.0137146,49.0498942],[2.0139976,49.0496672],[2.0157693,49.0485736],[2.0158061,49.0483762],[2.0156082,49.0482395],[2.0157565,49.047956]]]]},"properties":{"code_section":"95127000DW","code_commune":"95127","section_courte":"DW"}},{"type":"Feature","geometry":{"type":"MultiPolygon","coordinates":[[[[2.0457213,49.0510586],[2.0460832,49.0516082],[2.0459106,49.0518437],[2.0457112,49.0519372],[2.0455574,49.0519524],[2.0455724,49.0519837],[2.0452601,49.05223],[2.0452741,49.0522535],[2.0457521,49.0522059],[2.0459114,49.0523503],[2.0461268,49.052452],[2.0463835,49.0524966],[2.0464475,49.0540073],[2.0443732,49.0540655],[2.0433108,49.0541519],[2.0422752,49.0543447],[2.040767,49.0547707],[2.0391097,49.0531683],[2.0386758,49.0531487],[2.0382159,49.0529545],[2.0378004,49.0529956],[2.0377244,49.0527506],[2.0395266,49.0525833],[2.0395185,49.0525523],[2.0391527,49.052403],[2.0387423,49.0523128],[2.0377921,49.0508711],[2.037982,49.0509399],[2.0450381,49.0502407],[2.0451234,49.0501426],[2.0457213,49.0510586]]]]},"properties":{"code_section":"95127000DY","code_commune":"95127","section_courte":"DY"}},{"type":"Feature","geometry":{"type":"MultiPolygon","coordinates":[[[[2.0190291,49.0441567],[2.0188531,49.0442691],[2.0182609,49.0436539],[2.0177516,49.0429792],[2.0162078,49.040752],[2.0161479,49.0406106],[2.0159435,49.04061],[2.0157667,49.0405458],[2.0156315,49.0404443],[2.0161173,49.0401596],[2.0159306,49.0397148],[2.0160728,49.0395972],[2.0194062,49.0386698],[2.0196521,49.0385773],[2.0216327,49.0387504],[2.021762,49.0384237],[2.0218062,49.038425],[2.0218353,49.0381217],[2.0233059,49.0381517],[2.0235895,49.0381982],[2.0238171,49.0382771],[2.024688,49.0383912],[2.0247819,49.0387157],[2.024938,49.0387053],[2.0249635,49.0388409],[2.0252876,49.0395519],[2.0252981,49.0398455],[2.0252349,49.0401049],[2.0250505,49.0404359],[2.0248334,49.0405971],[2.0229546,49.0415113],[2.0229754,49.0415616],[2.0231212,49.0416135],[2.0235076,49.0416879],[2.0237575,49.0417174],[2.0242538,49.0417207],[2.0242369,49.0417599],[2.0227174,49.0427121],[2.0232772,49.0430983],[2.0232178,49.0431357],[2.0228234,49.0428636],[2.0222734,49.0430523],[2.0215498,49.0432429],[2.021228,49.043287],[2.0206332,49.0432512],[2.0204441,49.0432711],[2.0190291,49.0441567]]]]},"properties":{"code_section":"95127000EA","code_commune":"95127","section_courte":"EA"}},{"type":"Feature","geometry":{"type":"MultiPolygon","coordinates":[[[[2.0241919,49.0460956],[2.0234732,49.0465459],[2.0232263,49.0464634],[2.0229539,49.0464308],[2.0226787,49.0464508],[2.0224305,49.04652],[2.0221063,49.0467288],[2.0199672,49.0452883],[2.0188531,49.0442691],[2.0204441,49.0432711],[2.0206332,49.0432512],[2.021228,49.043287],[2.0215498,49.0432429],[2.0222734,49.0430523],[2.0228234,49.0428636],[2.0232178,49.0431357],[2.0232772,49.0430983],[2.0241732,49.043717],[2.0246902,49.0440231],[2.0260513,49.0446856],[2.0263648,49.0446724],[2.025943,49.0449984],[2.0241919,49.0460956]]]]},"properties":{"code_section":"95127000EC","code_commune":"95127","section_courte":"EC"}},{"type":"Feature","geometry":{"type":"MultiPolygon","coordinates":[[[[2.0139976,49.0496672],[2.0137863,49.0498252],[2.0137051,49.0497868],[2.0127305,49.0499473],[2.0127922,49.0499827],[2.01266,49.0502566],[2.0124438,49.0504842],[2.0111788,49.0512766],[2.0110488,49.0512713],[2.0104321,49.050775],[2.0091465,49.0496429],[2.0090886,49.0496789],[2.0088114,49.0493509],[2.0087175,49.0493882],[2.0086588,49.0492946],[2.0084633,49.048866],[2.0082083,49.0478957],[2.0079774,49.0474357],[2.008062,49.047415],[2.0078788,49.0471479],[2.0087691,49.0468934],[2.0090197,49.0467363],[2.0083836,49.0462705],[2.0078397,49.0457493],[2.0073242,49.0451094],[2.007013,49.0445779],[2.0099693,49.043967],[2.010098,49.0440538],[2.0100604,49.0441743],[2.0102578,49.044365],[2.0113368,49.0452651],[2.0114711,49.0452683],[2.0116923,49.0451299],[2.0118409,49.04523],[2.0116154,49.0453713],[2.0116119,49.0454603],[2.0122355,49.0458916],[2.0123987,49.045853],[2.0125721,49.0458535],[2.0128439,49.0459494],[2.0129794,49.0461393],[2.0129689,49.046253],[2.0129052,49.0463523],[2.0147287,49.0476057],[2.0149823,49.0475687],[2.0152341,49.0476504],[2.0153472,49.0478194],[2.0153316,49.0479125],[2.0152565,49.0480066],[2.0158061,49.0483762],[2.0157693,49.0485736],[2.0139976,49.0496672]]]]},"properties":{"code_section":"95127000EI","code_commune":"95127","section_courte":"EI"}},{"type":"Feature","geometry":{"type":"MultiPolygon","coordinates":[[[[2.0127023,49.0525733],[2.0110488,49.0512713],[2.0111788,49.0512766],[2.0124438,49.0504842],[2.01266,49.0502566],[2.0127922,49.0499827],[2.0127305,49.0499473],[2.0137051,49.0497868],[2.0137863,49.0498252],[2.0137146,49.0498942],[2.0139873,49.0500619],[2.01471,49.0503966],[2.0153297,49.0506256],[2.0165304,49.0509522],[2.0173089,49.0510859],[2.0179501,49.0511603],[2.0178398,49.0518406],[2.0179116,49.0524911],[2.0179731,49.0527699],[2.018238,49.0528987],[2.0182707,49.0530594],[2.0161132,49.0532732],[2.0144979,49.05334],[2.0145185,49.0536142],[2.0141577,49.053612],[2.0127023,49.0525733]]]]},"properties":{"code_section":"95127000EK","code_commune":"95127","section_courte":"EK"}},{"type":"Feature","geometry":{"type":"MultiPolygon","coordinates":[[[[2.0107203,49.0562114],[2.0099873,49.0555798],[2.0095071,49.0554473],[2.0060441,49.0547386],[2.0048036,49.0543997],[2.003241,49.0537943],[1.9999874,49.0517804],[2.004781,49.0502764],[2.0044151,49.0497009],[2.0069567,49.0491968],[2.0066959,49.0486285],[2.0083185,49.0483102],[2.0084921,49.0489481],[2.0087175,49.0493882],[2.0088114,49.0493509],[2.0090886,49.0496789],[2.0091465,49.0496429],[2.0104321,49.050775],[2.012782,49.0526521],[2.0140317,49.0535072],[2.0146758,49.0540608],[2.0148027,49.0542225],[2.0147361,49.0542892],[2.0149299,49.0547122],[2.0150242,49.055131],[2.0143788,49.0552155],[2.0134613,49.055422],[2.0107203,49.0562114]]]]},"properties":{"code_section":"95127000EL","code_commune":"95127","section_courte":"EL"}},{"type":"Feature","geometry":{"type":"MultiPolygon","coordinates":[[[[2.0301776,49.0399541],[2.0303604,49.0407316],[2.0302326,49.0408429],[2.0302987,49.0409906],[2.0302286,49.0410515],[2.0307783,49.0413243],[2.0290912,49.0427926],[2.0291064,49.0428644],[2.0287093,49.0429926],[2.0286405,49.0432458],[2.0263648,49.0446724],[2.0260513,49.0446856],[2.0245684,49.0439599],[2.0227174,49.0427121],[2.0242369,49.0417599],[2.0242538,49.0417207],[2.0237575,49.0417174],[2.0235076,49.0416879],[2.0231212,49.0416135],[2.0229754,49.0415616],[2.0229546,49.0415113],[2.0248334,49.0405971],[2.0250505,49.0404359],[2.0252349,49.0401049],[2.0252981,49.0398455],[2.0252876,49.0395519],[2.0249635,49.0388409],[2.024938,49.0387053],[2.0247819,49.0387157],[2.024688,49.0383912],[2.0248181,49.038434],[2.0256582,49.0384164],[2.0255639,49.0386826],[2.0255665,49.0388495],[2.0260275,49.0389329],[2.0261586,49.0387071],[2.0267978,49.037938],[2.0269718,49.0375367],[2.0271361,49.037415],[2.0274622,49.0372829],[2.0282505,49.037154],[2.0293413,49.0371532],[2.0300234,49.0370471],[2.030642,49.0368647],[2.0305066,49.0374103],[2.030038,49.0373931],[2.0300258,49.0374939],[2.0307045,49.0375752],[2.0314636,49.037564],[2.0299292,49.0388986],[2.0301776,49.0399541]]]]},"properties":{"code_section":"95127000EO","code_commune":"95127","section_courte":"EO"}},{"type":"Feature","geometry":{"type":"MultiPolygon","coordinates":[[[[2.029175,49.0428875],[2.0291064,49.0428644],[2.0290912,49.0427926],[2.0307783,49.0413243],[2.0302286,49.0410515],[2.0302987,49.0409906],[2.0302326,49.0408429],[2.0303604,49.0407316],[2.0299292,49.0388986],[2.0314636,49.037564],[2.0325611,49.037743],[2.0332656,49.0379619],[2.0375725,49.0413113],[2.035086,49.0434733],[2.0337522,49.0428267],[2.0336303,49.0426526],[2.033388,49.042535],[2.0330904,49.0425645],[2.0329135,49.0426403],[2.0294543,49.0429836],[2.029175,49.0428875]]]]},"properties":{"code_section":"95127000EP","code_commune":"95127","section_courte":"EP"}},{"type":"Feature","geometry":{"type":"MultiPolygon","coordinates":[[[[2.0133895,49.0417557],[2.0156315,49.0404443],[2.0157667,49.0405458],[2.0159435,49.04061],[2.0161479,49.0406106],[2.0162078,49.040752],[2.0177516,49.0429792],[2.0182609,49.0436539],[2.0181618,49.043716],[2.0182327,49.0437649],[2.0178348,49.044014],[2.0177641,49.0439652],[2.017539,49.0441062],[2.0174968,49.0441327],[2.0175675,49.0441816],[2.0171576,49.0444384],[2.0170867,49.0443896],[2.0168193,49.0445571],[2.0168902,49.0446059],[2.0164643,49.0448727],[2.0163934,49.0448238],[2.0161261,49.0449914],[2.016197,49.0450402],[2.0157712,49.045307],[2.0157003,49.0452581],[2.015433,49.0454257],[2.0155037,49.0454745],[2.013475,49.0467453],[2.0129052,49.0463523],[2.0129817,49.0461563],[2.0128671,49.0459665],[2.0127348,49.0458929],[2.0125721,49.0458535],[2.0123987,49.045853],[2.0122355,49.0458916],[2.0116119,49.0454603],[2.0116154,49.0453713],[2.0118409,49.04523],[2.0116923,49.0451299],[2.0114711,49.0452683],[2.0113368,49.0452651],[2.0102578,49.044365],[2.0100604,49.0441743],[2.010098,49.0440538],[2.0099693,49.043967],[2.0104302,49.0438685],[2.0133895,49.0417557]]]]},"properties":{"code_section":"95127000ER","code_commune":"95127","section_courte":"ER"}},{"type":"Feature","geometry":{"type":"MultiPolygon","coordinates":[[[[2.0467838,49.053052],[2.0474218,49.0529824],[2.0474278,49.0522398],[2.0475041,49.051907],[2.0484716,49.0502951],[2.0500703,49.0482755],[2.0528206,49.0480521],[2.0554349,49.0477614],[2.0555455,49.0477485],[2.0558156,49.0475914],[2.0572874,49.0474551],[2.0573606,49.0474973],[2.0579982,49.0474319],[2.0629958,49.0474278],[2.0630658,49.0473839],[2.0629773,49.0470285],[2.063706,49.0469449],[2.0644258,49.0468202],[2.0650878,49.0468096],[2.0659145,49.0467322],[2.0668637,49.0465302],[2.0676916,49.0462884],[2.0686636,49.0459069],[2.0687197,49.0459449],[2.0688367,49.0459576],[2.0691178,49.0461276],[2.0698195,49.0463652],[2.0716914,49.0470868],[2.0721962,49.04716],[2.0708495,49.0480792],[2.0687314,49.0497007],[2.0676419,49.050398],[2.066379,49.0511093],[2.0642779,49.0521],[2.0615489,49.0531237],[2.0599637,49.0535944],[2.0584201,49.0539757],[2.0568733,49.0543047],[2.0468618,49.0560231],[2.0467904,49.0556833],[2.0466598,49.0540002],[2.0464475,49.0540073],[2.0464198,49.0530951],[2.0467838,49.053052]]]]},"properties":{"code_section":"95127000ZC","code_commune":"95127","section_courte":"ZC"}},{"type":"Feature","geometry":{"type":"MultiPolygon","coordinates":[[[[2.0847105,49.0251868],[2.0846884,49.0251419],[2.0851546,49.0249985],[2.0836136,49.0235721],[2.0832859,49.0233369],[2.0826578,49.0230206],[2.0820366,49.0227535],[2.0811463,49.0225137],[2.0786332,49.0221574],[2.0778287,49.0220802],[2.0770808,49.0218624],[2.0763808,49.0219277],[2.0756491,49.0194566],[2.0772007,49.0190946],[2.0777626,49.0189934],[2.0788356,49.0189422],[2.080333,49.0189632],[2.0823039,49.0192976],[2.0833989,49.0195449],[2.0843596,49.0197139],[2.0855984,49.0198534],[2.0865923,49.020076],[2.0874143,49.0203215],[2.0879837,49.020642],[2.0885783,49.0211283],[2.0901942,49.0234614],[2.0907469,49.0241466],[2.0901214,49.0243748],[2.0903122,49.0248306],[2.0901087,49.024871],[2.090992,49.0268271],[2.0911375,49.0275443],[2.091145,49.0278658],[2.0910599,49.0284168],[2.0908966,49.0289029],[2.0909335,49.0289418],[2.0908002,49.0292454],[2.0906495,49.0294668],[2.0906677,49.0295209],[2.0906112,49.029608],[2.0903965,49.0295062],[2.0897977,49.0291077],[2.0893598,49.0286616],[2.0892757,49.0285005],[2.0887752,49.0278441],[2.0863792,49.025928],[2.0860373,49.025773],[2.0857903,49.025709],[2.0858196,49.0256659],[2.0853635,49.0255461],[2.0847105,49.0251868]]]]},"properties":{"code_section":"95127000ZH","code_commune":"95127","section_courte":"ZH"}},{"type":"Feature","geometry":{"type":"MultiPolygon","coordinates":[[[[2.0758182,49.0201115],[2.076375,49.0219281],[2.075382,49.021987],[2.0743523,49.0221311],[2.0746949,49.0228703],[2.0745836,49.0229027],[2.0749918,49.0236656],[2.0736249,49.0240473],[2.0729148,49.0244439],[2.0714692,49.0253344],[2.0697444,49.0270422],[2.0693629,49.0276694],[2.0679145,49.0286635],[2.0648602,49.0271635],[2.0649495,49.027035],[2.0641273,49.0266708],[2.0651121,49.0253318],[2.0671069,49.0231097],[2.0688166,49.0217712],[2.0701688,49.0211428],[2.0710463,49.020811],[2.0740598,49.0198075],[2.0756444,49.0194577],[2.0758182,49.0201115]]]]},"properties":{"code_section":"95127000ZI","code_commune":"95127","section_courte":"ZI"}},{"type":"Feature","geometry":{"type":"MultiPolygon","coordinates":[[[[2.0503305,49.0412884],[2.048416,49.0411082],[2.0465905,49.0405289],[2.0444792,49.0390902],[2.0436098,49.0384515],[2.0420731,49.0376261],[2.0413729,49.0371665],[2.040951,49.036825],[2.03977,49.0355887],[2.0395647,49.0350927],[2.038203,49.0338443],[2.0386238,49.0336214],[2.0435472,49.0313908],[2.0447268,49.0325999],[2.0457138,49.0333721],[2.0467889,49.033858],[2.0476876,49.0341889],[2.0476823,49.0342261],[2.0498271,49.0334231],[2.0525647,49.0321798],[2.0532239,49.0318386],[2.0533663,49.0317469],[2.0537489,49.0313874],[2.05544,49.0301075],[2.0568156,49.0289101],[2.0569666,49.0290428],[2.0579651,49.0310812],[2.05795,49.0312199],[2.0582197,49.0318528],[2.0583069,49.0322726],[2.0587104,49.0324481],[2.0580183,49.033756],[2.0574593,49.0353333],[2.0562559,49.0373905],[2.0555498,49.0385126],[2.0548184,49.0394866],[2.0541945,49.0401058],[2.0533461,49.0406462],[2.0524017,49.0410871],[2.0511483,49.0412985],[2.0503305,49.0412884]]]]},"properties":{"code_section":"95127000ZK","code_commune":"95127","section_courte":"ZK"}}]}