{"type":"FeatureCollection","features":[{"type":"Feature","geometry":{"type":"MultiPolygon","coordinates":[[[[2.2382775,49.1437563],[2.2383449,49.1433369],[2.2381644,49.1419417],[2.2395995,49.1418194],[2.2399957,49.141812],[2.2408485,49.1418653],[2.2427671,49.1420194],[2.2430683,49.1421092],[2.2448167,49.1424269],[2.2447442,49.1425328],[2.2447493,49.1427949],[2.243895,49.1427259],[2.2439852,49.1434615],[2.2432298,49.1434267],[2.2431899,49.1437523],[2.2431197,49.1464654],[2.2429778,49.1466113],[2.2428172,49.1465987],[2.2428937,49.1466489],[2.2430839,49.147153],[2.239564,49.147692],[2.2394345,49.1472873],[2.2393207,49.146525],[2.2377845,49.1465578],[2.2377182,49.1452259],[2.2377651,49.1448414],[2.2377745,49.1447905],[2.2378732,49.1447945],[2.2380002,49.1444394],[2.2379916,49.1440528],[2.2382322,49.1440638],[2.2382775,49.1437563]]]]},"properties":{"code_section":"95134000AB","code_commune":"95134","section_courte":"AB"}},{"type":"Feature","geometry":{"type":"MultiPolygon","coordinates":[[[[2.2398229,49.1381128],[2.2400088,49.1375728],[2.2399049,49.1375196],[2.2399561,49.1373707],[2.2399401,49.1372618],[2.2412426,49.1358639],[2.2413838,49.1356203],[2.2414208,49.1354223],[2.2460236,49.1369346],[2.247873,49.1375745],[2.2482434,49.1377292],[2.24884,49.1378968],[2.24683,49.1405062],[2.245787,49.1400535],[2.2452876,49.1407733],[2.2458604,49.1409446],[2.2448167,49.1424269],[2.2430683,49.1421092],[2.2427671,49.1420194],[2.2408485,49.1418653],[2.2399957,49.141812],[2.2395995,49.1418194],[2.2381644,49.1419417],[2.237905,49.1414413],[2.2379571,49.1409108],[2.2373635,49.1401214],[2.2371357,49.1399095],[2.2380055,49.139625],[2.2380785,49.1395858],[2.2380184,49.139565],[2.238704,49.1391823],[2.2398229,49.1381128]]]]},"properties":{"code_section":"95134000AC","code_commune":"95134","section_courte":"AC"}},{"type":"Feature","geometry":{"type":"MultiPolygon","coordinates":[[[[2.239347,49.1385579],[2.2388257,49.1390892],[2.2380184,49.139565],[2.2380785,49.1395858],[2.2371357,49.1399095],[2.2367456,49.1396171],[2.236244,49.1393738],[2.235657,49.1398806],[2.2354387,49.1397585],[2.2354013,49.1397826],[2.2353544,49.1397484],[2.2350092,49.1400802],[2.234542,49.140438],[2.2337783,49.1411501],[2.2333661,49.1414865],[2.2333567,49.1413402],[2.2332926,49.1412665],[2.2328698,49.140927],[2.2318749,49.1399726],[2.2311546,49.139169],[2.231003,49.1387059],[2.2301444,49.137989],[2.2318431,49.1370905],[2.2332197,49.1361675],[2.2333239,49.1362201],[2.2340023,49.1357519],[2.2338335,49.1356468],[2.2345994,49.1349177],[2.2337885,49.1344714],[2.2334934,49.1341454],[2.2336144,49.1340789],[2.2342035,49.1338948],[2.2343072,49.1338181],[2.234764,49.1332737],[2.2347395,49.1331683],[2.2348314,49.1332385],[2.2351127,49.1333384],[2.2413503,49.1354224],[2.2414208,49.1354223],[2.2413838,49.1356203],[2.2412426,49.1358639],[2.2399401,49.1372618],[2.2399561,49.1373707],[2.2399049,49.1375196],[2.2400088,49.1375728],[2.2398229,49.1381128],[2.239347,49.1385579]]]]},"properties":{"code_section":"95134000AD","code_commune":"95134","section_courte":"AD"}},{"type":"Feature","geometry":{"type":"MultiPolygon","coordinates":[[[[2.2254695,49.1359767],[2.2245358,49.1351336],[2.2239364,49.1346677],[2.223605,49.1336256],[2.2236525,49.1334603],[2.2241353,49.1330087],[2.2245261,49.1327025],[2.2250402,49.1323668],[2.2240008,49.1320007],[2.2238147,49.1318288],[2.2234223,49.1312584],[2.2244982,49.1306315],[2.2255904,49.1310611],[2.2263235,49.1302762],[2.2305769,49.1317679],[2.2317301,49.1322259],[2.2330312,49.1326652],[2.2336174,49.1328949],[2.2347395,49.1331683],[2.234764,49.1332737],[2.2343072,49.1338181],[2.2342035,49.1338948],[2.2336144,49.1340789],[2.2334934,49.1341454],[2.2337885,49.1344714],[2.2345994,49.1349177],[2.2338335,49.1356468],[2.2340023,49.1357519],[2.2333239,49.1362201],[2.2332197,49.1361675],[2.2318431,49.1370905],[2.2301444,49.137989],[2.2294702,49.1371011],[2.2289402,49.1366143],[2.2282086,49.1369716],[2.2280515,49.1368338],[2.2278094,49.1369274],[2.2277056,49.1366667],[2.2275312,49.1364112],[2.2272325,49.1361363],[2.2268762,49.135659],[2.226501,49.1352445],[2.2262445,49.1353283],[2.2258696,49.135359],[2.2258497,49.1362941],[2.2254695,49.1359767]]]]},"properties":{"code_section":"95134000AE","code_commune":"95134","section_courte":"AE"}},{"type":"Feature","geometry":{"type":"MultiPolygon","coordinates":[[[[2.221649,49.1405527],[2.2226504,49.140348],[2.2226551,49.1403178],[2.2230345,49.1403471],[2.2228224,49.1406049],[2.2235427,49.1411522],[2.2240624,49.1410434],[2.2247579,49.1417458],[2.2259439,49.1426201],[2.224819,49.1433773],[2.2227696,49.1419024],[2.2219915,49.1413824],[2.2219229,49.1413763],[2.2215273,49.1414746],[2.2216798,49.1413225],[2.2217522,49.1410857],[2.2216026,49.1405615],[2.221649,49.1405527]]],[[[2.2274528,49.1392608],[2.2278714,49.139941],[2.2269287,49.1400467],[2.2268961,49.1402018],[2.2259019,49.1403833],[2.2259567,49.1407346],[2.2270467,49.1414065],[2.227515,49.1418024],[2.22701,49.1420687],[2.2269333,49.1420158],[2.2263112,49.1423769],[2.2258432,49.1419727],[2.2256197,49.1420669],[2.2254385,49.1418806],[2.2248206,49.1413972],[2.2243427,49.1407533],[2.2243208,49.1403219],[2.2235907,49.1398633],[2.2238477,49.1396371],[2.2227492,49.1395214],[2.2227551,49.1393024],[2.2217672,49.1392757],[2.2217706,49.1392225],[2.2232414,49.139266],[2.2233381,49.1388123],[2.2239263,49.13884],[2.223959,49.1384879],[2.2238315,49.1384732],[2.2238969,49.1381287],[2.2237323,49.1381043],[2.223736,49.1379947],[2.2235121,49.1379927],[2.2234599,49.1382738],[2.2226402,49.138217],[2.222587,49.1382475],[2.2217818,49.1381983],[2.2218083,49.1381042],[2.2219402,49.1379652],[2.2219602,49.1377238],[2.2218799,49.1375182],[2.2214868,49.1368774],[2.2214419,49.1366801],[2.2221883,49.1366382],[2.2225852,49.1356728],[2.2229981,49.1355245],[2.223418,49.1354768],[2.2237065,49.1355573],[2.2242769,49.1353195],[2.2245358,49.1351336],[2.2251184,49.1356861],[2.2258497,49.1362941],[2.2258696,49.135359],[2.2262445,49.1353283],[2.226501,49.1352445],[2.2268762,49.135659],[2.2272325,49.1361363],[2.2275312,49.1364112],[2.2277056,49.1366667],[2.2278094,49.1369274],[2.2277673,49.1369268],[2.2277724,49.1371466],[2.2273195,49.1380826],[2.2272194,49.1384925],[2.2273,49.1390066],[2.2274528,49.1392608]]]]},"properties":{"code_section":"95134000AH","code_commune":"95134","section_courte":"AH"}},{"type":"Feature","geometry":{"type":"MultiPolygon","coordinates":[[[[2.1946218,49.1607245],[2.2005834,49.1543841],[2.2033446,49.151352],[2.2055812,49.1522701],[2.2078868,49.154266],[2.2106861,49.1566218],[2.2085204,49.1572377],[2.2065579,49.1582537],[2.2063484,49.1585257],[2.2062277,49.1584737],[2.2056353,49.1594621],[2.2042034,49.1606991],[2.2039052,49.160884],[2.2031479,49.1616613],[2.2021267,49.1623243],[2.2002918,49.1634056],[2.1991287,49.1647755],[2.198813,49.165583],[2.1983032,49.1665405],[2.197002,49.1665506],[2.1968567,49.1670112],[2.1967011,49.1669206],[2.1955399,49.1665422],[2.1953157,49.1664371],[2.1947819,49.1660233],[2.193817,49.165557],[2.1926776,49.1651361],[2.1922999,49.1649592],[2.1928049,49.1640894],[2.1929127,49.1635258],[2.1938541,49.1615237],[2.1946218,49.1607245]]]]},"properties":{"code_section":"95134000AI","code_commune":"95134","section_courte":"AI"}},{"type":"Feature","geometry":{"type":"MultiPolygon","coordinates":[[[[2.2275844,49.1473218],[2.2290721,49.1493903],[2.2294078,49.151536],[2.2232883,49.1520998],[2.2223041,49.1522572],[2.2180459,49.1535573],[2.2173896,49.1537288],[2.217408,49.1537678],[2.2168437,49.1538926],[2.2171103,49.151453],[2.2183077,49.1502216],[2.2194591,49.1497642],[2.2207858,49.1490177],[2.2210514,49.1488466],[2.221477,49.1484],[2.2234884,49.1475452],[2.2264181,49.1460213],[2.2266678,49.1459205],[2.2267002,49.1459522],[2.2266595,49.1460441],[2.2275844,49.1473218]]]]},"properties":{"code_section":"95134000ZA","code_commune":"95134","section_courte":"ZA"}},{"type":"Feature","geometry":{"type":"MultiPolygon","coordinates":[[[[2.2335675,49.1526663],[2.2331448,49.1525382],[2.2317784,49.1524368],[2.232124,49.1516424],[2.232112,49.1514379],[2.2294078,49.151536],[2.2290721,49.1493903],[2.2266595,49.1460441],[2.2267002,49.1459522],[2.2266678,49.1459205],[2.2270444,49.1457755],[2.2256991,49.1439947],[2.2254553,49.1437663],[2.224819,49.1433773],[2.2263112,49.1423769],[2.2269333,49.1420158],[2.22701,49.1420687],[2.227515,49.1418024],[2.2270467,49.1414065],[2.2259567,49.1407346],[2.2259019,49.1403833],[2.2268961,49.1402018],[2.2269287,49.1400467],[2.2278714,49.139941],[2.2273,49.1390066],[2.2272194,49.1384925],[2.2273195,49.1380826],[2.2277724,49.1371466],[2.2277673,49.1369268],[2.2278517,49.1369263],[2.2280515,49.1368338],[2.2282086,49.1369716],[2.2289402,49.1366143],[2.2294702,49.1371011],[2.2297577,49.1374441],[2.230117,49.1379723],[2.231003,49.1387059],[2.2311546,49.139169],[2.2318749,49.1399726],[2.2328698,49.140927],[2.2332926,49.1412665],[2.2333567,49.1413402],[2.2333661,49.1414865],[2.2337783,49.1411501],[2.234542,49.140438],[2.2350092,49.1400802],[2.2353544,49.1397484],[2.2354013,49.1397826],[2.2354387,49.1397585],[2.235657,49.1398806],[2.236244,49.1393738],[2.2367456,49.1396171],[2.2371421,49.1399119],[2.2373635,49.1401214],[2.2379571,49.1409108],[2.237905,49.1414413],[2.2381592,49.1419182],[2.2383449,49.1433369],[2.2382322,49.1440638],[2.2379916,49.1440528],[2.2380002,49.1444394],[2.2378732,49.1447945],[2.2377745,49.1447905],[2.2377651,49.1448414],[2.2377182,49.1452259],[2.2377845,49.1465578],[2.2393207,49.146525],[2.2394345,49.1472873],[2.239564,49.147692],[2.239978,49.1484507],[2.240699,49.1499636],[2.2409366,49.1507082],[2.2413264,49.1515913],[2.2388182,49.1519833],[2.2385868,49.1518232],[2.2369447,49.1518913],[2.2335586,49.151554],[2.2335675,49.1526663]]]]},"properties":{"code_section":"95134000ZB","code_commune":"95134","section_courte":"ZB"}},{"type":"Feature","geometry":{"type":"MultiPolygon","coordinates":[[[[2.2450649,49.1420989],[2.2458604,49.1409446],[2.2452876,49.1407733],[2.245787,49.1400535],[2.24683,49.1405062],[2.24884,49.1378968],[2.249871,49.1382663],[2.2498469,49.1383],[2.2593975,49.1414827],[2.2581306,49.1429115],[2.2572884,49.1426433],[2.2556424,49.1445205],[2.2544382,49.1439629],[2.2523734,49.1464558],[2.2521155,49.1468728],[2.2527292,49.1472454],[2.2511416,49.1478079],[2.2439377,49.1489914],[2.2439499,49.1490288],[2.2404769,49.1494845],[2.239564,49.147692],[2.2430839,49.147153],[2.2428937,49.1466489],[2.2428172,49.1465987],[2.2429778,49.1466113],[2.2431197,49.1464654],[2.2431899,49.1437523],[2.2432298,49.1434267],[2.2439852,49.1434615],[2.243895,49.1427259],[2.2447493,49.1427949],[2.2447442,49.1425328],[2.2450649,49.1420989]]]]},"properties":{"code_section":"95134000ZC","code_commune":"95134","section_courte":"ZC"}},{"type":"Feature","geometry":{"type":"MultiPolygon","coordinates":[[[[2.2482434,49.1377292],[2.247873,49.1375745],[2.2460236,49.1369346],[2.2414208,49.1354223],[2.2414404,49.1347244],[2.2415216,49.1341964],[2.2425683,49.1321177],[2.2428835,49.1313931],[2.2429777,49.1309456],[2.2460626,49.131229],[2.2487587,49.1312278],[2.2495738,49.1312692],[2.2527225,49.1316392],[2.2542206,49.1317828],[2.2561053,49.1319129],[2.2591079,49.1323176],[2.2599059,49.1326822],[2.2617358,49.1337601],[2.2621187,49.1340056],[2.2626525,49.1344343],[2.2635995,49.1360084],[2.2615614,49.1371131],[2.2610543,49.1367286],[2.2585915,49.1396371],[2.2593598,49.1398957],[2.2585506,49.1412074],[2.2498469,49.1383],[2.249871,49.1382663],[2.24884,49.1378968],[2.2482434,49.1377292]]]]},"properties":{"code_section":"95134000ZD","code_commune":"95134","section_courte":"ZD"}},{"type":"Feature","geometry":{"type":"MultiPolygon","coordinates":[[[[2.2341989,49.1330276],[2.2336174,49.1328949],[2.2330312,49.1326652],[2.2317301,49.1322259],[2.2305769,49.1317679],[2.2257224,49.130064],[2.2265859,49.1296789],[2.2272166,49.1297042],[2.2289499,49.1292583],[2.2290393,49.1292902],[2.2305339,49.1293311],[2.2323836,49.1294965],[2.2339536,49.1299705],[2.2354197,49.1306703],[2.2365673,49.1310634],[2.2378644,49.1311995],[2.2429777,49.1309456],[2.2428835,49.1313931],[2.2425683,49.1321177],[2.2415216,49.1341964],[2.2414404,49.1347244],[2.2414208,49.1354223],[2.2413503,49.1354224],[2.2351127,49.1333384],[2.2348314,49.1332385],[2.2347395,49.1331683],[2.2341989,49.1330276]]]]},"properties":{"code_section":"95134000ZE","code_commune":"95134","section_courte":"ZE"}},{"type":"Feature","geometry":{"type":"MultiPolygon","coordinates":[[[[2.2179715,49.12471],[2.2184336,49.1252469],[2.2195287,49.1263812],[2.2200969,49.1268218],[2.2213188,49.127268],[2.2217622,49.1274615],[2.2229653,49.1278454],[2.2234175,49.1279694],[2.2247457,49.1282585],[2.2263121,49.1284834],[2.2289499,49.1292583],[2.2272166,49.1297042],[2.2265859,49.1296789],[2.2257224,49.130064],[2.2263235,49.1302762],[2.2255904,49.1310611],[2.2244982,49.1306315],[2.2234223,49.1312584],[2.2238147,49.1318288],[2.2240008,49.1320007],[2.2250402,49.1323668],[2.2245261,49.1327025],[2.2241353,49.1330087],[2.2236072,49.1335381],[2.223658,49.1338794],[2.2239364,49.1346677],[2.2245358,49.1351336],[2.2242769,49.1353195],[2.2237065,49.1355573],[2.223418,49.1354768],[2.2229981,49.1355245],[2.2225852,49.1356728],[2.2221883,49.1366382],[2.2214419,49.1366801],[2.2207893,49.1362112],[2.2204962,49.1361177],[2.2201105,49.1360466],[2.218804,49.1360359],[2.2167087,49.1358889],[2.2161235,49.135781],[2.2157232,49.1356439],[2.2160908,49.1352352],[2.2152995,49.1348789],[2.2161166,49.1342229],[2.216199,49.1342647],[2.2168769,49.1336366],[2.2157281,49.1325005],[2.2140997,49.1334605],[2.2136372,49.1329612],[2.2127827,49.1333917],[2.2117108,49.1323893],[2.2115958,49.1321944],[2.2114725,49.1318508],[2.2114394,49.1313894],[2.2113488,49.1310754],[2.2124175,49.1309564],[2.2124237,49.1306335],[2.2123745,49.1306293],[2.2125618,49.1300289],[2.2128775,49.1302056],[2.2134901,49.1300174],[2.2132186,49.1297229],[2.2147073,49.1293149],[2.2150114,49.1291943],[2.2153368,49.1289745],[2.2151739,49.128797],[2.214949,49.1283714],[2.2150364,49.1280141],[2.2148251,49.1272809],[2.2145773,49.1268191],[2.2146828,49.1266798],[2.2128799,49.1258037],[2.2132017,49.1256758],[2.2136268,49.125613],[2.2137859,49.1254288],[2.2138868,49.1253899],[2.2141326,49.1252091],[2.2142184,49.1252043],[2.2143258,49.1252765],[2.2144862,49.1252985],[2.2147021,49.1251799],[2.2151004,49.1251732],[2.2154795,49.1250321],[2.2173343,49.1239738],[2.2179715,49.12471]]]]},"properties":{"code_section":"95134000ZH","code_commune":"95134","section_courte":"ZH"}},{"type":"Feature","geometry":{"type":"MultiPolygon","coordinates":[[[[2.2201105,49.1360466],[2.2204962,49.1361177],[2.2207893,49.1362112],[2.2214419,49.1366801],[2.2214868,49.1368774],[2.2218799,49.1375182],[2.2219602,49.1377238],[2.2219402,49.1379652],[2.2218083,49.1381042],[2.2217818,49.1381983],[2.222587,49.1382475],[2.2226402,49.138217],[2.2234599,49.1382738],[2.2235121,49.1379927],[2.223736,49.1379947],[2.2237323,49.1381043],[2.2238969,49.1381287],[2.2238315,49.1384732],[2.223959,49.1384879],[2.2239263,49.13884],[2.2233381,49.1388123],[2.2232414,49.139266],[2.2217706,49.1392225],[2.2217672,49.1392757],[2.2227551,49.1393024],[2.2227492,49.1395214],[2.2238477,49.1396371],[2.2235907,49.1398633],[2.2243208,49.1403219],[2.2243427,49.1407533],[2.2248206,49.1413972],[2.2254385,49.1418806],[2.2256197,49.1420669],[2.2258432,49.1419727],[2.2263112,49.1423769],[2.2259439,49.1426201],[2.2247579,49.1417458],[2.2240624,49.1410434],[2.2235427,49.1411522],[2.2228224,49.1406049],[2.2230345,49.1403471],[2.2226551,49.1403178],[2.2226504,49.140348],[2.2216026,49.1405615],[2.2217522,49.1410857],[2.2216798,49.1413225],[2.2215273,49.1414746],[2.220564,49.1417652],[2.2201549,49.1420498],[2.2193631,49.1428682],[2.2180398,49.1439652],[2.2175134,49.1450666],[2.2172937,49.1452242],[2.215917,49.1444951],[2.2156344,49.1443012],[2.2154219,49.1441041],[2.2150758,49.1435134],[2.2149374,49.1434179],[2.2147809,49.1430564],[2.21433,49.1423716],[2.2141139,49.1416664],[2.2120434,49.1428258],[2.2124325,49.1419273],[2.2127389,49.1407104],[2.2125722,49.1403195],[2.2126064,49.1403119],[2.212481,49.139941],[2.2122963,49.139768],[2.2121297,49.1397007],[2.2120574,49.1393219],[2.2120208,49.139322],[2.2119979,49.1389069],[2.2118539,49.1389088],[2.2115252,49.1384855],[2.2117113,49.1384408],[2.2111957,49.1378057],[2.21151,49.1371749],[2.2118585,49.1367762],[2.2119598,49.1365856],[2.2119678,49.1358748],[2.2120216,49.1357581],[2.2112969,49.1337956],[2.211306,49.1337262],[2.2118852,49.1333175],[2.2122009,49.1328758],[2.212242,49.132866],[2.2127827,49.1333917],[2.2136372,49.1329612],[2.2140997,49.1334605],[2.2157281,49.1325005],[2.2168769,49.1336366],[2.216199,49.1342647],[2.2161166,49.1342229],[2.2152995,49.1348789],[2.2160908,49.1352352],[2.2157232,49.1356439],[2.2161235,49.135781],[2.2167087,49.1358889],[2.218804,49.1360359],[2.2201105,49.1360466]]]]},"properties":{"code_section":"95134000ZI","code_commune":"95134","section_courte":"ZI"}},{"type":"Feature","geometry":{"type":"MultiPolygon","coordinates":[[[[2.2207858,49.1490177],[2.2194591,49.1497642],[2.2183077,49.1502216],[2.2171103,49.151453],[2.2168279,49.1541241],[2.2160217,49.154335],[2.2146094,49.1550152],[2.2134128,49.155379],[2.2125178,49.1558407],[2.2106861,49.1566218],[2.2078868,49.154266],[2.2055812,49.1522701],[2.2033446,49.151352],[2.2054783,49.1490135],[2.2053795,49.1488813],[2.2070278,49.1477721],[2.2095984,49.1457131],[2.2100675,49.1452118],[2.2105753,49.1447983],[2.2114972,49.1438425],[2.2118924,49.1431796],[2.2120434,49.1428258],[2.2141139,49.1416664],[2.21433,49.1423716],[2.2147809,49.1430564],[2.2149374,49.1434179],[2.2150758,49.1435134],[2.2154219,49.1441041],[2.2156344,49.1443012],[2.215917,49.1444951],[2.2172937,49.1452242],[2.2175134,49.1450666],[2.2180398,49.1439652],[2.2193631,49.1428682],[2.2201549,49.1420498],[2.220564,49.1417652],[2.2219229,49.1413763],[2.2219915,49.1413824],[2.2227696,49.1419024],[2.2247118,49.1433063],[2.2254553,49.1437663],[2.2256991,49.1439947],[2.2270444,49.1457755],[2.2264181,49.1460213],[2.2234884,49.1475452],[2.221477,49.1484],[2.2210514,49.1488466],[2.2207858,49.1490177]]]]},"properties":{"code_section":"95134000ZK","code_commune":"95134","section_courte":"ZK"}}]}