{"type":"FeatureCollection","features":[{"type":"Feature","geometry":{"type":"MultiPolygon","coordinates":[[[[2.0049786,49.0552404],[2.0014493,49.0530559],[2.0014565,49.0526898],[2.003241,49.0537943],[2.0048212,49.0544017],[2.0060442,49.0547386],[2.0095071,49.0554474],[2.0099874,49.0555799],[2.0107197,49.0562107],[1.9942655,49.0607348],[1.9940069,49.0604149],[1.9945446,49.0602703],[1.9928494,49.0566562],[1.9919944,49.0553626],[1.9918289,49.0552298],[1.9909058,49.054137],[1.9929615,49.0535631],[1.9957919,49.0578567],[2.0049786,49.0552404]]]]},"properties":{"code_section":"951830000A","code_commune":"95183","section_courte":"A"}},{"type":"Feature","geometry":{"type":"MultiPolygon","coordinates":[[[[1.9968667,49.0494237],[1.9986057,49.0505722],[1.9981655,49.0506524],[2.0014565,49.0526898],[2.0014493,49.0530559],[2.000362,49.0523829],[1.9996682,49.0524118],[1.9952933,49.0529159],[1.9909058,49.054137],[1.9891204,49.0520782],[1.9891522,49.0520659],[1.9881177,49.0511166],[1.9876667,49.0503213],[1.9868088,49.0471981],[1.9861499,49.0445711],[1.9853448,49.042165],[1.9842444,49.039866],[1.985813,49.0389408],[1.9854361,49.0385784],[1.9852485,49.0386879],[1.9849474,49.038385],[1.9848428,49.0384442],[1.9846999,49.0383244],[1.9845979,49.038373],[1.984306,49.0381148],[1.9842152,49.0381549],[1.9847613,49.0386674],[1.9845582,49.0387373],[1.9835897,49.0377796],[1.985101,49.0376791],[1.9872137,49.0377282],[1.9918643,49.0379803],[1.9926802,49.0380561],[1.9932766,49.0380637],[1.9946519,49.0379994],[1.9946427,49.0379671],[1.9955235,49.0378147],[1.9957551,49.0379456],[1.9959177,49.0382788],[1.9961015,49.0382047],[1.997447,49.0387531],[1.9981281,49.0389328],[1.9988732,49.0390644],[1.9993126,49.0390882],[1.9972054,49.0409399],[1.9977436,49.042526],[1.9980612,49.0437449],[1.9927694,49.0463419],[1.9933653,49.0478473],[1.9954831,49.0487219],[1.9958242,49.0487503],[1.9961862,49.0489606],[1.9962616,49.0490916],[1.9968113,49.049392],[1.9961264,49.0494719],[1.9962766,49.0495551],[1.9968667,49.0494237]]]]},"properties":{"code_section":"951830000B","code_commune":"95183","section_courte":"B"}},{"type":"Feature","geometry":{"type":"MultiPolygon","coordinates":[[[[2.0064998,49.0378598],[2.0067794,49.0378882],[2.0066362,49.0383871],[2.0047999,49.0380992],[2.0045978,49.0379809],[2.0045791,49.0379344],[2.005384,49.0377934],[2.0054017,49.0376929],[2.0053418,49.0376363],[2.0051552,49.0368218],[2.0049417,49.0368013],[2.0049348,49.0367134],[2.0043254,49.0367439],[2.004243,49.0355477],[2.0037559,49.0355455],[2.0038682,49.0352039],[2.0037472,49.0351799],[2.0038933,49.0345798],[2.0041692,49.0345959],[2.0042744,49.0344403],[2.0044127,49.0344508],[2.0046034,49.0339243],[2.0053481,49.0327934],[2.0058935,49.0328212],[2.006452,49.0327939],[2.0058823,49.0355597],[2.0064998,49.0378598]]]]},"properties":{"code_section":"951830000D","code_commune":"95183","section_courte":"D"}},{"type":"Feature","geometry":{"type":"MultiPolygon","coordinates":[[[[1.9927281,49.0296722],[1.9935831,49.0284005],[1.9927776,49.0279571],[1.9919195,49.0271227],[1.9916076,49.0262343],[1.9916489,49.0251679],[1.9915282,49.024518],[1.9915308,49.0238333],[1.9927338,49.0239638],[1.9932604,49.0239778],[1.9960393,49.0237031],[1.9972527,49.0236757],[1.9985152,49.0237213],[1.9984925,49.0239507],[1.9989153,49.0239672],[1.9989104,49.0240988],[1.9993596,49.0241056],[1.9991005,49.0272054],[1.9991872,49.0272285],[2.000684,49.0271804],[2.0006226,49.0286796],[2.0006881,49.028719],[2.0006592,49.0302093],[1.9994031,49.0300824],[1.9995585,49.0297712],[1.9994808,49.029725],[1.9993231,49.02983],[1.9990763,49.0303474],[1.998844,49.0303082],[1.9984682,49.0308975],[1.9984798,49.0310128],[1.9987962,49.0312368],[1.9988637,49.0312436],[1.9988914,49.0313818],[1.9985794,49.0312303],[1.9983589,49.0310294],[1.9980322,49.0315281],[1.9973825,49.0314217],[1.9974017,49.0315534],[1.9964265,49.0313799],[1.9961655,49.0313131],[1.9957708,49.0311533],[1.9952157,49.031125],[1.9947688,49.0311645],[1.9941893,49.0312824],[1.9941291,49.0312427],[1.9932727,49.0314092],[1.9924759,49.0315076],[1.9916162,49.0315351],[1.9908343,49.0315232],[1.9903786,49.0315577],[1.990489,49.0314243],[1.9913454,49.0306792],[1.9914407,49.0307272],[1.991938,49.0303842],[1.9923959,49.030126],[1.9927281,49.0296722]]]]},"properties":{"code_section":"951830000E","code_commune":"95183","section_courte":"E"}},{"type":"Feature","geometry":{"type":"MultiPolygon","coordinates":[[[[1.9941998,49.0312764],[1.9947688,49.0311645],[1.9951773,49.0311258],[1.9957708,49.0311533],[1.9961655,49.0313131],[1.9964265,49.0313799],[1.9974017,49.0315534],[1.9973016,49.0316997],[1.9970519,49.0326752],[1.9969647,49.0326664],[1.9967303,49.0334031],[1.9966201,49.0334096],[1.996631,49.0342817],[1.9971006,49.0343244],[1.9970329,49.034697],[1.9973229,49.0347326],[1.997416,49.0350124],[1.9975554,49.0350154],[1.9975611,49.0350398],[1.998356,49.0350493],[1.9985686,49.0355549],[1.9982777,49.0355282],[1.9980761,49.0355597],[1.997142,49.0358094],[1.9972033,49.0363121],[1.9973839,49.0368859],[1.9983087,49.0363849],[1.9984498,49.036438],[1.9984244,49.0365631],[1.9985637,49.0365746],[1.9984302,49.0371269],[1.9984908,49.0371587],[1.9996556,49.0370602],[1.9998955,49.0374188],[2.0001697,49.0373504],[2.0015143,49.0386803],[2.0006344,49.0387996],[1.9995428,49.0388422],[1.9993126,49.0390882],[1.9992107,49.0390974],[1.9981281,49.0389328],[1.997447,49.0387531],[1.9961015,49.0382047],[1.9959177,49.0382788],[1.9957551,49.0379456],[1.9955235,49.0378147],[1.9946427,49.0379671],[1.9946519,49.0379994],[1.9932766,49.0380637],[1.9926802,49.0380561],[1.9918643,49.0379803],[1.9872137,49.0377282],[1.985101,49.0376791],[1.9846237,49.037704],[1.9844452,49.035559],[1.9844311,49.0355425],[1.9842809,49.0355894],[1.9836894,49.0348369],[1.985427,49.034229],[1.9854847,49.0343497],[1.9866124,49.0343081],[1.9878478,49.0340675],[1.9891954,49.0327049],[1.9909196,49.0315323],[1.9922792,49.0315238],[1.9931486,49.0314287],[1.9941291,49.0312427],[1.9941998,49.0312764]]]]},"properties":{"code_section":"951830000F","code_commune":"95183","section_courte":"F"}},{"type":"Feature","geometry":{"type":"MultiPolygon","coordinates":[[[[2.0027003,49.0303927],[2.0021492,49.030347],[2.0020284,49.0301847],[2.0012561,49.0294646],[2.0008946,49.0289034],[2.0007432,49.0287424],[2.0006226,49.0286796],[2.000684,49.0271804],[2.0045332,49.0277696],[2.0100745,49.0273254],[2.0101536,49.0268706],[2.0120203,49.0270143],[2.0127179,49.0271565],[2.0129176,49.0272555],[2.0125524,49.0287479],[2.0119452,49.0307466],[2.0118102,49.0315498],[2.0118311,49.0316092],[2.0105407,49.0315964],[2.0099297,49.0316783],[2.00872,49.0319165],[2.0087087,49.0318091],[2.0085587,49.0318427],[2.0084609,49.0318334],[2.0070138,49.0313824],[2.0061637,49.031188],[2.0058637,49.0311552],[2.0043724,49.0311206],[2.0026476,49.0312784],[2.0026029,49.0312496],[2.0027529,49.0303999],[2.0027003,49.0303927]]]]},"properties":{"code_section":"951830000H","code_commune":"95183","section_courte":"H"}},{"type":"Feature","geometry":{"type":"MultiPolygon","coordinates":[[[[2.0036653,49.0544275],[2.0049786,49.0552404],[1.9957919,49.0578567],[1.9929615,49.0535631],[1.9952933,49.0529159],[1.9996682,49.0524118],[2.000362,49.0523829],[2.0036653,49.0544275]]]]},"properties":{"code_section":"95183000EZ","code_commune":"95183","section_courte":"EZ"}},{"type":"Feature","geometry":{"type":"MultiPolygon","coordinates":[[[[2.015964,49.0397758],[2.016119,49.0401578],[2.0133895,49.0417547],[2.0104295,49.043873],[2.0075395,49.0444724],[2.0072388,49.0435354],[2.0072146,49.0430946],[2.0072957,49.0422],[2.0075546,49.0413151],[2.0077627,49.040884],[2.0083084,49.0400717],[2.0100867,49.0379905],[2.0106359,49.0372497],[2.0139994,49.0389187],[2.0150431,49.0393489],[2.0160728,49.0395972],[2.0159368,49.0397097],[2.015964,49.0397758]]]]},"properties":{"code_section":"95183000HA","code_commune":"95183","section_courte":"HA"}},{"type":"Feature","geometry":{"type":"MultiPolygon","coordinates":[[[[2.0070291,49.0445947],[2.0061542,49.0447969],[2.0059912,49.0443626],[2.0052065,49.0427506],[2.0048837,49.0421687],[2.0037244,49.0409162],[2.0052657,49.0399505],[2.0060905,49.0393324],[2.0065857,49.0389111],[2.0073703,49.038185],[2.0076458,49.0378801],[2.0084181,49.036929],[2.0088464,49.0362917],[2.0106461,49.0372345],[2.0100867,49.0379905],[2.0083084,49.0400717],[2.0077627,49.040884],[2.0075546,49.0413151],[2.0074012,49.0417552],[2.0072312,49.0426496],[2.0072388,49.0435354],[2.0075395,49.0444724],[2.0070291,49.0445947]]]]},"properties":{"code_section":"95183000HB","code_commune":"95183","section_courte":"HB"}},{"type":"Feature","geometry":{"type":"MultiPolygon","coordinates":[[[[2.0090149,49.0467413],[2.0087668,49.0468945],[2.0078058,49.0471787],[2.0061542,49.0447969],[2.0070291,49.0445947],[2.00746,49.0452892],[2.0078658,49.0457716],[2.0083448,49.0462267],[2.0090149,49.0467413]]]]},"properties":{"code_section":"95183000HC","code_commune":"95183","section_courte":"HC"}},{"type":"Feature","geometry":{"type":"MultiPolygon","coordinates":[[[[2.0113674,49.034532],[2.0111372,49.0356033],[2.0111604,49.0356329],[2.0110303,49.03608],[2.0108375,49.0373497],[2.0088464,49.0362917],[2.0084181,49.036929],[2.0073703,49.038185],[2.0070976,49.0384387],[2.0066534,49.0383442],[2.0067794,49.0378882],[2.0064998,49.0378598],[2.0058823,49.0355597],[2.006452,49.0327939],[2.0070567,49.0327122],[2.0081682,49.0321597],[2.0087373,49.0319985],[2.00872,49.0319165],[2.0099297,49.0316783],[2.0105407,49.0315964],[2.0118311,49.0316092],[2.0117222,49.0329065],[2.0113674,49.034532]]]]},"properties":{"code_section":"95183000HH","code_commune":"95183","section_courte":"HH"}},{"type":"Feature","geometry":{"type":"MultiPolygon","coordinates":[[[[2.0072915,49.0485059],[2.0066927,49.0486236],[2.0069444,49.0491961],[2.0044111,49.0496962],[2.0047753,49.0502823],[1.9999788,49.0517759],[1.9981655,49.0506524],[1.9986057,49.0505722],[1.9969352,49.0494629],[1.9968667,49.0494237],[1.9962766,49.0495551],[1.9961264,49.0494719],[1.9981452,49.0492378],[2.0060007,49.0481258],[2.008136,49.0477033],[2.0083272,49.0483031],[2.0072915,49.0485059]]]]},"properties":{"code_section":"95183000HI","code_commune":"95183","section_courte":"HI"}},{"type":"Feature","geometry":{"type":"MultiPolygon","coordinates":[[[[2.005929,49.0442409],[2.0061542,49.0447969],[2.008136,49.0477033],[2.0060007,49.0481258],[1.9981452,49.0492378],[1.9968113,49.049392],[1.9962616,49.0490916],[1.9961862,49.0489606],[1.9958242,49.0487503],[1.9992859,49.0463355],[2.0001171,49.0458928],[2.0007414,49.0456557],[2.0014426,49.0454639],[2.0054766,49.0447705],[2.0055456,49.0445731],[2.0057737,49.0444069],[2.0057316,49.0442761],[2.005929,49.0442409]]]]},"properties":{"code_section":"95183000HK","code_commune":"95183","section_courte":"HK"}},{"type":"Feature","geometry":{"type":"MultiPolygon","coordinates":[[[[2.0054766,49.0447705],[2.0014426,49.0454639],[2.0007414,49.0456557],[2.000378,49.0457866],[1.9998234,49.0460303],[1.9994548,49.0462312],[1.9994726,49.0461046],[1.9990407,49.0457588],[1.9989175,49.0457842],[1.9987404,49.0457722],[1.998497,49.0456264],[1.9984642,49.0455098],[1.9984941,49.0454201],[1.9986804,49.0452858],[1.9986379,49.0448383],[1.9981022,49.0448901],[1.9980971,49.0444712],[1.9979756,49.0437869],[1.9980612,49.0437449],[1.9977436,49.042526],[1.9972054,49.0409399],[1.9992036,49.0392034],[1.9995428,49.0388422],[2.0006344,49.0387996],[2.0015143,49.0386803],[2.0037244,49.0409162],[2.0048837,49.0421687],[2.0052065,49.0427506],[2.005929,49.0442409],[2.0057316,49.0442761],[2.0057737,49.0444069],[2.0055456,49.0445731],[2.0054766,49.0447705]]]]},"properties":{"code_section":"95183000HL","code_commune":"95183","section_courte":"HL"}},{"type":"Feature","geometry":{"type":"MultiPolygon","coordinates":[[[[1.9981953,49.0448868],[1.9986379,49.0448383],[1.9986804,49.0452858],[1.9984941,49.0454201],[1.9984642,49.0455098],[1.998497,49.0456264],[1.9987404,49.0457722],[1.9989175,49.0457842],[1.9990407,49.0457588],[1.9994726,49.0461046],[1.9994548,49.0462312],[1.9958242,49.0487503],[1.9954831,49.0487219],[1.9933653,49.0478473],[1.9927694,49.0463419],[1.9979756,49.0437869],[1.9980971,49.0444712],[1.9981022,49.0448901],[1.9981953,49.0448868]]]]},"properties":{"code_section":"95183000HM","code_commune":"95183","section_courte":"HM"}},{"type":"Feature","geometry":{"type":"MultiPolygon","coordinates":[[[[2.0037244,49.0409162],[2.0001697,49.0373504],[1.9997741,49.036934],[1.9995853,49.036629],[1.999734,49.036609],[2.0007165,49.0366802],[2.0009819,49.0366575],[2.0011587,49.0368291],[2.0012574,49.036813],[2.0013033,49.036737],[2.0012896,49.0366681],[2.0014712,49.0366531],[2.001675,49.0369495],[2.0019563,49.0371805],[2.0025176,49.0374227],[2.0029663,49.0375767],[2.0030558,49.0375752],[2.0032241,49.0381257],[2.0032242,49.0383438],[2.0050499,49.0382582],[2.0050653,49.0382213],[2.0047999,49.0380992],[2.0066362,49.0383871],[2.0066534,49.0383442],[2.0067047,49.0383513],[2.0070976,49.0384387],[2.0065857,49.0389111],[2.0056367,49.0396818],[2.0047847,49.0402729],[2.0037244,49.0409162]]]]},"properties":{"code_section":"95183000HS","code_commune":"95183","section_courte":"HS"}},{"type":"Feature","geometry":{"type":"MultiPolygon","coordinates":[[[[2.0035419,49.0383285],[2.0032242,49.0383438],[2.0032241,49.0381257],[2.0030558,49.0375752],[2.0029663,49.0375767],[2.0025176,49.0374227],[2.0019563,49.0371805],[2.001675,49.0369495],[2.0014712,49.0366531],[2.0012896,49.0366681],[2.0013033,49.036737],[2.0012574,49.036813],[2.0011587,49.0368291],[2.0009819,49.0366575],[2.0007165,49.0366802],[1.999734,49.036609],[1.9995853,49.036629],[1.9997741,49.036934],[2.0001697,49.0373504],[1.9998955,49.0374188],[1.9996556,49.0370602],[1.9984908,49.0371587],[1.9984302,49.0371269],[1.9985637,49.0365746],[1.9984244,49.0365631],[1.9984498,49.036438],[1.9983087,49.0363849],[1.9973839,49.0368859],[1.9972033,49.0363121],[1.997142,49.0358094],[1.9980761,49.0355597],[1.9982777,49.0355282],[1.9985686,49.0355549],[1.998356,49.0350493],[1.9975611,49.0350398],[1.9975554,49.0350154],[1.997416,49.0350124],[1.9973006,49.0347127],[1.9970329,49.034697],[1.9971006,49.0343244],[1.996632,49.0342627],[1.9966201,49.0334096],[1.9972411,49.0333826],[1.9979894,49.033598],[1.9985949,49.0337085],[1.9986533,49.0340876],[1.9991459,49.0342211],[1.999896,49.0345642],[2.0005205,49.0346697],[2.000538,49.0344136],[2.0010281,49.0343909],[2.0019008,49.0344561],[2.0019408,49.034333],[2.002331,49.034307],[2.0028757,49.0343696],[2.0030171,49.0339867],[2.0033708,49.0333765],[2.0036312,49.0331154],[2.003953,49.0328656],[2.0041629,49.0327822],[2.0044287,49.0327337],[2.0053512,49.0327588],[2.0049269,49.0334724],[2.0046034,49.0339243],[2.0044127,49.0344508],[2.0042942,49.0344394],[2.0042013,49.0345989],[2.0039257,49.0345799],[2.0037786,49.0351888],[2.003906,49.0352191],[2.0037551,49.0355324],[2.004243,49.0355477],[2.0043254,49.0367439],[2.0049008,49.0367518],[2.0049135,49.0368238],[2.0051552,49.0368218],[2.0053418,49.0376363],[2.0054017,49.0376929],[2.005384,49.0377934],[2.0045791,49.0379344],[2.0045978,49.0379809],[2.0050653,49.0382213],[2.0050499,49.0382582],[2.0035419,49.0383285]]]]},"properties":{"code_section":"95183000HT","code_commune":"95183","section_courte":"HT"}},{"type":"Feature","geometry":{"type":"MultiPolygon","coordinates":[[[[1.9972784,49.0317915],[1.9974017,49.0315534],[1.9973825,49.0314217],[1.9980322,49.0315281],[1.9983589,49.0310294],[1.9985794,49.0312303],[1.9988914,49.0313818],[1.9988637,49.0312436],[1.9987962,49.0312368],[1.9984798,49.0310128],[1.9984682,49.0308975],[1.998844,49.0303082],[1.9990763,49.0303474],[1.9993231,49.02983],[1.9994808,49.029725],[1.9995585,49.0297712],[1.9994031,49.0300824],[2.0006592,49.0302093],[2.0006881,49.028719],[2.0008946,49.0289034],[2.0012561,49.0294646],[2.0020284,49.0301847],[2.0021492,49.030347],[2.0027529,49.0303999],[2.0026029,49.0312496],[2.0026476,49.0312784],[2.0040068,49.0311382],[2.0045107,49.0311155],[2.0058637,49.0311552],[2.0061637,49.031188],[2.0074008,49.0314891],[2.0084609,49.0318334],[2.0085587,49.0318427],[2.0087087,49.0318091],[2.0087373,49.0319985],[2.0081682,49.0321597],[2.0072034,49.0326533],[2.0068835,49.0327445],[2.0063266,49.0328115],[2.0058935,49.0328212],[2.0053481,49.0327934],[2.0053512,49.0327588],[2.0047248,49.0327347],[2.0044287,49.0327337],[2.0041629,49.0327822],[2.003953,49.0328656],[2.0036312,49.0331154],[2.0033708,49.0333765],[2.0030171,49.0339867],[2.0028757,49.0343696],[2.002331,49.034307],[2.0019408,49.034333],[2.0019008,49.0344561],[2.0010281,49.0343909],[2.000538,49.0344136],[2.0005205,49.0346697],[1.999896,49.0345642],[1.9991459,49.0342211],[1.9986533,49.0340876],[1.9985949,49.0337085],[1.9979894,49.033598],[1.9972411,49.0333826],[1.9967303,49.0334031],[1.9969647,49.0326664],[1.9970519,49.0326752],[1.9972784,49.0317915]]]]},"properties":{"code_section":"95183000HV","code_commune":"95183","section_courte":"HV"}},{"type":"Feature","geometry":{"type":"MultiPolygon","coordinates":[[[[1.9846999,49.0383244],[1.9848428,49.0384442],[1.9849474,49.038385],[1.9852485,49.0386879],[1.9854361,49.0385784],[1.985813,49.0389408],[1.9851703,49.0393222],[1.9845582,49.0387373],[1.9847613,49.0386674],[1.9842152,49.0381549],[1.984306,49.0381148],[1.9845977,49.038373],[1.9846999,49.0383244]]]]},"properties":{"code_section":"95183000ZA","code_commune":"95183","section_courte":"ZA"}}]}