{"type":"FeatureCollection","features":[{"type":"Feature","geometry":{"type":"MultiPolygon","coordinates":[[[[2.3298112,49.0383941],[2.3299307,49.0384831],[2.3302956,49.039282],[2.3306462,49.0404159],[2.3309122,49.0406648],[2.3316817,49.0412047],[2.3321011,49.0415564],[2.3324195,49.0419406],[2.333439,49.0429329],[2.3344393,49.0439773],[2.3348229,49.0443057],[2.3341295,49.0447515],[2.3347919,49.0452277],[2.3314025,49.0471268],[2.3307702,49.0467117],[2.3303364,49.0463545],[2.3300683,49.0460577],[2.3297221,49.0458991],[2.3290297,49.0453082],[2.3276608,49.0446963],[2.3274328,49.0449521],[2.3246859,49.0441091],[2.3243323,49.044599],[2.3225154,49.0438976],[2.3218448,49.0435764],[2.3195815,49.0416225],[2.3191813,49.0413358],[2.3189301,49.0412116],[2.317302,49.040647],[2.3168895,49.0404088],[2.3150991,49.0392919],[2.3144717,49.0388069],[2.3139761,49.0384874],[2.3129111,49.0379002],[2.312255,49.0374617],[2.3121931,49.0372766],[2.3122489,49.0371475],[2.3124835,49.0368601],[2.313327,49.0363032],[2.3144845,49.0351409],[2.3158772,49.0343494],[2.3180723,49.03298],[2.3201476,49.0320586],[2.3202792,49.0320546],[2.320541,49.0321428],[2.3209681,49.0321971],[2.3214485,49.0322104],[2.3227752,49.0321408],[2.3230466,49.0320629],[2.3239859,49.0313271],[2.3258157,49.0305891],[2.3253153,49.0312042],[2.3252951,49.0313591],[2.3257232,49.0321418],[2.3257795,49.0324095],[2.3257498,49.032691],[2.3254034,49.0338646],[2.3253939,49.0341122],[2.3256299,49.0343424],[2.3273001,49.0353704],[2.3274206,49.0355814],[2.3274473,49.0355598],[2.327632,49.0359762],[2.3278527,49.0363287],[2.3284638,49.0371897],[2.3289398,49.0377266],[2.3298112,49.0383941]]]]},"properties":{"code_section":"951990000B","code_commune":"95199","section_courte":"B"}},{"type":"Feature","geometry":{"type":"MultiPolygon","coordinates":[[[[2.3220228,49.0122488],[2.3216357,49.0128348],[2.3212655,49.0127381],[2.3213796,49.0132666],[2.3212478,49.0142228],[2.32068,49.0154498],[2.3201906,49.0163452],[2.3214893,49.0169284],[2.3223324,49.0178275],[2.3224286,49.0178974],[2.3230481,49.0181768],[2.3231259,49.018258],[2.3234429,49.0193016],[2.3238598,49.0201773],[2.3252213,49.0194121],[2.3256352,49.0192785],[2.3259238,49.0190641],[2.3266926,49.0199455],[2.3273387,49.0205006],[2.3277534,49.0207614],[2.3290442,49.0213078],[2.3292913,49.0215169],[2.3291874,49.0216382],[2.3292646,49.0216639],[2.3286994,49.0221429],[2.3286411,49.0222557],[2.3285723,49.0233598],[2.328617,49.023594],[2.3285921,49.023983],[2.327339,49.0238166],[2.3267659,49.0234756],[2.3265733,49.0233282],[2.326561,49.0232534],[2.3266602,49.0230686],[2.326247,49.0223271],[2.3246341,49.0212588],[2.324349,49.0211976],[2.3242084,49.0217179],[2.3236924,49.0228379],[2.3237295,49.0228785],[2.3229373,49.0232098],[2.3232249,49.0235307],[2.323381,49.0235261],[2.3234535,49.0234862],[2.3235275,49.0236257],[2.3223061,49.0239264],[2.3226294,49.0243225],[2.3222044,49.0245025],[2.3210541,49.0247179],[2.3209183,49.024561],[2.3205948,49.0243525],[2.3200114,49.0242813],[2.319823,49.0242996],[2.3200129,49.024907],[2.3185358,49.0250899],[2.3171457,49.0250466],[2.3164383,49.025141],[2.3168382,49.0261059],[2.3170452,49.0270695],[2.317079,49.027431],[2.3160322,49.0280361],[2.3157369,49.0283167],[2.3154973,49.0284857],[2.3148822,49.0286766],[2.3143542,49.0287811],[2.3142477,49.0288479],[2.3140949,49.029023],[2.3140641,49.0292226],[2.3144339,49.0295624],[2.3145697,49.0299831],[2.3147607,49.0301029],[2.3135083,49.0310478],[2.3127456,49.0315418],[2.310577,49.033099],[2.3108106,49.0334535],[2.3095541,49.034059],[2.3105458,49.0347358],[2.3092807,49.0353959],[2.3093084,49.035434],[2.3073365,49.0364351],[2.3068662,49.0365758],[2.3057184,49.0373019],[2.3015739,49.0368138],[2.3009474,49.0339311],[2.2992636,49.035149],[2.2990259,49.0347993],[2.2983518,49.0341444],[2.298043,49.0331753],[2.2976588,49.0328233],[2.2970366,49.0324485],[2.2955552,49.0319695],[2.2943294,49.0310748],[2.2941686,49.0308837],[2.2941149,49.0306368],[2.2940384,49.0305912],[2.2938954,49.0305885],[2.2937638,49.0303993],[2.2940794,49.0302723],[2.2974346,49.0285496],[2.2969953,49.0278794],[2.2957001,49.0272056],[2.3013924,49.0240011],[2.3025366,49.0238987],[2.3025643,49.0239965],[2.3044938,49.0240126],[2.3046041,49.0239503],[2.3051325,49.0238821],[2.3053167,49.0237923],[2.3057541,49.0237392],[2.3056715,49.0235475],[2.3059181,49.0233141],[2.3059212,49.023267],[2.305706,49.0231969],[2.30559,49.0232024],[2.3055024,49.023145],[2.3051048,49.0231177],[2.3050854,49.023021],[2.3047681,49.0230109],[2.3045229,49.0229272],[2.3043242,49.0228107],[2.3042776,49.0220997],[2.3041697,49.0216074],[2.3040547,49.0207282],[2.3128128,49.0166207],[2.3130587,49.0165476],[2.3127457,49.0159867],[2.3127031,49.0157116],[2.3127564,49.0147042],[2.3144188,49.0146496],[2.3145849,49.0145973],[2.3152002,49.0141339],[2.3155415,49.0138255],[2.3157249,49.0110846],[2.3186515,49.011705],[2.3192598,49.0112725],[2.3195261,49.0111636],[2.3200266,49.0108451],[2.3201522,49.0106852],[2.3218518,49.0106409],[2.3220228,49.0122488]]]]},"properties":{"code_section":"951990000C","code_commune":"95199","section_courte":"C"}},{"type":"Feature","geometry":{"type":"MultiPolygon","coordinates":[[[[2.3108106,49.0334535],[2.3109114,49.0336309],[2.3120119,49.0370341],[2.3121904,49.0373459],[2.3121068,49.0376081],[2.3109669,49.0389458],[2.3102527,49.0400068],[2.3087846,49.0389662],[2.3083248,49.0385956],[2.3075929,49.0382973],[2.3067895,49.0387656],[2.3060877,49.0382239],[2.3056932,49.0373893],[2.3057184,49.0373019],[2.3068662,49.0365758],[2.3073365,49.0364351],[2.3093084,49.035434],[2.3092807,49.0353959],[2.3105458,49.0347358],[2.3095541,49.034059],[2.3108106,49.0334535]]]]},"properties":{"code_section":"95199000AA","code_commune":"95199","section_courte":"AA"}},{"type":"Feature","geometry":{"type":"MultiPolygon","coordinates":[[[[2.3158013,49.0308331],[2.3160234,49.0309326],[2.3160277,49.0309784],[2.3168285,49.0319827],[2.3173571,49.0322798],[2.3180136,49.0330204],[2.3158772,49.0343494],[2.3144845,49.0351409],[2.313327,49.0363032],[2.3124835,49.0368601],[2.3122489,49.0371475],[2.3121904,49.0373459],[2.3120119,49.0370341],[2.3109114,49.0336309],[2.310577,49.033099],[2.3127456,49.0315418],[2.3135083,49.0310478],[2.3147607,49.0301029],[2.3153206,49.0304614],[2.3158013,49.0308331]]]]},"properties":{"code_section":"95199000AB","code_commune":"95199","section_courte":"AB"}},{"type":"Feature","geometry":{"type":"MultiPolygon","coordinates":[[[[2.3256369,49.0266868],[2.3256639,49.0268411],[2.3252193,49.026908],[2.3249783,49.0269741],[2.3244521,49.027178],[2.3241473,49.0271669],[2.3236447,49.027513],[2.323228,49.0277532],[2.3229541,49.0280064],[2.3226435,49.0281776],[2.3223035,49.0283102],[2.3214366,49.0283854],[2.3205742,49.0285446],[2.3165434,49.0301409],[2.3163411,49.0303151],[2.3160234,49.0309326],[2.3158013,49.0308331],[2.3153206,49.0304614],[2.3145697,49.0299831],[2.3144339,49.0295624],[2.3140641,49.0292226],[2.3140949,49.029023],[2.314307,49.0288046],[2.3148822,49.0286766],[2.3154973,49.0284857],[2.3157369,49.0283167],[2.3160322,49.0280361],[2.317079,49.027431],[2.3170452,49.0270695],[2.3168382,49.0261059],[2.3164383,49.025141],[2.3171457,49.0250466],[2.3185358,49.0250899],[2.3200129,49.024907],[2.3202864,49.02493],[2.3219385,49.0252425],[2.321891,49.0254446],[2.3219712,49.0257459],[2.3223204,49.0263222],[2.3227779,49.0262126],[2.3236743,49.0262734],[2.3240435,49.0261677],[2.3249401,49.0258159],[2.3253126,49.0261696],[2.3256369,49.0266868]]]]},"properties":{"code_section":"95199000AC","code_commune":"95199","section_courte":"AC"}},{"type":"Feature","geometry":{"type":"MultiPolygon","coordinates":[[[[2.3204275,49.0321052],[2.3202792,49.0320546],[2.3201476,49.0320586],[2.3180136,49.0330204],[2.3173571,49.0322798],[2.3168285,49.0319827],[2.3160277,49.0309784],[2.3163411,49.0303151],[2.3165434,49.0301409],[2.3205742,49.0285446],[2.3214366,49.0283854],[2.3223035,49.0283102],[2.3226435,49.0281776],[2.3229541,49.0280064],[2.323228,49.0277532],[2.3236447,49.027513],[2.3241473,49.0271669],[2.3244521,49.027178],[2.3249783,49.0269741],[2.3252193,49.026908],[2.3256639,49.0268411],[2.3258558,49.0281967],[2.3259812,49.0285021],[2.3264765,49.0291609],[2.3262297,49.0298294],[2.3259809,49.0303647],[2.3258157,49.0305891],[2.3239859,49.0313271],[2.3230466,49.0320629],[2.3227752,49.0321408],[2.3214485,49.0322104],[2.3209681,49.0321971],[2.3204275,49.0321052]]]]},"properties":{"code_section":"95199000AD","code_commune":"95199","section_courte":"AD"}},{"type":"Feature","geometry":{"type":"MultiPolygon","coordinates":[[[[2.3358526,49.031416],[2.3380516,49.0323863],[2.3358851,49.0328152],[2.335831,49.0327079],[2.3338884,49.0330857],[2.3338895,49.0334834],[2.3329044,49.0337099],[2.3300542,49.0342714],[2.3293361,49.034471],[2.3285701,49.0347656],[2.3274714,49.0353573],[2.3272384,49.0353553],[2.3270709,49.0352167],[2.3256299,49.0343424],[2.3253939,49.0341122],[2.3254034,49.0338646],[2.3257498,49.032691],[2.3257795,49.0324095],[2.3257232,49.0321418],[2.3252951,49.0313591],[2.3253153,49.0312042],[2.3259157,49.0304634],[2.3262297,49.0298294],[2.3287303,49.0297044],[2.3287349,49.0297344],[2.3290137,49.0297209],[2.3301795,49.0295666],[2.3305311,49.0297634],[2.3307191,49.0298196],[2.3326921,49.0302545],[2.3351582,49.0311098],[2.3358526,49.031416]]]]},"properties":{"code_section":"95199000AE","code_commune":"95199","section_courte":"AE"}},{"type":"Feature","geometry":{"type":"MultiPolygon","coordinates":[[[[2.338433,49.0325497],[2.3402115,49.0333247],[2.339621,49.0337313],[2.3386741,49.0342585],[2.3369295,49.0349174],[2.3351667,49.0354869],[2.3344856,49.0358089],[2.332918,49.0366107],[2.330846,49.0379662],[2.3299307,49.0384831],[2.3289398,49.0377266],[2.3284638,49.0371897],[2.3278527,49.0363287],[2.327632,49.0359762],[2.3274473,49.0355598],[2.3274206,49.0355814],[2.3273001,49.0353704],[2.3273599,49.0353398],[2.3274714,49.0353573],[2.3285701,49.0347656],[2.3293361,49.034471],[2.3300542,49.0342714],[2.3329044,49.0337099],[2.3338895,49.0334834],[2.3338884,49.0330857],[2.335831,49.0327079],[2.3358851,49.0328152],[2.3380516,49.0323863],[2.338433,49.0325497]]]]},"properties":{"code_section":"95199000AH","code_commune":"95199","section_courte":"AH"}},{"type":"Feature","geometry":{"type":"MultiPolygon","coordinates":[[[[2.3344856,49.0358089],[2.3397599,49.0396469],[2.3390035,49.041413],[2.3371298,49.0453107],[2.3370897,49.0457194],[2.3348229,49.0443057],[2.3344393,49.0439773],[2.333439,49.0429329],[2.3324195,49.0419406],[2.3321011,49.0415564],[2.3316817,49.0412047],[2.3309122,49.0406648],[2.3306462,49.0404159],[2.3302956,49.039282],[2.3299307,49.0384831],[2.330846,49.0379662],[2.332918,49.0366107],[2.3344856,49.0358089]]]]},"properties":{"code_section":"95199000AI","code_commune":"95199","section_courte":"AI"}},{"type":"Feature","geometry":{"type":"MultiPolygon","coordinates":[[[[2.3369295,49.0349174],[2.3386741,49.0342585],[2.339621,49.0337313],[2.3402115,49.0333247],[2.3414739,49.0337769],[2.3420381,49.0339264],[2.3397599,49.0396469],[2.3344856,49.0358089],[2.3351667,49.0354869],[2.3369295,49.0349174]]]]},"properties":{"code_section":"95199000AK","code_commune":"95199","section_courte":"AK"}},{"type":"Feature","geometry":{"type":"MultiPolygon","coordinates":[[[[2.3342271,49.0293743],[2.3337927,49.0289497],[2.3346898,49.0286475],[2.3345281,49.028395],[2.3345837,49.0283742],[2.3345476,49.0282983],[2.3354505,49.0281074],[2.3363723,49.0280385],[2.3370252,49.0280506],[2.3374522,49.0280906],[2.3379951,49.0282043],[2.3390749,49.0285201],[2.3392563,49.0287211],[2.3393376,49.0296266],[2.3396215,49.0302976],[2.3397894,49.0305732],[2.3404797,49.031288],[2.3411973,49.0309997],[2.3412945,49.030987],[2.3416063,49.0309837],[2.3425581,49.0310934],[2.3427731,49.0310663],[2.3430599,49.0309561],[2.3431239,49.0310308],[2.3431471,49.0311289],[2.3429319,49.0316653],[2.3430984,49.03163],[2.3430599,49.0317639],[2.3428862,49.0317761],[2.3425174,49.032845],[2.3424136,49.0333876],[2.3420381,49.0339264],[2.3414739,49.0337769],[2.3402115,49.0333247],[2.3351582,49.0311098],[2.3348026,49.0309854],[2.3357634,49.0302828],[2.3354139,49.0300796],[2.3351387,49.0302822],[2.3342271,49.0293743]]]]},"properties":{"code_section":"95199000AL","code_commune":"95199","section_courte":"AL"}},{"type":"Feature","geometry":{"type":"MultiPolygon","coordinates":[[[[2.3506542,49.0293929],[2.3516572,49.0288607],[2.3523491,49.0292578],[2.3530208,49.0294864],[2.3517489,49.0305635],[2.3491978,49.0321783],[2.3467689,49.0333193],[2.3467397,49.0333234],[2.3464724,49.0326243],[2.3455684,49.0328462],[2.3458988,49.0338753],[2.3454373,49.0337851],[2.3447466,49.0337061],[2.3430512,49.0340117],[2.3420696,49.0338956],[2.3421379,49.0337413],[2.3424136,49.0333876],[2.3425174,49.032845],[2.3428862,49.0317761],[2.3430599,49.0317639],[2.3431125,49.0315855],[2.346455,49.0308691],[2.346589,49.0309034],[2.346856,49.0308445],[2.3470711,49.0307352],[2.3479637,49.0305046],[2.3489117,49.030185],[2.3502166,49.0296316],[2.3506542,49.0293929]]]]},"properties":{"code_section":"95199000AM","code_commune":"95199","section_courte":"AM"}},{"type":"Feature","geometry":{"type":"MultiPolygon","coordinates":[[[[2.3514394,49.0287808],[2.3516375,49.028871],[2.3502166,49.0296316],[2.3485256,49.0303303],[2.3470711,49.0307352],[2.346856,49.0308445],[2.346589,49.0309034],[2.346455,49.0308691],[2.3445198,49.0312738],[2.3431125,49.0315855],[2.3430984,49.03163],[2.3429319,49.0316653],[2.3431471,49.0311289],[2.3430599,49.0309561],[2.3432436,49.0308457],[2.3450419,49.0264055],[2.3460994,49.0266245],[2.3476143,49.0270444],[2.3480635,49.0272142],[2.3483038,49.027246],[2.3489132,49.0275057],[2.349839,49.0280961],[2.3514394,49.0287808]]]]},"properties":{"code_section":"95199000AN","code_commune":"95199","section_courte":"AN"}},{"type":"Feature","geometry":{"type":"MultiPolygon","coordinates":[[[[2.3479372,49.0247894],[2.3485916,49.0249837],[2.3491038,49.0250841],[2.3501602,49.025367],[2.3504348,49.0254059],[2.3506877,49.0253713],[2.3508487,49.025409],[2.3525463,49.025876],[2.3541796,49.0263984],[2.3547925,49.0267263],[2.353724,49.0281748],[2.3530208,49.0294864],[2.3523491,49.0292578],[2.3516572,49.0288607],[2.3500732,49.0282089],[2.349839,49.0280961],[2.3489132,49.0275057],[2.3483038,49.027246],[2.3480635,49.0272142],[2.3476143,49.0270444],[2.3460994,49.0266245],[2.3450419,49.0264055],[2.3460511,49.0242627],[2.3466408,49.0244578],[2.3479372,49.0247894]]]]},"properties":{"code_section":"95199000AO","code_commune":"95199","section_courte":"AO"}},{"type":"Feature","geometry":{"type":"MultiPolygon","coordinates":[[[[2.3445805,49.0263331],[2.3427595,49.0257455],[2.3421694,49.0256069],[2.3411992,49.0254878],[2.340464,49.0254685],[2.3391395,49.0256844],[2.3388719,49.025304],[2.3383534,49.0248056],[2.3380606,49.0245811],[2.3376308,49.0243045],[2.3368416,49.0239277],[2.3361589,49.0237238],[2.3354152,49.0235685],[2.3346948,49.0234951],[2.3339321,49.023477],[2.3337636,49.0233237],[2.3343129,49.0226541],[2.334416,49.022424],[2.334713,49.0225815],[2.3352121,49.0226311],[2.3363487,49.0226],[2.3370609,49.0226362],[2.3379981,49.022606],[2.3389177,49.0226938],[2.3394876,49.02278],[2.3399639,49.0228067],[2.3405517,49.0229065],[2.3416145,49.0231859],[2.3417696,49.0232046],[2.3420748,49.023357],[2.3426734,49.023319],[2.3439105,49.0233766],[2.3439741,49.0233584],[2.3440931,49.0232452],[2.3452517,49.0235206],[2.345369,49.0236844],[2.34514,49.023668],[2.3453194,49.0237042],[2.3457669,49.0239036],[2.3461833,49.0239969],[2.3450113,49.0264584],[2.3445805,49.0263331]]]]},"properties":{"code_section":"95199000AP","code_commune":"95199","section_courte":"AP"}},{"type":"Feature","geometry":{"type":"MultiPolygon","coordinates":[[[[2.3345496,49.0281629],[2.3339412,49.0272906],[2.3338546,49.0273148],[2.3322335,49.024987],[2.332904,49.0248331],[2.3333376,49.0251197],[2.3335352,49.0252025],[2.3336969,49.0252288],[2.3345709,49.0252077],[2.3348707,49.0252532],[2.3351639,49.0253516],[2.335419,49.0254917],[2.3360253,49.0259193],[2.3362983,49.0260374],[2.337258,49.0258988],[2.3389957,49.0257288],[2.3391395,49.0256844],[2.340464,49.0254685],[2.340737,49.0254588],[2.3411992,49.0254878],[2.3421694,49.0256069],[2.3427595,49.0257455],[2.3450113,49.0264584],[2.3432436,49.0308457],[2.342975,49.0309996],[2.3427731,49.0310663],[2.3423584,49.0310849],[2.3416063,49.0309837],[2.3412945,49.030987],[2.3411973,49.0309997],[2.3404797,49.031288],[2.3397894,49.0305732],[2.3396215,49.0302976],[2.3393376,49.0296266],[2.3392563,49.0287211],[2.3390749,49.0285201],[2.3379951,49.0282043],[2.3374522,49.0280906],[2.3370252,49.0280506],[2.3358713,49.0280609],[2.3354505,49.0281074],[2.3345476,49.0282983],[2.3344622,49.028196],[2.3345496,49.0281629]]]]},"properties":{"code_section":"95199000AR","code_commune":"95199","section_courte":"AR"}},{"type":"Feature","geometry":{"type":"MultiPolygon","coordinates":[[[[2.3351414,49.0307328],[2.3348026,49.0309854],[2.3326921,49.0302545],[2.3305311,49.0297634],[2.3301795,49.0295666],[2.3290137,49.0297209],[2.3287349,49.0297344],[2.3287303,49.0297044],[2.3262297,49.0298294],[2.3264765,49.0291609],[2.3259812,49.0285021],[2.3258558,49.0281967],[2.3256639,49.0268411],[2.3259759,49.0268212],[2.3261648,49.026948],[2.3268387,49.0269344],[2.3267091,49.0264728],[2.3264112,49.0257752],[2.3266863,49.0257767],[2.3275377,49.02588],[2.3280998,49.025992],[2.3284573,49.0258646],[2.3299456,49.0256724],[2.3313,49.0252118],[2.3322335,49.024987],[2.3338546,49.0273148],[2.3339412,49.0272906],[2.3345496,49.0281629],[2.3344622,49.028196],[2.3345837,49.0283742],[2.3345281,49.028395],[2.3346898,49.0286475],[2.3337927,49.0289497],[2.3351387,49.0302822],[2.3354139,49.0300796],[2.3357634,49.0302828],[2.3351414,49.0307328]]]]},"properties":{"code_section":"95199000AS","code_commune":"95199","section_courte":"AS"}},{"type":"Feature","geometry":{"type":"MultiPolygon","coordinates":[[[[2.3383534,49.0248056],[2.3388719,49.025304],[2.3391395,49.0256844],[2.3389957,49.0257288],[2.337258,49.0258988],[2.3362983,49.0260374],[2.3360253,49.0259193],[2.335419,49.0254917],[2.3351639,49.0253516],[2.3348707,49.0252532],[2.3345709,49.0252077],[2.3336969,49.0252288],[2.3335352,49.0252025],[2.3333376,49.0251197],[2.332904,49.0248331],[2.3313,49.0252118],[2.3299456,49.0256724],[2.329363,49.0240262],[2.3285921,49.023983],[2.328617,49.023594],[2.3285723,49.0233598],[2.3286193,49.0223538],[2.3286994,49.0221429],[2.329355,49.0215843],[2.3297424,49.0215556],[2.3301119,49.0214382],[2.3317418,49.0223338],[2.3318011,49.0223259],[2.3321586,49.022103],[2.3325251,49.0217566],[2.3335407,49.0220259],[2.3337078,49.0220545],[2.3339291,49.0220372],[2.334055,49.0221445],[2.3343094,49.0222283],[2.334366,49.02239],[2.334416,49.022424],[2.3343129,49.0226541],[2.3337636,49.0233237],[2.3339321,49.023477],[2.3346948,49.0234951],[2.3354152,49.0235685],[2.3361589,49.0237238],[2.3368416,49.0239277],[2.3376308,49.0243045],[2.3383534,49.0248056]]]]},"properties":{"code_section":"95199000AT","code_commune":"95199","section_courte":"AT"}},{"type":"Feature","geometry":{"type":"MultiPolygon","coordinates":[[[[2.3230805,49.0231451],[2.3237295,49.0228785],[2.3236924,49.0228379],[2.3242084,49.0217179],[2.324349,49.0211976],[2.3245718,49.0212346],[2.326247,49.0223271],[2.3266602,49.0230686],[2.326561,49.0232534],[2.3265733,49.0233282],[2.3272552,49.0237881],[2.3274437,49.023841],[2.3285921,49.023983],[2.329363,49.0240262],[2.3299456,49.0256724],[2.3284573,49.0258646],[2.3280998,49.025992],[2.3275377,49.02588],[2.3266863,49.0257767],[2.3264112,49.0257752],[2.3267091,49.0264728],[2.3268387,49.0269344],[2.3261648,49.026948],[2.3259759,49.0268212],[2.3256639,49.0268411],[2.3256369,49.0266868],[2.3253126,49.0261696],[2.3249401,49.0258159],[2.3240435,49.0261677],[2.3236743,49.0262734],[2.3227779,49.0262126],[2.3223204,49.0263222],[2.3219712,49.0257459],[2.321891,49.0254446],[2.3219385,49.0252425],[2.3202864,49.02493],[2.3200129,49.024907],[2.319823,49.0242996],[2.3200114,49.0242813],[2.3205948,49.0243525],[2.3209183,49.024561],[2.3210541,49.0247179],[2.3222044,49.0245025],[2.3226294,49.0243225],[2.3223061,49.0239264],[2.3235275,49.0236257],[2.3234535,49.0234862],[2.323381,49.0235261],[2.3232249,49.0235307],[2.3229373,49.0232098],[2.3230805,49.0231451]]]]},"properties":{"code_section":"95199000AV","code_commune":"95199","section_courte":"AV"}}]}