{"type":"FeatureCollection","features":[{"type":"Feature","geometry":{"type":"MultiPolygon","coordinates":[[[[2.3228782,48.9823116],[2.3228676,48.9820224],[2.322561,48.9812682],[2.3225381,48.9810408],[2.3225845,48.9807096],[2.3227377,48.9804326],[2.3235761,48.9805039],[2.3239215,48.9803172],[2.3237435,48.979805],[2.3235072,48.9793169],[2.323438,48.9784197],[2.3234958,48.9782552],[2.3240021,48.9780624],[2.3239475,48.9779344],[2.3265225,48.9781042],[2.3264985,48.9780166],[2.326901,48.977989],[2.3269584,48.9781886],[2.3276165,48.9781455],[2.3276223,48.9784154],[2.32806,48.9784242],[2.3324998,48.9779974],[2.3329939,48.9779755],[2.3339592,48.9780086],[2.3340296,48.9780501],[2.333985,48.9787282],[2.3342036,48.9808639],[2.3341832,48.9816141],[2.3334381,48.9817637],[2.3322515,48.9820825],[2.3317677,48.9822789],[2.3312906,48.9825269],[2.329937,48.9826235],[2.3292448,48.982732],[2.3285715,48.9828746],[2.3281709,48.9830045],[2.3267401,48.9830394],[2.3255081,48.9832016],[2.3228782,48.9823116]]]]},"properties":{"code_section":"95197000AB","code_commune":"95197","section_courte":"AB"}},{"type":"Feature","geometry":{"type":"MultiPolygon","coordinates":[[[[2.3341658,48.9804489],[2.3339897,48.9788302],[2.3340246,48.9781095],[2.3348616,48.9781917],[2.3358768,48.9781094],[2.3362015,48.9779835],[2.3375773,48.9779566],[2.340412,48.9781974],[2.3419693,48.9782118],[2.3421674,48.9782777],[2.3426347,48.978562],[2.3435065,48.9792703],[2.3436618,48.9792845],[2.3436456,48.9797296],[2.3432071,48.9818386],[2.3427821,48.9832831],[2.3417228,48.9828989],[2.3412207,48.9826205],[2.3406585,48.9821621],[2.3403181,48.9816799],[2.3399305,48.9812464],[2.3393976,48.9808358],[2.3388734,48.9805537],[2.3382638,48.9805471],[2.3373148,48.9807107],[2.3368873,48.9806328],[2.3365814,48.9808361],[2.3362085,48.9811549],[2.3356443,48.9810351],[2.3350965,48.980977],[2.3345711,48.980868],[2.3341942,48.9808526],[2.3341658,48.9804489]]]]},"properties":{"code_section":"95197000AC","code_commune":"95197","section_courte":"AC"}},{"type":"Feature","geometry":{"type":"MultiPolygon","coordinates":[[[[2.3371116,48.9751965],[2.3414643,48.974768],[2.3427146,48.97491],[2.342938,48.9754895],[2.3438232,48.9770613],[2.3441955,48.9780423],[2.3440782,48.9784596],[2.3441446,48.9786979],[2.3440567,48.9788859],[2.3437494,48.9791305],[2.3436618,48.9792845],[2.3435065,48.9792703],[2.3426347,48.978562],[2.3421674,48.9782777],[2.3419693,48.9782118],[2.340412,48.9781974],[2.3375773,48.9779566],[2.3362015,48.9779835],[2.3358768,48.9781094],[2.3348616,48.9781917],[2.3340246,48.9781095],[2.3340493,48.9772547],[2.3339933,48.9765395],[2.3337872,48.9754302],[2.3371116,48.9751965]]]]},"properties":{"code_section":"95197000AD","code_commune":"95197","section_courte":"AD"}},{"type":"Feature","geometry":{"type":"MultiPolygon","coordinates":[[[[2.326898,48.9779904],[2.3264985,48.9780166],[2.3265225,48.9781042],[2.3239475,48.9779344],[2.3238991,48.9778201],[2.3239084,48.977371],[2.3241764,48.9772855],[2.3241343,48.9767534],[2.3242198,48.9763527],[2.3242596,48.9757132],[2.3241397,48.9753562],[2.3236803,48.9734613],[2.3247438,48.9733559],[2.3289699,48.9728113],[2.3291088,48.9735723],[2.3306396,48.9733674],[2.3321346,48.973293],[2.3326418,48.9745122],[2.3329155,48.9748271],[2.33297,48.9749946],[2.3328056,48.9752863],[2.3328375,48.9753868],[2.3337872,48.9754302],[2.3339933,48.9765395],[2.3340493,48.9772547],[2.3340296,48.9780501],[2.3339592,48.9780086],[2.3329939,48.9779755],[2.3324998,48.9779974],[2.32806,48.9784242],[2.3276223,48.9784154],[2.3276165,48.9781455],[2.3269584,48.9781886],[2.326898,48.9779904]]]]},"properties":{"code_section":"95197000AE","code_commune":"95197","section_courte":"AE"}},{"type":"Feature","geometry":{"type":"MultiPolygon","coordinates":[[[[2.3324749,48.9706052],[2.333571,48.9708368],[2.3340164,48.9709777],[2.3352184,48.9714793],[2.3358098,48.9717946],[2.3361459,48.971914],[2.336289,48.9720135],[2.3363683,48.9722249],[2.3363645,48.9726271],[2.3363051,48.9728806],[2.3360376,48.9734412],[2.3358295,48.9740588],[2.3358521,48.9742344],[2.3356816,48.9752946],[2.333934,48.9754263],[2.3328375,48.9753868],[2.3328056,48.9752863],[2.33297,48.9749946],[2.3329155,48.9748271],[2.3326418,48.9745122],[2.3321346,48.973293],[2.3306396,48.9733674],[2.3291088,48.9735723],[2.3287731,48.9713046],[2.3296857,48.9711799],[2.3281107,48.9691322],[2.3296012,48.9688337],[2.3297457,48.9687773],[2.3298069,48.9688444],[2.330472,48.9685638],[2.3313394,48.9694896],[2.3313152,48.969598],[2.3310354,48.969872],[2.33079,48.9702352],[2.3324749,48.9706052]]]]},"properties":{"code_section":"95197000AH","code_commune":"95197","section_courte":"AH"}},{"type":"Feature","geometry":{"type":"MultiPolygon","coordinates":[[[[2.3218534,48.9662676],[2.3236196,48.9649791],[2.3238725,48.9649285],[2.3243056,48.9654055],[2.3246433,48.9656776],[2.3251464,48.9660257],[2.3254692,48.9662005],[2.3261855,48.9665002],[2.3275211,48.9669731],[2.3278623,48.9671404],[2.3278764,48.9671061],[2.328534,48.967416],[2.3285843,48.9673737],[2.3288074,48.9675835],[2.3297457,48.9687773],[2.3296012,48.9688337],[2.3281107,48.9691322],[2.3296857,48.9711799],[2.3292674,48.9712537],[2.3284427,48.9713263],[2.3267873,48.9716464],[2.3266856,48.9712075],[2.3246061,48.9714641],[2.3242793,48.9706095],[2.3246487,48.9705519],[2.324403,48.9698514],[2.3245559,48.9698147],[2.323878,48.9682777],[2.3235904,48.9683361],[2.3219501,48.9688291],[2.3216259,48.9690097],[2.3214066,48.9684065],[2.3213155,48.96837],[2.3208068,48.967029],[2.3212712,48.966659],[2.3212998,48.9666789],[2.3218534,48.9662676]]]]},"properties":{"code_section":"95197000AI","code_commune":"95197","section_courte":"AI"}},{"type":"Feature","geometry":{"type":"MultiPolygon","coordinates":[[[[2.328653,48.9635904],[2.328711,48.9636236],[2.329818,48.9631529],[2.3313228,48.9647793],[2.3305793,48.9650541],[2.3313847,48.9660115],[2.3317431,48.966371],[2.3342315,48.9654341],[2.3344414,48.9656174],[2.3346955,48.9659527],[2.3335909,48.9663196],[2.3338817,48.9667159],[2.3337541,48.9669096],[2.333168,48.9675584],[2.3335166,48.9681558],[2.3333238,48.9682762],[2.3319302,48.9689427],[2.3314715,48.9694303],[2.3313431,48.9695102],[2.330472,48.9685638],[2.3298069,48.9688444],[2.3288074,48.9675835],[2.3285843,48.9673737],[2.3283357,48.9670442],[2.3283313,48.9669222],[2.3264177,48.9644755],[2.3264777,48.9644506],[2.3265469,48.964471],[2.3279956,48.9639061],[2.3283602,48.9637544],[2.328653,48.9635904]]]]},"properties":{"code_section":"95197000AK","code_commune":"95197","section_courte":"AK"}},{"type":"Feature","geometry":{"type":"MultiPolygon","coordinates":[[[[2.3200457,48.9583769],[2.3207986,48.9580717],[2.3227273,48.9575284],[2.3254812,48.9582942],[2.3278731,48.9594968],[2.3294948,48.9599924],[2.3300167,48.9602362],[2.3314919,48.9610038],[2.3303112,48.9616292],[2.3305158,48.9617996],[2.3295172,48.9622962],[2.3306237,48.9633784],[2.3301948,48.9635667],[2.329818,48.9631529],[2.328711,48.9636236],[2.328653,48.9635904],[2.328287,48.9637894],[2.3268115,48.9643739],[2.3265469,48.964471],[2.3264777,48.9644506],[2.3264177,48.9644755],[2.3256368,48.9634587],[2.3243103,48.9620563],[2.3238555,48.9623856],[2.3237287,48.9623175],[2.323685,48.9623472],[2.3236693,48.9622662],[2.3238206,48.9619733],[2.3235111,48.961931],[2.3231213,48.9616524],[2.3231902,48.9616152],[2.3223302,48.9607956],[2.3227017,48.9605851],[2.3224401,48.9604039],[2.3225297,48.9602366],[2.32229,48.9600544],[2.3225449,48.9591732],[2.3213168,48.9591893],[2.3189743,48.9590005],[2.3197689,48.9585124],[2.3200457,48.9583769]]]]},"properties":{"code_section":"95197000AL","code_commune":"95197","section_courte":"AL"}},{"type":"Feature","geometry":{"type":"MultiPolygon","coordinates":[[[[2.3175171,48.9619309],[2.3160478,48.960646],[2.3175224,48.959777],[2.3189584,48.9590349],[2.3189743,48.9590005],[2.3213168,48.9591893],[2.3225449,48.9591732],[2.32229,48.9600544],[2.3189555,48.9614409],[2.3191964,48.9616652],[2.3179978,48.9623674],[2.3175171,48.9619309]]]]},"properties":{"code_section":"95197000AM","code_commune":"95197","section_courte":"AM"}},{"type":"Feature","geometry":{"type":"MultiPolygon","coordinates":[[[[2.3225159,48.9609683],[2.3231902,48.9616152],[2.3185391,48.964768],[2.3184448,48.9648701],[2.317009,48.9658861],[2.316723,48.9653027],[2.3162327,48.9647289],[2.3159246,48.9641373],[2.3129422,48.9624099],[2.3160478,48.960646],[2.3179978,48.9623674],[2.3191964,48.9616652],[2.3189555,48.9614409],[2.32229,48.9600544],[2.3225297,48.9602366],[2.3224401,48.9604039],[2.3227017,48.9605851],[2.3223302,48.9607956],[2.3225159,48.9609683]]]]},"properties":{"code_section":"95197000AN","code_commune":"95197","section_courte":"AN"}},{"type":"Feature","geometry":{"type":"MultiPolygon","coordinates":[[[[2.3237287,48.9623175],[2.3238555,48.9623856],[2.3243103,48.9620563],[2.3256368,48.9634587],[2.3283313,48.9669222],[2.3283357,48.9670442],[2.3285843,48.9673737],[2.328534,48.967416],[2.3278764,48.9671061],[2.3278623,48.9671404],[2.3275211,48.9669731],[2.3261855,48.9665002],[2.3254692,48.9662005],[2.3251464,48.9660257],[2.3246433,48.9656776],[2.3243056,48.9654055],[2.3238725,48.9649285],[2.3236196,48.9649791],[2.3212998,48.9666789],[2.3212712,48.966659],[2.3212211,48.9666973],[2.3193993,48.9656011],[2.3195689,48.9654326],[2.3187034,48.9649756],[2.3186601,48.9650052],[2.3184448,48.9648701],[2.3185391,48.964768],[2.3231213,48.9616524],[2.3235111,48.961931],[2.3238206,48.9619733],[2.3236693,48.9622662],[2.323685,48.9623472],[2.3237287,48.9623175]]]]},"properties":{"code_section":"95197000AO","code_commune":"95197","section_courte":"AO"}},{"type":"Feature","geometry":{"type":"MultiPolygon","coordinates":[[[[2.3154009,48.9670228],[2.3164287,48.9663286],[2.3184448,48.9648701],[2.3186601,48.9650052],[2.3187034,48.9649756],[2.3195689,48.9654326],[2.3193993,48.9656011],[2.3212211,48.9666973],[2.3208068,48.967029],[2.3213155,48.96837],[2.3214066,48.9684065],[2.3216468,48.9690712],[2.3202303,48.9693258],[2.3209022,48.9699323],[2.3166482,48.96988],[2.316532,48.9699715],[2.316513,48.9702208],[2.3165825,48.9712636],[2.315656,48.9709104],[2.3154347,48.9707937],[2.3138496,48.9695868],[2.3106348,48.9719156],[2.3098095,48.9711913],[2.3097126,48.9707217],[2.3154009,48.9670228]]]]},"properties":{"code_section":"95197000AP","code_commune":"95197","section_courte":"AP"}},{"type":"Feature","geometry":{"type":"MultiPolygon","coordinates":[[[[2.3166482,48.96988],[2.3209022,48.9699323],[2.3202303,48.9693258],[2.3216468,48.9690712],[2.3216259,48.9690097],[2.3219501,48.9688291],[2.3235904,48.9683361],[2.323878,48.9682777],[2.3245559,48.9698147],[2.324403,48.9698514],[2.3246487,48.9705519],[2.3242793,48.9706095],[2.3246061,48.9714641],[2.3266856,48.9712075],[2.3267873,48.9716464],[2.3284427,48.9713263],[2.3287731,48.9713046],[2.3289699,48.9728113],[2.3247438,48.9733559],[2.3236803,48.9734613],[2.3236901,48.9735673],[2.3219007,48.9737121],[2.3216797,48.9737515],[2.3212301,48.9740485],[2.3196052,48.9740137],[2.3189869,48.9740316],[2.3180505,48.9740714],[2.3180536,48.9741591],[2.3168713,48.97421],[2.3166366,48.9733701],[2.3166114,48.9730514],[2.3166187,48.9718431],[2.316513,48.9702208],[2.316532,48.9699715],[2.3166482,48.96988]]]]},"properties":{"code_section":"95197000AR","code_commune":"95197","section_courte":"AR"}},{"type":"Feature","geometry":{"type":"MultiPolygon","coordinates":[[[[2.3172185,48.9741943],[2.3180536,48.9741591],[2.3180505,48.9740714],[2.3189869,48.9740316],[2.3196052,48.9740137],[2.3212301,48.9740485],[2.3216797,48.9737515],[2.3219007,48.9737121],[2.3236901,48.9735673],[2.3242596,48.9757132],[2.324262,48.9759146],[2.3241343,48.9767534],[2.3241764,48.9772855],[2.3239084,48.977371],[2.3238991,48.9778201],[2.3240021,48.9780624],[2.3234958,48.9782552],[2.3234384,48.9784049],[2.3235072,48.9793169],[2.3237435,48.979805],[2.3239215,48.9803172],[2.3235976,48.9805001],[2.3232604,48.9804921],[2.32238,48.9803996],[2.3216204,48.9804263],[2.3206916,48.9805272],[2.3196243,48.9808559],[2.3191722,48.9807509],[2.3188683,48.9806235],[2.3167123,48.9796147],[2.3165851,48.9783147],[2.317175,48.9753453],[2.3168713,48.97421],[2.3172185,48.9741943]]]]},"properties":{"code_section":"95197000AS","code_commune":"95197","section_courte":"AS"}}]}