{"type":"FeatureCollection","features":[{"type":"Feature","geometry":{"type":"MultiPolygon","coordinates":[[[[2.2726114,48.9991691],[2.2730627,48.9992828],[2.2736769,49.0003738],[2.2742294,49.0011449],[2.2748495,49.0025149],[2.2752284,49.0030236],[2.276229,49.0038851],[2.2768082,49.004098],[2.2776383,49.004916],[2.2767418,49.005312],[2.2748658,49.0060683],[2.2731539,49.0064455],[2.27244,49.0067293],[2.2673258,49.0015294],[2.2690631,49.0006892],[2.2695774,48.9994223],[2.2697484,48.9993299],[2.2700168,48.9992401],[2.2703793,48.99918],[2.2709199,48.9991506],[2.2726114,48.9991691]]]]},"properties":{"code_section":"95203000AB","code_commune":"95203","section_courte":"AB"}},{"type":"Feature","geometry":{"type":"MultiPolygon","coordinates":[[[[2.2811371,48.9982254],[2.2814388,48.9985402],[2.2816665,48.9986775],[2.2816795,48.9987668],[2.2819369,48.9989108],[2.2820759,48.9990831],[2.2823564,48.9992874],[2.2824906,48.9993021],[2.2826891,48.999379],[2.2828182,48.9994994],[2.2830945,48.99967],[2.283399,49.0001908],[2.2834744,49.0006641],[2.2835579,49.0007264],[2.283743,49.000752],[2.2837925,49.0008229],[2.2838167,49.0009883],[2.2837362,49.0012245],[2.2838622,49.0015484],[2.283287,49.0016773],[2.2821057,49.0020281],[2.2818944,49.0023504],[2.2818715,49.002489],[2.2819494,49.0026352],[2.2820628,49.0027404],[2.2828203,49.0028961],[2.2830315,49.0030242],[2.2822469,49.0032835],[2.2810738,49.0035979],[2.280432,49.0038031],[2.2797162,49.0040562],[2.2776383,49.004916],[2.2768082,49.004098],[2.276229,49.0038851],[2.2752284,49.0030236],[2.2748495,49.0025149],[2.2742294,49.0011449],[2.2736769,49.0003738],[2.2730627,48.9992828],[2.2734278,48.9991787],[2.2775194,48.9990528],[2.280901,48.9982209],[2.2811057,48.9981779],[2.2811371,48.9982254]]]]},"properties":{"code_section":"95203000AC","code_commune":"95203","section_courte":"AC"}},{"type":"Feature","geometry":{"type":"MultiPolygon","coordinates":[[[[2.2748095,48.9916631],[2.2777335,48.9912705],[2.2785968,48.9915053],[2.2787965,48.9915161],[2.2788794,48.9914459],[2.2790607,48.9914136],[2.2790654,48.9908478],[2.2808008,48.9909372],[2.2809002,48.9912103],[2.2810771,48.9911717],[2.2813699,48.9918762],[2.2821016,48.9917387],[2.2826791,48.9916683],[2.2830449,48.9926005],[2.283685,48.9927495],[2.2797241,48.9940767],[2.2800946,48.9948527],[2.280901,48.9982209],[2.2775194,48.9990528],[2.2771893,48.9982065],[2.2770691,48.9975818],[2.2763906,48.9960928],[2.2761017,48.9956108],[2.275523,48.9948907],[2.2746091,48.9935968],[2.2746752,48.9934005],[2.2747507,48.9919061],[2.2748095,48.9916631]]]]},"properties":{"code_section":"95203000AD","code_commune":"95203","section_courte":"AD"}},{"type":"Feature","geometry":{"type":"MultiPolygon","coordinates":[[[[2.2892319,48.9909613],[2.289387,48.9911615],[2.2893409,48.9911774],[2.2896618,48.9915731],[2.2898325,48.9915083],[2.2909019,48.9929523],[2.2927574,48.9957841],[2.2927073,48.9957972],[2.2927865,48.9959444],[2.291628,48.9962836],[2.2900615,48.996843],[2.2893224,48.9970081],[2.2862399,48.9974492],[2.2847196,48.9974727],[2.280901,48.9982209],[2.2800946,48.9948527],[2.2797241,48.9940767],[2.2892054,48.9908949],[2.2892319,48.9909613]]]]},"properties":{"code_section":"95203000AE","code_commune":"95203","section_courte":"AE"}},{"type":"Feature","geometry":{"type":"MultiPolygon","coordinates":[[[[2.2792006,48.9895639],[2.2793043,48.9891962],[2.279463,48.9888787],[2.2800434,48.9885463],[2.2801901,48.988402],[2.2802709,48.9880412],[2.2804365,48.9879169],[2.2806426,48.9878255],[2.2810841,48.9877052],[2.2814585,48.9875269],[2.2815563,48.98742],[2.2819899,48.9866044],[2.2822008,48.9864232],[2.282409,48.9863463],[2.2829669,48.9860455],[2.283997,48.9856466],[2.2858162,48.9869851],[2.2853625,48.9872241],[2.2865909,48.9882009],[2.2868532,48.988051],[2.2868708,48.9880677],[2.287381,48.9885645],[2.2886239,48.9899403],[2.2889663,48.9903798],[2.2888641,48.9904136],[2.2892054,48.9908949],[2.283685,48.9927495],[2.2830449,48.9926005],[2.2826791,48.9916683],[2.2821016,48.9917387],[2.2813699,48.9918762],[2.2810771,48.9911717],[2.2809002,48.9912103],[2.2808008,48.9909372],[2.2789847,48.9908344],[2.2789556,48.9908091],[2.2789731,48.9903398],[2.2792006,48.9895639]]]]},"properties":{"code_section":"95203000AH","code_commune":"95203","section_courte":"AH"}},{"type":"Feature","geometry":{"type":"MultiPolygon","coordinates":[[[[2.2738073,48.9878755],[2.2732112,48.9864904],[2.2772885,48.9858793],[2.2775025,48.9856749],[2.2782461,48.9861196],[2.2800116,48.9846309],[2.2815288,48.9855541],[2.2817929,48.9859216],[2.2823123,48.9863702],[2.2822008,48.9864232],[2.2819899,48.9866044],[2.2815563,48.98742],[2.2814585,48.9875269],[2.2810841,48.9877052],[2.2806426,48.9878255],[2.2804365,48.9879169],[2.2802709,48.9880412],[2.2801901,48.988402],[2.2800434,48.9885463],[2.279463,48.9888787],[2.2793043,48.9891962],[2.2789731,48.9903398],[2.2789556,48.9908091],[2.2790654,48.9908478],[2.2790607,48.9914136],[2.2788794,48.9914459],[2.2787965,48.9915161],[2.2785968,48.9915053],[2.2777335,48.9912705],[2.2748095,48.9916631],[2.2748525,48.9914975],[2.2746519,48.9914098],[2.2749541,48.9913552],[2.2750344,48.9910382],[2.2750328,48.9908487],[2.2748471,48.9902472],[2.2738073,48.9878755]]]]},"properties":{"code_section":"95203000AI","code_commune":"95203","section_courte":"AI"}},{"type":"Feature","geometry":{"type":"MultiPolygon","coordinates":[[[[2.281527,48.9830333],[2.2816272,48.9815488],[2.2817735,48.9808074],[2.2829983,48.9807003],[2.2848239,48.9806016],[2.2847258,48.980645],[2.2861774,48.9805427],[2.2861413,48.9805161],[2.2873854,48.980403],[2.2893301,48.9801348],[2.2901263,48.9799899],[2.2894227,48.9804007],[2.2891617,48.980613],[2.2889725,48.9808397],[2.2889078,48.9809796],[2.2886285,48.9811869],[2.2879891,48.981537],[2.2877275,48.9817259],[2.2873986,48.9820992],[2.2865744,48.9825821],[2.2862703,48.982942],[2.2857071,48.9838935],[2.2854889,48.9841728],[2.284999,48.9846051],[2.2843474,48.9853319],[2.283997,48.9856466],[2.2829669,48.9860455],[2.282409,48.9863463],[2.2823123,48.9863702],[2.2817929,48.9859216],[2.2815288,48.9855541],[2.2800116,48.9846309],[2.2813381,48.9834649],[2.2814951,48.983227],[2.281527,48.9830333]]]]},"properties":{"code_section":"95203000AK","code_commune":"95203","section_courte":"AK"}},{"type":"Feature","geometry":{"type":"MultiPolygon","coordinates":[[[[2.2823038,48.9785766],[2.2825485,48.9780412],[2.2827062,48.97751],[2.2895652,48.9769961],[2.2899442,48.9773333],[2.2916461,48.9768121],[2.2916176,48.9773987],[2.291346,48.9780119],[2.2914502,48.9785154],[2.2916647,48.9789196],[2.291594,48.9790641],[2.2901263,48.9799899],[2.2893301,48.9801348],[2.2873854,48.980403],[2.2861413,48.9805161],[2.2861774,48.9805427],[2.2847258,48.980645],[2.2848239,48.9806016],[2.2829983,48.9807003],[2.2817735,48.9808074],[2.2817744,48.9805649],[2.2818656,48.9805122],[2.2823038,48.9785766]]]]},"properties":{"code_section":"95203000AL","code_commune":"95203","section_courte":"AL"}},{"type":"Feature","geometry":{"type":"MultiPolygon","coordinates":[[[[2.2735267,48.9782177],[2.2737157,48.9780365],[2.2731903,48.9776394],[2.2727873,48.9771386],[2.2731566,48.9770557],[2.2734479,48.9769539],[2.2741862,48.976657],[2.2756798,48.9759466],[2.2760416,48.9758644],[2.2766857,48.9758353],[2.2778579,48.9762198],[2.2797721,48.9765067],[2.2826508,48.9771928],[2.2826106,48.9774133],[2.2826324,48.9774963],[2.2827062,48.97751],[2.2825485,48.9780412],[2.2823038,48.9785766],[2.2818656,48.9805122],[2.2817744,48.9805649],[2.2817567,48.9807449],[2.279322,48.9807018],[2.2771231,48.9807073],[2.276304,48.9807401],[2.2756676,48.9808056],[2.2746877,48.9808341],[2.273534,48.9808074],[2.2729466,48.980838],[2.2719742,48.980978],[2.2717249,48.9810657],[2.2716701,48.98105],[2.2717657,48.9809027],[2.2717631,48.9808444],[2.2718192,48.9808518],[2.2721039,48.9804045],[2.2729331,48.9789135],[2.2735267,48.9782177]]]]},"properties":{"code_section":"95203000AM","code_commune":"95203","section_courte":"AM"}},{"type":"Feature","geometry":{"type":"MultiPolygon","coordinates":[[[[2.2719742,48.980978],[2.2732065,48.9808221],[2.2746877,48.9808341],[2.2756676,48.9808056],[2.276304,48.9807401],[2.2771231,48.9807073],[2.279322,48.9807018],[2.2817567,48.9807449],[2.2816272,48.9815488],[2.2814951,48.983227],[2.2813381,48.9834649],[2.280778,48.983971],[2.2782461,48.9861196],[2.2775025,48.9856749],[2.2772885,48.9858793],[2.2732112,48.9864904],[2.2726613,48.9852433],[2.2717407,48.9828268],[2.2710623,48.9817439],[2.2716384,48.9811347],[2.2717249,48.9810657],[2.2719742,48.980978]]]]},"properties":{"code_section":"95203000AN","code_commune":"95203","section_courte":"AN"}},{"type":"Feature","geometry":{"type":"MultiPolygon","coordinates":[[[[2.2645299,48.9874157],[2.2644759,48.9873818],[2.2656428,48.9869779],[2.2687695,48.9858166],[2.2700851,48.9853985],[2.2701635,48.9853463],[2.272426,48.9846383],[2.2748471,48.9902472],[2.2750328,48.9908487],[2.2750344,48.9910382],[2.2749541,48.9913552],[2.2746519,48.9914098],[2.2730294,48.9907007],[2.2722405,48.9906104],[2.2723788,48.9909673],[2.26941,48.9925706],[2.2683448,48.9917304],[2.2668239,48.9925819],[2.2657064,48.9910889],[2.2669794,48.9905959],[2.2663394,48.9894393],[2.2663262,48.9893593],[2.2661328,48.9891227],[2.2660331,48.9891586],[2.2653515,48.9882888],[2.2652373,48.9883234],[2.2645299,48.9874157]]]]},"properties":{"code_section":"95203000AO","code_commune":"95203","section_courte":"AO"}},{"type":"Feature","geometry":{"type":"MultiPolygon","coordinates":[[[[2.2746519,48.9914098],[2.2748525,48.9914975],[2.2747507,48.9919061],[2.2746752,48.9934005],[2.2746091,48.9935968],[2.275523,48.9948907],[2.2761017,48.9956108],[2.2763906,48.9960928],[2.2770691,48.9975818],[2.2771893,48.9982065],[2.2775194,48.9990528],[2.2734278,48.9991787],[2.2730627,48.9992828],[2.2726114,48.9991691],[2.2709199,48.9991506],[2.2703793,48.99918],[2.2700168,48.9992401],[2.2697484,48.9993299],[2.2695774,48.9994223],[2.2694962,48.9992293],[2.2694511,48.9986112],[2.2700354,48.9970738],[2.2712147,48.9955183],[2.2707159,48.9951199],[2.269633,48.9940582],[2.2683907,48.9930301],[2.2671947,48.9923706],[2.2683448,48.9917304],[2.26941,48.9925706],[2.2723788,48.9909673],[2.2722405,48.9906104],[2.2730294,48.9907007],[2.2746519,48.9914098]]]]},"properties":{"code_section":"95203000AP","code_commune":"95203","section_courte":"AP"}},{"type":"Feature","geometry":{"type":"MultiPolygon","coordinates":[[[[2.2646155,48.9968651],[2.2641436,48.9962511],[2.2652241,48.9958555],[2.2647693,48.9953076],[2.2650752,48.9952157],[2.2648966,48.9948491],[2.2650122,48.9948211],[2.2648614,48.9945003],[2.2653664,48.9943959],[2.2651991,48.993971],[2.2655669,48.9938946],[2.2652518,48.9931765],[2.2665631,48.9927606],[2.2665508,48.9927426],[2.266689,48.9926969],[2.2668239,48.9925819],[2.2671947,48.9923706],[2.2683907,48.9930301],[2.269633,48.9940582],[2.2707159,48.9951199],[2.2712147,48.9955183],[2.2700354,48.9970738],[2.2694511,48.9986112],[2.2694962,48.9992293],[2.2695774,48.9994223],[2.2690631,49.0006892],[2.2673258,49.0015294],[2.266686,49.0008704],[2.2662659,49.0009588],[2.2656498,49.0009942],[2.2642227,49.0008133],[2.2643427,49.0006997],[2.2642796,49.0006104],[2.2633535,48.9981267],[2.2651873,48.9975549],[2.2646155,48.9968651]]]]},"properties":{"code_section":"95203000AR","code_commune":"95203","section_courte":"AR"}}]}