{"type":"FeatureCollection","features":[{"type":"Feature","geometry":{"type":"MultiPolygon","coordinates":[[[[2.3709496,49.0301605],[2.370735,49.0297999],[2.3705944,49.0296659],[2.368828,49.0284137],[2.3684791,49.0280806],[2.3673657,49.0268709],[2.3681271,49.0263407],[2.3684008,49.026188],[2.3689545,49.0259256],[2.3699662,49.0255677],[2.3702363,49.0254163],[2.3711505,49.0246582],[2.3720527,49.0240207],[2.3738778,49.0225735],[2.3741224,49.0224508],[2.3745067,49.0223344],[2.3761145,49.0222538],[2.3759086,49.0225129],[2.3758374,49.022684],[2.3757779,49.0236747],[2.3758775,49.0236569],[2.377756,49.0250181],[2.3776676,49.025071],[2.3777226,49.0251161],[2.3772038,49.0254057],[2.3768564,49.0257619],[2.3763733,49.0261054],[2.3756704,49.0262944],[2.3753335,49.026575],[2.3745762,49.0273211],[2.3740607,49.0278621],[2.3731469,49.0296381],[2.372888,49.0299421],[2.3725538,49.0301619],[2.371191,49.0307556],[2.3711084,49.0304722],[2.3709496,49.0301605]]]]},"properties":{"code_section":"95205000AB","code_commune":"95205","section_courte":"AB"}},{"type":"Feature","geometry":{"type":"MultiPolygon","coordinates":[[[[2.386194,49.0267017],[2.3846725,49.0255466],[2.3841103,49.0249824],[2.3836516,49.0251455],[2.3835252,49.0250258],[2.3818269,49.0256306],[2.3816424,49.025348],[2.3803474,49.0257652],[2.3801222,49.0255487],[2.3788672,49.0262062],[2.3788591,49.0261699],[2.3785709,49.0263202],[2.3784949,49.0263929],[2.3782785,49.0261849],[2.3784545,49.026101],[2.3784404,49.0260036],[2.3783512,49.0258688],[2.3782683,49.0254947],[2.3782148,49.0255076],[2.3776676,49.025071],[2.377756,49.0250181],[2.3758775,49.0236569],[2.3757779,49.0236747],[2.3758374,49.022684],[2.3760268,49.0223378],[2.3762226,49.0222032],[2.3798632,49.0210602],[2.3832627,49.0198109],[2.3866587,49.0254547],[2.3869982,49.0257697],[2.3872718,49.0260943],[2.3878957,49.0275406],[2.3871853,49.0277703],[2.3867942,49.0272668],[2.386194,49.0267017]]]]},"properties":{"code_section":"95205000AC","code_commune":"95205","section_courte":"AC"}},{"type":"Feature","geometry":{"type":"MultiPolygon","coordinates":[[[[2.3888874,49.0216185],[2.3885797,49.021474],[2.3883897,49.0215997],[2.3890276,49.0219374],[2.3889243,49.0220276],[2.3889713,49.0220534],[2.3886657,49.0228338],[2.3905516,49.0230291],[2.3912859,49.0232044],[2.3906108,49.0238598],[2.3899006,49.023535],[2.38951,49.0240475],[2.3889984,49.02447],[2.3881032,49.0239562],[2.3873362,49.0245181],[2.3871943,49.0244169],[2.3862556,49.0247874],[2.3831653,49.0196509],[2.3820869,49.0185423],[2.3821983,49.0183009],[2.3836778,49.0162481],[2.3840213,49.0163099],[2.3847568,49.0165387],[2.3870728,49.0161486],[2.3872077,49.0159591],[2.3877551,49.0169388],[2.3882441,49.0167837],[2.3882791,49.0168182],[2.3895447,49.0184731],[2.3902952,49.0192415],[2.3898926,49.0194123],[2.3912464,49.0204931],[2.3903667,49.0211007],[2.3902975,49.0211012],[2.3898629,49.0207392],[2.3888874,49.0216185]]]]},"properties":{"code_section":"95205000AD","code_commune":"95205","section_courte":"AD"}},{"type":"Feature","geometry":{"type":"MultiPolygon","coordinates":[[[[2.3930492,49.0199078],[2.3922204,49.0202523],[2.3921004,49.0201512],[2.3914242,49.0206388],[2.3898926,49.0194123],[2.3902952,49.0192415],[2.3895447,49.0184731],[2.3882441,49.0167837],[2.3877551,49.0169388],[2.3872077,49.0159591],[2.3870728,49.0161486],[2.3847568,49.0165387],[2.3840213,49.0163099],[2.3836778,49.0162481],[2.3852058,49.0141792],[2.3860431,49.0140259],[2.386049,49.0140442],[2.387302,49.0140028],[2.3889353,49.014114],[2.3901595,49.0141578],[2.3920162,49.0140549],[2.3922953,49.0140583],[2.3931666,49.0141565],[2.3931126,49.0144279],[2.393135,49.0147943],[2.393188,49.0150075],[2.3934673,49.015571],[2.394404,49.016554],[2.3945004,49.0167459],[2.3945005,49.0169326],[2.394349,49.0175605],[2.3945269,49.018723],[2.3945047,49.0192891],[2.394547,49.0195039],[2.3949227,49.0200249],[2.3949861,49.0202588],[2.3950852,49.0216157],[2.394921,49.0215671],[2.3931822,49.0202768],[2.3930492,49.0199078]]]]},"properties":{"code_section":"95205000AE","code_commune":"95205","section_courte":"AE"}},{"type":"Feature","geometry":{"type":"MultiPolygon","coordinates":[[[[2.3759522,49.0195642],[2.3757726,49.0188316],[2.377815,49.0185933],[2.3777826,49.0184459],[2.3779864,49.0184226],[2.3779726,49.0183521],[2.3783074,49.0182886],[2.3783375,49.0183659],[2.3786415,49.0182645],[2.3786712,49.0183074],[2.3788109,49.0182599],[2.3789094,49.0183655],[2.3793577,49.0182247],[2.3791833,49.0184593],[2.3803988,49.0184884],[2.38099,49.0184273],[2.3816119,49.0185615],[2.3820869,49.0185423],[2.3829579,49.0194224],[2.3832627,49.0198109],[2.3798632,49.0210602],[2.3764571,49.0221229],[2.3761145,49.0222538],[2.3745067,49.0223344],[2.3741224,49.0224508],[2.3738778,49.0225735],[2.3729332,49.0219119],[2.3734123,49.0217138],[2.3748458,49.0210295],[2.3745714,49.0207683],[2.3751777,49.020229],[2.3754818,49.0201013],[2.3755911,49.0200203],[2.3759522,49.0195642]]]]},"properties":{"code_section":"95205000AH","code_commune":"95205","section_courte":"AH"}},{"type":"Feature","geometry":{"type":"MultiPolygon","coordinates":[[[[2.3828042,49.0140894],[2.3828467,49.0138655],[2.3827898,49.013717],[2.3849546,49.0133873],[2.3852058,49.0141792],[2.3832131,49.016874],[2.3821983,49.0183009],[2.3820869,49.0185423],[2.3816119,49.0185615],[2.38099,49.0184273],[2.3803988,49.0184884],[2.3791833,49.0184593],[2.3793577,49.0182247],[2.3789094,49.0183655],[2.3788109,49.0182599],[2.3786712,49.0183074],[2.3786415,49.0182645],[2.3783375,49.0183659],[2.3783074,49.0182886],[2.3779726,49.0183521],[2.3779864,49.0184226],[2.3777826,49.0184459],[2.377815,49.0185933],[2.3765759,49.0187284],[2.3764879,49.0183878],[2.3739119,49.0186438],[2.3738237,49.0185978],[2.3729504,49.0154245],[2.3750282,49.0136226],[2.3752486,49.013122],[2.3754787,49.0130577],[2.3754429,49.0126729],[2.3767005,49.0126435],[2.3769791,49.0126743],[2.3784128,49.0134119],[2.3797823,49.0137509],[2.3810875,49.0142403],[2.3813675,49.0143093],[2.3820005,49.0143519],[2.3819857,49.0142626],[2.3828042,49.0140894]]]]},"properties":{"code_section":"95205000AI","code_commune":"95205","section_courte":"AI"}},{"type":"Feature","geometry":{"type":"MultiPolygon","coordinates":[[[[2.3628427,49.0185593],[2.3624171,49.0175567],[2.3623237,49.0172612],[2.3622019,49.0165353],[2.362192,49.0162141],[2.3622605,49.0158615],[2.3626082,49.0148249],[2.3626297,49.0145381],[2.3624548,49.0138886],[2.3619942,49.0130528],[2.3618524,49.0127116],[2.3616872,49.0120362],[2.3617048,49.0114337],[2.3617741,49.0111284],[2.3620017,49.0107323],[2.3623037,49.0103896],[2.3631452,49.0097435],[2.3633643,49.0095369],[2.3642382,49.0105739],[2.3649463,49.0112295],[2.365174,49.0113913],[2.3659296,49.0115689],[2.3660646,49.0116279],[2.3672926,49.0123563],[2.3677359,49.0125459],[2.3678378,49.0125348],[2.3679905,49.0122583],[2.3691893,49.0122158],[2.3696038,49.0119587],[2.3697529,49.0119193],[2.3701425,49.0119076],[2.3714153,49.01223],[2.3718612,49.0121512],[2.3724623,49.0121605],[2.3727671,49.0122529],[2.3732212,49.0125251],[2.3734403,49.0125933],[2.3746377,49.0127217],[2.3754429,49.0126729],[2.3754787,49.0130577],[2.3752486,49.013122],[2.3750282,49.0136226],[2.3729504,49.0154245],[2.3738237,49.0185978],[2.3739119,49.0186438],[2.3764879,49.0183878],[2.3765759,49.0187284],[2.3757726,49.0188316],[2.3759522,49.0195642],[2.3755911,49.0200203],[2.3754818,49.0201013],[2.3751777,49.020229],[2.3745714,49.0207683],[2.3748458,49.0210295],[2.3734123,49.0217138],[2.3729332,49.0219119],[2.3738778,49.0225735],[2.3720527,49.0240207],[2.3717866,49.0237964],[2.371328,49.0240503],[2.3707833,49.0240469],[2.3707192,49.0241185],[2.3705036,49.024804],[2.3703839,49.0249556],[2.3705959,49.0251179],[2.3702363,49.0254163],[2.3699662,49.0255677],[2.369913,49.0255083],[2.3694201,49.0255599],[2.3677092,49.0245863],[2.3671914,49.0247485],[2.3668526,49.0244538],[2.3669059,49.0243863],[2.3667271,49.0243244],[2.3667188,49.0242123],[2.3666758,49.0241868],[2.3665526,49.0242422],[2.3664784,49.0241694],[2.3666038,49.0239729],[2.366052,49.0232586],[2.3657442,49.0230314],[2.3658214,49.0230265],[2.3656466,49.0223051],[2.3656475,49.0218759],[2.3659844,49.0211849],[2.3660784,49.0207807],[2.3660639,49.0204904],[2.3661287,49.0204467],[2.3663672,49.0199213],[2.3664914,49.019033],[2.364708,49.0188115],[2.3646087,49.0188248],[2.364725,49.0194801],[2.3647137,49.0201281],[2.364757,49.0201737],[2.3639023,49.0201354],[2.363472,49.0198805],[2.3632667,49.0196815],[2.3628875,49.018976],[2.3628427,49.0185593]]]]},"properties":{"code_section":"95205000AK","code_commune":"95205","section_courte":"AK"}},{"type":"Feature","geometry":{"type":"MultiPolygon","coordinates":[[[[2.3705959,49.0251179],[2.3703839,49.0249556],[2.3705036,49.024804],[2.3707192,49.0241185],[2.3707833,49.0240469],[2.371328,49.0240503],[2.3717866,49.0237964],[2.3720527,49.0240207],[2.3711505,49.0246582],[2.3705959,49.0251179]]],[[[2.36391,49.021868],[2.3639935,49.0213235],[2.3639131,49.0208504],[2.3635999,49.0202324],[2.3634418,49.0200303],[2.3638059,49.020131],[2.364757,49.0201737],[2.3647137,49.0201281],[2.364725,49.0194801],[2.3646087,49.0188248],[2.364708,49.0188115],[2.3664914,49.019033],[2.3663672,49.0199213],[2.3661287,49.0204467],[2.3660639,49.0204904],[2.3660784,49.0207807],[2.3659844,49.0211849],[2.3656475,49.0218759],[2.3656466,49.0223051],[2.3658214,49.0230265],[2.3657442,49.0230314],[2.366052,49.0232586],[2.3666038,49.0239729],[2.3664784,49.0241694],[2.3665526,49.0242422],[2.3666758,49.0241868],[2.3667188,49.0242123],[2.3667271,49.0243244],[2.3669059,49.0243863],[2.3668526,49.0244538],[2.3671914,49.0247485],[2.3677092,49.0245863],[2.3694201,49.0255599],[2.369913,49.0255083],[2.3699662,49.0255677],[2.3689545,49.0259256],[2.3684008,49.026188],[2.3681271,49.0263407],[2.3673657,49.0268709],[2.3662288,49.0255548],[2.3649711,49.024218],[2.3643862,49.0232547],[2.3639516,49.0227165],[2.3638211,49.0224719],[2.36391,49.021868]]]]},"properties":{"code_section":"95205000AL","code_commune":"95205","section_courte":"AL"}},{"type":"Feature","geometry":{"type":"MultiPolygon","coordinates":[[[[2.3738625,49.0375493],[2.3738599,49.037519],[2.3738046,49.0375413],[2.3736223,49.0367934],[2.373729,49.0367588],[2.3731213,49.0355705],[2.3717713,49.0342104],[2.3717248,49.0337853],[2.3715742,49.0332671],[2.3719454,49.0331811],[2.3720502,49.0333625],[2.3727119,49.0332235],[2.3730357,49.0337568],[2.3732159,49.0337154],[2.3736241,49.0342766],[2.3742288,49.0341017],[2.3757732,49.0358651],[2.3758342,49.0359955],[2.3757388,49.0361543],[2.375721,49.0363245],[2.376166,49.0374207],[2.376132,49.0376195],[2.3759776,49.0377932],[2.3756988,49.037969],[2.375194,49.0377748],[2.3748893,49.0377029],[2.3738625,49.0375493]]]]},"properties":{"code_section":"95205000AM","code_commune":"95205","section_courte":"AM"}},{"type":"Feature","geometry":{"type":"MultiPolygon","coordinates":[[[[2.3831118,49.0325496],[2.390598,49.0320671],[2.3946948,49.0389159],[2.3947702,49.0390928],[2.3947314,49.0401858],[2.3948447,49.0405179],[2.3827121,49.0419532],[2.3782734,49.0391942],[2.3767945,49.0383803],[2.3756988,49.037969],[2.3760452,49.0377303],[2.376132,49.0376195],[2.3761669,49.0374837],[2.3761363,49.0372944],[2.375721,49.0363245],[2.3757388,49.0361543],[2.3758342,49.0359955],[2.3758002,49.0359397],[2.3760885,49.0356086],[2.3768292,49.0344766],[2.3780781,49.0323289],[2.3785182,49.0318653],[2.3792225,49.0328116],[2.380318,49.0339123],[2.3831118,49.0325496]]]]},"properties":{"code_section":"95205000ZA","code_commune":"95205","section_courte":"ZA"}},{"type":"Feature","geometry":{"type":"MultiPolygon","coordinates":[[[[2.3966416,49.0277684],[2.3989974,49.0287004],[2.3996121,49.0289063],[2.4023772,49.0293904],[2.4028045,49.0295431],[2.4039455,49.0300586],[2.40299,49.0308384],[2.4025265,49.0313581],[2.4018588,49.0323532],[2.4013253,49.0329965],[2.4010925,49.0333597],[2.4008131,49.0339725],[2.4005646,49.0349066],[2.4005051,49.0353278],[2.4005435,49.0356334],[2.4008017,49.0363621],[2.40098,49.0370727],[2.400802,49.037659],[2.3996006,49.038678],[2.3990197,49.0394748],[2.3990073,49.0396559],[2.3974416,49.0398328],[2.3946948,49.0389159],[2.3881503,49.0279674],[2.3899076,49.027534],[2.3908273,49.0272236],[2.3929131,49.0271248],[2.3944118,49.0271433],[2.3952362,49.027469],[2.3966416,49.0277684]]]]},"properties":{"code_section":"95205000ZB","code_commune":"95205","section_courte":"ZB"}},{"type":"Feature","geometry":{"type":"MultiPolygon","coordinates":[[[[2.3907332,49.0230753],[2.3902847,49.0229947],[2.3886657,49.0228338],[2.3889713,49.0220534],[2.3889243,49.0220276],[2.3890276,49.0219374],[2.3883897,49.0215997],[2.3885797,49.021474],[2.3888874,49.0216185],[2.3898629,49.0207392],[2.3902975,49.0211012],[2.3903667,49.0211007],[2.3912464,49.0204931],[2.3914242,49.0206388],[2.3921004,49.0201512],[2.3922204,49.0202523],[2.3930492,49.0199078],[2.3931822,49.0202768],[2.394921,49.0215671],[2.3950852,49.0216157],[2.3949861,49.0202588],[2.3949227,49.0200249],[2.394547,49.0195039],[2.3945047,49.0192891],[2.3945269,49.018723],[2.3943547,49.0177264],[2.394349,49.0175605],[2.3945005,49.0169326],[2.3945004,49.0167459],[2.394404,49.016554],[2.396364,49.0163023],[2.3969728,49.0168736],[2.3974894,49.0172307],[2.3991137,49.0181698],[2.4002898,49.0190279],[2.4017545,49.019922],[2.4034769,49.0207911],[2.404732,49.0213427],[2.4054015,49.0217386],[2.4063839,49.022413],[2.407459,49.0230531],[2.4085509,49.0235821],[2.4094426,49.0240832],[2.4098042,49.0241472],[2.4083706,49.0250448],[2.4077594,49.0254517],[2.4074481,49.0257012],[2.40722,49.0259463],[2.4066018,49.0267837],[2.4059573,49.027423],[2.4056461,49.0281258],[2.4052557,49.0287078],[2.4049506,49.02908],[2.4039455,49.0300586],[2.4028045,49.0295431],[2.4023772,49.0293904],[2.3996121,49.0289063],[2.3989974,49.0287004],[2.3966416,49.0277684],[2.3952362,49.027469],[2.3944118,49.0271433],[2.3929131,49.0271248],[2.3908273,49.0272236],[2.3899076,49.027534],[2.3881503,49.0279674],[2.3878957,49.0275406],[2.3872718,49.0260943],[2.3869982,49.0257697],[2.3866587,49.0254547],[2.3862556,49.0247874],[2.3871943,49.0244169],[2.3873362,49.0245181],[2.3881032,49.0239562],[2.3889984,49.02447],[2.38951,49.0240475],[2.3899006,49.023535],[2.3906108,49.0238598],[2.3912859,49.0232044],[2.3907332,49.0230753]]]]},"properties":{"code_section":"95205000ZC","code_commune":"95205","section_courte":"ZC"}},{"type":"Feature","geometry":{"type":"MultiPolygon","coordinates":[[[[2.3818802,49.0256109],[2.3835252,49.0250258],[2.3836516,49.0251455],[2.3841103,49.0249824],[2.3846725,49.0255466],[2.386194,49.0267017],[2.3867942,49.0272668],[2.3871853,49.0277703],[2.3878957,49.0275406],[2.390598,49.0320671],[2.3831712,49.0325345],[2.380318,49.0339123],[2.3792225,49.0328116],[2.3785182,49.0318653],[2.3780781,49.0323289],[2.3768292,49.0344766],[2.3760885,49.0356086],[2.3758002,49.0359397],[2.3757732,49.0358651],[2.3742288,49.0341017],[2.3736241,49.0342766],[2.3732159,49.0337154],[2.3730357,49.0337568],[2.3727119,49.0332235],[2.3720502,49.0333625],[2.3719454,49.0331811],[2.3715742,49.0332671],[2.3709416,49.0315731],[2.3709286,49.0312606],[2.3709924,49.0310509],[2.371191,49.0307556],[2.3725538,49.0301619],[2.372888,49.0299421],[2.3731469,49.0296381],[2.3740607,49.0278621],[2.3753335,49.026575],[2.3756704,49.0262944],[2.3763733,49.0261054],[2.3768564,49.0257619],[2.3772038,49.0254057],[2.3777226,49.0251161],[2.3782148,49.0255076],[2.3782683,49.0254947],[2.3783512,49.0258688],[2.3784404,49.0260036],[2.3784545,49.026101],[2.3782785,49.0261849],[2.3784949,49.0263929],[2.3785709,49.0263202],[2.3788591,49.0261699],[2.3788672,49.0262062],[2.3801222,49.0255487],[2.3803474,49.0257652],[2.3816424,49.025348],[2.3818269,49.0256306],[2.3818802,49.0256109]]]]},"properties":{"code_section":"95205000ZD","code_commune":"95205","section_courte":"ZD"}}]}