{"type":"FeatureCollection","features":[{"type":"Feature","geometry":{"type":"MultiPolygon","coordinates":[[[[2.3011765,48.9756987],[2.3013446,48.9753885],[2.3014796,48.9753503],[2.3023005,48.9749022],[2.3039231,48.9743178],[2.3041772,48.9741943],[2.3045788,48.9738168],[2.3054176,48.9736689],[2.3068338,48.9727216],[2.3083812,48.9716265],[2.3084816,48.9716278],[2.3097297,48.9706987],[2.3098086,48.9711918],[2.3106557,48.9719322],[2.3101331,48.972845],[2.3093105,48.9739821],[2.3084471,48.9749139],[2.3070564,48.9772905],[2.3067566,48.9775362],[2.3054002,48.9784768],[2.3041437,48.9794663],[2.3033472,48.9789379],[2.3025663,48.978344],[2.3010365,48.977004],[2.3011219,48.9761542],[2.3009458,48.9761099],[2.3011765,48.9756987]]]]},"properties":{"code_section":"95210000AB","code_commune":"95210","section_courte":"AB"}},{"type":"Feature","geometry":{"type":"MultiPolygon","coordinates":[[[[2.3007534,48.9753523],[2.299674,48.9752809],[2.2985551,48.9751537],[2.2981301,48.9750771],[2.3034697,48.9679308],[2.3036508,48.9678467],[2.3050617,48.9690889],[2.3064519,48.9682682],[2.3075374,48.9689585],[2.3096333,48.9704132],[2.309592,48.9704595],[2.3097562,48.9705754],[2.3097297,48.9706987],[2.3084816,48.9716278],[2.3083812,48.9716265],[2.3068338,48.9727216],[2.3054176,48.9736689],[2.3045788,48.9738168],[2.3041772,48.9741943],[2.3034193,48.9745154],[2.3023005,48.9749022],[2.3014796,48.9753503],[2.3013446,48.9753885],[2.3007534,48.9753523]]]]},"properties":{"code_section":"95210000AC","code_commune":"95210","section_courte":"AC"}},{"type":"Feature","geometry":{"type":"MultiPolygon","coordinates":[[[[2.3047985,48.967134],[2.3046826,48.967021],[2.3051296,48.9666105],[2.3058307,48.9661411],[2.3064627,48.9657719],[2.3076227,48.9651935],[2.3085646,48.9648227],[2.3096444,48.964511],[2.3101049,48.9642462],[2.3112992,48.9631755],[2.3113537,48.9630822],[2.3112724,48.9626515],[2.3110174,48.962157],[2.3129484,48.962414],[2.3159182,48.964127],[2.3160227,48.9642664],[2.316222,48.9646986],[2.3167243,48.965313],[2.3170218,48.9658753],[2.3152798,48.9671109],[2.3097297,48.9706987],[2.3097562,48.9705754],[2.309592,48.9704595],[2.3096333,48.9704132],[2.3075374,48.9689585],[2.3064519,48.9682682],[2.3047985,48.967134]]]]},"properties":{"code_section":"95210000AD","code_commune":"95210","section_courte":"AD"}},{"type":"Feature","geometry":{"type":"MultiPolygon","coordinates":[[[[2.3110035,48.9621338],[2.3112724,48.9626515],[2.3113537,48.9630822],[2.3112992,48.9631755],[2.3101049,48.9642462],[2.3096444,48.964511],[2.3083685,48.9648895],[2.3076227,48.9651935],[2.3067694,48.9656126],[2.3060792,48.9659865],[2.3053357,48.9664683],[2.3049193,48.9667847],[2.3046826,48.967021],[2.3047985,48.967134],[2.3064519,48.9682682],[2.3050617,48.9690889],[2.3036508,48.9678467],[2.3026571,48.9671404],[2.3009281,48.966079],[2.300531,48.9657419],[2.3013007,48.9654092],[2.3032971,48.9638903],[2.3050961,48.9622096],[2.3068122,48.9629812],[2.3071435,48.9627399],[2.308926,48.963505],[2.3091369,48.963222],[2.3094215,48.962677],[2.3098798,48.9622212],[2.3101141,48.9620581],[2.3103848,48.9617447],[2.3108532,48.9619345],[2.3110035,48.9621338]]]]},"properties":{"code_section":"95210000AE","code_commune":"95210","section_courte":"AE"}},{"type":"Feature","geometry":{"type":"MultiPolygon","coordinates":[[[[2.2981413,48.975038],[2.2981301,48.9750771],[2.2976574,48.9749863],[2.2960949,48.9746201],[2.2958262,48.9745185],[2.2956643,48.9743684],[2.2955671,48.974184],[2.2955606,48.9739837],[2.2957102,48.9730147],[2.2956448,48.9727402],[2.2954568,48.9724505],[2.2953192,48.9723453],[2.2951061,48.9722449],[2.2943302,48.9720348],[2.2935515,48.9717384],[2.2930825,48.9714727],[2.2929895,48.9713212],[2.292981,48.9711066],[2.293416,48.9705335],[2.294189,48.9699403],[2.294976,48.9695584],[2.2940991,48.9694816],[2.2936351,48.9693854],[2.2932671,48.9692577],[2.2929215,48.9690911],[2.2929462,48.9689838],[2.2930826,48.9687673],[2.2934535,48.9685969],[2.2940503,48.9683449],[2.2964969,48.9674232],[2.2974873,48.966923],[2.2978927,48.9667619],[2.2991569,48.9661614],[2.2999142,48.9659102],[2.3004684,48.9656833],[2.3009281,48.966079],[2.3026571,48.9671404],[2.3036508,48.9678467],[2.3034632,48.9679392],[2.2981413,48.975038]]]]},"properties":{"code_section":"95210000AH","code_commune":"95210","section_courte":"AH"}}]}