{"type":"FeatureCollection","features":[{"type":"Feature","geometry":{"type":"MultiPolygon","coordinates":[[[[2.2586507,48.9995016],[2.2571534,48.9998224],[2.2564127,48.9999511],[2.2561694,49.0002506],[2.2540799,49.0012588],[2.253272,49.0016215],[2.2525444,49.0018032],[2.2522191,49.001847],[2.2511963,49.0010443],[2.250483,49.0007358],[2.2500903,49.0004826],[2.2492113,48.9998057],[2.2484718,48.999156],[2.2484448,48.9990878],[2.2477142,48.9983968],[2.248203,48.9981269],[2.2493908,48.9976689],[2.2491984,48.9974608],[2.2494969,48.99737],[2.2502162,48.9973083],[2.2517907,48.9965937],[2.2524741,48.9963543],[2.2534172,48.9959263],[2.2540281,48.9956023],[2.2552874,48.9950337],[2.2563958,48.9947094],[2.2572076,48.9937758],[2.257284,48.9938519],[2.257465,48.9946147],[2.2585622,48.9964939],[2.2588958,48.9972871],[2.2592178,48.9993425],[2.2586507,48.9995016]]]]},"properties":{"code_section":"95219000AB","code_commune":"95219","section_courte":"AB"}},{"type":"Feature","geometry":{"type":"MultiPolygon","coordinates":[[[[2.2592178,48.9993425],[2.259023,48.9979423],[2.2588698,48.9971893],[2.2585622,48.9964939],[2.257465,48.9946147],[2.2610704,48.993727],[2.2611228,48.993719],[2.2611996,48.9939433],[2.2612781,48.9939596],[2.2619696,48.9930664],[2.2623897,48.9924018],[2.2636442,48.9929045],[2.2649073,48.9926824],[2.2650488,48.9926983],[2.2655642,48.9938984],[2.2652076,48.993969],[2.2653586,48.9943957],[2.2648491,48.9944885],[2.2650043,48.9948214],[2.2648884,48.9948485],[2.2650704,48.995215],[2.2647694,48.9953102],[2.2652201,48.9958582],[2.2641385,48.9962507],[2.2651886,48.9975566],[2.2633578,48.9981131],[2.2618334,48.9986443],[2.2592178,48.9993425]]]]},"properties":{"code_section":"95219000AC","code_commune":"95219","section_courte":"AC"}},{"type":"Feature","geometry":{"type":"MultiPolygon","coordinates":[[[[2.2562374,48.9899576],[2.2586996,48.9891608],[2.2608112,48.9885527],[2.2630345,48.98779],[2.2644748,48.9873815],[2.2652328,48.9883215],[2.2653513,48.9882854],[2.2660303,48.9891579],[2.2661341,48.9891243],[2.2663113,48.9893564],[2.2662989,48.989428],[2.2669824,48.9905949],[2.2657103,48.991097],[2.266892,48.9926571],[2.2661086,48.9929262],[2.2660954,48.9929084],[2.2652505,48.9931789],[2.2650488,48.9926983],[2.2649073,48.9926824],[2.2636442,48.9929045],[2.2623897,48.9924018],[2.2619696,48.9930664],[2.2612781,48.9939596],[2.2611996,48.9939433],[2.2611228,48.993719],[2.2610704,48.993727],[2.257465,48.9946147],[2.257284,48.9938519],[2.2561428,48.9927239],[2.2559315,48.9928166],[2.2540864,48.9907592],[2.2562374,48.9899576]]]]},"properties":{"code_section":"95219000AD","code_commune":"95219","section_courte":"AD"}},{"type":"Feature","geometry":{"type":"MultiPolygon","coordinates":[[[[2.2564999,48.9850973],[2.2581811,48.9845994],[2.2587768,48.9843871],[2.2597261,48.983815],[2.2601362,48.9838735],[2.2632527,48.9827062],[2.2635815,48.9830924],[2.2641907,48.982924],[2.2650226,48.9839698],[2.2645142,48.9857965],[2.2644866,48.9860849],[2.2640185,48.9875293],[2.2630345,48.98779],[2.2608112,48.9885527],[2.2599138,48.9887973],[2.2595477,48.9877822],[2.2576239,48.9851571],[2.2573508,48.9852797],[2.256603,48.9855107],[2.2564765,48.985221],[2.2564999,48.9850973]]]]},"properties":{"code_section":"95219000AE","code_commune":"95219","section_courte":"AE"}},{"type":"Feature","geometry":{"type":"MultiPolygon","coordinates":[[[[2.2714818,48.9823759],[2.2717535,48.9828539],[2.2724334,48.9846404],[2.2689348,48.9857662],[2.2650088,48.9872103],[2.2640185,48.9875293],[2.2644866,48.9860849],[2.2645142,48.9857965],[2.2650226,48.9839698],[2.2641907,48.982924],[2.2635815,48.9830924],[2.2632527,48.9827062],[2.265301,48.9818865],[2.2664082,48.9814813],[2.2677868,48.9807927],[2.2688387,48.9803412],[2.2689782,48.9803213],[2.2697076,48.9804488],[2.2702382,48.9805995],[2.2704635,48.9805844],[2.2704074,48.980304],[2.2721385,48.9803504],[2.2716196,48.9811639],[2.2710627,48.9817509],[2.2714818,48.9823759]]]]},"properties":{"code_section":"95219000AH","code_commune":"95219","section_courte":"AH"}},{"type":"Feature","geometry":{"type":"MultiPolygon","coordinates":[[[[2.2624109,48.9783009],[2.2624814,48.9782966],[2.2627247,48.9773109],[2.2627954,48.9774095],[2.2629225,48.9773704],[2.262763,48.9771438],[2.2628443,48.9768],[2.26326,48.9766721],[2.2666614,48.9762881],[2.2668295,48.9763038],[2.2675851,48.9764929],[2.2676433,48.9765398],[2.2677176,48.9767494],[2.2702907,48.9771685],[2.2705669,48.9769124],[2.2713034,48.9770421],[2.2719948,48.97702],[2.2727681,48.9768535],[2.2736623,48.9765821],[2.2738569,48.9767865],[2.2731614,48.977052],[2.2727689,48.9771217],[2.2731099,48.9775755],[2.2737161,48.9780374],[2.2729316,48.9789149],[2.2721385,48.9803504],[2.2704074,48.980304],[2.2704635,48.9805844],[2.2702382,48.9805995],[2.2693266,48.9803725],[2.2689782,48.9803213],[2.2688387,48.9803412],[2.2672427,48.9810425],[2.2664082,48.9814813],[2.265301,48.9818865],[2.2641034,48.9823857],[2.2638635,48.9819519],[2.263404,48.9814065],[2.263358,48.9813532],[2.2631684,48.9813335],[2.26227,48.9801086],[2.2621643,48.9800972],[2.2621551,48.9801265],[2.2620887,48.9800428],[2.2622022,48.9798011],[2.2622448,48.9795357],[2.2622907,48.9795421],[2.2623828,48.9791316],[2.2624323,48.9790678],[2.2623298,48.9789852],[2.2623885,48.9787339],[2.2623255,48.9787391],[2.2623272,48.9786667],[2.2624109,48.9783009]]]]},"properties":{"code_section":"95219000AI","code_commune":"95219","section_courte":"AI"}},{"type":"Feature","geometry":{"type":"MultiPolygon","coordinates":[[[[2.2559515,48.9819149],[2.2558666,48.9805734],[2.2560717,48.979779],[2.2562245,48.9788837],[2.2576673,48.978778],[2.2580624,48.9787182],[2.2615301,48.977209],[2.2628443,48.9768],[2.262763,48.9771438],[2.2629225,48.9773704],[2.2627954,48.9774095],[2.2627247,48.9773109],[2.2624814,48.9782966],[2.2624109,48.9783009],[2.2623272,48.9786667],[2.2623255,48.9787391],[2.2623885,48.9787339],[2.2623298,48.9789852],[2.2624323,48.9790678],[2.2623828,48.9791316],[2.2622907,48.9795421],[2.2622448,48.9795357],[2.2622022,48.9798011],[2.2620887,48.9800428],[2.2621551,48.9801265],[2.2621643,48.9800972],[2.26227,48.9801086],[2.2631684,48.9813335],[2.263358,48.9813532],[2.263404,48.9814065],[2.2638635,48.9819519],[2.2641034,48.9823857],[2.2601362,48.9838735],[2.2597261,48.983815],[2.2587768,48.9843871],[2.2581811,48.9845994],[2.2564999,48.9850973],[2.2559515,48.9819149]]]]},"properties":{"code_section":"95219000AK","code_commune":"95219","section_courte":"AK"}},{"type":"Feature","geometry":{"type":"MultiPolygon","coordinates":[[[[2.2492577,48.9827683],[2.252475,48.9817519],[2.252814,48.9815869],[2.2529939,48.981427],[2.2531243,48.9812452],[2.2532071,48.9810107],[2.2532791,48.9798813],[2.2533928,48.9796052],[2.2532944,48.9795881],[2.2526713,48.9788143],[2.2539195,48.9785553],[2.2545234,48.9784704],[2.2562105,48.9783455],[2.2562059,48.9790217],[2.2560717,48.979779],[2.2558666,48.9805734],[2.2559515,48.9819149],[2.2564999,48.9850973],[2.2564765,48.985221],[2.2551913,48.9856806],[2.2550996,48.9857648],[2.2521275,48.9868832],[2.2510405,48.9852764],[2.251044,48.985192],[2.2492577,48.9827683]]]]},"properties":{"code_section":"95219000AL","code_commune":"95219","section_courte":"AL"}},{"type":"Feature","geometry":{"type":"MultiPolygon","coordinates":[[[[2.2461223,48.980897],[2.2454606,48.9799647],[2.2465984,48.9796688],[2.2466159,48.9796871],[2.246696,48.9796663],[2.2468012,48.9798545],[2.2487155,48.9794593],[2.2502306,48.979208],[2.2502327,48.9792318],[2.2508376,48.9791908],[2.2526713,48.9788143],[2.2532944,48.9795881],[2.2533928,48.9796052],[2.2532791,48.9798813],[2.2531823,48.9811134],[2.2530737,48.9813284],[2.2528877,48.9815321],[2.252475,48.9817519],[2.2492577,48.9827683],[2.2466096,48.9834384],[2.2464552,48.9834414],[2.2452027,48.9837802],[2.2440189,48.9836191],[2.2432722,48.983604],[2.24283,48.9823225],[2.2434038,48.9816004],[2.2462963,48.9811424],[2.2461223,48.980897]]]]},"properties":{"code_section":"95219000AM","code_commune":"95219","section_courte":"AM"}},{"type":"Feature","geometry":{"type":"MultiPolygon","coordinates":[[[[2.2439066,48.9870756],[2.2440314,48.9864666],[2.2440654,48.9864526],[2.2427251,48.9836681],[2.2432722,48.983604],[2.2437002,48.9836037],[2.2441715,48.9836365],[2.2452027,48.9837802],[2.2464552,48.9834414],[2.2466096,48.9834384],[2.2492577,48.9827683],[2.251044,48.985192],[2.2510405,48.9852764],[2.2521275,48.9868832],[2.2497888,48.9877554],[2.2489011,48.9880491],[2.2484638,48.9882287],[2.2484854,48.9882664],[2.2473178,48.9887267],[2.243785,48.9900475],[2.243771,48.9900176],[2.2435532,48.990099],[2.2437841,48.988383],[2.2439066,48.9870756]]]]},"properties":{"code_section":"95219000AN","code_commune":"95219","section_courte":"AN"}},{"type":"Feature","geometry":{"type":"MultiPolygon","coordinates":[[[[2.2490372,48.9881902],[2.2489011,48.9880491],[2.2503531,48.9875476],[2.2550996,48.9857648],[2.2551913,48.9856806],[2.2564765,48.985221],[2.256603,48.9855107],[2.2573508,48.9852797],[2.2576239,48.9851571],[2.2595477,48.9877822],[2.2599138,48.9887973],[2.2562374,48.9899576],[2.253225,48.9910912],[2.2521601,48.9899043],[2.2517331,48.9900161],[2.2508194,48.9888235],[2.2513591,48.9886828],[2.2511557,48.9886127],[2.2500956,48.9884166],[2.2492423,48.9883113],[2.2491255,48.988268],[2.2490372,48.9881902]]]]},"properties":{"code_section":"95219000AO","code_commune":"95219","section_courte":"AO"}},{"type":"Feature","geometry":{"type":"MultiPolygon","coordinates":[[[[2.2432017,48.9906538],[2.2434871,48.990566],[2.2435532,48.990099],[2.243771,48.9900176],[2.243785,48.9900475],[2.2473178,48.9887267],[2.2484854,48.9882664],[2.2484638,48.9882287],[2.2489011,48.9880491],[2.2491255,48.988268],[2.2492423,48.9883113],[2.2500956,48.9884166],[2.2511557,48.9886127],[2.2513591,48.9886828],[2.2508194,48.9888235],[2.2517331,48.9900161],[2.2521601,48.9899043],[2.253225,48.9910912],[2.2523817,48.9913924],[2.2474249,48.9929783],[2.2436707,48.9942154],[2.2420713,48.9924322],[2.2429871,48.9920897],[2.2425095,48.9915149],[2.2435443,48.9912442],[2.2432017,48.9906538]]]]},"properties":{"code_section":"95219000AP","code_commune":"95219","section_courte":"AP"}},{"type":"Feature","geometry":{"type":"MultiPolygon","coordinates":[[[[2.2436997,48.9942583],[2.2436707,48.9942154],[2.2474249,48.9929783],[2.2523817,48.9913924],[2.2540864,48.9907592],[2.2559315,48.9928166],[2.2561428,48.9927239],[2.2572076,48.9937758],[2.2563958,48.9947094],[2.2552874,48.9950337],[2.2540281,48.9956023],[2.2534172,48.9959263],[2.2524741,48.9963543],[2.2517907,48.9965937],[2.2502162,48.9973083],[2.2494969,48.99737],[2.2491984,48.9974608],[2.2493908,48.9976689],[2.248203,48.9981269],[2.2477142,48.9983968],[2.2462749,48.9969966],[2.2436997,48.9942583]]]]},"properties":{"code_section":"95219000AR","code_commune":"95219","section_courte":"AR"}}]}