{"type":"FeatureCollection","features":[{"type":"Feature","geometry":{"type":"MultiPolygon","coordinates":[[[[2.0908577,49.0185602],[2.0908815,49.0185258],[2.091076,49.0186777],[2.0911313,49.0186444],[2.0913458,49.0183094],[2.0914505,49.0183653],[2.0916241,49.0185258],[2.0921517,49.0192659],[2.0937722,49.0207607],[2.0943889,49.0212121],[2.0949838,49.0217928],[2.0951335,49.0219841],[2.0957349,49.022493],[2.0965628,49.0230886],[2.0970947,49.0234022],[2.0972685,49.02345],[2.0975282,49.0234655],[2.0971695,49.0235127],[2.0969106,49.0234673],[2.0970499,49.0236845],[2.0961231,49.0240693],[2.095379,49.0244659],[2.0952683,49.0245586],[2.095434,49.0249061],[2.0918604,49.0264395],[2.0916639,49.025657],[2.0915071,49.0252794],[2.0912529,49.0248518],[2.0903286,49.0235937],[2.0900404,49.0230842],[2.0897062,49.0223486],[2.0895251,49.0220879],[2.0891049,49.0215615],[2.0885887,49.0210339],[2.0896246,49.0204595],[2.0896677,49.0204856],[2.0899995,49.0202384],[2.0899136,49.0201741],[2.0899945,49.0200866],[2.0896579,49.0199648],[2.0908577,49.0185602]]]]},"properties":{"code_section":"95218000AB","code_commune":"95218","section_courte":"AB"}},{"type":"Feature","geometry":{"type":"MultiPolygon","coordinates":[[[[2.0978695,49.0236528],[2.0988696,49.0243933],[2.0981616,49.0248203],[2.0994736,49.0260794],[2.1001528,49.0265995],[2.0994335,49.0266638],[2.0994764,49.0267148],[2.0968179,49.0279572],[2.0971957,49.0283824],[2.0961273,49.0289021],[2.0961592,49.0291413],[2.0965845,49.0302588],[2.0966032,49.0305309],[2.096534,49.0309136],[2.0967193,49.0314707],[2.0937117,49.0322016],[2.0927449,49.029804],[2.0918604,49.0264395],[2.095434,49.0249061],[2.0952683,49.0245586],[2.0954338,49.0244312],[2.0961231,49.0240693],[2.0970499,49.0236845],[2.0969106,49.0234673],[2.097065,49.0235099],[2.0973022,49.0235074],[2.0976957,49.0234061],[2.0977542,49.023448],[2.0976499,49.0234888],[2.0978695,49.0236528]]]]},"properties":{"code_section":"95218000AC","code_commune":"95218","section_courte":"AC"}},{"type":"Feature","geometry":{"type":"MultiPolygon","coordinates":[[[[2.0960377,49.0358708],[2.0954918,49.0359923],[2.0944766,49.0341135],[2.0939664,49.0330079],[2.0937117,49.0322016],[2.0967193,49.0314707],[2.096534,49.0309136],[2.0966032,49.0305309],[2.0965845,49.0302588],[2.0961592,49.0291413],[2.0961273,49.0289021],[2.0971957,49.0283824],[2.0968179,49.0279572],[2.0978411,49.0274677],[2.0983035,49.0293115],[2.0985388,49.0299096],[2.0994159,49.031754],[2.0999494,49.0327398],[2.101086,49.0342565],[2.0974656,49.0355525],[2.0960377,49.0358708]]]]},"properties":{"code_section":"95218000AD","code_commune":"95218","section_courte":"AD"}},{"type":"Feature","geometry":{"type":"MultiPolygon","coordinates":[[[[2.0994764,49.0267148],[2.0994335,49.0266638],[2.0996559,49.02665],[2.0996853,49.0266937],[2.0997757,49.0267122],[2.1000725,49.0270431],[2.1002256,49.0276144],[2.1004605,49.0282063],[2.1008189,49.0295724],[2.1018428,49.0340086],[2.101086,49.0342565],[2.0999494,49.0327398],[2.0994159,49.031754],[2.0985388,49.0299096],[2.0983035,49.0293115],[2.0978411,49.0274677],[2.0994764,49.0267148]]]]},"properties":{"code_section":"95218000AE","code_commune":"95218","section_courte":"AE"}},{"type":"Feature","geometry":{"type":"MultiPolygon","coordinates":[[[[2.1094869,49.0139347],[2.1080443,49.0150603],[2.1081901,49.0151393],[2.1081081,49.0152012],[2.1084916,49.0153994],[2.1074313,49.0162074],[2.1073123,49.0161399],[2.1063782,49.0168814],[2.1042078,49.0157074],[2.1034458,49.0152354],[2.1034955,49.0152016],[2.1034203,49.0151555],[2.1033718,49.01519],[2.1027673,49.0148022],[2.102892,49.0146954],[2.1028111,49.014647],[2.1039264,49.0138465],[2.1040813,49.0136112],[2.1040898,49.0134558],[2.1051568,49.0128201],[2.1056464,49.0124456],[2.1068073,49.0117928],[2.1084614,49.0105467],[2.1088161,49.0103747],[2.1095095,49.0101253],[2.110371,49.00993],[2.1105948,49.0099104],[2.1105987,49.0103551],[2.1120221,49.0113902],[2.1135599,49.0123896],[2.1153864,49.0138479],[2.1137934,49.0139527],[2.1129424,49.0140476],[2.1123907,49.0141732],[2.1103645,49.0147822],[2.1103865,49.0142861],[2.1103436,49.0141569],[2.1099581,49.0140051],[2.1096275,49.0138243],[2.1094869,49.0139347]]]]},"properties":{"code_section":"95218000AO","code_commune":"95218","section_courte":"AO"}},{"type":"Feature","geometry":{"type":"MultiPolygon","coordinates":[[[[2.1029019,49.0145803],[2.1026955,49.0144611],[2.1020427,49.0143432],[2.1015419,49.0145836],[2.1012931,49.0141918],[2.10042,49.0143297],[2.0999662,49.0133267],[2.0999159,49.0130384],[2.0998125,49.0128089],[2.0992668,49.0121439],[2.0986978,49.0110513],[2.1008228,49.0106991],[2.1019231,49.0104773],[2.1055455,49.0095195],[2.1068629,49.0092832],[2.1102488,49.008758],[2.1105306,49.0095184],[2.1105948,49.0099104],[2.110371,49.00993],[2.1095095,49.0101253],[2.1088161,49.0103747],[2.1084614,49.0105467],[2.1068073,49.0117928],[2.1056464,49.0124456],[2.1051568,49.0128201],[2.1040898,49.0134558],[2.1040813,49.0136112],[2.1039264,49.0138465],[2.1029019,49.0145803]]]]},"properties":{"code_section":"95218000AP","code_commune":"95218","section_courte":"AP"}},{"type":"Feature","geometry":{"type":"MultiPolygon","coordinates":[[[[2.0969475,49.0135641],[2.096752,49.0134085],[2.0966011,49.0134942],[2.0963769,49.0132411],[2.0958861,49.0134901],[2.0961745,49.0137393],[2.0957133,49.0140014],[2.0953372,49.0142535],[2.0953825,49.0142847],[2.0949253,49.014576],[2.0950807,49.01468],[2.0949996,49.0147312],[2.0944779,49.0143834],[2.0940968,49.0146327],[2.0937448,49.0144115],[2.0933768,49.014654],[2.0933455,49.014634],[2.093105,49.0147906],[2.0928121,49.014657],[2.0925378,49.0148128],[2.0922013,49.0145825],[2.0921359,49.0145873],[2.0921244,49.0146287],[2.0919911,49.0142192],[2.0918129,49.012817],[2.0941416,49.0122263],[2.095479,49.0119451],[2.0966497,49.0115907],[2.0970092,49.0114392],[2.0986978,49.0110513],[2.0992668,49.0121439],[2.0998125,49.0128089],[2.0999159,49.0130384],[2.0999569,49.0132681],[2.0997694,49.0133314],[2.0982628,49.0141199],[2.0980141,49.0139191],[2.0980429,49.0139027],[2.097914,49.0137627],[2.0975084,49.0138226],[2.0971465,49.0140203],[2.0968428,49.0138065],[2.0970548,49.0136534],[2.0969475,49.0135641]]]]},"properties":{"code_section":"95218000AR","code_commune":"95218","section_courte":"AR"}},{"type":"Feature","geometry":{"type":"MultiPolygon","coordinates":[[[[2.0855088,49.0144844],[2.0898958,49.0133043],[2.0918129,49.012817],[2.0919911,49.0142192],[2.0921244,49.0146287],[2.0913458,49.0183094],[2.0911313,49.0186444],[2.091076,49.0186777],[2.089594,49.0173223],[2.0893095,49.0170828],[2.0889347,49.016834],[2.0855868,49.0155546],[2.0838383,49.0148401],[2.084974,49.0146236],[2.0855088,49.0144844]]]]},"properties":{"code_section":"95218000AT","code_commune":"95218","section_courte":"AT"}},{"type":"Feature","geometry":{"type":"MultiPolygon","coordinates":[[[[2.0839998,49.0149081],[2.0855868,49.0155546],[2.0889347,49.016834],[2.0893095,49.0170828],[2.089594,49.0173223],[2.0908815,49.0185258],[2.0896579,49.0199648],[2.0899945,49.0200866],[2.0899136,49.0201741],[2.0899995,49.0202384],[2.0896677,49.0204856],[2.0896246,49.0204595],[2.0885887,49.0210339],[2.0881757,49.0207246],[2.0877556,49.0204917],[2.0872965,49.0202617],[2.0866517,49.0200435],[2.0858005,49.0198489],[2.0833476,49.0194985],[2.0818487,49.0192072],[2.0806822,49.0190196],[2.0808763,49.018535],[2.0809504,49.0179922],[2.0808061,49.0174836],[2.0806396,49.0171441],[2.0804536,49.0168936],[2.0801677,49.0167023],[2.0795222,49.01635],[2.0794498,49.0162688],[2.0794424,49.0161649],[2.0796465,49.0161169],[2.0809484,49.0156118],[2.0815188,49.0154241],[2.0838372,49.0148402],[2.0839998,49.0149081]]]]},"properties":{"code_section":"95218000AV","code_commune":"95218","section_courte":"AV"}},{"type":"Feature","geometry":{"type":"MultiPolygon","coordinates":[[[[2.1018428,49.0340086],[2.1008189,49.0295724],[2.1004605,49.0282063],[2.1002256,49.0276144],[2.1000725,49.0270431],[2.0997976,49.0267275],[2.0996853,49.0266937],[2.0996559,49.02665],[2.1001528,49.0265995],[2.099622,49.0261961],[2.1013108,49.0253726],[2.1020003,49.0250953],[2.1032511,49.0247864],[2.1034514,49.0246959],[2.1037234,49.0246859],[2.1036531,49.0256742],[2.1032002,49.0276576],[2.1032096,49.0284975],[2.1033331,49.0289781],[2.1038387,49.0292231],[2.1038255,49.0291719],[2.1045236,49.0294714],[2.1054359,49.0298111],[2.1065467,49.0301545],[2.107102,49.0302793],[2.1070776,49.0304979],[2.1043892,49.0316855],[2.1039218,49.0333149],[2.1018428,49.0340086]]]]},"properties":{"code_section":"95218000AX","code_commune":"95218","section_courte":"AX"}},{"type":"Feature","geometry":{"type":"MultiPolygon","coordinates":[[[[2.1051803,49.0297181],[2.1038255,49.0291719],[2.1038387,49.0292231],[2.1033331,49.0289781],[2.1032096,49.0284975],[2.1032002,49.0276576],[2.1036899,49.0254266],[2.1037268,49.0247304],[2.1036282,49.0241223],[2.1038855,49.0239683],[2.1041117,49.0240658],[2.106068,49.0237654],[2.1077729,49.023564],[2.1091641,49.0233441],[2.1092141,49.0233925],[2.1102343,49.023075],[2.1106029,49.0235001],[2.1112567,49.0237362],[2.1120316,49.0243863],[2.1120163,49.0245378],[2.1122814,49.0247178],[2.1124848,49.0247227],[2.1136457,49.0255475],[2.1091318,49.0281352],[2.1073838,49.028831],[2.1072666,49.029043],[2.1070584,49.030084],[2.1071122,49.0301883],[2.1070625,49.0301749],[2.107102,49.0302793],[2.1059265,49.0299757],[2.1051803,49.0297181]]]]},"properties":{"code_section":"95218000AY","code_commune":"95218","section_courte":"AY"}},{"type":"Feature","geometry":{"type":"MultiPolygon","coordinates":[[[[2.1086487,49.0213049],[2.1088056,49.0214389],[2.1087709,49.0215907],[2.1089706,49.0215817],[2.1102812,49.0227014],[2.1103412,49.0229942],[2.1102343,49.023075],[2.1092141,49.0233925],[2.1091641,49.0233441],[2.1077729,49.023564],[2.106068,49.0237654],[2.1041117,49.0240658],[2.1038855,49.0239683],[2.1036282,49.0241223],[2.1037234,49.0246859],[2.1034514,49.0246959],[2.1032511,49.0247864],[2.1020003,49.0250953],[2.1013108,49.0253726],[2.099622,49.0261961],[2.0981616,49.0248203],[2.0988696,49.0243933],[2.0976499,49.0234888],[2.0977542,49.023448],[2.0976689,49.0233612],[2.0977055,49.0233492],[2.0973753,49.0231133],[2.0973845,49.0229992],[2.0974157,49.0230187],[2.0974274,49.0229523],[2.0981008,49.0225456],[2.0988519,49.0220224],[2.1000323,49.0212828],[2.100094,49.0212823],[2.0999193,49.0211654],[2.1004953,49.0206963],[2.1007385,49.0208567],[2.102236,49.0197056],[2.1026108,49.0197055],[2.1047381,49.0211888],[2.1047235,49.0213748],[2.104889,49.0214712],[2.1055298,49.021172],[2.105603,49.0211839],[2.105916,49.021523],[2.1059598,49.0214469],[2.1056639,49.021118],[2.107354,49.0204174],[2.1076528,49.0204526],[2.1086487,49.0213049]]]]},"properties":{"code_section":"95218000AZ","code_commune":"95218","section_courte":"AZ"}},{"type":"Feature","geometry":{"type":"MultiPolygon","coordinates":[[[[2.1049141,49.0214579],[2.104889,49.0214712],[2.1047235,49.0213748],[2.1047381,49.0211888],[2.1026108,49.0197055],[2.102236,49.0197056],[2.1026503,49.0193583],[2.1037793,49.0185692],[2.103737,49.0185226],[2.1037841,49.0185038],[2.1038207,49.0185395],[2.104535,49.0180414],[2.1050399,49.0177501],[2.1055934,49.0175035],[2.10608,49.017336],[2.1065075,49.017221],[2.1065651,49.0172784],[2.1068436,49.0170806],[2.107024,49.0170575],[2.1068209,49.0172041],[2.1070507,49.0171131],[2.1109403,49.0164453],[2.111215,49.0165524],[2.1124844,49.0184916],[2.1129321,49.0190442],[2.1125996,49.0189715],[2.1106209,49.0192682],[2.1098769,49.0194181],[2.1092777,49.0196218],[2.1056639,49.021118],[2.1059598,49.0214469],[2.105916,49.021523],[2.105603,49.0211839],[2.1055298,49.021172],[2.1049141,49.0214579]]]]},"properties":{"code_section":"95218000BC","code_commune":"95218","section_courte":"BC"}},{"type":"Feature","geometry":{"type":"MultiPolygon","coordinates":[[[[2.1082088,49.0209283],[2.1076528,49.0204526],[2.107354,49.0204174],[2.1092777,49.0196218],[2.1098769,49.0194181],[2.1106209,49.0192682],[2.1125996,49.0189715],[2.1129321,49.0190442],[2.1158526,49.021361],[2.115768,49.0214222],[2.1167053,49.0214623],[2.1173644,49.0214208],[2.1160617,49.0231565],[2.1138148,49.0254398],[2.1136457,49.0255475],[2.1124848,49.0247227],[2.1122814,49.0247178],[2.1120163,49.0245378],[2.1120316,49.0243863],[2.1112567,49.0237362],[2.1106029,49.0235001],[2.1102343,49.023075],[2.1103412,49.0229942],[2.1102812,49.0227014],[2.1089706,49.0215817],[2.1087709,49.0215907],[2.1088056,49.0214389],[2.1082088,49.0209283]]]]},"properties":{"code_section":"95218000BD","code_commune":"95218","section_courte":"BD"}},{"type":"Feature","geometry":{"type":"MultiPolygon","coordinates":[[[[2.1144946,49.0202565],[2.1129321,49.0190442],[2.1124844,49.0184916],[2.1119083,49.0176173],[2.1131241,49.0173309],[2.1144767,49.0164756],[2.114415,49.0164314],[2.1149346,49.0161046],[2.1158881,49.0159286],[2.1161676,49.016094],[2.1173003,49.0152168],[2.1187023,49.0163082],[2.1199218,49.0171909],[2.1203944,49.0175694],[2.1207062,49.0178974],[2.1212991,49.0183462],[2.1206694,49.019638],[2.1196237,49.0208615],[2.1190623,49.021452],[2.1177569,49.0213973],[2.1167053,49.0214623],[2.115768,49.0214222],[2.1158526,49.021361],[2.1144946,49.0202565]]]]},"properties":{"code_section":"95218000BE","code_commune":"95218","section_courte":"BE"}},{"type":"Feature","geometry":{"type":"MultiPolygon","coordinates":[[[[2.1126986,49.0140979],[2.1133791,49.0139885],[2.1153864,49.0138479],[2.1164226,49.014532],[2.1173003,49.0152168],[2.1161676,49.016094],[2.1158881,49.0159286],[2.1149346,49.0161046],[2.114415,49.0164314],[2.1144767,49.0164756],[2.1131241,49.0173309],[2.1119083,49.0176173],[2.1103908,49.0153252],[2.1102416,49.014818],[2.1126986,49.0140979]]]]},"properties":{"code_section":"95218000BH","code_commune":"95218","section_courte":"BH"}},{"type":"Feature","geometry":{"type":"MultiPolygon","coordinates":[[[[2.0999247,49.0161541],[2.101236,49.0153061],[2.1014942,49.0150959],[2.1018936,49.014624],[2.1020427,49.0143432],[2.1026955,49.0144611],[2.1028967,49.014577],[2.1028111,49.014647],[2.102892,49.0146954],[2.1027857,49.0147701],[2.1027889,49.0148336],[2.1033718,49.01519],[2.1034203,49.0151555],[2.1034955,49.0152016],[2.1034458,49.0152354],[2.1042078,49.0157074],[2.1063782,49.0168814],[2.1073123,49.0161399],[2.1074313,49.0162074],[2.1084916,49.0153994],[2.1081081,49.0152012],[2.1081901,49.0151393],[2.1080443,49.0150603],[2.1096275,49.0138243],[2.1099581,49.0140051],[2.1103436,49.0141569],[2.1103865,49.0142861],[2.1103645,49.0147822],[2.1102416,49.014818],[2.1103908,49.0153252],[2.111215,49.0165524],[2.1109403,49.0164453],[2.1070507,49.0171131],[2.1068209,49.0172041],[2.107024,49.0170575],[2.1068436,49.0170806],[2.1065651,49.0172784],[2.1065075,49.017221],[2.10608,49.017336],[2.1055934,49.0175035],[2.1050399,49.0177501],[2.104535,49.0180414],[2.1038207,49.0185395],[2.1037841,49.0185038],[2.103737,49.0185226],[2.1037793,49.0185692],[2.1026503,49.0193583],[2.1025885,49.0191891],[2.1020055,49.0195377],[2.1020065,49.0193242],[2.0988548,49.0170597],[2.0985703,49.0170552],[2.0999247,49.0161541]]]]},"properties":{"code_section":"95218000BI","code_commune":"95218","section_courte":"BI"}},{"type":"Feature","geometry":{"type":"MultiPolygon","coordinates":[[[[2.095829,49.0139346],[2.0961745,49.0137393],[2.0958861,49.0134901],[2.0963769,49.0132411],[2.0966011,49.0134942],[2.096752,49.0134085],[2.0970444,49.013642],[2.0968428,49.0138065],[2.0971465,49.0140203],[2.0975084,49.0138226],[2.097914,49.0137627],[2.0980429,49.0139027],[2.0980141,49.0139191],[2.0982628,49.0141199],[2.0997694,49.0133314],[2.0999569,49.0132681],[2.10042,49.0143297],[2.1012931,49.0141918],[2.1015419,49.0145836],[2.1020427,49.0143432],[2.1017144,49.0148677],[2.101236,49.0153061],[2.0965719,49.0183471],[2.0965763,49.0183999],[2.0962941,49.0185969],[2.0918453,49.0158961],[2.0921359,49.0145873],[2.0922013,49.0145825],[2.0922822,49.0146266],[2.0925378,49.0148128],[2.0928121,49.014657],[2.093105,49.0147906],[2.0933455,49.014634],[2.0933768,49.014654],[2.0937448,49.0144115],[2.0940968,49.0146327],[2.0944779,49.0143834],[2.0949996,49.0147312],[2.0950807,49.01468],[2.0949253,49.014576],[2.0953825,49.0142847],[2.0953372,49.0142535],[2.095829,49.0139346]]]]},"properties":{"code_section":"95218000BL","code_commune":"95218","section_courte":"BL"}},{"type":"Feature","geometry":{"type":"MultiPolygon","coordinates":[[[[2.0945447,49.0193918],[2.0934174,49.0199642],[2.0934917,49.0200352],[2.0934804,49.0200752],[2.0931901,49.0202378],[2.0920768,49.0191926],[2.0916241,49.0185258],[2.0913458,49.0183094],[2.0918453,49.0158961],[2.0960488,49.0184473],[2.0958007,49.0185779],[2.0958512,49.0186157],[2.0958159,49.0187021],[2.0957313,49.0187483],[2.095731,49.0187949],[2.0945447,49.0193918]]]]},"properties":{"code_section":"95218000BM","code_commune":"95218","section_courte":"BM"}},{"type":"Feature","geometry":{"type":"MultiPolygon","coordinates":[[[[2.0954339,49.0189445],[2.095731,49.0187949],[2.0957313,49.0187483],[2.0958159,49.0187021],[2.0958512,49.0186157],[2.0958007,49.0185779],[2.0960488,49.0184473],[2.0962941,49.0185969],[2.0965763,49.0183999],[2.0965719,49.0183471],[2.0985703,49.0170552],[2.0988548,49.0170597],[2.1020065,49.0193242],[2.1020055,49.0195377],[2.1025885,49.0191891],[2.1026503,49.0193583],[2.1007385,49.0208567],[2.1004953,49.0206963],[2.0999193,49.0211654],[2.100094,49.0212823],[2.1000323,49.0212828],[2.0998563,49.021393],[2.0988519,49.0220224],[2.0981008,49.0225456],[2.0974274,49.0229523],[2.0973753,49.0231133],[2.0977055,49.0233492],[2.0976689,49.0233612],[2.0976957,49.0234061],[2.0975282,49.0234655],[2.0973267,49.0234554],[2.0970947,49.0234022],[2.0967497,49.0232071],[2.0957349,49.022493],[2.0951335,49.0219841],[2.0949838,49.0217928],[2.0943889,49.0212121],[2.0938432,49.0208191],[2.0931901,49.0202378],[2.0934804,49.0200752],[2.0934917,49.0200352],[2.0934174,49.0199642],[2.0954339,49.0189445]]]]},"properties":{"code_section":"95218000BN","code_commune":"95218","section_courte":"BN"}}]}