{"type":"FeatureCollection","features":[{"type":"Feature","geometry":{"type":"MultiPolygon","coordinates":[[[[2.3451324,49.0406353],[2.3444126,49.0401424],[2.3425747,49.0393068],[2.3402469,49.0384229],[2.3420526,49.033888],[2.3423731,49.0339628],[2.3428349,49.0340074],[2.3424415,49.0352338],[2.3429317,49.0353282],[2.3445521,49.0363924],[2.3447945,49.0366654],[2.3450459,49.036584],[2.3455551,49.0366898],[2.3480918,49.0370412],[2.3477485,49.0381465],[2.3481123,49.0385358],[2.3475376,49.0387741],[2.3482491,49.0393034],[2.3475722,49.0396524],[2.3470653,49.0391104],[2.3451324,49.0406353]]]]},"properties":{"code_section":"95229000AB","code_commune":"95229","section_courte":"AB"}},{"type":"Feature","geometry":{"type":"MultiPolygon","coordinates":[[[[2.3458272,49.0367289],[2.3450459,49.036584],[2.3447945,49.0366654],[2.3445521,49.0363924],[2.3429317,49.0353282],[2.3424415,49.0352338],[2.3428349,49.0340074],[2.3431501,49.0340199],[2.3447557,49.0337091],[2.3456304,49.0338119],[2.3458895,49.0338711],[2.3455566,49.0328755],[2.3464628,49.0326279],[2.3467373,49.0333424],[2.3468273,49.0333024],[2.3468387,49.0334896],[2.3470422,49.0340753],[2.347309,49.0342112],[2.3479446,49.034222],[2.3501233,49.0339307],[2.3511687,49.0337459],[2.3514843,49.0340637],[2.3518012,49.0352315],[2.3524371,49.0356761],[2.3522115,49.0358253],[2.3522758,49.0358699],[2.3521985,49.035922],[2.352078,49.0359176],[2.3517466,49.0361363],[2.3517614,49.0362111],[2.3516912,49.036257],[2.3515952,49.0362461],[2.3515431,49.0362736],[2.3513375,49.0365671],[2.351288,49.0367065],[2.3513357,49.036739],[2.3516793,49.0368036],[2.3523946,49.037295],[2.3535362,49.0378491],[2.3535384,49.0379673],[2.3532841,49.0386615],[2.3536233,49.0389461],[2.3537171,49.0387685],[2.3542405,49.0390607],[2.3541239,49.0391304],[2.3544161,49.0394028],[2.353824,49.0397072],[2.3527094,49.0401299],[2.3520289,49.0395222],[2.3521475,49.0394551],[2.3519374,49.0393137],[2.3517298,49.0394175],[2.3511306,49.0389459],[2.350342,49.039348],[2.3494521,49.0386991],[2.3482491,49.0393034],[2.3475506,49.0387938],[2.3481263,49.0385527],[2.3476844,49.038106],[2.348035,49.0370454],[2.3458272,49.0367289]]]]},"properties":{"code_section":"95229000AC","code_commune":"95229","section_courte":"AC"}},{"type":"Feature","geometry":{"type":"MultiPolygon","coordinates":[[[[2.3544161,49.0394028],[2.3541239,49.0391304],[2.3542405,49.0390607],[2.3537171,49.0387685],[2.3536233,49.0389461],[2.3532841,49.0386615],[2.3535384,49.0379673],[2.3535362,49.0378491],[2.3523946,49.037295],[2.3516793,49.0368036],[2.3513357,49.036739],[2.351288,49.0367065],[2.3513375,49.0365671],[2.3515431,49.0362736],[2.3515952,49.0362461],[2.3516912,49.036257],[2.3517614,49.0362111],[2.3517466,49.0361363],[2.352078,49.0359176],[2.3521985,49.035922],[2.3522758,49.0358699],[2.3522115,49.0358253],[2.3524371,49.0356761],[2.3518012,49.0352315],[2.3514843,49.0340637],[2.3511687,49.0337459],[2.3590588,49.0323314],[2.3607285,49.0318571],[2.3617603,49.0331452],[2.3632777,49.0345543],[2.3611854,49.0351442],[2.3595651,49.0358748],[2.3589718,49.0364395],[2.3579112,49.0367062],[2.3572545,49.0369349],[2.3559791,49.0375765],[2.3555285,49.0379203],[2.3548674,49.038963],[2.3546437,49.0392478],[2.3544161,49.0394028]]]]},"properties":{"code_section":"95229000AD","code_commune":"95229","section_courte":"AD"}},{"type":"Feature","geometry":{"type":"MultiPolygon","coordinates":[[[[2.3632777,49.0345543],[2.3617603,49.0331452],[2.3603251,49.0313294],[2.3602708,49.0310557],[2.3605551,49.0309993],[2.3609877,49.031075],[2.3614282,49.0307299],[2.360926,49.0302344],[2.3614012,49.0298011],[2.3617513,49.0293065],[2.3619935,49.0291591],[2.3623619,49.0291022],[2.3634256,49.0293979],[2.3636984,49.0290771],[2.3640304,49.0287708],[2.3645268,49.0284563],[2.3653874,49.0280536],[2.3669866,49.0271542],[2.367377,49.0268959],[2.3686524,49.0282691],[2.3689666,49.0285398],[2.3707273,49.0297948],[2.3711455,49.0305685],[2.3711627,49.030728],[2.3711216,49.030859],[2.3709897,49.0310585],[2.370814,49.0310929],[2.3700383,49.0313532],[2.3690757,49.0317186],[2.3682536,49.0321355],[2.3673664,49.0326504],[2.3655687,49.0335611],[2.3640662,49.0342736],[2.3632777,49.0345543]]]]},"properties":{"code_section":"95229000AE","code_commune":"95229","section_courte":"AE"}},{"type":"Feature","geometry":{"type":"MultiPolygon","coordinates":[[[[2.354961,49.0284692],[2.355031,49.0283048],[2.353972,49.0280587],[2.3537311,49.0281686],[2.3548748,49.0267676],[2.3551942,49.0267723],[2.3559305,49.0266781],[2.3561233,49.0265845],[2.3566053,49.0261657],[2.3568859,49.0260099],[2.357356,49.0258],[2.3578235,49.0256691],[2.3583287,49.0255721],[2.3588026,49.0253653],[2.3579393,49.0250838],[2.3581782,49.0250161],[2.3587631,49.0249227],[2.3587681,49.0247762],[2.3590614,49.0244519],[2.3596071,49.0240227],[2.3600993,49.0237543],[2.3607175,49.0235513],[2.3614362,49.0231498],[2.3624409,49.0225113],[2.3639139,49.0218741],[2.3639023,49.0221045],[2.3638162,49.0223096],[2.3638183,49.0224705],[2.3640983,49.022921],[2.3643771,49.0232419],[2.3649157,49.0241556],[2.3661782,49.025511],[2.367377,49.0268959],[2.3669866,49.0271542],[2.3653874,49.0280536],[2.3645268,49.0284563],[2.3640304,49.0287708],[2.3636984,49.0290771],[2.3634256,49.0293979],[2.3623619,49.0291022],[2.3619935,49.0291591],[2.3617513,49.0293065],[2.3614012,49.0298011],[2.360926,49.0302344],[2.3614282,49.0307299],[2.3608004,49.0306336],[2.354961,49.0284692]]]]},"properties":{"code_section":"95229000AH","code_commune":"95229","section_courte":"AH"}},{"type":"Feature","geometry":{"type":"MultiPolygon","coordinates":[[[[2.3582035,49.0324847],[2.3501233,49.0339307],[2.3479446,49.034222],[2.347309,49.0342112],[2.3470422,49.0340753],[2.3468387,49.0334896],[2.3468273,49.0333024],[2.3492169,49.0321704],[2.3518002,49.0305079],[2.3530541,49.0294296],[2.3537311,49.0281686],[2.353972,49.0280587],[2.355031,49.0283048],[2.354961,49.0284692],[2.3608004,49.0306336],[2.3614282,49.0307299],[2.3609877,49.031075],[2.3605551,49.0309993],[2.3602708,49.0310557],[2.3603251,49.0313294],[2.3607285,49.0318571],[2.3590588,49.0323314],[2.3582035,49.0324847]]]]},"properties":{"code_section":"95229000AI","code_commune":"95229","section_courte":"AI"}},{"type":"Feature","geometry":{"type":"MultiPolygon","coordinates":[[[[2.345678,49.0410113],[2.3451324,49.0406353],[2.3470653,49.0391104],[2.3475722,49.0396524],[2.3494521,49.0386991],[2.350342,49.039348],[2.3511306,49.0389459],[2.3517298,49.0394175],[2.3519374,49.0393137],[2.3521475,49.0394551],[2.3520289,49.0395222],[2.3527094,49.0401299],[2.353824,49.0397072],[2.3544161,49.0394028],[2.3546437,49.0392478],[2.3548674,49.038963],[2.3555285,49.0379203],[2.3559791,49.0375765],[2.3572545,49.0369349],[2.3579112,49.0367062],[2.3589718,49.0364395],[2.3595651,49.0358748],[2.3611854,49.0351442],[2.3613224,49.0354885],[2.3630354,49.0379431],[2.3636968,49.0389772],[2.3656533,49.041769],[2.3661956,49.0427032],[2.3668054,49.0435869],[2.3675884,49.0444561],[2.3676746,49.044755],[2.3678141,49.0469785],[2.3609063,49.0485618],[2.3517044,49.0448772],[2.3525503,49.0426939],[2.3507348,49.0411365],[2.3497255,49.0404932],[2.3480952,49.0415547],[2.347075,49.0420074],[2.345678,49.0410113]]]]},"properties":{"code_section":"95229000ZA","code_commune":"95229","section_courte":"ZA"}},{"type":"Feature","geometry":{"type":"MultiPolygon","coordinates":[[[[2.3696311,49.0545525],[2.3684951,49.0544529],[2.3676796,49.0544325],[2.3636918,49.0496388],[2.3609439,49.0485534],[2.3678141,49.0469785],[2.3676746,49.044755],[2.3675884,49.0444561],[2.3672119,49.0440342],[2.3672497,49.0440233],[2.3692388,49.0456048],[2.3728232,49.0440219],[2.3726617,49.0434124],[2.3727198,49.0422344],[2.3725269,49.0412557],[2.3726669,49.0406641],[2.3725994,49.0402774],[2.3722593,49.039646],[2.3721186,49.0392026],[2.3720504,49.0372591],[2.3725207,49.0374819],[2.3738786,49.0375679],[2.3739649,49.0375336],[2.3746934,49.0376476],[2.3751951,49.0377637],[2.3767818,49.0383606],[2.3783233,49.03921],[2.3829104,49.0420903],[2.38289,49.0421191],[2.3802414,49.0416937],[2.3779474,49.0420043],[2.3779121,49.0420759],[2.3788677,49.0440758],[2.3788271,49.0442236],[2.3786513,49.0443903],[2.3786371,49.0445503],[2.3795761,49.046398],[2.3797235,49.0465474],[2.3799497,49.0466843],[2.3758421,49.0487674],[2.3696311,49.0545525]]]]},"properties":{"code_section":"95229000ZB","code_commune":"95229","section_courte":"ZB"}},{"type":"Feature","geometry":{"type":"MultiPolygon","coordinates":[[[[2.3725207,49.0374819],[2.3720504,49.0372591],[2.3721186,49.0392026],[2.3722593,49.039646],[2.3725994,49.0402774],[2.3726669,49.0406641],[2.3725269,49.0412557],[2.3727198,49.0422344],[2.3726617,49.0434124],[2.3728232,49.0440219],[2.3692388,49.0456048],[2.3672497,49.0440233],[2.3672119,49.0440342],[2.3668054,49.0435869],[2.3659735,49.0423594],[2.3656533,49.041769],[2.3636968,49.0389772],[2.3630354,49.0379431],[2.3618641,49.036305],[2.3613224,49.0354885],[2.3611854,49.0351442],[2.3632777,49.0345543],[2.3640662,49.0342736],[2.3655687,49.0335611],[2.3673664,49.0326504],[2.3682536,49.0321355],[2.3690757,49.0317186],[2.3700383,49.0313532],[2.370814,49.0310929],[2.3709897,49.0310585],[2.3709002,49.0313025],[2.3709356,49.0315724],[2.3715684,49.0332053],[2.3717535,49.0338696],[2.371773,49.0342152],[2.3731148,49.0355712],[2.3737384,49.0367575],[2.3736223,49.0367934],[2.3738046,49.0375413],[2.3738786,49.0375679],[2.3725207,49.0374819]]]]},"properties":{"code_section":"95229000ZC","code_commune":"95229","section_courte":"ZC"}}]}