{"type":"FeatureCollection","features":[{"type":"Feature","geometry":{"type":"MultiPolygon","coordinates":[[[[2.2082777,48.9950469],[2.2080826,48.9946261],[2.2080902,48.9945635],[2.2082483,48.9944248],[2.2080622,48.9939024],[2.2079588,48.9936529],[2.2073489,48.9926801],[2.2070354,48.9920177],[2.2068978,48.9918317],[2.2060776,48.9910602],[2.2049561,48.9901475],[2.204594,48.9897681],[2.2082231,48.9883393],[2.2093857,48.9879639],[2.2098191,48.9887489],[2.2099799,48.9887202],[2.2101601,48.9890146],[2.2112696,48.988728],[2.2115362,48.9892325],[2.2121351,48.9889773],[2.2126553,48.9891429],[2.2132513,48.9893937],[2.2139618,48.9894631],[2.2141735,48.9894269],[2.2142964,48.9894741],[2.2140582,48.9895689],[2.2142643,48.9898284],[2.2138994,48.9900438],[2.2143406,48.9904754],[2.21324,48.9908452],[2.2141107,48.9917685],[2.2139402,48.9918498],[2.2139579,48.9918782],[2.2134779,48.9921035],[2.213448,48.9924766],[2.2132516,48.9929229],[2.2129012,48.9933595],[2.213334,48.9932213],[2.2151372,48.9950258],[2.215224,48.9949968],[2.215588,48.9954522],[2.2145004,48.9958638],[2.2166083,48.9964617],[2.2147678,48.9970056],[2.2150681,48.9974285],[2.2150111,48.9974459],[2.2166789,48.9997536],[2.2163365,48.9998648],[2.215819,49.0000946],[2.2155392,49.0003366],[2.2129326,49.001298],[2.2098911,48.9980785],[2.2092317,48.9972774],[2.2090135,48.996942],[2.2084933,48.9958039],[2.2082777,48.9950469]]]]},"properties":{"code_section":"952520000A","code_commune":"95252","section_courte":"A"}},{"type":"Feature","geometry":{"type":"MultiPolygon","coordinates":[[[[2.2237077,48.9751588],[2.2236396,48.9750758],[2.2241006,48.9746184],[2.2242672,48.974359],[2.2248585,48.9738977],[2.2253029,48.9736245],[2.2254901,48.9734677],[2.2256984,48.9734247],[2.2265151,48.9739025],[2.2267783,48.9738419],[2.2274585,48.9734891],[2.2274215,48.9734229],[2.2274968,48.973373],[2.2275601,48.9733632],[2.2278391,48.9734211],[2.2280743,48.9733781],[2.2282574,48.9732998],[2.2287404,48.9728883],[2.2287745,48.9729001],[2.2292305,48.9723465],[2.2299584,48.9726029],[2.2311731,48.9729423],[2.23193,48.9732758],[2.2321841,48.9733558],[2.2328385,48.9734209],[2.2341333,48.9736232],[2.2349096,48.9736868],[2.2351286,48.9736448],[2.2363545,48.9738345],[2.2364072,48.9749307],[2.2363913,48.9755965],[2.2365125,48.9764254],[2.2359268,48.97654],[2.235814,48.9766764],[2.2356889,48.9767555],[2.2351198,48.9770316],[2.2342707,48.9773603],[2.233292,48.9776622],[2.2322819,48.9780553],[2.2312295,48.978563],[2.2301828,48.9782647],[2.2293337,48.9778312],[2.2285674,48.9775522],[2.2282559,48.9779778],[2.2280942,48.978118],[2.2284538,48.9782748],[2.2280823,48.978564],[2.2272445,48.9790642],[2.2266549,48.9793723],[2.2265097,48.9792946],[2.2262107,48.9793564],[2.2249495,48.9794614],[2.2246429,48.9795884],[2.2243605,48.9797536],[2.2233923,48.9804063],[2.222943,48.9810297],[2.2229284,48.9811921],[2.2231092,48.9814219],[2.2229369,48.9814931],[2.223027,48.9816414],[2.2230267,48.9817532],[2.2229332,48.9818636],[2.2224216,48.9817047],[2.2200848,48.9826956],[2.2198483,48.9825321],[2.2195712,48.9818443],[2.2192271,48.9807674],[2.2193736,48.9806357],[2.2191988,48.9803814],[2.2192876,48.9802532],[2.2180599,48.9798793],[2.2192403,48.9791913],[2.2194358,48.9791052],[2.2188879,48.9788485],[2.2189536,48.9786693],[2.2185486,48.9787161],[2.2184553,48.9779251],[2.2187403,48.9778878],[2.2188158,48.9778454],[2.2189675,48.9776949],[2.2189982,48.9775684],[2.2196095,48.9775291],[2.2194899,48.9769892],[2.2191327,48.9770458],[2.2189175,48.9761932],[2.220177,48.9755223],[2.2209475,48.9754697],[2.2214519,48.9755117],[2.2218115,48.9755953],[2.2219979,48.9755811],[2.2222344,48.9755298],[2.222235,48.9754881],[2.2225918,48.9753134],[2.2227882,48.9755252],[2.2237077,48.9751588]]]]},"properties":{"code_section":"952520000C","code_commune":"95252","section_courte":"C"}},{"type":"Feature","geometry":{"type":"MultiPolygon","coordinates":[[[[2.2110098,48.9820523],[2.2113934,48.9819918],[2.2118502,48.9818641],[2.2122606,48.981794],[2.2126634,48.9817634],[2.2129904,48.9816692],[2.2138191,48.9815521],[2.2155568,48.9810584],[2.2159135,48.9808975],[2.216374,48.9805619],[2.2167755,48.980368],[2.2180599,48.9798793],[2.2192876,48.9802532],[2.2191988,48.9803814],[2.2193736,48.9806357],[2.2192271,48.9807674],[2.2195712,48.9818443],[2.2198483,48.9825321],[2.2195876,48.9825002],[2.2187137,48.9825266],[2.2180018,48.9826908],[2.2173769,48.9829413],[2.2161532,48.983321],[2.2154924,48.9835822],[2.2155601,48.9838428],[2.2152602,48.983989],[2.2144646,48.9841335],[2.2144414,48.984114],[2.2136097,48.9843527],[2.2131848,48.9844452],[2.2131268,48.9844334],[2.2132828,48.9852313],[2.2132324,48.9852484],[2.2131727,48.9852031],[2.2124553,48.9853843],[2.2107263,48.9857424],[2.2108029,48.9860957],[2.2112489,48.9869314],[2.2093173,48.9878355],[2.2093857,48.9879639],[2.2082231,48.9883393],[2.204594,48.9897681],[2.2044597,48.9896009],[2.2041625,48.9888838],[2.2040861,48.9885792],[2.2040393,48.9879279],[2.2039655,48.9875457],[2.2042176,48.9869276],[2.204032,48.9861967],[2.2039707,48.9860888],[2.2036858,48.9858348],[2.2033818,48.985662],[2.2032317,48.9854825],[2.203113,48.9852252],[2.2032053,48.9849977],[2.2035065,48.9846918],[2.2033178,48.9842673],[2.2041691,48.9841988],[2.2048401,48.9840166],[2.2051629,48.9838633],[2.2053308,48.9838168],[2.2072401,48.9834269],[2.2076202,48.9833125],[2.2095251,48.98259],[2.210085,48.983218],[2.2104099,48.9831009],[2.2108816,48.9828404],[2.2106808,48.9826467],[2.2113481,48.9824093],[2.2111527,48.9822847],[2.2109732,48.9820876],[2.2110098,48.9820523]]]]},"properties":{"code_section":"952520000D","code_commune":"95252","section_courte":"D"}},{"type":"Feature","geometry":{"type":"MultiPolygon","coordinates":[[[[2.2149297,49.0005683],[2.2155392,49.0003366],[2.215819,49.0000946],[2.2163365,48.9998648],[2.2166789,48.9997536],[2.2150111,48.9974459],[2.2150681,48.9974285],[2.2147678,48.9970056],[2.2166083,48.9964617],[2.2173019,48.9967488],[2.2179576,48.9969592],[2.2192016,48.9971345],[2.2200924,48.9973584],[2.2202537,48.9974731],[2.220327,48.997457],[2.220718,48.9975975],[2.2206802,48.9975394],[2.2211431,48.9977054],[2.221188,48.9977705],[2.2220962,48.9981788],[2.2222366,48.9983399],[2.2223262,48.99839],[2.2224016,48.9983905],[2.2235976,48.9988004],[2.2243857,48.9991926],[2.2255616,48.9996798],[2.2260521,48.9999262],[2.2149763,49.0035324],[2.2129245,49.0013279],[2.2129326,49.001298],[2.2149297,49.0005683]]]]},"properties":{"code_section":"95252000AB","code_commune":"95252","section_courte":"AB"}},{"type":"Feature","geometry":{"type":"MultiPolygon","coordinates":[[[[2.2327103,48.9948355],[2.2327504,48.9948425],[2.2335387,48.9957346],[2.2332962,48.9958223],[2.2344064,48.9972084],[2.2286041,48.9988902],[2.2275513,48.9992702],[2.2260521,48.9999262],[2.2255616,48.9996798],[2.2243857,48.9991926],[2.2235976,48.9988004],[2.2224016,48.9983905],[2.2223262,48.99839],[2.2222366,48.9983399],[2.2220962,48.9981788],[2.2302227,48.995152],[2.2301904,48.9951054],[2.23024,48.9951561],[2.231197,48.9948269],[2.2313775,48.9947215],[2.2334153,48.9939566],[2.2335219,48.9940783],[2.2335815,48.9940977],[2.2333031,48.9945294],[2.2332444,48.9945947],[2.2326872,48.994802],[2.2327103,48.9948355]]]]},"properties":{"code_section":"95252000AC","code_commune":"95252","section_courte":"AC"}},{"type":"Feature","geometry":{"type":"MultiPolygon","coordinates":[[[[2.2333031,48.9945294],[2.2335815,48.9940977],[2.2335219,48.9940783],[2.2334153,48.9939566],[2.2357589,48.9930494],[2.2358325,48.9930331],[2.2358914,48.9930562],[2.2359786,48.9930248],[2.2360133,48.9929848],[2.2390139,48.9918224],[2.2435551,48.9901406],[2.2435057,48.9905635],[2.2431838,48.9906678],[2.2435328,48.9912439],[2.2426985,48.9914558],[2.2425341,48.991525],[2.2429907,48.9920942],[2.2420731,48.9924466],[2.243666,48.9942268],[2.2372955,48.996349],[2.2344064,48.9972084],[2.2332962,48.9958223],[2.2335387,48.9957346],[2.2326872,48.994802],[2.2332444,48.9945947],[2.2333031,48.9945294]]]]},"properties":{"code_section":"95252000AD","code_commune":"95252","section_courte":"AD"}},{"type":"Feature","geometry":{"type":"MultiPolygon","coordinates":[[[[2.2438286,48.9881221],[2.2435551,48.9901406],[2.2388899,48.9918702],[2.2388147,48.9915473],[2.2386195,48.9910803],[2.2382352,48.990503],[2.2366148,48.9862572],[2.2363708,48.9853618],[2.2361834,48.9841418],[2.2371422,48.9841695],[2.2394451,48.9837422],[2.242714,48.9836718],[2.2440647,48.9864546],[2.2438906,48.987081],[2.2438286,48.9881221]]]]},"properties":{"code_section":"95252000AE","code_commune":"95252","section_courte":"AE"}},{"type":"Feature","geometry":{"type":"MultiPolygon","coordinates":[[[[2.2302475,48.9831214],[2.2311518,48.9826389],[2.2350597,48.9801834],[2.235303,48.9801059],[2.2355729,48.9809965],[2.2354871,48.9818001],[2.2355559,48.9823616],[2.2361834,48.9841418],[2.2364203,48.9855992],[2.2341167,48.9859947],[2.2341724,48.9863082],[2.2316027,48.9868696],[2.2317927,48.9870987],[2.2297253,48.9877988],[2.2268644,48.9842382],[2.2283987,48.9837158],[2.2298042,48.9833078],[2.2302475,48.9831214]]]]},"properties":{"code_section":"95252000AH","code_commune":"95252","section_courte":"AH"}},{"type":"Feature","geometry":{"type":"MultiPolygon","coordinates":[[[[2.2280942,48.978118],[2.2282559,48.9779778],[2.2285674,48.9775522],[2.2293337,48.9778312],[2.2301828,48.9782647],[2.2312295,48.978563],[2.2322819,48.9780553],[2.233292,48.9776622],[2.2342707,48.9773603],[2.2351198,48.9770316],[2.2356889,48.9767555],[2.235814,48.9766764],[2.2359268,48.97654],[2.2365801,48.9764123],[2.2368965,48.9783488],[2.2372488,48.9789952],[2.2361917,48.9793186],[2.2359102,48.9796259],[2.2357554,48.9799378],[2.2350597,48.9801834],[2.2330231,48.9814858],[2.230657,48.9829227],[2.2298042,48.9833078],[2.2286158,48.9836579],[2.2282617,48.9831891],[2.2279838,48.9829822],[2.2274689,48.9826757],[2.227277,48.9825981],[2.2277607,48.9815428],[2.2277501,48.9813368],[2.2276115,48.9811433],[2.227526,48.9810873],[2.227741,48.9805396],[2.2277764,48.9803082],[2.2277475,48.9801298],[2.2276714,48.9799573],[2.2275696,48.9798393],[2.2267002,48.9793326],[2.2272445,48.9790642],[2.2280823,48.978564],[2.2284538,48.9782748],[2.2280942,48.978118]]]]},"properties":{"code_section":"95252000AI","code_commune":"95252","section_courte":"AI"}},{"type":"Feature","geometry":{"type":"MultiPolygon","coordinates":[[[[2.2231092,48.9814219],[2.2229284,48.9811921],[2.222931,48.9810724],[2.2233923,48.9804063],[2.2246429,48.9795884],[2.2249495,48.9794614],[2.2262107,48.9793564],[2.2265097,48.9792946],[2.2266549,48.9793723],[2.2267029,48.9793493],[2.2269157,48.9794458],[2.2275696,48.9798393],[2.2276714,48.9799573],[2.2277475,48.9801298],[2.2277764,48.9803082],[2.227741,48.9805396],[2.227526,48.9810873],[2.2276115,48.9811433],[2.2277501,48.9813368],[2.2277607,48.9815428],[2.227277,48.9825981],[2.2274689,48.9826757],[2.2279838,48.9829822],[2.2282617,48.9831891],[2.2286158,48.9836579],[2.2268644,48.9842382],[2.2263256,48.9844684],[2.2256514,48.9847659],[2.223595,48.9858346],[2.2230661,48.9860462],[2.2224823,48.9862256],[2.2208761,48.9865821],[2.2202347,48.9866613],[2.2195968,48.9856273],[2.2194228,48.9854302],[2.219063,48.985497],[2.218741,48.9842494],[2.218519,48.9836585],[2.2180583,48.982777],[2.2179541,48.9827479],[2.2180112,48.9827366],[2.2180018,48.9826908],[2.2187137,48.9825266],[2.2195876,48.9825002],[2.2198483,48.9825321],[2.2200848,48.9826956],[2.2224216,48.9817047],[2.2229332,48.9818636],[2.2230267,48.9817532],[2.223027,48.9816414],[2.2229369,48.9814931],[2.2231092,48.9814219]]]]},"properties":{"code_section":"95252000AK","code_commune":"95252","section_courte":"AK"}},{"type":"Feature","geometry":{"type":"MultiPolygon","coordinates":[[[[2.2112489,48.9869314],[2.2108029,48.9860957],[2.2107263,48.9857424],[2.2124553,48.9853843],[2.2131727,48.9852031],[2.2132324,48.9852484],[2.2132828,48.9852313],[2.2131268,48.9844334],[2.2131848,48.9844452],[2.2136097,48.9843527],[2.2144414,48.984114],[2.2144646,48.9841335],[2.2152602,48.983989],[2.2155601,48.9838428],[2.2154924,48.9835822],[2.2161532,48.983321],[2.2169586,48.9830839],[2.2179909,48.9827089],[2.2180112,48.9827366],[2.2179541,48.9827479],[2.2180583,48.982777],[2.2182443,48.9830891],[2.2186845,48.9840838],[2.219063,48.985497],[2.2194228,48.9854302],[2.2195968,48.9856273],[2.2202347,48.9866613],[2.2194551,48.9867338],[2.2194753,48.9870765],[2.2194322,48.9871328],[2.2190096,48.987387],[2.2173469,48.9887369],[2.2165841,48.9898166],[2.2162942,48.9893354],[2.2152832,48.9895654],[2.215169,48.989477],[2.2144845,48.9896217],[2.2142964,48.9894741],[2.2141735,48.9894269],[2.2139618,48.9894631],[2.2132513,48.9893937],[2.2126553,48.9891429],[2.2121351,48.9889773],[2.2115362,48.9892325],[2.2112696,48.988728],[2.2101601,48.9890146],[2.2099799,48.9887202],[2.2098191,48.9887489],[2.2093173,48.9878355],[2.2112489,48.9869314]]]]},"properties":{"code_section":"95252000AL","code_commune":"95252","section_courte":"AL"}},{"type":"Feature","geometry":{"type":"MultiPolygon","coordinates":[[[[2.2154245,48.989533],[2.2162942,48.9893354],[2.2165841,48.9898166],[2.2173469,48.9887369],[2.2187434,48.9876162],[2.2196866,48.9893615],[2.2205327,48.9898075],[2.220722,48.990035],[2.2208028,48.9900578],[2.2207852,48.9900917],[2.2209443,48.9902718],[2.2203048,48.9904996],[2.2202801,48.9905471],[2.2208848,48.991191],[2.22323,48.9901354],[2.2239371,48.990991],[2.2238659,48.991016],[2.2238091,48.9909568],[2.2237541,48.9909601],[2.2235874,48.9913203],[2.2235291,48.9913435],[2.2232831,48.9917097],[2.2230052,48.9922456],[2.2228175,48.9928076],[2.2213778,48.9934055],[2.2188183,48.9941849],[2.218655,48.9940853],[2.2186006,48.9941242],[2.2185553,48.9940569],[2.215715,48.9950071],[2.2155778,48.9948782],[2.2151372,48.9950258],[2.213334,48.9932213],[2.2129012,48.9933595],[2.2132516,48.9929229],[2.213448,48.9924766],[2.2134779,48.9921035],[2.2139579,48.9918782],[2.2139402,48.9918498],[2.2141107,48.9917685],[2.21324,48.9908452],[2.2143406,48.9904754],[2.2138994,48.9900438],[2.2142643,48.9898284],[2.2140582,48.9895689],[2.2142964,48.9894741],[2.2144845,48.9896217],[2.215169,48.989477],[2.2152615,48.9895651],[2.2154245,48.989533]]]]},"properties":{"code_section":"95252000AM","code_commune":"95252","section_courte":"AM"}},{"type":"Feature","geometry":{"type":"MultiPolygon","coordinates":[[[[2.2204432,48.9936898],[2.2213778,48.9934055],[2.2228175,48.9928076],[2.2230052,48.9922456],[2.2232831,48.9917097],[2.2235291,48.9913435],[2.2235874,48.9913203],[2.2237541,48.9909601],[2.2238091,48.9909568],[2.2238659,48.991016],[2.2239371,48.990991],[2.2245659,48.9916797],[2.2259517,48.9930802],[2.2286667,48.9957324],[2.222076,48.9981864],[2.221188,48.9977705],[2.2211431,48.9977054],[2.2206802,48.9975394],[2.220718,48.9975975],[2.220327,48.997457],[2.2202537,48.9974731],[2.2200924,48.9973584],[2.2192016,48.9971345],[2.2179576,48.9969592],[2.2173019,48.9967488],[2.2166083,48.9964617],[2.2145004,48.9958638],[2.215588,48.9954522],[2.215224,48.9949968],[2.2155778,48.9948782],[2.215715,48.9950071],[2.2185553,48.9940569],[2.2186006,48.9941242],[2.218655,48.9940853],[2.2188183,48.9941849],[2.2204432,48.9936898]]]]},"properties":{"code_section":"95252000AN","code_commune":"95252","section_courte":"AN"}},{"type":"Feature","geometry":{"type":"MultiPolygon","coordinates":[[[[2.2263127,48.9934402],[2.2245659,48.9916797],[2.2236946,48.9907215],[2.2272179,48.9894536],[2.2269192,48.9891144],[2.2297253,48.9877988],[2.2343623,48.9935953],[2.2313775,48.9947215],[2.231197,48.9948269],[2.23024,48.9951561],[2.2301904,48.9951054],[2.2302227,48.995152],[2.2286667,48.9957324],[2.2263127,48.9934402]]]]},"properties":{"code_section":"95252000AO","code_commune":"95252","section_courte":"AO"}},{"type":"Feature","geometry":{"type":"MultiPolygon","coordinates":[[[[2.2343388,48.9935657],[2.2297253,48.9877988],[2.2317927,48.9870987],[2.2316027,48.9868696],[2.2341724,48.9863082],[2.2341167,48.9859947],[2.2364203,48.9855992],[2.2366148,48.9862572],[2.2382352,48.990503],[2.2386195,48.9910803],[2.2388147,48.9915473],[2.2388899,48.9918702],[2.2360133,48.9929848],[2.2359786,48.9930248],[2.2358914,48.9930562],[2.2358325,48.9930331],[2.2357589,48.9930494],[2.2343623,48.9935953],[2.2343388,48.9935657]]]]},"properties":{"code_section":"95252000AP","code_commune":"95252","section_courte":"AP"}},{"type":"Feature","geometry":{"type":"MultiPolygon","coordinates":[[[[2.2208761,48.9865821],[2.2224823,48.9862256],[2.2232309,48.9859863],[2.223595,48.9858346],[2.2256514,48.9847659],[2.2268644,48.9842382],[2.2297253,48.9877988],[2.2269192,48.9891144],[2.2272179,48.9894536],[2.2236946,48.9907215],[2.22323,48.9901354],[2.2208848,48.991191],[2.2202801,48.9905471],[2.2203048,48.9904996],[2.2209443,48.9902718],[2.2207852,48.9900917],[2.2208028,48.9900578],[2.220722,48.990035],[2.2205327,48.9898075],[2.2196866,48.9893615],[2.2187434,48.9876162],[2.2190096,48.987387],[2.2194322,48.9871328],[2.2194753,48.9870765],[2.2194551,48.9867338],[2.2208761,48.9865821]]]]},"properties":{"code_section":"95252000AR","code_commune":"95252","section_courte":"AR"}}]}