{"type":"FeatureCollection","features":[{"type":"Feature","geometry":{"type":"MultiPolygon","coordinates":[[[[2.1254432,49.0162533],[2.126833,49.0169436],[2.1274252,49.0173007],[2.1275329,49.0174507],[2.1275634,49.0176062],[2.1275236,49.0179582],[2.1273646,49.0182477],[2.1307506,49.0206768],[2.1282264,49.0233037],[2.1267563,49.0246395],[2.120649,49.0198463],[2.1205932,49.0197646],[2.1212965,49.0183628],[2.1212821,49.0183145],[2.1236734,49.0155834],[2.1244172,49.0159108],[2.1246173,49.0157384],[2.1248551,49.0159104],[2.1248549,49.0159814],[2.1247635,49.0160756],[2.1250355,49.0162066],[2.1252657,49.0161943],[2.1254432,49.0162533]]]]},"properties":{"code_section":"95306000AC","code_commune":"95306","section_courte":"AC"}},{"type":"Feature","geometry":{"type":"MultiPolygon","coordinates":[[[[2.1303895,49.0139625],[2.1326169,49.015062],[2.1319447,49.0156489],[2.1310382,49.0162879],[2.1295694,49.0174315],[2.1293974,49.0176016],[2.1279206,49.0186504],[2.1273646,49.0182477],[2.1275236,49.0179582],[2.1275649,49.0175812],[2.127508,49.0174014],[2.1273574,49.0172465],[2.126833,49.0169436],[2.1253994,49.0162314],[2.1252185,49.0161893],[2.1250355,49.0162066],[2.1247635,49.0160756],[2.1248549,49.0159814],[2.1248551,49.0159104],[2.1246173,49.0157384],[2.1244172,49.0159108],[2.123689,49.0155755],[2.1266851,49.0121917],[2.1271294,49.0096873],[2.1274346,49.009365],[2.1281804,49.0090157],[2.1291293,49.0096278],[2.1298476,49.0099925],[2.1305516,49.0100049],[2.1309066,49.0099483],[2.1320376,49.0106887],[2.1320705,49.0106602],[2.1323012,49.010771],[2.1332366,49.0105491],[2.1336077,49.0109572],[2.1327758,49.0113661],[2.1326296,49.0112504],[2.131741,49.011977],[2.1316809,49.0120341],[2.1320478,49.0122627],[2.131947,49.0122914],[2.1305431,49.0139747],[2.1305616,49.0140018],[2.1304134,49.0139348],[2.1303895,49.0139625]]]]},"properties":{"code_section":"95306000AD","code_commune":"95306","section_courte":"AD"}},{"type":"Feature","geometry":{"type":"MultiPolygon","coordinates":[[[[2.1283863,49.018973],[2.1279206,49.0186504],[2.1293974,49.0176016],[2.1295694,49.0174315],[2.1310382,49.0162879],[2.1319447,49.0156489],[2.1325919,49.0151035],[2.1326169,49.015062],[2.1303895,49.0139625],[2.1304719,49.0139129],[2.1318425,49.0122615],[2.1318684,49.0121521],[2.1316809,49.0120341],[2.131741,49.011977],[2.1326296,49.0112504],[2.1327758,49.0113661],[2.1336077,49.0109572],[2.1349055,49.0123867],[2.136284,49.0138184],[2.1374654,49.0133112],[2.1385362,49.0139767],[2.1370975,49.0150864],[2.1307506,49.0206768],[2.1283863,49.018973]]]]},"properties":{"code_section":"95306000AE","code_commune":"95306","section_courte":"AE"}},{"type":"Feature","geometry":{"type":"MultiPolygon","coordinates":[[[[2.1403648,49.0104358],[2.1428911,49.0093161],[2.1427893,49.0092189],[2.1442086,49.008614],[2.1447317,49.0090934],[2.1448044,49.0090111],[2.1448606,49.0090538],[2.1455783,49.0097103],[2.144967,49.0100831],[2.1421863,49.0116368],[2.1411248,49.0123523],[2.1391474,49.0134884],[2.1385362,49.0139767],[2.1374652,49.0133112],[2.136284,49.0138184],[2.1349055,49.0123867],[2.1332366,49.0105491],[2.1333553,49.0105225],[2.133108,49.0102862],[2.1330761,49.0101644],[2.133535,49.0100485],[2.1348862,49.0099674],[2.1343896,49.0093374],[2.1346022,49.0092793],[2.134816,49.0095574],[2.1386799,49.0084655],[2.1391111,49.0090266],[2.1376621,49.009452],[2.137737,49.0095601],[2.1373397,49.0096765],[2.1373916,49.0097834],[2.1372032,49.009843],[2.1372859,49.0099523],[2.1365898,49.0102018],[2.1367586,49.0103824],[2.1380564,49.0100206],[2.1380267,49.0099754],[2.1396212,49.0094955],[2.1399254,49.009791],[2.1401939,49.010123],[2.1379711,49.0107728],[2.1382968,49.0111484],[2.1403977,49.010499],[2.1403648,49.0104358]]]]},"properties":{"code_section":"95306000AH","code_commune":"95306","section_courte":"AH"}},{"type":"Feature","geometry":{"type":"MultiPolygon","coordinates":[[[[2.1475248,49.006346],[2.1487342,49.0066611],[2.1497177,49.0074793],[2.148664,49.0079612],[2.1475265,49.0086235],[2.1467716,49.0089878],[2.1455783,49.0097103],[2.144831,49.009031],[2.1453543,49.0085154],[2.1456172,49.0082054],[2.1465842,49.0069365],[2.1470201,49.0062113],[2.1475248,49.006346]]],[[[2.1545384,49.0053396],[2.1537654,49.0057989],[2.1513537,49.006749],[2.1505441,49.0071156],[2.1495247,49.0062783],[2.149709,49.0061356],[2.1498745,49.00626],[2.1499574,49.0062152],[2.1498006,49.0060838],[2.1500799,49.0059048],[2.1500713,49.0058727],[2.1475286,49.0048569],[2.1474981,49.0047818],[2.1481742,49.0033955],[2.1486016,49.0026666],[2.1490578,49.0020718],[2.1502363,49.0024819],[2.1512655,49.0032146],[2.1503663,49.0037401],[2.1502973,49.0036912],[2.149408,49.0042222],[2.1495852,49.0043703],[2.1494393,49.004456],[2.1500111,49.0047717],[2.1500389,49.0047578],[2.1505407,49.0051173],[2.1524559,49.0040329],[2.1545384,49.0053396]]]]},"properties":{"code_section":"95306000AI","code_commune":"95306","section_courte":"AI"}},{"type":"Feature","geometry":{"type":"MultiPolygon","coordinates":[[[[2.1443465,49.003533],[2.1442103,49.0034054],[2.1448826,49.0030841],[2.1443789,49.0025296],[2.1442605,49.0025772],[2.1436627,49.0016399],[2.1411731,49.0030854],[2.1411206,49.002938],[2.143581,49.0015068],[2.14315,49.0008273],[2.1470817,48.9999402],[2.1476759,48.9998493],[2.1485566,48.9997674],[2.1512638,48.9998007],[2.1504769,49.0004484],[2.1499879,49.0009149],[2.1487514,49.0024519],[2.1481742,49.0033955],[2.1466806,49.0040918],[2.1462132,49.0043756],[2.145787,49.0039987],[2.1456767,49.0040565],[2.1453071,49.0037295],[2.1459988,49.0034082],[2.1456111,49.003033],[2.1451042,49.0032792],[2.1450348,49.0032172],[2.1443465,49.003533]]]]},"properties":{"code_section":"95306000AK","code_commune":"95306","section_courte":"AK"}},{"type":"Feature","geometry":{"type":"MultiPolygon","coordinates":[[[[2.1504769,49.0004484],[2.1512638,48.9998007],[2.1518228,48.9991329],[2.1530314,48.9972019],[2.1539194,48.9972361],[2.1565268,48.9966281],[2.1566204,48.996822],[2.1562763,48.9969124],[2.1574917,48.9976859],[2.1576966,48.9976242],[2.1578776,48.9979247],[2.1589214,48.9975424],[2.1594958,48.998181],[2.159716,48.9980982],[2.1603636,48.9987749],[2.1613715,48.9983193],[2.1615215,48.9983777],[2.1599943,49.0003075],[2.1588208,49.0016906],[2.1587542,49.0016721],[2.1572109,49.0019972],[2.1582587,49.0023153],[2.1580443,49.0025125],[2.1567869,49.002122],[2.1567329,49.0021949],[2.1565422,49.0021337],[2.1551445,49.0024364],[2.1551021,49.0024062],[2.1549171,49.0024572],[2.1542987,49.0027529],[2.1540994,49.0026605],[2.1520667,49.0032072],[2.1519931,49.0031676],[2.1518159,49.0032823],[2.1514657,49.0033837],[2.1502363,49.0024819],[2.1490578,49.0020718],[2.1499879,49.0009149],[2.1504769,49.0004484]]]]},"properties":{"code_section":"95306000AL","code_commune":"95306","section_courte":"AL"}},{"type":"Feature","geometry":{"type":"MultiPolygon","coordinates":[[[[2.1607015,49.0050193],[2.1603379,49.0050402],[2.1601973,49.0049728],[2.1585786,49.0050848],[2.1579907,49.0052334],[2.1571667,49.005236],[2.1571428,49.0063289],[2.1566653,49.0063574],[2.1568748,49.0070823],[2.1562119,49.0071622],[2.1546824,49.0072321],[2.1548131,49.006117],[2.1549803,49.0056003],[2.1555002,49.0048626],[2.1556751,49.0046738],[2.1562299,49.0042289],[2.1569632,49.0034824],[2.1582587,49.0023153],[2.1586639,49.0018724],[2.1619639,49.002512],[2.161866,49.0030953],[2.1619573,49.0039691],[2.1619423,49.0049251],[2.1611061,49.0049595],[2.1610565,49.0049978],[2.1607015,49.0050193]]]]},"properties":{"code_section":"95306000AM","code_commune":"95306","section_courte":"AM"}},{"type":"Feature","geometry":{"type":"MultiPolygon","coordinates":[[[[2.1546824,49.0072321],[2.1562119,49.0071622],[2.1567391,49.0071131],[2.157032,49.0082477],[2.155962,49.0084172],[2.1555612,49.0085237],[2.1574011,49.0093584],[2.1555774,49.0101122],[2.1562967,49.0115376],[2.1552427,49.0117577],[2.1551087,49.0112105],[2.1545428,49.0097643],[2.1544946,49.0094481],[2.1544767,49.0091256],[2.1546824,49.0072321]]],[[[2.1623984,49.0075447],[2.1626894,49.0080637],[2.1625592,49.0082403],[2.1634229,49.0093815],[2.1632071,49.0095048],[2.1633175,49.009645],[2.1628133,49.0098144],[2.1629649,49.0100058],[2.1629057,49.0100271],[2.1629727,49.0101043],[2.1629279,49.0101196],[2.163386,49.0106501],[2.1636562,49.0104926],[2.1637886,49.0106576],[2.1619147,49.0117388],[2.1610625,49.0106209],[2.1613608,49.0105443],[2.1611123,49.0101478],[2.1612123,49.0101195],[2.1607197,49.0093529],[2.1607643,49.009339],[2.1603755,49.0086954],[2.1601773,49.0087274],[2.1581504,49.0092788],[2.1574502,49.0093469],[2.159765,49.0082659],[2.1620871,49.0070853],[2.1623984,49.0075447]]]]},"properties":{"code_section":"95306000AN","code_commune":"95306","section_courte":"AN"}},{"type":"Feature","geometry":{"type":"MultiPolygon","coordinates":[[[[2.1678013,49.0083493],[2.1637886,49.0106576],[2.1636416,49.0104738],[2.1633714,49.0106281],[2.1629279,49.0101196],[2.1629652,49.0100865],[2.1629028,49.0100085],[2.1629611,49.0099875],[2.1628091,49.0097956],[2.1633072,49.0096275],[2.1631997,49.0094886],[2.1634145,49.0093654],[2.1625592,49.0082403],[2.1626894,49.0080637],[2.1620871,49.0070853],[2.1634909,49.0062039],[2.1663219,49.0048448],[2.1668506,49.0044419],[2.1699851,49.0026373],[2.1703069,49.0033649],[2.1704195,49.0032989],[2.1709217,49.0036928],[2.1712701,49.0036083],[2.1713568,49.003717],[2.1713401,49.0039062],[2.1704497,49.0040685],[2.1707132,49.0043655],[2.1705712,49.0044677],[2.1709775,49.0047081],[2.1709936,49.0051915],[2.1716363,49.0063321],[2.1688021,49.0077892],[2.1678013,49.0083493]]]]},"properties":{"code_section":"95306000AO","code_commune":"95306","section_courte":"AO"}},{"type":"Feature","geometry":{"type":"MultiPolygon","coordinates":[[[[2.1599291,48.9983204],[2.159716,48.9980982],[2.1594958,48.998181],[2.1589343,48.9975587],[2.1602969,48.9970591],[2.1624307,48.9958345],[2.1643437,48.9947909],[2.1650491,48.9950306],[2.1656104,48.9953766],[2.1680499,48.9949353],[2.1683335,48.9958829],[2.1695435,48.9957259],[2.1699885,48.996624],[2.1703449,48.9965692],[2.1706909,48.9974129],[2.1688288,48.9977111],[2.1688865,48.9985221],[2.1690999,48.9993345],[2.1679931,48.9994193],[2.1679814,48.999363],[2.1658065,48.9995389],[2.1657589,48.998673],[2.1644533,48.9988089],[2.1644388,48.9987437],[2.1641123,48.9987833],[2.1643739,48.999805],[2.163304,48.9998849],[2.1627376,48.998103],[2.1625248,48.9981317],[2.1624206,48.9978175],[2.1620851,48.997981],[2.1622552,48.9986206],[2.1624364,48.9998552],[2.162326,49.0006596],[2.1599943,49.0003075],[2.1615215,48.9983777],[2.1613715,48.9983193],[2.1603636,48.9987749],[2.1599291,48.9983204]]]]},"properties":{"code_section":"95306000AR","code_commune":"95306","section_courte":"AR"}},{"type":"Feature","geometry":{"type":"MultiPolygon","coordinates":[[[[2.1716363,49.0063321],[2.1709936,49.0051915],[2.1709775,49.0047081],[2.1705712,49.0044677],[2.1707132,49.0043655],[2.1704497,49.0040685],[2.1713401,49.0039062],[2.1713568,49.003717],[2.1712701,49.0036083],[2.1709217,49.0036928],[2.1704195,49.0032989],[2.1703069,49.0033649],[2.1699851,49.0026373],[2.1735966,49.0004842],[2.1741845,49.0008149],[2.1742531,49.0010425],[2.1741424,49.0011063],[2.1748042,49.0016652],[2.1748833,49.0017226],[2.1752104,49.0016152],[2.17707,49.0031982],[2.1769377,49.0033246],[2.1756986,49.0039759],[2.1758056,49.0041057],[2.1716363,49.0063321]]]]},"properties":{"code_section":"95306000AS","code_commune":"95306","section_courte":"AS"}},{"type":"Feature","geometry":{"type":"MultiPolygon","coordinates":[[[[2.1746695,48.9985659],[2.1736574,48.9987505],[2.1735196,48.9981063],[2.1744863,48.9978891],[2.1755466,48.9973648],[2.176032,48.9977185],[2.1768702,48.9982276],[2.1821125,49.0007437],[2.1758056,49.0041057],[2.1756986,49.0039759],[2.1769377,49.0033246],[2.17707,49.0031982],[2.1752104,49.0016152],[2.1748833,49.0017226],[2.1748042,49.0016652],[2.1741424,49.0011063],[2.1742531,49.0010425],[2.1741845,49.0008149],[2.1735966,49.0004842],[2.1753776,48.9991842],[2.1762339,48.9986919],[2.1760616,48.9984965],[2.1758284,48.9985625],[2.1756481,48.9983236],[2.1746695,48.9985659]]]]},"properties":{"code_section":"95306000AT","code_commune":"95306","section_courte":"AT"}},{"type":"Feature","geometry":{"type":"MultiPolygon","coordinates":[[[[2.1895484,49.0040275],[2.1870775,49.0030303],[2.1821125,49.0007437],[2.1887571,48.9972466],[2.1925175,49.00213],[2.1930586,49.0026763],[2.1934483,49.0025052],[2.1951847,49.0046057],[2.1931503,49.0054875],[2.1909859,49.0045719],[2.1895484,49.0040275]]]]},"properties":{"code_section":"95306000AV","code_commune":"95306","section_courte":"AV"}},{"type":"Feature","geometry":{"type":"MultiPolygon","coordinates":[[[[2.1755154,48.9964377],[2.1755675,48.9964831],[2.1756449,48.996446],[2.175774,48.9965539],[2.176365,48.996248],[2.1764622,48.9963329],[2.1758131,48.9966705],[2.1761877,48.9969838],[2.1771775,48.9976776],[2.1765597,48.9980459],[2.176032,48.9977185],[2.1755466,48.9973648],[2.1750548,48.9969615],[2.1745095,48.9964408],[2.1752317,48.9961418],[2.1755154,48.9964377]]],[[[2.1792964,48.9959009],[2.1794176,48.9958329],[2.17947,48.9953449],[2.1797269,48.9950456],[2.1795183,48.9948852],[2.1796776,48.9948134],[2.1792082,48.9942464],[2.1780822,48.9946729],[2.1772863,48.9936604],[2.1807833,48.9931959],[2.1820395,48.9940411],[2.1827354,48.9947407],[2.1829488,48.9950318],[2.1847859,48.9961649],[2.1865752,48.9971709],[2.1877561,48.9977779],[2.1821125,49.0007437],[2.1767054,48.9981322],[2.1779127,48.9974894],[2.1778891,48.9974691],[2.1781239,48.997315],[2.1789565,48.9965717],[2.1793944,48.9959708],[2.1792964,48.9959009]]]]},"properties":{"code_section":"95306000AW","code_commune":"95306","section_courte":"AW"}},{"type":"Feature","geometry":{"type":"MultiPolygon","coordinates":[[[[2.1683335,48.9958829],[2.1680499,48.9949353],[2.169888,48.9937605],[2.1695423,48.9934391],[2.1695689,48.9933224],[2.1703022,48.9928291],[2.1706395,48.9925329],[2.1707772,48.9924786],[2.1713873,48.9920881],[2.1725776,48.9912215],[2.17296,48.9912295],[2.1729867,48.9911286],[2.1745461,48.99132],[2.1766181,48.9914983],[2.1775041,48.9914231],[2.1785476,48.9911582],[2.1790061,48.9909926],[2.1794658,48.9915016],[2.1797106,48.9914184],[2.1807749,48.9925231],[2.1809972,48.9924496],[2.1812881,48.9931502],[2.1807832,48.9931959],[2.1772863,48.9936604],[2.178275,48.994893],[2.1745095,48.9964408],[2.1750548,48.9969615],[2.1755466,48.9973648],[2.1744863,48.9978891],[2.1735196,48.9981063],[2.173432,48.9976884],[2.1708642,48.9980825],[2.170622,48.9974336],[2.1706909,48.9974129],[2.1703449,48.9965692],[2.1699885,48.996624],[2.1695435,48.9957259],[2.1683335,48.9958829]]]]},"properties":{"code_section":"95306000AX","code_commune":"95306","section_courte":"AX"}},{"type":"Feature","geometry":{"type":"MultiPolygon","coordinates":[[[[2.17296,48.9912295],[2.1725501,48.9912337],[2.171413,48.9920707],[2.1707772,48.9924786],[2.1706395,48.9925329],[2.1703022,48.9928291],[2.1695689,48.9933224],[2.1695423,48.9934391],[2.169888,48.9937605],[2.1680499,48.9949353],[2.1656104,48.9953766],[2.1650491,48.9950306],[2.1643437,48.9947909],[2.1633439,48.9940111],[2.1627409,48.9933668],[2.1624621,48.9929795],[2.1619765,48.9920165],[2.1614851,48.9911885],[2.1625058,48.9905051],[2.1638752,48.9898149],[2.1671163,48.9879772],[2.167565,48.9884204],[2.1681539,48.9888652],[2.1687328,48.9893791],[2.1692532,48.9897208],[2.1702499,48.9902911],[2.1720135,48.9910177],[2.1729867,48.9911286],[2.17296,48.9912295]]]]},"properties":{"code_section":"95306000AY","code_commune":"95306","section_courte":"AY"}},{"type":"Feature","geometry":{"type":"MultiPolygon","coordinates":[[[[2.1676751,48.9870581],[2.168394,48.9866085],[2.1713276,48.9849585],[2.1718402,48.9852742],[2.1723596,48.9855099],[2.1723058,48.9855713],[2.1727393,48.9857117],[2.1723399,48.986052],[2.172541,48.9861583],[2.1726797,48.9860888],[2.1731449,48.9862159],[2.1731401,48.9862481],[2.173824,48.9863137],[2.1737397,48.9866748],[2.1740993,48.9865667],[2.1744959,48.9868637],[2.1746757,48.9868015],[2.1747797,48.9870515],[2.1746618,48.9871186],[2.1748546,48.9874431],[2.1750855,48.987704],[2.1752584,48.9880556],[2.1754885,48.9880302],[2.1757171,48.988287],[2.175798,48.9882787],[2.1758429,48.988342],[2.1760041,48.9883293],[2.1761123,48.9884917],[2.1767004,48.9890894],[2.1769979,48.9894769],[2.1773605,48.9893658],[2.1775597,48.9893671],[2.177751,48.9895921],[2.1778711,48.9895492],[2.1790061,48.9909926],[2.1785476,48.9911582],[2.1775041,48.9914231],[2.1766181,48.9914983],[2.1745461,48.99132],[2.1720135,48.9910177],[2.1702499,48.9902911],[2.1692532,48.9897208],[2.1687328,48.9893791],[2.1681539,48.9888652],[2.167565,48.9884204],[2.1667965,48.9876625],[2.1668231,48.9876121],[2.1676751,48.9870581]]]]},"properties":{"code_section":"95306000AZ","code_commune":"95306","section_courte":"AZ"}},{"type":"Feature","geometry":{"type":"MultiPolygon","coordinates":[[[[2.1713276,48.9849585],[2.168394,48.9866085],[2.1670294,48.9874772],[2.1668231,48.9876121],[2.1667965,48.9876625],[2.1671163,48.9879772],[2.1638752,48.9898149],[2.1635016,48.9895796],[2.1634563,48.9896011],[2.1633687,48.9895523],[2.1634111,48.9895323],[2.1621921,48.9888663],[2.1616161,48.9887035],[2.1604792,48.9884916],[2.1595964,48.9882884],[2.1586288,48.9878183],[2.1579717,48.9873638],[2.1576286,48.9868286],[2.1574943,48.9862708],[2.160332,48.9857879],[2.1630172,48.9850319],[2.1680075,48.9826102],[2.169986,48.984201],[2.1701116,48.9841063],[2.1708457,48.9846557],[2.1713276,48.9849585]]]]},"properties":{"code_section":"95306000BC","code_commune":"95306","section_courte":"BC"}},{"type":"Feature","geometry":{"type":"MultiPolygon","coordinates":[[[[2.1679993,48.9826194],[2.1630172,48.9850319],[2.160332,48.9857879],[2.1574943,48.9862708],[2.1558017,48.9866597],[2.1504932,48.9881715],[2.1500067,48.9863682],[2.1504478,48.9863685],[2.153223,48.9859641],[2.1556546,48.9855701],[2.1558058,48.9854881],[2.1559305,48.9853373],[2.1560059,48.9851216],[2.1561217,48.9850403],[2.1565744,48.9849462],[2.1572765,48.9846033],[2.1589688,48.9840221],[2.1597823,48.9837766],[2.1605257,48.9834829],[2.1618805,48.9828417],[2.1632912,48.9823027],[2.1647086,48.9820286],[2.1649485,48.9819344],[2.1662471,48.9812066],[2.1679993,48.9826194]]]]},"properties":{"code_section":"95306000BD","code_commune":"95306","section_courte":"BD"}},{"type":"Feature","geometry":{"type":"MultiPolygon","coordinates":[[[[2.1579717,48.9873638],[2.1586288,48.9878183],[2.1595964,48.9882884],[2.1620297,48.9888111],[2.1621921,48.9888663],[2.1633288,48.9894895],[2.1628741,48.9896851],[2.1625016,48.9897096],[2.1618753,48.9900068],[2.1618835,48.9900444],[2.1608984,48.9905947],[2.1578037,48.9920523],[2.1577739,48.9920378],[2.1566038,48.9925003],[2.1555569,48.9928287],[2.1546269,48.9930655],[2.1540706,48.9930909],[2.1529048,48.9932886],[2.1526109,48.9933074],[2.1512799,48.9931796],[2.1503638,48.9907689],[2.1506489,48.9906133],[2.1493796,48.989161],[2.1490375,48.9886922],[2.1504932,48.9881715],[2.155763,48.9866696],[2.1574943,48.9862708],[2.1576286,48.9868286],[2.1579717,48.9873638]]]]},"properties":{"code_section":"95306000BE","code_commune":"95306","section_courte":"BE"}},{"type":"Feature","geometry":{"type":"MultiPolygon","coordinates":[[[[2.1581888,48.9978113],[2.1578776,48.9979247],[2.1576966,48.9976242],[2.1574917,48.9976859],[2.1562763,48.9969124],[2.1566204,48.996822],[2.1565268,48.9966281],[2.1558165,48.996783],[2.1548065,48.9953432],[2.1551124,48.9951543],[2.1555686,48.9949828],[2.1564719,48.9937538],[2.1559235,48.9937551],[2.1542294,48.9935034],[2.1540952,48.9935082],[2.1540167,48.9933522],[2.1540572,48.9933445],[2.1539752,48.9931066],[2.1546269,48.9930655],[2.1555569,48.9928287],[2.1566038,48.9925003],[2.1577739,48.9920378],[2.1578037,48.9920523],[2.1608984,48.9905947],[2.1618835,48.9900443],[2.1618753,48.9900068],[2.1625016,48.9897096],[2.1628741,48.9896851],[2.1633288,48.9894895],[2.1634111,48.9895323],[2.1633687,48.9895523],[2.1634563,48.9896011],[2.1635016,48.9895796],[2.1638752,48.9898149],[2.1625058,48.9905051],[2.1614851,48.9911885],[2.1619765,48.9920165],[2.1624527,48.9929641],[2.1627317,48.9933557],[2.1633439,48.9940111],[2.1643437,48.9947909],[2.1624307,48.9958345],[2.1602969,48.9970591],[2.1581888,48.9978113]]]]},"properties":{"code_section":"95306000BH","code_commune":"95306","section_courte":"BH"}},{"type":"Feature","geometry":{"type":"MultiPolygon","coordinates":[[[[2.1467153,48.9977116],[2.1462946,48.9969856],[2.1460054,48.9962068],[2.145375,48.9950396],[2.1468412,48.9947757],[2.1491249,48.9944269],[2.1510441,48.9939163],[2.153129,48.9935474],[2.1542294,48.9935034],[2.1559235,48.9937551],[2.1564719,48.9937538],[2.1555686,48.9949828],[2.1551124,48.9951543],[2.1548065,48.9953432],[2.1558165,48.996783],[2.1539194,48.9972361],[2.1530314,48.9972019],[2.1519238,48.9989886],[2.1512638,48.9998007],[2.1485566,48.9997674],[2.1476759,48.9998493],[2.1472797,48.9982186],[2.1470102,48.9976267],[2.1467153,48.9977116]]]]},"properties":{"code_section":"95306000BI","code_commune":"95306","section_courte":"BI"}},{"type":"Feature","geometry":{"type":"MultiPolygon","coordinates":[[[[2.1540952,48.9935082],[2.153129,48.9935474],[2.1518724,48.9937607],[2.1507751,48.9939793],[2.1491249,48.9944269],[2.1468412,48.9947757],[2.1452387,48.9950759],[2.145093,48.9947284],[2.1495272,48.9939801],[2.1492695,48.9933304],[2.147216,48.9936341],[2.1454616,48.9938081],[2.1444974,48.9938455],[2.1440824,48.9920915],[2.1446991,48.9919693],[2.1445895,48.9916869],[2.1444684,48.9917076],[2.1443864,48.9915055],[2.1441097,48.9915675],[2.1439854,48.9912394],[2.1439262,48.9912229],[2.1425756,48.9914346],[2.1424383,48.9908348],[2.14241,48.9902599],[2.1454893,48.9897706],[2.1490375,48.9886922],[2.1493796,48.989161],[2.1506489,48.9906133],[2.1503638,48.9907689],[2.1512799,48.9931796],[2.1526109,48.9933074],[2.1529048,48.9932886],[2.1539752,48.9931066],[2.1540572,48.9933445],[2.1540167,48.9933522],[2.1540952,48.9935082]]]]},"properties":{"code_section":"95306000BK","code_commune":"95306","section_courte":"BK"}},{"type":"Feature","geometry":{"type":"MultiPolygon","coordinates":[[[[2.1290193,48.9900504],[2.1263595,48.9908084],[2.1254331,48.9901954],[2.1261342,48.9896585],[2.1268562,48.9892944],[2.1272646,48.9891403],[2.1278922,48.9889854],[2.1294617,48.9888396],[2.1329501,48.9887324],[2.1373924,48.9882869],[2.139235,48.9883366],[2.1412207,48.9881956],[2.1427038,48.9879658],[2.1436064,48.9877607],[2.1477605,48.986603],[2.1486787,48.9864236],[2.1500067,48.9863682],[2.1504932,48.9881715],[2.1490375,48.9886922],[2.1454711,48.9897748],[2.14241,48.9902599],[2.1389935,48.9901768],[2.1350685,48.9898823],[2.1331917,48.98988],[2.1290193,48.9900504]]]]},"properties":{"code_section":"95306000BL","code_commune":"95306","section_courte":"BL"}},{"type":"Feature","geometry":{"type":"MultiPolygon","coordinates":[[[[2.1338663,48.9916818],[2.1352003,48.9916815],[2.1352115,48.9910428],[2.1350415,48.9910208],[2.1350137,48.9904719],[2.1350685,48.9898823],[2.1389935,48.9901768],[2.14241,48.9902599],[2.1424383,48.9908348],[2.1425756,48.9914346],[2.1439262,48.9912229],[2.1439854,48.9912394],[2.1441097,48.9915675],[2.1443864,48.9915055],[2.1444684,48.9917076],[2.1445895,48.9916869],[2.1446991,48.9919693],[2.1440824,48.9920915],[2.1444974,48.9938455],[2.1424412,48.9939078],[2.1401971,48.9940321],[2.1383309,48.9940921],[2.1375761,48.9940808],[2.1341783,48.9938854],[2.1341628,48.9927452],[2.1340808,48.9927511],[2.1339881,48.9923958],[2.1339529,48.9923962],[2.1339155,48.9924019],[2.1339955,48.992759],[2.1338335,48.9927728],[2.1337533,48.9923938],[2.1336877,48.9923935],[2.1336599,48.9921054],[2.1338259,48.9920875],[2.1338663,48.9916818]]]]},"properties":{"code_section":"95306000BM","code_commune":"95306","section_courte":"BM"}},{"type":"Feature","geometry":{"type":"MultiPolygon","coordinates":[[[[2.1444082,48.9982612],[2.1443605,48.9981677],[2.1435337,48.9980742],[2.1432628,48.9980851],[2.1431378,48.9978225],[2.14344,48.9977718],[2.1433082,48.9974953],[2.1433697,48.9974824],[2.1433469,48.9974355],[2.1442577,48.9972326],[2.1442904,48.997295],[2.1444375,48.9972613],[2.1440862,48.9965841],[2.1453244,48.9962971],[2.1452983,48.9962468],[2.145661,48.9961598],[2.1456323,48.9961087],[2.1459142,48.9960337],[2.1462946,48.9969856],[2.1467153,48.9977116],[2.1470102,48.9976267],[2.1473183,48.9983217],[2.1476759,48.9998493],[2.1470817,48.9999402],[2.1448334,49.0004479],[2.1447631,49.0004074],[2.1442883,48.9995617],[2.1443941,48.9995354],[2.1438951,48.998625],[2.1445188,48.9984798],[2.1444082,48.9982612]]]]},"properties":{"code_section":"95306000BN","code_commune":"95306","section_courte":"BN"}},{"type":"Feature","geometry":{"type":"MultiPolygon","coordinates":[[[[2.133863,48.9917173],[2.1338259,48.9920875],[2.1336599,48.9921054],[2.1336877,48.9923935],[2.1337533,48.9923938],[2.1338335,48.9927728],[2.1339955,48.992759],[2.1339155,48.9924019],[2.1339529,48.9923962],[2.1339881,48.9923958],[2.1340808,48.9927511],[2.1341628,48.9927452],[2.1341783,48.9938854],[2.1309765,48.9937179],[2.1292412,48.9935459],[2.1284189,48.9934219],[2.1277788,48.9934131],[2.1264364,48.993564],[2.1258884,48.9935981],[2.1239958,48.9935839],[2.1239439,48.9928993],[2.1237402,48.9920412],[2.1238578,48.9914917],[2.1239587,48.9913408],[2.1241458,48.9911853],[2.1254331,48.9901954],[2.1263595,48.9908084],[2.1290193,48.9900504],[2.1331917,48.98988],[2.1350685,48.9898823],[2.1350137,48.9904719],[2.1350415,48.9910208],[2.1352115,48.9910428],[2.1352003,48.9916815],[2.1338663,48.9916818],[2.133863,48.9917173]]]]},"properties":{"code_section":"95306000BP","code_commune":"95306","section_courte":"BP"}},{"type":"Feature","geometry":{"type":"MultiPolygon","coordinates":[[[[2.1266202,48.9991162],[2.1253583,48.9994266],[2.124772,48.9983527],[2.1272892,48.9979342],[2.1281635,49.0003513],[2.1285212,49.0002623],[2.1292542,49.0015076],[2.1291681,49.00153],[2.1295375,49.0021466],[2.1293849,49.0021915],[2.1290266,49.0016062],[2.1287712,49.0016727],[2.1291255,49.0022455],[2.1289663,49.0022866],[2.1297047,49.0035563],[2.1301814,49.0034276],[2.1305303,49.004021],[2.1289524,49.0044801],[2.1281909,49.004631],[2.1269655,49.0047227],[2.1255541,49.0047408],[2.1242848,49.0048726],[2.1235473,49.0036452],[2.1223853,48.9997492],[2.1226505,49.0002177],[2.1227989,49.0001772],[2.1234941,49.001491],[2.1240996,49.002462],[2.1242591,49.0024217],[2.1243991,49.0026557],[2.1242457,49.0026974],[2.1243908,49.002929],[2.1251484,49.0027444],[2.1256793,49.003594],[2.1257764,49.0035657],[2.1253337,49.0028625],[2.1259353,49.002693],[2.1257234,49.002348],[2.1260757,49.0022449],[2.126227,49.0024898],[2.1269382,49.0022987],[2.1270578,49.0024951],[2.1275367,49.0023665],[2.1265503,49.0008446],[2.1263844,49.0008168],[2.1263515,49.0007638],[2.1264157,49.0007473],[2.1262754,49.000524],[2.1272448,49.0002371],[2.126758,48.9990824],[2.1266202,48.9991162]]]]},"properties":{"code_section":"95306000BS","code_commune":"95306","section_courte":"BS"}},{"type":"Feature","geometry":{"type":"MultiPolygon","coordinates":[[[[2.1342761,49.0006305],[2.1334963,48.9991354],[2.1347907,48.9989579],[2.1356362,48.9988941],[2.1359343,48.9995604],[2.136019,48.9995438],[2.1366028,49.000764],[2.1366335,49.0007561],[2.1374135,49.0023099],[2.1347816,49.0028571],[2.1343321,49.0020133],[2.1341789,49.0020512],[2.1342861,49.0022443],[2.1340973,49.0022882],[2.1337925,49.0017227],[2.1339711,49.0016787],[2.1336774,49.0011283],[2.1338404,49.001089],[2.1336004,49.0006374],[2.1337243,49.000609],[2.1336444,49.0004591],[2.133694,49.0004469],[2.1337532,49.0005564],[2.1338103,49.0005418],[2.1338683,49.0006481],[2.1339642,49.0006254],[2.134,49.0006967],[2.1342761,49.0006305]]]]},"properties":{"code_section":"95306000BT","code_commune":"95306","section_courte":"BT"}},{"type":"Feature","geometry":{"type":"MultiPolygon","coordinates":[[[[2.1328561,49.0058206],[2.133493,49.0065892],[2.1321526,49.0069697],[2.1322762,49.0071043],[2.129687,49.0071067],[2.1297482,49.0071677],[2.1275133,49.0081252],[2.1279145,49.0087698],[2.1281804,49.0090157],[2.1274346,49.009365],[2.1271389,49.0096711],[2.1254433,49.0067078],[2.1242848,49.0048726],[2.1255541,49.0047408],[2.1269655,49.0047227],[2.1281909,49.004631],[2.1289524,49.0044801],[2.1305303,49.004021],[2.1316179,49.0038063],[2.1327241,49.0054609],[2.1326582,49.0054815],[2.1327094,49.0055457],[2.1326578,49.0055628],[2.1328561,49.0058206]]]]},"properties":{"code_section":"95306000BW","code_commune":"95306","section_courte":"BW"}},{"type":"Feature","geometry":{"type":"MultiPolygon","coordinates":[[[[2.117355,49.0255857],[2.1160775,49.0245984],[2.1161052,49.0239686],[2.1160599,49.0231533],[2.117386,49.0214115],[2.1179263,49.0213968],[2.1190477,49.0214579],[2.1205932,49.0197646],[2.120649,49.0198463],[2.1267563,49.0246395],[2.1256304,49.0256799],[2.1250002,49.0265326],[2.1233204,49.0282737],[2.1224075,49.0293305],[2.1191363,49.0269552],[2.117355,49.0255857]]]]},"properties":{"code_section":"95306000BX","code_commune":"95306","section_courte":"BX"}},{"type":"Feature","geometry":{"type":"MultiPolygon","coordinates":[[[[2.1562832,49.011486],[2.1555774,49.0101122],[2.1574011,49.0093584],[2.1581504,49.0092788],[2.1601773,49.0087274],[2.1603755,49.0086954],[2.1607643,49.009339],[2.1607197,49.0093529],[2.1612123,49.0101195],[2.1611123,49.0101478],[2.1613608,49.0105443],[2.1610625,49.0106209],[2.1619147,49.0117388],[2.1610893,49.0122259],[2.1608996,49.0120547],[2.1592213,49.0125994],[2.1582246,49.0128795],[2.1577014,49.013073],[2.1562457,49.013489],[2.1552564,49.0119757],[2.1552427,49.0117577],[2.1562967,49.0115376],[2.1562832,49.011486]]]]},"properties":{"code_section":"95306000ZA","code_commune":"95306","section_courte":"ZA"}},{"type":"Feature","geometry":{"type":"MultiPolygon","coordinates":[[[[2.1663219,49.0048448],[2.1634909,49.0062039],[2.1620871,49.0070853],[2.159765,49.0082659],[2.1574502,49.0093469],[2.1574011,49.0093584],[2.1555612,49.0085237],[2.155962,49.0084172],[2.157032,49.0082477],[2.15673,49.0070972],[2.1568748,49.0070823],[2.1566651,49.0063574],[2.1571428,49.0063289],[2.1571667,49.005236],[2.1579907,49.0052334],[2.1585786,49.0050848],[2.1601973,49.0049728],[2.1603379,49.0050402],[2.1610565,49.0049978],[2.1611061,49.0049595],[2.1620677,49.0049232],[2.1661124,49.0043578],[2.1663219,49.0048448]]]]},"properties":{"code_section":"95306000ZB","code_commune":"95306","section_courte":"ZB"}},{"type":"Feature","geometry":{"type":"MultiPolygon","coordinates":[[[[2.1658091,49.0005337],[2.165809,49.0022721],[2.1658572,49.0026439],[2.169931,49.0022671],[2.1699851,49.0026373],[2.1668506,49.0044419],[2.1663219,49.0048448],[2.1661124,49.0043578],[2.1619423,49.0049251],[2.1619573,49.0039691],[2.161866,49.0030953],[2.1619639,49.002512],[2.1586639,49.0018724],[2.1599943,49.0003075],[2.162326,49.0006596],[2.1658091,49.0005337]]]]},"properties":{"code_section":"95306000ZC","code_commune":"95306","section_courte":"ZC"}},{"type":"Feature","geometry":{"type":"MultiPolygon","coordinates":[[[[2.1680417,49.0024518],[2.1658572,49.0026439],[2.165809,49.0022721],[2.1658091,49.0005337],[2.162326,49.0006596],[2.1624364,48.9998552],[2.1622552,48.9986206],[2.1620851,48.997981],[2.1624206,48.9978175],[2.1625248,48.9981317],[2.1627376,48.998103],[2.163304,48.9998849],[2.1643737,48.999805],[2.1641123,48.9987833],[2.1644388,48.9987437],[2.1644533,48.9988089],[2.1657589,48.998673],[2.1658065,48.9995389],[2.1679814,48.999363],[2.1679931,48.9994193],[2.1690999,48.9993345],[2.169931,49.0022671],[2.1680417,49.0024518]]]]},"properties":{"code_section":"95306000ZD","code_commune":"95306","section_courte":"ZD"}},{"type":"Feature","geometry":{"type":"MultiPolygon","coordinates":[[[[2.1736888,48.9987458],[2.1746695,48.9985659],[2.1756481,48.9983236],[2.1758284,48.9985625],[2.1760616,48.9984965],[2.1762339,48.9986919],[2.1753776,48.9991842],[2.1735966,49.0004842],[2.1699851,49.0026373],[2.169931,49.0022671],[2.1688865,48.9985221],[2.1688288,48.9977111],[2.170622,48.9974336],[2.1708642,48.9980825],[2.173432,48.9976884],[2.1736574,48.9987505],[2.1736888,48.9987458]]]]},"properties":{"code_section":"95306000ZE","code_commune":"95306","section_courte":"ZE"}},{"type":"Feature","geometry":{"type":"MultiPolygon","coordinates":[[[[2.1789565,48.9965717],[2.1781239,48.997315],[2.1778891,48.9974691],[2.1779127,48.9974894],[2.1767054,48.9981322],[2.1765597,48.9980459],[2.1771775,48.9976776],[2.1761877,48.9969838],[2.1758131,48.9966705],[2.1764622,48.9963329],[2.176365,48.996248],[2.175774,48.9965539],[2.1756449,48.996446],[2.1755675,48.9964831],[2.1752317,48.9961418],[2.178275,48.994893],[2.1780822,48.9946729],[2.1792612,48.9942741],[2.1793332,48.9944261],[2.1796776,48.9948134],[2.1795183,48.9948852],[2.1797269,48.9950456],[2.17947,48.9953449],[2.1794176,48.9958329],[2.1792964,48.9959009],[2.1793944,48.9959708],[2.1789565,48.9965717]]]]},"properties":{"code_section":"95306000ZH","code_commune":"95306","section_courte":"ZH"}},{"type":"Feature","geometry":{"type":"MultiPolygon","coordinates":[[[[2.1555322,49.002351],[2.1565422,49.0021337],[2.1567329,49.0021949],[2.1567869,49.002122],[2.1580443,49.0025125],[2.1569632,49.0034824],[2.1562299,49.0042289],[2.1556751,49.0046738],[2.1545384,49.0053396],[2.1524559,49.0040329],[2.1505407,49.0051173],[2.1500389,49.0047578],[2.1500111,49.0047717],[2.1494393,49.004456],[2.1495852,49.0043703],[2.149408,49.0042222],[2.1502973,49.0036912],[2.1503663,49.0037401],[2.1512655,49.0032146],[2.1514657,49.0033837],[2.1518159,49.0032823],[2.1519931,49.0031676],[2.1520667,49.0032072],[2.1540994,49.0026605],[2.1542987,49.0027529],[2.1549171,49.0024572],[2.1551021,49.0024062],[2.1551445,49.0024364],[2.1555322,49.002351]]],[[[2.1576661,49.0019004],[2.1587542,49.0016721],[2.1588208,49.0016906],[2.1582587,49.0023153],[2.1572109,49.0019972],[2.1576661,49.0019004]]]]},"properties":{"code_section":"95306000ZI","code_commune":"95306","section_courte":"ZI"}},{"type":"Feature","geometry":{"type":"MultiPolygon","coordinates":[[[[2.1497177,49.0074793],[2.1487342,49.0066611],[2.1470201,49.0062113],[2.1465842,49.0069365],[2.1456172,49.0082054],[2.1453543,49.0085154],[2.144831,49.009031],[2.14058,49.0050981],[2.1417265,49.0046289],[2.1417836,49.0046376],[2.1439338,49.0035569],[2.1439723,49.0035818],[2.1442443,49.0034408],[2.1443465,49.003533],[2.1450348,49.0032172],[2.1451042,49.0032792],[2.1456111,49.003033],[2.1459988,49.0034082],[2.1453073,49.0037295],[2.1456767,49.0040565],[2.145787,49.0039987],[2.1462132,49.0043756],[2.1466806,49.0040918],[2.1481742,49.0033955],[2.1474981,49.0047818],[2.1475286,49.0048569],[2.1500713,49.0058727],[2.1498495,49.0060151],[2.1498684,49.0060326],[2.1498006,49.0060838],[2.1499574,49.0062152],[2.1498745,49.00626],[2.149709,49.0061356],[2.1496189,49.0061908],[2.1495958,49.0061783],[2.1495161,49.0062705],[2.1505441,49.0071156],[2.1497177,49.0074793]]]]},"properties":{"code_section":"95306000ZK","code_commune":"95306","section_courte":"ZK"}},{"type":"Feature","geometry":{"type":"MultiPolygon","coordinates":[[[[2.1396111,49.0040128],[2.1436627,49.0016399],[2.1442605,49.0025772],[2.1443789,49.0025296],[2.1448826,49.0030841],[2.1442103,49.0034054],[2.1442443,49.0034408],[2.1439723,49.0035818],[2.143934,49.0035569],[2.1417836,49.0046376],[2.1417265,49.0046289],[2.14058,49.0050981],[2.1395119,49.0041092],[2.1396111,49.0040128]]],[[[2.1429721,49.0018619],[2.1396808,49.003775],[2.1387668,49.001955],[2.1412866,49.0012354],[2.14315,49.0008273],[2.143581,49.0015068],[2.1429721,49.0018619]]]]},"properties":{"code_section":"95306000ZL","code_commune":"95306","section_courte":"ZL"}},{"type":"Feature","geometry":{"type":"MultiPolygon","coordinates":[[[[2.1448334,49.0004479],[2.1412866,49.0012354],[2.1387668,49.001955],[2.1374135,49.0023099],[2.1366335,49.0007561],[2.1366028,49.000764],[2.136019,48.9995438],[2.1359343,48.9995604],[2.1356362,48.9988941],[2.1362823,48.9988624],[2.1369882,48.9987591],[2.1369984,48.9987779],[2.1436475,48.9980933],[2.1443605,48.9981677],[2.1445188,48.9984798],[2.1438951,48.998625],[2.1443941,48.9995354],[2.1442883,48.9995617],[2.1447631,49.0004074],[2.1448334,49.0004479]]]]},"properties":{"code_section":"95306000ZM","code_commune":"95306","section_courte":"ZM"}},{"type":"Feature","geometry":{"type":"MultiPolygon","coordinates":[[[[2.1449447,48.9963854],[2.1440862,48.9965841],[2.1444375,48.9972613],[2.1442904,48.9972949],[2.1442577,48.9972326],[2.1433469,48.9974355],[2.1436475,48.9980933],[2.1369984,48.9987779],[2.1369882,48.9987591],[2.1362823,48.9988624],[2.1354035,48.9965858],[2.1375715,48.9962153],[2.1375021,48.9960188],[2.1425765,48.9951644],[2.1425788,48.9951283],[2.1426671,48.9950833],[2.1435663,48.9949828],[2.145093,48.9947284],[2.1452387,48.9950759],[2.145375,48.9950396],[2.1459142,48.9960337],[2.1456323,48.9961087],[2.145661,48.9961598],[2.1452983,48.9962468],[2.1453244,48.9962971],[2.1449447,48.9963854]]]]},"properties":{"code_section":"95306000ZN","code_commune":"95306","section_courte":"ZN"}},{"type":"Feature","geometry":{"type":"MultiPolygon","coordinates":[[[[2.1388527,48.9957221],[2.1388114,48.9957652],[2.1386619,48.9957891],[2.1383309,48.9940921],[2.1401971,48.9940321],[2.1424412,48.9939078],[2.1454616,48.9938081],[2.147216,48.9936341],[2.1492695,48.9933304],[2.1495272,48.9939801],[2.1435663,48.9949828],[2.1426671,48.9950833],[2.1425788,48.9951283],[2.1425765,48.9951644],[2.1389286,48.9957831],[2.1388618,48.9955715],[2.1388064,48.9955787],[2.1388527,48.9957221]]]]},"properties":{"code_section":"95306000ZO","code_commune":"95306","section_courte":"ZO"}},{"type":"Feature","geometry":{"type":"MultiPolygon","coordinates":[[[[2.1388064,48.9955787],[2.1388618,48.9955715],[2.1389286,48.9957831],[2.1375021,48.9960188],[2.1375715,48.9962153],[2.1334479,48.9969235],[2.1326803,48.9971447],[2.1325559,48.9968409],[2.1324065,48.996876],[2.1323755,48.9968461],[2.1322576,48.9968322],[2.1316909,48.996999],[2.1300905,48.9972645],[2.1292325,48.9954083],[2.1293657,48.9953967],[2.1292412,48.9935459],[2.1310519,48.9937237],[2.1375761,48.9940808],[2.1383309,48.9940921],[2.1386619,48.9957891],[2.1388114,48.9957652],[2.1388527,48.9957221],[2.1388064,48.9955787]]]]},"properties":{"code_section":"95306000ZP","code_commune":"95306","section_courte":"ZP"}},{"type":"Feature","geometry":{"type":"MultiPolygon","coordinates":[[[[2.121692,48.9974846],[2.1209581,48.9949631],[2.1207064,48.9932963],[2.1217483,48.9933845],[2.1221097,48.9934494],[2.1230249,48.9935466],[2.1239959,48.9935839],[2.1258884,48.9935981],[2.1264364,48.993564],[2.1277788,48.9934131],[2.1284768,48.9934261],[2.1292412,48.9935459],[2.1293657,48.9953967],[2.1292325,48.9954083],[2.1300905,48.9972645],[2.1316909,48.996999],[2.1322576,48.9968322],[2.1323755,48.9968461],[2.1324065,48.996876],[2.1325559,48.9968409],[2.132644,48.9970516],[2.1220958,48.9988035],[2.121692,48.9974846]]]]},"properties":{"code_section":"95306000ZR","code_commune":"95306","section_courte":"ZR"}},{"type":"Feature","geometry":{"type":"MultiPolygon","coordinates":[[[[2.1265944,49.0009141],[2.1275367,49.0023665],[2.1270578,49.0024951],[2.1269382,49.0022987],[2.1262025,49.0024983],[2.1260606,49.0022711],[2.1257234,49.002348],[2.1259353,49.002693],[2.1253337,49.0028625],[2.1257764,49.0035657],[2.1256793,49.003594],[2.1251484,49.0027444],[2.1243908,49.002929],[2.1242457,49.0026974],[2.1243991,49.0026557],[2.1242591,49.0024217],[2.1240996,49.002462],[2.1234941,49.001491],[2.1227989,49.0001772],[2.1226505,49.0002177],[2.1223853,48.9997492],[2.1220958,48.9988035],[2.1247855,48.998354],[2.1253677,48.9994255],[2.126758,48.9990824],[2.1272448,49.0002371],[2.1262754,49.000524],[2.1264157,49.0007473],[2.1263515,49.0007638],[2.1263844,49.0008168],[2.1265503,49.0008446],[2.1265944,49.0009141]]]]},"properties":{"code_section":"95306000ZS","code_commune":"95306","section_courte":"ZS"}},{"type":"Feature","geometry":{"type":"MultiPolygon","coordinates":[[[[2.1281635,49.0003513],[2.1272892,48.9979342],[2.1324324,48.9970723],[2.132644,48.9970516],[2.1326803,48.9971447],[2.1334479,48.9969235],[2.1354035,48.9965858],[2.1362823,48.9988624],[2.1350249,48.9989343],[2.1334963,48.9991354],[2.1308296,48.9997843],[2.1297898,48.9999599],[2.1281635,49.0003513]]]]},"properties":{"code_section":"95306000ZT","code_commune":"95306","section_courte":"ZT"}},{"type":"Feature","geometry":{"type":"MultiPolygon","coordinates":[[[[2.1336662,49.0006216],[2.1336004,49.0006374],[2.1338404,49.001089],[2.1336774,49.0011283],[2.1339711,49.0016787],[2.1337925,49.0017227],[2.1340973,49.0022882],[2.1342861,49.0022443],[2.1341789,49.0020512],[2.1343321,49.0020133],[2.1347816,49.0028571],[2.1340041,49.0030515],[2.1324744,49.0035745],[2.1316179,49.0038063],[2.1305303,49.004021],[2.1301814,49.0034276],[2.1297047,49.0035563],[2.1289663,49.0022866],[2.1291255,49.0022455],[2.1287712,49.0016727],[2.1290266,49.0016062],[2.1293849,49.0021915],[2.1295375,49.0021466],[2.1291681,49.00153],[2.1292542,49.0015076],[2.1285212,49.0002623],[2.1297898,48.9999599],[2.1308296,48.9997843],[2.1334963,48.9991354],[2.1342761,49.0006305],[2.134,49.0006967],[2.1339642,49.0006254],[2.1338683,49.0006481],[2.1338103,49.0005418],[2.1337532,49.0005564],[2.133694,49.0004469],[2.1336444,49.0004591],[2.1337243,49.000609],[2.1336662,49.0006216]]]]},"properties":{"code_section":"95306000ZV","code_commune":"95306","section_courte":"ZV"}},{"type":"Feature","geometry":{"type":"MultiPolygon","coordinates":[[[[2.1389324,49.0022773],[2.1396808,49.003775],[2.1411206,49.002938],[2.1411731,49.0030854],[2.1396716,49.00396],[2.1395119,49.0041092],[2.1404269,49.0049583],[2.1369079,49.0063413],[2.1364504,49.0058379],[2.1343674,49.0070444],[2.1341475,49.007108],[2.1322762,49.0071043],[2.1321526,49.0069697],[2.133493,49.0065892],[2.1326578,49.0055628],[2.1327094,49.0055457],[2.1326582,49.0054815],[2.1327241,49.0054609],[2.1316179,49.0038063],[2.1324744,49.0035745],[2.1340041,49.0030515],[2.1347816,49.0028571],[2.1374135,49.0023099],[2.1387668,49.001955],[2.1389324,49.0022773]]]]},"properties":{"code_section":"95306000ZW","code_commune":"95306","section_courte":"ZW"}},{"type":"Feature","geometry":{"type":"MultiPolygon","coordinates":[[[[2.1329287,49.0071078],[2.1341475,49.007108],[2.1343674,49.0070444],[2.1364504,49.0058379],[2.1382858,49.0079219],[2.1386517,49.0084352],[2.134816,49.0095574],[2.1346022,49.0092793],[2.1343896,49.0093374],[2.1348862,49.0099674],[2.133535,49.0100485],[2.1330761,49.0101644],[2.1331085,49.0102868],[2.1330543,49.0102998],[2.1333043,49.0105341],[2.1323012,49.010771],[2.1320705,49.0106602],[2.1320376,49.0106887],[2.1309066,49.0099483],[2.1305516,49.0100049],[2.1298476,49.0099925],[2.1291293,49.0096278],[2.1281804,49.0090157],[2.1279444,49.0088055],[2.1275133,49.0081252],[2.1297482,49.0071677],[2.129687,49.0071067],[2.1329287,49.0071078]]]]},"properties":{"code_section":"95306000ZX","code_commune":"95306","section_courte":"ZX"}},{"type":"Feature","geometry":{"type":"MultiPolygon","coordinates":[[[[2.1379711,49.0107728],[2.1401939,49.010123],[2.1399254,49.009791],[2.1396212,49.0094955],[2.1380267,49.0099754],[2.1380564,49.0100206],[2.1367586,49.0103824],[2.1365898,49.0102018],[2.1372859,49.0099523],[2.1372032,49.009843],[2.1373916,49.0097834],[2.1373397,49.0096765],[2.137737,49.0095601],[2.1376621,49.009452],[2.1391111,49.0090266],[2.1382858,49.0079219],[2.1369079,49.0063413],[2.1404269,49.0049583],[2.1448044,49.0090111],[2.1447317,49.0090934],[2.1442086,49.008614],[2.1427893,49.0092189],[2.1428911,49.0093161],[2.1403648,49.0104358],[2.1403977,49.010499],[2.1382968,49.0111484],[2.1379711,49.0107728]]]]},"properties":{"code_section":"95306000ZY","code_commune":"95306","section_courte":"ZY"}}]}