{"type":"FeatureCollection","features":[{"type":"Feature","geometry":{"type":"MultiPolygon","coordinates":[[[[2.2377822,49.1286343],[2.2391266,49.1282585],[2.2377156,49.1271267],[2.2361763,49.1255997],[2.2357098,49.1252331],[2.235232,49.1251914],[2.2346039,49.1253646],[2.2327503,49.1212079],[2.2319339,49.1192753],[2.234978,49.1188212],[2.2364463,49.1185509],[2.2395681,49.118311],[2.2405461,49.1183542],[2.241032,49.1184244],[2.2424809,49.118792],[2.2435005,49.1189597],[2.2446152,49.1188571],[2.2462347,49.1189605],[2.2462792,49.1189052],[2.2467617,49.118845],[2.2471359,49.1186497],[2.248255,49.1185125],[2.2497189,49.1181375],[2.2499335,49.1181315],[2.2520051,49.1200388],[2.2520814,49.1200194],[2.2520893,49.1201187],[2.252559,49.120573],[2.252965,49.1211189],[2.2533175,49.1228816],[2.252917,49.1229153],[2.2529236,49.1231161],[2.2513827,49.1241573],[2.2507296,49.1238958],[2.2495783,49.1235829],[2.2495036,49.1236188],[2.2500485,49.1239814],[2.2512248,49.1250312],[2.2514329,49.1251137],[2.2516642,49.1251242],[2.25193,49.1250042],[2.2523924,49.1246584],[2.2529754,49.1249869],[2.2530151,49.1249965],[2.2532003,49.1249162],[2.2539837,49.125815],[2.2536235,49.125957],[2.2531484,49.1262425],[2.2529443,49.1262444],[2.2526793,49.1263395],[2.2525932,49.1264077],[2.2524178,49.1263955],[2.2521993,49.1264691],[2.2521113,49.1264446],[2.2520042,49.126251],[2.2517303,49.1261725],[2.2513402,49.1257717],[2.2500508,49.1261373],[2.2488554,49.1261413],[2.2484984,49.126228],[2.2480589,49.1264172],[2.2465291,49.1276434],[2.2468441,49.1281804],[2.2464924,49.1283191],[2.2461971,49.1285232],[2.2459006,49.1285992],[2.2457556,49.1288104],[2.2455783,49.1288462],[2.245328,49.1289591],[2.2449957,49.1289413],[2.2447058,49.1291305],[2.2446789,49.1292449],[2.2442451,49.1292467],[2.2439762,49.129112],[2.2438694,49.1291085],[2.2433676,49.1293757],[2.2432132,49.1294274],[2.2429055,49.1294535],[2.2427098,49.1293939],[2.2422212,49.1294429],[2.2419576,49.1293689],[2.2417031,49.1294921],[2.2416541,49.1294921],[2.241473,49.1293682],[2.2412434,49.1293433],[2.2410613,49.129289],[2.2405904,49.1292586],[2.2401972,49.1293912],[2.2401059,49.1297665],[2.240035,49.1298277],[2.239963,49.1298322],[2.2395367,49.1297803],[2.2394016,49.1296838],[2.2391816,49.129636],[2.2390432,49.1296767],[2.2390008,49.1295838],[2.2388604,49.1295861],[2.2387734,49.1295164],[2.2386182,49.1294993],[2.2383681,49.1293813],[2.2381707,49.1293922],[2.2380904,49.1293409],[2.2372889,49.1293296],[2.236994,49.1292463],[2.2366606,49.1292823],[2.2364717,49.1292116],[2.2362322,49.1293173],[2.2361619,49.1293175],[2.2360161,49.129252],[2.235921,49.1292608],[2.2357558,49.1293916],[2.2357461,49.1295081],[2.2356256,49.1294109],[2.2356178,49.1293622],[2.2356916,49.1293004],[2.2360967,49.1291086],[2.2377822,49.1286343]]]]},"properties":{"code_section":"953130000A","code_commune":"95313","section_courte":"A"}},{"type":"Feature","geometry":{"type":"MultiPolygon","coordinates":[[[[2.2631406,49.1032932],[2.2633304,49.1038985],[2.2633337,49.1041508],[2.2632583,49.1043915],[2.2629339,49.1048607],[2.26265,49.1051503],[2.261858,49.1058272],[2.2615679,49.1059781],[2.2611917,49.1060737],[2.2608257,49.1060996],[2.2601382,49.1060842],[2.2598264,49.1061304],[2.2590423,49.10636],[2.2584903,49.1065982],[2.2577147,49.1070754],[2.2565128,49.1079781],[2.2562317,49.108697],[2.2561336,49.1086796],[2.2521473,49.1066521],[2.2488295,49.1078104],[2.2488317,49.1078758],[2.2487427,49.1079335],[2.2484348,49.1105743],[2.2493213,49.1134519],[2.2493049,49.1135541],[2.2487841,49.1145026],[2.248836,49.1145098],[2.2488079,49.1146613],[2.2487261,49.114702],[2.2485614,49.1146325],[2.2481681,49.1146442],[2.2478029,49.1146825],[2.2472898,49.114813],[2.2462375,49.1153939],[2.2460578,49.1155258],[2.2458054,49.1158147],[2.2456512,49.1158884],[2.2449616,49.1158564],[2.2441202,49.1161621],[2.2439119,49.1161969],[2.2430254,49.1161724],[2.2421636,49.1162734],[2.2420676,49.1162627],[2.2419607,49.1162316],[2.241476,49.1158669],[2.2409252,49.1153721],[2.2406052,49.114852],[2.2404972,49.1146256],[2.2404984,49.1144875],[2.2405077,49.1144289],[2.2415164,49.1130883],[2.2429112,49.1115679],[2.242797,49.1110894],[2.2406596,49.1087348],[2.2392295,49.1089699],[2.238886,49.1081612],[2.2371318,49.1073543],[2.2370802,49.1072757],[2.2369686,49.1073025],[2.2366487,49.1069853],[2.2363658,49.1065355],[2.2361143,49.1062632],[2.2354169,49.1048094],[2.2353613,49.1041461],[2.2354176,49.1040699],[2.2359896,49.1038509],[2.2362091,49.1037335],[2.2360555,49.1035584],[2.2359012,49.1032888],[2.2362006,49.1030452],[2.2366331,49.102845],[2.236487,49.1025178],[2.2365686,49.102481],[2.2365374,49.1022305],[2.2366191,49.1021414],[2.2363081,49.1018247],[2.2362048,49.1018734],[2.235107,49.1009564],[2.2350454,49.100955],[2.2345917,49.1012236],[2.2342319,49.1012441],[2.2324195,49.1007464],[2.2307847,49.100661],[2.2280954,49.1004473],[2.2275718,49.1004539],[2.2275285,49.1007603],[2.2274259,49.1007601],[2.2271165,49.1004464],[2.2267711,49.1002116],[2.2261166,49.0998821],[2.2174048,49.0950028],[2.2173183,49.0950112],[2.2172987,49.0949564],[2.2160461,49.0949509],[2.2158054,49.094878],[2.2155773,49.0945979],[2.2143327,49.0926996],[2.2143772,49.0926839],[2.2125319,49.0899109],[2.2125731,49.0898388],[2.2126634,49.089791],[2.213889,49.0895565],[2.2139841,49.0895542],[2.2139968,49.0895791],[2.2142369,49.0895408],[2.2166915,49.0886797],[2.220388,49.0881683],[2.220343,49.0879898],[2.2219102,49.0874746],[2.2234413,49.0872047],[2.2251631,49.0867664],[2.2270662,49.0865474],[2.228388,49.0868437],[2.2299292,49.0877351],[2.2321313,49.0879501],[2.2344773,49.0886898],[2.2350835,49.0881478],[2.2358395,49.0873889],[2.2359833,49.0874301],[2.2368329,49.0874034],[2.2411026,49.0871121],[2.2420895,49.0868102],[2.2432791,49.0865072],[2.2456062,49.0862538],[2.245599,49.086224],[2.248977,49.0857657],[2.2513584,49.0848634],[2.2506835,49.0907814],[2.2558941,49.0951352],[2.2565373,49.0951357],[2.2587047,49.0969276],[2.2603105,49.0987977],[2.2604193,49.1006554],[2.2614034,49.1016257],[2.2628968,49.1030071],[2.2631406,49.1032932]]]]},"properties":{"code_section":"953130000D","code_commune":"95313","section_courte":"D"}},{"type":"Feature","geometry":{"type":"MultiPolygon","coordinates":[[[[2.2257559,49.1259019],[2.2272702,49.1264899],[2.2287753,49.1270116],[2.2302591,49.1255456],[2.2288979,49.1245874],[2.2288572,49.1244498],[2.2290785,49.124351],[2.2280513,49.12341],[2.2300931,49.121191],[2.2319339,49.1192753],[2.2327503,49.1212079],[2.2346039,49.1253646],[2.235232,49.1251914],[2.2357098,49.1252331],[2.2361763,49.1255997],[2.2377156,49.1271267],[2.2391266,49.1282585],[2.2362236,49.1290683],[2.2356916,49.1293004],[2.2356178,49.1293622],[2.2356256,49.1294109],[2.2357461,49.1295081],[2.2354476,49.1297484],[2.234915,49.130351],[2.2340112,49.1299361],[2.2328576,49.1295736],[2.2318099,49.1294337],[2.2301948,49.1293015],[2.2289016,49.129256],[2.2266909,49.128576],[2.2260346,49.1284384],[2.2246065,49.1282337],[2.2234056,49.1279669],[2.2218683,49.127497],[2.2200416,49.1267785],[2.2193844,49.1262259],[2.2187655,49.1256019],[2.2171935,49.1238327],[2.2167355,49.1233893],[2.2159807,49.1227641],[2.2220711,49.1195275],[2.2248458,49.1192925],[2.2253894,49.1203836],[2.2248358,49.1209634],[2.2236725,49.1211257],[2.2242593,49.1219814],[2.2243555,49.1224574],[2.2259203,49.1224887],[2.2250162,49.1230579],[2.2254817,49.1233456],[2.2228254,49.1249938],[2.2238517,49.1255758],[2.2239866,49.1254924],[2.2247006,49.1257356],[2.2256161,49.1261132],[2.2257559,49.1259019]]]]},"properties":{"code_section":"95313000AA","code_commune":"95313","section_courte":"AA"}},{"type":"Feature","geometry":{"type":"MultiPolygon","coordinates":[[[[2.2240424,49.1242368],[2.2254817,49.1233456],[2.2250162,49.1230579],[2.2259203,49.1224887],[2.2243555,49.1224574],[2.2242593,49.1219814],[2.2236725,49.1211257],[2.2248555,49.120962],[2.2257265,49.1210814],[2.2255641,49.1212432],[2.2250243,49.1210187],[2.2248942,49.1210317],[2.2248523,49.1210847],[2.2248618,49.1211198],[2.225059,49.1212183],[2.2257273,49.1214961],[2.2257721,49.1214514],[2.2256791,49.1214103],[2.2259474,49.1211403],[2.2259805,49.1211517],[2.2260113,49.1211209],[2.2268123,49.1212286],[2.227001,49.1212023],[2.2271737,49.1210412],[2.227685,49.1212785],[2.2281281,49.1212175],[2.2281918,49.1214206],[2.2285209,49.1214631],[2.2290663,49.1213898],[2.2291142,49.1215469],[2.2292169,49.1215603],[2.2292989,49.1214548],[2.2296358,49.1215903],[2.2296146,49.1216127],[2.2296873,49.1216373],[2.2280513,49.12341],[2.2290785,49.124351],[2.2288572,49.1244498],[2.2288979,49.1245874],[2.2302591,49.1255456],[2.2287753,49.1270116],[2.2272702,49.1264899],[2.2257559,49.1259019],[2.2256161,49.1261132],[2.2247006,49.1257356],[2.2239866,49.1254924],[2.2238517,49.1255758],[2.2228254,49.1249938],[2.2240424,49.1242368]]]]},"properties":{"code_section":"95313000AB","code_commune":"95313","section_courte":"AB"}},{"type":"Feature","geometry":{"type":"MultiPolygon","coordinates":[[[[2.2201969,49.1166837],[2.2248374,49.1177624],[2.2249338,49.1172826],[2.2247935,49.1168676],[2.226871,49.1165323],[2.2290828,49.1159964],[2.2296068,49.1163899],[2.2305291,49.1171924],[2.2317611,49.1191176],[2.2319339,49.1192753],[2.2296873,49.1216373],[2.2296146,49.1216127],[2.2296358,49.1215903],[2.2292989,49.1214548],[2.2292169,49.1215603],[2.2291142,49.1215469],[2.2290663,49.1213898],[2.2285209,49.1214631],[2.2281918,49.1214206],[2.2281281,49.1212175],[2.227685,49.1212785],[2.2271737,49.1210412],[2.227001,49.1212023],[2.2268123,49.1212286],[2.2260113,49.1211209],[2.2259805,49.1211517],[2.2259474,49.1211403],[2.2256791,49.1214103],[2.2257721,49.1214514],[2.2257273,49.1214961],[2.2248565,49.1211082],[2.2248942,49.1210317],[2.2250243,49.1210187],[2.2255641,49.1212432],[2.2257265,49.1210814],[2.2248358,49.1209634],[2.2253894,49.1203836],[2.2248458,49.1192925],[2.2232221,49.1194237],[2.2193735,49.1177733],[2.2195583,49.1165368],[2.2201969,49.1166837]]]]},"properties":{"code_section":"95313000AC","code_commune":"95313","section_courte":"AC"}},{"type":"Feature","geometry":{"type":"MultiPolygon","coordinates":[[[[2.2523995,49.1171881],[2.2534434,49.1169388],[2.2534745,49.1168853],[2.2537427,49.116846],[2.2558395,49.1168568],[2.2563439,49.1168983],[2.2572703,49.1170853],[2.2579783,49.1171926],[2.2592336,49.1173209],[2.259425,49.117382],[2.2597426,49.117542],[2.2600429,49.1167187],[2.2611586,49.1177709],[2.2612585,49.117906],[2.2612989,49.1179107],[2.26177,49.1186998],[2.2623006,49.119029],[2.2627002,49.1195356],[2.2629988,49.1199948],[2.2630029,49.1201293],[2.2639035,49.1203168],[2.2634362,49.1210952],[2.263202,49.1214388],[2.2627698,49.1219199],[2.2626754,49.1221283],[2.2624808,49.1223145],[2.262262,49.1226434],[2.2618706,49.122876],[2.2617791,49.1229939],[2.2623521,49.1241619],[2.2622667,49.1242014],[2.2616021,49.1242305],[2.2614125,49.1241549],[2.2611793,49.1239964],[2.2609102,49.1239947],[2.260869,49.1237701],[2.2603692,49.1236233],[2.2598504,49.1236586],[2.2595217,49.1238445],[2.2593488,49.1240049],[2.2591272,49.1240347],[2.2590388,49.124131],[2.2582352,49.1245468],[2.2581827,49.1245548],[2.2580054,49.1244935],[2.2576752,49.1244812],[2.2572616,49.1244193],[2.2571166,49.1244258],[2.2565773,49.1245709],[2.2564366,49.1247185],[2.2564244,49.1248316],[2.2562966,49.1249479],[2.2562719,49.1250944],[2.2561108,49.1253852],[2.2560701,49.1254137],[2.2557872,49.1254055],[2.2557021,49.1254355],[2.2553691,49.125655],[2.2551615,49.1256482],[2.2550463,49.1257895],[2.2549662,49.1258015],[2.2544797,49.1256869],[2.2540101,49.1258413],[2.2532003,49.1249162],[2.2530151,49.1249965],[2.2529754,49.1249869],[2.2523924,49.1246584],[2.25193,49.1250042],[2.2516642,49.1251242],[2.2514329,49.1251137],[2.2511689,49.1249987],[2.2500485,49.1239814],[2.2495036,49.1236188],[2.2495783,49.1235829],[2.2507296,49.1238958],[2.2513827,49.1241573],[2.2529236,49.1231161],[2.252917,49.1229153],[2.2533175,49.1228816],[2.252965,49.1211189],[2.252559,49.120573],[2.2520893,49.1201187],[2.2520814,49.1200194],[2.2520051,49.1200388],[2.2499335,49.1181315],[2.2514662,49.1174337],[2.2522372,49.1171735],[2.2522108,49.1172381],[2.2523995,49.1171881]]],[[[2.2510527,49.1260322],[2.2508937,49.126092],[2.2501198,49.1261366],[2.2513402,49.1257717],[2.2517354,49.1261649],[2.2512392,49.1260278],[2.2510527,49.1260322]]]]},"properties":{"code_section":"95313000AD","code_commune":"95313","section_courte":"AD"}},{"type":"Feature","geometry":{"type":"MultiPolygon","coordinates":[[[[2.2488079,49.1146613],[2.248836,49.1145098],[2.2487841,49.1145026],[2.2493049,49.1135541],[2.2493213,49.1134519],[2.24844,49.1106245],[2.2487427,49.1079335],[2.2488317,49.1078758],[2.2488295,49.1078104],[2.2521473,49.1066521],[2.2561504,49.1086828],[2.2559361,49.1093324],[2.2560043,49.1094245],[2.2556866,49.1104597],[2.2553754,49.1106833],[2.255091,49.1112393],[2.2555276,49.1123203],[2.2559033,49.1127875],[2.2565557,49.1131494],[2.2568501,49.1133549],[2.2568275,49.113469],[2.2583676,49.1136112],[2.2583485,49.1137985],[2.2607447,49.1142481],[2.2608292,49.1142326],[2.2600435,49.1167176],[2.2597426,49.117542],[2.259425,49.117382],[2.2592336,49.1173209],[2.2579783,49.1171926],[2.2572703,49.1170853],[2.2562983,49.1168927],[2.2558395,49.1168568],[2.2537427,49.116846],[2.2534745,49.1168853],[2.2534434,49.1169388],[2.2522108,49.1172381],[2.2522372,49.1171735],[2.2520536,49.1172259],[2.2514662,49.1174337],[2.2499335,49.1181315],[2.2497189,49.1181375],[2.248255,49.1185125],[2.2471359,49.1186497],[2.2467617,49.118845],[2.2462792,49.1189052],[2.2486139,49.1146388],[2.2487261,49.114702],[2.2488079,49.1146613]]]]},"properties":{"code_section":"95313000AE","code_commune":"95313","section_courte":"AE"}},{"type":"Feature","geometry":{"type":"MultiPolygon","coordinates":[[[[2.2426996,49.1162359],[2.2429398,49.116195],[2.2436713,49.1162063],[2.244031,49.1161791],[2.2450149,49.115879],[2.2454804,49.1159406],[2.2456623,49.1159238],[2.2458239,49.1158305],[2.246145,49.1154723],[2.2472494,49.1148706],[2.2474571,49.1147921],[2.2486121,49.1146385],[2.2462347,49.1189605],[2.2446152,49.1188571],[2.2435005,49.1189597],[2.2424809,49.118792],[2.241032,49.1184244],[2.2405461,49.1183542],[2.2395681,49.118311],[2.2364463,49.1185509],[2.234978,49.1188212],[2.2349818,49.1187659],[2.2371342,49.1164096],[2.236924,49.1163347],[2.2369608,49.1162386],[2.2368534,49.1162162],[2.2370619,49.1157385],[2.2372597,49.1156562],[2.2384582,49.1155574],[2.2397811,49.1150606],[2.2398932,49.1149721],[2.2399301,49.1148681],[2.2398985,49.1147643],[2.2397825,49.1146614],[2.2403709,49.1138775],[2.2409887,49.1137796],[2.2405077,49.1144289],[2.2404972,49.1146256],[2.2407723,49.1151516],[2.2410313,49.1154919],[2.2415805,49.1158266],[2.2420686,49.1162239],[2.242262,49.1162821],[2.2426996,49.1162359]]]]},"properties":{"code_section":"95313000AH","code_commune":"95313","section_courte":"AH"}},{"type":"Feature","geometry":{"type":"MultiPolygon","coordinates":[[[[2.2369608,49.1162386],[2.236924,49.1163347],[2.2371268,49.11642],[2.2349818,49.1187659],[2.234978,49.1188212],[2.2319339,49.1192753],[2.2317611,49.1191176],[2.2305599,49.1172339],[2.2303561,49.1170155],[2.2305254,49.1169743],[2.2305039,49.1160661],[2.2304142,49.1149794],[2.2316496,49.1149253],[2.2317414,49.1148588],[2.2317493,49.1147356],[2.2310007,49.1138095],[2.2313925,49.1136678],[2.2325395,49.1140268],[2.2326598,49.1141923],[2.2333715,49.1144139],[2.2339792,49.1146598],[2.2342993,49.1149294],[2.2340433,49.1151596],[2.2340599,49.1152421],[2.2343561,49.1155227],[2.2344144,49.1156892],[2.2345292,49.1158527],[2.2346413,49.1159714],[2.2347527,49.1160243],[2.2349401,49.1160664],[2.2351288,49.1160718],[2.2354855,49.1160523],[2.235928,49.1159732],[2.2362204,49.1159699],[2.2369244,49.1160437],[2.2368534,49.1162162],[2.2369608,49.1162386]]]]},"properties":{"code_section":"95313000AI","code_commune":"95313","section_courte":"AI"}},{"type":"Feature","geometry":{"type":"MultiPolygon","coordinates":[[[[2.2367413,49.1160287],[2.2361389,49.1159647],[2.2358542,49.1159816],[2.2354855,49.1160523],[2.2351288,49.1160718],[2.2349401,49.1160664],[2.2347527,49.1160243],[2.2346413,49.1159714],[2.2345292,49.1158527],[2.2344144,49.1156892],[2.2343561,49.1155227],[2.2340599,49.1152421],[2.2340433,49.1151596],[2.2342993,49.1149294],[2.2339792,49.1146598],[2.2333715,49.1144139],[2.2326598,49.1141923],[2.2325395,49.1140268],[2.2313925,49.1136678],[2.2310007,49.1138095],[2.2309814,49.1137623],[2.2313617,49.1134555],[2.2314973,49.1130381],[2.2322544,49.1127763],[2.2335325,49.1125063],[2.2343681,49.1121392],[2.2352328,49.1119188],[2.2358443,49.1116241],[2.2363073,49.1113602],[2.2364115,49.1114385],[2.2366717,49.1114699],[2.2369953,49.1116481],[2.2371414,49.1116889],[2.2382124,49.1115473],[2.2383016,49.1114373],[2.2384494,49.1113736],[2.238685,49.1107375],[2.2387957,49.1108312],[2.2386027,49.111398],[2.2387532,49.1114957],[2.2387755,49.1115813],[2.2387194,49.1116719],[2.2389228,49.1118473],[2.2395932,49.1132301],[2.2396757,49.1134044],[2.2396085,49.1135212],[2.2400724,49.1139177],[2.2403709,49.1138775],[2.2403644,49.1138999],[2.2397825,49.1146614],[2.2398761,49.1147339],[2.2399277,49.1148433],[2.2399198,49.1149286],[2.2398205,49.1150381],[2.2384152,49.1155678],[2.2371675,49.1156764],[2.2370192,49.1157919],[2.2369244,49.1160437],[2.2367413,49.1160287]]]]},"properties":{"code_section":"95313000AK","code_commune":"95313","section_courte":"AK"}},{"type":"Feature","geometry":{"type":"MultiPolygon","coordinates":[[[[2.2386493,49.1114146],[2.2386027,49.111398],[2.2387957,49.1108312],[2.238685,49.1107375],[2.2384494,49.1113736],[2.2383016,49.1114373],[2.2381899,49.111556],[2.2371316,49.1116879],[2.2369953,49.1116481],[2.2367229,49.111488],[2.2364115,49.1114385],[2.2363073,49.1113602],[2.2370161,49.1109127],[2.2371886,49.1105572],[2.2371729,49.1102677],[2.2372781,49.1101774],[2.2374934,49.1100129],[2.2385717,49.1095579],[2.2382028,49.1091029],[2.2392096,49.1089346],[2.2392295,49.1089699],[2.2406596,49.1087348],[2.2427813,49.1110652],[2.2429112,49.1115679],[2.2415164,49.1130883],[2.2409887,49.1137796],[2.2400866,49.113922],[2.2396085,49.1135212],[2.2396757,49.1134044],[2.2389228,49.1118473],[2.2387194,49.1116719],[2.2387719,49.1115379],[2.2386493,49.1114146]]]]},"properties":{"code_section":"95313000AL","code_commune":"95313","section_courte":"AL"}},{"type":"Feature","geometry":{"type":"MultiPolygon","coordinates":[[[[2.2325901,49.1085025],[2.2370802,49.1072757],[2.23743,49.1074812],[2.2389017,49.1081413],[2.2392096,49.1089346],[2.2382028,49.1091029],[2.2385892,49.1095801],[2.237511,49.1100369],[2.2371806,49.110285],[2.2371886,49.1105572],[2.2369936,49.1109384],[2.2358443,49.1116241],[2.2352328,49.1119188],[2.2343681,49.1121392],[2.2335325,49.1125063],[2.2322544,49.1127763],[2.2314973,49.1130381],[2.2313617,49.1134555],[2.2309814,49.1137623],[2.2317493,49.1147356],[2.2317414,49.1148588],[2.2316496,49.1149253],[2.2304142,49.1149794],[2.2297216,49.1142397],[2.2293188,49.1136232],[2.2289549,49.1132049],[2.2286177,49.1129384],[2.2282416,49.1127421],[2.2279721,49.1122377],[2.2278499,49.1116352],[2.2278608,49.1114535],[2.2279868,49.1110683],[2.2279821,49.1106978],[2.2281174,49.1099082],[2.2280677,49.1097368],[2.2325901,49.1085025]]]]},"properties":{"code_section":"95313000AM","code_commune":"95313","section_courte":"AM"}},{"type":"Feature","geometry":{"type":"MultiPolygon","coordinates":[[[[2.2224932,49.1136683],[2.2212107,49.1116159],[2.2280677,49.1097368],[2.2281174,49.1099082],[2.2279821,49.1106978],[2.2279868,49.1110683],[2.2278608,49.1114535],[2.2278499,49.1116352],[2.2279721,49.1122377],[2.2282416,49.1127421],[2.2286177,49.1129384],[2.2289549,49.1132049],[2.2293188,49.1136232],[2.2297216,49.1142397],[2.2304142,49.1149794],[2.2305039,49.1160661],[2.2305254,49.1169743],[2.2303561,49.1170155],[2.2290828,49.1159964],[2.226871,49.1165323],[2.2263314,49.1166076],[2.2244741,49.1145686],[2.2236486,49.1134785],[2.2224932,49.1136683]]]]},"properties":{"code_section":"95313000AN","code_commune":"95313","section_courte":"AN"}},{"type":"Feature","geometry":{"type":"MultiPolygon","coordinates":[[[[2.2236486,49.1134785],[2.2244741,49.1145686],[2.2263314,49.1166076],[2.2247935,49.1168676],[2.2249338,49.1172826],[2.2248374,49.1177624],[2.2195583,49.1165368],[2.2195174,49.116162],[2.2166461,49.1154781],[2.216538,49.1154659],[2.216095,49.11626],[2.2159424,49.1162091],[2.2145789,49.115612],[2.214311,49.1144629],[2.2142496,49.1143371],[2.2136738,49.1136867],[2.2212107,49.1116159],[2.2224932,49.1136683],[2.2236486,49.1134785]]]]},"properties":{"code_section":"95313000AO","code_commune":"95313","section_courte":"AO"}},{"type":"Feature","geometry":{"type":"MultiPolygon","coordinates":[[[[2.2198402,49.1207127],[2.2166764,49.1223944],[2.2159502,49.1215147],[2.2158779,49.1210411],[2.2143751,49.1185778],[2.2141613,49.1179253],[2.2136476,49.1173556],[2.2131569,49.1164532],[2.2145323,49.1161207],[2.2146244,49.1157635],[2.2145789,49.115612],[2.216095,49.11626],[2.216538,49.1154659],[2.2195174,49.116162],[2.2195583,49.1165368],[2.2193735,49.1177733],[2.2232221,49.1194237],[2.2220711,49.1195275],[2.2198402,49.1207127]]]]},"properties":{"code_section":"95313000AP","code_commune":"95313","section_courte":"AP"}},{"type":"Feature","geometry":{"type":"MultiPolygon","coordinates":[[[[2.2135492,49.1134298],[2.2136738,49.1136867],[2.2142496,49.1143371],[2.214311,49.1144629],[2.2146244,49.1157635],[2.2145323,49.1161207],[2.2131569,49.1164532],[2.2136476,49.1173556],[2.2141613,49.1179253],[2.2143751,49.1185778],[2.2158779,49.1210411],[2.2159502,49.1215147],[2.2166764,49.1223944],[2.215916,49.1227948],[2.2133407,49.1214721],[2.213044,49.1212498],[2.2128043,49.1210163],[2.2124853,49.120649],[2.2120409,49.1199994],[2.2117763,49.1194269],[2.2114467,49.1179844],[2.2112639,49.1158069],[2.2106492,49.1150723],[2.2108339,49.1149869],[2.210969,49.1151184],[2.2110463,49.1151241],[2.2113109,49.1147151],[2.2116796,49.1147682],[2.2117499,49.1145796],[2.2121311,49.1143518],[2.2121153,49.1142571],[2.2126323,49.1139177],[2.2126184,49.113897],[2.2127731,49.1138389],[2.2129419,49.1136009],[2.2132074,49.1136399],[2.2132873,49.1134505],[2.2135492,49.1134298]]]]},"properties":{"code_section":"95313000AR","code_commune":"95313","section_courte":"AR"}},{"type":"Feature","geometry":{"type":"MultiPolygon","coordinates":[[[[2.2099048,49.1135861],[2.2094934,49.1127703],[2.2094303,49.1125203],[2.208878,49.109225],[2.2095464,49.109182],[2.2103951,49.1101386],[2.2175637,49.1102179],[2.2171671,49.1114552],[2.2170934,49.1114679],[2.217378,49.1126663],[2.2136738,49.1136867],[2.2135492,49.1134298],[2.2132873,49.1134505],[2.2132074,49.1136399],[2.2129419,49.1136009],[2.2127731,49.1138389],[2.2126184,49.113897],[2.2126323,49.1139177],[2.2121153,49.1142571],[2.2121311,49.1143518],[2.2117499,49.1145796],[2.2116796,49.1147682],[2.2113109,49.1147151],[2.2110463,49.1151241],[2.210969,49.1151184],[2.2108339,49.1149869],[2.2106492,49.1150723],[2.2099048,49.1135861]]]]},"properties":{"code_section":"95313000AS","code_commune":"95313","section_courte":"AS"}},{"type":"Feature","geometry":{"type":"MultiPolygon","coordinates":[[[[2.2155104,49.1052762],[2.2157917,49.1046561],[2.2174729,49.1045916],[2.2175637,49.1102179],[2.2103951,49.1101386],[2.2095464,49.109182],[2.208878,49.109225],[2.2089505,49.1084896],[2.2088073,49.1055409],[2.2154409,49.1054426],[2.2155104,49.1052762]]]]},"properties":{"code_section":"95313000AT","code_commune":"95313","section_courte":"AT"}},{"type":"Feature","geometry":{"type":"MultiPolygon","coordinates":[[[[2.2221909,49.106169],[2.2229655,49.1052631],[2.2242415,49.1033045],[2.2260311,49.1040333],[2.228109,49.1059373],[2.2242992,49.1078843],[2.221135,49.1073471],[2.2209004,49.1075361],[2.2175458,49.1081109],[2.2174401,49.1029461],[2.220517,49.1051714],[2.2209828,49.1049754],[2.2221909,49.106169]]]]},"properties":{"code_section":"95313000AV","code_commune":"95313","section_courte":"AV"}},{"type":"Feature","geometry":{"type":"MultiPolygon","coordinates":[[[[2.2173247,49.112458],[2.2170934,49.1114679],[2.2171671,49.1114552],[2.2175719,49.1101745],[2.2175458,49.1081109],[2.2209004,49.1075361],[2.221135,49.1073471],[2.2242992,49.1078843],[2.2279703,49.1097595],[2.217378,49.1126663],[2.2173247,49.112458]]]]},"properties":{"code_section":"95313000AW","code_commune":"95313","section_courte":"AW"}},{"type":"Feature","geometry":{"type":"MultiPolygon","coordinates":[[[[2.2303345,49.1091162],[2.2279703,49.1097595],[2.2242992,49.1078843],[2.228109,49.1059373],[2.2317529,49.1041464],[2.2328772,49.1045847],[2.2337636,49.1049696],[2.2353527,49.1055553],[2.2358768,49.1058913],[2.2360151,49.1058654],[2.2366057,49.1068618],[2.2369686,49.1073025],[2.2303345,49.1091162]]]]},"properties":{"code_section":"95313000AX","code_commune":"95313","section_courte":"AX"}},{"type":"Feature","geometry":{"type":"MultiPolygon","coordinates":[[[[2.2281669,49.1003929],[2.2312713,49.1006371],[2.2324195,49.1006817],[2.2329687,49.10086],[2.2342953,49.1012074],[2.2346377,49.1011777],[2.2351235,49.1009145],[2.2360415,49.1017427],[2.2362234,49.1018752],[2.2363458,49.1018154],[2.2366503,49.1021402],[2.2365774,49.1022323],[2.2366248,49.1024856],[2.2365099,49.1025243],[2.2365465,49.102654],[2.2366846,49.1028627],[2.2362658,49.1030522],[2.2359783,49.1033175],[2.2361502,49.1036272],[2.2362982,49.1037613],[2.2354536,49.1040833],[2.2354962,49.1048272],[2.2360151,49.1058654],[2.2358768,49.1058913],[2.2353527,49.1055553],[2.2337636,49.1049696],[2.2328772,49.1045847],[2.2317529,49.1041464],[2.228109,49.1059373],[2.2260311,49.1040333],[2.2242415,49.1033045],[2.2247604,49.1024227],[2.2249856,49.1022302],[2.2274912,49.1008929],[2.2276196,49.1007355],[2.2276938,49.1003881],[2.2281669,49.1003929]]]]},"properties":{"code_section":"95313000AY","code_commune":"95313","section_courte":"AY"}},{"type":"Feature","geometry":{"type":"MultiPolygon","coordinates":[[[[2.2152035,49.0989315],[2.2167921,49.098554],[2.217036,49.0990138],[2.2172304,49.0992541],[2.2200561,49.0980213],[2.2196613,49.0977927],[2.2175413,49.0952712],[2.2177272,49.0952081],[2.2172789,49.094962],[2.2172573,49.0949098],[2.2260652,49.0997325],[2.2263735,49.0999314],[2.2269453,49.1002193],[2.2275576,49.100763],[2.2275284,49.1007747],[2.2275653,49.1008144],[2.2274912,49.1008929],[2.2250243,49.1022075],[2.2247757,49.1024018],[2.2232058,49.1049161],[2.2226919,49.105602],[2.2221909,49.106169],[2.2209828,49.1049754],[2.220517,49.1051714],[2.2174401,49.1029461],[2.2174729,49.1045916],[2.2157917,49.1046561],[2.2154409,49.1054426],[2.2088073,49.1055409],[2.2088966,49.1031884],[2.2090154,49.1014247],[2.2091469,49.1001871],[2.2097402,49.0970002],[2.2097763,49.0963368],[2.209678,49.0956435],[2.20948,49.0948898],[2.2092197,49.0936136],[2.2098037,49.0935323],[2.209615,49.0928521],[2.2099525,49.0930484],[2.2104615,49.0934186],[2.2104926,49.0934356],[2.2106283,49.093408],[2.2112172,49.0937544],[2.2124073,49.0944981],[2.2126234,49.0946839],[2.2131371,49.0953976],[2.2152035,49.0989315]]]]},"properties":{"code_section":"95313000AZ","code_commune":"95313","section_courte":"AZ"}},{"type":"Feature","geometry":{"type":"MultiPolygon","coordinates":[[[[2.2128396,49.0930866],[2.2143327,49.0926996],[2.2157989,49.0949274],[2.2173596,49.0949408],[2.2173569,49.0949652],[2.2178054,49.0952148],[2.2176241,49.0952727],[2.2187788,49.0967212],[2.2196613,49.0977927],[2.2200561,49.0980213],[2.2172304,49.0992541],[2.217036,49.0990138],[2.2167921,49.098554],[2.2152035,49.0989315],[2.2131371,49.0953976],[2.2126234,49.0946839],[2.2124073,49.0944981],[2.2119274,49.0941895],[2.2106283,49.093408],[2.2113942,49.0932335],[2.2115049,49.0931016],[2.2122349,49.0928878],[2.2125235,49.0931743],[2.2128396,49.0930866]]]]},"properties":{"code_section":"95313000BA","code_commune":"95313","section_courte":"BA"}},{"type":"Feature","geometry":{"type":"MultiPolygon","coordinates":[[[[2.2125319,49.0899109],[2.2143772,49.0926839],[2.2125235,49.0931743],[2.2122349,49.0928878],[2.2115049,49.0931016],[2.2113942,49.0932335],[2.2104926,49.0934356],[2.2099525,49.0930484],[2.209615,49.0928521],[2.2098037,49.0935323],[2.2091939,49.0936173],[2.2089567,49.0924594],[2.2088261,49.0921136],[2.2064078,49.0870604],[2.2072923,49.0868555],[2.2088166,49.0867367],[2.2092654,49.0865699],[2.2105084,49.0864281],[2.2109444,49.0863222],[2.2121775,49.0861374],[2.2130125,49.086126],[2.2131021,49.0861847],[2.2135362,49.087812],[2.2138642,49.0879181],[2.2138754,49.0879776],[2.2138257,49.087987],[2.2139111,49.0884272],[2.2134463,49.0885308],[2.213889,49.0895565],[2.2126634,49.089791],[2.2125731,49.0898388],[2.2125319,49.0899109]]]]},"properties":{"code_section":"95313000BB","code_commune":"95313","section_courte":"BB"}}]}