{"type":"FeatureCollection","features":[{"type":"Feature","geometry":{"type":"MultiPolygon","coordinates":[[[[2.0324286,49.0145224],[2.0324644,49.0143638],[2.0334657,49.0143489],[2.0335181,49.0147293],[2.034357,49.0156695],[2.0347115,49.0159021],[2.035248,49.0166612],[2.0354536,49.0167782],[2.0349377,49.0173263],[2.0349813,49.0173497],[2.0344642,49.0178006],[2.0343176,49.0177947],[2.0337456,49.0179109],[2.0337762,49.0179329],[2.0337402,49.0179524],[2.0329367,49.0180767],[2.0322034,49.0182692],[2.0301647,49.0185972],[2.0298104,49.0186835],[2.0297582,49.0186052],[2.0297323,49.0175345],[2.030988,49.0175027],[2.0308818,49.0167232],[2.0303874,49.016769],[2.0296425,49.0167671],[2.029076,49.016664],[2.0280161,49.0163612],[2.0279855,49.0164619],[2.0278442,49.0164389],[2.0278574,49.0164032],[2.0275865,49.0164029],[2.0275493,49.0164731],[2.0274958,49.0164702],[2.0274456,49.0166236],[2.02754,49.0166332],[2.0275285,49.0167358],[2.0272037,49.0167],[2.027053,49.0174117],[2.025684,49.0173662],[2.0247689,49.0173964],[2.0230437,49.0175678],[2.0229857,49.0175374],[2.0264337,49.0146044],[2.0272758,49.0146232],[2.0282549,49.0149269],[2.0287694,49.0149362],[2.0287612,49.0150575],[2.0290269,49.0151447],[2.029017,49.0152958],[2.0291264,49.015384],[2.0293883,49.0154007],[2.0294423,49.0152264],[2.0299633,49.0152129],[2.0299414,49.0153674],[2.0303035,49.0153471],[2.0303233,49.0151225],[2.0308134,49.015157],[2.0308478,49.0147712],[2.0323901,49.0147125],[2.0324286,49.0145224]]]]},"properties":{"code_section":"953230000A","code_commune":"95323","section_courte":"A"}},{"type":"Feature","geometry":{"type":"MultiPolygon","coordinates":[[[[2.0134953,49.0174765],[2.0136992,49.0175039],[2.0138344,49.0173638],[2.0138118,49.0154263],[2.0150649,49.0141923],[2.0151389,49.0141715],[2.0181595,49.0154803],[2.0162761,49.0160754],[2.0159022,49.0162768],[2.0157076,49.0166479],[2.0153624,49.017552],[2.0152224,49.0184924],[2.0150124,49.0191243],[2.0145513,49.0200001],[2.0142071,49.0208836],[2.0108396,49.0206762],[2.0115865,49.0175727],[2.0122532,49.0174368],[2.0129854,49.0174279],[2.0134953,49.0174765]]],[[[2.0149058,49.0132549],[2.0151292,49.0133818],[2.0145211,49.0139463],[2.0135808,49.0135583],[2.0144236,49.0126719],[2.0149542,49.0129155],[2.0147049,49.0131415],[2.0149058,49.0132549]]],[[[2.0110974,49.0125108],[2.0094981,49.0117873],[2.0086631,49.0115149],[2.0092672,49.0109526],[2.0103511,49.0094973],[2.0106656,49.0096528],[2.0134394,49.0105281],[2.0116073,49.0124189],[2.0117303,49.0124228],[2.0114923,49.0126854],[2.0110974,49.0125108]]]]},"properties":{"code_section":"953230000I","code_commune":"95323","section_courte":"I"}},{"type":"Feature","geometry":{"type":"MultiPolygon","coordinates":[[[[2.0421766,49.0238668],[2.041317,49.025108],[2.0408052,49.0257306],[2.0384028,49.0247749],[2.0374033,49.0245295],[2.0370337,49.0244029],[2.0372474,49.0238699],[2.0371936,49.023825],[2.0369735,49.0238751],[2.0360565,49.023777],[2.0356791,49.023715],[2.0352338,49.0235854],[2.0348122,49.0231485],[2.0348061,49.0229883],[2.0353033,49.0221947],[2.0353158,49.0218963],[2.0366052,49.0207067],[2.0371839,49.0205144],[2.0377049,49.020242],[2.0379825,49.0202468],[2.0382609,49.0202908],[2.0385839,49.0202884],[2.0389693,49.0202315],[2.0395837,49.0202053],[2.0399348,49.0201454],[2.0399992,49.0200887],[2.0399607,49.0200871],[2.0399696,49.0198423],[2.04004,49.0196485],[2.0407931,49.0192572],[2.0421243,49.0195735],[2.0438003,49.020074],[2.045536,49.0206363],[2.0459935,49.020839],[2.0450765,49.0215518],[2.0436245,49.0223465],[2.0429769,49.0228209],[2.0426526,49.0231347],[2.0421766,49.0238668]]]]},"properties":{"code_section":"95323000AB","code_commune":"95323","section_courte":"AB"}},{"type":"Feature","geometry":{"type":"MultiPolygon","coordinates":[[[[2.0404763,49.0171555],[2.0405521,49.0164489],[2.0406987,49.016204],[2.0413762,49.0164714],[2.0414877,49.0163275],[2.0415701,49.0163155],[2.0418906,49.0164771],[2.0421956,49.0162004],[2.0425361,49.0163708],[2.0433095,49.015856],[2.0438709,49.0154344],[2.0442809,49.0152775],[2.0446945,49.0150459],[2.0454466,49.0147986],[2.0456136,49.0145176],[2.0457879,49.0147618],[2.0458049,49.0148733],[2.0458972,49.0148354],[2.0456518,49.0153685],[2.0456717,49.0154473],[2.0457888,49.0155181],[2.0461822,49.015277],[2.0467967,49.0149902],[2.04736,49.0148395],[2.0483102,49.0154107],[2.0489973,49.0150324],[2.0497339,49.0154276],[2.0492822,49.0157835],[2.0499777,49.0157662],[2.0511925,49.0164759],[2.0514663,49.0168376],[2.0499709,49.0177799],[2.048513,49.0187499],[2.0477028,49.0194031],[2.0470877,49.0199533],[2.0465662,49.0196879],[2.0455439,49.0206394],[2.0440827,49.020161],[2.0420377,49.0195511],[2.0398759,49.0190636],[2.0384425,49.0188078],[2.0384511,49.0187798],[2.038644,49.0187712],[2.0394426,49.0183438],[2.0398724,49.018325],[2.0401384,49.0174618],[2.0403645,49.017493],[2.0404763,49.0171555]]]]},"properties":{"code_section":"95323000AC","code_commune":"95323","section_courte":"AC"}},{"type":"Feature","geometry":{"type":"MultiPolygon","coordinates":[[[[2.053895,49.0112218],[2.0542923,49.0114628],[2.0554538,49.0120664],[2.0558233,49.012423],[2.0563779,49.0130851],[2.0563458,49.0135509],[2.0567797,49.013781],[2.0560973,49.0142853],[2.0542306,49.0151621],[2.0537102,49.0154396],[2.0514663,49.0168376],[2.0511925,49.0164759],[2.0499777,49.0157662],[2.0492822,49.0157835],[2.0497339,49.0154276],[2.0489973,49.0150324],[2.0483102,49.0154107],[2.04736,49.0148395],[2.0480974,49.0146091],[2.0485122,49.0144345],[2.0513515,49.0125511],[2.0517588,49.0120805],[2.0518263,49.0119463],[2.0518569,49.0117229],[2.0525284,49.0107204],[2.0526877,49.0107736],[2.0526881,49.0108165],[2.053895,49.0112218]]]]},"properties":{"code_section":"95323000AD","code_commune":"95323","section_courte":"AD"}},{"type":"Feature","geometry":{"type":"MultiPolygon","coordinates":[[[[2.056301,49.0052454],[2.0568837,49.0053552],[2.0573135,49.0055033],[2.0575205,49.0056166],[2.0574706,49.0056881],[2.0575418,49.0057681],[2.0594487,49.0062819],[2.061936,49.0073427],[2.0617296,49.0075629],[2.0611075,49.0072845],[2.0607531,49.0075239],[2.0598591,49.0073428],[2.0582252,49.0068503],[2.0573855,49.0067763],[2.0572581,49.0070459],[2.0576213,49.0071057],[2.0573521,49.0075595],[2.057169,49.0075224],[2.0569767,49.0078476],[2.0571284,49.0078902],[2.0570157,49.0080529],[2.057468,49.0081363],[2.0574363,49.0082043],[2.0580263,49.0083511],[2.057774,49.0087364],[2.0571397,49.008537],[2.0566571,49.0092261],[2.0566448,49.0093082],[2.0566816,49.0093158],[2.0565108,49.009544],[2.0574255,49.0098237],[2.0571928,49.0100211],[2.0576257,49.010336],[2.056829,49.0107015],[2.0569961,49.0109165],[2.0572892,49.0111945],[2.0565491,49.0120197],[2.0563596,49.0122846],[2.0572881,49.0128285],[2.0565755,49.0133226],[2.0558233,49.012423],[2.0554118,49.0120358],[2.0542923,49.0114628],[2.053895,49.0112218],[2.0526881,49.0108165],[2.0526877,49.0107736],[2.0525284,49.0107204],[2.0528931,49.0101793],[2.053093,49.0097517],[2.0531475,49.0097624],[2.0536112,49.008725],[2.0545958,49.0071911],[2.055279,49.0062919],[2.0561629,49.00523],[2.056301,49.0052454]]]]},"properties":{"code_section":"95323000AE","code_commune":"95323","section_courte":"AE"}},{"type":"Feature","geometry":{"type":"MultiPolygon","coordinates":[[[[2.0172554,49.0002322],[2.021509,48.9989393],[2.0236649,48.9979197],[2.0247,48.9986426],[2.0251273,48.9990022],[2.0252745,48.9992286],[2.0259491,48.9997452],[2.0260048,48.9998238],[2.0259959,48.9999128],[2.0257947,49.0001261],[2.0257406,49.0003193],[2.0263851,49.0007886],[2.0268049,49.0010038],[2.0255346,49.0019093],[2.0252797,49.0017248],[2.025246,49.0017404],[2.0229176,49.0042192],[2.021011,49.0035346],[2.0191719,49.0046744],[2.0182982,49.0054826],[2.0175335,49.0065148],[2.017532,49.0065425],[2.0180479,49.0066708],[2.0187568,49.0069203],[2.0183903,49.007611],[2.0156634,49.0069525],[2.0151268,49.0080247],[2.0143529,49.0074455],[2.0127177,49.0089716],[2.0135501,49.0094204],[2.0129671,49.0097097],[2.0136992,49.01026],[2.0134394,49.0105281],[2.0106656,49.0096528],[2.0103511,49.0094973],[2.0102795,49.0095928],[2.0099602,49.0095446],[2.0098057,49.0094768],[2.009446,49.0091996],[2.009345,49.0092494],[2.0085742,49.0087124],[2.0082953,49.0087183],[2.0078268,49.0085767],[2.0073282,49.0085915],[2.0070832,49.0085513],[2.0095241,49.0063735],[2.0119928,49.0045664],[2.0119003,49.003516],[2.0128963,49.0016592],[2.0131187,49.0015053],[2.0136857,49.001224],[2.0141382,49.0011777],[2.0145485,49.0010874],[2.0172554,49.0002322]]]]},"properties":{"code_section":"95323000AH","code_commune":"95323","section_courte":"AH"}},{"type":"Feature","geometry":{"type":"MultiPolygon","coordinates":[[[[2.0458252,49.0044601],[2.0461014,49.0044685],[2.046708,49.0045901],[2.0467829,49.004544],[2.0461853,49.0037492],[2.046292,49.0037038],[2.0469863,49.0042291],[2.0472693,49.0043827],[2.0479454,49.0045734],[2.0487653,49.0036162],[2.05043,49.0040519],[2.0507192,49.0036219],[2.0511997,49.0038586],[2.0530694,49.0044736],[2.0543963,49.0050564],[2.0551159,49.0051984],[2.0561629,49.00523],[2.0549921,49.0066658],[2.0542617,49.0068545],[2.0536398,49.0068838],[2.0520088,49.0066945],[2.0505112,49.0066532],[2.0498075,49.0065482],[2.0498819,49.0062408],[2.0497138,49.0062119],[2.0497273,49.0061799],[2.049119,49.0060829],[2.0488713,49.006017],[2.0485642,49.005924],[2.0469349,49.0052514],[2.0456747,49.0049591],[2.0458252,49.0044601]]]]},"properties":{"code_section":"95323000AI","code_commune":"95323","section_courte":"AI"}},{"type":"Feature","geometry":{"type":"MultiPolygon","coordinates":[[[[2.0345243,49.0176783],[2.0349295,49.0173429],[2.0348891,49.0173219],[2.0354536,49.0167782],[2.0359082,49.0170014],[2.0363794,49.0171823],[2.037633,49.0173627],[2.038447,49.0172387],[2.0388154,49.0171239],[2.039223,49.0170563],[2.0393525,49.0170398],[2.0393678,49.0170668],[2.0395437,49.0170678],[2.0397022,49.0175019],[2.0400226,49.0174387],[2.0401384,49.0174618],[2.0398724,49.018325],[2.0394426,49.0183438],[2.038644,49.0187712],[2.0384511,49.0187798],[2.0384425,49.0188078],[2.0391622,49.0189239],[2.0407931,49.0192572],[2.04004,49.0196485],[2.0399696,49.0198423],[2.0399607,49.0200871],[2.0399992,49.0200887],[2.0399348,49.0201454],[2.0395837,49.0202053],[2.0389693,49.0202315],[2.0385839,49.0202884],[2.0382609,49.0202908],[2.0375743,49.0202212],[2.0363202,49.0196272],[2.0344702,49.0191543],[2.0334083,49.018677],[2.0309617,49.0187655],[2.0298433,49.0187457],[2.0297006,49.0187727],[2.0297209,49.018725],[2.029959,49.0186367],[2.0322034,49.0182692],[2.0329367,49.0180767],[2.0337402,49.0179524],[2.0337762,49.0179329],[2.0337456,49.0179109],[2.0343176,49.0177947],[2.0344642,49.0178006],[2.0344226,49.0177566],[2.0345243,49.0176783]]]]},"properties":{"code_section":"95323000AK","code_commune":"95323","section_courte":"AK"}},{"type":"Feature","geometry":{"type":"MultiPolygon","coordinates":[[[[2.0218999,49.0203592],[2.0217894,49.0199644],[2.0217684,49.019706],[2.0217903,49.0193802],[2.0219102,49.0189361],[2.0221315,49.0185157],[2.0224353,49.0181034],[2.0230437,49.0175678],[2.0247689,49.0173964],[2.025684,49.0173662],[2.027053,49.0174117],[2.0272037,49.0167],[2.0275285,49.0167358],[2.02754,49.0166332],[2.0274456,49.0166236],[2.027453,49.0165076],[2.0275141,49.0165067],[2.0275865,49.0164029],[2.0278574,49.0164032],[2.0278482,49.0164717],[2.0279855,49.0164619],[2.0280161,49.0163612],[2.029076,49.016664],[2.0296425,49.0167671],[2.0303514,49.0167937],[2.0308472,49.0167534],[2.030988,49.0175027],[2.029774,49.0175355],[2.0297582,49.0186052],[2.0298104,49.0186835],[2.0297209,49.018725],[2.0296281,49.0188899],[2.0289426,49.0190607],[2.0288964,49.0189738],[2.0288153,49.0189965],[2.0287973,49.0189714],[2.0247828,49.0201971],[2.0247051,49.0201924],[2.022124,49.0210002],[2.0218999,49.0203592]]]]},"properties":{"code_section":"95323000BW","code_commune":"95323","section_courte":"BW"}},{"type":"Feature","geometry":{"type":"MultiPolygon","coordinates":[[[[2.0357054,49.012813],[2.0381117,49.0136259],[2.0384238,49.0136922],[2.0383755,49.0137619],[2.0385222,49.013805],[2.0385645,49.0137231],[2.0398867,49.0139138],[2.0398982,49.013874],[2.0418824,49.0141193],[2.0419295,49.0141923],[2.0421316,49.0142792],[2.042325,49.0140889],[2.0427913,49.0132152],[2.042984,49.0132168],[2.0442465,49.0135707],[2.0445448,49.0136899],[2.0455474,49.0144242],[2.0456136,49.0145176],[2.0454466,49.0147986],[2.0446945,49.0150459],[2.0442809,49.0152775],[2.0438709,49.0154344],[2.0433095,49.015856],[2.0425361,49.0163708],[2.0421956,49.0162004],[2.0418906,49.0164771],[2.0415701,49.0163155],[2.0414877,49.0163275],[2.0413762,49.0164714],[2.0406987,49.016204],[2.0405521,49.0164489],[2.0404763,49.0171555],[2.0403645,49.017493],[2.0400226,49.0174387],[2.0397022,49.0175019],[2.0395437,49.0170678],[2.0393678,49.0170668],[2.0393525,49.0170398],[2.0388154,49.0171239],[2.038447,49.0172387],[2.037633,49.0173627],[2.0364227,49.0171927],[2.0359082,49.0170014],[2.035248,49.0166612],[2.0347115,49.0159021],[2.034357,49.0156695],[2.0335181,49.0147293],[2.0334923,49.0146591],[2.0334657,49.0143489],[2.0338606,49.0134354],[2.0339564,49.0132956],[2.0340464,49.0130126],[2.0342051,49.0128067],[2.0340174,49.0126173],[2.0341264,49.0124783],[2.0343023,49.0125364],[2.034428,49.0123728],[2.0357054,49.012813]]]]},"properties":{"code_section":"95323000CD","code_commune":"95323","section_courte":"CD"}},{"type":"Feature","geometry":{"type":"MultiPolygon","coordinates":[[[[2.030904,49.0113863],[2.0313518,49.0111551],[2.0324099,49.0116528],[2.034428,49.0123728],[2.0343023,49.0125364],[2.0341264,49.0124783],[2.0340174,49.0126173],[2.0342051,49.0128067],[2.0340464,49.0130126],[2.0339564,49.0132956],[2.0338606,49.0134354],[2.0334657,49.0143489],[2.0324644,49.0143638],[2.0323901,49.0147125],[2.0308478,49.0147712],[2.0308134,49.015157],[2.0303233,49.0151225],[2.0303035,49.0153471],[2.0299414,49.0153674],[2.0299633,49.0152129],[2.0294423,49.0152264],[2.0293883,49.0154007],[2.0291264,49.015384],[2.029017,49.0152958],[2.0290269,49.0151447],[2.0287612,49.0150575],[2.0287694,49.0149362],[2.0282549,49.0149269],[2.0272758,49.0146232],[2.0260613,49.0145787],[2.0260953,49.0144695],[2.0253969,49.0141768],[2.0257749,49.0137763],[2.023939,49.0129167],[2.024316,49.0124873],[2.023079,49.011968],[2.0234888,49.0115737],[2.0229173,49.0113234],[2.0238058,49.0101838],[2.022728,49.0098133],[2.0236034,49.0086922],[2.0266986,49.0097491],[2.0267447,49.0096994],[2.0283332,49.0102309],[2.0293146,49.0104935],[2.0291346,49.0106577],[2.0303062,49.0108883],[2.0303998,49.0109623],[2.0311997,49.0104346],[2.0312611,49.0104616],[2.0322126,49.0100945],[2.0324313,49.010133],[2.0326123,49.0102421],[2.031584,49.0107648],[2.0316397,49.0108154],[2.030751,49.0112667],[2.030904,49.0113863]]]]},"properties":{"code_section":"95323000CH","code_commune":"95323","section_courte":"CH"}},{"type":"Feature","geometry":{"type":"MultiPolygon","coordinates":[[[[2.0282576,49.0097465],[2.0307074,49.0077033],[2.0319499,49.0082665],[2.0323279,49.0083893],[2.0325616,49.0080943],[2.0330732,49.0076806],[2.0330511,49.0075529],[2.031898,49.0068095],[2.0326813,49.0063747],[2.0337902,49.0058568],[2.0345506,49.0055698],[2.0357466,49.0052461],[2.035662,49.0056656],[2.036385,49.0057753],[2.0361941,49.0064726],[2.0359953,49.0069885],[2.0358681,49.0072534],[2.0349054,49.0085523],[2.0344182,49.0090878],[2.0339562,49.0095005],[2.0338281,49.0094056],[2.0332511,49.0098302],[2.0326123,49.0102421],[2.0324313,49.010133],[2.0322126,49.0100945],[2.0312611,49.0104616],[2.0311997,49.0104346],[2.0303998,49.0109623],[2.0303062,49.0108883],[2.0291346,49.0106577],[2.0293146,49.0104935],[2.0278642,49.010077],[2.0282576,49.0097465]]]]},"properties":{"code_section":"95323000CI","code_commune":"95323","section_courte":"CI"}},{"type":"Feature","geometry":{"type":"MultiPolygon","coordinates":[[[[2.0407024,49.006291],[2.0440636,49.0064178],[2.0447442,49.0064107],[2.0445582,49.0067341],[2.0448793,49.0081128],[2.0449046,49.0085179],[2.0448735,49.0087837],[2.0447939,49.0090585],[2.0444422,49.0098457],[2.0444931,49.0098805],[2.0443421,49.0102066],[2.0443835,49.0102144],[2.0442204,49.01058],[2.0442058,49.010735],[2.044073,49.0108081],[2.0437151,49.0108315],[2.0435295,49.0107446],[2.0434729,49.0106608],[2.0433051,49.0105817],[2.0424448,49.0105388],[2.0411673,49.0105642],[2.0399852,49.0104837],[2.0399662,49.0105425],[2.0398564,49.0105203],[2.0398952,49.0106048],[2.0394292,49.0105309],[2.0394566,49.0104583],[2.0379603,49.0100371],[2.0371168,49.0097142],[2.0363445,49.0093362],[2.0354169,49.0087806],[2.0349054,49.0085523],[2.0358681,49.0072534],[2.0361899,49.0064847],[2.0363535,49.0059604],[2.0374588,49.006043],[2.0374725,49.0060043],[2.0401208,49.0062677],[2.0407024,49.006291]]]]},"properties":{"code_section":"95323000CK","code_commune":"95323","section_courte":"CK"}},{"type":"Feature","geometry":{"type":"MultiPolygon","coordinates":[[[[2.0360693,49.0091626],[2.0366972,49.0095201],[2.0373355,49.0098071],[2.0382792,49.0101356],[2.0394566,49.0104583],[2.0394292,49.0105309],[2.0398952,49.0106048],[2.0398564,49.0105203],[2.0399662,49.0105425],[2.0399852,49.0104837],[2.0411673,49.0105642],[2.0424448,49.0105388],[2.0433051,49.0105817],[2.0434729,49.0106608],[2.0435295,49.0107446],[2.0437151,49.0108315],[2.044073,49.0108081],[2.0437705,49.0115021],[2.0430144,49.0129138],[2.0427913,49.0132152],[2.042325,49.0140889],[2.0421316,49.0142792],[2.0419295,49.0141923],[2.0418824,49.0141193],[2.0398982,49.013874],[2.0398867,49.0139138],[2.0385645,49.0137231],[2.0385222,49.013805],[2.0383755,49.0137619],[2.0384238,49.0136922],[2.0381117,49.0136259],[2.0331475,49.0119346],[2.0324099,49.0116528],[2.0313518,49.0111551],[2.030904,49.0113863],[2.0307508,49.0112667],[2.0316397,49.0108154],[2.031584,49.0107648],[2.0326123,49.0102421],[2.0332511,49.0098302],[2.0338281,49.0094056],[2.0339562,49.0095005],[2.0344182,49.0090878],[2.0349054,49.0085523],[2.0354169,49.0087806],[2.0360693,49.0091626]]]]},"properties":{"code_section":"95323000CL","code_commune":"95323","section_courte":"CL"}},{"type":"Feature","geometry":{"type":"MultiPolygon","coordinates":[[[[2.0455474,49.0144241],[2.0447104,49.0137929],[2.0444681,49.013654],[2.042984,49.0132168],[2.0427913,49.0132152],[2.0430144,49.0129138],[2.0435711,49.0118769],[2.044073,49.0108081],[2.0442074,49.0107289],[2.0454477,49.0108635],[2.0454388,49.0109282],[2.0458927,49.0109559],[2.0458839,49.0110207],[2.0461178,49.0110351],[2.0469339,49.0109369],[2.0499095,49.0112293],[2.0500358,49.011268],[2.0500681,49.0112208],[2.0510023,49.0114239],[2.0518569,49.0117229],[2.0518263,49.0119463],[2.0517588,49.0120805],[2.0513622,49.0125425],[2.0487637,49.0142826],[2.0484793,49.0144526],[2.0480974,49.0146091],[2.0470145,49.0149477],[2.0469838,49.0149237],[2.0467967,49.0149902],[2.0461822,49.015277],[2.0457888,49.0155181],[2.0456717,49.0154473],[2.0456518,49.0153685],[2.0458972,49.0148354],[2.0458049,49.0148733],[2.0457879,49.0147618],[2.0455474,49.0144241]]]]},"properties":{"code_section":"95323000CM","code_commune":"95323","section_courte":"CM"}},{"type":"Feature","geometry":{"type":"MultiPolygon","coordinates":[[[[2.0448735,49.0087837],[2.0449046,49.0085179],[2.0448793,49.0081128],[2.0445582,49.0067341],[2.0447442,49.0064107],[2.0456616,49.0063389],[2.0474459,49.0063641],[2.0488387,49.0065381],[2.0497648,49.0067365],[2.0497895,49.0066323],[2.0499193,49.0066126],[2.049844,49.0065968],[2.0498075,49.0065482],[2.0505112,49.0066532],[2.0521758,49.0067073],[2.0536398,49.0068838],[2.0542585,49.0068551],[2.0549921,49.0066658],[2.0545958,49.0071911],[2.0536339,49.0086874],[2.0531475,49.0097624],[2.053093,49.0097517],[2.0528931,49.0101793],[2.0526338,49.0105209],[2.0518569,49.0117229],[2.0510023,49.0114239],[2.0500681,49.0112208],[2.0500358,49.011268],[2.0499095,49.0112293],[2.0469339,49.0109369],[2.0461178,49.0110351],[2.0458839,49.0110207],[2.0458927,49.0109559],[2.0454388,49.0109282],[2.0454477,49.0108635],[2.0442074,49.0107289],[2.0442204,49.01058],[2.0443835,49.0102144],[2.0443421,49.0102066],[2.0444931,49.0098805],[2.0444422,49.0098457],[2.0447939,49.0090585],[2.0448735,49.0087837]]]]},"properties":{"code_section":"95323000CN","code_commune":"95323","section_courte":"CN"}},{"type":"Feature","geometry":{"type":"MultiPolygon","coordinates":[[[[2.0358052,49.0052204],[2.0361494,49.0048656],[2.0362003,49.0048991],[2.0383153,49.00459],[2.0398554,49.0045696],[2.0417933,49.0046842],[2.0430355,49.0045957],[2.0438923,49.0045181],[2.0439024,49.0044981],[2.0453278,49.0043997],[2.0457463,49.0044094],[2.045734,49.0044839],[2.0458181,49.0044867],[2.0456813,49.0049713],[2.0469095,49.0052383],[2.0488499,49.006012],[2.0496849,49.0061661],[2.049669,49.0061996],[2.0498819,49.0062408],[2.0498014,49.0065692],[2.0499193,49.0066126],[2.0497895,49.0066323],[2.0497648,49.0067365],[2.0488387,49.0065381],[2.0474459,49.0063641],[2.0456616,49.0063389],[2.0447505,49.0064112],[2.0440636,49.0064178],[2.0401567,49.0062701],[2.0374725,49.0060043],[2.0374588,49.006043],[2.0363535,49.0059604],[2.036385,49.0057753],[2.035662,49.0056656],[2.0357341,49.0053089],[2.0358052,49.0052204]]]]},"properties":{"code_section":"95323000CS","code_commune":"95323","section_courte":"CS"}},{"type":"Feature","geometry":{"type":"MultiPolygon","coordinates":[[[[2.0289426,49.0190607],[2.0296281,49.0188899],[2.0297006,49.0187727],[2.0297772,49.0187463],[2.0309617,49.0187655],[2.0334083,49.018677],[2.0344702,49.0191543],[2.0363202,49.0196272],[2.0375743,49.0202212],[2.0377049,49.020242],[2.0371839,49.0205144],[2.0366052,49.0207067],[2.0350108,49.0221663],[2.0350128,49.0222411],[2.034962,49.0222648],[2.0346177,49.022012],[2.0330667,49.0217407],[2.0329005,49.0216679],[2.0323415,49.0216343],[2.0319053,49.0216815],[2.0317698,49.0216468],[2.031652,49.0215437],[2.0316345,49.0214073],[2.0316752,49.0213491],[2.0318688,49.0212332],[2.0318209,49.0212145],[2.0318955,49.021193],[2.0323546,49.0202807],[2.0292304,49.0196717],[2.0289426,49.0190607]]],[[[2.022124,49.0210002],[2.0218451,49.0210833],[2.0215005,49.0211389],[2.0142164,49.0209305],[2.0145513,49.0200001],[2.0150124,49.0191243],[2.0152224,49.0184924],[2.0153624,49.017552],[2.0157076,49.0166479],[2.0159022,49.0162768],[2.0162761,49.0160754],[2.0181595,49.0154803],[2.0192211,49.0149313],[2.019532,49.0148205],[2.02021,49.0147181],[2.0220454,49.0139866],[2.0231585,49.0137152],[2.0238028,49.0135137],[2.0245567,49.0131912],[2.0245595,49.013223],[2.0257749,49.0137763],[2.0253969,49.0141768],[2.0260953,49.0144695],[2.0260613,49.0145787],[2.0264337,49.0146044],[2.0244408,49.0163112],[2.022669,49.0178863],[2.0224353,49.0181034],[2.0221315,49.0185157],[2.0219102,49.0189361],[2.0217903,49.0193802],[2.0217684,49.019706],[2.0218866,49.020335],[2.022124,49.0210002]]]]},"properties":{"code_section":"95323000ZA","code_commune":"95323","section_courte":"ZA"}},{"type":"Feature","geometry":{"type":"MultiPolygon","coordinates":[[[[2.0563596,49.0122846],[2.0565491,49.0120197],[2.0572892,49.0111945],[2.0569961,49.0109165],[2.0568288,49.0107015],[2.0576257,49.010336],[2.0571928,49.0100211],[2.0574255,49.0098237],[2.0565108,49.009544],[2.0566816,49.0093158],[2.0566448,49.0093082],[2.0566571,49.0092261],[2.0571397,49.0085369],[2.057774,49.0087364],[2.0580263,49.0083511],[2.0574363,49.0082043],[2.057468,49.0081363],[2.0570157,49.0080529],[2.0571284,49.0078902],[2.0569767,49.0078476],[2.057169,49.0075224],[2.0573521,49.0075595],[2.0576213,49.0071057],[2.0572581,49.0070459],[2.0573855,49.0067763],[2.0582252,49.0068503],[2.0598591,49.0073428],[2.0607531,49.0075239],[2.0611075,49.0072845],[2.0617296,49.0075629],[2.061936,49.0073427],[2.0642289,49.0083513],[2.0631357,49.0091253],[2.0610083,49.010819],[2.0602248,49.0113738],[2.0582742,49.0126559],[2.0577034,49.0130761],[2.0563596,49.0122846]]]]},"properties":{"code_section":"95323000ZE","code_commune":"95323","section_courte":"ZE"}},{"type":"Feature","geometry":{"type":"MultiPolygon","coordinates":[[[[2.0466528,49.0043939],[2.0467829,49.004544],[2.046708,49.0045901],[2.0461014,49.0044685],[2.0458252,49.0044601],[2.0458181,49.0044867],[2.045734,49.0044839],[2.0457463,49.0044094],[2.0453278,49.0043997],[2.0417933,49.0046842],[2.0398554,49.0045696],[2.0383153,49.00459],[2.0362003,49.0048991],[2.0361494,49.0048656],[2.039723,49.0025858],[2.0412813,49.0015712],[2.0415824,49.0013437],[2.0418268,49.0012528],[2.0425348,49.000851],[2.0427622,49.0006236],[2.0434842,49.0007879],[2.0450037,49.0013888],[2.047413,49.0021666],[2.0490072,49.0025118],[2.0507192,49.0036219],[2.05043,49.0040519],[2.0487653,49.0036162],[2.0479454,49.0045734],[2.0472693,49.0043827],[2.0469863,49.0042291],[2.046292,49.0037038],[2.0461853,49.0037492],[2.0466528,49.0043939]]]]},"properties":{"code_section":"95323000ZH","code_commune":"95323","section_courte":"ZH"}},{"type":"Feature","geometry":{"type":"MultiPolygon","coordinates":[[[[2.0268049,49.0010038],[2.0286824,49.0016808],[2.0290706,49.0017377],[2.0294844,49.0017497],[2.030951,49.0016891],[2.0358983,49.0017047],[2.0415824,49.0013437],[2.0412813,49.0015712],[2.039723,49.0025858],[2.0361494,49.0048656],[2.0357341,49.0053089],[2.0357466,49.0052461],[2.0349744,49.0054713],[2.0349269,49.0054588],[2.0338349,49.0058393],[2.0326813,49.0063747],[2.031898,49.0068095],[2.0330511,49.0075529],[2.0330732,49.0076806],[2.0325616,49.0080943],[2.0323279,49.0083893],[2.0319499,49.0082665],[2.0307074,49.0077033],[2.0278642,49.010077],[2.0267447,49.0096994],[2.0266986,49.0097491],[2.0240129,49.0088447],[2.0236034,49.0086922],[2.0236204,49.0086593],[2.0202961,49.007493],[2.0187568,49.0069203],[2.0180479,49.0066708],[2.017532,49.0065425],[2.0182982,49.0054826],[2.0190231,49.0048019],[2.0191719,49.0046744],[2.021011,49.0035346],[2.0229176,49.0042192],[2.025246,49.0017404],[2.0252797,49.0017248],[2.0255346,49.0019093],[2.0268049,49.0010038]]]]},"properties":{"code_section":"95323000ZI","code_commune":"95323","section_courte":"ZI"}},{"type":"Feature","geometry":{"type":"MultiPolygon","coordinates":[[[[2.0151468,49.0079848],[2.0156634,49.0069525],[2.0183903,49.007611],[2.0187568,49.0069203],[2.0202961,49.007493],[2.0236204,49.0086593],[2.022728,49.0098133],[2.0238058,49.0101838],[2.0229173,49.0113234],[2.0234883,49.0115742],[2.0231218,49.011927],[2.024316,49.0124873],[2.023939,49.0129167],[2.0245567,49.0131912],[2.0238028,49.0135137],[2.0231585,49.0137152],[2.0220454,49.0139866],[2.02021,49.0147181],[2.0195058,49.0148359],[2.0189365,49.0138176],[2.0143986,49.0108177],[2.0134394,49.0105281],[2.0136992,49.01026],[2.0129671,49.0097097],[2.0135501,49.0094204],[2.0127177,49.0089716],[2.0143529,49.0074455],[2.0151268,49.0080247],[2.0151468,49.0079848]]]]},"properties":{"code_section":"95323000ZK","code_commune":"95323","section_courte":"ZK"}},{"type":"Feature","geometry":{"type":"MultiPolygon","coordinates":[[[[2.0134394,49.0105281],[2.0143986,49.0108177],[2.0189365,49.0138176],[2.0195058,49.0148359],[2.0192211,49.0149313],[2.0181595,49.0154803],[2.0151389,49.0141715],[2.0145211,49.0139463],[2.0151292,49.0133818],[2.0147049,49.0131415],[2.0149542,49.0129155],[2.0144236,49.0126719],[2.0135808,49.0135583],[2.0114834,49.0126565],[2.0117303,49.0124228],[2.0116696,49.0123628],[2.0134394,49.0105281]]]]},"properties":{"code_section":"95323000ZL","code_commune":"95323","section_courte":"ZL"}}]}