{"type":"FeatureCollection","features":[{"type":"Feature","geometry":{"type":"MultiPolygon","coordinates":[[[[2.2048608,49.0842231],[2.2052768,49.0840758],[2.2061919,49.0836427],[2.2062703,49.0834239],[2.2067722,49.0830241],[2.2069552,49.0828037],[2.207377,49.0821708],[2.2075573,49.0816339],[2.2075347,49.0808448],[2.2085959,49.0814145],[2.2092073,49.0819936],[2.2096333,49.0822432],[2.2106081,49.0829013],[2.2140178,49.0824297],[2.2145115,49.0833731],[2.2144811,49.0837139],[2.2142087,49.0844275],[2.2139556,49.0848608],[2.2137066,49.0850835],[2.2136841,49.0853872],[2.2132957,49.085598],[2.2127491,49.0860111],[2.2127842,49.0861262],[2.2122865,49.0861307],[2.2109085,49.0863357],[2.2102826,49.0864671],[2.2092598,49.0865509],[2.2087794,49.0867392],[2.2071522,49.0868906],[2.2063936,49.0871036],[2.2053313,49.0856047],[2.2047219,49.0849208],[2.2042667,49.0845063],[2.2048608,49.0842231]]]]},"properties":{"code_section":"95392000AB","code_commune":"95392","section_courte":"AB"}},{"type":"Feature","geometry":{"type":"MultiPolygon","coordinates":[[[[2.2155105,49.0890194],[2.2142634,49.0893933],[2.2140453,49.0894388],[2.2139239,49.0894069],[2.2134487,49.0885],[2.2136958,49.088443],[2.2136937,49.0884217],[2.2139096,49.0883928],[2.2138135,49.0879202],[2.213848,49.0879136],[2.2138202,49.0878507],[2.2135215,49.0877769],[2.2130566,49.0861856],[2.212956,49.0861244],[2.2127842,49.0861262],[2.2127491,49.0860111],[2.2132957,49.085598],[2.2136841,49.0853872],[2.2137681,49.0854277],[2.2141487,49.0852877],[2.214812,49.0852001],[2.2153736,49.0850734],[2.2157685,49.0848902],[2.221006,49.0815493],[2.2229123,49.0802581],[2.2230363,49.0798988],[2.2221467,49.0796199],[2.2221096,49.0794616],[2.2236464,49.0782932],[2.2237519,49.078289],[2.2242306,49.0767092],[2.2239956,49.0761737],[2.2240099,49.075837],[2.2243284,49.0757892],[2.2245623,49.0758166],[2.226998,49.0768151],[2.2294086,49.0774354],[2.2300078,49.0773471],[2.2317564,49.0767155],[2.2333003,49.0762317],[2.2358668,49.087328],[2.2357109,49.0874846],[2.2358202,49.0875842],[2.2348655,49.0885334],[2.2347028,49.0885489],[2.2345656,49.0886956],[2.2311832,49.0876285],[2.2299163,49.0877204],[2.2283988,49.0868249],[2.2271017,49.0865363],[2.2250466,49.0867938],[2.2234895,49.0872092],[2.2217935,49.0874986],[2.2203248,49.0880005],[2.2203885,49.088192],[2.2166944,49.0886925],[2.2155105,49.0890194]]]]},"properties":{"code_section":"95392000AC","code_commune":"95392","section_courte":"AC"}},{"type":"Feature","geometry":{"type":"MultiPolygon","coordinates":[[[[2.2219548,49.080916],[2.2157685,49.0848902],[2.2153736,49.0850734],[2.214812,49.0852001],[2.2141487,49.0852877],[2.2137681,49.0854277],[2.2136841,49.0853873],[2.2137066,49.0850835],[2.2139556,49.0848608],[2.2142087,49.0844275],[2.2144811,49.0837139],[2.2145115,49.0833732],[2.2134053,49.08123],[2.211191,49.0759942],[2.2105623,49.0751383],[2.2239845,49.0754478],[2.2246348,49.0755305],[2.2250023,49.0758229],[2.225135,49.0760363],[2.2245623,49.0758166],[2.2243284,49.0757892],[2.2240099,49.075837],[2.2239956,49.0761737],[2.2242306,49.0767092],[2.2237519,49.078289],[2.2236464,49.0782932],[2.2221096,49.0794616],[2.2221467,49.0796199],[2.2230363,49.0798988],[2.2229123,49.0802581],[2.2219548,49.080916]]]]},"properties":{"code_section":"95392000AD","code_commune":"95392","section_courte":"AD"}},{"type":"Feature","geometry":{"type":"MultiPolygon","coordinates":[[[[2.2216992,49.0754012],[2.2119088,49.075181],[2.2105623,49.0751383],[2.210565,49.0750506],[2.2119905,49.0740466],[2.2124172,49.0737918],[2.2128386,49.0736207],[2.2148196,49.0729874],[2.2154103,49.0727592],[2.2204505,49.0702929],[2.2239845,49.0754478],[2.2216992,49.0754012]]]]},"properties":{"code_section":"95392000AE","code_commune":"95392","section_courte":"AE"}},{"type":"Feature","geometry":{"type":"MultiPolygon","coordinates":[[[[2.2003332,49.068892],[2.1981714,49.0700882],[2.1976909,49.0696872],[2.1972441,49.0691373],[2.1968812,49.0684887],[2.1968639,49.068257],[2.1968014,49.0682583],[2.1967179,49.0680482],[2.1967855,49.0678797],[2.1965294,49.0676302],[2.1964475,49.0673846],[2.1963874,49.0673629],[2.1963316,49.0672286],[2.1965597,49.0669784],[2.1968964,49.0668451],[2.1972067,49.0666293],[2.1974009,49.0664323],[2.1979137,49.0660224],[2.1986104,49.0656763],[2.1991943,49.0655278],[2.1999664,49.065037],[2.2022189,49.0649091],[2.2027771,49.0649099],[2.2031449,49.0649606],[2.2040662,49.0651919],[2.204457,49.0653409],[2.2057632,49.0655921],[2.2061794,49.065728],[2.2100879,49.0659083],[2.2101103,49.0657813],[2.2112809,49.0656802],[2.2123704,49.0655126],[2.2136215,49.0653945],[2.2145032,49.0654108],[2.2147306,49.0657617],[2.216022,49.0656016],[2.2165346,49.0656942],[2.2168534,49.0659039],[2.2177124,49.0665714],[2.2184723,49.0672046],[2.2204505,49.0702929],[2.2154103,49.0727592],[2.2148196,49.0729874],[2.2128386,49.0736207],[2.2124172,49.0737918],[2.2119905,49.0740466],[2.210565,49.0750506],[2.2099244,49.0747644],[2.2097713,49.0746602],[2.2097086,49.0744099],[2.2068781,49.0728252],[2.2057083,49.0722166],[2.2040493,49.071289],[2.2010794,49.0693164],[2.2003584,49.0688789],[2.2003332,49.068892]]]]},"properties":{"code_section":"95392000AH","code_commune":"95392","section_courte":"AH"}},{"type":"Feature","geometry":{"type":"MultiPolygon","coordinates":[[[[2.2040324,49.0756012],[2.2035885,49.0751021],[2.2015822,49.0725553],[2.2012338,49.0721842],[2.2007254,49.0717861],[2.1984784,49.0703336],[2.1981714,49.0700882],[2.2003584,49.0688789],[2.2010794,49.0693164],[2.2040493,49.071289],[2.2057083,49.0722166],[2.2068781,49.0728253],[2.2097086,49.07441],[2.2097713,49.0746602],[2.2099244,49.0747644],[2.210565,49.0750506],[2.2105623,49.0751383],[2.2096085,49.0751261],[2.2092472,49.0750845],[2.2076309,49.0747901],[2.207261,49.0747684],[2.2068498,49.0748415],[2.2042031,49.0757961],[2.2040324,49.0756012]]]]},"properties":{"code_section":"95392000AI","code_commune":"95392","section_courte":"AI"}},{"type":"Feature","geometry":{"type":"MultiPolygon","coordinates":[[[[2.1933306,49.0737976],[2.190635,49.0725949],[2.1892559,49.0721533],[2.1896349,49.0716496],[2.1901446,49.0713502],[2.1910143,49.0706659],[2.1910468,49.0706811],[2.1919103,49.0699405],[2.1930348,49.0692497],[2.1947492,49.068074],[2.1950335,49.0677965],[2.1952375,49.0673852],[2.1958084,49.0674633],[2.1962192,49.0673331],[2.1963316,49.0672286],[2.1963874,49.0673629],[2.1964475,49.0673846],[2.1965294,49.0676302],[2.1967855,49.0678797],[2.1967179,49.0680482],[2.1968014,49.0682583],[2.1968639,49.068257],[2.1968812,49.0684887],[2.1972441,49.0691373],[2.1975666,49.0695415],[2.1976909,49.0696872],[2.1984784,49.0703336],[2.1994854,49.0709866],[2.1989722,49.0713531],[2.1988985,49.0713104],[2.1987409,49.0713093],[2.1984029,49.0715307],[2.1971971,49.0721486],[2.1946615,49.0739361],[2.1942457,49.0742622],[2.1933306,49.0737976]]]]},"properties":{"code_section":"95392000AK","code_commune":"95392","section_courte":"AK"}},{"type":"Feature","geometry":{"type":"MultiPolygon","coordinates":[[[[2.1983069,49.0773477],[2.1971975,49.0762974],[2.1954475,49.0749513],[2.1948697,49.0745944],[2.1942457,49.0742622],[2.1946615,49.0739361],[2.1971971,49.0721486],[2.1984029,49.0715307],[2.1987409,49.0713093],[2.1988985,49.0713104],[2.1989722,49.0713531],[2.1994854,49.0709866],[2.2007254,49.0717861],[2.2012338,49.0721842],[2.2015822,49.0725553],[2.2035885,49.0751021],[2.2040324,49.0756012],[2.2036494,49.075733],[2.2038157,49.075942],[2.2028191,49.0762629],[2.2027857,49.0762258],[2.202308,49.076388],[2.2009935,49.0768698],[2.2000621,49.0772758],[2.1987032,49.0777372],[2.1983069,49.0773477]]]]},"properties":{"code_section":"95392000AL","code_commune":"95392","section_courte":"AL"}},{"type":"Feature","geometry":{"type":"MultiPolygon","coordinates":[[[[2.2042504,49.0844729],[2.2034786,49.0837286],[2.2020212,49.0821251],[2.20165,49.0816146],[2.2010266,49.0804942],[2.2003651,49.0795105],[2.2001373,49.0792313],[2.1987032,49.0777372],[2.2000621,49.0772758],[2.2009935,49.0768698],[2.202308,49.076388],[2.2027857,49.0762258],[2.2028191,49.0762629],[2.2038157,49.075942],[2.2036494,49.075733],[2.2040324,49.0756012],[2.2048971,49.0766572],[2.2050075,49.0767688],[2.205432,49.0770301],[2.2054104,49.0770661],[2.2069001,49.0789291],[2.2070502,49.0793179],[2.2071177,49.0793071],[2.207433,49.0801581],[2.2075967,49.0804685],[2.2075294,49.080662],[2.2075573,49.0816339],[2.207377,49.0821708],[2.2071126,49.0825999],[2.2067722,49.0830241],[2.2062703,49.0834239],[2.2061919,49.0836427],[2.2052768,49.0840758],[2.2048608,49.0842231],[2.2042667,49.0845063],[2.2042504,49.0844729]]]]},"properties":{"code_section":"95392000AM","code_commune":"95392","section_courte":"AM"}},{"type":"Feature","geometry":{"type":"MultiPolygon","coordinates":[[[[2.2096333,49.0822432],[2.2092073,49.0819936],[2.2085959,49.0814145],[2.2075347,49.0808448],[2.2075294,49.080662],[2.207592,49.0804206],[2.207433,49.0801581],[2.2071177,49.0793071],[2.2070502,49.0793179],[2.2069001,49.0789291],[2.2054104,49.0770661],[2.205432,49.0770301],[2.2050075,49.0767688],[2.2042031,49.0757961],[2.2068498,49.0748415],[2.207261,49.0747684],[2.2076309,49.0747901],[2.2092472,49.0750845],[2.2096085,49.0751261],[2.2105623,49.0751383],[2.211191,49.0759942],[2.2134053,49.08123],[2.2140178,49.0824297],[2.2106081,49.0829013],[2.2096333,49.0822432]]]]},"properties":{"code_section":"95392000AN","code_commune":"95392","section_courte":"AN"}}]}