{"type":"FeatureCollection","features":[{"type":"Feature","geometry":{"type":"MultiPolygon","coordinates":[[[[2.3239904,48.9856339],[2.3256212,48.9854732],[2.3270777,48.985614],[2.328521,48.9858283],[2.3284285,48.9869941],[2.3283469,48.9873638],[2.3273934,48.9891964],[2.327166,48.9897888],[2.3269054,48.9901604],[2.3264502,48.9905],[2.3261239,48.9906195],[2.3260466,48.9906835],[2.3258739,48.9903272],[2.3257785,48.9902351],[2.3231752,48.9899717],[2.3229833,48.9899124],[2.3220447,48.9894518],[2.321691,48.9893214],[2.3212657,48.98921],[2.3210087,48.989287],[2.3205677,48.9893444],[2.3190023,48.9894518],[2.3189631,48.9894315],[2.3187985,48.9887627],[2.317803,48.9889004],[2.3162197,48.9889159],[2.3162141,48.9888632],[2.317386,48.9876952],[2.3173606,48.987629],[2.3164573,48.9871402],[2.3161592,48.9868453],[2.3163854,48.986544],[2.3164789,48.9863111],[2.3165932,48.9850536],[2.3163282,48.9837047],[2.3165455,48.9837878],[2.3168737,48.9838593],[2.3179264,48.9839218],[2.3183927,48.984009],[2.318985,48.9841928],[2.3194309,48.9844667],[2.3200878,48.9844624],[2.3205408,48.9845207],[2.321322,48.9845654],[2.32206,48.9847743],[2.3224121,48.9849171],[2.3229885,48.9850944],[2.3235227,48.9853154],[2.3239081,48.9856438],[2.3239904,48.9856339]]]]},"properties":{"code_section":"95428000AB","code_commune":"95428","section_courte":"AB"}},{"type":"Feature","geometry":{"type":"MultiPolygon","coordinates":[[[[2.3228579,48.9820145],[2.3228808,48.9823065],[2.3255198,48.983202],[2.326658,48.9830362],[2.3282025,48.9829915],[2.3283091,48.9829504],[2.3283851,48.9834297],[2.3283751,48.9841712],[2.3284673,48.9844759],[2.328521,48.9858283],[2.3270777,48.985614],[2.3256212,48.9854732],[2.3239081,48.9856438],[2.323573,48.9853485],[2.323379,48.9852533],[2.32206,48.9847743],[2.321322,48.9845654],[2.3205408,48.9845207],[2.3200878,48.9844624],[2.3194309,48.9844667],[2.318985,48.9841928],[2.3183927,48.984009],[2.3179264,48.9839218],[2.3168737,48.9838593],[2.3165455,48.9837878],[2.3163282,48.9837047],[2.3161772,48.9831203],[2.3164303,48.9829372],[2.3163638,48.9827918],[2.3167868,48.9822308],[2.3171405,48.9812432],[2.3168073,48.9800648],[2.3167213,48.9796135],[2.3187919,48.9805926],[2.3192472,48.9807714],[2.3196066,48.9808563],[2.3206949,48.9805249],[2.3208937,48.9804935],[2.3217362,48.9804105],[2.3223179,48.9803925],[2.3227502,48.9804331],[2.3225777,48.9807309],[2.3225374,48.9811397],[2.3228579,48.9820145]]]]},"properties":{"code_section":"95428000AC","code_commune":"95428","section_courte":"AC"}},{"type":"Feature","geometry":{"type":"MultiPolygon","coordinates":[[[[2.3154493,48.9707961],[2.3165956,48.9712695],[2.3166347,48.9720284],[2.3166245,48.9732759],[2.3171774,48.9754083],[2.3161361,48.975435],[2.3157181,48.9754768],[2.313931,48.9757098],[2.3127011,48.9759231],[2.3123489,48.9760549],[2.311936,48.9762658],[2.3110032,48.9769045],[2.3097378,48.9762074],[2.3080517,48.9755088],[2.3084188,48.9749483],[2.3093335,48.9739886],[2.310151,48.9727943],[2.3106907,48.9718837],[2.3138542,48.969584],[2.3154493,48.9707961]]]]},"properties":{"code_section":"95428000AD","code_commune":"95428","section_courte":"AD"}},{"type":"Feature","geometry":{"type":"MultiPolygon","coordinates":[[[[2.312856,48.9758979],[2.313931,48.9757098],[2.3159961,48.975445],[2.3171774,48.9754083],[2.3165898,48.9782816],[2.3167213,48.9796135],[2.3166251,48.9796929],[2.3154867,48.9789406],[2.3154023,48.9789531],[2.3142517,48.9794077],[2.3134533,48.9796492],[2.3134081,48.9796898],[2.3139375,48.9804194],[2.3101142,48.9812773],[2.3089588,48.9801899],[2.3071604,48.9789243],[2.306762,48.9791704],[2.3070336,48.977369],[2.3080517,48.9755088],[2.3097378,48.9762074],[2.3110032,48.9769045],[2.311936,48.9762658],[2.3126295,48.975941],[2.312856,48.9758979]]]]},"properties":{"code_section":"95428000AE","code_commune":"95428","section_courte":"AE"}},{"type":"Feature","geometry":{"type":"MultiPolygon","coordinates":[[[[2.3161772,48.9831203],[2.3163282,48.9837047],[2.3165876,48.9850874],[2.3161739,48.9851876],[2.3151119,48.9853523],[2.3137164,48.9855051],[2.3123316,48.9858351],[2.3104845,48.9865353],[2.3103376,48.9865503],[2.3099057,48.9864928],[2.3096209,48.9865274],[2.3095196,48.9865683],[2.3094494,48.9866826],[2.3071841,48.98592],[2.3077863,48.9852862],[2.3081679,48.9849861],[2.3085077,48.9848084],[2.308968,48.98462],[2.3094404,48.9843728],[2.3099514,48.9842866],[2.310437,48.9841432],[2.312404,48.9834235],[2.3116472,48.9826203],[2.3107248,48.9817802],[2.3101142,48.9812773],[2.3139375,48.9804194],[2.3134081,48.9796898],[2.3134533,48.9796492],[2.3142517,48.9794077],[2.3154867,48.9789406],[2.3166251,48.9796929],[2.3167213,48.9796135],[2.3168073,48.9800648],[2.3171422,48.9812185],[2.3167868,48.9822308],[2.3163638,48.9827918],[2.3164303,48.9829372],[2.3161772,48.9831203]]]]},"properties":{"code_section":"95428000AH","code_commune":"95428","section_courte":"AH"}},{"type":"Feature","geometry":{"type":"MultiPolygon","coordinates":[[[[2.3138402,48.9897897],[2.3137628,48.9897514],[2.3134697,48.9897376],[2.3130669,48.9894887],[2.312325,48.9892613],[2.3121113,48.9891352],[2.3119642,48.9890264],[2.3118238,48.9883192],[2.3116665,48.9881235],[2.3115465,48.988016],[2.3097479,48.9868425],[2.3094494,48.9866826],[2.3094625,48.9866483],[2.3095707,48.9865417],[2.3098851,48.9864929],[2.3103376,48.9865503],[2.3104845,48.9865353],[2.3123316,48.9858351],[2.3137164,48.9855051],[2.3151119,48.9853523],[2.3161739,48.9851876],[2.3165876,48.9850874],[2.3164789,48.9863111],[2.3163854,48.986544],[2.3161592,48.9868453],[2.3164573,48.9871402],[2.3173606,48.987629],[2.317386,48.9876952],[2.3162141,48.9888632],[2.3162197,48.9889159],[2.317803,48.9889004],[2.3184011,48.9888186],[2.318406,48.9889553],[2.3174743,48.9904673],[2.3173125,48.9907928],[2.3173323,48.9913208],[2.3173753,48.9914419],[2.3165318,48.9909744],[2.3153495,48.9916906],[2.3152669,48.9917288],[2.3150559,48.9917376],[2.3149973,48.991839],[2.3151284,48.9919316],[2.3150822,48.9921857],[2.3149475,48.9923852],[2.3148737,48.9923734],[2.3145945,48.9928113],[2.3143762,48.9933105],[2.3142054,48.9932784],[2.3142604,48.9935863],[2.3144012,48.9937888],[2.3144472,48.9942501],[2.3138109,48.9943538],[2.3134666,48.9946784],[2.3133116,48.9944226],[2.3127239,48.9939979],[2.3122812,48.9936012],[2.3109192,48.9926805],[2.3122176,48.9921803],[2.311988,48.9916433],[2.3120548,48.9916279],[2.3121209,48.9913826],[2.3120594,48.9913649],[2.3123501,48.991079],[2.3128826,48.9908395],[2.3130689,48.9907043],[2.3138402,48.9897897]]]]},"properties":{"code_section":"95428000AI","code_commune":"95428","section_courte":"AI"}},{"type":"Feature","geometry":{"type":"MultiPolygon","coordinates":[[[[2.3212657,48.98921],[2.321691,48.9893214],[2.3220447,48.9894518],[2.3229833,48.9899124],[2.3231752,48.9899717],[2.3257785,48.9902351],[2.3258739,48.9903272],[2.3260466,48.9906835],[2.3260094,48.9908057],[2.3262064,48.9912276],[2.3264168,48.9915211],[2.3266816,48.991786],[2.3277913,48.9925259],[2.3282684,48.992717],[2.3284876,48.9927441],[2.3247289,48.9931607],[2.3213851,48.9934156],[2.3197562,48.9934937],[2.3196478,48.9933998],[2.318607,48.9929344],[2.3178139,48.9922679],[2.3175755,48.9919382],[2.3173323,48.9913208],[2.317304,48.990838],[2.3174743,48.9904673],[2.318406,48.9889553],[2.3184011,48.9888186],[2.3187985,48.9887627],[2.3189631,48.9894315],[2.3190023,48.9894518],[2.3205677,48.9893444],[2.3210087,48.989287],[2.3212657,48.98921]]]]},"properties":{"code_section":"95428000AK","code_commune":"95428","section_courte":"AK"}},{"type":"Feature","geometry":{"type":"MultiPolygon","coordinates":[[[[2.3234801,48.9932539],[2.3247337,48.9931782],[2.3246021,48.9936106],[2.3245984,48.9944986],[2.3245399,48.9947251],[2.3242215,48.9951035],[2.3239843,48.9955152],[2.3239319,48.995755],[2.3239683,48.9963548],[2.3239159,48.9964837],[2.3235142,48.9970361],[2.3234451,48.9972291],[2.3234854,48.9974387],[2.324106,48.99764],[2.3221605,48.9982008],[2.3221122,48.9980689],[2.3199083,48.9979817],[2.3198088,48.997332],[2.3195877,48.9968491],[2.3187449,48.9960045],[2.3180302,48.9950682],[2.3179714,48.9948495],[2.3179584,48.9945514],[2.3184786,48.9938164],[2.3180879,48.9936903],[2.3171,48.9935667],[2.3162673,48.9935089],[2.3163001,48.993967],[2.3160858,48.9942524],[2.3152037,48.9942397],[2.3151665,48.9942097],[2.3144472,48.9942501],[2.3144012,48.9937888],[2.3142604,48.9935863],[2.3142054,48.9932784],[2.3143762,48.9933105],[2.3145945,48.9928113],[2.3148737,48.9923734],[2.3149475,48.9923852],[2.3150822,48.9921857],[2.3151284,48.9919316],[2.3149973,48.991839],[2.3150559,48.9917376],[2.3152669,48.9917288],[2.3153495,48.9916906],[2.3165318,48.9909744],[2.3173753,48.9914419],[2.3175755,48.9919382],[2.3178139,48.9922679],[2.3184981,48.9928568],[2.318607,48.9929344],[2.3196478,48.9933998],[2.3197562,48.9934937],[2.3213851,48.9934156],[2.3234801,48.9932539]]]]},"properties":{"code_section":"95428000AL","code_commune":"95428","section_courte":"AL"}},{"type":"Feature","geometry":{"type":"MultiPolygon","coordinates":[[[[2.3148518,48.9942116],[2.3160858,48.9942524],[2.3163001,48.993967],[2.3162673,48.9935089],[2.3171,48.9935667],[2.3180879,48.9936903],[2.3184786,48.9938164],[2.3179584,48.9945514],[2.3179714,48.9948495],[2.3180302,48.9950682],[2.3187449,48.9960045],[2.3195877,48.9968491],[2.3198088,48.997332],[2.3199083,48.9979817],[2.3221122,48.9980689],[2.3221605,48.9982008],[2.3219456,48.9996014],[2.3206291,49.0004964],[2.3202928,49.0007535],[2.3199039,49.0011261],[2.3187418,49.0009051],[2.3189252,49.000623],[2.3155958,49.0000585],[2.3163825,48.9994236],[2.3166185,48.9991133],[2.3165809,48.9989024],[2.3162609,48.9986],[2.3161521,48.9986756],[2.3152865,48.9982622],[2.3155967,48.9978663],[2.3152841,48.9976719],[2.3155664,48.9974775],[2.3145158,48.9967223],[2.3138897,48.9967523],[2.3132805,48.9963833],[2.3132117,48.9959841],[2.3132662,48.9957724],[2.3129345,48.9957462],[2.3129102,48.9955372],[2.3132443,48.994945],[2.3137991,48.9943595],[2.3148518,48.9942116]]]]},"properties":{"code_section":"95428000AM","code_commune":"95428","section_courte":"AM"}},{"type":"Feature","geometry":{"type":"MultiPolygon","coordinates":[[[[2.3171697,49.0003368],[2.3189252,49.000623],[2.3187418,49.0009051],[2.3199039,49.0011261],[2.3192327,49.0018772],[2.3191473,49.00205],[2.3189385,49.0031186],[2.3188521,49.0032793],[2.3175383,49.0049335],[2.3172822,49.0052009],[2.3159169,49.0061559],[2.3138221,49.0079945],[2.3119144,49.0069734],[2.3110821,49.0065616],[2.3108853,49.0064206],[2.3110341,49.006238],[2.3114114,49.0059661],[2.3124784,49.005302],[2.3130044,49.005038],[2.3126386,49.0046212],[2.312146,49.0045597],[2.3115453,49.0043263],[2.3110271,49.0039533],[2.3108964,49.0035475],[2.3107233,49.0020921],[2.3109522,49.0021046],[2.3122394,49.0020213],[2.3130746,49.0018688],[2.3133496,49.0017557],[2.3139466,49.0013241],[2.3141266,49.0012408],[2.3153362,49.0009756],[2.3154902,49.0008732],[2.3155163,49.0008028],[2.3155958,49.0000585],[2.3171697,49.0003368]]]]},"properties":{"code_section":"95428000AN","code_commune":"95428","section_courte":"AN"}},{"type":"Feature","geometry":{"type":"MultiPolygon","coordinates":[[[[2.3148912,49.0071519],[2.316478,49.0079951],[2.3162903,49.008099],[2.3203948,49.0097672],[2.3203899,49.0098686],[2.3205631,49.0102318],[2.320507,49.0102661],[2.3205437,49.0102723],[2.3206808,49.0106831],[2.3201706,49.0106939],[2.3200281,49.0108586],[2.3195344,49.0111692],[2.3192595,49.0112736],[2.3186511,49.0117044],[2.3157514,49.0110597],[2.3155093,49.0137892],[2.3151938,49.0141298],[2.3145858,49.0145907],[2.3144017,49.0146424],[2.3127531,49.0147129],[2.3127214,49.0144648],[2.3126522,49.0143097],[2.3119356,49.0133726],[2.3116599,49.012937],[2.3114059,49.0119806],[2.3114148,49.0118327],[2.3115832,49.0115464],[2.3119985,49.0111239],[2.3121365,49.0106999],[2.3122139,49.0103687],[2.3122598,49.0098605],[2.3123345,49.0096984],[2.3124256,49.0095819],[2.3134358,49.0087576],[2.3138757,49.0080174],[2.3138221,49.0079945],[2.3148301,49.0071105],[2.3148912,49.0071519]]]]},"properties":{"code_section":"95428000AO","code_commune":"95428","section_courte":"AO"}},{"type":"Feature","geometry":{"type":"MultiPolygon","coordinates":[[[[2.3218903,49.0106522],[2.3206808,49.0106831],[2.3205437,49.0102723],[2.320507,49.0102661],[2.3205631,49.0102318],[2.3203899,49.0098686],[2.3203948,49.0097672],[2.3162903,49.008099],[2.316478,49.0079951],[2.3148301,49.0071105],[2.3159169,49.0061559],[2.3172822,49.0052009],[2.3175383,49.0049335],[2.3194366,49.005587],[2.3199157,49.0054041],[2.3206066,49.0050351],[2.3206284,49.0065185],[2.3209646,49.0073218],[2.3210455,49.0077317],[2.3210552,49.0080466],[2.3212627,49.0084498],[2.3214278,49.0089693],[2.32173,49.0094724],[2.3220523,49.0101685],[2.3218903,49.0106522]]]]},"properties":{"code_section":"95428000AP","code_commune":"95428","section_courte":"AP"}},{"type":"Feature","geometry":{"type":"MultiPolygon","coordinates":[[[[2.3186907,49.0053307],[2.3175383,49.0049335],[2.318015,49.0043697],[2.3189269,49.0031542],[2.3191004,49.00224],[2.3192327,49.0018772],[2.319813,49.0012199],[2.3202928,49.0007535],[2.321102,49.0001576],[2.3219456,48.9996014],[2.3219153,49.0000791],[2.3217868,49.0004168],[2.3217862,49.001076],[2.3236583,49.0013318],[2.3259443,49.0015947],[2.3267175,49.0017749],[2.3275323,49.0016485],[2.3276669,49.0029198],[2.3269143,49.0031866],[2.3256964,49.0035409],[2.3250673,49.0038039],[2.3235032,49.0043636],[2.322336,49.0048983],[2.3219684,49.0051371],[2.3217185,49.005259],[2.3206184,49.0056582],[2.3206066,49.0050351],[2.3199157,49.0054041],[2.3194366,49.005587],[2.3186907,49.0053307]]]]},"properties":{"code_section":"95428000AR","code_commune":"95428","section_courte":"AR"}},{"type":"Feature","geometry":{"type":"MultiPolygon","coordinates":[[[[2.3236583,49.0013318],[2.3217862,49.001076],[2.3217868,49.0004168],[2.3219153,49.0000791],[2.3219456,48.9996014],[2.3221605,48.9982008],[2.3253281,48.9972778],[2.3281102,48.9966582],[2.3289961,48.9964346],[2.3305961,48.996214],[2.3307461,48.9961634],[2.331465,48.995671],[2.3317123,48.9968094],[2.3318716,48.9968628],[2.3320827,48.9976509],[2.3320414,48.9976564],[2.3322959,48.9983265],[2.3326681,48.9982436],[2.3328184,48.9986162],[2.3329709,48.9994172],[2.3299172,48.9998658],[2.3300175,49.0000999],[2.3302432,49.0003409],[2.3309921,49.0006311],[2.3310807,49.0006961],[2.3312728,49.00136],[2.331418,49.0016878],[2.3304974,49.0017711],[2.3300264,49.0018574],[2.3285628,49.0023798],[2.3276669,49.0029198],[2.3275323,49.0016485],[2.3267175,49.0017749],[2.3259443,49.0015947],[2.3236583,49.0013318]]]]},"properties":{"code_section":"95428000AS","code_commune":"95428","section_courte":"AS"}},{"type":"Feature","geometry":{"type":"MultiPolygon","coordinates":[[[[2.3282207,48.9927869],[2.3284876,48.9927441],[2.3294314,48.9927769],[2.3301619,48.992842],[2.3320585,48.9932017],[2.3343687,48.9933644],[2.3352464,48.9934693],[2.3358238,48.9935883],[2.3350022,48.9942379],[2.3334976,48.9950999],[2.3329399,48.9953447],[2.3324035,48.9955253],[2.3316167,48.9955931],[2.3307461,48.9961634],[2.3305961,48.996214],[2.3289961,48.9964346],[2.3281102,48.9966582],[2.3253281,48.9972778],[2.324106,48.99764],[2.3234854,48.9974387],[2.3234437,48.9972448],[2.3235029,48.9970609],[2.3239159,48.9964837],[2.3239683,48.9963548],[2.3239319,48.995755],[2.3239843,48.9955152],[2.3242215,48.9951035],[2.3245399,48.9947251],[2.3245984,48.9944986],[2.3246021,48.9936106],[2.3247289,48.9931607],[2.3282207,48.9927869]]]]},"properties":{"code_section":"95428000AT","code_commune":"95428","section_courte":"AT"}},{"type":"Feature","geometry":{"type":"MultiPolygon","coordinates":[[[[2.328363,48.9927258],[2.3282684,48.992717],[2.3277913,48.9925259],[2.3267537,48.9918501],[2.3264168,48.9915211],[2.3262469,48.9912927],[2.3260094,48.9908057],[2.3260466,48.9906835],[2.3261239,48.9906195],[2.3264502,48.9905],[2.326991,48.9900689],[2.327166,48.9897888],[2.3273934,48.9891964],[2.3278083,48.9884352],[2.328096,48.9885177],[2.3295035,48.9896035],[2.3305166,48.9891626],[2.3319505,48.9889627],[2.332661,48.9888182],[2.3341679,48.9884542],[2.3355491,48.9880328],[2.3360545,48.989021],[2.3362991,48.9889928],[2.3364435,48.9897019],[2.337033,48.9907911],[2.3371658,48.9912489],[2.3370441,48.9917586],[2.3370582,48.9919278],[2.3373661,48.9927667],[2.3369921,48.9928872],[2.3365471,48.9931023],[2.33615,48.9933428],[2.3358238,48.9935883],[2.3352464,48.9934693],[2.3343687,48.9933644],[2.3320585,48.9932017],[2.3301619,48.992842],[2.328363,48.9927258]]]]},"properties":{"code_section":"95428000AV","code_commune":"95428","section_courte":"AV"}},{"type":"Feature","geometry":{"type":"MultiPolygon","coordinates":[[[[2.3284603,48.984448],[2.3283751,48.9841712],[2.3283851,48.9834297],[2.3283091,48.9829504],[2.3288758,48.9828007],[2.3298276,48.9826237],[2.3313438,48.9825175],[2.331762,48.9822646],[2.3323006,48.982057],[2.3335101,48.9817337],[2.3341784,48.9816042],[2.3341762,48.9808384],[2.3345822,48.980857],[2.3350584,48.9809523],[2.334986,48.9815203],[2.3349883,48.9818131],[2.3351014,48.9818864],[2.3350068,48.9827871],[2.3350302,48.9832743],[2.3351077,48.9839428],[2.3352216,48.984056],[2.3352523,48.984207],[2.3352442,48.98453],[2.3352409,48.9845853],[2.3348823,48.9846129],[2.3348105,48.9850492],[2.3347928,48.9861332],[2.3348251,48.9863086],[2.3350575,48.9868198],[2.3350074,48.9868304],[2.335181,48.9872933],[2.3346652,48.9874426],[2.3348597,48.9878375],[2.3348501,48.9879141],[2.3350101,48.9881958],[2.3341679,48.9884542],[2.332661,48.9888182],[2.3319505,48.9889627],[2.3305166,48.9891626],[2.3295035,48.9896035],[2.328096,48.9885177],[2.3278083,48.9884352],[2.328336,48.987394],[2.3284285,48.9869941],[2.328521,48.9858513],[2.3284603,48.984448]]]]},"properties":{"code_section":"95428000AW","code_commune":"95428","section_courte":"AW"}}]}