{"type":"FeatureCollection","features":[{"type":"Feature","geometry":{"type":"MultiPolygon","coordinates":[[[[2.1818361,48.9865453],[2.1818217,48.9857055],[2.1817032,48.9856498],[2.1813265,48.9851286],[2.1810091,48.9847914],[2.1818194,48.9844493],[2.1830083,48.9841718],[2.1833149,48.9840353],[2.1836029,48.9838195],[2.1839296,48.9837378],[2.1841484,48.9843771],[2.1846767,48.9842863],[2.1847852,48.9843807],[2.1848968,48.9845663],[2.1853021,48.9849057],[2.185985,48.9847483],[2.186101,48.9849044],[2.1873524,48.9851202],[2.1884823,48.9850759],[2.1884362,48.9851839],[2.1884399,48.9855632],[2.1884931,48.9858897],[2.188752,48.9864052],[2.1888916,48.9868332],[2.1890498,48.9868891],[2.1895024,48.9872294],[2.189791,48.9875801],[2.1890376,48.9877416],[2.1888712,48.9878827],[2.1883319,48.9886309],[2.1880168,48.9888351],[2.1875273,48.9890283],[2.1875085,48.9880365],[2.1871028,48.9881574],[2.1859321,48.9883154],[2.1852672,48.9880464],[2.1845038,48.9878644],[2.1841592,48.9877418],[2.1840342,48.9876663],[2.1835052,48.9871928],[2.1833468,48.9871557],[2.1827855,48.9872049],[2.182605,48.987189],[2.182408,48.9871242],[2.1820174,48.9866328],[2.1818361,48.9865453]]]]},"properties":{"code_section":"95424000AB","code_commune":"95424","section_courte":"AB"}},{"type":"Feature","geometry":{"type":"MultiPolygon","coordinates":[[[[2.1896591,48.9873873],[2.1892386,48.9870161],[2.1890498,48.9868891],[2.1888916,48.9868332],[2.188752,48.9864052],[2.1884931,48.9858897],[2.1884399,48.9855632],[2.1884362,48.9851839],[2.1890889,48.9833346],[2.1903424,48.9836198],[2.1908195,48.9836785],[2.1908639,48.9835659],[2.1913775,48.9837383],[2.1913318,48.9838144],[2.1913328,48.9840881],[2.1914761,48.9845465],[2.191817,48.9846123],[2.1931076,48.9846171],[2.1931764,48.9847491],[2.1942422,48.9846562],[2.1949502,48.9852862],[2.1973141,48.98531],[2.1978042,48.9853478],[2.1984351,48.9858545],[2.1987708,48.9861758],[2.1988482,48.9863939],[2.1988376,48.9866898],[2.1987065,48.9868885],[2.1983931,48.9877058],[2.1979241,48.9877222],[2.1976544,48.9878039],[2.196936,48.9878963],[2.1967327,48.9880011],[2.1963645,48.9880971],[2.1962011,48.9881844],[2.1959047,48.988266],[2.1953533,48.9883034],[2.194953,48.9882812],[2.1947379,48.9883105],[2.1944066,48.9882633],[2.1931456,48.9885209],[2.1917942,48.9880907],[2.1912119,48.9879396],[2.1904247,48.9878967],[2.1901837,48.9878301],[2.189791,48.9875801],[2.1896591,48.9873873]]]]},"properties":{"code_section":"95424000AC","code_commune":"95424","section_courte":"AC"}},{"type":"Feature","geometry":{"type":"MultiPolygon","coordinates":[[[[2.182493,48.9806685],[2.1834902,48.9791857],[2.184546,48.9795925],[2.1846503,48.9796031],[2.1847805,48.9795438],[2.1851476,48.9792742],[2.1861921,48.9792405],[2.1872024,48.9793985],[2.1876292,48.9794346],[2.1878254,48.9793686],[2.1884162,48.9795082],[2.1891646,48.9795342],[2.1895781,48.9797219],[2.1890054,48.980166],[2.1890066,48.9801995],[2.1884965,48.9805248],[2.1886152,48.9805946],[2.1880787,48.9809373],[2.1881243,48.980979],[2.1875959,48.9812413],[2.1877519,48.9813384],[2.188008,48.9816629],[2.1886457,48.9825208],[2.1891151,48.9832513],[2.1884823,48.9850759],[2.1873524,48.9851202],[2.186101,48.9849044],[2.185985,48.9847483],[2.1853021,48.9849057],[2.1848968,48.9845663],[2.1847852,48.9843807],[2.1846767,48.9842863],[2.1841484,48.9843771],[2.1839296,48.9837378],[2.1836029,48.9838195],[2.1833149,48.9840353],[2.1830083,48.9841718],[2.1818194,48.9844493],[2.1818015,48.9823678],[2.1819687,48.9817168],[2.182126,48.981298],[2.182493,48.9806685]]]]},"properties":{"code_section":"95424000AD","code_commune":"95424","section_courte":"AD"}},{"type":"Feature","geometry":{"type":"MultiPolygon","coordinates":[[[[2.1818167,48.9860592],[2.1818361,48.9865453],[2.1820174,48.9866328],[2.182408,48.9871242],[2.182605,48.987189],[2.1827855,48.9872049],[2.1833468,48.9871557],[2.1835052,48.9871928],[2.1840342,48.9876663],[2.1841592,48.9877418],[2.1845038,48.9878644],[2.1852672,48.9880464],[2.1859321,48.9883154],[2.1851007,48.9888534],[2.1837016,48.9895712],[2.1834036,48.9896667],[2.1824504,48.9898588],[2.180949,48.990264],[2.1789732,48.9909978],[2.1778638,48.9895457],[2.1777442,48.9895901],[2.1775528,48.9893643],[2.1773508,48.9893621],[2.1769923,48.9894792],[2.1766793,48.9890715],[2.1760017,48.9883299],[2.1758472,48.9883441],[2.1757976,48.9882778],[2.1757136,48.9882904],[2.1754909,48.9880343],[2.1752612,48.9880575],[2.1750942,48.987715],[2.1748679,48.9874576],[2.1746755,48.9871251],[2.1747954,48.9870587],[2.1746832,48.9868146],[2.1744917,48.9868698],[2.1740869,48.9865774],[2.175624,48.986324],[2.1776869,48.985878],[2.1788242,48.9857267],[2.1810091,48.9847914],[2.1813265,48.9851286],[2.1817032,48.9856498],[2.1818217,48.9857055],[2.1818167,48.9860592]]]]},"properties":{"code_section":"95424000AE","code_commune":"95424","section_courte":"AE"}},{"type":"Feature","geometry":{"type":"MultiPolygon","coordinates":[[[[2.1856703,48.9885061],[2.1856177,48.9888349],[2.1854161,48.9894611],[2.1855204,48.989865],[2.1853786,48.989902],[2.1860086,48.9906599],[2.1864956,48.9909753],[2.1865333,48.9909596],[2.1881185,48.9925398],[2.1869465,48.9925156],[2.1842197,48.9928966],[2.1812627,48.9931512],[2.1809814,48.9924446],[2.1807589,48.9925181],[2.1797082,48.9914261],[2.1794488,48.9914979],[2.1789732,48.9909978],[2.180949,48.990264],[2.1824504,48.9898588],[2.1834036,48.9896667],[2.1837016,48.9895712],[2.1847222,48.9890599],[2.1856703,48.9885061]]]]},"properties":{"code_section":"95424000AH","code_commune":"95424","section_courte":"AH"}},{"type":"Feature","geometry":{"type":"MultiPolygon","coordinates":[[[[2.1900195,48.9877492],[2.1901837,48.9878301],[2.1904247,48.9878967],[2.1912119,48.9879396],[2.1917942,48.9880907],[2.1931456,48.9885209],[2.1933948,48.9886825],[2.1936999,48.988947],[2.1946167,48.9898798],[2.1966499,48.9910493],[2.1972807,48.9914892],[2.1964229,48.9917332],[2.1956403,48.9918271],[2.1944773,48.9918119],[2.1928446,48.9917116],[2.1919274,48.9918298],[2.1917536,48.9914382],[2.1903763,48.9917835],[2.1881185,48.9925398],[2.1865333,48.9909596],[2.1864956,48.9909753],[2.1860086,48.9906599],[2.1853786,48.989902],[2.1855204,48.989865],[2.1854161,48.9894611],[2.1856177,48.9888349],[2.1856703,48.9885061],[2.1859321,48.9883154],[2.1871028,48.9881574],[2.1875085,48.9880365],[2.1875273,48.9890283],[2.1880168,48.9888351],[2.1883319,48.9886309],[2.1888712,48.9878827],[2.1890376,48.9877416],[2.189791,48.9875801],[2.1900195,48.9877492]]]]},"properties":{"code_section":"95424000AI","code_commune":"95424","section_courte":"AI"}},{"type":"Feature","geometry":{"type":"MultiPolygon","coordinates":[[[[2.1887765,48.9972544],[2.1877284,48.9977657],[2.1865989,48.9971817],[2.1850692,48.9963259],[2.183218,48.9952087],[2.182981,48.9950448],[2.1821241,48.9941169],[2.1817326,48.9938165],[2.1807834,48.9932061],[2.1842197,48.9928966],[2.1869465,48.9925156],[2.1881185,48.9925398],[2.1882933,48.9928517],[2.188523,48.9930655],[2.1890349,48.9939053],[2.1897462,48.9947382],[2.1894621,48.9949201],[2.1894611,48.9949863],[2.189903,48.9955293],[2.1899755,48.9956752],[2.1905556,48.9962908],[2.1887765,48.9972544]]]]},"properties":{"code_section":"95424000AK","code_commune":"95424","section_courte":"AK"}},{"type":"Feature","geometry":{"type":"MultiPolygon","coordinates":[[[[2.1928446,48.9917116],[2.1944773,48.9918119],[2.1956403,48.9918271],[2.1964229,48.9917332],[2.1972807,48.9914892],[2.1985499,48.9924969],[2.1924112,48.9953117],[2.1905556,48.9962908],[2.1899755,48.9956752],[2.189903,48.9955293],[2.1894611,48.9949863],[2.1894621,48.9949201],[2.1897462,48.9947382],[2.1890349,48.9939053],[2.188523,48.9930655],[2.1882933,48.9928517],[2.1881185,48.9925398],[2.1903763,48.9917835],[2.1917536,48.9914382],[2.1919274,48.9918298],[2.1928446,48.9917116]]]]},"properties":{"code_section":"95424000AL","code_commune":"95424","section_courte":"AL"}},{"type":"Feature","geometry":{"type":"MultiPolygon","coordinates":[[[[2.191709,48.9956882],[2.1924112,48.9953117],[2.1985499,48.9924969],[2.1989387,48.9929397],[2.1990442,48.9929525],[2.1991776,48.993072],[2.1990679,48.9930353],[2.1990176,48.9930516],[2.2006806,48.9947396],[2.2008177,48.9947632],[2.2010853,48.9946987],[2.2011687,48.9947102],[2.201316,48.9948932],[2.2010901,48.9949659],[2.2009622,48.9949072],[2.2008194,48.994906],[2.2006017,48.9950086],[2.2005475,48.9950668],[2.1993769,48.9956112],[2.1972641,48.996436],[2.1979517,48.9971521],[2.1980288,48.9973993],[2.1992159,48.9986659],[2.1978466,48.9991117],[2.1973175,48.9984196],[2.196725,48.9986705],[2.1963248,48.9982566],[2.1956432,48.9985439],[2.1955766,48.9984398],[2.190924,49.0000335],[2.1887765,48.9972544],[2.191709,48.9956882]]]]},"properties":{"code_section":"95424000AM","code_commune":"95424","section_courte":"AM"}},{"type":"Feature","geometry":{"type":"MultiPolygon","coordinates":[[[[2.1956432,48.9985439],[2.1963292,48.9982699],[2.1967348,48.9986818],[2.1973266,48.9984282],[2.1978625,48.9991222],[2.1980478,48.9990534],[2.1982298,48.9992712],[2.1982005,48.9993155],[2.1987295,49.0001869],[2.1996345,49.0011071],[2.2009571,49.0026194],[2.199906,49.0029227],[2.1991311,49.0030646],[2.1987858,49.0031608],[2.1963296,49.0044244],[2.1953721,49.0048153],[2.1940973,49.0032904],[2.1933703,49.0025415],[2.1930643,49.0026704],[2.1925306,49.0021312],[2.190924,49.0000335],[2.1955766,48.9984398],[2.1956432,48.9985439]]]]},"properties":{"code_section":"95424000AN","code_commune":"95424","section_courte":"AN"}},{"type":"Feature","geometry":{"type":"MultiPolygon","coordinates":[[[[2.1981432,49.0034988],[2.1987858,49.0031608],[2.1991311,49.0030646],[2.199906,49.0029227],[2.2006553,49.0027169],[2.2014502,49.0037193],[2.201525,49.0037178],[2.2016114,49.0038332],[2.2015487,49.0038566],[2.2016884,49.0040332],[2.2027764,49.0036409],[2.2029654,49.0038235],[2.203076,49.0037774],[2.2034814,49.0041613],[2.2039563,49.004788],[2.2035369,49.0049508],[2.2036485,49.0050346],[2.2035745,49.0050821],[2.2037564,49.0052549],[2.1997677,49.0067432],[2.1970533,49.0076707],[2.195916,49.007004],[2.1931237,49.0054886],[2.1951989,49.0046085],[2.1953721,49.0048153],[2.1954229,49.0048122],[2.1963296,49.0044244],[2.1980234,49.0035319],[2.1981432,49.0034988]]]]},"properties":{"code_section":"95424000AO","code_commune":"95424","section_courte":"AO"}},{"type":"Feature","geometry":{"type":"MultiPolygon","coordinates":[[[[2.2006553,49.0027169],[2.2020357,49.0023181],[2.2035269,49.0016208],[2.2046829,49.0013943],[2.205084,49.0012815],[2.2065135,49.0006651],[2.2069832,49.0001693],[2.2071258,48.9999409],[2.2072175,48.9993304],[2.2073918,48.9991814],[2.2098658,48.9980635],[2.2132398,49.0016536],[2.2132225,49.0016948],[2.2117021,49.0022732],[2.2037564,49.0052549],[2.2035745,49.0050821],[2.2036485,49.0050346],[2.2035369,49.0049508],[2.2039563,49.004788],[2.2034814,49.0041613],[2.203076,49.0037774],[2.2029654,49.0038235],[2.2027764,49.0036409],[2.2017369,49.004012],[2.201525,49.0037178],[2.2014502,49.0037193],[2.2006553,49.0027169]]]]},"properties":{"code_section":"95424000AP","code_commune":"95424","section_courte":"AP"}},{"type":"Feature","geometry":{"type":"MultiPolygon","coordinates":[[[[2.2056522,49.0010415],[2.205084,49.0012815],[2.2046829,49.0013943],[2.2035269,49.0016208],[2.2020357,49.0023181],[2.2009571,49.0026194],[2.1996345,49.0011071],[2.1987295,49.0001869],[2.1982005,48.9993155],[2.1982298,48.9992712],[2.1980478,48.9990534],[2.2008001,48.9981551],[2.201011,48.9983635],[2.2014326,48.998233],[2.2014326,48.9981874],[2.2033236,48.9975622],[2.203611,48.9976112],[2.2043861,48.9984389],[2.204667,48.9983207],[2.2039123,48.9975155],[2.2039831,48.9973412],[2.2070239,48.9963417],[2.2072707,48.9963177],[2.2074525,48.9962],[2.2085218,48.9958648],[2.2089931,48.9969716],[2.2096758,48.9978759],[2.2098658,48.9980635],[2.2073918,48.9991814],[2.2072175,48.9993304],[2.2071258,48.9999409],[2.206782,49.000403],[2.2065135,49.0006651],[2.2056522,49.0010415]]]]},"properties":{"code_section":"95424000AR","code_commune":"95424","section_courte":"AR"}},{"type":"Feature","geometry":{"type":"MultiPolygon","coordinates":[[[[2.1980602,48.9961089],[2.1993769,48.9956112],[2.2005475,48.9950668],[2.2006017,48.9950086],[2.2008194,48.994906],[2.2009622,48.9949072],[2.2010901,48.9949659],[2.201316,48.9948932],[2.2015557,48.9947601],[2.20294,48.9941706],[2.2024964,48.9935977],[2.2040113,48.9930617],[2.2043945,48.9929807],[2.2047802,48.9930295],[2.2049666,48.9931723],[2.2057116,48.9942383],[2.2059783,48.9941122],[2.2062996,48.9940158],[2.2062086,48.9938912],[2.206433,48.9938259],[2.2063545,48.9937139],[2.206733,48.9936002],[2.206818,48.9934046],[2.2071528,48.993305],[2.2072936,48.9935084],[2.2077957,48.9934073],[2.2078929,48.9935431],[2.2082239,48.9942856],[2.208075,48.9946052],[2.2082431,48.9949505],[2.2085171,48.9958599],[2.2074525,48.9962],[2.2072707,48.9963177],[2.2070239,48.9963417],[2.2039831,48.9973412],[2.2039123,48.9975155],[2.204667,48.9983207],[2.2043861,48.9984389],[2.203611,48.9976112],[2.2033236,48.9975622],[2.2014326,48.9981874],[2.2014326,48.998233],[2.201011,48.9983635],[2.2008001,48.9981551],[2.1992159,48.9986659],[2.1980288,48.9973993],[2.1979517,48.9971521],[2.1972641,48.996436],[2.1980602,48.9961089]]]]},"properties":{"code_section":"95424000AS","code_commune":"95424","section_courte":"AS"}},{"type":"Feature","geometry":{"type":"MultiPolygon","coordinates":[[[[2.2047533,48.990003],[2.2061016,48.9911023],[2.207007,48.9919734],[2.2073327,48.9926587],[2.2077957,48.9934073],[2.2072936,48.9935084],[2.2071528,48.993305],[2.206818,48.9934046],[2.206733,48.9936002],[2.2063545,48.9937139],[2.206433,48.9938259],[2.2062086,48.9938912],[2.2062996,48.9940158],[2.2059783,48.9941122],[2.2057116,48.9942383],[2.2049666,48.9931723],[2.2047802,48.9930295],[2.2043945,48.9929807],[2.2040113,48.9930617],[2.2024964,48.9935977],[2.20294,48.9941706],[2.2015557,48.9947601],[2.201316,48.9948932],[2.2011687,48.9947102],[2.2010853,48.9946987],[2.2008177,48.9947632],[2.2006806,48.9947396],[2.1990176,48.9930516],[2.1990679,48.9930353],[2.1991776,48.993072],[2.1990442,48.9929525],[2.1989387,48.9929397],[2.1985499,48.9924969],[2.2045903,48.9897771],[2.2047533,48.990003]]]]},"properties":{"code_section":"95424000AT","code_commune":"95424","section_courte":"AT"}},{"type":"Feature","geometry":{"type":"MultiPolygon","coordinates":[[[[2.2016053,48.9904274],[2.2022317,48.9902761],[2.2044618,48.9895667],[2.2045903,48.9897771],[2.1985499,48.9924969],[2.1972807,48.9914892],[2.1966499,48.9910493],[2.1946167,48.9898798],[2.1936999,48.988947],[2.1933948,48.9886825],[2.1931456,48.9885209],[2.1944066,48.9882633],[2.1947379,48.9883105],[2.194953,48.9882812],[2.1953533,48.9883034],[2.1959047,48.988266],[2.1962011,48.9881844],[2.1963645,48.9880971],[2.1967327,48.9880011],[2.196936,48.9878963],[2.1976544,48.9878039],[2.1979241,48.9877222],[2.1990527,48.9877178],[2.1993266,48.9877898],[2.1999436,48.9876877],[2.2001388,48.9876945],[2.2000468,48.9878361],[2.2003056,48.9878019],[2.2007025,48.9885967],[2.2007332,48.9885908],[2.2016053,48.9904274]]]]},"properties":{"code_section":"95424000AV","code_commune":"95424","section_courte":"AV"}}]}