{"type":"FeatureCollection","features":[{"type":"Feature","geometry":{"type":"MultiPolygon","coordinates":[[[[2.3544864,49.0266852],[2.3541553,49.0264732],[2.3525093,49.025951],[2.3505624,49.0254044],[2.3503007,49.0254404],[2.3493865,49.0252321],[2.3484676,49.0249729],[2.3481813,49.0248621],[2.3465705,49.0244179],[2.3464121,49.0244034],[2.3460207,49.024276],[2.3470218,49.0221863],[2.34748,49.0213313],[2.3480153,49.020492],[2.3491611,49.0183072],[2.3499691,49.0169748],[2.3512371,49.0147172],[2.3517567,49.0136277],[2.3529181,49.0140009],[2.3534456,49.0141101],[2.355355,49.0152871],[2.3566236,49.0158716],[2.3571628,49.0160797],[2.3580739,49.0165853],[2.3586496,49.016987],[2.3609486,49.0188511],[2.3619527,49.0193628],[2.3627553,49.019693],[2.3634907,49.0202244],[2.3638615,49.0211882],[2.3638674,49.0216007],[2.3637807,49.0219993],[2.3630737,49.0222574],[2.3623416,49.0225931],[2.3607788,49.0235414],[2.3603471,49.0237226],[2.3599368,49.0238521],[2.3595997,49.0240637],[2.3594324,49.0241181],[2.3590784,49.0243719],[2.3586302,49.0248319],[2.3586059,49.0250158],[2.3578337,49.0252088],[2.3587332,49.025521],[2.3582518,49.0257098],[2.3573621,49.0258822],[2.3570078,49.0259971],[2.3565062,49.026222],[2.3563515,49.0263208],[2.3560376,49.0266104],[2.3557243,49.0267655],[2.3547346,49.0268206],[2.3544864,49.0266852]]]]},"properties":{"code_section":"954890000A","code_commune":"95489","section_courte":"A"}},{"type":"Feature","geometry":{"type":"MultiPolygon","coordinates":[[[[2.3499672,49.012951],[2.3499865,49.0129273],[2.3518628,49.0133893],[2.3512371,49.0147172],[2.3499691,49.0169748],[2.3491611,49.0183072],[2.3480153,49.020492],[2.34748,49.0213313],[2.3470218,49.0221863],[2.3461906,49.0239215],[2.3459948,49.0238985],[2.3453074,49.0236364],[2.3453037,49.0234629],[2.3445553,49.023325],[2.3445508,49.0232953],[2.3442303,49.0232355],[2.3441178,49.0232263],[2.3439201,49.0233371],[2.3429558,49.0232992],[2.3421789,49.0233202],[2.3416775,49.0231213],[2.3406273,49.022871],[2.3399086,49.0227247],[2.3395709,49.0227186],[2.3388731,49.0226062],[2.3379571,49.0225207],[2.3349082,49.0225074],[2.3345519,49.0223977],[2.3343483,49.0221814],[2.3343006,49.0220364],[2.3339748,49.0219477],[2.3334768,49.0219185],[2.3325378,49.0216171],[2.3321635,49.0219604],[2.331722,49.0222001],[2.3300563,49.0212971],[2.3297777,49.0214199],[2.3293482,49.0214902],[2.329277,49.0215601],[2.3291817,49.0215176],[2.329298,49.0213907],[2.3290076,49.0211408],[2.3277815,49.0205866],[2.3274263,49.0203621],[2.3267592,49.0197397],[2.3260523,49.0187912],[2.3276393,49.0175472],[2.3309528,49.0160425],[2.3309422,49.0160067],[2.3311093,49.0157626],[2.3314112,49.0154588],[2.3318272,49.0151512],[2.3322895,49.0148994],[2.3335076,49.0146572],[2.3339266,49.0146634],[2.3344545,49.0146037],[2.3347492,49.0146507],[2.3352736,49.0146185],[2.335776,49.0147194],[2.3362146,49.0146893],[2.3365903,49.0147127],[2.3368399,49.0146806],[2.3374766,49.0144758],[2.3384999,49.0137436],[2.3388004,49.0136556],[2.3394622,49.0135372],[2.3392041,49.0122762],[2.3392217,49.0122053],[2.3389014,49.0120902],[2.3375804,49.0105347],[2.3375528,49.0105451],[2.3364813,49.0093984],[2.335809,49.0091743],[2.3348303,49.0086793],[2.3344665,49.0081955],[2.3346357,49.0080727],[2.334759,49.00803],[2.335127,49.0079602],[2.3359992,49.0076715],[2.3361496,49.0076686],[2.3367092,49.00749],[2.3380389,49.0072101],[2.3387024,49.0070103],[2.3395981,49.0068922],[2.3400919,49.0067577],[2.3401117,49.0069348],[2.3409332,49.006796],[2.3420319,49.006541],[2.343181,49.0061709],[2.3453876,49.0058047],[2.3457719,49.0067348],[2.3462788,49.0084892],[2.3471229,49.0100725],[2.3473242,49.0106015],[2.347819,49.0110184],[2.3488982,49.011818],[2.3493581,49.0122527],[2.3498162,49.0129179],[2.3499672,49.012951]]]]},"properties":{"code_section":"954890000B","code_commune":"95489","section_courte":"B"}},{"type":"Feature","geometry":{"type":"MultiPolygon","coordinates":[[[[2.322352,49.0098991],[2.322698,49.0097921],[2.3236587,49.0097758],[2.3251978,49.0095504],[2.3273419,49.0095715],[2.328034,49.0093986],[2.3282638,49.0092722],[2.3282945,49.0092141],[2.328415,49.0091969],[2.3284992,49.0091086],[2.3288298,49.0089338],[2.3290998,49.0088489],[2.3293043,49.0089618],[2.3296634,49.0089771],[2.3302004,49.0088616],[2.3302967,49.0088774],[2.3303972,49.0087668],[2.3304854,49.0087662],[2.3305814,49.0087138],[2.3308265,49.0086915],[2.330863,49.0087112],[2.3310242,49.0086531],[2.3310795,49.0086892],[2.3312066,49.0086425],[2.3315317,49.0086338],[2.3319919,49.0084072],[2.3321112,49.0084038],[2.3322528,49.0083134],[2.3323406,49.0083412],[2.3324474,49.0082735],[2.3327242,49.0082071],[2.3331433,49.0082511],[2.3331902,49.0082232],[2.3333041,49.0083043],[2.3334404,49.0083218],[2.3335217,49.0082786],[2.3335418,49.0083126],[2.3336149,49.0083132],[2.3336759,49.0082675],[2.3338613,49.0083372],[2.3339258,49.0083201],[2.3339309,49.0083533],[2.3340086,49.0083594],[2.3340862,49.0084104],[2.3343302,49.0083145],[2.3343767,49.0082481],[2.334613,49.0081465],[2.334964,49.0086266],[2.335972,49.0091727],[2.3365994,49.009386],[2.3381961,49.0111893],[2.3389575,49.0121261],[2.3392217,49.0122053],[2.3392041,49.0122762],[2.339437,49.0135412],[2.3388213,49.0136542],[2.3384952,49.0137575],[2.3380744,49.0140876],[2.3377414,49.0142749],[2.3374825,49.01447],[2.337383,49.0145266],[2.3368862,49.0146734],[2.3365754,49.0147217],[2.3361935,49.0146977],[2.3357799,49.0147257],[2.3352601,49.014621],[2.334752,49.014655],[2.3344631,49.0146088],[2.3339277,49.0146621],[2.3334387,49.014664],[2.3323033,49.0148935],[2.3318324,49.0151498],[2.331508,49.0154043],[2.3311334,49.015756],[2.3309422,49.0160067],[2.3309528,49.0160425],[2.3276393,49.0175472],[2.3258041,49.0189932],[2.3254188,49.0191126],[2.3239881,49.0198793],[2.3236123,49.0190269],[2.3232468,49.0179001],[2.3227097,49.0176423],[2.3224633,49.0174741],[2.3220072,49.0170068],[2.3217923,49.0167009],[2.3216786,49.0166172],[2.3203972,49.0160293],[2.3213049,49.0143626],[2.3215588,49.0138046],[2.3215497,49.0135473],[2.3216728,49.0129834],[2.3215736,49.0124298],[2.3219274,49.0125417],[2.322329,49.0119581],[2.322196,49.0103753],[2.322352,49.0098991]]]]},"properties":{"code_section":"954890000C","code_commune":"95489","section_courte":"C"}}]}