{"type":"FeatureCollection","features":[{"type":"Feature","geometry":{"type":"MultiPolygon","coordinates":[[[[2.2212,49.009204],[2.2200171,49.0080895],[2.2229972,49.0067919],[2.223134,49.0069307],[2.2254342,49.0059973],[2.2298578,49.0103824],[2.2250107,49.0115009],[2.2239283,49.0117942],[2.2212,49.009204]]]]},"properties":{"code_section":"95491000AB","code_commune":"95491","section_courte":"AB"}},{"type":"Feature","geometry":{"type":"MultiPolygon","coordinates":[[[[2.2255817,49.0061427],[2.2281412,49.0051394],[2.2283449,49.0053294],[2.2311265,49.0039901],[2.2318373,49.0043692],[2.2335622,49.0032058],[2.234237,49.0037298],[2.2354671,49.0045687],[2.2357706,49.0047416],[2.2364452,49.0049334],[2.2387389,49.0073493],[2.2390221,49.007572],[2.2353659,49.0088813],[2.2342826,49.0093649],[2.2298578,49.0103824],[2.2255817,49.0061427]]]]},"properties":{"code_section":"95491000AC","code_commune":"95491","section_courte":"AC"}},{"type":"Feature","geometry":{"type":"MultiPolygon","coordinates":[[[[2.2336571,49.0024678],[2.2339274,49.0023242],[2.2344231,49.0018685],[2.235949,49.0011679],[2.2361402,49.0014192],[2.2376488,49.0008856],[2.2376289,49.0008508],[2.2399247,49.0000434],[2.2402735,49.0010949],[2.2403092,49.0010936],[2.2405235,49.0016522],[2.2420833,49.0042148],[2.2422019,49.0045573],[2.2422685,49.0054207],[2.2424659,49.0059881],[2.2424705,49.0061518],[2.2390221,49.007572],[2.2387389,49.0073493],[2.2364452,49.0049334],[2.2357706,49.0047416],[2.2354671,49.0045687],[2.234237,49.0037298],[2.233506,49.0031582],[2.2332413,49.0026661],[2.2331577,49.002645],[2.2336571,49.0024678]]]]},"properties":{"code_section":"95491000AD","code_commune":"95491","section_courte":"AD"}},{"type":"Feature","geometry":{"type":"MultiPolygon","coordinates":[[[[2.2429172,48.9998214],[2.2435829,48.9996052],[2.2435555,48.9995725],[2.2460797,48.9987887],[2.2460475,48.9987823],[2.2460738,48.9987385],[2.2475337,48.9982279],[2.2484452,48.9990923],[2.2484434,48.9991332],[2.2491232,48.9997387],[2.2505694,49.0008388],[2.2440139,49.0055149],[2.2424705,49.0061518],[2.2424659,49.0059881],[2.2422685,49.0054207],[2.2422019,49.0045573],[2.2420833,49.0042148],[2.2405235,49.0016522],[2.2403092,49.0010936],[2.2429172,48.9998214]]]]},"properties":{"code_section":"95491000AE","code_commune":"95491","section_courte":"AE"}},{"type":"Feature","geometry":{"type":"MultiPolygon","coordinates":[[[[2.2343618,48.9980242],[2.2336949,48.9975503],[2.2335202,48.99747],[2.2372991,48.9963538],[2.2436578,48.9942236],[2.2462779,48.9969941],[2.2475337,48.9982279],[2.2460738,48.9987385],[2.2460475,48.9987823],[2.2460797,48.9987887],[2.2435555,48.9995725],[2.2435829,48.9996052],[2.2429172,48.9998214],[2.2403092,49.0010936],[2.2402735,49.0010949],[2.2399247,49.0000434],[2.2376289,49.0008508],[2.2376488,49.0008856],[2.2361402,49.0014192],[2.2357362,49.0008848],[2.2355549,49.0005308],[2.2352659,49.0001201],[2.235222,48.9999918],[2.2352721,48.9996747],[2.2353737,48.9994072],[2.2353839,48.9991614],[2.2353442,48.9990438],[2.2346671,48.9982854],[2.2343618,48.9980242]]]]},"properties":{"code_section":"95491000AH","code_commune":"95491","section_courte":"AH"}},{"type":"Feature","geometry":{"type":"MultiPolygon","coordinates":[[[[2.2265121,49.0013429],[2.2257733,49.0000333],[2.2260847,48.9999233],[2.2274821,48.9992972],[2.2287644,48.9988435],[2.2335202,48.99747],[2.2336949,48.9975503],[2.2343618,48.9980242],[2.2346671,48.9982854],[2.2353442,48.9990438],[2.2353839,48.9991614],[2.2353737,48.9994072],[2.2352721,48.9996747],[2.235222,48.9999918],[2.2352659,49.0001201],[2.2355549,49.0005308],[2.2357362,49.0008848],[2.235949,49.0011679],[2.2344231,49.0018685],[2.2339274,49.0023242],[2.2336571,49.0024678],[2.2331577,49.002645],[2.2332413,49.0026661],[2.23339,49.0029862],[2.2335622,49.0032058],[2.2318373,49.0043692],[2.2311265,49.0039901],[2.2283449,49.0053294],[2.2276491,49.0046636],[2.2274588,49.0045726],[2.2272972,49.0043599],[2.2267747,49.0034868],[2.226258,49.0024891],[2.2270057,49.0022111],[2.2265121,49.0013429]]]]},"properties":{"code_section":"95491000AI","code_commune":"95491","section_courte":"AI"}},{"type":"Feature","geometry":{"type":"MultiPolygon","coordinates":[[[[2.2171202,49.0028414],[2.2257733,49.0000333],[2.2270057,49.0022111],[2.226258,49.0024891],[2.2267747,49.0034868],[2.2272972,49.0043599],[2.2274588,49.0045726],[2.2276491,49.0046636],[2.2281412,49.0051394],[2.2255817,49.0061427],[2.2254342,49.0059973],[2.223134,49.0069307],[2.2229972,49.0067919],[2.2200171,49.0080895],[2.2182383,49.0049395],[2.2171202,49.0028414]]]]},"properties":{"code_section":"95491000AK","code_commune":"95491","section_courte":"AK"}},{"type":"Feature","geometry":{"type":"MultiPolygon","coordinates":[[[[2.2348502,49.0091103],[2.2353659,49.0088813],[2.2390529,49.0075591],[2.2399863,49.0083701],[2.2360388,49.0092734],[2.2351957,49.0094955],[2.2330486,49.0099301],[2.2348502,49.0091103]]]]},"properties":{"code_section":"95491000AL","code_commune":"95491","section_courte":"AL"}},{"type":"Feature","geometry":{"type":"MultiPolygon","coordinates":[[[[2.2414786,49.0065596],[2.2440139,49.0055149],[2.2462531,49.0039159],[2.2463902,49.0039424],[2.2462624,49.0045043],[2.2459569,49.0052047],[2.2460896,49.0053569],[2.2457625,49.0054899],[2.2453834,49.0059652],[2.2448994,49.0063976],[2.2449257,49.0064302],[2.2447972,49.0064778],[2.2441901,49.0069136],[2.2435789,49.0072688],[2.2424703,49.0077685],[2.2418306,49.0079551],[2.2399863,49.0083701],[2.2390529,49.0075591],[2.2414786,49.0065596]]]]},"properties":{"code_section":"95491000AM","code_commune":"95491","section_courte":"AM"}}]}