{"type":"FeatureCollection","features":[{"type":"Feature","geometry":{"type":"MultiPolygon","coordinates":[[[[2.0152372,49.0552668],[2.0161142,49.0579881],[2.0166631,49.0580795],[2.0172154,49.0580523],[2.0173135,49.0581698],[2.0171096,49.0581806],[2.0170271,49.0582382],[2.0170338,49.0582892],[2.0177151,49.0590283],[2.0183045,49.0594365],[2.0190896,49.0597521],[2.0195948,49.0601215],[2.0203095,49.0599958],[2.0206512,49.0605724],[2.0206018,49.0605895],[2.0209333,49.0612747],[2.0209829,49.0615432],[2.0209886,49.0624199],[2.0210793,49.062558],[2.0214285,49.0644013],[2.0222247,49.0667016],[2.0137666,49.069502],[2.0134404,49.0690674],[2.0123349,49.0678733],[2.0118005,49.0668521],[2.0116084,49.0668011],[2.0115196,49.0668249],[2.0105736,49.0654369],[2.0097324,49.0657235],[2.009378,49.0655109],[2.0087549,49.0657084],[2.0068659,49.065017],[2.0051452,49.0650917],[2.0038679,49.0655207],[2.00255,49.0635862],[2.0019622,49.0625711],[2.0012905,49.0612603],[2.0025397,49.061108],[2.0034136,49.0609164],[2.0047076,49.0604595],[2.0081492,49.0594821],[2.007109,49.0582539],[2.0066756,49.058399],[2.0059174,49.0575017],[2.0137856,49.05533],[2.0151245,49.0551076],[2.015195,49.0551219],[2.0152372,49.0552668]]]]},"properties":{"code_section":"955100000A","code_commune":"95510","section_courte":"A"}},{"type":"Feature","geometry":{"type":"MultiPolygon","coordinates":[[[[2.0241124,49.0593888],[2.0241245,49.0593666],[2.02496,49.0592291],[2.0288999,49.0584207],[2.0293088,49.0582461],[2.0294409,49.0581411],[2.0294193,49.0578871],[2.029468,49.057743],[2.0295713,49.0576394],[2.0291859,49.0572949],[2.0281965,49.0567676],[2.0289474,49.0569305],[2.0300653,49.0575718],[2.0307136,49.0582395],[2.0308862,49.0583102],[2.0310836,49.0583498],[2.0321733,49.0583618],[2.0333954,49.0583212],[2.0339566,49.0582594],[2.0340653,49.0601579],[2.0345822,49.0626614],[2.0346553,49.0628068],[2.0337488,49.0631055],[2.0326247,49.0633799],[2.0334031,49.0640336],[2.0339169,49.0645678],[2.0346986,49.0658706],[2.0321448,49.0674046],[2.031652,49.0673702],[2.0314027,49.06665],[2.0305265,49.0658628],[2.0300644,49.06537],[2.0297218,49.0648652],[2.0288236,49.0637434],[2.0285791,49.0636437],[2.0284846,49.0636559],[2.0283712,49.0637217],[2.0282068,49.0638781],[2.0277517,49.0647794],[2.0275554,49.0649937],[2.0222247,49.0667016],[2.0214285,49.0644013],[2.0210793,49.062558],[2.0209886,49.0624199],[2.0209829,49.0615432],[2.0209333,49.0612747],[2.0206018,49.0605895],[2.0206512,49.0605724],[2.0203095,49.0599958],[2.0211409,49.0598428],[2.0225748,49.0595241],[2.0241124,49.0593888]]]]},"properties":{"code_section":"955100000B","code_commune":"95510","section_courte":"B"}},{"type":"Feature","geometry":{"type":"MultiPolygon","coordinates":[[[[2.0185864,49.0679088],[2.0222247,49.0667016],[2.0222849,49.0667914],[2.0232958,49.0673083],[2.0252365,49.0683825],[2.0257751,49.0688239],[2.0263423,49.0695937],[2.0263778,49.0697239],[2.0263124,49.0705845],[2.0265645,49.0717787],[2.0266538,49.0719742],[2.0271029,49.0724575],[2.0264217,49.0727444],[2.0265269,49.0728695],[2.0251549,49.0729651],[2.0251797,49.0731906],[2.0255684,49.0731966],[2.025561,49.0734333],[2.0263916,49.0734371],[2.0265319,49.0734709],[2.0265288,49.0736286],[2.0269187,49.0736748],[2.0268747,49.0739471],[2.0268604,49.0739685],[2.0261491,49.0739208],[2.0255255,49.0739237],[2.0241531,49.0740382],[2.0234352,49.074159],[2.0222206,49.0744793],[2.0212931,49.0748645],[2.0208684,49.0749459],[2.0192877,49.0755593],[2.0189686,49.0757124],[2.0188257,49.0757964],[2.0182632,49.0762743],[2.018025,49.0764129],[2.017783,49.0765121],[2.0174227,49.07659],[2.0171925,49.0767524],[2.0168824,49.0768195],[2.0166586,49.0769105],[2.016311,49.0773541],[2.0162046,49.077418],[2.0160733,49.0774452],[2.0158222,49.0774335],[2.015224,49.077584],[2.014876,49.0769257],[2.0146983,49.0764455],[2.0138111,49.0754771],[2.0128264,49.0737152],[2.013081,49.0736426],[2.0128044,49.0717151],[2.012855,49.0701625],[2.0130691,49.0697523],[2.0164326,49.0686011],[2.0185864,49.0679088]]]]},"properties":{"code_section":"955100000E","code_commune":"95510","section_courte":"E"}},{"type":"Feature","geometry":{"type":"MultiPolygon","coordinates":[[[[2.0081492,49.0594821],[2.0047076,49.0604595],[2.0034136,49.0609164],[2.0025397,49.061108],[2.0012905,49.0612603],[2.0013766,49.0614273],[1.9996575,49.0619214],[1.9997151,49.0618998],[1.9981946,49.0596547],[2.0010648,49.0588663],[2.0030902,49.0582667],[2.0043108,49.057983],[2.0059174,49.0575017],[2.0066756,49.058399],[2.007109,49.0582539],[2.0081492,49.0594821]]]]},"properties":{"code_section":"95510000AA","code_commune":"95510","section_courte":"AA"}},{"type":"Feature","geometry":{"type":"MultiPolygon","coordinates":[[[[2.0152239,49.0552255],[2.015195,49.0551219],[2.0175264,49.05487],[2.0174786,49.0545878],[2.0181933,49.0543813],[2.0195157,49.0540822],[2.0197452,49.0541215],[2.0196648,49.0543884],[2.0196435,49.0546598],[2.0210054,49.054531],[2.0211053,49.0553163],[2.0210587,49.0553236],[2.0212819,49.0559677],[2.0214305,49.0565657],[2.0213737,49.056905],[2.0224609,49.0570182],[2.0224667,49.0574687],[2.0225077,49.0575778],[2.022591,49.0575607],[2.0230576,49.0583118],[2.0236161,49.0587567],[2.0241124,49.0593888],[2.0225748,49.0595241],[2.0211409,49.0598428],[2.0195948,49.0601215],[2.0190896,49.0597521],[2.0183045,49.0594365],[2.0177151,49.0590283],[2.0170338,49.0582892],[2.0170271,49.0582382],[2.0171096,49.0581806],[2.0173135,49.0581698],[2.0172154,49.0580523],[2.0166631,49.0580795],[2.0161142,49.0579881],[2.0152239,49.0552255]]]]},"properties":{"code_section":"95510000AB","code_commune":"95510","section_courte":"AB"}},{"type":"Feature","geometry":{"type":"MultiPolygon","coordinates":[[[[2.0257614,49.0554866],[2.0261578,49.0556898],[2.0288341,49.0568886],[2.0281965,49.0567676],[2.0291859,49.0572949],[2.0295713,49.0576394],[2.029468,49.057743],[2.0294193,49.0578871],[2.0294409,49.0581411],[2.0293088,49.0582461],[2.0288999,49.0584207],[2.02496,49.0592291],[2.0241245,49.0593666],[2.0241124,49.0593888],[2.0236161,49.0587567],[2.0230576,49.0583118],[2.022591,49.0575607],[2.0225077,49.0575778],[2.0224667,49.0574687],[2.0224609,49.0570182],[2.0213737,49.056905],[2.0214305,49.0565657],[2.0212819,49.0559677],[2.0210587,49.0553236],[2.0211053,49.0553163],[2.0210054,49.054531],[2.0234717,49.0542741],[2.0245554,49.0541887],[2.0247566,49.0545767],[2.0250583,49.0549478],[2.0253441,49.0552052],[2.0257614,49.0554866]]]]},"properties":{"code_section":"95510000HR","code_commune":"95510","section_courte":"HR"}},{"type":"Feature","geometry":{"type":"MultiPolygon","coordinates":[[[[1.9979163,49.0663105],[1.9924886,49.061219],[1.9981946,49.0596547],[1.9997151,49.0618998],[1.9996575,49.0619214],[2.0013766,49.0614273],[2.0019622,49.0625711],[2.0026424,49.0637387],[2.0039401,49.0656164],[1.9991456,49.0674659],[1.9979163,49.0663105]]]]},"properties":{"code_section":"95510000ZB","code_commune":"95510","section_courte":"ZB"}}]}