{"type":"FeatureCollection","features":[{"type":"Feature","geometry":{"type":"MultiPolygon","coordinates":[[[[2.5072236,49.0004702],[2.5074786,49.0012558],[2.5084812,49.003136],[2.5092344,49.0041298],[2.5076315,49.0047514],[2.5053206,49.0059908],[2.5045709,49.0062851],[2.5025871,49.0069855],[2.5016158,49.0072861],[2.5001225,49.0076389],[2.4988136,49.0077611],[2.4983248,49.007993],[2.4967794,49.008897],[2.4948551,49.0095348],[2.4912572,49.0102986],[2.4910566,49.0102539],[2.4905826,49.0103326],[2.4895591,49.0078662],[2.4890541,49.0053591],[2.4892311,49.0052537],[2.4881231,49.0022702],[2.4890223,49.002157],[2.4889735,49.0020026],[2.4891147,49.0020052],[2.4887328,49.0011707],[2.4890927,49.0011955],[2.4890662,49.0006972],[2.4892474,49.0007178],[2.4892305,49.0002389],[2.4882642,49.0002951],[2.487946,48.9989523],[2.4868949,48.9990544],[2.4857511,48.9993462],[2.4840112,48.9967471],[2.4860772,48.9961432],[2.4887015,48.9957561],[2.4920031,48.9952058],[2.4913909,48.9919648],[2.4914505,48.9918361],[2.4883829,48.9906454],[2.4897407,48.9904229],[2.4906044,48.9901855],[2.4913113,48.9900443],[2.4929616,48.9899534],[2.493354,48.9898274],[2.4951527,48.9887618],[2.4958594,48.988554],[2.4985127,48.9879671],[2.4997461,48.9875076],[2.501519,48.9871801],[2.5039751,48.9868633],[2.504693,48.9876758],[2.5066319,48.9893889],[2.5071653,48.9899347],[2.5106297,48.9938507],[2.5108774,48.9941966],[2.5116054,48.9964422],[2.5119255,48.9967277],[2.5125714,48.9970447],[2.5125429,48.9970671],[2.5121795,48.9970454],[2.5113955,48.9972327],[2.5098035,48.9972048],[2.5087574,48.9970767],[2.5074009,48.9973153],[2.5069461,48.9974576],[2.5067302,48.9976884],[2.5108634,48.9992773],[2.510371,49.0003658],[2.509767,49.0003006],[2.5084717,49.0004308],[2.5072236,49.0004702]]]]},"properties":{"code_section":"955270000C","code_commune":"95527","section_courte":"C"}},{"type":"Feature","geometry":{"type":"MultiPolygon","coordinates":[[[[2.4912572,49.0102986],[2.4948551,49.0095348],[2.4957829,49.0092393],[2.4967794,49.008897],[2.4983248,49.007993],[2.4988136,49.0077611],[2.5001225,49.0076389],[2.5016158,49.0072861],[2.5025871,49.0069855],[2.5045709,49.0062851],[2.5053206,49.0059908],[2.5076315,49.0047514],[2.5094514,49.0040419],[2.5105923,49.0054959],[2.5120313,49.0071089],[2.5121906,49.0072345],[2.5155194,49.0080031],[2.5151606,49.009055],[2.5150936,49.0100518],[2.5149432,49.0105293],[2.5149786,49.0105875],[2.5148844,49.0109292],[2.5149049,49.0111263],[2.5152283,49.0113846],[2.5151962,49.0115958],[2.5149101,49.011581],[2.5148151,49.0126513],[2.5147614,49.0126843],[2.5144675,49.0149265],[2.4924956,49.0137224],[2.4922326,49.0137765],[2.4922124,49.0136557],[2.4905722,49.0103535],[2.4910566,49.0102539],[2.4912572,49.0102986]]]]},"properties":{"code_section":"95527000AA","code_commune":"95527","section_courte":"AA"}},{"type":"Feature","geometry":{"type":"MultiPolygon","coordinates":[[[[2.510903,49.0260519],[2.5098474,49.0284558],[2.5097696,49.0283687],[2.5090549,49.0265433],[2.5073311,49.0267994],[2.507399,49.0264686],[2.5070232,49.0252928],[2.5068754,49.0253254],[2.5066837,49.0250034],[2.5064906,49.0248916],[2.5027215,49.0256046],[2.5027795,49.0257163],[2.5000149,49.0264026],[2.4936138,49.0163149],[2.4930942,49.0152993],[2.4928318,49.0149815],[2.4922326,49.0137765],[2.4924956,49.0137224],[2.5074178,49.0145396],[2.5074336,49.0200222],[2.5085693,49.0200862],[2.5090422,49.020195],[2.5122592,49.0203708],[2.5122179,49.0207729],[2.5124068,49.0207841],[2.5122497,49.0220462],[2.5123509,49.0227618],[2.5108267,49.0260283],[2.510903,49.0260519]]]]},"properties":{"code_section":"95527000AB","code_commune":"95527","section_courte":"AB"}},{"type":"Feature","geometry":{"type":"MultiPolygon","coordinates":[[[[2.5105349,49.0268901],[2.510903,49.0260519],[2.5108267,49.0260283],[2.5123509,49.0227618],[2.5122497,49.0220462],[2.5124068,49.0207841],[2.5122179,49.0207729],[2.5122592,49.0203708],[2.5090422,49.020195],[2.5085693,49.0200862],[2.5074336,49.0200222],[2.5074178,49.0145396],[2.5252013,49.0155121],[2.5252042,49.0177776],[2.5214298,49.0241963],[2.5212805,49.0253889],[2.5215159,49.0254014],[2.5217861,49.0270844],[2.5183308,49.0273919],[2.517308,49.0275254],[2.5098239,49.0286847],[2.5097671,49.0286733],[2.5098474,49.0284558],[2.5105349,49.0268901]]]]},"properties":{"code_section":"95527000AC","code_commune":"95527","section_courte":"AC"}},{"type":"Feature","geometry":{"type":"MultiPolygon","coordinates":[[[[2.5220318,49.0270609],[2.5217861,49.0270844],[2.5215159,49.0254014],[2.5212805,49.0253889],[2.5214298,49.0241963],[2.5252042,49.0177776],[2.5251892,49.013275],[2.5265128,49.012203],[2.5267143,49.0119238],[2.5276258,49.0119251],[2.5276427,49.0117568],[2.5276973,49.0116775],[2.5278133,49.0116059],[2.5279679,49.0115658],[2.5283395,49.011562],[2.5299949,49.0116487],[2.5299655,49.0115463],[2.5309933,49.0115403],[2.5314658,49.0114653],[2.5374857,49.0114605],[2.5388,49.0126419],[2.5380952,49.0150973],[2.538314,49.0151618],[2.5378943,49.0164382],[2.537365,49.0184508],[2.5363399,49.0184353],[2.5342807,49.0185167],[2.5344547,49.0198704],[2.5347615,49.0198545],[2.535349,49.0206794],[2.5353968,49.021656],[2.534657,49.0217065],[2.5349329,49.0238459],[2.5313494,49.0242572],[2.5313155,49.0241487],[2.5288716,49.0243428],[2.5292407,49.0268497],[2.5237295,49.0269144],[2.5220318,49.0270609]]]]},"properties":{"code_section":"95527000AD","code_commune":"95527","section_courte":"AD"}},{"type":"Feature","geometry":{"type":"MultiPolygon","coordinates":[[[[2.5407225,49.0114095],[2.5401993,49.0117026],[2.5388,49.0126419],[2.5374857,49.0114605],[2.5361099,49.0096645],[2.5361021,49.0080317],[2.535948,49.0078077],[2.5358563,49.0075018],[2.5358898,49.0072174],[2.5360185,49.0069676],[2.5354598,49.0064978],[2.5356943,49.0050879],[2.5384423,49.0051438],[2.5384035,49.0061094],[2.5413165,49.006186],[2.5414036,49.0053505],[2.5441038,49.0056081],[2.5442281,49.0045681],[2.5465985,49.004773],[2.546587,49.004882],[2.547684,49.0049305],[2.5479305,49.0029033],[2.5490806,49.0028655],[2.5488546,49.0065646],[2.5530521,49.0066179],[2.5530702,49.0078776],[2.5534882,49.0103711],[2.5535051,49.0108438],[2.5533752,49.0119018],[2.5500802,49.0119759],[2.5493653,49.0133895],[2.5490897,49.0149519],[2.5450596,49.0146902],[2.5452087,49.0136772],[2.5447345,49.0136901],[2.544846,49.0119596],[2.5428851,49.0117394],[2.5407225,49.0114095]]]]},"properties":{"code_section":"95527000AE","code_commune":"95527","section_courte":"AE"}},{"type":"Feature","geometry":{"type":"MultiPolygon","coordinates":[[[[2.5149432,49.0105293],[2.5150936,49.0100518],[2.5151606,49.009055],[2.5155194,49.0080031],[2.5157418,49.0079146],[2.5175437,49.0074536],[2.5176676,49.0074777],[2.5177779,49.0074505],[2.517701,49.0073505],[2.5190175,49.0069347],[2.5190991,49.006977],[2.5206781,49.0065106],[2.5205304,49.0064808],[2.5205585,49.0064712],[2.521122,49.0063311],[2.5234728,49.0067737],[2.5244144,49.0067677],[2.524881,49.0068124],[2.5253661,49.0069383],[2.5260945,49.0072597],[2.5282075,49.0076557],[2.528667,49.0071313],[2.5291553,49.0067017],[2.5298374,49.0062288],[2.530455,49.0058751],[2.5309433,49.0056885],[2.5314288,49.0055682],[2.5321385,49.0054842],[2.5326546,49.0054553],[2.5342597,49.0061783],[2.5354598,49.0064978],[2.5360185,49.0069676],[2.5358898,49.0072174],[2.5358563,49.0075018],[2.535948,49.0078077],[2.5361021,49.0080317],[2.5361099,49.0096645],[2.5374857,49.0114605],[2.5314658,49.0114653],[2.5309933,49.0115403],[2.5299655,49.0115463],[2.5299949,49.0116487],[2.5280667,49.0115551],[2.527892,49.01158],[2.5277252,49.0116526],[2.5276427,49.0117568],[2.5276258,49.0119251],[2.5267143,49.0119238],[2.5265128,49.012203],[2.5251892,49.013275],[2.5252013,49.0155121],[2.5144675,49.0149265],[2.5147614,49.0126843],[2.5148151,49.0126513],[2.5149101,49.011581],[2.5151962,49.0115958],[2.5152283,49.0113846],[2.5149049,49.0111263],[2.5148844,49.0109292],[2.5149786,49.0105875],[2.5149432,49.0105293]]]]},"properties":{"code_section":"95527000AH","code_commune":"95527","section_courte":"AH"}},{"type":"Feature","geometry":{"type":"MultiPolygon","coordinates":[[[[2.5162561,48.9998932],[2.515995,48.9995531],[2.515409,48.9990728],[2.5151402,48.9990935],[2.5139104,48.9993588],[2.5137414,48.9982049],[2.5135841,48.9977106],[2.5132953,48.9974633],[2.5133179,48.9974098],[2.5131878,48.9965194],[2.5133924,48.9957925],[2.513808,48.9952504],[2.5151981,48.9941595],[2.5155726,48.9940325],[2.5169082,48.9933649],[2.5170243,48.9934084],[2.518724,48.991445],[2.5189186,48.9909108],[2.5202705,48.9908847],[2.5204383,48.9921147],[2.5227961,48.9919063],[2.5232091,48.9940588],[2.5242027,48.9959691],[2.5251687,48.9970417],[2.5252296,48.9970122],[2.5277975,49.0004298],[2.5291269,49.000281],[2.5297542,49.0018665],[2.530657,49.001709],[2.5321743,49.005087],[2.53298,49.0054553],[2.5321385,49.0054842],[2.5314288,49.0055682],[2.5309433,49.0056885],[2.530455,49.0058751],[2.5298374,49.0062288],[2.5291553,49.0067017],[2.528667,49.0071313],[2.5282075,49.0076557],[2.5260945,49.0072597],[2.5253661,49.0069383],[2.524881,49.0068124],[2.5244144,49.0067677],[2.5234728,49.0067737],[2.5218734,49.0064736],[2.5221841,49.0063034],[2.5223044,49.0057963],[2.5223416,49.0056319],[2.5222828,49.0047315],[2.5213273,49.0026527],[2.5205466,49.0015066],[2.5192287,49.0016898],[2.5185999,49.0017459],[2.5186714,49.0021124],[2.5183695,49.0023472],[2.5183856,49.0024459],[2.5178003,49.0025164],[2.5175369,49.0013826],[2.517446,49.0013759],[2.5173004,49.0012977],[2.5172632,49.001178],[2.5173652,49.0010552],[2.5169654,49.000801],[2.518328,49.0007277],[2.51764,48.9996536],[2.5163667,49.0000538],[2.5162561,48.9998932]]]]},"properties":{"code_section":"95527000AI","code_commune":"95527","section_courte":"AI"}},{"type":"Feature","geometry":{"type":"MultiPolygon","coordinates":[[[[2.5015672,48.9823176],[2.5004481,48.9806567],[2.5005854,48.9805728],[2.4998878,48.9797984],[2.5007342,48.9794632],[2.501842,48.978666],[2.5037386,48.9795214],[2.5048783,48.978825],[2.5068502,48.9798176],[2.5066453,48.9801558],[2.5088456,48.9806207],[2.5093225,48.9799442],[2.5109033,48.9804471],[2.5107018,48.9807667],[2.5147811,48.9821559],[2.5122922,48.9859174],[2.5170534,48.9860751],[2.5167754,48.9877129],[2.5191805,48.9877977],[2.5189606,48.9905163],[2.5189915,48.9905172],[2.5188921,48.9910227],[2.518724,48.991445],[2.5170243,48.9934084],[2.5169082,48.9933649],[2.5155726,48.9940325],[2.5151981,48.9941595],[2.5081582,48.9877195],[2.5065344,48.9863015],[2.501778,48.9829529],[2.5015061,48.9823771],[2.5015672,48.9823176]]]]},"properties":{"code_section":"95527000AK","code_commune":"95527","section_courte":"AK"}},{"type":"Feature","geometry":{"type":"MultiPolygon","coordinates":[[[[2.5131926,48.9966102],[2.5133179,48.9974098],[2.5132953,48.9974633],[2.5135841,48.9977106],[2.5137414,48.9982049],[2.5138385,48.9987498],[2.5122307,48.9988123],[2.5121633,48.9996356],[2.5120989,48.9997532],[2.5067302,48.9976884],[2.5069461,48.9974576],[2.5074009,48.9973153],[2.5087574,48.9970767],[2.5098035,48.9972048],[2.5113955,48.9972327],[2.5121795,48.9970454],[2.5125429,48.9970671],[2.5125714,48.9970447],[2.5119255,48.9967277],[2.5116054,48.9964422],[2.5108774,48.9941966],[2.5106297,48.9938507],[2.5071653,48.9899347],[2.5066319,48.9893889],[2.504693,48.9876758],[2.5039751,48.9868633],[2.5032474,48.9857582],[2.5024457,48.9844193],[2.501778,48.9829529],[2.5065344,48.9863015],[2.5081582,48.9877195],[2.5151981,48.9941595],[2.513808,48.9952504],[2.5133924,48.9957925],[2.5131926,48.9966102]]]]},"properties":{"code_section":"95527000AL","code_commune":"95527","section_courte":"AL"}},{"type":"Feature","geometry":{"type":"MultiPolygon","coordinates":[[[[2.5127649,48.9987857],[2.5138385,48.9987498],[2.5139104,48.9993588],[2.5151402,48.9990935],[2.515409,48.9990728],[2.515995,48.9995531],[2.5163667,49.0000538],[2.51764,48.9996536],[2.518328,49.0007277],[2.5169654,49.000801],[2.5173652,49.0010552],[2.5172632,49.001178],[2.5173004,49.0012977],[2.517446,49.0013759],[2.5175369,49.0013826],[2.5178003,49.0025164],[2.5177479,49.0025227],[2.5178334,49.0029279],[2.5176014,49.0028699],[2.5173007,49.0028866],[2.5177329,49.0037999],[2.5152938,49.0040602],[2.5141194,49.0040753],[2.5137291,49.0040038],[2.5130576,49.0037912],[2.5124559,49.0036745],[2.5113784,49.0036044],[2.5106289,49.003657],[2.5101743,49.0037606],[2.5092344,49.0041298],[2.5084812,49.003136],[2.5074786,49.0012558],[2.5072236,49.0004702],[2.5084717,49.0004308],[2.509767,49.0003006],[2.510371,49.0003658],[2.5108634,48.9992773],[2.5120989,48.9997532],[2.5121633,48.9996356],[2.5122307,48.9988123],[2.5127649,48.9987857]]]]},"properties":{"code_section":"95527000AM","code_commune":"95527","section_courte":"AM"}},{"type":"Feature","geometry":{"type":"MultiPolygon","coordinates":[[[[2.5105923,49.0054959],[2.5094514,49.0040419],[2.5101743,49.0037606],[2.5106289,49.003657],[2.5113784,49.0036044],[2.5124559,49.0036745],[2.5130576,49.0037912],[2.5137291,49.0040038],[2.5141194,49.0040753],[2.5152938,49.0040602],[2.5177329,49.0037999],[2.5173007,49.0028866],[2.5176014,49.0028699],[2.5178334,49.0029279],[2.5177479,49.0025227],[2.5183856,49.0024459],[2.5183695,49.0023472],[2.5186714,49.0021124],[2.5185999,49.0017459],[2.5192287,49.0016898],[2.5205466,49.0015066],[2.5213273,49.0026527],[2.5222828,49.0047315],[2.5223416,49.0056319],[2.5221841,49.0063034],[2.5218734,49.0064736],[2.521122,49.0063311],[2.5209024,49.006383],[2.5205304,49.0064808],[2.5206781,49.0065106],[2.5190991,49.006977],[2.5190175,49.0069347],[2.517701,49.0073505],[2.5177779,49.0074505],[2.5176676,49.0074777],[2.5175437,49.0074536],[2.5157418,49.0079146],[2.5155194,49.0080031],[2.5121906,49.0072345],[2.5120313,49.0071089],[2.5105923,49.0054959]]]]},"properties":{"code_section":"95527000AN","code_commune":"95527","section_courte":"AN"}},{"type":"Feature","geometry":{"type":"MultiPolygon","coordinates":[[[[2.4877492,48.990417],[2.4914505,48.9918361],[2.4913909,48.9919648],[2.4920031,48.9952058],[2.4887543,48.9957298],[2.4877492,48.990417]]]]},"properties":{"code_section":"95527000ZB","code_commune":"95527","section_courte":"ZB"}}]}