{"type":"FeatureCollection","features":[{"type":"Feature","geometry":{"type":"MultiPolygon","coordinates":[[[[2.3498246,49.0128657],[2.349729,49.0128033],[2.3492565,49.0121018],[2.3489826,49.0118549],[2.3481064,49.011212],[2.3473039,49.0105618],[2.3470987,49.0100297],[2.3463005,49.0086431],[2.3461535,49.0082382],[2.3458608,49.0071133],[2.3455091,49.0061473],[2.3453103,49.0057235],[2.3463814,49.0052151],[2.3468531,49.0050515],[2.3480874,49.0048495],[2.3486743,49.0049338],[2.3506424,49.0047048],[2.3504274,49.0042071],[2.3534307,49.0038504],[2.354293,49.0036653],[2.3541889,49.0041131],[2.355802,49.0044501],[2.3572835,49.0045407],[2.3557823,49.0059003],[2.3581667,49.0064488],[2.358816,49.0065546],[2.359708,49.0066025],[2.3598219,49.0063649],[2.3604374,49.0064386],[2.3609468,49.0064532],[2.3613535,49.0064192],[2.3650939,49.0066616],[2.3649426,49.0068978],[2.3645895,49.0077604],[2.3642048,49.008565],[2.3637575,49.0093295],[2.3636002,49.0094606],[2.3632358,49.0096512],[2.3623693,49.010302],[2.3619435,49.0107715],[2.3617503,49.0110863],[2.361665,49.0113737],[2.3616299,49.0117613],[2.3616926,49.0122671],[2.361801,49.0126233],[2.3624422,49.014119],[2.362568,49.0147529],[2.3620995,49.0161794],[2.3621106,49.0165231],[2.3622496,49.0172146],[2.362698,49.0183981],[2.3627759,49.0189448],[2.3628523,49.0190977],[2.3632745,49.0197732],[2.3638524,49.0201771],[2.3632895,49.0199881],[2.3626803,49.0195947],[2.3610025,49.0187938],[2.3605189,49.0184757],[2.3594558,49.0175936],[2.3579428,49.0164516],[2.3570561,49.0159866],[2.3560236,49.0155492],[2.3552989,49.015199],[2.3534479,49.0140987],[2.3531011,49.013976],[2.3524775,49.0138409],[2.3516599,49.0135875],[2.3517556,49.0133418],[2.3498246,49.0128657]]]]},"properties":{"code_section":"955390000A","code_commune":"95539","section_courte":"A"}},{"type":"Feature","geometry":{"type":"MultiPolygon","coordinates":[[[[2.3596457,48.9899347],[2.3609503,48.9866809],[2.361861,48.9868336],[2.3626318,48.9871225],[2.363849,48.9875192],[2.3639864,48.9875914],[2.366659,48.9901908],[2.3651838,48.9908639],[2.3664685,48.991854],[2.3652084,48.9931344],[2.3647006,48.9929434],[2.3638431,48.9925207],[2.3625878,48.9920536],[2.3617765,48.9916987],[2.3611754,48.9914184],[2.3599013,48.9906985],[2.3594686,48.9904311],[2.3596457,48.9899347]]]]},"properties":{"code_section":"955390000B","code_commune":"95539","section_courte":"B"}},{"type":"Feature","geometry":{"type":"MultiPolygon","coordinates":[[[[2.3500285,48.996125],[2.346751,48.9959603],[2.3454363,48.9959254],[2.3441756,48.9957106],[2.3428152,48.9952725],[2.3417219,48.9950706],[2.3403314,48.9948767],[2.3391763,48.9945967],[2.3384613,48.9944077],[2.337006,48.9938836],[2.3358469,48.9935724],[2.3360757,48.9933708],[2.3364944,48.9931085],[2.3369715,48.9928731],[2.3373443,48.9927537],[2.3369807,48.9932688],[2.337644,48.9933059],[2.3376611,48.9933626],[2.3387354,48.9932878],[2.3391849,48.9932941],[2.3391827,48.9936002],[2.3393771,48.9937717],[2.3410754,48.9938409],[2.3416175,48.9937672],[2.3416071,48.9936285],[2.3426837,48.9935764],[2.3445031,48.9935677],[2.3472016,48.9933361],[2.3479634,48.9933556],[2.3494027,48.9933153],[2.3504573,48.9931569],[2.3505309,48.9936524],[2.350392,48.9942484],[2.3502746,48.9944981],[2.3506984,48.996051],[2.3500285,48.996125]]]]},"properties":{"code_section":"955390000C","code_commune":"95539","section_courte":"C"}},{"type":"Feature","geometry":{"type":"MultiPolygon","coordinates":[[[[2.3406845,49.0014515],[2.3400166,49.0000318],[2.3398625,48.9997995],[2.3393973,48.9992938],[2.3389172,48.9989106],[2.338487,48.9984619],[2.3383534,48.9979931],[2.3381129,48.9973995],[2.3379269,48.9970791],[2.337462,48.996626],[2.3368625,48.9962483],[2.3362265,48.9956734],[2.3358131,48.9946896],[2.3356845,48.9945185],[2.335153,48.9941079],[2.3358469,48.9935724],[2.337006,48.9938836],[2.3384613,48.9944077],[2.3403314,48.9948767],[2.3417219,48.9950706],[2.3428152,48.9952725],[2.3441756,48.9957106],[2.3454363,48.9959254],[2.346751,48.9959603],[2.3486121,48.9999344],[2.3468527,49.0004917],[2.3463016,49.0007699],[2.3456076,49.0013991],[2.3452205,49.001636],[2.3450248,49.0016892],[2.3443062,49.0017953],[2.3439931,49.0018691],[2.3426313,49.0016508],[2.3422851,49.0016234],[2.340849,49.0017234],[2.3406845,49.0014515]]]]},"properties":{"code_section":"955390000D","code_commune":"95539","section_courte":"D"}},{"type":"Feature","geometry":{"type":"MultiPolygon","coordinates":[[[[2.321672,49.0094284],[2.3212773,49.0090008],[2.3208414,49.0072377],[2.3205683,49.0064199],[2.3205471,49.0055857],[2.3219503,49.0051256],[2.3223942,49.0048437],[2.3229605,49.0045938],[2.3236857,49.004288],[2.3256912,49.0035244],[2.3268284,49.0032096],[2.3276084,49.0029158],[2.3284804,49.0023979],[2.3300486,49.0018093],[2.3313619,49.0016393],[2.3312732,49.0015253],[2.3309568,49.0006409],[2.330764,49.0005258],[2.3301481,49.0003291],[2.3298782,48.999867],[2.3329174,48.9994255],[2.3327809,48.9986374],[2.3326311,48.9982506],[2.3322574,48.9983288],[2.3320411,48.9974488],[2.3361422,48.9969255],[2.3359361,48.9964506],[2.3368625,48.9962483],[2.337462,48.996626],[2.3379269,48.9970791],[2.3381129,48.9973995],[2.3383534,48.9979932],[2.338487,48.998462],[2.3389172,48.9989106],[2.3393973,48.9992938],[2.3398625,48.9997995],[2.3400166,49.0000319],[2.3406845,49.0014515],[2.340849,49.0017234],[2.3422851,49.0016234],[2.3426313,49.0016508],[2.3439931,49.0018691],[2.3451335,49.0016669],[2.3456076,49.0013991],[2.3463016,49.0007699],[2.3468527,49.0004917],[2.3486121,48.9999344],[2.3506424,49.0047048],[2.3486743,49.0049338],[2.3480874,49.0048495],[2.3468531,49.0050515],[2.3460518,49.0053507],[2.345221,49.0057844],[2.343002,49.0061351],[2.3423109,49.0063974],[2.340922,49.0067407],[2.3400968,49.0068418],[2.3399647,49.0067102],[2.3390773,49.0068297],[2.3384461,49.0069628],[2.3380466,49.0071001],[2.3367051,49.007424],[2.33614,49.0076227],[2.335896,49.0076743],[2.3355338,49.0078222],[2.3352803,49.0078389],[2.3349764,49.0079904],[2.3346124,49.0080466],[2.3345248,49.008084],[2.3343613,49.0082325],[2.3340799,49.0083174],[2.3340038,49.0084175],[2.3338026,49.008474],[2.3333461,49.0083539],[2.3332607,49.0083957],[2.3329781,49.0084038],[2.3327128,49.0083512],[2.3326219,49.0082821],[2.3324665,49.0083422],[2.3323038,49.0083199],[2.3320041,49.0084379],[2.3318863,49.0084444],[2.3317956,49.0085011],[2.3313997,49.0086247],[2.3312981,49.0087211],[2.3307483,49.0088174],[2.3302985,49.0088523],[2.3300744,49.0089137],[2.3299313,49.0090177],[2.3294703,49.009117],[2.3290702,49.0091359],[2.328976,49.0091171],[2.328804,49.0090061],[2.3285291,49.0090897],[2.3282796,49.0092513],[2.3281632,49.0092921],[2.3280821,49.0093709],[2.3279916,49.0093776],[2.3277016,49.0095851],[2.3269812,49.0097622],[2.3247923,49.0097959],[2.3231988,49.0100383],[2.3223785,49.0100727],[2.3219829,49.0101743],[2.321672,49.0094284]]]]},"properties":{"code_section":"955390000F","code_commune":"95539","section_courte":"F"}},{"type":"Feature","geometry":{"type":"MultiPolygon","coordinates":[[[[2.3528183,49.0039232],[2.3504274,49.0042071],[2.3496993,49.0024326],[2.3485228,48.9997468],[2.3516711,48.9991043],[2.3517713,48.9995683],[2.3535289,48.9994395],[2.3541366,48.9994239],[2.3545212,48.9994634],[2.3551596,48.9994398],[2.3558021,48.9995038],[2.3553221,49.0008872],[2.3587614,49.001145],[2.3590623,49.0011169],[2.3594122,49.0011448],[2.3592055,49.0018289],[2.3585886,49.0029629],[2.357888,49.0039261],[2.3572835,49.0045407],[2.355802,49.0044501],[2.3541889,49.0041131],[2.354293,49.0036653],[2.3534307,49.0038504],[2.3528183,49.0039232]]]]},"properties":{"code_section":"95539000AB","code_commune":"95539","section_courte":"AB"}},{"type":"Feature","geometry":{"type":"MultiPolygon","coordinates":[[[[2.3554732,49.0008978],[2.3553221,49.0008872],[2.3558021,48.9995038],[2.3572884,48.9958568],[2.3592904,48.9959185],[2.3593987,48.996022],[2.3605521,48.9967299],[2.3608696,48.9968447],[2.3594122,49.0011448],[2.3590621,49.0011169],[2.3587614,49.001145],[2.3554732,49.0008978]]]]},"properties":{"code_section":"95539000AC","code_commune":"95539","section_courte":"AC"}},{"type":"Feature","geometry":{"type":"MultiPolygon","coordinates":[[[[2.3673113,48.9939204],[2.3688671,48.9945246],[2.3689273,48.9945129],[2.3699002,48.9949474],[2.3699457,48.9952638],[2.3699025,48.9954887],[2.3695125,48.9962762],[2.3692874,48.9965774],[2.3684936,48.9974094],[2.3683584,48.9976234],[2.3682905,48.997967],[2.3683095,48.9982652],[2.368514,48.9989441],[2.3634479,48.9979619],[2.3628538,48.9978206],[2.3630268,48.997273],[2.361998,48.9970754],[2.3618074,48.9971289],[2.3617676,48.9972494],[2.3609227,48.9968655],[2.3605521,48.9967299],[2.3593987,48.996022],[2.3592904,48.9959185],[2.3572884,48.9958568],[2.3594686,48.9904312],[2.3611754,48.9914184],[2.3617765,48.9916987],[2.3625878,48.9920536],[2.3638431,48.9925207],[2.364422,48.9928169],[2.3649875,48.9930599],[2.3673113,48.9939204]]]]},"properties":{"code_section":"95539000AD","code_commune":"95539","section_courte":"AD"}},{"type":"Feature","geometry":{"type":"MultiPolygon","coordinates":[[[[2.3504743,48.9951493],[2.3502746,48.9944981],[2.350392,48.9942484],[2.3505309,48.9936524],[2.3504573,48.9931569],[2.3504636,48.9929265],[2.350385,48.992656],[2.3502504,48.9907958],[2.3535191,48.991166],[2.3545809,48.9912504],[2.3568801,48.9913489],[2.3567629,48.9899541],[2.3568056,48.9896939],[2.3569262,48.9893831],[2.3570377,48.9895058],[2.3572074,48.9896056],[2.3586365,48.9901041],[2.3594686,48.9904312],[2.3573588,48.9956902],[2.3564322,48.9954726],[2.3555303,48.9954361],[2.3548458,48.9954946],[2.3539329,48.9954627],[2.3515643,48.995851],[2.3506984,48.996051],[2.3504743,48.9951493]]]]},"properties":{"code_section":"95539000AE","code_commune":"95539","section_courte":"AE"}},{"type":"Feature","geometry":{"type":"MultiPolygon","coordinates":[[[[2.3563719,48.9980631],[2.3558021,48.9995038],[2.3551596,48.9994398],[2.3545211,48.9994634],[2.3541366,48.9994239],[2.3535289,48.9994395],[2.3517713,48.9995683],[2.3516711,48.9991043],[2.3485228,48.9997468],[2.346751,48.9959603],[2.3500285,48.996125],[2.3506984,48.996051],[2.3515643,48.995851],[2.3539329,48.9954627],[2.3548458,48.9954946],[2.3555303,48.9954361],[2.3564322,48.9954726],[2.3573588,48.9956902],[2.3563719,48.9980631]]]]},"properties":{"code_section":"95539000AH","code_commune":"95539","section_courte":"AH"}},{"type":"Feature","geometry":{"type":"MultiPolygon","coordinates":[[[[2.3359361,48.9964506],[2.3361422,48.9969255],[2.3320411,48.9974488],[2.3318608,48.9968559],[2.331694,48.9967985],[2.331448,48.9956496],[2.3316294,48.9955749],[2.3323741,48.995517],[2.3330217,48.9952999],[2.3334921,48.9950901],[2.3348028,48.9943623],[2.335153,48.9941079],[2.3356845,48.9945185],[2.3359344,48.9949114],[2.3362265,48.9956734],[2.3368625,48.9962483],[2.3359361,48.9964506]]]]},"properties":{"code_section":"95539000AI","code_commune":"95539","section_courte":"AI"}},{"type":"Feature","geometry":{"type":"MultiPolygon","coordinates":[[[[2.3573708,49.0062595],[2.3557823,49.0059003],[2.3572835,49.0045407],[2.357888,49.0039261],[2.3585886,49.0029629],[2.3592055,49.0018289],[2.360017,49.0016854],[2.3606197,49.0017996],[2.361041,49.00204],[2.3611759,49.0022544],[2.3611881,49.0024445],[2.361443,49.0026569],[2.3615629,49.002701],[2.3617114,49.0026249],[2.361857,49.0026895],[2.3619909,49.0026042],[2.3620476,49.002496],[2.3637736,49.0024661],[2.3641126,49.0023991],[2.3644475,49.0025051],[2.3645386,49.0024248],[2.3644064,49.0022463],[2.3647908,49.0021546],[2.3648871,49.0021784],[2.3649749,49.0021607],[2.3648836,49.0020054],[2.3648683,49.0017253],[2.3651392,49.0011347],[2.3669527,49.0020508],[2.3670897,49.0028815],[2.3670385,49.0034389],[2.3663625,49.0050061],[2.3657869,49.0059772],[2.3650939,49.0066616],[2.3613535,49.0064192],[2.3609468,49.0064532],[2.3604374,49.0064386],[2.3598219,49.0063649],[2.3597235,49.0065857],[2.3596603,49.0066056],[2.358816,49.0065546],[2.3581667,49.0064488],[2.3573708,49.0062595]]]]},"properties":{"code_section":"95539000AM","code_commune":"95539","section_courte":"AM"}},{"type":"Feature","geometry":{"type":"MultiPolygon","coordinates":[[[[2.3609227,48.9968655],[2.3617676,48.9972494],[2.3618074,48.9971289],[2.361998,48.9970754],[2.3630268,48.9972729],[2.3628538,48.9978206],[2.3634479,48.9979619],[2.368514,48.9989441],[2.3685471,48.9992114],[2.3683101,48.9998751],[2.3672094,49.0011776],[2.3670207,49.0016191],[2.3669527,49.0020508],[2.3651392,49.0011346],[2.3648683,49.0017253],[2.3648836,49.0020054],[2.3649749,49.0021607],[2.3648871,49.0021784],[2.3647908,49.0021546],[2.3644064,49.0022463],[2.3645386,49.0024248],[2.3644475,49.0025051],[2.3641126,49.0023991],[2.3637736,49.0024661],[2.3620476,49.002496],[2.3619909,49.0026042],[2.3618569,49.0026895],[2.3617114,49.0026249],[2.3615629,49.002701],[2.361443,49.0026569],[2.3611881,49.0024445],[2.3611759,49.0022544],[2.361041,49.00204],[2.3606197,49.0017996],[2.360017,49.0016853],[2.3592055,49.0018289],[2.3608696,48.9968447],[2.3609227,48.9968655]]]]},"properties":{"code_section":"95539000AN","code_commune":"95539","section_courte":"AN"}}]}