{"type":"FeatureCollection","features":[{"type":"Feature","geometry":{"type":"MultiPolygon","coordinates":[[[[2.2431472,48.9806466],[2.2437994,48.9804318],[2.2441312,48.9807132],[2.2437854,48.9811128],[2.2437809,48.9810705],[2.2434835,48.9810434],[2.2434623,48.981166],[2.243184,48.9812506],[2.2432035,48.9813862],[2.2432815,48.981383],[2.2432946,48.9816621],[2.2432323,48.9816678],[2.2432432,48.9817761],[2.2428221,48.9823122],[2.2432655,48.9836082],[2.2427041,48.9836585],[2.2394361,48.9837393],[2.2371437,48.9841432],[2.2361819,48.9841203],[2.2355344,48.9822205],[2.2354857,48.9817877],[2.2355716,48.9812021],[2.2355453,48.9808671],[2.2352651,48.9801089],[2.2357476,48.9799379],[2.2359217,48.9796156],[2.2361904,48.9793227],[2.2372423,48.9789967],[2.2369527,48.9784836],[2.2368615,48.9781999],[2.2365532,48.9762495],[2.2406614,48.9756136],[2.2403745,48.9758939],[2.2401266,48.9762283],[2.2399157,48.9766308],[2.2398241,48.9769644],[2.2398438,48.977527],[2.2399942,48.9781756],[2.2404291,48.9791206],[2.2413441,48.9789965],[2.2414423,48.9791008],[2.2414385,48.9791828],[2.2421583,48.9799918],[2.2421455,48.9800371],[2.2422139,48.9800114],[2.242849,48.9807383],[2.2431472,48.9806466]]]]},"properties":{"code_section":"95582000AB","code_commune":"95582","section_courte":"AB"}},{"type":"Feature","geometry":{"type":"MultiPolygon","coordinates":[[[[2.2469745,48.976372],[2.247403,48.9768535],[2.2472244,48.9769277],[2.2472986,48.977009],[2.2469506,48.9771428],[2.2472734,48.9774938],[2.2475521,48.9773926],[2.2476872,48.9774749],[2.2475537,48.9777477],[2.2480938,48.9783856],[2.2476477,48.978527],[2.248221,48.9794834],[2.2483133,48.9795354],[2.2468079,48.9798651],[2.2466953,48.979652],[2.2454684,48.979976],[2.2463046,48.9811517],[2.2433819,48.9816057],[2.2432432,48.9817761],[2.2432323,48.9816678],[2.2432946,48.9816621],[2.2433126,48.9815881],[2.2432815,48.981383],[2.2432035,48.9813862],[2.243184,48.9812506],[2.2434623,48.981166],[2.2434835,48.9810434],[2.2437809,48.9810705],[2.2437854,48.9811128],[2.244129,48.9807088],[2.2437994,48.9804318],[2.242849,48.9807383],[2.2422139,48.9800114],[2.2421455,48.9800371],[2.2421583,48.9799918],[2.2414385,48.9791828],[2.2414423,48.9791008],[2.2413441,48.9789965],[2.2404291,48.9791206],[2.2399942,48.9781756],[2.2398438,48.977527],[2.2398241,48.9769644],[2.2399157,48.9766308],[2.2401266,48.9762283],[2.2403745,48.9758939],[2.2406614,48.9756136],[2.2415338,48.9754363],[2.2422491,48.9752517],[2.2432832,48.974935],[2.2444696,48.9744689],[2.2452267,48.9740883],[2.2456171,48.9742698],[2.2462018,48.9738981],[2.2463197,48.9740815],[2.2458572,48.9742054],[2.245812,48.9742691],[2.2455415,48.9744318],[2.2463562,48.9754403],[2.2465537,48.9753661],[2.2469895,48.9758667],[2.2468338,48.9759262],[2.2471089,48.9762395],[2.2471087,48.9762991],[2.2469745,48.976372]]]]},"properties":{"code_section":"95582000AC","code_commune":"95582","section_courte":"AC"}},{"type":"Feature","geometry":{"type":"MultiPolygon","coordinates":[[[[2.2469525,48.9771433],[2.2472949,48.9770091],[2.2472247,48.976929],[2.2474015,48.9768553],[2.2469602,48.9763573],[2.2471087,48.9762991],[2.2471116,48.9762426],[2.2468338,48.9759262],[2.2469895,48.9758667],[2.2465564,48.9753658],[2.246356,48.9754405],[2.2455415,48.9744318],[2.245812,48.9742691],[2.2458572,48.9742054],[2.2463197,48.9740815],[2.2462018,48.9738981],[2.2456171,48.9742698],[2.2452267,48.9740883],[2.2461951,48.9735312],[2.2469631,48.9729465],[2.2475708,48.9723791],[2.2482789,48.9716426],[2.2487626,48.9710281],[2.2493414,48.971051],[2.2498382,48.9711308],[2.2505268,48.9711261],[2.2517194,48.9712598],[2.2511107,48.9730949],[2.2530932,48.9736149],[2.2508175,48.9745067],[2.2526127,48.9774661],[2.2526502,48.977616],[2.2525766,48.978698],[2.2526644,48.9788158],[2.2508279,48.9792016],[2.2502323,48.9792445],[2.2502321,48.9792187],[2.2483133,48.9795354],[2.2482094,48.9794718],[2.2476477,48.978527],[2.2480938,48.9783856],[2.2475537,48.9777477],[2.2476872,48.9774749],[2.2475525,48.9773918],[2.247276,48.9774925],[2.2469525,48.9771433]]]]},"properties":{"code_section":"95582000AD","code_commune":"95582","section_courte":"AD"}},{"type":"Feature","geometry":{"type":"MultiPolygon","coordinates":[[[[2.2545211,48.9784688],[2.2538445,48.9785701],[2.2526666,48.9788186],[2.2525766,48.978698],[2.2526502,48.977616],[2.2526127,48.9774661],[2.2508175,48.9745067],[2.2530932,48.9736149],[2.2562445,48.9721682],[2.2588581,48.9712801],[2.2596472,48.9725149],[2.259553,48.9729971],[2.2594883,48.9738146],[2.2578459,48.9740919],[2.2570336,48.9741953],[2.2581359,48.977882],[2.2583607,48.9782955],[2.2585507,48.978519],[2.2581124,48.9787007],[2.2579201,48.9787484],[2.2562269,48.9788831],[2.2561975,48.9783463],[2.2545211,48.9784688]]]]},"properties":{"code_section":"95582000AE","code_commune":"95582","section_courte":"AE"}},{"type":"Feature","geometry":{"type":"MultiPolygon","coordinates":[[[[2.2640378,48.9716807],[2.2639154,48.9716754],[2.2637125,48.9728025],[2.2637435,48.9727947],[2.2637221,48.9729317],[2.2636693,48.9729381],[2.2636278,48.9731317],[2.2635961,48.9733445],[2.263666,48.9734101],[2.2635857,48.9734272],[2.2634776,48.9740052],[2.2635739,48.9741658],[2.2634422,48.9741992],[2.2635608,48.974444],[2.2633393,48.9745652],[2.2631702,48.9753666],[2.2631892,48.9759928],[2.2633393,48.9766736],[2.2614213,48.9772538],[2.2585507,48.978519],[2.2583607,48.9782955],[2.2581359,48.977882],[2.2570336,48.9741953],[2.2578459,48.9740919],[2.2594883,48.9738146],[2.259553,48.9729971],[2.2596472,48.9725149],[2.2588581,48.9712801],[2.2623442,48.9700752],[2.2644523,48.9693087],[2.2644809,48.9695251],[2.2640378,48.9716807]]]]},"properties":{"code_section":"95582000AH","code_commune":"95582","section_courte":"AH"}},{"type":"Feature","geometry":{"type":"MultiPolygon","coordinates":[[[[2.2637832,48.9723588],[2.2639154,48.9716754],[2.2640378,48.9716807],[2.2640169,48.9717849],[2.2644422,48.9725766],[2.267039,48.9721376],[2.268911,48.9718536],[2.2699236,48.9716561],[2.2701379,48.9716431],[2.2709218,48.9717014],[2.2724442,48.971411],[2.2731793,48.9726317],[2.2710981,48.9730572],[2.2722021,48.9745196],[2.2716317,48.9748358],[2.2734117,48.9766686],[2.2726595,48.9768827],[2.2720007,48.97702],[2.2713029,48.9770465],[2.2705597,48.9769251],[2.2702852,48.9771755],[2.2676572,48.9767392],[2.267638,48.9765046],[2.2667191,48.9762748],[2.2633362,48.9766616],[2.2631892,48.9759928],[2.2631702,48.9753666],[2.2633393,48.9745652],[2.2635608,48.974444],[2.2634422,48.9741992],[2.2635739,48.9741658],[2.2634776,48.9740052],[2.2635857,48.9734272],[2.263666,48.9734101],[2.2635961,48.9733445],[2.2636693,48.9729381],[2.2637221,48.9729317],[2.2637832,48.9723588]]]]},"properties":{"code_section":"95582000AI","code_commune":"95582","section_courte":"AI"}},{"type":"Feature","geometry":{"type":"MultiPolygon","coordinates":[[[[2.2738746,48.9699852],[2.2739467,48.9701234],[2.2730051,48.9703163],[2.2734811,48.9711482],[2.2733886,48.9711421],[2.2735899,48.9715636],[2.2738862,48.9721234],[2.2739248,48.9721154],[2.2740385,48.9723151],[2.2734753,48.9724611],[2.2735485,48.9725517],[2.2731793,48.9726317],[2.2724442,48.971411],[2.2709218,48.9717014],[2.2701379,48.9716431],[2.2699236,48.9716561],[2.268911,48.9718536],[2.267039,48.9721376],[2.2644422,48.9725766],[2.2640169,48.9717849],[2.2644809,48.9695251],[2.2644523,48.9693087],[2.2657897,48.9688479],[2.2669134,48.9685155],[2.27022,48.9678515],[2.274927,48.966978],[2.2760471,48.968545],[2.2750386,48.9688223],[2.2753311,48.9692397],[2.2738107,48.9698609],[2.2738746,48.9699852]]]]},"properties":{"code_section":"95582000AK","code_commune":"95582","section_courte":"AK"}},{"type":"Feature","geometry":{"type":"MultiPolygon","coordinates":[[[[2.2641668,48.967841],[2.2642154,48.9672377],[2.2643372,48.9672071],[2.264309,48.9668686],[2.2643724,48.9666246],[2.2642702,48.9666143],[2.2643363,48.9664157],[2.2645268,48.966018],[2.2646132,48.9660673],[2.264582,48.9660038],[2.2646182,48.9658856],[2.2649884,48.9653795],[2.2652613,48.9651224],[2.2659031,48.9646667],[2.2660094,48.9646502],[2.2660062,48.9645948],[2.2666277,48.964291],[2.2675624,48.9639817],[2.2679412,48.9639193],[2.2679635,48.963993],[2.2680901,48.9640217],[2.2683019,48.9639817],[2.2687969,48.9639603],[2.2708115,48.9640906],[2.2713258,48.9641502],[2.2713343,48.9642986],[2.2730834,48.9642394],[2.2730755,48.9636489],[2.2736863,48.963778],[2.2742423,48.9639707],[2.2745848,48.9650048],[2.2752515,48.9649187],[2.2753313,48.9652457],[2.2735998,48.9654315],[2.2741382,48.9671238],[2.27022,48.9678515],[2.2669134,48.9685155],[2.2657897,48.9688479],[2.2642044,48.969394],[2.2642343,48.9678334],[2.2641668,48.967841]]]]},"properties":{"code_section":"95582000AL","code_commune":"95582","section_courte":"AL"}},{"type":"Feature","geometry":{"type":"MultiPolygon","coordinates":[[[[2.2642721,48.9666117],[2.2643724,48.9666246],[2.264309,48.9668686],[2.2643372,48.9672071],[2.2642168,48.9672359],[2.2641891,48.9673863],[2.2641711,48.9678409],[2.2642371,48.967835],[2.2642044,48.969394],[2.2612854,48.9704378],[2.2611976,48.9703611],[2.2589722,48.969779],[2.2595591,48.9675464],[2.2595679,48.9665145],[2.2588861,48.9655716],[2.2604439,48.9650198],[2.2598296,48.9643279],[2.2586202,48.964384],[2.258587,48.9640522],[2.2586244,48.9640507],[2.2585269,48.9635783],[2.2588329,48.9635202],[2.258793,48.9634212],[2.2588656,48.9634199],[2.2589003,48.9634759],[2.2590611,48.963441],[2.2607438,48.9629459],[2.2611062,48.96288],[2.2620674,48.9626033],[2.2631655,48.9623318],[2.2631878,48.9623668],[2.2644701,48.9620235],[2.2646072,48.9621544],[2.265055,48.9629875],[2.265531,48.962911],[2.2656315,48.9629456],[2.2656753,48.9631134],[2.2657259,48.9631345],[2.2667793,48.9631052],[2.2677947,48.9631771],[2.2678222,48.9636601],[2.2683466,48.9638338],[2.2688125,48.9639288],[2.2687969,48.9639603],[2.2683019,48.9639817],[2.2680901,48.9640217],[2.2679612,48.9639866],[2.2679401,48.9639199],[2.2675607,48.9639826],[2.2667122,48.96426],[2.2660063,48.9645931],[2.2660062,48.9646475],[2.2659031,48.9646667],[2.2652628,48.9651231],[2.2649718,48.9654003],[2.2646182,48.9658856],[2.264582,48.9660038],[2.2646149,48.966068],[2.2645283,48.966015],[2.2642721,48.9666117]]]]},"properties":{"code_section":"95582000AM","code_commune":"95582","section_courte":"AM"}},{"type":"Feature","geometry":{"type":"MultiPolygon","coordinates":[[[[2.2595679,48.9665145],[2.2595591,48.9675464],[2.2589722,48.969779],[2.2611976,48.9703611],[2.2612854,48.9704378],[2.2562445,48.9721682],[2.2530932,48.9736149],[2.2511107,48.9730949],[2.2517194,48.9712598],[2.2505268,48.9711261],[2.2498382,48.9711308],[2.2493414,48.971051],[2.2487626,48.9710281],[2.2500334,48.9695455],[2.2509427,48.9687491],[2.2515594,48.9683425],[2.2524238,48.9678751],[2.2530263,48.967598],[2.255557,48.9666839],[2.2588861,48.9655716],[2.2595679,48.9665145]]]]},"properties":{"code_section":"95582000AN","code_commune":"95582","section_courte":"AN"}},{"type":"Feature","geometry":{"type":"MultiPolygon","coordinates":[[[[2.2494053,48.9653319],[2.2492553,48.9652509],[2.248158,48.9641581],[2.249101,48.9639686],[2.24909,48.9638779],[2.250018,48.963697],[2.2499884,48.9636452],[2.2535917,48.963481],[2.253692,48.9636604],[2.2544116,48.9634661],[2.2545973,48.9637296],[2.2547138,48.9637016],[2.2547101,48.9636637],[2.2551636,48.9635935],[2.2568522,48.9634195],[2.2568943,48.963634],[2.2569668,48.9636608],[2.258793,48.9634212],[2.2588349,48.9635212],[2.2585365,48.9635766],[2.2586306,48.9640498],[2.2585889,48.9640517],[2.2586198,48.9643822],[2.259828,48.9643259],[2.2604439,48.9650198],[2.2586098,48.9656694],[2.255557,48.9666839],[2.2530263,48.967598],[2.2524238,48.9678751],[2.2515594,48.9683425],[2.2509427,48.9687491],[2.2507437,48.9689198],[2.2505066,48.9688164],[2.2505165,48.9686142],[2.2497611,48.9687135],[2.2495807,48.9686963],[2.2487713,48.9684505],[2.2487329,48.9683847],[2.2487345,48.9682031],[2.248654,48.9681448],[2.2477863,48.967937],[2.2480438,48.9675789],[2.2485416,48.9675602],[2.2486545,48.967083],[2.2485377,48.9669987],[2.2485178,48.9667119],[2.2485783,48.966573],[2.2485373,48.9665245],[2.248149,48.966591],[2.2476812,48.9660089],[2.2480619,48.9658962],[2.2494053,48.9653319]]]]},"properties":{"code_section":"95582000AO","code_commune":"95582","section_courte":"AO"}},{"type":"Feature","geometry":{"type":"MultiPolygon","coordinates":[[[[2.2445577,48.9679552],[2.2452231,48.967639],[2.245099,48.9675393],[2.2450153,48.9675391],[2.2449019,48.9674325],[2.2449573,48.9673468],[2.2450744,48.9673019],[2.2449964,48.9672574],[2.2448217,48.9669183],[2.2445333,48.9669564],[2.2444657,48.9668659],[2.2453551,48.9667324],[2.2453725,48.9667801],[2.2456505,48.9667008],[2.2459094,48.9666727],[2.245882,48.9665906],[2.2469149,48.9663066],[2.2473474,48.9661182],[2.2473332,48.9660989],[2.2476779,48.9660104],[2.248149,48.966591],[2.2485373,48.9665245],[2.2485783,48.966573],[2.2485178,48.9667119],[2.2485377,48.9669987],[2.2486545,48.967083],[2.2485416,48.9675602],[2.2480438,48.9675789],[2.2477863,48.967937],[2.248654,48.9681448],[2.2487345,48.9682031],[2.2487329,48.9683847],[2.2487713,48.9684505],[2.2495807,48.9686963],[2.2497611,48.9687135],[2.2505165,48.9686142],[2.2505066,48.9688164],[2.2507437,48.9689198],[2.2500334,48.9695455],[2.2493549,48.9703074],[2.2482789,48.9716426],[2.2475708,48.9723791],[2.2469631,48.9729465],[2.2461951,48.9735312],[2.2452267,48.9740883],[2.2441684,48.9733758],[2.2439602,48.9733285],[2.2432087,48.9729292],[2.2423981,48.972634],[2.2408224,48.9721724],[2.2396245,48.9715364],[2.2392927,48.9713284],[2.2390702,48.97124],[2.2383808,48.9713223],[2.2374066,48.9710911],[2.2370738,48.9706153],[2.2395925,48.9698292],[2.2392643,48.9693352],[2.2407118,48.968986],[2.240772,48.9689844],[2.2408047,48.9691067],[2.2411802,48.9689738],[2.2409941,48.9688349],[2.2423813,48.9685458],[2.2424817,48.9687782],[2.2427134,48.9688297],[2.2430523,48.9687563],[2.243011,48.968712],[2.2442736,48.9683832],[2.2443244,48.9685067],[2.2444374,48.968541],[2.2447052,48.968529],[2.2448292,48.9684168],[2.2448129,48.9680599],[2.2448472,48.9679514],[2.2445585,48.9679858],[2.2445577,48.9679552]]]]},"properties":{"code_section":"95582000AP","code_commune":"95582","section_courte":"AP"}},{"type":"Feature","geometry":{"type":"MultiPolygon","coordinates":[[[[2.2374884,48.9704874],[2.2360588,48.9709325],[2.2362679,48.9701164],[2.2362372,48.9697293],[2.2358049,48.9698552],[2.2353804,48.969876],[2.2347069,48.9698399],[2.2347155,48.9697483],[2.2313906,48.9697206],[2.2306827,48.9691949],[2.2311502,48.9688207],[2.2314141,48.9684223],[2.2317494,48.9674997],[2.2330219,48.9678668],[2.2337804,48.967993],[2.2340005,48.9680745],[2.2347345,48.9682155],[2.2355967,48.9683191],[2.236423,48.9682511],[2.2376448,48.9679129],[2.2380429,48.9677144],[2.2383875,48.9676283],[2.2386896,48.9674905],[2.2401379,48.9671977],[2.2404111,48.9671761],[2.2410415,48.9668743],[2.2414976,48.9668962],[2.2420492,48.9668175],[2.2423647,48.9667497],[2.2427882,48.9665729],[2.243022,48.9668438],[2.2435112,48.9672318],[2.2436212,48.9671287],[2.2439638,48.9670222],[2.2448217,48.9669183],[2.2449964,48.9672574],[2.2450744,48.9673019],[2.2449573,48.9673468],[2.2449019,48.9674325],[2.2450153,48.9675391],[2.245099,48.9675393],[2.2452231,48.967639],[2.2445577,48.9679552],[2.2445585,48.9679858],[2.2448472,48.9679514],[2.2448129,48.9680599],[2.2448292,48.9684168],[2.2447408,48.968514],[2.2444374,48.968541],[2.2443244,48.9685067],[2.2442735,48.9683832],[2.243011,48.968712],[2.2430523,48.9687563],[2.2427134,48.9688297],[2.2424817,48.9687782],[2.2423813,48.9685458],[2.2409941,48.9688349],[2.2411802,48.9689738],[2.2408047,48.9691067],[2.240772,48.9689844],[2.2407118,48.968986],[2.2392643,48.9693352],[2.2395925,48.9698292],[2.2374884,48.9704874]]]]},"properties":{"code_section":"95582000AR","code_commune":"95582","section_courte":"AR"}},{"type":"Feature","geometry":{"type":"MultiPolygon","coordinates":[[[[2.2350256,48.9736629],[2.2334652,48.9734745],[2.2328841,48.9733652],[2.2321868,48.9732974],[2.2308533,48.9727624],[2.2300622,48.9725673],[2.2292991,48.9722905],[2.2288438,48.9728348],[2.2287588,48.9728699],[2.2274223,48.9722018],[2.2274189,48.9720914],[2.2271632,48.9719809],[2.2267086,48.9719551],[2.2262313,48.9717225],[2.2257498,48.9710204],[2.2303787,48.9701315],[2.2302911,48.9696122],[2.2301764,48.9696218],[2.230188,48.9695762],[2.2306827,48.9691949],[2.2313906,48.9697206],[2.2347155,48.9697483],[2.2347069,48.9698399],[2.2353804,48.969876],[2.2358049,48.9698552],[2.2362372,48.9697293],[2.2362679,48.9701164],[2.2360588,48.9709325],[2.2370738,48.9706153],[2.2374066,48.9710911],[2.2383808,48.9713223],[2.2390702,48.97124],[2.2392927,48.9713284],[2.2396245,48.9715364],[2.2408224,48.9721724],[2.2423981,48.972634],[2.2432087,48.9729292],[2.2439602,48.9733285],[2.2441684,48.9733758],[2.2452267,48.9740883],[2.2444696,48.9744689],[2.2432832,48.974935],[2.2422491,48.9752517],[2.2415338,48.9754363],[2.2407304,48.9756032],[2.2365532,48.9762495],[2.2364885,48.9756504],[2.2364488,48.9737633],[2.2357806,48.9736963],[2.2352165,48.9735942],[2.2351397,48.9736003],[2.2350256,48.9736629]]]]},"properties":{"code_section":"95582000AS","code_commune":"95582","section_courte":"AS"}}]}