{"type":"FeatureCollection","features":[{"type":"Feature","geometry":{"type":"MultiPolygon","coordinates":[[[[2.2972931,48.9805171],[2.2987075,48.980242],[2.2990236,48.9802329],[2.298956,48.9802721],[2.2988593,48.9811484],[2.3003448,48.9823204],[2.3003959,48.9823097],[2.3003628,48.9824006],[2.3005401,48.9825578],[2.3005762,48.9825232],[2.3041431,48.9841379],[2.3041261,48.984169],[2.3042239,48.9842119],[2.3021786,48.9869638],[2.301977,48.9878553],[2.3015549,48.9881003],[2.300872,48.9878636],[2.3000659,48.9876503],[2.2995111,48.9876076],[2.2986052,48.9876987],[2.2970704,48.9876742],[2.2968902,48.9871372],[2.2966343,48.9867345],[2.2965836,48.9863395],[2.2968975,48.9860986],[2.2959211,48.9855647],[2.2948812,48.9845263],[2.2937159,48.9831436],[2.2924878,48.9813976],[2.2925552,48.9813832],[2.2925975,48.9814548],[2.2926092,48.9814113],[2.2972931,48.9805171]]]]},"properties":{"code_section":"95598000AB","code_commune":"95598","section_courte":"AB"}},{"type":"Feature","geometry":{"type":"MultiPolygon","coordinates":[[[[2.3057947,48.9855571],[2.3038085,48.9849247],[2.3037903,48.9848884],[2.3037441,48.9849518],[2.3036816,48.9849319],[2.3042239,48.9842119],[2.3055628,48.9828656],[2.3058073,48.9824267],[2.3065545,48.9803007],[2.3067813,48.9802449],[2.3066275,48.9800387],[2.3067979,48.9791631],[2.307166,48.9789255],[2.3082491,48.97966],[2.3089417,48.9801815],[2.3098275,48.9810221],[2.311783,48.982743],[2.3123756,48.9834316],[2.311402,48.9838],[2.3100418,48.9842583],[2.3094539,48.9843705],[2.3083848,48.9848624],[2.3080568,48.9850661],[2.3076667,48.9854049],[2.3071045,48.9860182],[2.3070465,48.9860006],[2.3070696,48.9859621],[2.3057947,48.9855571]]]]},"properties":{"code_section":"95598000AC","code_commune":"95598","section_courte":"AC"}},{"type":"Feature","geometry":{"type":"MultiPolygon","coordinates":[[[[2.3041582,48.9794653],[2.3053871,48.9784957],[2.3070398,48.9773346],[2.3068309,48.978654],[2.3067979,48.9791631],[2.3066275,48.9800387],[2.3067813,48.9802449],[2.3065545,48.9803007],[2.3058073,48.9824267],[2.3055628,48.9828656],[2.3042239,48.9842119],[2.3041261,48.984169],[2.3041431,48.9841379],[2.3005762,48.9825232],[2.3005401,48.9825578],[2.3003628,48.9824006],[2.3003959,48.9823097],[2.3003448,48.9823204],[2.2988593,48.9811484],[2.298956,48.9802721],[2.2990236,48.9802329],[2.2998554,48.9802366],[2.299859,48.9802033],[2.2999614,48.9802075],[2.3000826,48.9788576],[2.3001217,48.9788344],[2.3007301,48.978862],[2.3008989,48.9788959],[2.3009412,48.9788722],[2.3017528,48.9789104],[2.3017878,48.9789391],[2.3017916,48.9789119],[2.3019555,48.9789196],[2.3019677,48.9787998],[2.3020146,48.9787756],[2.3028337,48.9788104],[2.3030247,48.9786907],[2.3041582,48.9794653]]]]},"properties":{"code_section":"95598000AD","code_commune":"95598","section_courte":"AD"}},{"type":"Feature","geometry":{"type":"MultiPolygon","coordinates":[[[[2.2915451,48.9775192],[2.2916235,48.9773223],[2.2916647,48.9762512],[2.2932823,48.976359],[2.2933619,48.9764656],[2.2937649,48.976496],[2.2941111,48.9766744],[2.2942598,48.976688],[2.2944647,48.9766298],[2.2956276,48.9760977],[2.2959231,48.9760186],[2.2967962,48.9758886],[2.2971884,48.9758824],[2.2977483,48.9750167],[2.2984805,48.9751564],[2.2990653,48.9752299],[2.301392,48.9753974],[2.301066,48.9760242],[2.3010139,48.9762491],[2.3014729,48.9764034],[2.3010708,48.9766165],[2.301034,48.9769999],[2.3030247,48.9786907],[2.3028337,48.9788104],[2.3020146,48.9787756],[2.3019677,48.9787998],[2.3019555,48.9789196],[2.3017916,48.9789119],[2.3017878,48.9789391],[2.3017528,48.9789104],[2.3009412,48.9788722],[2.3008989,48.9788959],[2.3007301,48.978862],[2.3001217,48.9788344],[2.3000826,48.9788576],[2.2999614,48.9802075],[2.299859,48.9802033],[2.2998554,48.9802366],[2.2987075,48.980242],[2.2926092,48.9814113],[2.2925975,48.9814548],[2.2925552,48.9813832],[2.2924878,48.9813976],[2.2923365,48.9811139],[2.2922419,48.9803842],[2.2919821,48.9797292],[2.2900406,48.9800489],[2.2917048,48.9789695],[2.2914451,48.9785115],[2.2913543,48.9781044],[2.2913463,48.9780101],[2.2915451,48.9775192]]]]},"properties":{"code_section":"95598000AE","code_commune":"95598","section_courte":"AE"}},{"type":"Feature","geometry":{"type":"MultiPolygon","coordinates":[[[[2.2865189,48.9881363],[2.2853636,48.987227],[2.2858141,48.9869843],[2.2839715,48.9856523],[2.2843301,48.9853406],[2.2850415,48.984554],[2.2853967,48.9842545],[2.285594,48.9840353],[2.2862898,48.9829093],[2.2865906,48.9825676],[2.2873971,48.9820964],[2.2877278,48.981726],[2.2879872,48.9815379],[2.2886175,48.9811972],[2.2889099,48.9809789],[2.2891657,48.9806104],[2.289437,48.9803933],[2.2900406,48.9800489],[2.2919821,48.9797292],[2.2922419,48.9803842],[2.2923365,48.9811139],[2.2924878,48.9813976],[2.2937159,48.9831436],[2.2948812,48.9845263],[2.2902815,48.9865469],[2.2901492,48.9865597],[2.2876408,48.9876728],[2.2865887,48.9881874],[2.2865189,48.9881363]]]]},"properties":{"code_section":"95598000AH","code_commune":"95598","section_courte":"AH"}},{"type":"Feature","geometry":{"type":"MultiPolygon","coordinates":[[[[2.3000245,48.9877038],[2.2988053,48.98875],[2.2987927,48.9889412],[2.2984339,48.9889318],[2.2984318,48.9889666],[2.2985286,48.9889716],[2.2984767,48.9889985],[2.2984353,48.9896674],[2.2984688,48.9897085],[2.2979235,48.9898056],[2.2979053,48.9897653],[2.2978521,48.9897734],[2.2980289,48.9902745],[2.2973469,48.990358],[2.2965532,48.9903973],[2.2957059,48.9900967],[2.294425,48.9897169],[2.292903,48.9896331],[2.2927089,48.9896753],[2.2913293,48.9901929],[2.2914036,48.9902343],[2.2922177,48.9914217],[2.2902966,48.992141],[2.2898409,48.9915166],[2.2896707,48.9915816],[2.2893458,48.9911865],[2.2893885,48.9911698],[2.2891235,48.99085],[2.2891795,48.9908292],[2.2888699,48.9904162],[2.288969,48.9903803],[2.2886289,48.9899443],[2.2873691,48.988557],[2.286851,48.9880538],[2.2876408,48.9876728],[2.2901492,48.9865597],[2.2902815,48.9865469],[2.2948812,48.9845263],[2.2959211,48.9855647],[2.2968975,48.9860986],[2.2965836,48.9863395],[2.2966343,48.9867345],[2.2968902,48.9871372],[2.2970704,48.9876742],[2.2986052,48.9876987],[2.2995111,48.9876076],[2.3000659,48.9876503],[2.3000781,48.9876932],[2.3000245,48.9877038]]]]},"properties":{"code_section":"95598000AI","code_commune":"95598","section_courte":"AI"}},{"type":"Feature","geometry":{"type":"MultiPolygon","coordinates":[[[[2.2931018,48.9896453],[2.294425,48.9897169],[2.2964241,48.9903316],[2.2976785,48.9912226],[2.297548,48.9913957],[2.2974826,48.9915588],[2.2974883,48.992567],[2.2974485,48.9930017],[2.29718,48.993694],[2.2968169,48.994313],[2.2957781,48.9955276],[2.2956792,48.9955646],[2.2958405,48.9955663],[2.2957756,48.9956446],[2.2955566,48.9955792],[2.2947702,48.9955944],[2.2940933,48.9956825],[2.2927784,48.995946],[2.2927041,48.9958042],[2.2927584,48.995788],[2.2908533,48.9928902],[2.2902966,48.992141],[2.2922177,48.9914217],[2.2914036,48.9902343],[2.2913293,48.9901929],[2.2927089,48.9896753],[2.292903,48.9896331],[2.2931018,48.9896453]]]]},"properties":{"code_section":"95598000AK","code_commune":"95598","section_courte":"AK"}},{"type":"Feature","geometry":{"type":"MultiPolygon","coordinates":[[[[2.2987802,48.9919857],[2.2999067,48.993063],[2.301399,48.9946008],[2.3024067,48.995527],[2.3036574,48.9973863],[2.2957794,48.9956459],[2.2958405,48.9955663],[2.2956792,48.9955646],[2.2957781,48.9955276],[2.2968169,48.994313],[2.29718,48.993694],[2.2974485,48.9930017],[2.2974883,48.992567],[2.2974826,48.9915588],[2.297548,48.9913957],[2.2976785,48.9912226],[2.2987802,48.9919857]]]]},"properties":{"code_section":"95598000AL","code_commune":"95598","section_courte":"AL"}},{"type":"Feature","geometry":{"type":"MultiPolygon","coordinates":[[[[2.3050144,48.9889111],[2.3058957,48.9893863],[2.3069948,48.990412],[2.3097228,48.9930831],[2.3059661,48.9938649],[2.3049815,48.9942017],[2.3039444,48.9946122],[2.3024067,48.995527],[2.301399,48.9946008],[2.2999067,48.993063],[2.2988003,48.992002],[2.2965532,48.9903973],[2.2973469,48.990358],[2.2980289,48.9902745],[2.2978521,48.9897734],[2.2979053,48.9897653],[2.2979235,48.9898056],[2.2984688,48.9897085],[2.2984353,48.9896674],[2.2984767,48.9889985],[2.2985286,48.9889716],[2.2984318,48.9889666],[2.2984339,48.9889318],[2.2987927,48.9889412],[2.2988053,48.98875],[2.3000245,48.9877038],[2.3000781,48.9876932],[2.3000659,48.9876503],[2.300872,48.9878636],[2.3015549,48.9881003],[2.301977,48.9878553],[2.3031046,48.9882704],[2.3037728,48.9883668],[2.3040836,48.98845],[2.3050144,48.9889111]]]]},"properties":{"code_section":"95598000AM","code_commune":"95598","section_courte":"AM"}},{"type":"Feature","geometry":{"type":"MultiPolygon","coordinates":[[[[2.3060209,48.9939517],[2.3075089,48.9958341],[2.3069824,48.9960232],[2.3069395,48.996106],[2.3071304,48.9960413],[2.3074871,48.9968713],[2.307635,48.9968596],[2.3079494,48.997534],[2.3078428,48.9975626],[2.3080587,48.9980191],[2.3080404,48.9980784],[2.3079784,48.9981123],[2.3076879,48.9981964],[2.3076262,48.998711],[2.3065191,48.999004],[2.306439,48.9989255],[2.3064015,48.9988151],[2.3058192,48.9984034],[2.3050884,48.9987034],[2.3050068,48.998596],[2.304808,48.9986412],[2.304939,48.9988252],[2.3047032,48.9989044],[2.3024067,48.995527],[2.3039444,48.9946122],[2.3049815,48.9942017],[2.3059661,48.9938649],[2.3060209,48.9939517]]]]},"properties":{"code_section":"95598000AN","code_commune":"95598","section_courte":"AN"}},{"type":"Feature","geometry":{"type":"MultiPolygon","coordinates":[[[[2.3098213,48.9974571],[2.3100869,48.9975916],[2.3106171,48.9977075],[2.3111039,48.998108],[2.3115348,48.9987871],[2.3121102,48.9989325],[2.3133595,48.9990917],[2.3140346,48.9993532],[2.314998,48.9998375],[2.3151963,48.9999057],[2.3155771,48.9999712],[2.3156591,49.0000124],[2.3155733,49.0001717],[2.31555,49.0003154],[2.3155332,49.0008257],[2.3151897,49.0010037],[2.3142958,49.0011889],[2.3140254,49.0012855],[2.31319,49.0018394],[2.3125003,49.0019813],[2.3118901,49.0020548],[2.3108042,49.0021049],[2.3087568,49.0017234],[2.3085629,49.0017648],[2.3075665,49.0022072],[2.3066334,49.0022904],[2.3059669,49.0025165],[2.305314,49.0015381],[2.3052006,49.0012497],[2.3051076,49.0011819],[2.3050017,49.0004788],[2.3051169,49.0000041],[2.3050067,48.9994969],[2.3050323,48.9993944],[2.3047032,48.9989044],[2.304939,48.9988252],[2.304808,48.9986412],[2.3050068,48.998596],[2.3050884,48.9987034],[2.3058192,48.9984034],[2.3064015,48.9988151],[2.3064828,48.9989918],[2.3065191,48.999004],[2.3070639,48.9988758],[2.3076262,48.998711],[2.3076879,48.9981964],[2.3080404,48.9980784],[2.3080587,48.9980191],[2.3079557,48.9978053],[2.308009,48.997759],[2.3093392,48.9975342],[2.3096562,48.9974255],[2.3098213,48.9974571]]]]},"properties":{"code_section":"95598000AO","code_commune":"95598","section_courte":"AO"}},{"type":"Feature","geometry":{"type":"MultiPolygon","coordinates":[[[[2.316198,48.9986422],[2.3162555,48.9985946],[2.3164727,48.9987815],[2.3165914,48.9989506],[2.3166077,48.9991119],[2.3163589,48.9994511],[2.3156591,49.0000124],[2.3155771,48.9999712],[2.3151963,48.9999057],[2.314998,48.9998375],[2.3140346,48.9993532],[2.3133595,48.9990917],[2.3121102,48.9989325],[2.3115348,48.9987871],[2.3111039,48.998108],[2.3106171,48.9977075],[2.3100869,48.9975916],[2.3098213,48.9974571],[2.3096562,48.9974255],[2.3093392,48.9975342],[2.308009,48.997759],[2.3079557,48.9978053],[2.3078428,48.9975626],[2.3079494,48.997534],[2.307635,48.9968596],[2.3074871,48.9968713],[2.3071304,48.9960413],[2.3069395,48.996106],[2.3069824,48.9960232],[2.3075089,48.9958341],[2.3059661,48.9938649],[2.31002,48.9930123],[2.3109286,48.9926751],[2.3122867,48.9936065],[2.3127361,48.9940044],[2.3133178,48.9944299],[2.313464,48.994661],[2.3132538,48.9949289],[2.3129036,48.9955439],[2.3129277,48.9957507],[2.3132635,48.9957765],[2.3132088,48.9959809],[2.3132688,48.9963832],[2.3138489,48.9967361],[2.3145251,48.996706],[2.3155594,48.9974771],[2.315276,48.9976707],[2.3155748,48.9978568],[2.3153031,48.9982674],[2.3161578,48.9986756],[2.316198,48.9986422]]]]},"properties":{"code_section":"95598000AP","code_commune":"95598","section_courte":"AP"}},{"type":"Feature","geometry":{"type":"MultiPolygon","coordinates":[[[[2.3037903,48.9848884],[2.3038085,48.9849247],[2.3070696,48.9859621],[2.3070465,48.9860006],[2.3071045,48.9860182],[2.3072012,48.9859255],[2.3095122,48.986704],[2.3115665,48.9880288],[2.3116706,48.9881241],[2.3118251,48.9883139],[2.3119834,48.9890647],[2.312065,48.9891415],[2.3130691,48.9894907],[2.3135094,48.9897385],[2.3138546,48.9897516],[2.313185,48.9905868],[2.3129028,48.9908218],[2.3123678,48.9910722],[2.3120543,48.9913662],[2.3121178,48.9913765],[2.3120476,48.9917877],[2.3122226,48.992173],[2.31002,48.9930123],[2.3097228,48.9930831],[2.3069948,48.990412],[2.3058957,48.9893863],[2.3040836,48.98845],[2.3037728,48.9883668],[2.3031046,48.9882704],[2.301977,48.9878553],[2.3021786,48.9869638],[2.3036816,48.9849319],[2.3037441,48.9849518],[2.3037903,48.9848884]]]]},"properties":{"code_section":"95598000AR","code_commune":"95598","section_courte":"AR"}}]}