{"type":"FeatureCollection","features":[{"type":"Feature","geometry":{"type":"MultiPolygon","coordinates":[[[[2.47238,49.0078241],[2.4760079,49.0073744],[2.4770029,49.0080452],[2.4775586,49.0083491],[2.4801158,49.0092295],[2.4819151,49.0098958],[2.4831494,49.0105051],[2.4842086,49.0111386],[2.4813284,49.0113015],[2.4787781,49.0115168],[2.4785364,49.0106347],[2.477475,49.010774],[2.4772449,49.0099008],[2.4758348,49.0100313],[2.475329,49.010114],[2.475348,49.0101667],[2.4730993,49.010516],[2.4725167,49.010397],[2.4726629,49.0099466],[2.4725714,49.0098973],[2.472448,49.0092618],[2.4721782,49.0085131],[2.4718093,49.0079208],[2.47238,49.0078241]]]]},"properties":{"code_section":"95612000AA","code_commune":"95612","section_courte":"AA"}},{"type":"Feature","geometry":{"type":"MultiPolygon","coordinates":[[[[2.4728966,49.0077421],[2.4718093,49.0079208],[2.4721782,49.0085131],[2.4722626,49.0087202],[2.472448,49.0092618],[2.4725714,49.0098973],[2.4696523,49.008297],[2.4695541,49.008371],[2.4694181,49.0086047],[2.469346,49.0088971],[2.4694537,49.0091578],[2.4694955,49.0091585],[2.4696868,49.0093132],[2.4675366,49.0097256],[2.4675066,49.009413],[2.4666618,49.0095167],[2.4665286,49.0093996],[2.4662971,49.008823],[2.4660614,49.0089712],[2.4656892,49.0091262],[2.4649012,49.0084674],[2.4647772,49.0083977],[2.4646845,49.0081995],[2.4643083,49.0077256],[2.4640411,49.0072336],[2.4638381,49.0066549],[2.4655207,49.0064742],[2.4658296,49.0064023],[2.4661458,49.0062677],[2.4664432,49.005894],[2.4664404,49.0057951],[2.4682954,49.005705],[2.4687594,49.005604],[2.4689034,49.0054548],[2.4690988,49.0055677],[2.4693697,49.005213],[2.4702139,49.0048596],[2.4715693,49.0043762],[2.4716943,49.0043406],[2.4725492,49.0043956],[2.4722062,49.0049389],[2.4722197,49.0051675],[2.4724265,49.0054217],[2.4736315,49.0058323],[2.4739176,49.0060332],[2.4745092,49.0066119],[2.4760079,49.0073744],[2.4728966,49.0077421]]]]},"properties":{"code_section":"95612000AB","code_commune":"95612","section_courte":"AB"}},{"type":"Feature","geometry":{"type":"MultiPolygon","coordinates":[[[[2.4778898,49.0019149],[2.4784832,49.0027839],[2.4775855,49.0029288],[2.4769764,49.0030597],[2.4776406,49.0040214],[2.4776698,49.0041125],[2.4759127,49.004129],[2.4746582,49.0047006],[2.4744472,49.0048325],[2.4740694,49.005257],[2.4736315,49.0058323],[2.4724265,49.0054217],[2.4722197,49.0051675],[2.4722062,49.0049389],[2.4724607,49.0045755],[2.4726176,49.0041757],[2.4725361,49.0038039],[2.4716295,49.0027299],[2.4714523,49.0026293],[2.4711614,49.0025666],[2.4747643,48.9990629],[2.4756281,48.9994588],[2.4761119,48.9994433],[2.4762389,49.0005951],[2.4768201,49.0004738],[2.4774332,49.0003917],[2.4779654,49.0011816],[2.4785999,49.0009982],[2.4786557,49.0015808],[2.4787205,49.0016318],[2.4784032,49.0017645],[2.4778898,49.0019149]]]]},"properties":{"code_section":"95612000AC","code_commune":"95612","section_courte":"AC"}},{"type":"Feature","geometry":{"type":"MultiPolygon","coordinates":[[[[2.4756597,48.9994673],[2.4747643,48.9990629],[2.4793229,48.9946144],[2.4804923,48.9958624],[2.4835465,48.9992947],[2.4835267,49.0000922],[2.4836045,49.0001148],[2.4838299,49.0011712],[2.483204,49.0010334],[2.4827259,49.0009947],[2.4795069,49.00136],[2.4791838,49.001439],[2.4787205,49.0016318],[2.4786557,49.0015808],[2.4785999,49.0009982],[2.4779654,49.0011816],[2.4774332,49.0003917],[2.4768201,49.0004738],[2.4762389,49.0005951],[2.4761119,48.9994433],[2.4756597,48.9994673]]]]},"properties":{"code_section":"95612000AD","code_commune":"95612","section_courte":"AD"}},{"type":"Feature","geometry":{"type":"MultiPolygon","coordinates":[[[[2.4711915,48.9948157],[2.4717749,48.9945595],[2.4735252,48.994185],[2.4743097,48.9938279],[2.4747743,48.9937084],[2.4751252,48.9936535],[2.4760585,48.9935996],[2.4765907,48.993589],[2.4771497,48.9936363],[2.4783415,48.9939614],[2.4788037,48.9940343],[2.4793229,48.9946144],[2.4729287,49.0008461],[2.4727579,49.0005047],[2.4725701,49.0003439],[2.4726308,49.0001145],[2.4724455,48.9995567],[2.4701037,48.9982593],[2.469476,48.997676],[2.4701355,48.9974626],[2.4696551,48.9968042],[2.4702711,48.9966146],[2.4701621,48.996393],[2.469835,48.9954102],[2.4711915,48.9948157]]]]},"properties":{"code_section":"95612000AE","code_commune":"95612","section_courte":"AE"}},{"type":"Feature","geometry":{"type":"MultiPolygon","coordinates":[[[[2.466287,48.9989758],[2.4651632,48.9984341],[2.4646815,48.9987374],[2.4647951,48.9990176],[2.4648847,48.9994917],[2.4648756,48.9999096],[2.4648006,49.0000669],[2.464222,48.9989647],[2.4634912,48.9980535],[2.462949,48.9975586],[2.461897,48.9978307],[2.4613205,48.9972299],[2.4623135,48.9968105],[2.4637156,48.9976251],[2.4653814,48.9953775],[2.4653284,48.9953558],[2.4662262,48.9942253],[2.4670831,48.9944542],[2.4670448,48.9945264],[2.467068,48.995014],[2.4672589,48.9952126],[2.4673619,48.9961645],[2.4680619,48.9959821],[2.4694449,48.9955612],[2.469835,48.9954102],[2.4701621,48.996393],[2.4702711,48.9966146],[2.4696551,48.9968042],[2.4701355,48.9974626],[2.469476,48.997676],[2.4701037,48.9982593],[2.4696032,48.9986139],[2.4687841,48.999117],[2.467482,48.9998066],[2.4669755,48.9993638],[2.466287,48.9989758]]]]},"properties":{"code_section":"95612000AH","code_commune":"95612","section_courte":"AH"}},{"type":"Feature","geometry":{"type":"MultiPolygon","coordinates":[[[[2.4722112,49.0015562],[2.4711614,49.0025666],[2.4707644,49.0023747],[2.4697817,49.0014534],[2.4695328,49.001279],[2.46839,49.001367],[2.4676341,49.0012719],[2.4660225,49.0013508],[2.4652336,49.0013142],[2.4648006,49.0000669],[2.4648756,48.9999096],[2.4648847,48.9994917],[2.4647951,48.9990176],[2.4646815,48.9987374],[2.4651632,48.9984341],[2.466597,48.9991397],[2.4669755,48.9993638],[2.467482,48.9998066],[2.4687841,48.999117],[2.4696032,48.9986139],[2.4701037,48.9982593],[2.4724455,48.9995567],[2.4726308,49.0001145],[2.4725701,49.0003439],[2.4727579,49.0005047],[2.4729287,49.0008461],[2.4722112,49.0015562]]]]},"properties":{"code_section":"95612000AI","code_commune":"95612","section_courte":"AI"}},{"type":"Feature","geometry":{"type":"MultiPolygon","coordinates":[[[[2.4682954,49.005705],[2.4664404,49.0057951],[2.4664432,49.005894],[2.4661458,49.0062677],[2.4658296,49.0064023],[2.4655207,49.0064742],[2.4638381,49.0066549],[2.4639524,49.0065703],[2.4639013,49.0056711],[2.4645722,49.0013048],[2.4652104,49.0012823],[2.4652336,49.0013142],[2.4660225,49.0013508],[2.4676341,49.0012719],[2.46839,49.001367],[2.4695328,49.001279],[2.4697817,49.0014534],[2.4707644,49.0023747],[2.4711614,49.0025666],[2.4714523,49.0026293],[2.4716295,49.0027299],[2.4725361,49.0038039],[2.4726176,49.0041757],[2.4725492,49.0043956],[2.4716943,49.0043406],[2.4715693,49.0043762],[2.4702139,49.0048596],[2.4693697,49.005213],[2.4690988,49.0055677],[2.4689034,49.0054548],[2.4687594,49.005604],[2.4682954,49.005705]]]]},"properties":{"code_section":"95612000AK","code_commune":"95612","section_courte":"AK"}},{"type":"Feature","geometry":{"type":"MultiPolygon","coordinates":[[[[2.4887191,49.0106751],[2.4842086,49.0111386],[2.4831494,49.0105051],[2.4819151,49.0098958],[2.4801158,49.0092295],[2.4775586,49.0083491],[2.4770029,49.0080452],[2.4760079,49.0073744],[2.4745092,49.0066119],[2.4739176,49.0060332],[2.4736315,49.0058323],[2.4740694,49.005257],[2.4744472,49.0048325],[2.4746582,49.0047006],[2.4759127,49.004129],[2.4776698,49.0041125],[2.4776406,49.0040214],[2.4769764,49.0030597],[2.4775855,49.0029288],[2.4784832,49.0027839],[2.4778898,49.0019149],[2.4784032,49.0017645],[2.4791838,49.001439],[2.4795069,49.00136],[2.4827259,49.0009947],[2.483204,49.0010334],[2.4838299,49.0011712],[2.4864184,49.0012579],[2.4866853,49.0018417],[2.4872708,49.0017231],[2.4873703,49.0019168],[2.4875194,49.0018904],[2.4876003,49.0020114],[2.4880125,49.0020102],[2.4892452,49.0050839],[2.4892311,49.0052537],[2.4890468,49.0053907],[2.4894883,49.0077793],[2.4904821,49.0101409],[2.4905161,49.0103736],[2.4887191,49.0106751]]]]},"properties":{"code_section":"95612000ZB","code_commune":"95612","section_courte":"ZB"}},{"type":"Feature","geometry":{"type":"MultiPolygon","coordinates":[[[[2.4520501,49.0105568],[2.449555,49.0109032],[2.448946,49.0110756],[2.4456745,49.0121443],[2.4455454,49.0120799],[2.4445974,49.0124406],[2.4442924,49.0122254],[2.4441266,49.0120133],[2.4435426,49.0115036],[2.4434402,49.0113168],[2.4433733,49.0112734],[2.4434442,49.0111104],[2.4457921,49.0104673],[2.4458586,49.0104765],[2.446562,49.0102764],[2.4465548,49.010248],[2.4556155,49.0076973],[2.4557214,49.0098858],[2.4536963,49.0102204],[2.4520501,49.0105568]]]]},"properties":{"code_section":"95612000ZD","code_commune":"95612","section_courte":"ZD"}},{"type":"Feature","geometry":{"type":"MultiPolygon","coordinates":[[[[2.4643408,49.00954],[2.4611266,49.0104089],[2.4610664,49.0101899],[2.4610543,49.0097148],[2.4606158,49.0096413],[2.4584064,49.0095241],[2.4572637,49.0096716],[2.4563493,49.0097473],[2.4557214,49.0098858],[2.4556155,49.0076973],[2.4578952,49.0070801],[2.4592151,49.0069618],[2.4638381,49.0066549],[2.4640411,49.0072336],[2.4643083,49.0077256],[2.4646845,49.0081995],[2.4647772,49.0083977],[2.4649012,49.0084674],[2.4656892,49.0091262],[2.4650072,49.0093033],[2.4643408,49.00954]]]]},"properties":{"code_section":"95612000ZE","code_commune":"95612","section_courte":"ZE"}},{"type":"Feature","geometry":{"type":"MultiPolygon","coordinates":[[[[2.4638381,49.0066549],[2.4592151,49.0069618],[2.4577603,49.0071081],[2.4562039,49.0057629],[2.455977,49.0055005],[2.4558026,49.0052244],[2.4553023,49.0038846],[2.4546029,49.0025708],[2.4549637,49.0024494],[2.4556044,49.0022889],[2.4564811,49.0020981],[2.4572507,49.001986],[2.4602842,49.0017162],[2.4622202,49.001677],[2.4632063,49.0016087],[2.4641836,49.0014564],[2.4645636,49.0014247],[2.4639013,49.0056711],[2.4639524,49.0065703],[2.4638381,49.0066549]]]]},"properties":{"code_section":"95612000ZH","code_commune":"95612","section_courte":"ZH"}},{"type":"Feature","geometry":{"type":"MultiPolygon","coordinates":[[[[2.4556155,49.0076973],[2.4467863,49.0101842],[2.44402,49.0055286],[2.4518382,49.0034582],[2.4546029,49.0025708],[2.4553023,49.0038846],[2.4558026,49.0052244],[2.455977,49.0055005],[2.4562039,49.0057629],[2.4577603,49.0071081],[2.4556155,49.0076973]]]]},"properties":{"code_section":"95612000ZI","code_commune":"95612","section_courte":"ZI"}}]}