{"type":"FeatureCollection","features":[{"type":"Feature","geometry":{"type":"MultiPolygon","coordinates":[[[[2.4873344,49.0018841],[2.4872608,49.0017465],[2.4866532,49.0018566],[2.4864126,49.0012291],[2.4859109,49.0012484],[2.4837681,49.0011504],[2.4838327,49.0011158],[2.4836138,49.0001209],[2.48353,49.0000951],[2.4835539,48.9992854],[2.4838695,48.999509],[2.4843925,48.9997313],[2.4849284,48.9995356],[2.4868509,48.99905],[2.4879884,48.9989223],[2.488295,49.0002391],[2.4892608,49.0002006],[2.4892685,49.0006804],[2.4890985,49.000675],[2.4891159,49.0011463],[2.488703,49.0011029],[2.4890684,49.0019427],[2.4889161,49.0019356],[2.4889798,49.0020923],[2.4880937,49.002182],[2.4880257,49.0019862],[2.4876065,49.0020045],[2.4875379,49.0018767],[2.4873545,49.0019219],[2.4873344,49.0018841]]]]},"properties":{"code_section":"956330000A","code_commune":"95633","section_courte":"A"}}]}