{"type":"FeatureCollection","features":[{"type":"Feature","geometry":{"type":"MultiPolygon","coordinates":[[[[2.0244235,49.0383238],[2.0242088,49.0382949],[2.0241804,49.0382738],[2.0242122,49.0382417],[2.0239322,49.0382361],[2.023244,49.0381511],[2.0218348,49.038123],[2.0218018,49.0384241],[2.0217581,49.0384228],[2.0216539,49.038732],[2.0196918,49.038587],[2.0190778,49.0376025],[2.0199971,49.0368578],[2.0201778,49.0367727],[2.0202352,49.0367852],[2.0204845,49.0364523],[2.0209271,49.0362875],[2.021243,49.036056],[2.0214027,49.0358561],[2.0224298,49.0359604],[2.0226319,49.0355087],[2.0229817,49.035069],[2.0230996,49.0349949],[2.0240691,49.0346235],[2.0232275,49.0341611],[2.0242663,49.0333569],[2.0250626,49.0334449],[2.0254698,49.0332314],[2.0257096,49.0332419],[2.0258496,49.03321],[2.02629,49.0329452],[2.0261471,49.0328451],[2.0261994,49.0328183],[2.0259373,49.0326167],[2.0257182,49.0324969],[2.0256587,49.0324152],[2.0253079,49.0322767],[2.0254163,49.0321612],[2.0249957,49.0318836],[2.0253557,49.031558],[2.0285398,49.0337675],[2.0285013,49.0338098],[2.0276368,49.0337241],[2.0281413,49.0341841],[2.0279508,49.0342714],[2.0281952,49.0345628],[2.0281147,49.0345666],[2.028215,49.0346587],[2.0275907,49.0346708],[2.0275883,49.0346455],[2.0269427,49.0346773],[2.0269016,49.0348661],[2.0269889,49.0351067],[2.026965,49.0352135],[2.0267948,49.0353183],[2.0265829,49.0351462],[2.0262589,49.0353179],[2.02643,49.0354492],[2.0263387,49.0355248],[2.0259196,49.0357138],[2.0260895,49.0358545],[2.0257861,49.0359881],[2.025581,49.0361539],[2.025313,49.0365011],[2.0249261,49.037219],[2.0248049,49.0373373],[2.0247797,49.0377673],[2.0249284,49.0377693],[2.0248971,49.0380645],[2.0247394,49.0380503],[2.0246936,49.0382387],[2.0244402,49.0382406],[2.0244235,49.0383238]]]]},"properties":{"code_section":"956370000B","code_commune":"95637","section_courte":"B"}},{"type":"Feature","geometry":{"type":"MultiPolygon","coordinates":[[[[2.0244363,49.0382555],[2.0246936,49.0382387],[2.0247394,49.0380503],[2.0248971,49.0380645],[2.0249284,49.0377693],[2.0247797,49.0377673],[2.0248049,49.0373373],[2.0249261,49.037219],[2.025313,49.0365011],[2.025581,49.0361539],[2.0257861,49.0359881],[2.0260895,49.0358545],[2.0259196,49.0357138],[2.0263387,49.0355248],[2.02643,49.0354492],[2.0262589,49.0353179],[2.0265829,49.0351462],[2.0267948,49.0353183],[2.026965,49.0352135],[2.0269889,49.0351067],[2.0269016,49.0348661],[2.0269427,49.0346773],[2.0275883,49.0346455],[2.0275907,49.0346708],[2.028215,49.0346587],[2.0281147,49.0345666],[2.0281952,49.0345628],[2.0279508,49.0342714],[2.0281413,49.0341841],[2.0276368,49.0337241],[2.0285013,49.0338098],[2.0292507,49.0339901],[2.0296494,49.0340403],[2.0315484,49.0336461],[2.0319294,49.0336416],[2.0328209,49.0337483],[2.033413,49.0337665],[2.0336052,49.0341611],[2.0338631,49.0356104],[2.0339116,49.0357996],[2.0340051,49.035903],[2.0339835,49.0359408],[2.0337286,49.0359573],[2.033625,49.0360074],[2.0334947,49.03622],[2.0331481,49.036983],[2.0331636,49.0370187],[2.0330367,49.0372131],[2.0327031,49.0371439],[2.0325631,49.0370552],[2.0307232,49.0368036],[2.0306469,49.0368223],[2.0306381,49.0368559],[2.0300266,49.0370439],[2.0293302,49.0371528],[2.0282207,49.037155],[2.027485,49.0372721],[2.0270988,49.0374282],[2.0269617,49.0375326],[2.0267798,49.0379483],[2.0261527,49.0387011],[2.0260171,49.0389409],[2.0255661,49.0388549],[2.0255593,49.0386666],[2.0256432,49.0384057],[2.0248162,49.038432],[2.0244194,49.0383529],[2.0244363,49.0382555]]]]},"properties":{"code_section":"95637000AB","code_commune":"95637","section_courte":"AB"}},{"type":"Feature","geometry":{"type":"MultiPolygon","coordinates":[[[[2.0385606,49.0363569],[2.0370511,49.0373426],[2.0370647,49.0373837],[2.0369198,49.0374717],[2.0368602,49.0375005],[2.0367443,49.0374084],[2.0357579,49.0382568],[2.0357859,49.0382725],[2.0357424,49.0383088],[2.0348826,49.0386914],[2.0342868,49.0379567],[2.0340003,49.037663],[2.0335158,49.0373712],[2.0330565,49.0371918],[2.033625,49.0360074],[2.0337286,49.0359573],[2.0339835,49.0359408],[2.0340051,49.035903],[2.0339116,49.0357996],[2.0338631,49.0356104],[2.0336052,49.0341611],[2.0333375,49.0335892],[2.0332109,49.0331899],[2.0330909,49.032514],[2.0331161,49.0321504],[2.0338678,49.0320081],[2.0341375,49.0318753],[2.0362521,49.0311158],[2.0363677,49.0317962],[2.0367221,49.0323614],[2.0393725,49.0352077],[2.0397688,49.0355876],[2.0385606,49.0363569]]]]},"properties":{"code_section":"95637000AC","code_commune":"95637","section_courte":"AC"}},{"type":"Feature","geometry":{"type":"MultiPolygon","coordinates":[[[[2.0356823,49.0284957],[2.0361016,49.0286735],[2.036043,49.0287568],[2.0362387,49.0288363],[2.0362763,49.0287925],[2.0364677,49.0288391],[2.0365497,49.0287242],[2.0367114,49.0287532],[2.0367612,49.0286914],[2.0370801,49.0286969],[2.0376143,49.0288739],[2.0369324,49.029574],[2.036412,49.0302634],[2.036352,49.0303754],[2.0362521,49.0311158],[2.0341375,49.0318753],[2.0338678,49.0320081],[2.0331161,49.0321504],[2.0330909,49.032514],[2.0332003,49.0331399],[2.033413,49.0337665],[2.0328209,49.0337483],[2.0319294,49.0336416],[2.0315484,49.0336461],[2.0296494,49.0340403],[2.0292507,49.0339901],[2.0285013,49.0338098],[2.0285398,49.0337675],[2.0253557,49.031558],[2.0255889,49.0313839],[2.0256925,49.0313648],[2.0258058,49.0313855],[2.0270549,49.0319252],[2.0273145,49.0321669],[2.0279518,49.0325015],[2.0285892,49.0318476],[2.0287727,49.0313949],[2.0289138,49.0304961],[2.029229,49.0293917],[2.0293102,49.0291806],[2.0295003,49.02899],[2.0300204,49.0281115],[2.0301379,49.0278538],[2.0302536,49.0274335],[2.0313514,49.0275739],[2.0324306,49.0278668],[2.0330313,49.0280672],[2.03351,49.028166],[2.0337221,49.028322],[2.0340755,49.0280418],[2.0346595,49.0278973],[2.0351927,49.0282395],[2.0356823,49.0284957]]]]},"properties":{"code_section":"95637000AD","code_commune":"95637","section_courte":"AD"}},{"type":"Feature","geometry":{"type":"MultiPolygon","coordinates":[[[[2.0355315,49.0284371],[2.0346595,49.0278973],[2.0340755,49.0280418],[2.0337221,49.028322],[2.03351,49.028166],[2.0331243,49.0280894],[2.0332384,49.0278945],[2.0335289,49.0276158],[2.0336619,49.027366],[2.0338412,49.0271612],[2.0337917,49.0271396],[2.0337421,49.0269807],[2.0342047,49.0264996],[2.0344008,49.0260355],[2.0352257,49.0250023],[2.0358253,49.0240655],[2.036206,49.0237917],[2.0368999,49.0238677],[2.0371978,49.0238188],[2.0372318,49.0239028],[2.0370424,49.0243961],[2.0374129,49.0245066],[2.0374033,49.0245277],[2.0383929,49.0247698],[2.0384768,49.0248259],[2.0408086,49.0257159],[2.039956,49.0267384],[2.0394166,49.0272424],[2.0389439,49.0276106],[2.0376143,49.0288739],[2.0370801,49.0286969],[2.0367612,49.0286914],[2.0367114,49.0287532],[2.0365497,49.0287242],[2.0364677,49.0288391],[2.0362763,49.0287925],[2.0362387,49.0288363],[2.036043,49.0287568],[2.0361016,49.0286735],[2.0355315,49.0284371]]]]},"properties":{"code_section":"95637000AE","code_commune":"95637","section_courte":"AE"}},{"type":"Feature","geometry":{"type":"MultiPolygon","coordinates":[[[[2.0160698,49.0220362],[2.0163317,49.0210212],[2.0161412,49.021016],[2.016098,49.0209515],[2.0212394,49.0211197],[2.0216177,49.0211037],[2.0219755,49.0210284],[2.0262795,49.0197261],[2.0267018,49.0203859],[2.026644,49.0203767],[2.0272804,49.0216189],[2.0275743,49.0225054],[2.0276748,49.0232565],[2.0267964,49.0232958],[2.0258957,49.0234147],[2.0251266,49.0235662],[2.0237157,49.0239171],[2.0226255,49.0240677],[2.022493,49.0241594],[2.0224874,49.0240745],[2.0218367,49.0241],[2.0218271,49.0242193],[2.0216646,49.0241059],[2.0210545,49.0241019],[2.0199401,49.0240089],[2.0164693,49.0234527],[2.0164512,49.0235028],[2.0158372,49.023401],[2.0157193,49.0234238],[2.0160698,49.0220362]]]]},"properties":{"code_section":"95637000DM","code_commune":"95637","section_courte":"DM"}},{"type":"Feature","geometry":{"type":"MultiPolygon","coordinates":[[[[2.0266474,49.0233139],[2.0276748,49.0232565],[2.0275864,49.0233186],[2.0275627,49.0243322],[2.0276122,49.0243649],[2.0281352,49.0243827],[2.028732,49.0244676],[2.0294464,49.0246302],[2.0297499,49.0247511],[2.0300046,49.0249],[2.0302294,49.025082],[2.0304056,49.0252849],[2.0305263,49.0255006],[2.0307312,49.0261065],[2.0307526,49.0262858],[2.0306993,49.0263271],[2.03077,49.0263637],[2.030847,49.0265007],[2.03079,49.0266995],[2.0304256,49.0271201],[2.0302918,49.0273522],[2.0301902,49.0275697],[2.0301291,49.0278765],[2.029787,49.0285096],[2.0271118,49.0280582],[2.0272561,49.0276678],[2.0273487,49.0272164],[2.0265125,49.0270763],[2.0252154,49.0274016],[2.0244258,49.0276362],[2.0242746,49.027583],[2.0231186,49.027977],[2.0231541,49.027695],[2.0231013,49.0269996],[2.022544,49.0252072],[2.0224927,49.0248476],[2.022486,49.0241658],[2.0226255,49.0240677],[2.0237157,49.0239171],[2.0251266,49.0235662],[2.0258957,49.0234147],[2.0266474,49.0233139]]]]},"properties":{"code_section":"95637000DN","code_commune":"95637","section_courte":"DN"}},{"type":"Feature","geometry":{"type":"MultiPolygon","coordinates":[[[[2.028732,49.0244676],[2.0281352,49.0243827],[2.0276122,49.0243649],[2.0275627,49.0243322],[2.0275864,49.0233186],[2.0276748,49.0232565],[2.0275743,49.0225054],[2.0273995,49.0219355],[2.0271397,49.0213079],[2.026644,49.0203767],[2.0267018,49.0203859],[2.0262795,49.0197261],[2.0287986,49.0189708],[2.0288149,49.0189984],[2.0289063,49.0189739],[2.0292395,49.0196709],[2.0324215,49.0202932],[2.0319023,49.0212861],[2.0318173,49.0212554],[2.0316355,49.0213941],[2.0316437,49.0215237],[2.0317694,49.0216415],[2.0319666,49.0216771],[2.0324228,49.0216241],[2.0329472,49.0216589],[2.0330847,49.021711],[2.0333291,49.0217229],[2.0339785,49.021854],[2.0339775,49.0218769],[2.0341506,49.0219363],[2.0346614,49.0220561],[2.0344683,49.0220978],[2.0342933,49.0221904],[2.0337358,49.0227743],[2.0335762,49.0228852],[2.0333723,49.0229444],[2.032224,49.0231129],[2.0309262,49.0253592],[2.0309565,49.0256676],[2.0306231,49.0258084],[2.0305263,49.0255006],[2.0304056,49.0252849],[2.0302294,49.025082],[2.0300046,49.0249],[2.0297499,49.0247511],[2.0294464,49.0246302],[2.028732,49.0244676]]]]},"properties":{"code_section":"95637000DO","code_commune":"95637","section_courte":"DO"}},{"type":"Feature","geometry":{"type":"MultiPolygon","coordinates":[[[[2.0193847,49.0330313],[2.0195599,49.0331087],[2.0194661,49.0331998],[2.0200866,49.0335003],[2.0171847,49.0363121],[2.0166635,49.0369154],[2.016291,49.0375843],[2.0161044,49.0382114],[2.016063,49.0389051],[2.0161734,49.0395821],[2.0161027,49.0396098],[2.0150431,49.0393489],[2.0139994,49.0389187],[2.0108375,49.0373497],[2.011022,49.0361167],[2.0111661,49.0355907],[2.0111331,49.0355999],[2.0113981,49.0343145],[2.0114506,49.0342924],[2.0117218,49.0328933],[2.0118271,49.0316418],[2.0120595,49.0316231],[2.0123624,49.0315515],[2.0148921,49.0308662],[2.0148633,49.0309499],[2.0151333,49.0311534],[2.0154521,49.0314943],[2.0157032,49.0319095],[2.0158118,49.0322905],[2.0158619,49.0328151],[2.0160313,49.0326956],[2.0174357,49.0324322],[2.0177098,49.0324056],[2.017987,49.032436],[2.0182519,49.0325021],[2.0183555,49.032548],[2.0183358,49.0325696],[2.0193847,49.0330313]]]]},"properties":{"code_section":"95637000ES","code_commune":"95637","section_courte":"ES"}},{"type":"Feature","geometry":{"type":"MultiPolygon","coordinates":[[[[2.0193949,49.0373484],[2.0190778,49.0376025],[2.0196918,49.038587],[2.0161734,49.0395821],[2.016063,49.0389051],[2.0161044,49.0382114],[2.016291,49.0375843],[2.0166635,49.0369154],[2.0171847,49.0363121],[2.0200866,49.0335003],[2.0207341,49.0327898],[2.0207791,49.0329061],[2.0208474,49.0329433],[2.0215051,49.0331497],[2.0216993,49.0331821],[2.0223652,49.0332027],[2.0224515,49.0331793],[2.02253,49.0331135],[2.0254698,49.0332314],[2.0250626,49.0334449],[2.0242663,49.0333569],[2.0232275,49.0341611],[2.0240691,49.0346235],[2.0230996,49.0349949],[2.0229817,49.035069],[2.0226319,49.0355087],[2.0224298,49.0359604],[2.0214027,49.0358561],[2.0211002,49.036173],[2.0208046,49.0363467],[2.0204845,49.0364523],[2.0202352,49.0367852],[2.0201778,49.0367727],[2.0199971,49.0368578],[2.0193949,49.0373484]]]]},"properties":{"code_section":"95637000ET","code_commune":"95637","section_courte":"ET"}},{"type":"Feature","geometry":{"type":"MultiPolygon","coordinates":[[[[2.0253531,49.0321195],[2.0254163,49.0321612],[2.0253079,49.0322767],[2.0256587,49.0324152],[2.0257182,49.0324969],[2.0259373,49.0326167],[2.0261994,49.0328183],[2.0261471,49.0328451],[2.02629,49.0329452],[2.0258496,49.03321],[2.0257096,49.0332419],[2.02253,49.0331135],[2.0224515,49.0331793],[2.0223652,49.0332027],[2.0216993,49.0331821],[2.0215051,49.0331497],[2.0208474,49.0329433],[2.0207484,49.0328515],[2.0207526,49.0326789],[2.0208163,49.0327024],[2.0209647,49.0325235],[2.0215227,49.031738],[2.0221809,49.0304403],[2.022401,49.0304159],[2.0226057,49.030292],[2.0227526,49.0302688],[2.0229273,49.0299734],[2.0227902,49.0297367],[2.0225359,49.0295847],[2.022991,49.0285175],[2.0231186,49.027977],[2.0242746,49.027583],[2.0244258,49.0276362],[2.0252154,49.0274016],[2.0265125,49.0270763],[2.0273487,49.0272164],[2.0272561,49.0276678],[2.0271118,49.0280582],[2.029787,49.0285096],[2.0295003,49.02899],[2.0293102,49.0291806],[2.0291703,49.0295551],[2.0289138,49.0304961],[2.0287727,49.0313949],[2.0285892,49.0318476],[2.0279432,49.0325086],[2.0273145,49.0321669],[2.0270549,49.0319252],[2.0257495,49.0313668],[2.0256383,49.031366],[2.0255438,49.03141],[2.0249957,49.0318836],[2.0253531,49.0321195]]]]},"properties":{"code_section":"95637000EV","code_commune":"95637","section_courte":"EV"}},{"type":"Feature","geometry":{"type":"MultiPolygon","coordinates":[[[[2.0127608,49.0271812],[2.0124351,49.0270909],[2.0118009,49.0269767],[2.0101133,49.0268177],[2.0105634,49.023213],[2.0107416,49.0206975],[2.0129882,49.0208292],[2.0160959,49.0209264],[2.0161412,49.021016],[2.0163317,49.0210212],[2.0163103,49.0211161],[2.0154672,49.0244965],[2.0153389,49.0249136],[2.0148343,49.0261495],[2.014948,49.026166],[2.0148376,49.0264482],[2.0147254,49.026433],[2.0142734,49.0276242],[2.0144374,49.0276875],[2.0144292,49.0277279],[2.0143467,49.0277737],[2.0127608,49.0271812]]]]},"properties":{"code_section":"95637000EW","code_commune":"95637","section_courte":"EW"}},{"type":"Feature","geometry":{"type":"MultiPolygon","coordinates":[[[[2.0204502,49.0240583],[2.0210545,49.0241019],[2.0216646,49.0241059],[2.0218271,49.0242193],[2.0218367,49.0241],[2.0224874,49.0240745],[2.0224927,49.0248476],[2.022544,49.0252072],[2.0230218,49.026659],[2.0231418,49.0273521],[2.0231508,49.027768],[2.0230449,49.0283414],[2.0225359,49.0295847],[2.0227902,49.0297367],[2.0229273,49.0299734],[2.0227526,49.0302688],[2.0223404,49.0300075],[2.0220004,49.029879],[2.0189922,49.0293591],[2.0178155,49.0290295],[2.0143777,49.0277468],[2.0144374,49.0276875],[2.0142734,49.0276242],[2.0147254,49.026433],[2.0148376,49.0264482],[2.014948,49.026166],[2.0148343,49.0261495],[2.0153389,49.0249136],[2.0157193,49.0234238],[2.0158372,49.023401],[2.0164512,49.0235028],[2.0164693,49.0234527],[2.0193614,49.0239298],[2.0204502,49.0240583]]]]},"properties":{"code_section":"95637000EX","code_commune":"95637","section_courte":"EX"}},{"type":"Feature","geometry":{"type":"MultiPolygon","coordinates":[[[[2.0194214,49.0330471],[2.0183358,49.0325696],[2.0183555,49.032548],[2.0182519,49.0325021],[2.017987,49.032436],[2.0177098,49.0324056],[2.0174357,49.0324322],[2.0160313,49.0326956],[2.0158619,49.0328151],[2.0158118,49.0322905],[2.0157032,49.0319095],[2.0154521,49.0314943],[2.0151333,49.0311534],[2.0148633,49.0309499],[2.0148921,49.0308662],[2.0123624,49.0315515],[2.0120595,49.0316231],[2.0118271,49.0316418],[2.0119632,49.0307137],[2.0124193,49.0291137],[2.0127995,49.0271967],[2.0143467,49.0277737],[2.0143777,49.0277468],[2.0178155,49.0290295],[2.0189922,49.0293591],[2.0220004,49.029879],[2.0223404,49.0300075],[2.0227526,49.0302688],[2.0226057,49.030292],[2.022401,49.0304159],[2.0221809,49.0304403],[2.0217105,49.0314007],[2.0213087,49.032072],[2.0208163,49.0327024],[2.0207526,49.0326789],[2.0207341,49.0327898],[2.0200866,49.0335003],[2.0194661,49.0331998],[2.0195599,49.0331087],[2.0194214,49.0330471]]]]},"properties":{"code_section":"95637000EY","code_commune":"95637","section_courte":"EY"}},{"type":"Feature","geometry":{"type":"MultiPolygon","coordinates":[[[[2.0342204,49.0264746],[2.0337421,49.0269807],[2.0337917,49.0271396],[2.0338412,49.0271612],[2.0336619,49.027366],[2.0335289,49.0276158],[2.0332384,49.0278945],[2.0331243,49.0280894],[2.0324306,49.0278668],[2.031304,49.0275624],[2.0302536,49.0274335],[2.0304256,49.0271201],[2.03079,49.0266995],[2.030847,49.0265007],[2.03077,49.0263637],[2.0306993,49.0263271],[2.0307526,49.0262858],[2.0307312,49.0261065],[2.0306231,49.0258084],[2.0309565,49.0256676],[2.0309262,49.0253592],[2.032224,49.0231129],[2.0333723,49.0229444],[2.0335762,49.0228852],[2.0337358,49.0227743],[2.0342933,49.0221904],[2.0344683,49.0220978],[2.0346614,49.0220561],[2.0341506,49.0219363],[2.0341449,49.0219119],[2.0346833,49.0220277],[2.0348399,49.0221285],[2.0351251,49.0223957],[2.0351485,49.0224649],[2.0348094,49.0229294],[2.0347911,49.0231039],[2.0352347,49.0235755],[2.0355471,49.0236782],[2.036206,49.0237917],[2.0358102,49.0240849],[2.0352257,49.0250023],[2.0344008,49.0260355],[2.0342204,49.0264746]]]]},"properties":{"code_section":"95637000ZC","code_commune":"95637","section_courte":"ZC"}}]}