{"type":"FeatureCollection","features":[{"type":"Feature","geometry":{"type":"MultiPolygon","coordinates":[[[[2.3676199,48.9220738],[2.3680115,48.9222303],[2.3690236,48.9205855],[2.3689269,48.9204679],[2.3692136,48.9205376],[2.3695343,48.9206714],[2.3695351,48.9207411],[2.3696307,48.920738],[2.370217,48.9208856],[2.3700281,48.921096],[2.3714725,48.9226533],[2.3695705,48.9235421],[2.3689863,48.9239249],[2.36831,48.9244501],[2.3666979,48.9235564],[2.3676199,48.9220738]]]]},"properties":{"code_section":"930010000A","code_commune":"93001","section_courte":"A"}},{"type":"Feature","geometry":{"type":"MultiPolygon","coordinates":[[[[2.373809,48.9194615],[2.3750491,48.9202188],[2.3751104,48.9201576],[2.3766455,48.9211533],[2.3759439,48.9214754],[2.3745959,48.9219705],[2.3733773,48.9220347],[2.3728918,48.9221169],[2.3714725,48.9226533],[2.3700281,48.921096],[2.370217,48.9208856],[2.3702627,48.9208857],[2.3702457,48.9209148],[2.3714118,48.921186],[2.3716664,48.9207148],[2.3717287,48.9206845],[2.3716511,48.9205946],[2.3719479,48.9206221],[2.3720485,48.9205995],[2.3721601,48.9204557],[2.3722744,48.9203919],[2.3722139,48.9202281],[2.3729665,48.9198712],[2.3736933,48.9193976],[2.373809,48.9194615]]]]},"properties":{"code_section":"930010000B","code_commune":"93001","section_courte":"B"}},{"type":"Feature","geometry":{"type":"MultiPolygon","coordinates":[[[[2.3771945,48.9225646],[2.3772773,48.9225848],[2.3771988,48.9226096],[2.3767153,48.922577],[2.376526,48.9226519],[2.376156,48.9230089],[2.3751032,48.9235309],[2.3749012,48.9236434],[2.3747615,48.9237684],[2.3738814,48.9235847],[2.3733333,48.9234341],[2.3726137,48.9230734],[2.3719938,48.9224577],[2.3728918,48.9221169],[2.3733773,48.9220347],[2.3745959,48.9219705],[2.3759439,48.9214754],[2.3768256,48.9210647],[2.3772286,48.9213389],[2.3774888,48.9214638],[2.378036,48.9219554],[2.3776419,48.9220844],[2.3775242,48.92219],[2.3773068,48.9222793],[2.3771826,48.9224775],[2.3769814,48.9225183],[2.3771945,48.9225646]]]]},"properties":{"code_section":"930010000C","code_commune":"93001","section_courte":"C"}},{"type":"Feature","geometry":{"type":"MultiPolygon","coordinates":[[[[2.379511,48.9204508],[2.3794088,48.9205439],[2.378729,48.9216566],[2.378463,48.9218312],[2.378036,48.9219554],[2.3774888,48.9214638],[2.3772286,48.9213389],[2.3768256,48.9210647],[2.3766455,48.9211533],[2.3751104,48.9201576],[2.3750491,48.9202188],[2.3736933,48.9193976],[2.3742374,48.919038],[2.374459,48.9188005],[2.3746299,48.9181581],[2.3747878,48.917748],[2.376645,48.9179756],[2.3775434,48.9179828],[2.3777219,48.9184246],[2.3779566,48.9188475],[2.3793381,48.9194589],[2.3799085,48.9197505],[2.3801185,48.9197447],[2.3799609,48.9199259],[2.3798602,48.9201159],[2.379511,48.9204508]]]]},"properties":{"code_section":"930010000D","code_commune":"93001","section_courte":"D"}},{"type":"Feature","geometry":{"type":"MultiPolygon","coordinates":[[[[2.3695351,48.9207411],[2.3695343,48.9206714],[2.3690879,48.920507],[2.3711692,48.9171449],[2.3748521,48.9175857],[2.3746299,48.9181581],[2.374459,48.9188005],[2.3742374,48.919038],[2.3729665,48.9198712],[2.3722139,48.9202281],[2.3722744,48.9203919],[2.3721601,48.9204557],[2.3720485,48.9205995],[2.3719479,48.9206221],[2.3716511,48.9205946],[2.3717287,48.9206845],[2.3716664,48.9207148],[2.3714118,48.921186],[2.3702457,48.9209148],[2.3702627,48.9208857],[2.3696307,48.920738],[2.3695351,48.9207411]]]]},"properties":{"code_section":"930010000E","code_commune":"93001","section_courte":"E"}},{"type":"Feature","geometry":{"type":"MultiPolygon","coordinates":[[[[2.3699034,48.9178313],[2.370744,48.9178304],[2.3690879,48.920507],[2.3689269,48.9204679],[2.3690236,48.9205855],[2.3680115,48.9222303],[2.3661379,48.9214591],[2.366547,48.9209706],[2.3668726,48.9209915],[2.3668217,48.9192854],[2.3669843,48.9178395],[2.3699034,48.9178313]]]]},"properties":{"code_section":"930010000F","code_commune":"93001","section_courte":"F"}},{"type":"Feature","geometry":{"type":"MultiPolygon","coordinates":[[[[2.3704483,48.9178309],[2.3667507,48.9178341],[2.3666701,48.9178697],[2.3663527,48.9178751],[2.3663111,48.9165279],[2.3664088,48.9153837],[2.3723438,48.9152726],[2.370744,48.9178304],[2.3704483,48.9178309]]]]},"properties":{"code_section":"930010000G","code_commune":"93001","section_courte":"G"}},{"type":"Feature","geometry":{"type":"MultiPolygon","coordinates":[[[[2.3713247,48.9168954],[2.3723438,48.9152726],[2.3768709,48.9152063],[2.3768819,48.9153284],[2.3769988,48.9154758],[2.3769613,48.9161009],[2.3770464,48.9166411],[2.3774101,48.9173456],[2.3775434,48.9179828],[2.376645,48.9179756],[2.374856,48.9177572],[2.3747878,48.917748],[2.3748521,48.9175857],[2.3711692,48.9171449],[2.3713247,48.9168954]]]]},"properties":{"code_section":"930010000H","code_commune":"93001","section_courte":"H"}},{"type":"Feature","geometry":{"type":"MultiPolygon","coordinates":[[[[2.3814907,48.9174024],[2.3814823,48.9173045],[2.3819503,48.9172382],[2.3826699,48.9194842],[2.3799085,48.9197505],[2.3793381,48.9194589],[2.3779566,48.9188475],[2.3777219,48.9184246],[2.3775434,48.9179828],[2.3774823,48.9176415],[2.3802256,48.9175676],[2.3809128,48.9174112],[2.3811145,48.9174268],[2.3814907,48.9174024]]]]},"properties":{"code_section":"930010000I","code_commune":"93001","section_courte":"I"}},{"type":"Feature","geometry":{"type":"MultiPolygon","coordinates":[[[[2.3817733,48.9172633],[2.3814823,48.9173045],[2.3814907,48.9174024],[2.3811145,48.9174268],[2.3809128,48.9174112],[2.3802256,48.9175676],[2.3774823,48.9176415],[2.3774059,48.9173345],[2.3770665,48.9166929],[2.3770061,48.9164717],[2.3769613,48.9161009],[2.3769988,48.9154758],[2.3781527,48.9154031],[2.381171,48.9148305],[2.3819503,48.9172382],[2.3817733,48.9172633]]]]},"properties":{"code_section":"930010000J","code_commune":"93001","section_courte":"J"}},{"type":"Feature","geometry":{"type":"MultiPolygon","coordinates":[[[[2.3773917,48.9120486],[2.3795682,48.9116503],[2.381171,48.9148305],[2.3781527,48.9154031],[2.3769988,48.9154758],[2.3768819,48.9153284],[2.376845,48.9146231],[2.3767399,48.9142842],[2.376438,48.9137585],[2.375959,48.9131377],[2.3754321,48.9122129],[2.3773917,48.9120486]]]]},"properties":{"code_section":"930010000K","code_commune":"93001","section_courte":"K"}},{"type":"Feature","geometry":{"type":"MultiPolygon","coordinates":[[[[2.3737346,48.9130144],[2.3740808,48.9124563],[2.375831,48.9129347],[2.376438,48.9137585],[2.3767399,48.9142842],[2.376845,48.9146231],[2.3768709,48.9152063],[2.3723438,48.9152726],[2.3737346,48.9130144]]]]},"properties":{"code_section":"930010000L","code_commune":"93001","section_courte":"L"}},{"type":"Feature","geometry":{"type":"MultiPolygon","coordinates":[[[[2.3743732,48.9119807],[2.3761745,48.9090851],[2.3776814,48.908953],[2.3780464,48.9085732],[2.378054,48.9088144],[2.3776252,48.9103255],[2.3770798,48.9113355],[2.377149,48.9117204],[2.3773917,48.9120486],[2.3754321,48.9122129],[2.375831,48.9129347],[2.3740808,48.9124563],[2.3743732,48.9119807]]]]},"properties":{"code_section":"930010000M","code_commune":"93001","section_courte":"M"}},{"type":"Feature","geometry":{"type":"MultiPolygon","coordinates":[[[[2.3761069,48.9088343],[2.3763413,48.9088218],[2.3740808,48.9124563],[2.3731518,48.9122072],[2.3732799,48.9120018],[2.3731221,48.9113099],[2.3730123,48.9103407],[2.3729929,48.9089983],[2.3761069,48.9088343]]]]},"properties":{"code_section":"930010000N","code_commune":"93001","section_courte":"N"}},{"type":"Feature","geometry":{"type":"MultiPolygon","coordinates":[[[[2.3744517,48.9089219],[2.3729929,48.9089983],[2.3729275,48.9064521],[2.3753743,48.9062534],[2.3780464,48.9085732],[2.3776814,48.908953],[2.3761745,48.9090851],[2.3763413,48.9088218],[2.3744517,48.9089219]]]]},"properties":{"code_section":"930010000O","code_commune":"93001","section_courte":"O"}},{"type":"Feature","geometry":{"type":"MultiPolygon","coordinates":[[[[2.3724964,48.9150088],[2.3723438,48.9152726],[2.3666994,48.9153647],[2.3662388,48.9128636],[2.3656777,48.9092588],[2.3659751,48.9068346],[2.3677885,48.9067603],[2.3699812,48.9065828],[2.3729275,48.9064521],[2.3730123,48.9103407],[2.3731221,48.9113099],[2.3732799,48.9120018],[2.3731518,48.9122072],[2.3740808,48.9124563],[2.3724964,48.9150088]]]]},"properties":{"code_section":"930010000P","code_commune":"93001","section_courte":"P"}},{"type":"Feature","geometry":{"type":"MultiPolygon","coordinates":[[[[2.3667809,48.9017873],[2.3720864,48.901901],[2.3719861,48.903103],[2.3729275,48.9064521],[2.3699812,48.9065828],[2.3677885,48.9067603],[2.3659751,48.9068346],[2.3660232,48.9067289],[2.3659298,48.9047521],[2.3656324,48.9017648],[2.3667809,48.9017873]]]]},"properties":{"code_section":"930010000Q","code_commune":"93001","section_courte":"Q"}},{"type":"Feature","geometry":{"type":"MultiPolygon","coordinates":[[[[2.3776841,48.9046976],[2.3768044,48.9061061],[2.3767803,48.9061714],[2.3768254,48.9062261],[2.3763106,48.9070624],[2.3753743,48.9062534],[2.3729275,48.9064521],[2.3719861,48.903103],[2.3720786,48.9019004],[2.379594,48.9020579],[2.3789601,48.9030906],[2.3787146,48.9030321],[2.3776841,48.9046976]]]]},"properties":{"code_section":"930010000R","code_commune":"93001","section_courte":"R"}},{"type":"Feature","geometry":{"type":"MultiPolygon","coordinates":[[[[2.3803664,48.9020707],[2.3844451,48.9021595],[2.385,48.9020534],[2.3847637,48.9022438],[2.3833581,48.902637],[2.3835424,48.9032314],[2.3780464,48.9085732],[2.3763106,48.9070624],[2.3768254,48.9062261],[2.3767803,48.9061714],[2.3768044,48.9061061],[2.3787146,48.9030321],[2.3789601,48.9030906],[2.379594,48.9020579],[2.3803664,48.9020707]]]]},"properties":{"code_section":"930010000S","code_commune":"93001","section_courte":"S"}},{"type":"Feature","geometry":{"type":"MultiPolygon","coordinates":[[[[2.3810435,48.9056614],[2.3835424,48.9032314],[2.3837407,48.9039141],[2.3839003,48.9048746],[2.3842327,48.9061108],[2.3801971,48.9064826],[2.3810435,48.9056614]]]]},"properties":{"code_section":"930010000T","code_commune":"93001","section_courte":"T"}},{"type":"Feature","geometry":{"type":"MultiPolygon","coordinates":[[[[2.3811018,48.9063998],[2.3842327,48.9061108],[2.3843649,48.9066113],[2.384693,48.9074164],[2.381807,48.9080404],[2.3782686,48.9083633],[2.3801971,48.9064826],[2.3811018,48.9063998]]]]},"properties":{"code_section":"930010000U","code_commune":"93001","section_courte":"U"}},{"type":"Feature","geometry":{"type":"MultiPolygon","coordinates":[[[[2.3825414,48.9093833],[2.3821996,48.9084811],[2.3821532,48.9084837],[2.3819466,48.9080113],[2.384693,48.9074164],[2.3849256,48.9079939],[2.3848516,48.909073],[2.3850602,48.9104646],[2.3827784,48.9108066],[2.3824309,48.9093979],[2.3825414,48.9093833]]]]},"properties":{"code_section":"930010000V","code_commune":"93001","section_courte":"V"}},{"type":"Feature","geometry":{"type":"MultiPolygon","coordinates":[[[[2.3827784,48.9108066],[2.3804764,48.9111575],[2.380136,48.9105935],[2.3786193,48.9090077],[2.3780464,48.9085732],[2.3782686,48.9083633],[2.3819466,48.9080113],[2.3821532,48.9084837],[2.3821996,48.9084811],[2.3825414,48.9093833],[2.3824309,48.9093979],[2.3827784,48.9108066]]]]},"properties":{"code_section":"930010000X","code_commune":"93001","section_courte":"X"}},{"type":"Feature","geometry":{"type":"MultiPolygon","coordinates":[[[[2.3773093,48.9109021],[2.3776252,48.9103255],[2.378054,48.9088144],[2.3780464,48.9085732],[2.3786193,48.9090077],[2.380136,48.9105935],[2.3804764,48.9111575],[2.3794142,48.9113209],[2.3795682,48.9116503],[2.3773917,48.9120486],[2.377149,48.9117204],[2.3770798,48.9113355],[2.3773093,48.9109021]]]]},"properties":{"code_section":"930010000Y","code_commune":"93001","section_courte":"Y"}},{"type":"Feature","geometry":{"type":"MultiPolygon","coordinates":[[[[2.3827784,48.9108066],[2.3850602,48.9104646],[2.3850571,48.9108357],[2.3852079,48.9125611],[2.3854978,48.9136269],[2.3829717,48.9137833],[2.382113,48.9139015],[2.3821216,48.9139262],[2.3808215,48.9140938],[2.3794142,48.9113209],[2.3827784,48.9108066]]]]},"properties":{"code_section":"930010000Z","code_commune":"93001","section_courte":"Z"}},{"type":"Feature","geometry":{"type":"MultiPolygon","coordinates":[[[[2.3810821,48.9140649],[2.3829717,48.9137833],[2.3854978,48.9136269],[2.3857361,48.9145447],[2.3860915,48.9150995],[2.3857796,48.9153558],[2.3854411,48.9155194],[2.3840802,48.9157582],[2.3829913,48.9158178],[2.3823015,48.9159036],[2.3816418,48.9162759],[2.381171,48.9148305],[2.3808215,48.9140938],[2.3810821,48.9140649]]]]},"properties":{"code_section":"93001000AB","code_commune":"93001","section_courte":"AB"}},{"type":"Feature","geometry":{"type":"MultiPolygon","coordinates":[[[[2.3839606,48.9177632],[2.3833472,48.9178297],[2.3833286,48.9177409],[2.382147,48.9178559],[2.3816418,48.9162759],[2.3823015,48.9159036],[2.3829913,48.9158178],[2.3840802,48.9157582],[2.3854411,48.9155194],[2.3857796,48.9153558],[2.3860915,48.9150995],[2.3862409,48.9154977],[2.3867392,48.9174101],[2.3846689,48.9176465],[2.3845436,48.9176999],[2.3839606,48.9177632]]]]},"properties":{"code_section":"93001000AC","code_commune":"93001","section_courte":"AC"}},{"type":"Feature","geometry":{"type":"MultiPolygon","coordinates":[[[[2.3869058,48.9193662],[2.3864758,48.9192879],[2.384158,48.9193351],[2.3826699,48.9194842],[2.382147,48.9178559],[2.3833286,48.9177409],[2.3833472,48.9178297],[2.3845436,48.9176999],[2.3846689,48.9176465],[2.3867392,48.9174101],[2.3871227,48.9188295],[2.3871341,48.9190485],[2.3869901,48.9196057],[2.386923,48.9195567],[2.3869587,48.9193971],[2.3869058,48.9193662]]]]},"properties":{"code_section":"93001000AD","code_commune":"93001","section_courte":"AD"}},{"type":"Feature","geometry":{"type":"MultiPolygon","coordinates":[[[[2.3899751,48.9201037],[2.3897755,48.9199515],[2.3896073,48.9199354],[2.3893762,48.9198568],[2.3890965,48.9198802],[2.3887595,48.9197745],[2.3883662,48.9197124],[2.3880198,48.919533],[2.3869947,48.9195609],[2.3871341,48.9190485],[2.3871227,48.9188295],[2.3867392,48.9174101],[2.3869634,48.9173849],[2.3869147,48.9171628],[2.3893731,48.9170749],[2.3893472,48.917114],[2.3894178,48.917114],[2.3894475,48.9171786],[2.3894152,48.9172303],[2.3899681,48.9186699],[2.3900374,48.918846],[2.3900868,48.9188394],[2.3901181,48.9189196],[2.3898348,48.9189242],[2.390567,48.9200161],[2.3900211,48.9201603],[2.3899751,48.9201037]]]]},"properties":{"code_section":"93001000AE","code_commune":"93001","section_courte":"AE"}},{"type":"Feature","geometry":{"type":"MultiPolygon","coordinates":[[[[2.3869634,48.9173849],[2.3867392,48.9174101],[2.3866947,48.9173008],[2.3862409,48.9154977],[2.3860616,48.9150528],[2.3863385,48.9149314],[2.3865296,48.9148886],[2.3876123,48.9147485],[2.3886644,48.9144072],[2.3910454,48.9145888],[2.3899167,48.9164393],[2.3894178,48.917114],[2.3893472,48.917114],[2.3893731,48.9170749],[2.3869147,48.9171628],[2.3869634,48.9173849]]]]},"properties":{"code_section":"93001000AF","code_commune":"93001","section_courte":"AF"}},{"type":"Feature","geometry":{"type":"MultiPolygon","coordinates":[[[[2.3894178,48.917114],[2.3899167,48.9164393],[2.3910454,48.9145888],[2.3919757,48.914674],[2.3922509,48.9150554],[2.3923732,48.9152961],[2.3930337,48.9173533],[2.3933284,48.9184149],[2.3929011,48.9185365],[2.3909365,48.9188284],[2.3901181,48.9189196],[2.3900868,48.9188394],[2.3900374,48.918846],[2.3899681,48.9186699],[2.3894152,48.9172303],[2.3894475,48.9171786],[2.3894178,48.917114]]]]},"properties":{"code_section":"93001000AG","code_commune":"93001","section_courte":"AG"}},{"type":"Feature","geometry":{"type":"MultiPolygon","coordinates":[[[[2.3934812,48.9186484],[2.3936036,48.9193005],[2.3935647,48.9193077],[2.3935843,48.9194347],[2.3936279,48.9194284],[2.3938454,48.9201561],[2.3944739,48.9216478],[2.3948348,48.9217651],[2.3945346,48.9217251],[2.3938474,48.9218589],[2.3931672,48.922176],[2.3927428,48.9224754],[2.3924272,48.9225545],[2.3923137,48.922549],[2.3920381,48.9224732],[2.3916483,48.9223027],[2.3912001,48.9219438],[2.3909889,48.9214733],[2.3908089,48.9214075],[2.3907508,48.9213555],[2.3902862,48.9207701],[2.3902307,48.9206732],[2.3902946,48.9205553],[2.3900211,48.9201603],[2.390567,48.9200161],[2.3898348,48.9189242],[2.3901181,48.9189196],[2.3909365,48.9188284],[2.3929011,48.9185365],[2.3933284,48.9184149],[2.3934812,48.9186484]]]]},"properties":{"code_section":"93001000AH","code_commune":"93001","section_courte":"AH"}},{"type":"Feature","geometry":{"type":"MultiPolygon","coordinates":[[[[2.3993575,48.9222931],[2.3993927,48.9223626],[2.3984938,48.9224678],[2.3982652,48.9224153],[2.3975407,48.9221313],[2.3971585,48.9220238],[2.3967874,48.9219914],[2.3960627,48.9220925],[2.3953777,48.9220352],[2.3952872,48.9218913],[2.3944739,48.9216478],[2.3938454,48.9201561],[2.3940243,48.9199281],[2.3974066,48.9191122],[2.3993488,48.9221462],[2.3992977,48.9221871],[2.3993575,48.9222931]]]]},"properties":{"code_section":"93001000AI","code_commune":"93001","section_courte":"AI"}},{"type":"Feature","geometry":{"type":"MultiPolygon","coordinates":[[[[2.4003058,48.9221948],[2.4000287,48.9222705],[2.3993927,48.9223626],[2.3992977,48.9221871],[2.3993488,48.9221462],[2.3974066,48.9191122],[2.4009992,48.9182215],[2.4010889,48.9183092],[2.4012074,48.9186743],[2.401789,48.9185918],[2.4019868,48.9188235],[2.4020233,48.918812],[2.402429,48.920095],[2.4027643,48.9205172],[2.4025614,48.9206626],[2.4025467,48.9211482],[2.4021886,48.9212878],[2.4017594,48.92172],[2.4012444,48.9219062],[2.4010918,48.9219206],[2.4007209,48.9221117],[2.4005044,48.9221296],[2.4003058,48.9221948]]]]},"properties":{"code_section":"93001000AJ","code_commune":"93001","section_courte":"AJ"}},{"type":"Feature","geometry":{"type":"MultiPolygon","coordinates":[[[[2.4070913,48.9184975],[2.4067914,48.9187256],[2.406516,48.9187598],[2.4061782,48.9187181],[2.4054467,48.9188574],[2.4041937,48.9192981],[2.4038075,48.9194766],[2.4036755,48.9196721],[2.4038448,48.9198977],[2.4032857,48.9201436],[2.4027643,48.9205172],[2.402429,48.920095],[2.4020233,48.918812],[2.4019868,48.9188235],[2.401789,48.9185918],[2.4012074,48.9186743],[2.4010889,48.9183092],[2.4009992,48.9182215],[2.4035926,48.917605],[2.4060899,48.9165925],[2.4077038,48.9180917],[2.407276,48.9183079],[2.4070913,48.9184975]]]]},"properties":{"code_section":"93001000AK","code_commune":"93001","section_courte":"AK"}},{"type":"Feature","geometry":{"type":"MultiPolygon","coordinates":[[[[2.4037908,48.9174103],[2.4030533,48.9164285],[2.4028329,48.9164202],[2.4011851,48.9169673],[2.3999554,48.915506],[2.4007516,48.9153574],[2.4007193,48.9150977],[2.402425,48.9141585],[2.4024568,48.9142158],[2.4031281,48.9138506],[2.4060899,48.9165925],[2.4038587,48.9174981],[2.4037908,48.9174103]]]]},"properties":{"code_section":"93001000AL","code_commune":"93001","section_courte":"AL"}},{"type":"Feature","geometry":{"type":"MultiPolygon","coordinates":[[[[2.3978426,48.9182079],[2.3977529,48.9180625],[2.3967214,48.916873],[2.398946,48.9158465],[2.3999554,48.915506],[2.4011851,48.9169673],[2.4028329,48.9164202],[2.4030533,48.9164285],[2.4038587,48.9174981],[2.4035926,48.917605],[2.3982762,48.9188994],[2.3978426,48.9182079]]]]},"properties":{"code_section":"93001000AM","code_commune":"93001","section_courte":"AM"}},{"type":"Feature","geometry":{"type":"MultiPolygon","coordinates":[[[[2.3977164,48.9180212],[2.3982762,48.9188994],[2.3940243,48.9199281],[2.3938454,48.9201561],[2.3936279,48.9194284],[2.3935843,48.9194347],[2.3935647,48.9193077],[2.3936036,48.9193005],[2.3934812,48.9186484],[2.3933284,48.9184149],[2.3967214,48.916873],[2.3977164,48.9180212]]]]},"properties":{"code_section":"93001000AN","code_commune":"93001","section_courte":"AN"}},{"type":"Feature","geometry":{"type":"MultiPolygon","coordinates":[[[[2.3936722,48.9147908],[2.3954911,48.9144062],[2.3962287,48.9155185],[2.3971817,48.9166603],[2.3933284,48.9184149],[2.3929524,48.9170937],[2.3923732,48.9152961],[2.3922509,48.9150554],[2.3936722,48.9147908]]]]},"properties":{"code_section":"93001000AO","code_commune":"93001","section_courte":"AO"}},{"type":"Feature","geometry":{"type":"MultiPolygon","coordinates":[[[[2.3951796,48.9118466],[2.3959527,48.9116126],[2.3960933,48.9117969],[2.3965558,48.9116492],[2.3971878,48.9124123],[2.3956568,48.9129173],[2.3955086,48.9129402],[2.3962057,48.9133453],[2.3968626,48.9135936],[2.3952782,48.9139959],[2.3955221,48.9143526],[2.3954911,48.9144062],[2.3936722,48.9147908],[2.3922509,48.9150554],[2.3919757,48.914674],[2.3916262,48.9146364],[2.3918662,48.9142834],[2.3919528,48.9138377],[2.3918193,48.9134543],[2.3916433,48.9132064],[2.3914377,48.9130763],[2.3936338,48.912533],[2.393597,48.9124952],[2.393819,48.9124335],[2.3937521,48.9123073],[2.3952041,48.9118924],[2.3951796,48.9118466]]]]},"properties":{"code_section":"93001000AP","code_commune":"93001","section_courte":"AP"}},{"type":"Feature","geometry":{"type":"MultiPolygon","coordinates":[[[[2.3967901,48.9136114],[2.3968626,48.9135936],[2.3962057,48.9133453],[2.3955086,48.9129402],[2.3956568,48.9129173],[2.3982003,48.9120774],[2.3982901,48.9122126],[2.3988123,48.913917],[2.3995379,48.9149268],[2.3995914,48.9149102],[2.3995379,48.9147585],[2.3996919,48.9149732],[2.3996104,48.9150281],[2.3999554,48.915506],[2.398946,48.9158465],[2.3971817,48.9166603],[2.3962287,48.9155185],[2.3954911,48.9144062],[2.3955221,48.9143526],[2.3952782,48.9139959],[2.3967901,48.9136114]]]]},"properties":{"code_section":"93001000AQ","code_commune":"93001","section_courte":"AQ"}},{"type":"Feature","geometry":{"type":"MultiPolygon","coordinates":[[[[2.4018693,48.914465],[2.4007193,48.9150977],[2.4007516,48.9153574],[2.3999554,48.915506],[2.3996104,48.9150281],[2.3996919,48.9149732],[2.3995379,48.9147585],[2.3995914,48.9149102],[2.3995379,48.9149268],[2.3988123,48.913917],[2.3982901,48.9122126],[2.3982003,48.9120774],[2.4003695,48.9113016],[2.4031281,48.9138506],[2.4024568,48.9142158],[2.402425,48.9141585],[2.4018693,48.914465]]]]},"properties":{"code_section":"93001000AR","code_commune":"93001","section_courte":"AR"}},{"type":"Feature","geometry":{"type":"MultiPolygon","coordinates":[[[[2.3962184,48.9117623],[2.3960933,48.9117969],[2.3959527,48.9116126],[2.3951796,48.9118466],[2.394939,48.9113714],[2.395103,48.9110772],[2.3968434,48.9103625],[2.3965299,48.9100063],[2.3981939,48.9092966],[2.4003695,48.9113016],[2.4001114,48.9114141],[2.3971878,48.9124123],[2.3965558,48.9116492],[2.3962054,48.9117441],[2.3962184,48.9117623]]]]},"properties":{"code_section":"93001000AS","code_commune":"93001","section_courte":"AS"}},{"type":"Feature","geometry":{"type":"MultiPolygon","coordinates":[[[[2.3933417,48.9084208],[2.3933091,48.9083717],[2.3963183,48.9075738],[2.3981939,48.9092966],[2.3965299,48.9100063],[2.3968434,48.9103625],[2.395103,48.9110772],[2.394939,48.9113714],[2.3947861,48.9110714],[2.3938817,48.9112937],[2.3933162,48.910695],[2.3932173,48.9107237],[2.3930687,48.9105044],[2.3942684,48.9101486],[2.394362,48.9102906],[2.3945849,48.9101994],[2.3933417,48.9084208]]]]},"properties":{"code_section":"93001000AT","code_commune":"93001","section_courte":"AT"}},{"type":"Feature","geometry":{"type":"MultiPolygon","coordinates":[[[[2.3936338,48.912533],[2.3914377,48.9130763],[2.3913316,48.9127568],[2.3912794,48.9109946],[2.3905847,48.9088429],[2.3930501,48.9084413],[2.3933091,48.9083717],[2.3945849,48.9101994],[2.394362,48.9102906],[2.3942684,48.9101486],[2.3930687,48.9105044],[2.3932173,48.9107237],[2.3933162,48.910695],[2.3938817,48.9112937],[2.3947861,48.9110714],[2.3952041,48.9118924],[2.3937521,48.9123073],[2.393819,48.9124335],[2.393597,48.9124952],[2.3936338,48.912533]]]]},"properties":{"code_section":"93001000AU","code_commune":"93001","section_courte":"AU"}},{"type":"Feature","geometry":{"type":"MultiPolygon","coordinates":[[[[2.3911888,48.9107131],[2.3912794,48.9109946],[2.3913316,48.9127568],[2.3914377,48.9130763],[2.3916433,48.9132064],[2.3918193,48.9134543],[2.3919528,48.9138377],[2.3918662,48.9142834],[2.3916262,48.9146364],[2.3886644,48.9144072],[2.3886821,48.9134108],[2.3886416,48.9131394],[2.3880729,48.9105665],[2.3910525,48.9102908],[2.3911888,48.9107131]]]]},"properties":{"code_section":"93001000AV","code_commune":"93001","section_courte":"AV"}},{"type":"Feature","geometry":{"type":"MultiPolygon","coordinates":[[[[2.3868995,48.9106747],[2.3880729,48.9105665],[2.3886416,48.9131394],[2.3886821,48.9134108],[2.3886644,48.9144072],[2.3876123,48.9147485],[2.3865296,48.9148886],[2.3863385,48.9149314],[2.3860616,48.9150528],[2.3857361,48.9145447],[2.3852079,48.9125611],[2.3850571,48.9108357],[2.3868995,48.9106747]]]]},"properties":{"code_section":"93001000AX","code_commune":"93001","section_courte":"AX"}},{"type":"Feature","geometry":{"type":"MultiPolygon","coordinates":[[[[2.3850111,48.9073456],[2.3876409,48.9067661],[2.387747,48.9070377],[2.388134,48.9086957],[2.3879554,48.9100089],[2.3880729,48.9105665],[2.3850571,48.9108357],[2.3850602,48.9104646],[2.3848516,48.909073],[2.3849256,48.9079939],[2.384693,48.9074164],[2.3850111,48.9073456]]]]},"properties":{"code_section":"93001000AY","code_commune":"93001","section_courte":"AY"}},{"type":"Feature","geometry":{"type":"MultiPolygon","coordinates":[[[[2.3892699,48.9064852],[2.3896949,48.9060438],[2.3910525,48.9102908],[2.3880729,48.9105665],[2.3879554,48.9100089],[2.388134,48.9086957],[2.387747,48.9070377],[2.3876409,48.9067661],[2.3892699,48.9064852]]]]},"properties":{"code_section":"93001000AZ","code_commune":"93001","section_courte":"AZ"}},{"type":"Feature","geometry":{"type":"MultiPolygon","coordinates":[[[[2.3942189,48.9056325],[2.3963183,48.9075738],[2.3930501,48.9084413],[2.3905847,48.9088429],[2.3898807,48.9066168],[2.3931188,48.9057382],[2.3937446,48.905199],[2.3942189,48.9056325]]]]},"properties":{"code_section":"93001000BC","code_commune":"93001","section_courte":"BC"}},{"type":"Feature","geometry":{"type":"MultiPolygon","coordinates":[[[[2.388969,48.9035805],[2.3908285,48.9025083],[2.3937446,48.905199],[2.3931188,48.9057382],[2.3898807,48.9066168],[2.3889156,48.9036162],[2.388969,48.9035805]]]]},"properties":{"code_section":"93001000BD","code_commune":"93001","section_courte":"BD"}},{"type":"Feature","geometry":{"type":"MultiPolygon","coordinates":[[[[2.3865675,48.9034865],[2.3887215,48.9030326],[2.3896949,48.9060438],[2.3892699,48.9064852],[2.3876409,48.9067661],[2.3873133,48.9058399],[2.3868994,48.9043798],[2.3866735,48.9038115],[2.3864705,48.9035148],[2.3865675,48.9034865]]]]},"properties":{"code_section":"93001000BE","code_commune":"93001","section_courte":"BE"}},{"type":"Feature","geometry":{"type":"MultiPolygon","coordinates":[[[[2.3839003,48.9048746],[2.3837407,48.9039141],[2.386335,48.9035544],[2.3864705,48.9035148],[2.3866735,48.9038115],[2.3868994,48.9043798],[2.3873133,48.9058399],[2.3876409,48.9067661],[2.384693,48.9074164],[2.3843649,48.9066113],[2.3839003,48.9048746]]]]},"properties":{"code_section":"93001000BF","code_commune":"93001","section_courte":"BF"}},{"type":"Feature","geometry":{"type":"MultiPolygon","coordinates":[[[[2.3886724,48.9024991],[2.3885874,48.9026697],[2.3887215,48.9030326],[2.386335,48.9035544],[2.3837407,48.9039141],[2.3833581,48.902637],[2.3847637,48.9022438],[2.385,48.9020534],[2.3881991,48.9014493],[2.3884608,48.9022749],[2.3886724,48.9024991]]]]},"properties":{"code_section":"93001000BG","code_commune":"93001","section_courte":"BG"}},{"type":"Feature","geometry":{"type":"MultiPolygon","coordinates":[[[[2.3887215,48.9030326],[2.3885874,48.9026697],[2.3886724,48.9024991],[2.3884608,48.9022749],[2.3881991,48.9014493],[2.3894339,48.9012171],[2.3908285,48.9025083],[2.3889156,48.9036162],[2.3887215,48.9030326]]]]},"properties":{"code_section":"93001000BH","code_commune":"93001","section_courte":"BH"}},{"type":"Feature","geometry":{"type":"MultiPolygon","coordinates":[[[[2.4047683,48.914808],[2.4043873,48.9150159],[2.4003695,48.9113016],[2.4009491,48.9110977],[2.4030851,48.9098656],[2.4060625,48.9085045],[2.4083487,48.9080827],[2.4114511,48.911325],[2.4074847,48.9139408],[2.4053248,48.9145339],[2.4047683,48.914808]]]]},"properties":{"code_section":"93001000BI","code_commune":"93001","section_courte":"BI"}}]}