{"type":"FeatureCollection","features":[{"type":"Feature","geometry":{"type":"MultiPolygon","coordinates":[[[[2.4476183,48.9556671],[2.4475707,48.9557102],[2.4473123,48.9556109],[2.4476968,48.9551879],[2.4477277,48.9551126],[2.4473994,48.9550322],[2.4468344,48.9548142],[2.4467704,48.9548833],[2.4464545,48.9544648],[2.4453783,48.9548607],[2.4451369,48.9547695],[2.4449868,48.9548232],[2.4439091,48.9543032],[2.4437577,48.9541993],[2.4428613,48.953231],[2.4425156,48.9533471],[2.4401018,48.9506213],[2.4403105,48.9505363],[2.4541345,48.9502079],[2.450715,48.9509852],[2.4498047,48.9512232],[2.4475201,48.9517489],[2.4488975,48.9535814],[2.4483862,48.9537556],[2.4491569,48.9547562],[2.4487834,48.9546428],[2.4484586,48.9546992],[2.4483232,48.9547578],[2.4481704,48.9549046],[2.448111,48.9550082],[2.4481182,48.9551271],[2.4480361,48.9552354],[2.4478229,48.9555049],[2.4476493,48.9555275],[2.4476183,48.9556671]]]]},"properties":{"code_section":"93007000AB","code_commune":"93007","section_courte":"AB"}},{"type":"Feature","geometry":{"type":"MultiPolygon","coordinates":[[[[2.448493,48.9460382],[2.4504039,48.9451639],[2.4588545,48.947154],[2.4543879,48.9501532],[2.4541345,48.9502079],[2.4536989,48.9502227],[2.4458887,48.9504062],[2.4446713,48.9486253],[2.4485698,48.9472691],[2.4475501,48.9464642],[2.448493,48.9460382]]]]},"properties":{"code_section":"93007000AC","code_commune":"93007","section_courte":"AC"}},{"type":"Feature","geometry":{"type":"MultiPolygon","coordinates":[[[[2.4618557,48.9527048],[2.4615373,48.9527769],[2.4615165,48.9530128],[2.4616886,48.9532167],[2.4620203,48.9533194],[2.4626112,48.9533397],[2.4617615,48.9535281],[2.4611415,48.9537532],[2.4608149,48.9539172],[2.4598923,48.9545282],[2.4593358,48.9551242],[2.4582257,48.9553671],[2.4567293,48.9557445],[2.4558392,48.9556674],[2.4542135,48.9556718],[2.4539218,48.9556392],[2.4534844,48.9555258],[2.453233,48.9554996],[2.4528546,48.9553444],[2.452238,48.955247],[2.4516114,48.9552079],[2.4509515,48.9550466],[2.4502688,48.9549655],[2.4492017,48.9551127],[2.4488218,48.9553017],[2.4480315,48.9559447],[2.4475088,48.9557818],[2.4476183,48.9556671],[2.4476493,48.9555275],[2.4478229,48.9555049],[2.4481182,48.9551271],[2.448111,48.9550082],[2.4482005,48.9548583],[2.4483232,48.9547578],[2.4484586,48.9546992],[2.4487834,48.9546428],[2.4491569,48.9547562],[2.4483862,48.9537556],[2.4488975,48.9535814],[2.4475201,48.9517489],[2.4498047,48.9512232],[2.450715,48.9509852],[2.4543879,48.9501532],[2.4588545,48.947154],[2.4613855,48.9477248],[2.4635293,48.9499296],[2.4654002,48.9519204],[2.4618557,48.9527048]]]]},"properties":{"code_section":"93007000AD","code_commune":"93007","section_courte":"AD"}},{"type":"Feature","geometry":{"type":"MultiPolygon","coordinates":[[[[2.4664974,48.9481894],[2.4666463,48.9496546],[2.4665308,48.9498317],[2.4664311,48.949892],[2.4635443,48.9499699],[2.4613855,48.9477248],[2.4588545,48.947154],[2.4591513,48.9470119],[2.4608674,48.9457139],[2.4615592,48.9453523],[2.4645858,48.9439014],[2.4656487,48.9448759],[2.4658349,48.9451393],[2.4661358,48.9458997],[2.4662173,48.9462316],[2.4663416,48.9462142],[2.4665807,48.9481376],[2.4664974,48.9481894]]]]},"properties":{"code_section":"93007000AE","code_commune":"93007","section_courte":"AE"}},{"type":"Feature","geometry":{"type":"MultiPolygon","coordinates":[[[[2.4826617,48.9361382],[2.4833019,48.9374538],[2.4817719,48.9378735],[2.4783619,48.93869],[2.4761323,48.939747],[2.4736951,48.9377863],[2.4744157,48.9371117],[2.4756465,48.9356383],[2.4765989,48.9358036],[2.4810559,48.9360557],[2.4826773,48.9360934],[2.4826617,48.9361382]]]]},"properties":{"code_section":"93007000AK","code_commune":"93007","section_courte":"AK"}},{"type":"Feature","geometry":{"type":"MultiPolygon","coordinates":[[[[2.4820702,48.9324092],[2.4818839,48.932578],[2.4817716,48.9327647],[2.4817858,48.9328568],[2.4816026,48.9334372],[2.4816447,48.9337864],[2.4817547,48.9340882],[2.4831718,48.9340063],[2.4835003,48.9344504],[2.4835787,48.9346112],[2.4835795,48.9347074],[2.4841799,48.9359002],[2.4841606,48.9359313],[2.4837821,48.9360002],[2.4826929,48.9360485],[2.4826773,48.9360934],[2.4810559,48.9360557],[2.4765989,48.9358036],[2.4756465,48.9356383],[2.4762869,48.9348167],[2.4742242,48.9338882],[2.4731001,48.9334156],[2.4727948,48.9334704],[2.4720795,48.9324434],[2.4755793,48.9323986],[2.4755873,48.9324316],[2.4781299,48.932391],[2.478138,48.9323675],[2.4783764,48.9323647],[2.4783825,48.9323876],[2.4821533,48.9323413],[2.4820702,48.9324092]]]]},"properties":{"code_section":"93007000AL","code_commune":"93007","section_courte":"AL"}},{"type":"Feature","geometry":{"type":"MultiPolygon","coordinates":[[[[2.4776178,48.9313891],[2.4776273,48.9312279],[2.4774944,48.9311712],[2.4773662,48.9311736],[2.477106,48.9312543],[2.476286,48.930922],[2.4763511,48.9308303],[2.4754544,48.930595],[2.4767515,48.9286719],[2.4755964,48.9283827],[2.4757947,48.9278014],[2.4759844,48.9275059],[2.4776132,48.9257451],[2.4759704,48.9248601],[2.4754884,48.9246303],[2.4777563,48.923443],[2.4780919,48.9237232],[2.4788088,48.9233489],[2.4804118,48.9240896],[2.4804823,48.9241568],[2.4807503,48.9247599],[2.4807455,48.9252978],[2.4808185,48.9256886],[2.4808221,48.9272371],[2.4809159,48.928202],[2.4808536,48.928632],[2.4807495,48.9288718],[2.4805009,48.9290945],[2.4801632,48.929058],[2.4801116,48.9291179],[2.4800379,48.9291324],[2.4800748,48.9292311],[2.4802583,48.9292662],[2.4800988,48.9294294],[2.4800089,48.9294705],[2.479279,48.930363],[2.4797941,48.9305389],[2.4803264,48.9306789],[2.4801236,48.9309858],[2.4809304,48.9309759],[2.4809777,48.9320826],[2.4821889,48.9320703],[2.4823842,48.9322132],[2.4822231,48.932338],[2.4821533,48.9323413],[2.4783825,48.9323876],[2.4783764,48.9323647],[2.478138,48.9323675],[2.4781299,48.932391],[2.4776489,48.9323944],[2.4776178,48.9313891]]]]},"properties":{"code_section":"93007000AM","code_commune":"93007","section_courte":"AM"}},{"type":"Feature","geometry":{"type":"MultiPolygon","coordinates":[[[[2.4758671,48.9244392],[2.4747921,48.9249668],[2.4744129,48.9247965],[2.4743236,48.9246803],[2.4734849,48.9241935],[2.4750179,48.9232944],[2.4742046,48.9231677],[2.4743176,48.9228481],[2.4723805,48.921326],[2.4730898,48.9210955],[2.4731289,48.9209913],[2.4726715,48.9203504],[2.4725383,48.9202382],[2.4735365,48.9200218],[2.4737321,48.919934],[2.4738496,48.9198253],[2.4739931,48.9195521],[2.474047,48.9192141],[2.4742515,48.9185661],[2.474393,48.9183535],[2.4759746,48.9188474],[2.4760585,48.9190198],[2.4760346,48.9191201],[2.4770209,48.9202543],[2.4794613,48.919932],[2.480276,48.9217489],[2.480746,48.9225481],[2.4809651,48.923296],[2.4809803,48.9238922],[2.4801147,48.9239468],[2.4788088,48.9233489],[2.4780919,48.9237232],[2.4777563,48.923443],[2.4761374,48.9242686],[2.4758671,48.9244392]]]]},"properties":{"code_section":"93007000AN","code_commune":"93007","section_courte":"AN"}},{"type":"Feature","geometry":{"type":"MultiPolygon","coordinates":[[[[2.4752022,48.9282679],[2.473434,48.9273902],[2.4726972,48.9271239],[2.4712011,48.9266856],[2.4706749,48.9265735],[2.4676433,48.9261816],[2.467228,48.926024],[2.4664044,48.9256365],[2.4694973,48.9224522],[2.4701692,48.9225592],[2.4702073,48.9224285],[2.4705548,48.9221745],[2.4707843,48.9219568],[2.4710195,48.9218128],[2.4717236,48.9215851],[2.4723805,48.921326],[2.4743176,48.9228481],[2.4742046,48.9231677],[2.4750179,48.9232944],[2.4734849,48.9241935],[2.4743236,48.9246803],[2.4744129,48.9247965],[2.4747704,48.9249631],[2.4748505,48.9249554],[2.4754884,48.9246303],[2.4759704,48.9248601],[2.4776132,48.9257451],[2.4759844,48.9275059],[2.4757947,48.9278014],[2.4755964,48.9283827],[2.4752022,48.9282679]]]]},"properties":{"code_section":"93007000AO","code_commune":"93007","section_courte":"AO"}},{"type":"Feature","geometry":{"type":"MultiPolygon","coordinates":[[[[2.4694973,48.9224522],[2.4664044,48.9256365],[2.466253,48.9255745],[2.4654261,48.9254087],[2.4650667,48.9253032],[2.4646725,48.9251322],[2.4626148,48.9239288],[2.4622741,48.9238382],[2.4624126,48.9235289],[2.4619172,48.9226467],[2.4619875,48.9220243],[2.4619607,48.921447],[2.4619315,48.9213897],[2.4618815,48.9213829],[2.4622159,48.9212672],[2.4619791,48.92098],[2.4620312,48.9209057],[2.4685844,48.9192942],[2.4682325,48.919105],[2.4682497,48.9190525],[2.4688115,48.9189588],[2.4688868,48.9189754],[2.4719709,48.920648],[2.4720803,48.9204823],[2.4721896,48.9203916],[2.4725383,48.9202382],[2.4726715,48.9203504],[2.4731289,48.9209913],[2.4730898,48.9210955],[2.4710195,48.9218128],[2.4707843,48.9219568],[2.4705548,48.9221745],[2.4702073,48.9224285],[2.4701692,48.9225592],[2.4694973,48.9224522]]]]},"properties":{"code_section":"93007000AP","code_commune":"93007","section_courte":"AP"}},{"type":"Feature","geometry":{"type":"MultiPolygon","coordinates":[[[[2.4641087,48.9247964],[2.4646725,48.9251322],[2.4650667,48.9253032],[2.4654261,48.9254087],[2.466253,48.9255745],[2.4674267,48.9261108],[2.4676433,48.9261816],[2.4692302,48.9264014],[2.4665409,48.9306034],[2.466665,48.9306275],[2.4671021,48.9306308],[2.4671365,48.9325381],[2.4672382,48.9325629],[2.4626521,48.9327372],[2.462634,48.9326995],[2.4625633,48.9327013],[2.4625417,48.9327466],[2.4619212,48.9327332],[2.4616384,48.9328655],[2.4614891,48.9328202],[2.4610931,48.9328269],[2.4613649,48.9326888],[2.4616154,48.9325142],[2.4638604,48.9308581],[2.4623636,48.9280376],[2.4622061,48.9278726],[2.4630622,48.9270795],[2.4626363,48.9267715],[2.4620223,48.926072],[2.4620193,48.9259373],[2.4621539,48.9256594],[2.4623059,48.9254358],[2.4626228,48.9251239],[2.4626734,48.9250133],[2.4623922,48.9246046],[2.4622285,48.924208],[2.4627336,48.9239996],[2.4641087,48.9247964]]]]},"properties":{"code_section":"93007000AR","code_commune":"93007","section_courte":"AR"}},{"type":"Feature","geometry":{"type":"MultiPolygon","coordinates":[[[[2.466665,48.9306275],[2.4665409,48.9306034],[2.4692302,48.9264014],[2.4706749,48.9265735],[2.4712011,48.9266856],[2.4731433,48.9272669],[2.4752022,48.9282679],[2.4767515,48.9286719],[2.4754544,48.930595],[2.4763511,48.9308303],[2.476286,48.930922],[2.477106,48.9312543],[2.4773662,48.9311736],[2.4774944,48.9311712],[2.4776273,48.9312279],[2.4776489,48.9323944],[2.4755873,48.9324316],[2.4755793,48.9323986],[2.4708355,48.932454],[2.4704438,48.9324842],[2.4690319,48.9324958],[2.4671711,48.9325603],[2.4671365,48.9325381],[2.4671021,48.9306308],[2.466665,48.9306275]]]]},"properties":{"code_section":"93007000AS","code_commune":"93007","section_courte":"AS"}},{"type":"Feature","geometry":{"type":"MultiPolygon","coordinates":[[[[2.4720929,48.9324631],[2.4727948,48.9334704],[2.4731001,48.9334156],[2.4742242,48.9338882],[2.4762869,48.9348167],[2.4757039,48.9355943],[2.4744157,48.9371117],[2.4730888,48.9383661],[2.4696053,48.9352607],[2.4669869,48.9359505],[2.4645913,48.9329116],[2.4647347,48.9329101],[2.4647201,48.9326514],[2.4690319,48.9324958],[2.4704438,48.9324842],[2.4708355,48.932454],[2.4720795,48.9324434],[2.4720929,48.9324631]]]]},"properties":{"code_section":"93007000AT","code_commune":"93007","section_courte":"AT"}},{"type":"Feature","geometry":{"type":"MultiPolygon","coordinates":[[[[2.4646297,48.9329592],[2.4669869,48.9359505],[2.4659955,48.9362132],[2.4619109,48.9379005],[2.4603743,48.9383725],[2.4578931,48.9394891],[2.457522,48.9395793],[2.4565661,48.9396637],[2.4565823,48.9395994],[2.456497,48.9394925],[2.4549823,48.9377453],[2.4554466,48.9375347],[2.456107,48.9369045],[2.4562813,48.9367803],[2.4567982,48.9362206],[2.4576074,48.935885],[2.4577466,48.9356384],[2.4580575,48.9354085],[2.4577306,48.9351915],[2.4574105,48.9344133],[2.4578668,48.9342828],[2.4579678,48.9342888],[2.4583365,48.9341144],[2.4593681,48.9334554],[2.4596388,48.9332481],[2.4610283,48.9328393],[2.4614891,48.9328202],[2.4616384,48.9328655],[2.4619212,48.9327332],[2.4625417,48.9327466],[2.4625633,48.9327013],[2.462634,48.9326995],[2.4626521,48.9327372],[2.4647201,48.9326514],[2.4647347,48.9329101],[2.4645913,48.9329116],[2.4646297,48.9329592]]]]},"properties":{"code_section":"93007000AV","code_commune":"93007","section_courte":"AV"}},{"type":"Feature","geometry":{"type":"MultiPolygon","coordinates":[[[[2.4696518,48.9353027],[2.4730888,48.9383661],[2.4719671,48.9394381],[2.4660048,48.9432199],[2.4657626,48.9431046],[2.4642082,48.9416948],[2.4622783,48.9426217],[2.4616226,48.9419929],[2.4617382,48.9419381],[2.4614106,48.9416096],[2.4610753,48.9413055],[2.4609658,48.9413578],[2.4586547,48.9391334],[2.4603743,48.9383725],[2.4619109,48.9379005],[2.4659955,48.9362132],[2.4696053,48.9352607],[2.4696518,48.9353027]]]]},"properties":{"code_section":"93007000AW","code_commune":"93007","section_courte":"AW"}},{"type":"Feature","geometry":{"type":"MultiPolygon","coordinates":[[[[2.4614286,48.9416514],[2.4617382,48.9419381],[2.4616226,48.9419929],[2.4622783,48.9426217],[2.4642082,48.9416948],[2.4657626,48.9431046],[2.4660048,48.9432199],[2.4615592,48.9453523],[2.4608674,48.9457139],[2.4591513,48.9470119],[2.4588545,48.947154],[2.4528704,48.9457354],[2.4529861,48.945704],[2.4614106,48.9416096],[2.4614286,48.9416514]]]]},"properties":{"code_section":"93007000AX","code_commune":"93007","section_courte":"AX"}},{"type":"Feature","geometry":{"type":"MultiPolygon","coordinates":[[[[2.449453,48.9405367],[2.4511942,48.9404053],[2.4524043,48.940261],[2.45184,48.9391386],[2.4524421,48.9391234],[2.4532439,48.9386957],[2.4535556,48.9384916],[2.4536146,48.9384436],[2.4536979,48.9382574],[2.4538565,48.9381376],[2.4542214,48.9379678],[2.4549823,48.9377453],[2.456497,48.9394925],[2.4565823,48.9395994],[2.4565661,48.9396637],[2.457522,48.9395793],[2.4578931,48.9394891],[2.4586547,48.9391334],[2.4609658,48.9413578],[2.4610753,48.9413055],[2.4614106,48.9416096],[2.4529861,48.945704],[2.4528704,48.9457354],[2.4504039,48.9451639],[2.4492926,48.9448002],[2.4512131,48.94396],[2.4498884,48.9425047],[2.4493387,48.9405421],[2.449453,48.9405367]]]]},"properties":{"code_section":"93007000AY","code_commune":"93007","section_courte":"AY"}},{"type":"Feature","geometry":{"type":"MultiPolygon","coordinates":[[[[2.4421468,48.9436279],[2.4419597,48.9431731],[2.4436749,48.9434222],[2.4444653,48.9435803],[2.4467536,48.9442086],[2.4477015,48.9443764],[2.4485458,48.9445757],[2.4504039,48.9451639],[2.4475501,48.9464642],[2.4485698,48.9472691],[2.4446713,48.9486253],[2.4444054,48.9482361],[2.4448538,48.9477912],[2.445535,48.9472545],[2.4453994,48.947185],[2.443984,48.944817],[2.4427192,48.9449662],[2.4421468,48.9436279]]]]},"properties":{"code_section":"93007000AZ","code_commune":"93007","section_courte":"AZ"}},{"type":"Feature","geometry":{"type":"MultiPolygon","coordinates":[[[[2.4427512,48.9401424],[2.4433179,48.9401756],[2.445474,48.9404682],[2.4464069,48.9405314],[2.4465793,48.9399981],[2.4465315,48.9397075],[2.4463218,48.9393832],[2.445946,48.9391262],[2.4468235,48.9393305],[2.4468937,48.9391313],[2.4471986,48.9393083],[2.4476124,48.9394809],[2.4478883,48.9395618],[2.4483512,48.9396227],[2.4486203,48.9396164],[2.4502216,48.9393998],[2.4504258,48.9392524],[2.4506198,48.9391793],[2.4510911,48.939145],[2.45184,48.9391386],[2.4524043,48.940261],[2.4511942,48.9404053],[2.4493387,48.9405421],[2.4498884,48.9425047],[2.4512131,48.94396],[2.4492926,48.9448002],[2.4481061,48.9444704],[2.4467536,48.9442086],[2.4451104,48.9437469],[2.4441536,48.9435116],[2.4408451,48.9430158],[2.4406339,48.9400565],[2.4427512,48.9401424]]]]},"properties":{"code_section":"93007000BC","code_commune":"93007","section_courte":"BC"}},{"type":"Feature","geometry":{"type":"MultiPolygon","coordinates":[[[[2.446236,48.9405205],[2.445474,48.9404682],[2.4433179,48.9401756],[2.4399679,48.9400292],[2.4390302,48.9400459],[2.4387035,48.940084],[2.4369791,48.940407],[2.4360222,48.9377632],[2.4386771,48.9377013],[2.4389005,48.9359454],[2.4396488,48.9362122],[2.4403465,48.9363548],[2.4406667,48.9365405],[2.441136,48.9367155],[2.4416853,48.9369922],[2.4421666,48.9371167],[2.4429663,48.9374039],[2.4435897,48.937502],[2.4439444,48.9375981],[2.4454688,48.9382639],[2.4461521,48.9385172],[2.4463763,48.9386346],[2.4468937,48.9391313],[2.4468235,48.9393305],[2.445946,48.9391262],[2.4463218,48.9393832],[2.4464705,48.9395847],[2.4465722,48.9398558],[2.4465793,48.9399981],[2.4464069,48.9405314],[2.446236,48.9405205]]]]},"properties":{"code_section":"93007000BD","code_commune":"93007","section_courte":"BD"}},{"type":"Feature","geometry":{"type":"MultiPolygon","coordinates":[[[[2.4360684,48.9460814],[2.4310975,48.9405094],[2.431941,48.9403684],[2.4310253,48.9390337],[2.4313148,48.9389494],[2.4311979,48.9387826],[2.4328405,48.9382387],[2.4355564,48.9377867],[2.4360222,48.9377632],[2.4369791,48.940407],[2.4381666,48.9401709],[2.4390302,48.9400459],[2.4399679,48.9400292],[2.4406339,48.9400565],[2.4408451,48.9429516],[2.4408451,48.9430158],[2.4392794,48.9428048],[2.4392721,48.9428532],[2.440527,48.9452376],[2.4403863,48.9452531],[2.4402754,48.9453454],[2.43894,48.9453024],[2.4360684,48.9460814]]]]},"properties":{"code_section":"93007000BE","code_commune":"93007","section_courte":"BE"}},{"type":"Feature","geometry":{"type":"MultiPolygon","coordinates":[[[[2.4432788,48.950453],[2.4403105,48.9505363],[2.4401018,48.9506213],[2.4360684,48.9460814],[2.43894,48.9453024],[2.4402754,48.9453454],[2.4403863,48.9452531],[2.440527,48.9452376],[2.4392721,48.9428532],[2.4392794,48.9428048],[2.4419597,48.9431731],[2.4427192,48.9449662],[2.443984,48.944817],[2.4453994,48.947185],[2.445535,48.9472545],[2.4448538,48.9477912],[2.4444054,48.9482361],[2.4458887,48.9504062],[2.4432788,48.950453]]]]},"properties":{"code_section":"93007000BH","code_commune":"93007","section_courte":"BH"}},{"type":"Feature","geometry":{"type":"MultiPolygon","coordinates":[[[[2.4664974,48.9481894],[2.4665807,48.9481376],[2.4665683,48.9480028],[2.4666863,48.9480435],[2.4667308,48.9484761],[2.4668898,48.9482683],[2.4671341,48.9481799],[2.4714985,48.9480961],[2.4715192,48.9491273],[2.472425,48.951682],[2.4689256,48.952234],[2.4674096,48.9525498],[2.4666263,48.9528078],[2.466185,48.9526663],[2.4660453,48.9525357],[2.4654917,48.9528188],[2.465311,48.9529528],[2.4648222,48.953153],[2.4645656,48.9532097],[2.463937,48.9532553],[2.4629767,48.9532569],[2.4626112,48.9533397],[2.4620203,48.9533194],[2.4616886,48.9532167],[2.4615165,48.9530128],[2.4615373,48.9527769],[2.4654002,48.9519204],[2.4635443,48.9499699],[2.4664311,48.949892],[2.4665308,48.9498317],[2.4666463,48.9496546],[2.4664974,48.9481894]]]]},"properties":{"code_section":"93007000BI","code_commune":"93007","section_courte":"BI"}},{"type":"Feature","geometry":{"type":"MultiPolygon","coordinates":[[[[2.4734846,48.9462589],[2.4720029,48.9469723],[2.47148,48.9471703],[2.4714985,48.9480961],[2.4671341,48.9481799],[2.4668898,48.9482683],[2.4667308,48.9484761],[2.4666863,48.9480435],[2.4665683,48.9480028],[2.4663416,48.9462142],[2.4662173,48.9462316],[2.4661358,48.9458997],[2.4658349,48.9451393],[2.4656487,48.9448759],[2.4645858,48.9439014],[2.4660048,48.9432199],[2.4689984,48.9413309],[2.4702438,48.942179],[2.4712656,48.9433061],[2.4722817,48.9439959],[2.4724713,48.9442356],[2.4744528,48.9455846],[2.4747672,48.9459728],[2.4740512,48.9459832],[2.4734846,48.9462589]]]]},"properties":{"code_section":"93007000BK","code_commune":"93007","section_courte":"BK"}},{"type":"Feature","geometry":{"type":"MultiPolygon","coordinates":[[[[2.4702438,48.942179],[2.4689984,48.9413309],[2.4719671,48.9394381],[2.4736951,48.9377863],[2.4761323,48.939747],[2.4796064,48.9426386],[2.4784116,48.9442011],[2.4784546,48.9442247],[2.4783479,48.9443725],[2.4778749,48.9443989],[2.4776605,48.9444814],[2.4769188,48.9446067],[2.4767313,48.9449836],[2.4764654,48.9450894],[2.4763755,48.9452916],[2.4758909,48.9455671],[2.4753697,48.9459673],[2.4747672,48.9459728],[2.4744528,48.9455846],[2.4724713,48.9442356],[2.4722817,48.9439959],[2.4712656,48.9433061],[2.4702438,48.942179]]]]},"properties":{"code_section":"93007000BL","code_commune":"93007","section_courte":"BL"}}]}