{"type":"FeatureCollection","features":[{"type":"Feature","geometry":{"type":"MultiPolygon","coordinates":[[[[2.4325138,48.8760153],[2.433336,48.8758651],[2.4333965,48.8759678],[2.4338205,48.8758594],[2.4339631,48.8761091],[2.4340648,48.8760843],[2.4344905,48.8768204],[2.4365856,48.876475],[2.4368474,48.8768353],[2.4367817,48.8768569],[2.4370603,48.8772902],[2.434367,48.8782762],[2.4330389,48.8789194],[2.4327638,48.8780511],[2.4325206,48.8768332],[2.4320536,48.8761067],[2.4325138,48.8760153]]]]},"properties":{"code_section":"930060000A","code_commune":"93006","section_courte":"A"}},{"type":"Feature","geometry":{"type":"MultiPolygon","coordinates":[[[[2.4342755,48.8764481],[2.4340648,48.8760843],[2.4339631,48.8761091],[2.4338205,48.8758594],[2.4333965,48.8759678],[2.433336,48.8758651],[2.4320536,48.8761067],[2.4311469,48.8746593],[2.4336915,48.873591],[2.4339816,48.8739676],[2.4344919,48.8742667],[2.4354127,48.8746147],[2.4358584,48.8747493],[2.4362645,48.8747878],[2.4366869,48.8764588],[2.4344905,48.8768204],[2.4342755,48.8764481]]]]},"properties":{"code_section":"930060000B","code_commune":"93006","section_courte":"B"}},{"type":"Feature","geometry":{"type":"MultiPolygon","coordinates":[[[[2.4330389,48.8789194],[2.4329042,48.8789936],[2.4316601,48.8786457],[2.4297874,48.878306],[2.428768,48.8755538],[2.4311469,48.8746593],[2.4325206,48.8768332],[2.4327638,48.8780511],[2.4330389,48.8789194]]]]},"properties":{"code_section":"930060000C","code_commune":"93006","section_courte":"C"}},{"type":"Feature","geometry":{"type":"MultiPolygon","coordinates":[[[[2.428768,48.8755538],[2.4297874,48.878306],[2.4282311,48.878198],[2.4270868,48.8782166],[2.4264315,48.8767373],[2.4259908,48.8763314],[2.4250586,48.875699],[2.425973,48.875542],[2.4259839,48.875561],[2.426825,48.8754424],[2.4268563,48.8755223],[2.4286264,48.8752204],[2.428768,48.8755538]]]]},"properties":{"code_section":"930060000D","code_commune":"93006","section_courte":"D"}},{"type":"Feature","geometry":{"type":"MultiPolygon","coordinates":[[[[2.4270868,48.8782166],[2.4256416,48.8782952],[2.4230411,48.8782934],[2.422531,48.8782684],[2.423136,48.8762295],[2.4239555,48.8758254],[2.4242843,48.8754754],[2.425121,48.875723],[2.4259908,48.8763314],[2.4264315,48.8767373],[2.4270868,48.8782166]]]]},"properties":{"code_section":"930060000E","code_commune":"93006","section_courte":"E"}},{"type":"Feature","geometry":{"type":"MultiPolygon","coordinates":[[[[2.4228412,48.8773164],[2.422531,48.8782684],[2.4214303,48.8781664],[2.4207337,48.8779536],[2.4203513,48.877793],[2.4185359,48.8766548],[2.4214324,48.8754994],[2.4216032,48.8756193],[2.4225534,48.8760922],[2.423136,48.8762295],[2.4228412,48.8773164]]]]},"properties":{"code_section":"930060000F","code_commune":"93006","section_courte":"F"}},{"type":"Feature","geometry":{"type":"MultiPolygon","coordinates":[[[[2.4185359,48.8766548],[2.4172834,48.8758582],[2.4166069,48.8754758],[2.4158049,48.8750753],[2.4170192,48.8745239],[2.4185327,48.8739612],[2.4197243,48.8733759],[2.4213536,48.875541],[2.4185359,48.8766548]]]]},"properties":{"code_section":"930060000G","code_commune":"93006","section_courte":"G"}},{"type":"Feature","geometry":{"type":"MultiPolygon","coordinates":[[[[2.4239555,48.8758254],[2.423136,48.8762295],[2.4225534,48.8760922],[2.4216032,48.8756193],[2.4214324,48.8754994],[2.4213536,48.875541],[2.4197243,48.8733759],[2.4200401,48.8730233],[2.4204769,48.8727476],[2.4215915,48.8723994],[2.421752,48.8728715],[2.4222773,48.8740281],[2.4232405,48.8750055],[2.4242843,48.8754754],[2.4239555,48.8758254]]]]},"properties":{"code_section":"930060000H","code_commune":"93006","section_courte":"H"}},{"type":"Feature","geometry":{"type":"MultiPolygon","coordinates":[[[[2.4216886,48.8727048],[2.4245748,48.8720068],[2.4247073,48.8723296],[2.4248873,48.8730668],[2.4254434,48.8747252],[2.4246662,48.8750035],[2.4242843,48.8754754],[2.4232405,48.8750055],[2.4222773,48.8740281],[2.4216886,48.8727048]]]]},"properties":{"code_section":"930060000I","code_commune":"93006","section_courte":"I"}},{"type":"Feature","geometry":{"type":"MultiPolygon","coordinates":[[[[2.4274916,48.8737866],[2.4276673,48.8737303],[2.4284953,48.8749054],[2.4286264,48.8752204],[2.4268563,48.8755223],[2.426825,48.8754424],[2.4259839,48.875561],[2.425973,48.875542],[2.4250586,48.875699],[2.4242843,48.8754754],[2.4246662,48.8750035],[2.4254434,48.8747252],[2.4248873,48.8730668],[2.4247073,48.8723296],[2.4258947,48.8721679],[2.4269644,48.8722253],[2.4274916,48.8737866]]]]},"properties":{"code_section":"930060000J","code_commune":"93006","section_courte":"J"}},{"type":"Feature","geometry":{"type":"MultiPolygon","coordinates":[[[[2.430761,48.8729626],[2.4329102,48.8724555],[2.4336915,48.873591],[2.4311469,48.8746593],[2.428768,48.8755538],[2.4284953,48.8749054],[2.4276673,48.8737303],[2.4288554,48.8734157],[2.430761,48.8729626]]]]},"properties":{"code_section":"930060000K","code_commune":"93006","section_courte":"K"}},{"type":"Feature","geometry":{"type":"MultiPolygon","coordinates":[[[[2.4273784,48.8734814],[2.4269644,48.8722253],[2.4270949,48.8722317],[2.4272158,48.8712099],[2.4273437,48.8710307],[2.4274262,48.8710288],[2.427424,48.8710051],[2.4284447,48.8709831],[2.4284439,48.8709556],[2.4297935,48.8710132],[2.4301616,48.8706692],[2.4302045,48.8706745],[2.4321324,48.8715448],[2.4324479,48.871767],[2.4329102,48.8724555],[2.4288554,48.8734157],[2.4274916,48.8737866],[2.4273784,48.8734814]]]]},"properties":{"code_section":"930060000L","code_commune":"93006","section_courte":"L"}},{"type":"Feature","geometry":{"type":"MultiPolygon","coordinates":[[[[2.4273931,48.8703964],[2.4276381,48.8703913],[2.4275478,48.8685706],[2.4289506,48.8683139],[2.4299684,48.8690847],[2.4302986,48.8692577],[2.4305477,48.8701523],[2.4302045,48.8706745],[2.4301616,48.8706692],[2.4297935,48.8710132],[2.4284439,48.8709556],[2.4284447,48.8709831],[2.427424,48.8710051],[2.4273931,48.8703964]]]]},"properties":{"code_section":"930060000M","code_commune":"93006","section_courte":"M"}},{"type":"Feature","geometry":{"type":"MultiPolygon","coordinates":[[[[2.4275588,48.8688165],[2.4276381,48.8703913],[2.4273931,48.8703964],[2.4274262,48.8710288],[2.4273437,48.8710307],[2.4272158,48.8712099],[2.4270949,48.8722317],[2.4258947,48.8721679],[2.4247073,48.8723296],[2.4233172,48.8691225],[2.4240682,48.8689769],[2.4275478,48.8685706],[2.4275588,48.8688165]]]]},"properties":{"code_section":"930060000N","code_commune":"93006","section_courte":"N"}},{"type":"Feature","geometry":{"type":"MultiPolygon","coordinates":[[[[2.4216886,48.8727048],[2.4215915,48.8723994],[2.4210781,48.8725624],[2.4205147,48.8717366],[2.4198673,48.870903],[2.4195549,48.8705632],[2.4191951,48.8702593],[2.4199849,48.8698948],[2.4200745,48.8699779],[2.4204543,48.8699102],[2.4208563,48.8700019],[2.4212061,48.8699692],[2.4218749,48.8695612],[2.4233172,48.8691225],[2.4245748,48.8720068],[2.4216886,48.8727048]]]]},"properties":{"code_section":"930060000O","code_commune":"93006","section_courte":"O"}},{"type":"Feature","geometry":{"type":"MultiPolygon","coordinates":[[[[2.4162708,48.8719202],[2.4154315,48.87156],[2.4155053,48.8714948],[2.4174721,48.8708564],[2.4191951,48.8702593],[2.4195549,48.8705632],[2.4198673,48.870903],[2.4205147,48.8717366],[2.4210781,48.8725624],[2.4204769,48.8727476],[2.4200401,48.8730233],[2.4197243,48.8733759],[2.4185327,48.8739612],[2.4183189,48.8737911],[2.4177548,48.8730394],[2.4167742,48.8722077],[2.4162708,48.8719202]]]]},"properties":{"code_section":"930060000P","code_commune":"93006","section_courte":"P"}},{"type":"Feature","geometry":{"type":"MultiPolygon","coordinates":[[[[2.4136683,48.8721813],[2.4137129,48.8717652],[2.4144265,48.8715457],[2.4152024,48.8715932],[2.4152637,48.8715636],[2.4154315,48.87156],[2.4162708,48.8719202],[2.4167742,48.8722077],[2.4177548,48.8730394],[2.4183189,48.8737911],[2.4185327,48.8739612],[2.4170192,48.8745239],[2.4158049,48.8750753],[2.4134446,48.8731502],[2.4136085,48.8725984],[2.4136683,48.8721813]]]]},"properties":{"code_section":"930060000Q","code_commune":"93006","section_courte":"Q"}},{"type":"Feature","geometry":{"type":"MultiPolygon","coordinates":[[[[2.4137246,48.8716623],[2.4140064,48.868908],[2.413963,48.8675959],[2.4151957,48.8686768],[2.4174721,48.8708564],[2.4155053,48.8714948],[2.4154315,48.87156],[2.4152637,48.8715636],[2.4152024,48.8715932],[2.4144265,48.8715457],[2.4137129,48.8717652],[2.4137246,48.8716623]]]]},"properties":{"code_section":"930060000R","code_commune":"93006","section_courte":"R"}},{"type":"Feature","geometry":{"type":"MultiPolygon","coordinates":[[[[2.4156505,48.8683726],[2.4155544,48.8682353],[2.4162849,48.8678584],[2.4168733,48.8676678],[2.4182831,48.8673909],[2.4193821,48.8690714],[2.4199849,48.8698948],[2.4191951,48.8702593],[2.4174721,48.8708564],[2.4151957,48.8686768],[2.4156505,48.8683726]]]]},"properties":{"code_section":"930060000S","code_commune":"93006","section_courte":"S"}},{"type":"Feature","geometry":{"type":"MultiPolygon","coordinates":[[[[2.4221035,48.8694907],[2.4218522,48.8695718],[2.4212061,48.8699692],[2.4208563,48.8700019],[2.4204543,48.8699102],[2.4200745,48.8699779],[2.4193821,48.8690714],[2.4182831,48.8673909],[2.4188613,48.8672663],[2.4191204,48.8671699],[2.4202647,48.8669368],[2.4212627,48.8668352],[2.4225524,48.866888],[2.4225476,48.868278],[2.4224045,48.8685181],[2.4233172,48.8691225],[2.4221035,48.8694907]]]]},"properties":{"code_section":"930060000T","code_commune":"93006","section_courte":"T"}},{"type":"Feature","geometry":{"type":"MultiPolygon","coordinates":[[[[2.4266302,48.8668652],[2.427371,48.8661766],[2.4288848,48.8668971],[2.4295148,48.8674405],[2.4294566,48.8676144],[2.4289477,48.8679432],[2.4293376,48.868215],[2.4289506,48.8683139],[2.4277152,48.868549],[2.4240682,48.8689769],[2.4233172,48.8691225],[2.4224045,48.8685181],[2.4225476,48.868278],[2.4225524,48.866888],[2.4230926,48.8668527],[2.4247799,48.8666601],[2.4250575,48.8663076],[2.4257979,48.8665475],[2.4265801,48.8669132],[2.4266302,48.8668652]]]]},"properties":{"code_section":"930060000U","code_commune":"93006","section_courte":"U"}},{"type":"Feature","geometry":{"type":"MultiPolygon","coordinates":[[[[2.4280935,48.8650197],[2.4278143,48.8662202],[2.4277594,48.8662531],[2.4276701,48.8662371],[2.4276134,48.866291],[2.427371,48.8661766],[2.4265801,48.8669132],[2.4257979,48.8665475],[2.4250575,48.8663076],[2.4251244,48.8661902],[2.4252725,48.8653768],[2.4255709,48.8646829],[2.4249356,48.8645697],[2.424957,48.8645096],[2.4238534,48.8643211],[2.424177,48.863528],[2.4241247,48.8634614],[2.4242935,48.8627368],[2.4286438,48.8635667],[2.4286242,48.8636324],[2.4286716,48.86364],[2.428424,48.8643621],[2.4283233,48.8643515],[2.4280935,48.8650197]]]]},"properties":{"code_section":"930060000V","code_commune":"93006","section_courte":"V"}},{"type":"Feature","geometry":{"type":"MultiPolygon","coordinates":[[[[2.4209893,48.8643317],[2.4209209,48.8641772],[2.420712,48.864145],[2.420917,48.8636324],[2.4218235,48.8634728],[2.4223372,48.8634666],[2.4230962,48.863339],[2.4241209,48.8634897],[2.4241771,48.863528],[2.4238534,48.8643211],[2.424957,48.8645096],[2.4249356,48.8645697],[2.4255709,48.8646829],[2.4252725,48.8653768],[2.4251244,48.8661902],[2.4247799,48.8666601],[2.4230779,48.8668541],[2.4225764,48.8668886],[2.4221016,48.8668697],[2.4209893,48.8643317]]]]},"properties":{"code_section":"930060000X","code_commune":"93006","section_courte":"X"}},{"type":"Feature","geometry":{"type":"MultiPolygon","coordinates":[[[[2.4219084,48.8664174],[2.4221016,48.8668697],[2.4212512,48.8668356],[2.4202647,48.8669368],[2.4191204,48.8671699],[2.4188613,48.8672663],[2.4182831,48.8673909],[2.4176971,48.8664095],[2.417631,48.86612],[2.4174618,48.8656917],[2.4174969,48.8656839],[2.4174654,48.8655785],[2.4174354,48.8655838],[2.4173953,48.8654743],[2.4174138,48.8653664],[2.4173128,48.8652696],[2.4172694,48.8651057],[2.4176439,48.8650717],[2.4176244,48.8650163],[2.4179774,48.8649914],[2.4180542,48.86494],[2.4181675,48.8647553],[2.4182562,48.8647448],[2.4182906,48.8646793],[2.4184631,48.8646164],[2.4186551,48.8636683],[2.4185547,48.8635861],[2.4185887,48.8635215],[2.420917,48.8636324],[2.420712,48.864145],[2.4209209,48.8641772],[2.4219084,48.8664174]]]]},"properties":{"code_section":"930060000Y","code_commune":"93006","section_courte":"Y"}},{"type":"Feature","geometry":{"type":"MultiPolygon","coordinates":[[[[2.4174922,48.8656862],[2.4174618,48.8656917],[2.417631,48.86612],[2.4176971,48.8664095],[2.4182831,48.8673909],[2.4168733,48.8676678],[2.4162849,48.8678584],[2.4155544,48.8682353],[2.4156505,48.8683726],[2.4151957,48.8686768],[2.413963,48.8675959],[2.4138947,48.8651754],[2.4150463,48.8651865],[2.4172533,48.8650314],[2.4174922,48.8656862]]]]},"properties":{"code_section":"930060000Z","code_commune":"93006","section_courte":"Z"}},{"type":"Feature","geometry":{"type":"MultiPolygon","coordinates":[[[[2.4161937,48.8651053],[2.4150463,48.8651865],[2.4138947,48.8651754],[2.4138643,48.8640829],[2.4140007,48.8630311],[2.4146042,48.8632294],[2.4149653,48.8630152],[2.4148634,48.8629065],[2.4149344,48.8629079],[2.4150174,48.8629827],[2.4161534,48.8623074],[2.4165074,48.8632082],[2.4185887,48.8635215],[2.4185547,48.8635861],[2.4186551,48.8636683],[2.418475,48.8646009],[2.4183999,48.8646562],[2.4182906,48.8646793],[2.4182562,48.8647448],[2.4181675,48.8647553],[2.4180029,48.8649791],[2.4179267,48.8650074],[2.4176244,48.8650163],[2.4176439,48.8650717],[2.4172777,48.8651048],[2.4172533,48.8650314],[2.4161937,48.8651053]]]]},"properties":{"code_section":"93006000AB","code_commune":"93006","section_courte":"AB"}},{"type":"Feature","geometry":{"type":"MultiPolygon","coordinates":[[[[2.4152738,48.8597065],[2.4164767,48.8597342],[2.4164845,48.8596904],[2.4168793,48.8597311],[2.4164755,48.8620838],[2.4161534,48.8623074],[2.4150174,48.8629827],[2.4149344,48.8629079],[2.4148634,48.8629065],[2.4149653,48.8630152],[2.4146042,48.8632294],[2.4140007,48.8630311],[2.4146602,48.8589195],[2.4148097,48.8589171],[2.4151187,48.859704],[2.4152738,48.8597065]]]]},"properties":{"code_section":"93006000AC","code_commune":"93006","section_courte":"AC"}},{"type":"Feature","geometry":{"type":"MultiPolygon","coordinates":[[[[2.4168793,48.8597311],[2.4170234,48.8589196],[2.4205593,48.8600972],[2.4201745,48.8609249],[2.4187538,48.8635455],[2.4165074,48.8632082],[2.4161534,48.8623074],[2.4164755,48.8620838],[2.4168793,48.8597311]]]]},"properties":{"code_section":"93006000AD","code_commune":"93006","section_courte":"AD"}},{"type":"Feature","geometry":{"type":"MultiPolygon","coordinates":[[[[2.4229078,48.8616048],[2.4229759,48.8617708],[2.4231405,48.8618712],[2.4237213,48.8619621],[2.4240531,48.8620681],[2.4239009,48.8626951],[2.4242932,48.8627388],[2.4241209,48.8634897],[2.4230962,48.863339],[2.4223372,48.8634666],[2.4218235,48.8634728],[2.420917,48.8636324],[2.4187538,48.8635455],[2.4201745,48.8609249],[2.4211955,48.8610431],[2.4224831,48.8608679],[2.4226453,48.8610862],[2.4229078,48.8616048]]]]},"properties":{"code_section":"93006000AE","code_commune":"93006","section_courte":"AE"}},{"type":"Feature","geometry":{"type":"MultiPolygon","coordinates":[[[[2.4234113,48.857467],[2.4234433,48.85976],[2.4229871,48.8605415],[2.4224831,48.8608679],[2.4211955,48.8610431],[2.4201745,48.8609249],[2.4220071,48.857105],[2.4234066,48.857289],[2.4234113,48.857467]]]]},"properties":{"code_section":"93006000AF","code_commune":"93006","section_courte":"AF"}},{"type":"Feature","geometry":{"type":"MultiPolygon","coordinates":[[[[2.4205593,48.8600972],[2.4170234,48.8589196],[2.4169828,48.8586859],[2.4182134,48.8562779],[2.4220071,48.857105],[2.4205593,48.8600972]]]]},"properties":{"code_section":"93006000AG","code_commune":"93006","section_courte":"AG"}},{"type":"Feature","geometry":{"type":"MultiPolygon","coordinates":[[[[2.4164767,48.8597342],[2.4151187,48.859704],[2.4148097,48.8589171],[2.4146602,48.8589195],[2.4153069,48.8551772],[2.4168167,48.8558941],[2.4175121,48.856115],[2.4182134,48.8562779],[2.4169828,48.8586859],[2.4170234,48.8589196],[2.4168793,48.8597311],[2.4164845,48.8596904],[2.4164767,48.8597342]]]]},"properties":{"code_section":"93006000AH","code_commune":"93006","section_courte":"AH"}}]}