{"type":"FeatureCollection","features":[{"type":"Feature","geometry":{"type":"MultiPolygon","coordinates":[[[[2.4318271,48.9416549],[2.4320493,48.9415695],[2.4352216,48.9452083],[2.4305699,48.9464656],[2.4284915,48.9440647],[2.4279076,48.9442754],[2.4264024,48.9425272],[2.4228524,48.9417111],[2.422523,48.9415824],[2.4223255,48.9414673],[2.4222134,48.941313],[2.4222042,48.9411563],[2.4223076,48.9408895],[2.4226397,48.9404374],[2.4233002,48.9398483],[2.4248851,48.9403389],[2.4267034,48.9407255],[2.4274674,48.9396265],[2.4279081,48.9397957],[2.428405,48.9403205],[2.4286367,48.940391],[2.4288842,48.9403739],[2.4292207,48.9402386],[2.4297782,48.9408163],[2.4301742,48.9406553],[2.4309539,48.9415345],[2.4310149,48.941511],[2.4315942,48.9417445],[2.4318271,48.9416549]]]]},"properties":{"code_section":"930130000A","code_commune":"93013","section_courte":"A"}},{"type":"Feature","geometry":{"type":"MultiPolygon","coordinates":[[[[2.4314587,48.9408993],[2.4320493,48.9415695],[2.4315942,48.9417445],[2.4310149,48.941511],[2.4309539,48.9415345],[2.4301742,48.9406553],[2.4297782,48.9408163],[2.4292207,48.9402386],[2.4288842,48.9403739],[2.4286367,48.940391],[2.428405,48.9403205],[2.4279081,48.9397957],[2.4274674,48.9396265],[2.4276521,48.9393949],[2.4282915,48.9387939],[2.4290382,48.9382092],[2.4314587,48.9408993]]]]},"properties":{"code_section":"930130000B","code_commune":"93013","section_courte":"B"}},{"type":"Feature","geometry":{"type":"MultiPolygon","coordinates":[[[[2.4264691,48.9397149],[2.4274674,48.9396265],[2.4267034,48.9407255],[2.4248851,48.9403389],[2.4233002,48.9398483],[2.4226397,48.9404374],[2.4224302,48.9403792],[2.4218004,48.939609],[2.4216201,48.939572],[2.4210595,48.9388035],[2.4221463,48.9386803],[2.422754,48.9386711],[2.4234583,48.9387814],[2.4234529,48.938808],[2.4238833,48.9388428],[2.4246463,48.9389823],[2.4264691,48.9397149]]]]},"properties":{"code_section":"930130000C","code_commune":"93013","section_courte":"C"}},{"type":"Feature","geometry":{"type":"MultiPolygon","coordinates":[[[[2.4245371,48.9387104],[2.4246463,48.9389823],[2.4238833,48.9388428],[2.4234529,48.938808],[2.4234583,48.9387814],[2.422754,48.9386711],[2.4221463,48.9386803],[2.4210595,48.9388035],[2.4216201,48.939572],[2.4218004,48.939609],[2.4224302,48.9403792],[2.4215647,48.9401834],[2.4193589,48.9396019],[2.4192413,48.9396148],[2.4183365,48.9394094],[2.4182877,48.9396641],[2.4181807,48.9397885],[2.4180563,48.9400684],[2.4175446,48.9399705],[2.4176292,48.939826],[2.4167601,48.9394076],[2.4171638,48.938641],[2.4157816,48.9372016],[2.4165115,48.935711],[2.4139634,48.9359797],[2.4134072,48.9355109],[2.4141752,48.9351122],[2.4141012,48.9350426],[2.4151286,48.9345339],[2.4159694,48.9342316],[2.4173013,48.9338051],[2.4175175,48.9337641],[2.418808,48.9343693],[2.4202259,48.9345793],[2.4224169,48.9378022],[2.4231879,48.9377624],[2.4236548,48.9378156],[2.4241424,48.9379773],[2.4245371,48.9387104]]]]},"properties":{"code_section":"930130000D","code_commune":"93013","section_courte":"D"}},{"type":"Feature","geometry":{"type":"MultiPolygon","coordinates":[[[[2.4205374,48.9350416],[2.4202259,48.9345793],[2.4233912,48.93502],[2.4245024,48.9366266],[2.424467,48.9366375],[2.4246344,48.9368852],[2.4246801,48.9369508],[2.4247157,48.9369406],[2.4254978,48.9380979],[2.4253104,48.938132],[2.4250285,48.9381334],[2.4249076,48.9381681],[2.4245863,48.9381667],[2.4245865,48.9380806],[2.4241424,48.9379773],[2.4236548,48.9378156],[2.4231856,48.9377622],[2.4224169,48.9378022],[2.4205374,48.9350416]]]]},"properties":{"code_section":"930130000E","code_commune":"93013","section_courte":"E"}},{"type":"Feature","geometry":{"type":"MultiPolygon","coordinates":[[[[2.4276521,48.9393949],[2.4274674,48.9396265],[2.4264691,48.9397149],[2.4249141,48.9391058],[2.4246463,48.9389823],[2.4241424,48.9379773],[2.4245865,48.9380806],[2.4245863,48.9381667],[2.4249076,48.9381681],[2.4250285,48.9381334],[2.4253104,48.938132],[2.4254978,48.9380979],[2.4247157,48.9369406],[2.4246801,48.9369508],[2.4246344,48.9368852],[2.424294,48.9363267],[2.4257227,48.9359182],[2.4265782,48.9355789],[2.4273031,48.9363345],[2.4286553,48.9378515],[2.4290382,48.9382092],[2.4282915,48.9387939],[2.4276521,48.9393949]]]]},"properties":{"code_section":"930130000F","code_commune":"93013","section_courte":"F"}},{"type":"Feature","geometry":{"type":"MultiPolygon","coordinates":[[[[2.4240892,48.933192],[2.4265782,48.9355789],[2.4257227,48.9359182],[2.424294,48.9363267],[2.4233912,48.93502],[2.4212716,48.9347229],[2.4206342,48.933246],[2.4215883,48.9330866],[2.4229467,48.9330197],[2.423778,48.9329101],[2.4240892,48.933192]]]]},"properties":{"code_section":"930130000G","code_commune":"93013","section_courte":"G"}},{"type":"Feature","geometry":{"type":"MultiPolygon","coordinates":[[[[2.4221867,48.9314348],[2.423778,48.9329101],[2.4229467,48.9330197],[2.4215883,48.9330866],[2.4206342,48.933246],[2.4212716,48.9347229],[2.418808,48.9343693],[2.4170343,48.9335314],[2.4193756,48.9322849],[2.4198365,48.9327128],[2.4210908,48.9321873],[2.421031,48.9321271],[2.4216346,48.931804],[2.4221867,48.9314348]]]]},"properties":{"code_section":"930130000H","code_commune":"93013","section_courte":"H"}},{"type":"Feature","geometry":{"type":"MultiPolygon","coordinates":[[[[2.4172143,48.9334352],[2.41664,48.9331505],[2.4164468,48.9330854],[2.4147075,48.9329391],[2.4146843,48.9330468],[2.4140114,48.9330788],[2.4133431,48.9330256],[2.4132822,48.9329999],[2.4128071,48.9324527],[2.4141349,48.9314903],[2.4160532,48.9303929],[2.4170257,48.9303758],[2.4187651,48.9316907],[2.4187885,48.9317972],[2.4193756,48.9322849],[2.4172143,48.9334352]]]]},"properties":{"code_section":"930130000I","code_commune":"93013","section_courte":"I"}},{"type":"Feature","geometry":{"type":"MultiPolygon","coordinates":[[[[2.4193756,48.9322849],[2.4187885,48.9317972],[2.4187651,48.9316907],[2.4170776,48.9304069],[2.4188733,48.9297561],[2.4189497,48.9297563],[2.419875,48.929306],[2.4203812,48.929772],[2.4205238,48.9297049],[2.4207243,48.9297013],[2.4211452,48.9298241],[2.4211363,48.929846],[2.4233299,48.9302325],[2.4227795,48.930775],[2.4229632,48.9307967],[2.4226538,48.93109],[2.4223683,48.9313297],[2.4216346,48.931804],[2.421031,48.9321271],[2.4210908,48.9321873],[2.4198365,48.9327128],[2.4193756,48.9322849]]]]},"properties":{"code_section":"930130000J","code_commune":"93013","section_courte":"J"}},{"type":"Feature","geometry":{"type":"MultiPolygon","coordinates":[[[[2.4261581,48.9323662],[2.4240892,48.933192],[2.4221867,48.9314348],[2.4223683,48.9313297],[2.4229632,48.9307967],[2.4227795,48.930775],[2.4233299,48.9302325],[2.4248542,48.9303649],[2.4264485,48.9306267],[2.4294661,48.931031],[2.4261581,48.9323662]]]]},"properties":{"code_section":"930130000K","code_commune":"93013","section_courte":"K"}},{"type":"Feature","geometry":{"type":"MultiPolygon","coordinates":[[[[2.429002,48.9312262],[2.4324262,48.9318665],[2.4330842,48.9327913],[2.4305759,48.9329049],[2.4280597,48.9331194],[2.427332,48.9337398],[2.426388,48.9329768],[2.4264025,48.9326269],[2.4261581,48.9323662],[2.429002,48.9312262]]]]},"properties":{"code_section":"930130000L","code_commune":"93013","section_courte":"L"}},{"type":"Feature","geometry":{"type":"MultiPolygon","coordinates":[[[[2.4300207,48.9339292],[2.4301098,48.9339486],[2.430423,48.9342913],[2.4296198,48.9347896],[2.4294445,48.9349326],[2.4273031,48.9363345],[2.4265782,48.9355789],[2.4240892,48.933192],[2.4261581,48.9323662],[2.4264025,48.9326269],[2.426388,48.9329768],[2.427332,48.9337398],[2.4280597,48.9331194],[2.4292188,48.9330237],[2.4300207,48.9339292]]]]},"properties":{"code_section":"930130000M","code_commune":"93013","section_courte":"M"}},{"type":"Feature","geometry":{"type":"MultiPolygon","coordinates":[[[[2.4308935,48.9402422],[2.4290382,48.9382092],[2.4286553,48.9378515],[2.4288353,48.9377947],[2.429356,48.9375406],[2.4321389,48.9366975],[2.4335348,48.9381031],[2.4328257,48.938224],[2.4321557,48.9384492],[2.4321242,48.938419],[2.4311679,48.9387302],[2.4313159,48.93894],[2.4310344,48.939029],[2.4319938,48.9404145],[2.4308935,48.9402422]]]]},"properties":{"code_section":"930130000N","code_commune":"93013","section_courte":"N"}},{"type":"Feature","geometry":{"type":"MultiPolygon","coordinates":[[[[2.4274604,48.936232],[2.4294445,48.9349326],[2.4296198,48.9347896],[2.430423,48.9342913],[2.4301098,48.9339486],[2.4300207,48.9339292],[2.4292188,48.9330237],[2.4305759,48.9329049],[2.4319387,48.932837],[2.4330017,48.9347657],[2.4339775,48.9347249],[2.4377699,48.9347949],[2.4387136,48.9349384],[2.4387521,48.934986],[2.4389611,48.935047],[2.4388818,48.9353709],[2.4389675,48.9359344],[2.438896,48.9359214],[2.4386748,48.9376924],[2.4355569,48.9377744],[2.4335348,48.9381031],[2.4321389,48.9366975],[2.429356,48.9375406],[2.4288353,48.9377947],[2.4286553,48.9378515],[2.4273031,48.9363345],[2.4274604,48.936232]]]]},"properties":{"code_section":"930130000O","code_commune":"93013","section_courte":"O"}},{"type":"Feature","geometry":{"type":"MultiPolygon","coordinates":[[[[2.4319678,48.9328894],[2.4319387,48.932837],[2.4330842,48.9327913],[2.4324262,48.9318665],[2.4355002,48.932363],[2.4368124,48.932511],[2.4383281,48.9326272],[2.4403786,48.9326987],[2.4440283,48.9326716],[2.4447282,48.9333527],[2.4451022,48.9338119],[2.4447803,48.9337769],[2.4439215,48.9351885],[2.4425034,48.9372418],[2.4416025,48.9369598],[2.4411185,48.9366935],[2.4406489,48.9365127],[2.4402728,48.9363068],[2.4396877,48.9361929],[2.4389675,48.9359344],[2.4388818,48.9353709],[2.4389611,48.935047],[2.4387521,48.934986],[2.4387136,48.9349384],[2.4377699,48.9347949],[2.4339775,48.9347249],[2.4330017,48.9347657],[2.4319678,48.9328894]]]]},"properties":{"code_section":"930130000P","code_commune":"93013","section_courte":"P"}}]}