{"type":"FeatureCollection","features":[{"type":"Feature","geometry":{"type":"MultiPolygon","coordinates":[[[[2.5600069,48.9111565],[2.564756,48.9136966],[2.5620583,48.9204473],[2.5588321,48.9202199],[2.559099,48.9209047],[2.5591072,48.9212734],[2.558438,48.9203084],[2.5569739,48.9193776],[2.555262,48.916894],[2.5528506,48.9148956],[2.5542359,48.9133398],[2.5547094,48.913059],[2.5548101,48.9130887],[2.5551857,48.9126761],[2.5548526,48.9125724],[2.5547388,48.9127374],[2.5539375,48.9124473],[2.5540946,48.9120107],[2.5541424,48.9112704],[2.5540816,48.9112492],[2.554263,48.9103941],[2.554622,48.9093717],[2.5540064,48.9090057],[2.5589787,48.9054009],[2.5651517,48.9083268],[2.5600069,48.9111565]]]]},"properties":{"code_section":"93014000AK","code_commune":"93014","section_courte":"AK"}},{"type":"Feature","geometry":{"type":"MultiPolygon","coordinates":[[[[2.5537433,48.9092512],[2.5535753,48.9097753],[2.5529239,48.9096715],[2.5518705,48.9096379],[2.550042,48.9094282],[2.5498125,48.9097266],[2.5496718,48.9100045],[2.5496154,48.9100045],[2.5496763,48.9097675],[2.5476775,48.9098928],[2.5478219,48.9093131],[2.547812,48.9092105],[2.5475799,48.9089674],[2.5474806,48.9087914],[2.5466527,48.9063134],[2.5465285,48.9061711],[2.5488617,48.9062879],[2.5494162,48.9064312],[2.5486921,48.9050946],[2.5491455,48.9052301],[2.550852,48.9055348],[2.5508655,48.9032936],[2.550915,48.9031379],[2.5510831,48.9029077],[2.552515,48.9023556],[2.5589787,48.9054009],[2.5540064,48.9090057],[2.5537433,48.9092512]]]]},"properties":{"code_section":"93014000AL","code_commune":"93014","section_courte":"AL"}},{"type":"Feature","geometry":{"type":"MultiPolygon","coordinates":[[[[2.543416,48.9068366],[2.5434141,48.9066962],[2.5424323,48.9053381],[2.5423591,48.9051638],[2.5421562,48.9049422],[2.5478609,48.9008027],[2.5479763,48.9005854],[2.5487183,48.9017195],[2.5486673,48.9019625],[2.5501605,48.9018388],[2.5511988,48.9020355],[2.5514752,48.90219],[2.551836,48.9020322],[2.552515,48.9023556],[2.5510831,48.9029077],[2.550915,48.9031379],[2.5508655,48.9032936],[2.550852,48.9055348],[2.5491455,48.9052301],[2.5486921,48.9050946],[2.5494162,48.9064312],[2.5488617,48.9062879],[2.5465285,48.9061711],[2.5466527,48.9063134],[2.5474806,48.9087914],[2.5434401,48.9086119],[2.543416,48.9068366]]]]},"properties":{"code_section":"93014000AM","code_commune":"93014","section_courte":"AM"}},{"type":"Feature","geometry":{"type":"MultiPolygon","coordinates":[[[[2.5435127,48.9039601],[2.5421562,48.9049422],[2.5397052,48.9023461],[2.5390694,48.9026092],[2.5370077,48.9004118],[2.5386254,48.8997422],[2.5385167,48.899674],[2.5392969,48.8993594],[2.5462858,48.8988859],[2.5463176,48.8991155],[2.5468598,48.8990485],[2.5473099,48.8995757],[2.5479763,48.9005854],[2.5478609,48.9008027],[2.5435127,48.9039601]]]]},"properties":{"code_section":"93014000AN","code_commune":"93014","section_courte":"AN"}},{"type":"Feature","geometry":{"type":"MultiPolygon","coordinates":[[[[2.5368784,48.8987939],[2.5386254,48.8997422],[2.5299846,48.9032925],[2.5298165,48.9032166],[2.5319936,48.895262],[2.5357001,48.8948892],[2.5362369,48.8983796],[2.5372036,48.8986601],[2.5368784,48.8987939]]]]},"properties":{"code_section":"93014000AO","code_commune":"93014","section_courte":"AO"}},{"type":"Feature","geometry":{"type":"MultiPolygon","coordinates":[[[[2.530934,48.9063505],[2.5305524,48.9065059],[2.5309541,48.9069226],[2.5310002,48.9069229],[2.5310294,48.9077079],[2.5309904,48.9077594],[2.5300611,48.9075611],[2.5294156,48.9075946],[2.5289501,48.9075687],[2.5272485,48.9071011],[2.5270268,48.9069858],[2.5252455,48.9052441],[2.5248548,48.9054014],[2.5247719,48.9053227],[2.5240372,48.9050647],[2.5235906,48.9049654],[2.5224125,48.9044185],[2.5221808,48.9043806],[2.5212512,48.9033331],[2.5212998,48.9033149],[2.5214059,48.9034299],[2.5218795,48.9035018],[2.5259059,48.9038979],[2.5264111,48.9037907],[2.5272163,48.9036952],[2.5276741,48.9037333],[2.5289759,48.9033707],[2.5298165,48.9032166],[2.5299846,48.9032925],[2.5318021,48.9025584],[2.5314606,48.9034151],[2.5312226,48.9046227],[2.5312646,48.9046241],[2.5312535,48.9046832],[2.5309778,48.9051295],[2.5310194,48.9063144],[2.530934,48.9063505]]]]},"properties":{"code_section":"93014000AP","code_commune":"93014","section_courte":"AP"}},{"type":"Feature","geometry":{"type":"MultiPolygon","coordinates":[[[[2.5337441,48.9017581],[2.5370077,48.9004118],[2.5390694,48.9026092],[2.5397052,48.9023461],[2.5421158,48.9048953],[2.541484,48.9049151],[2.5396121,48.9056828],[2.5394124,48.9058233],[2.5389121,48.9059765],[2.5376297,48.9064462],[2.5329986,48.9082356],[2.5309904,48.9077594],[2.5310294,48.9077079],[2.5310002,48.9069229],[2.5309541,48.9069226],[2.5305524,48.9065059],[2.5310194,48.9063144],[2.5309778,48.9051295],[2.5312535,48.9046832],[2.5312646,48.9046241],[2.5312226,48.9046227],[2.5314606,48.9034151],[2.5318021,48.9025584],[2.5337441,48.9017581]]]]},"properties":{"code_section":"93014000AR","code_commune":"93014","section_courte":"AR"}},{"type":"Feature","geometry":{"type":"MultiPolygon","coordinates":[[[[2.5337894,48.9081845],[2.5331935,48.9081587],[2.5376297,48.9064462],[2.5389121,48.9059765],[2.5394124,48.9058233],[2.5396121,48.9056828],[2.541484,48.9049151],[2.5421158,48.9048953],[2.5423591,48.9051638],[2.5424323,48.9053381],[2.5434141,48.9066962],[2.5434401,48.9086119],[2.5337894,48.9081845]]]]},"properties":{"code_section":"93014000AS","code_commune":"93014","section_courte":"AS"}},{"type":"Feature","geometry":{"type":"MultiPolygon","coordinates":[[[[2.5441066,48.9086411],[2.5448692,48.9086727],[2.5461829,48.9104644],[2.5464623,48.9104506],[2.5464716,48.9110798],[2.5471476,48.9118483],[2.5466657,48.9121349],[2.5446997,48.9124823],[2.5434899,48.9124995],[2.5429952,48.9124277],[2.542049,48.9123712],[2.5399098,48.9127926],[2.539744,48.9122781],[2.5398548,48.9120242],[2.539812,48.9118444],[2.5396295,48.911718],[2.5385464,48.9116517],[2.5383508,48.9094742],[2.538318,48.909442],[2.5363173,48.9086496],[2.5344798,48.9085295],[2.5329986,48.9082356],[2.5331935,48.9081587],[2.5441066,48.9086411]]]]},"properties":{"code_section":"93014000AT","code_commune":"93014","section_courte":"AT"}},{"type":"Feature","geometry":{"type":"MultiPolygon","coordinates":[[[[2.5518705,48.9096379],[2.5529239,48.9096715],[2.5535753,48.9097753],[2.5537433,48.9092512],[2.5540064,48.9090057],[2.554622,48.9093717],[2.554263,48.9103941],[2.5540816,48.9112492],[2.5541424,48.9112704],[2.5540946,48.9120107],[2.5539375,48.9124473],[2.5547388,48.9127374],[2.5548526,48.9125724],[2.5551857,48.9126761],[2.5548101,48.9130887],[2.5547094,48.913059],[2.5542359,48.9133398],[2.5528506,48.9148956],[2.5526037,48.9148109],[2.5504908,48.9143022],[2.5491473,48.9141852],[2.5490715,48.9139906],[2.5487597,48.9136338],[2.5482887,48.9131265],[2.5481066,48.9130494],[2.5476447,48.9124954],[2.5475682,48.9125122],[2.5470769,48.9119169],[2.547062,48.9118976],[2.5471476,48.9118483],[2.5464716,48.9110798],[2.5464623,48.9104506],[2.5461829,48.9104644],[2.5448692,48.9086727],[2.5474806,48.9087914],[2.5475799,48.9089674],[2.547812,48.9092105],[2.5478219,48.9093131],[2.5476775,48.9098928],[2.5496763,48.9097675],[2.5496154,48.9100045],[2.5496718,48.9100045],[2.5498125,48.9097266],[2.550042,48.9094282],[2.5518705,48.9096379]]]]},"properties":{"code_section":"93014000AV","code_commune":"93014","section_courte":"AV"}},{"type":"Feature","geometry":{"type":"MultiPolygon","coordinates":[[[[2.5464372,48.9167192],[2.5452621,48.9174157],[2.5445706,48.918149],[2.5438981,48.9177714],[2.5432691,48.9174853],[2.5422556,48.9167324],[2.5417434,48.9162821],[2.5410306,48.9155171],[2.5399098,48.9127926],[2.542049,48.9123712],[2.5429952,48.9124277],[2.5434899,48.9124995],[2.5446997,48.9124823],[2.5466657,48.9121349],[2.547062,48.9118976],[2.5475682,48.9125122],[2.5476447,48.9124954],[2.5481066,48.9130494],[2.5482887,48.9131265],[2.5487597,48.9136338],[2.5490715,48.9139906],[2.5491473,48.9141852],[2.5504908,48.9143022],[2.5526037,48.9148109],[2.5528506,48.9148956],[2.5529113,48.9149459],[2.5516092,48.9154535],[2.5505603,48.9161839],[2.5476549,48.9163192],[2.5474098,48.9164959],[2.5471909,48.9165901],[2.5464372,48.9167192]]]]},"properties":{"code_section":"93014000AW","code_commune":"93014","section_courte":"AW"}}]}