{"type":"FeatureCollection","features":[{"type":"Feature","geometry":{"type":"MultiPolygon","coordinates":[[[[2.4794201,48.9167046],[2.4792268,48.9159828],[2.4790978,48.9158926],[2.4789775,48.9154527],[2.4790389,48.9153749],[2.4788344,48.9144675],[2.481641,48.9140824],[2.4812113,48.9122649],[2.4814656,48.9121796],[2.4823176,48.9133978],[2.4839711,48.9148383],[2.4845548,48.9170045],[2.4853476,48.9178325],[2.4822105,48.9185075],[2.4821879,48.9181508],[2.4794626,48.9183989],[2.4793955,48.9187674],[2.4793965,48.9193907],[2.4794025,48.9197308],[2.4794671,48.9199233],[2.477033,48.9202497],[2.4760344,48.9191024],[2.476084,48.9189052],[2.4743943,48.9183722],[2.4754486,48.9176072],[2.4757551,48.9173318],[2.4765256,48.9171489],[2.4773092,48.9171292],[2.4786544,48.9168668],[2.4792187,48.9177815],[2.479476,48.9177781],[2.4796139,48.9174479],[2.4794201,48.9167046]]]]},"properties":{"code_section":"930100000A","code_commune":"93010","section_courte":"A"}},{"type":"Feature","geometry":{"type":"MultiPolygon","coordinates":[[[[2.4762661,48.9105038],[2.4763861,48.9104703],[2.4763263,48.9102662],[2.4765277,48.9102273],[2.4787367,48.9103268],[2.4787295,48.9102855],[2.480225,48.9103358],[2.4803314,48.9104741],[2.4830706,48.9102189],[2.4829396,48.9117081],[2.4812113,48.9122649],[2.481641,48.9140824],[2.4788344,48.9144675],[2.4790389,48.9153749],[2.4789775,48.9154527],[2.4790978,48.9158926],[2.4792268,48.9159828],[2.4796139,48.9174479],[2.479476,48.9177781],[2.4792187,48.9177815],[2.4786544,48.9168668],[2.4773093,48.9171292],[2.4765256,48.9171489],[2.4757799,48.9173263],[2.4755298,48.9171727],[2.475453,48.9170261],[2.4754662,48.916595],[2.475716,48.9147937],[2.4757574,48.9140197],[2.4761939,48.9132565],[2.4762489,48.9130791],[2.4762049,48.912882],[2.4759486,48.9124109],[2.475039,48.9116175],[2.4745852,48.9110509],[2.4762661,48.9105038]]]]},"properties":{"code_section":"930100000B","code_commune":"93010","section_courte":"B"}},{"type":"Feature","geometry":{"type":"MultiPolygon","coordinates":[[[[2.4912401,48.9174834],[2.490278,48.9175493],[2.4891906,48.9181773],[2.4888471,48.9184655],[2.4887507,48.9186341],[2.486132,48.9186944],[2.4845548,48.9170045],[2.4839711,48.9148383],[2.4823176,48.9133978],[2.4814656,48.9121796],[2.4829396,48.9117081],[2.4844475,48.9112764],[2.4845591,48.9113351],[2.4852258,48.9121369],[2.4859687,48.9128827],[2.491619,48.9137995],[2.4917484,48.9140866],[2.4919282,48.9149735],[2.4922594,48.9159968],[2.4919169,48.9169197],[2.4914279,48.917474],[2.4912401,48.9174834]]]]},"properties":{"code_section":"930100000C","code_commune":"93010","section_courte":"C"}},{"type":"Feature","geometry":{"type":"MultiPolygon","coordinates":[[[[2.4905516,48.9136362],[2.4859687,48.9128827],[2.48535,48.9122635],[2.4859734,48.9120759],[2.4869318,48.9118369],[2.4878054,48.9118335],[2.4878236,48.9115704],[2.4876572,48.9112183],[2.4911751,48.9115319],[2.4913615,48.9131407],[2.491619,48.9137995],[2.4905516,48.9136362]]]]},"properties":{"code_section":"930100000D","code_commune":"93010","section_courte":"D"}},{"type":"Feature","geometry":{"type":"MultiPolygon","coordinates":[[[[2.490902,48.9096421],[2.4910124,48.9098314],[2.4911361,48.9103978],[2.4911837,48.910916],[2.4911435,48.9112748],[2.4911751,48.9115319],[2.487556,48.9112035],[2.487222,48.9106962],[2.4860403,48.9097714],[2.4867573,48.9088196],[2.490902,48.9096421]]]]},"properties":{"code_section":"930100000E","code_commune":"93010","section_courte":"E"}},{"type":"Feature","geometry":{"type":"MultiPolygon","coordinates":[[[[2.48535,48.9122635],[2.4845591,48.9113351],[2.4844475,48.9112764],[2.4829396,48.9117081],[2.4830706,48.9102189],[2.4834052,48.9101916],[2.4837119,48.9081393],[2.4866317,48.9087294],[2.4866037,48.9087899],[2.4867573,48.9088196],[2.4860403,48.9097714],[2.4872546,48.9107291],[2.487556,48.9112035],[2.4876572,48.9112183],[2.4878236,48.9115704],[2.4878054,48.9118335],[2.4869318,48.9118369],[2.4859734,48.9120759],[2.48535,48.9122635]]]]},"properties":{"code_section":"930100000F","code_commune":"93010","section_courte":"F"}},{"type":"Feature","geometry":{"type":"MultiPolygon","coordinates":[[[[2.4829348,48.9102289],[2.4803314,48.9104741],[2.4802168,48.9103065],[2.4800815,48.9094666],[2.4802431,48.907455],[2.4837119,48.9081393],[2.4834053,48.9101916],[2.4829348,48.9102289]]]]},"properties":{"code_section":"930100000G","code_commune":"93010","section_courte":"G"}},{"type":"Feature","geometry":{"type":"MultiPolygon","coordinates":[[[[2.4715688,48.907594],[2.4709407,48.9051629],[2.4700608,48.9049842],[2.4701597,48.9047646],[2.4737208,48.9054872],[2.4737887,48.9054614],[2.4737547,48.9057194],[2.4799943,48.9069621],[2.4803638,48.9070686],[2.4802431,48.907455],[2.4800816,48.9094233],[2.480225,48.9103358],[2.4787295,48.9102855],[2.4787367,48.9103268],[2.4765277,48.9102273],[2.4763263,48.9102662],[2.4763861,48.9104703],[2.4745852,48.9110509],[2.4741008,48.9103375],[2.4731451,48.909271],[2.4723382,48.9080617],[2.4715829,48.9076564],[2.4715688,48.907594]]]]},"properties":{"code_section":"930100000H","code_commune":"93010","section_courte":"H"}},{"type":"Feature","geometry":{"type":"MultiPolygon","coordinates":[[[[2.4758336,48.9061269],[2.4737547,48.9057194],[2.4737887,48.9054614],[2.4737208,48.9054872],[2.4725024,48.9052417],[2.4729444,48.9044261],[2.4730747,48.9042902],[2.4762525,48.9036816],[2.4762817,48.9037325],[2.477041,48.9036377],[2.4769818,48.9051799],[2.4765584,48.9056886],[2.4764057,48.9062417],[2.4758336,48.9061269]]]]},"properties":{"code_section":"930100000I","code_commune":"93010","section_courte":"I"}},{"type":"Feature","geometry":{"type":"MultiPolygon","coordinates":[[[[2.4789713,48.9067637],[2.4764057,48.9062417],[2.4765584,48.9056886],[2.476988,48.9051595],[2.477041,48.9036377],[2.4778364,48.9035317],[2.4799642,48.9031732],[2.4801406,48.9031747],[2.4803443,48.9035357],[2.4804166,48.9040435],[2.4802936,48.906651],[2.4803124,48.9070634],[2.4799943,48.9069621],[2.4789713,48.9067637]]]]},"properties":{"code_section":"930100000J","code_commune":"93010","section_courte":"J"}},{"type":"Feature","geometry":{"type":"MultiPolygon","coordinates":[[[[2.4857239,48.9082347],[2.485592,48.9085185],[2.4802431,48.907455],[2.4803638,48.9070686],[2.4803124,48.9070634],[2.4802936,48.9066715],[2.4803321,48.9058818],[2.4832201,48.9062795],[2.4854693,48.9065561],[2.4861581,48.9066915],[2.4858715,48.9079077],[2.4857239,48.9082347]]]]},"properties":{"code_section":"930100000K","code_commune":"93010","section_courte":"K"}},{"type":"Feature","geometry":{"type":"MultiPolygon","coordinates":[[[[2.4907156,48.9095074],[2.4904344,48.9095616],[2.4897515,48.9094052],[2.4866037,48.9087899],[2.4866317,48.9087294],[2.485592,48.9085185],[2.4858715,48.9079077],[2.4861581,48.9066915],[2.4886199,48.9070159],[2.4901757,48.9072847],[2.4923323,48.907607],[2.4922468,48.9078508],[2.4904185,48.9090428],[2.4907866,48.909488],[2.4907156,48.9095074]]]]},"properties":{"code_section":"930100000L","code_commune":"93010","section_courte":"L"}},{"type":"Feature","geometry":{"type":"MultiPolygon","coordinates":[[[[2.4903951,48.9054028],[2.4911463,48.9055277],[2.4911844,48.9054878],[2.4934629,48.905855],[2.4934588,48.9056784],[2.4936733,48.9056721],[2.4937746,48.9073198],[2.4912911,48.9069595],[2.4903091,48.9068804],[2.4901757,48.9072847],[2.4886199,48.9070159],[2.4894318,48.9056808],[2.4898943,48.9052905],[2.4899718,48.9053324],[2.4903951,48.9054028]]]]},"properties":{"code_section":"930100000M","code_commune":"93010","section_courte":"M"}},{"type":"Feature","geometry":{"type":"MultiPolygon","coordinates":[[[[2.4904165,48.9049082],[2.4898943,48.9052905],[2.4894241,48.9056897],[2.4886199,48.9070159],[2.4861581,48.9066915],[2.4854693,48.9065561],[2.486316,48.903963],[2.487307,48.9040425],[2.4874352,48.9037351],[2.4875684,48.9037625],[2.4887951,48.9041934],[2.4900978,48.904709],[2.4904165,48.9049082]]]]},"properties":{"code_section":"930100000N","code_commune":"93010","section_courte":"N"}},{"type":"Feature","geometry":{"type":"MultiPolygon","coordinates":[[[[2.485874,48.9053282],[2.4854693,48.9065561],[2.4832201,48.9062795],[2.4833757,48.904406],[2.4830399,48.9030343],[2.4847192,48.9041723],[2.4856104,48.904148],[2.4856879,48.9039127],[2.486316,48.903963],[2.485874,48.9053282]]]]},"properties":{"code_section":"930100000O","code_commune":"93010","section_courte":"O"}},{"type":"Feature","geometry":{"type":"MultiPolygon","coordinates":[[[[2.4832201,48.9062795],[2.4803321,48.9058818],[2.4804166,48.9040435],[2.4803443,48.9035357],[2.4801406,48.9031747],[2.4810763,48.9030024],[2.4826304,48.9022013],[2.4830399,48.9030343],[2.483374,48.904379],[2.4832201,48.9062795]]]]},"properties":{"code_section":"930100000P","code_commune":"93010","section_courte":"P"}},{"type":"Feature","geometry":{"type":"MultiPolygon","coordinates":[[[[2.4885203,48.9016248],[2.4886478,48.9025135],[2.4884682,48.9033157],[2.4889868,48.9039832],[2.4891019,48.9043212],[2.4877267,48.9038098],[2.4874352,48.9037351],[2.487307,48.9040425],[2.4856879,48.9039127],[2.4856104,48.904148],[2.4847192,48.9041723],[2.4830399,48.9030343],[2.4826304,48.9022013],[2.4835185,48.9020245],[2.4848602,48.9018805],[2.4885368,48.9015547],[2.4885203,48.9016248]]]]},"properties":{"code_section":"930100000Q","code_commune":"93010","section_courte":"Q"}},{"type":"Feature","geometry":{"type":"MultiPolygon","coordinates":[[[[2.491906,48.9042153],[2.4919227,48.9045206],[2.4917401,48.9045966],[2.4903951,48.9054028],[2.4899718,48.9053324],[2.4898943,48.9052905],[2.4904165,48.9049082],[2.4901214,48.9047185],[2.4891019,48.9043212],[2.4889868,48.9039832],[2.4884714,48.9033248],[2.4886478,48.9025135],[2.4885368,48.9015547],[2.4906508,48.9007889],[2.4908047,48.9010075],[2.4907825,48.9010478],[2.4906532,48.901087],[2.4912239,48.9019494],[2.4921983,48.9026318],[2.4920911,48.9026561],[2.4922101,48.9028267],[2.4923812,48.9033302],[2.4917729,48.9038071],[2.4918492,48.9038588],[2.491906,48.9042153]]]]},"properties":{"code_section":"930100000R","code_commune":"93010","section_courte":"R"}},{"type":"Feature","geometry":{"type":"MultiPolygon","coordinates":[[[[2.4911463,48.9055277],[2.4903951,48.9054028],[2.4917401,48.9045965],[2.4919227,48.9045206],[2.4918492,48.9038588],[2.4917729,48.9038071],[2.4936537,48.9023183],[2.494664,48.9021344],[2.4948906,48.9057018],[2.4936719,48.9056582],[2.4934588,48.9056784],[2.4934629,48.905855],[2.4911844,48.9054878],[2.4911463,48.9055277]]]]},"properties":{"code_section":"930100000S","code_commune":"93010","section_courte":"S"}},{"type":"Feature","geometry":{"type":"MultiPolygon","coordinates":[[[[2.4990384,48.9037867],[2.4995804,48.9037643],[2.4999005,48.9046207],[2.4993534,48.9048373],[2.4992924,48.9046856],[2.4971479,48.9047337],[2.4972867,48.9057716],[2.4948906,48.9057018],[2.4947775,48.9039586],[2.497694,48.9037825],[2.4988797,48.9037622],[2.4990384,48.9037867]]]]},"properties":{"code_section":"930100000T","code_commune":"93010","section_courte":"T"}},{"type":"Feature","geometry":{"type":"MultiPolygon","coordinates":[[[[2.4993686,48.9025355],[2.4994267,48.9032207],[2.4995804,48.9037643],[2.4990184,48.9037877],[2.4988797,48.9037622],[2.497694,48.9037825],[2.4947775,48.9039586],[2.494664,48.9021344],[2.4962255,48.901782],[2.4965725,48.9027527],[2.4970778,48.9025383],[2.4992654,48.9019729],[2.4993686,48.9025355]]]]},"properties":{"code_section":"930100000U","code_commune":"93010","section_courte":"U"}},{"type":"Feature","geometry":{"type":"MultiPolygon","coordinates":[[[[2.4923812,48.9033302],[2.4922101,48.9028267],[2.4920911,48.9026561],[2.4921983,48.9026318],[2.4912239,48.9019494],[2.4906532,48.901087],[2.4907825,48.9010478],[2.4908047,48.9010075],[2.4906508,48.9007889],[2.4925606,48.9000537],[2.4936241,48.8997218],[2.4952905,48.8997],[2.4962255,48.901782],[2.494664,48.9021344],[2.4936537,48.9023183],[2.4923812,48.9033302]]]]},"properties":{"code_section":"930100000V","code_commune":"93010","section_courte":"V"}},{"type":"Feature","geometry":{"type":"MultiPolygon","coordinates":[[[[2.4970778,48.9025383],[2.4965725,48.9027527],[2.4962255,48.901782],[2.4952905,48.8997],[2.4971896,48.8996955],[2.4984449,48.8995998],[2.4994969,48.9020302],[2.4992071,48.9019788],[2.4970778,48.9025383]]]]},"properties":{"code_section":"930100000X","code_commune":"93010","section_courte":"X"}},{"type":"Feature","geometry":{"type":"MultiPolygon","coordinates":[[[[2.4919574,48.8996962],[2.4911595,48.8980296],[2.4936966,48.8975581],[2.4944326,48.8973592],[2.4947168,48.8979461],[2.4955162,48.8977755],[2.4959311,48.8981616],[2.496121,48.8982821],[2.4962299,48.8983295],[2.4964947,48.8983602],[2.4971896,48.8996955],[2.4936354,48.8997205],[2.4925606,48.9000537],[2.4921999,48.9001945],[2.4919574,48.8996962]]]]},"properties":{"code_section":"930100000Y","code_commune":"93010","section_courte":"Y"}},{"type":"Feature","geometry":{"type":"MultiPolygon","coordinates":[[[[2.4921043,48.9000052],[2.4921999,48.9001945],[2.4890678,48.9013802],[2.4874547,48.8985054],[2.4888039,48.8982838],[2.4903528,48.8981501],[2.4911595,48.8980296],[2.4921043,48.9000052]]]]},"properties":{"code_section":"930100000Z","code_commune":"93010","section_courte":"Z"}},{"type":"Feature","geometry":{"type":"MultiPolygon","coordinates":[[[[2.4856487,48.9008506],[2.4848615,48.8988991],[2.4874547,48.8985054],[2.4890678,48.9013802],[2.4885368,48.9015547],[2.4860441,48.9017692],[2.4856487,48.9008506]]]]},"properties":{"code_section":"93010000AB","code_commune":"93010","section_courte":"AB"}},{"type":"Feature","geometry":{"type":"MultiPolygon","coordinates":[[[[2.4860441,48.9017692],[2.4835185,48.9020245],[2.4826304,48.9022013],[2.4815018,48.8998474],[2.4823315,48.8996469],[2.4839582,48.8990353],[2.4848615,48.8988991],[2.485387,48.9002491],[2.4860441,48.9017692]]]]},"properties":{"code_section":"93010000AC","code_commune":"93010","section_courte":"AC"}},{"type":"Feature","geometry":{"type":"MultiPolygon","coordinates":[[[[2.4810715,48.903004],[2.4801406,48.9031747],[2.4799642,48.9031732],[2.4786661,48.9008449],[2.4786087,48.9003952],[2.4802354,48.9001377],[2.4815018,48.8998474],[2.4826304,48.9022013],[2.4810715,48.903004]]]]},"properties":{"code_section":"93010000AD","code_commune":"93010","section_courte":"AD"}},{"type":"Feature","geometry":{"type":"MultiPolygon","coordinates":[[[[2.4786978,48.9010697],[2.4787855,48.901054],[2.4799642,48.9031732],[2.4778364,48.9035317],[2.4762817,48.9037325],[2.4752155,48.9017635],[2.4786978,48.9010697]]]]},"properties":{"code_section":"93010000AE","code_commune":"93010","section_courte":"AE"}},{"type":"Feature","geometry":{"type":"MultiPolygon","coordinates":[[[[2.4721023,48.9051604],[2.4701597,48.9047646],[2.4705881,48.9038411],[2.4706695,48.9025472],[2.4708126,48.9025475],[2.470829,48.902366],[2.4723236,48.9023971],[2.4724564,48.902676],[2.4730778,48.9026969],[2.4733155,48.902667],[2.4734116,48.902211],[2.4733934,48.9021261],[2.4752155,48.9017635],[2.4762525,48.9036816],[2.4730747,48.9042902],[2.4729444,48.9044261],[2.4725024,48.9052417],[2.4721023,48.9051604]]]]},"properties":{"code_section":"93010000AF","code_commune":"93010","section_courte":"AF"}},{"type":"Feature","geometry":{"type":"MultiPolygon","coordinates":[[[[2.4690855,48.8995233],[2.4709095,48.8990346],[2.4717143,48.8988478],[2.4724008,48.9002199],[2.4726794,48.900201],[2.4733103,48.9014443],[2.4726753,48.901654],[2.4733934,48.9021261],[2.4734116,48.902211],[2.4733155,48.902667],[2.473078,48.9026969],[2.4724564,48.902676],[2.4723236,48.9023971],[2.470829,48.902366],[2.4708126,48.9025475],[2.4706695,48.9025472],[2.4706652,48.9029334],[2.4700333,48.9018965],[2.469818,48.9016117],[2.4694838,48.9007946],[2.4690855,48.8995233]]]]},"properties":{"code_section":"93010000AG","code_commune":"93010","section_courte":"AG"}},{"type":"Feature","geometry":{"type":"MultiPolygon","coordinates":[[[[2.4786978,48.9010697],[2.4733934,48.9021261],[2.4726753,48.901654],[2.4733103,48.9014443],[2.4726794,48.900201],[2.4760013,48.8993791],[2.477037,48.8993336],[2.4783942,48.8995424],[2.4786092,48.900139],[2.478662,48.9008328],[2.4787855,48.901054],[2.4786978,48.9010697]]]]},"properties":{"code_section":"93010000AH","code_commune":"93010","section_courte":"AH"}},{"type":"Feature","geometry":{"type":"MultiPolygon","coordinates":[[[[2.4757956,48.8975206],[2.4763637,48.8974094],[2.4763362,48.8973382],[2.4772292,48.8971769],[2.4773274,48.8976089],[2.4774628,48.8979254],[2.4780625,48.8987876],[2.4783942,48.8995424],[2.477037,48.8993336],[2.4760204,48.8993764],[2.4726794,48.900201],[2.472406,48.9002244],[2.4717143,48.8988478],[2.4739735,48.898254],[2.4746452,48.8981432],[2.4743413,48.8977263],[2.4752791,48.8975329],[2.4753111,48.8976151],[2.4757956,48.8975206]]]]},"properties":{"code_section":"93010000AI","code_commune":"93010","section_courte":"AI"}},{"type":"Feature","geometry":{"type":"MultiPolygon","coordinates":[[[[2.4802354,48.9001377],[2.4786087,48.9003952],[2.4786092,48.900139],[2.4784327,48.8996326],[2.4780625,48.8987876],[2.4775193,48.8980336],[2.4773322,48.897623],[2.4771324,48.8966121],[2.4798221,48.8962457],[2.4815018,48.8998474],[2.4802354,48.9001377]]]]},"properties":{"code_section":"93010000AJ","code_commune":"93010","section_courte":"AJ"}},{"type":"Feature","geometry":{"type":"MultiPolygon","coordinates":[[[[2.4798221,48.8962457],[2.4823116,48.8959026],[2.4839582,48.8990353],[2.4823315,48.8996469],[2.4815018,48.8998474],[2.4798221,48.8962457]]]]},"properties":{"code_section":"93010000AK","code_commune":"93010","section_courte":"AK"}},{"type":"Feature","geometry":{"type":"MultiPolygon","coordinates":[[[[2.4823116,48.8959026],[2.4851327,48.8954974],[2.4866991,48.8986175],[2.4839582,48.8990353],[2.4823116,48.8959026]]]]},"properties":{"code_section":"93010000AL","code_commune":"93010","section_courte":"AL"}},{"type":"Feature","geometry":{"type":"MultiPolygon","coordinates":[[[[2.4898261,48.89668],[2.4899183,48.8966674],[2.4903528,48.8981501],[2.4888039,48.8982838],[2.4866991,48.8986175],[2.4851327,48.8954974],[2.4888781,48.8949938],[2.4897537,48.896664],[2.4897711,48.896687],[2.4898261,48.89668]]]]},"properties":{"code_section":"93010000AM","code_commune":"93010","section_courte":"AM"}},{"type":"Feature","geometry":{"type":"MultiPolygon","coordinates":[[[[2.4902706,48.897861],[2.4899183,48.8966674],[2.4897711,48.896687],[2.4897537,48.896664],[2.4888781,48.8949938],[2.4923468,48.8945354],[2.4927184,48.8950701],[2.4934577,48.8963122],[2.4942828,48.8973888],[2.4936966,48.8975581],[2.4911595,48.8980296],[2.4903528,48.8981501],[2.4902706,48.897861]]]]},"properties":{"code_section":"93010000AN","code_commune":"93010","section_courte":"AN"}},{"type":"Feature","geometry":{"type":"MultiPolygon","coordinates":[[[[2.4957139,48.8969093],[2.4961011,48.8975465],[2.4955162,48.8977755],[2.4947168,48.8979461],[2.4944326,48.8973592],[2.4942828,48.8973888],[2.4934577,48.8963122],[2.4927184,48.8950701],[2.4923468,48.8945354],[2.4955399,48.8940768],[2.496892,48.8964562],[2.4956152,48.8967379],[2.4957139,48.8969093]]]]},"properties":{"code_section":"93010000AO","code_commune":"93010","section_courte":"AO"}},{"type":"Feature","geometry":{"type":"MultiPolygon","coordinates":[[[[2.4955399,48.8940768],[2.4985212,48.8936579],[2.5001513,48.8957351],[2.496892,48.8964562],[2.4955399,48.8940768]]]]},"properties":{"code_section":"93010000AP","code_commune":"93010","section_courte":"AP"}},{"type":"Feature","geometry":{"type":"MultiPolygon","coordinates":[[[[2.4921691,48.8929562],[2.4920251,48.8926603],[2.4919087,48.8921336],[2.4973227,48.8913932],[2.4977596,48.8922755],[2.4978273,48.8926174],[2.4980466,48.8930547],[2.4985212,48.8936579],[2.4923468,48.8945354],[2.4916395,48.8930895],[2.4920591,48.8930269],[2.4920357,48.8929866],[2.4921836,48.8929872],[2.4921691,48.8929562]]]]},"properties":{"code_section":"93010000AQ","code_commune":"93010","section_courte":"AQ"}},{"type":"Feature","geometry":{"type":"MultiPolygon","coordinates":[[[[2.4921836,48.8929872],[2.4920357,48.8929866],[2.4920591,48.8930269],[2.4916395,48.8930895],[2.4923468,48.8945354],[2.486423,48.8953187],[2.4854543,48.8935908],[2.4858583,48.8935272],[2.4858395,48.8934921],[2.4880705,48.8931749],[2.4881047,48.8932559],[2.4886919,48.8931602],[2.4887003,48.8930851],[2.4892996,48.8929725],[2.4905977,48.8927562],[2.4915443,48.8926649],[2.4920251,48.8926603],[2.4921836,48.8929872]]]]},"properties":{"code_section":"93010000AR","code_commune":"93010","section_courte":"AR"}},{"type":"Feature","geometry":{"type":"MultiPolygon","coordinates":[[[[2.4854543,48.8935908],[2.486423,48.8953187],[2.4798221,48.8962457],[2.4790424,48.894862],[2.4818474,48.8944737],[2.4840682,48.8938929],[2.4840403,48.8938476],[2.4846421,48.8936959],[2.4850074,48.8936292],[2.4850352,48.8936659],[2.4854543,48.8935908]]]]},"properties":{"code_section":"93010000AS","code_commune":"93010","section_courte":"AS"}},{"type":"Feature","geometry":{"type":"MultiPolygon","coordinates":[[[[2.4743413,48.8977263],[2.4728157,48.8956589],[2.4729202,48.8956416],[2.4728794,48.8955103],[2.474468,48.8951049],[2.4760016,48.8948022],[2.4765363,48.8948251],[2.4776794,48.894661],[2.4778031,48.8953218],[2.4790424,48.894862],[2.4798221,48.8962457],[2.4771324,48.8966121],[2.4772292,48.8971769],[2.4763362,48.8973382],[2.4763637,48.8974094],[2.4753111,48.8976151],[2.4752791,48.8975329],[2.4743413,48.8977263]]]]},"properties":{"code_section":"93010000AT","code_commune":"93010","section_courte":"AT"}},{"type":"Feature","geometry":{"type":"MultiPolygon","coordinates":[[[[2.4777898,48.8920724],[2.4791177,48.8919613],[2.4798689,48.8947441],[2.4789574,48.8948781],[2.4778031,48.8953218],[2.4776794,48.894661],[2.4765363,48.8948251],[2.4760016,48.8948022],[2.474438,48.8951123],[2.4734068,48.8936274],[2.4738952,48.8930197],[2.4775801,48.8922626],[2.4777002,48.8920728],[2.4777898,48.8920724]]]]},"properties":{"code_section":"93010000AU","code_commune":"93010","section_courte":"AU"}},{"type":"Feature","geometry":{"type":"MultiPolygon","coordinates":[[[[2.4795931,48.8919198],[2.48013,48.8918742],[2.4801192,48.8918483],[2.480255,48.8918364],[2.4802666,48.8918621],[2.4806358,48.8918306],[2.4805172,48.8914742],[2.4801,48.8915341],[2.4798908,48.8906554],[2.4802,48.8906071],[2.4802235,48.8906755],[2.4819995,48.8904411],[2.4836296,48.8939524],[2.483615,48.8940137],[2.4818474,48.8944737],[2.4798689,48.8947441],[2.4791177,48.8919613],[2.4795931,48.8919198]]]]},"properties":{"code_section":"93010000AV","code_commune":"93010","section_courte":"AV"}},{"type":"Feature","geometry":{"type":"MultiPolygon","coordinates":[[[[2.4862597,48.8928363],[2.4866317,48.8933686],[2.4858395,48.8934921],[2.4858583,48.8935272],[2.4850352,48.8936659],[2.4850074,48.8936292],[2.484652,48.8936937],[2.4840403,48.8938476],[2.4840682,48.8938929],[2.483615,48.8940137],[2.4836296,48.8939524],[2.4819995,48.8904411],[2.4839063,48.8901786],[2.4842852,48.8901521],[2.484261,48.8900173],[2.4849206,48.889975],[2.4852655,48.8908241],[2.4862597,48.8928363]]]]},"properties":{"code_section":"93010000AX","code_commune":"93010","section_courte":"AX"}},{"type":"Feature","geometry":{"type":"MultiPolygon","coordinates":[[[[2.4857325,48.8908487],[2.4882248,48.8904551],[2.488969,48.8919892],[2.4897161,48.8918175],[2.4909035,48.8910181],[2.4912807,48.8913143],[2.4914985,48.8917629],[2.4917267,48.8917472],[2.4918228,48.8921175],[2.4919087,48.8921336],[2.4920251,48.8926603],[2.4915443,48.8926649],[2.4905977,48.8927562],[2.4887003,48.8930851],[2.4886919,48.8931602],[2.4881047,48.8932559],[2.4880705,48.8931749],[2.4866317,48.8933686],[2.4861935,48.892741],[2.4852655,48.8908241],[2.4855704,48.8907666],[2.4855899,48.8908716],[2.4857325,48.8908487]]]]},"properties":{"code_section":"93010000AY","code_commune":"93010","section_courte":"AY"}},{"type":"Feature","geometry":{"type":"MultiPolygon","coordinates":[[[[2.4978472,48.8900926],[2.4980745,48.8900671],[2.4982417,48.8909061],[2.4971606,48.8910737],[2.4973227,48.8913932],[2.4919087,48.8921336],[2.4918228,48.8921175],[2.4917267,48.8917472],[2.4914985,48.8917629],[2.4912807,48.8913143],[2.4909035,48.8910181],[2.4919063,48.8902651],[2.495499,48.8893186],[2.4955281,48.8893452],[2.4961292,48.8894259],[2.4962658,48.8894676],[2.4968513,48.8898276],[2.4972968,48.8899561],[2.4976394,48.8901143],[2.4978472,48.8900926]]]]},"properties":{"code_section":"93010000AZ","code_commune":"93010","section_courte":"AZ"}},{"type":"Feature","geometry":{"type":"MultiPolygon","coordinates":[[[[2.4900026,48.8887018],[2.4910522,48.8909053],[2.4897161,48.8918175],[2.488969,48.8919892],[2.4884657,48.8909111],[2.4878906,48.8898105],[2.4876647,48.8891551],[2.4874108,48.8886484],[2.4873614,48.8884205],[2.4873705,48.8884518],[2.4898677,48.8883315],[2.4900026,48.8887018]]]]},"properties":{"code_section":"93010000BC","code_commune":"93010","section_courte":"BC"}},{"type":"Feature","geometry":{"type":"MultiPolygon","coordinates":[[[[2.4873735,48.8885356],[2.4876647,48.8891551],[2.4878089,48.8896275],[2.4882248,48.8904551],[2.4855899,48.8908716],[2.4855704,48.8907666],[2.4852655,48.8908241],[2.4849495,48.8901006],[2.4846161,48.8884111],[2.4837352,48.8884807],[2.4841534,48.8877907],[2.4843978,48.8877741],[2.4842527,48.8874169],[2.4869533,48.8869592],[2.4869584,48.8870935],[2.4873299,48.8881817],[2.4873735,48.8885356]]]]},"properties":{"code_section":"93010000BD","code_commune":"93010","section_courte":"BD"}},{"type":"Feature","geometry":{"type":"MultiPolygon","coordinates":[[[[2.4801153,48.8901077],[2.4796359,48.888688],[2.4793474,48.8887197],[2.4793235,48.8887436],[2.4792599,48.8885054],[2.4801598,48.88823],[2.4808408,48.8880699],[2.4842527,48.8874169],[2.4843978,48.8877741],[2.4841534,48.8877907],[2.4837352,48.8884807],[2.4846161,48.8884111],[2.4849206,48.889975],[2.484261,48.8900173],[2.4842852,48.8901521],[2.4839063,48.8901786],[2.4803181,48.890664],[2.4802571,48.890477],[2.480161,48.8904917],[2.4801263,48.8903858],[2.4802052,48.890375],[2.4801153,48.8901077]]]]},"properties":{"code_section":"93010000BE","code_commune":"93010","section_courte":"BE"}},{"type":"Feature","geometry":{"type":"MultiPolygon","coordinates":[[[[2.4793474,48.8887197],[2.4796359,48.888688],[2.4802052,48.890375],[2.4801263,48.8903858],[2.480161,48.8904917],[2.4802571,48.890477],[2.4803181,48.890664],[2.4802235,48.8906755],[2.4802,48.8906071],[2.4798908,48.8906554],[2.4801,48.8915341],[2.4805172,48.8914742],[2.4806358,48.8918306],[2.4802666,48.8918621],[2.480255,48.8918364],[2.4801192,48.8918483],[2.48013,48.8918742],[2.4777002,48.8920728],[2.4776035,48.8909308],[2.4776337,48.890369],[2.4778995,48.8892248],[2.4778128,48.8891005],[2.4785818,48.8887604],[2.4792599,48.8885054],[2.4793235,48.8887436],[2.4793474,48.8887197]]]]},"properties":{"code_section":"93010000BF","code_commune":"93010","section_courte":"BF"}},{"type":"Feature","geometry":{"type":"MultiPolygon","coordinates":[[[[2.4753254,48.8912134],[2.4776035,48.8909308],[2.4777002,48.8920728],[2.4775801,48.8922626],[2.4739158,48.8930104],[2.4734068,48.8936274],[2.4734139,48.8935768],[2.4732415,48.8934139],[2.4727695,48.8927874],[2.4724624,48.89191],[2.4722809,48.8911884],[2.4732246,48.8910728],[2.4743601,48.8911596],[2.4743755,48.8911185],[2.4744928,48.8914157],[2.4746936,48.8911853],[2.4751785,48.8912329],[2.4753254,48.8912134]]]]},"properties":{"code_section":"93010000BG","code_commune":"93010","section_courte":"BG"}},{"type":"Feature","geometry":{"type":"MultiPolygon","coordinates":[[[[2.4764581,48.8887835],[2.4771789,48.8887769],[2.477439,48.8888131],[2.4778128,48.8891005],[2.4778995,48.8892248],[2.4776337,48.890369],[2.4776035,48.8909308],[2.4751785,48.8912329],[2.4746936,48.8911853],[2.4744928,48.8914157],[2.4743755,48.8911185],[2.4743601,48.8911596],[2.4732246,48.8910728],[2.4722809,48.8911884],[2.4719063,48.8901304],[2.4713123,48.8891137],[2.4713281,48.8890242],[2.4743666,48.8888669],[2.4743829,48.8888379],[2.4747271,48.8888178],[2.4747125,48.8888493],[2.4753274,48.8888275],[2.4753591,48.8887905],[2.4757773,48.8887683],[2.4757437,48.8888015],[2.4764581,48.8887835]]]]},"properties":{"code_section":"93010000BH","code_commune":"93010","section_courte":"BH"}}]}