{"type":"FeatureCollection","features":[{"type":"Feature","geometry":{"type":"MultiPolygon","coordinates":[[[[2.3999676,48.9464228],[2.4001347,48.9467035],[2.4002604,48.9471121],[2.4053213,48.9439804],[2.4078036,48.945932],[2.4074222,48.9461556],[2.4075021,48.9462462],[2.4075041,48.9464797],[2.4076983,48.9462349],[2.4081361,48.9464516],[2.4087079,48.9466414],[2.4080293,48.9475522],[2.4079128,48.9478628],[2.407767,48.9479127],[2.4076989,48.9480662],[2.4074055,48.9481272],[2.4067823,48.948653],[2.4056122,48.9497292],[2.4056199,48.9497736],[2.4060496,48.9500601],[2.406089,48.9501294],[2.4058825,48.9502351],[2.4041194,48.9515139],[2.4039197,48.9513512],[2.403844,48.9512337],[2.4034165,48.9510544],[2.403136,48.9508031],[2.4021556,48.9501666],[2.4020952,48.9501718],[2.4019987,48.950244],[2.4019469,48.9502373],[2.401602,48.9500019],[2.4013928,48.9500748],[2.4008663,48.9498173],[2.4006498,48.9497753],[2.4004788,48.9495912],[2.400205,48.9494631],[2.4000541,48.9493466],[2.3998899,48.9493069],[2.3997073,48.9491719],[2.3996794,48.949126],[2.3997362,48.9490195],[2.3995675,48.9488806],[2.3994769,48.9489089],[2.3994283,48.9488869],[2.3994447,48.948771],[2.3993237,48.9487038],[2.3992964,48.9485774],[2.3990396,48.9487746],[2.3981316,48.9481555],[2.3980675,48.947796],[2.397744,48.9474577],[2.3976791,48.9473443],[2.3980634,48.9471304],[2.3993257,48.9466161],[2.3999676,48.9464228]]]]},"properties":{"code_section":"930270000A","code_commune":"93027","section_courte":"A"}},{"type":"Feature","geometry":{"type":"MultiPolygon","coordinates":[[[[2.3946918,48.9433059],[2.3949186,48.9431989],[2.3949512,48.9432152],[2.3949554,48.9431826],[2.3950561,48.9431355],[2.3947392,48.9429684],[2.3944321,48.9428514],[2.3941232,48.9426441],[2.4025252,48.941795],[2.4053213,48.9439804],[2.4002604,48.9471121],[2.4001347,48.9467035],[2.3999676,48.9464228],[2.3993257,48.9466161],[2.3979631,48.9471752],[2.3977416,48.9472904],[2.3976985,48.9473439],[2.397515,48.9473937],[2.3975672,48.947268],[2.3972516,48.9468965],[2.3971556,48.9465955],[2.3970875,48.9465289],[2.3967259,48.9463577],[2.3968108,48.9462773],[2.3968115,48.9462112],[2.3964545,48.9460298],[2.3963132,48.9457862],[2.3960436,48.9455706],[2.3959664,48.9454598],[2.3958079,48.9454064],[2.3956908,48.9452098],[2.3954972,48.9451042],[2.3953068,48.9451039],[2.3951695,48.9450239],[2.3952016,48.9449049],[2.3950036,48.9449262],[2.3945382,48.9447154],[2.3944051,48.944598],[2.3941869,48.9444983],[2.393807,48.9442019],[2.3936538,48.9441946],[2.3935709,48.9440764],[2.3934588,48.9440205],[2.3933819,48.9440199],[2.3941328,48.9435662],[2.3946918,48.9433059]]]]},"properties":{"code_section":"930270000B","code_commune":"93027","section_courte":"B"}},{"type":"Feature","geometry":{"type":"MultiPolygon","coordinates":[[[[2.3929737,48.9395529],[2.3992435,48.9392177],[2.4025252,48.941795],[2.3941232,48.9426441],[2.3936689,48.9423889],[2.3930691,48.9421337],[2.3925659,48.9418457],[2.3924435,48.941667],[2.3922797,48.9415283],[2.3917932,48.9408821],[2.3914729,48.9403246],[2.3914564,48.9401601],[2.3915154,48.9398985],[2.3916651,48.9396276],[2.3929737,48.9395529]]]]},"properties":{"code_section":"930270000C","code_commune":"93027","section_courte":"C"}},{"type":"Feature","geometry":{"type":"MultiPolygon","coordinates":[[[[2.3856761,48.938241],[2.3878011,48.9388202],[2.388002,48.9388397],[2.390611,48.93962],[2.3910077,48.9396558],[2.3916394,48.9396546],[2.3915154,48.9398985],[2.3914564,48.9401601],[2.3914729,48.9403246],[2.3917932,48.9408821],[2.3922797,48.9415283],[2.3924435,48.941667],[2.3925659,48.9418457],[2.3930691,48.9421337],[2.3936689,48.9423889],[2.3944321,48.9428514],[2.3947392,48.9429684],[2.3950561,48.9431355],[2.3949554,48.9431826],[2.3949512,48.9432152],[2.3949186,48.9431989],[2.3941328,48.9435662],[2.3933819,48.9440199],[2.3932969,48.9440086],[2.3929118,48.943826],[2.3907708,48.9430788],[2.3905226,48.9429623],[2.3902335,48.942896],[2.3898051,48.9426884],[2.3893995,48.9426015],[2.3882085,48.9424333],[2.3877372,48.9424092],[2.3874969,48.9423375],[2.3873199,48.9423213],[2.3874868,48.9412733],[2.3858847,48.9408605],[2.3851759,48.9404845],[2.3845662,48.937941],[2.3856761,48.938241]]]]},"properties":{"code_section":"930270000D","code_commune":"93027","section_courte":"D"}},{"type":"Feature","geometry":{"type":"MultiPolygon","coordinates":[[[[2.3856761,48.938241],[2.3845662,48.937941],[2.3833453,48.9328847],[2.3836665,48.9326376],[2.3837663,48.9326335],[2.3836456,48.932716],[2.3836904,48.9327194],[2.3839296,48.9329189],[2.3841896,48.9329435],[2.3841524,48.9328901],[2.3849786,48.9329637],[2.3860941,48.9324019],[2.3866748,48.9322663],[2.3871685,48.9339813],[2.387206,48.9348251],[2.3873187,48.935421],[2.3878645,48.9363207],[2.3881345,48.9369836],[2.3881051,48.9376582],[2.3879084,48.9388442],[2.3856761,48.938241]]]]},"properties":{"code_section":"930270000E","code_commune":"93027","section_courte":"E"}},{"type":"Feature","geometry":{"type":"MultiPolygon","coordinates":[[[[2.3894914,48.9311953],[2.3896666,48.9311531],[2.3917104,48.9319815],[2.3921536,48.9320894],[2.3925696,48.9321425],[2.392925,48.9321567],[2.3927504,48.9313304],[2.3939398,48.9315647],[2.3945986,48.9316395],[2.3952022,48.9317923],[2.3958012,48.9318596],[2.3959766,48.9319161],[2.3959801,48.9320077],[2.3952758,48.9328348],[2.3950443,48.9331669],[2.3947439,48.9333963],[2.3945182,48.933686],[2.394112,48.9339912],[2.3936689,48.9344028],[2.3936831,48.9348928],[2.3933601,48.9358815],[2.3932297,48.9360507],[2.390877,48.9343782],[2.3907922,48.9344292],[2.3910003,48.9345805],[2.3908942,48.9346824],[2.3908845,48.9348057],[2.3892454,48.9358155],[2.3889333,48.9359656],[2.3880893,48.9362662],[2.3878645,48.9363207],[2.3873107,48.935394],[2.387206,48.9348251],[2.3871685,48.9339813],[2.3868659,48.9328473],[2.3877361,48.9325285],[2.3874728,48.93229],[2.3887105,48.9316757],[2.3885373,48.9314545],[2.3894914,48.9311953]]]]},"properties":{"code_section":"930270000F","code_commune":"93027","section_courte":"F"}},{"type":"Feature","geometry":{"type":"MultiPolygon","coordinates":[[[[2.3986038,48.9392496],[2.3916651,48.9396276],[2.3916394,48.9396546],[2.3910077,48.9396558],[2.390611,48.93962],[2.3882767,48.9389169],[2.388002,48.9388397],[2.3879084,48.9388442],[2.3881051,48.9376582],[2.3880929,48.937419],[2.3881507,48.9370802],[2.3878645,48.9363207],[2.3880893,48.9362662],[2.3889333,48.9359656],[2.3892454,48.9358155],[2.3908845,48.9348057],[2.3908942,48.9346824],[2.3910003,48.9345805],[2.3907922,48.9344292],[2.390877,48.9343782],[2.3932297,48.9360507],[2.3933601,48.9358815],[2.3936232,48.9350516],[2.3955486,48.9361862],[2.3980949,48.9376205],[2.3983709,48.9376051],[2.3986038,48.9392496]]]]},"properties":{"code_section":"930270000G","code_commune":"93027","section_courte":"G"}},{"type":"Feature","geometry":{"type":"MultiPolygon","coordinates":[[[[2.3943401,48.9354798],[2.3936232,48.9350516],[2.3936894,48.9348595],[2.3936689,48.9344028],[2.394112,48.9339912],[2.3945182,48.933686],[2.3947439,48.9333963],[2.3950443,48.9331669],[2.3952758,48.9328348],[2.3959801,48.9320077],[2.3959766,48.9319161],[2.3958604,48.9318706],[2.395163,48.9317843],[2.397004,48.9306861],[2.3991666,48.9320946],[2.4010261,48.9335153],[2.4010387,48.9336667],[2.400987,48.9336877],[2.4017738,48.9347037],[2.4028703,48.9357821],[2.4039841,48.9370221],[2.4041642,48.937291],[2.3980949,48.9376205],[2.3943401,48.9354798]]]]},"properties":{"code_section":"930270000H","code_commune":"93027","section_courte":"H"}},{"type":"Feature","geometry":{"type":"MultiPolygon","coordinates":[[[[2.4057272,48.9404323],[2.4029012,48.942082],[2.3992435,48.9392177],[2.3986038,48.9392496],[2.3983709,48.9376051],[2.4041642,48.937291],[2.405351,48.9383262],[2.4072199,48.9395619],[2.4057272,48.9404323]]]]},"properties":{"code_section":"930270000I","code_commune":"93027","section_courte":"I"}},{"type":"Feature","geometry":{"type":"MultiPolygon","coordinates":[[[[2.4071442,48.9396069],[2.4072199,48.9395619],[2.4087329,48.9406],[2.4095939,48.941311],[2.4102337,48.9417858],[2.4129398,48.9440408],[2.4122848,48.9447595],[2.410719,48.9453392],[2.4097051,48.9458229],[2.4092292,48.9460127],[2.4091414,48.94607],[2.4090153,48.9462767],[2.4087079,48.9466414],[2.4081361,48.9464516],[2.4076983,48.9462349],[2.4075041,48.9464797],[2.4075021,48.9462462],[2.4074222,48.9461556],[2.4078036,48.945932],[2.4029012,48.942082],[2.4071442,48.9396069]]]]},"properties":{"code_section":"930270000J","code_commune":"93027","section_courte":"J"}},{"type":"Feature","geometry":{"type":"MultiPolygon","coordinates":[[[[2.4107641,48.9407453],[2.41189,48.9401451],[2.4118101,48.9400614],[2.413316,48.9393136],[2.4131223,48.9389387],[2.4128404,48.93856],[2.4142565,48.9378443],[2.4153226,48.9380946],[2.4157582,48.9372068],[2.4171393,48.9386559],[2.4167456,48.9394208],[2.4176107,48.9398354],[2.4175306,48.9399823],[2.4180239,48.9400781],[2.4172777,48.9413959],[2.4169392,48.9414652],[2.4161695,48.9419955],[2.414968,48.942466],[2.4145095,48.9426946],[2.4131816,48.9437133],[2.4130692,48.9438448],[2.4130131,48.9439869],[2.4129398,48.9440408],[2.4102337,48.9417858],[2.4095939,48.941311],[2.410231,48.9409541],[2.4102867,48.9409996],[2.4107641,48.9407453]]]]},"properties":{"code_section":"930270000K","code_commune":"93027","section_courte":"K"}},{"type":"Feature","geometry":{"type":"MultiPolygon","coordinates":[[[[2.4099472,48.9411049],[2.4095939,48.941311],[2.4087329,48.9406],[2.4060444,48.9387913],[2.4067811,48.9386388],[2.4073938,48.9384276],[2.4086415,48.9378706],[2.4098642,48.9371563],[2.4103423,48.936977],[2.4106174,48.936845],[2.4105576,48.9368093],[2.4106988,48.9367405],[2.410761,48.9367798],[2.4120507,48.9361504],[2.4141037,48.9350613],[2.4141606,48.9351118],[2.4133867,48.9355097],[2.4139496,48.9359888],[2.4164949,48.9357068],[2.4153226,48.9380946],[2.4142565,48.9378443],[2.4128404,48.93856],[2.4131223,48.9389387],[2.413316,48.9393136],[2.4118101,48.9400614],[2.41189,48.9401451],[2.4105673,48.9408508],[2.4102867,48.9409996],[2.410231,48.9409541],[2.4099472,48.9411049]]]]},"properties":{"code_section":"930270000L","code_commune":"93027","section_courte":"L"}},{"type":"Feature","geometry":{"type":"MultiPolygon","coordinates":[[[[2.4027243,48.9327657],[2.4040839,48.9325663],[2.4041002,48.9323971],[2.4039622,48.9323857],[2.4039692,48.9322727],[2.4058304,48.9323574],[2.405982,48.9328681],[2.4060866,48.9330502],[2.4059764,48.9330751],[2.4065456,48.9337297],[2.4065077,48.9337675],[2.4066622,48.9339232],[2.4079162,48.9348292],[2.4106988,48.9367405],[2.4105576,48.9368093],[2.4106174,48.936845],[2.4098642,48.9371563],[2.4086415,48.9378706],[2.4074112,48.9384212],[2.4067811,48.9386388],[2.4060444,48.9387913],[2.405351,48.9383262],[2.4041642,48.937291],[2.4039841,48.9370221],[2.4028703,48.9357821],[2.4017738,48.9347037],[2.400987,48.9336877],[2.4010387,48.9336667],[2.4010261,48.9335153],[2.4028429,48.932982],[2.4026556,48.9327762],[2.4027243,48.9327657]]]]},"properties":{"code_section":"930270000M","code_commune":"93027","section_courte":"M"}},{"type":"Feature","geometry":{"type":"MultiPolygon","coordinates":[[[[2.4058801,48.9325208],[2.4058304,48.9323574],[2.4117804,48.9326618],[2.4124106,48.9326064],[2.4133393,48.9330302],[2.4140533,48.9330822],[2.415628,48.9330104],[2.4164675,48.9330958],[2.4176833,48.933664],[2.4162688,48.9341281],[2.4161582,48.9342351],[2.4141696,48.9351053],[2.4141037,48.9350613],[2.4122041,48.9360744],[2.410761,48.9367798],[2.4079162,48.9348292],[2.4066622,48.9339232],[2.4065077,48.9337675],[2.4065456,48.9337297],[2.4059764,48.9330751],[2.4060866,48.9330502],[2.405982,48.9328681],[2.4058801,48.9325208]]]]},"properties":{"code_section":"930270000N","code_commune":"93027","section_courte":"N"}},{"type":"Feature","geometry":{"type":"MultiPolygon","coordinates":[[[[2.4039396,48.9269797],[2.4143036,48.9286808],[2.4142317,48.9290657],[2.4123761,48.9287635],[2.4152417,48.9308382],[2.414166,48.9314694],[2.4129193,48.9323688],[2.4124106,48.9326064],[2.4117804,48.9326618],[2.4039692,48.9322727],[2.4035595,48.9315141],[2.4028809,48.9306321],[2.4029831,48.9306241],[2.4031441,48.9302601],[2.4031777,48.9298162],[2.4029738,48.9294549],[2.4029333,48.9291381],[2.4030176,48.9288785],[2.4032955,48.928368],[2.403329,48.9280731],[2.4028812,48.9272404],[2.4023276,48.9271427],[2.4024771,48.9267719],[2.4034099,48.926869],[2.4039396,48.9269797]]]]},"properties":{"code_section":"930270000O","code_commune":"93027","section_courte":"O"}},{"type":"Feature","geometry":{"type":"MultiPolygon","coordinates":[[[[2.4137738,48.9281134],[2.4127679,48.9270908],[2.4131064,48.9269165],[2.4138234,48.9266895],[2.4140646,48.9265652],[2.4143395,48.9264847],[2.4136791,48.9250614],[2.415089,48.9247762],[2.4176261,48.9240475],[2.4178034,48.9240477],[2.418504,48.9248271],[2.418562,48.924806],[2.4188576,48.9251608],[2.4210498,48.9282289],[2.4220781,48.9294344],[2.4225517,48.9300869],[2.421131,48.929845],[2.4207307,48.929705],[2.4206087,48.9296899],[2.4203887,48.9297527],[2.4198762,48.9293084],[2.4189531,48.9297562],[2.4188823,48.9297557],[2.4170988,48.9303811],[2.4160196,48.9303915],[2.4152417,48.9308382],[2.4123761,48.9287635],[2.4142317,48.9290657],[2.4143153,48.9286598],[2.4137738,48.9281134]]]]},"properties":{"code_section":"930270000P","code_commune":"93027","section_courte":"P"}},{"type":"Feature","geometry":{"type":"MultiPolygon","coordinates":[[[[2.4036159,48.9262385],[2.4037093,48.9259864],[2.4034164,48.9248582],[2.404834,48.9248605],[2.4083032,48.9252353],[2.4136791,48.9250614],[2.4143395,48.9264847],[2.4140646,48.9265652],[2.4138234,48.9266895],[2.4131064,48.9269165],[2.4127679,48.9270908],[2.4143153,48.9286598],[2.4143036,48.9286808],[2.4100709,48.9279718],[2.4064415,48.9273993],[2.404118,48.9270173],[2.4034099,48.926869],[2.4025229,48.9267762],[2.4025551,48.9266469],[2.4029821,48.92668],[2.4034018,48.9267508],[2.4034339,48.9267355],[2.4036159,48.9262385]]]]},"properties":{"code_section":"930270000Q","code_commune":"93027","section_courte":"Q"}},{"type":"Feature","geometry":{"type":"MultiPolygon","coordinates":[[[[2.3971702,48.9282198],[2.3969849,48.927246],[2.396613,48.9272508],[2.3966205,48.9261337],[2.397177,48.9258296],[2.4000804,48.9249347],[2.4006148,48.9248287],[2.4007461,48.9252359],[2.4025746,48.9248642],[2.4034164,48.9248582],[2.4037093,48.9259864],[2.4034339,48.9267355],[2.4034018,48.9267508],[2.4029821,48.92668],[2.4025551,48.9266469],[2.4023276,48.9271427],[2.4028812,48.9272404],[2.403329,48.9280731],[2.4032955,48.928368],[2.4030176,48.9288785],[2.4029333,48.9291381],[2.4029738,48.9294549],[2.4031777,48.9298162],[2.4031441,48.9302601],[2.4029831,48.9306241],[2.4017633,48.9307367],[2.4009281,48.9310381],[2.4001579,48.9302041],[2.3992731,48.9293378],[2.3989973,48.9285945],[2.3984926,48.9287247],[2.3978383,48.9289608],[2.3969876,48.9291256],[2.3969702,48.9290584],[2.3971702,48.9282198]]]]},"properties":{"code_section":"930270000R","code_commune":"93027","section_courte":"R"}},{"type":"Feature","geometry":{"type":"MultiPolygon","coordinates":[[[[2.402797,48.9329957],[2.4010261,48.9335153],[2.3991666,48.9320946],[2.399425,48.9318936],[2.4008943,48.9310504],[2.4017633,48.9307367],[2.4028809,48.9306321],[2.4035595,48.9315141],[2.4039692,48.9322727],[2.4039622,48.9323857],[2.4041002,48.9323971],[2.4040839,48.9325663],[2.4026556,48.9327762],[2.4028429,48.932982],[2.402797,48.9329957]]]]},"properties":{"code_section":"930270000S","code_commune":"93027","section_courte":"S"}},{"type":"Feature","geometry":{"type":"MultiPolygon","coordinates":[[[[2.4009281,48.9310381],[2.399425,48.9318936],[2.3991666,48.9320946],[2.3967518,48.9305183],[2.3964368,48.9302746],[2.3955045,48.9294026],[2.3955485,48.9293146],[2.3971463,48.9291039],[2.3978383,48.9289608],[2.3984926,48.9287247],[2.3989973,48.9285945],[2.3992731,48.9293378],[2.4001579,48.9302041],[2.4009281,48.9310381]]]]},"properties":{"code_section":"930270000T","code_commune":"93027","section_courte":"T"}},{"type":"Feature","geometry":{"type":"MultiPolygon","coordinates":[[[[2.3969876,48.9291256],[2.3955485,48.9293146],[2.3955045,48.9294026],[2.3931911,48.9272291],[2.3935575,48.9270562],[2.3935763,48.9268336],[2.3928028,48.9255789],[2.3953008,48.9259418],[2.3960665,48.926088],[2.3966205,48.9261337],[2.396613,48.9272508],[2.3969849,48.927246],[2.3971702,48.9282198],[2.3969702,48.9290584],[2.3969876,48.9291256]]]]},"properties":{"code_section":"930270000U","code_commune":"93027","section_courte":"U"}},{"type":"Feature","geometry":{"type":"MultiPolygon","coordinates":[[[[2.3889107,48.9250252],[2.3918509,48.9255179],[2.3920103,48.9254887],[2.3925416,48.92558],[2.3928028,48.9255789],[2.3935347,48.9267263],[2.3935763,48.9268336],[2.3935575,48.9270562],[2.3931911,48.9272291],[2.3904795,48.9279097],[2.3897131,48.9268623],[2.3891147,48.9270216],[2.3883177,48.925942],[2.388871,48.9257559],[2.3882836,48.9249223],[2.3889107,48.9250252]]]]},"properties":{"code_section":"930270000V","code_commune":"93027","section_courte":"V"}},{"type":"Feature","geometry":{"type":"MultiPolygon","coordinates":[[[[2.3868953,48.9246836],[2.3882836,48.9249223],[2.388871,48.9257559],[2.3883177,48.925942],[2.3891147,48.9270216],[2.3857373,48.927984],[2.3856136,48.9279723],[2.385338,48.928018],[2.3849797,48.9268559],[2.3843454,48.9257423],[2.3844498,48.925743],[2.3846319,48.9256535],[2.3846331,48.9254166],[2.384318,48.9242854],[2.3868953,48.9246836]]]]},"properties":{"code_section":"930270000X","code_commune":"93027","section_courte":"X"}},{"type":"Feature","geometry":{"type":"MultiPolygon","coordinates":[[[[2.3857373,48.927984],[2.3897131,48.9268623],[2.3904795,48.9279097],[2.388162,48.9289138],[2.3866781,48.9293577],[2.3855802,48.9297216],[2.3856236,48.9289293],[2.385338,48.928018],[2.3856136,48.9279723],[2.3857373,48.927984]]]]},"properties":{"code_section":"930270000Y","code_commune":"93027","section_courte":"Y"}},{"type":"Feature","geometry":{"type":"MultiPolygon","coordinates":[[[[2.3919378,48.9301685],[2.3905784,48.9304184],[2.389401,48.9302166],[2.3891276,48.9300381],[2.388162,48.9289138],[2.3904795,48.9279097],[2.3931911,48.9272291],[2.3955045,48.9294026],[2.3937427,48.9298299],[2.3919378,48.9301685]]]]},"properties":{"code_section":"930270000Z","code_commune":"93027","section_courte":"Z"}},{"type":"Feature","geometry":{"type":"MultiPolygon","coordinates":[[[[2.3907318,48.9303905],[2.3937427,48.9298299],[2.3955045,48.9294026],[2.3964368,48.9302746],[2.397004,48.9306861],[2.395163,48.9317843],[2.3945986,48.9316395],[2.3939398,48.9315647],[2.3927504,48.9313304],[2.392925,48.9321567],[2.3925696,48.9321425],[2.3921536,48.9320894],[2.3917104,48.9319815],[2.3901785,48.9313631],[2.3902808,48.9312579],[2.3901345,48.930598],[2.3894739,48.9303988],[2.3893712,48.9302659],[2.389401,48.9302166],[2.3905784,48.9304184],[2.3907318,48.9303905]]]]},"properties":{"code_section":"93027000AB","code_commune":"93027","section_courte":"AB"}},{"type":"Feature","geometry":{"type":"MultiPolygon","coordinates":[[[[2.3894079,48.9312181],[2.3885373,48.9314545],[2.3887105,48.9316757],[2.3874728,48.93229],[2.3877361,48.9325285],[2.3868659,48.9328473],[2.3863481,48.931358],[2.3855802,48.9297216],[2.3866781,48.9293577],[2.388162,48.9289138],[2.3891276,48.9300381],[2.389401,48.9302166],[2.3893722,48.9302692],[2.3894739,48.9303988],[2.3901345,48.930598],[2.3902808,48.9312579],[2.3901785,48.9313631],[2.3896666,48.9311531],[2.3894079,48.9312181]]]]},"properties":{"code_section":"93027000AC","code_commune":"93027","section_courte":"AC"}},{"type":"Feature","geometry":{"type":"MultiPolygon","coordinates":[[[[2.3841896,48.9329435],[2.3839296,48.9329189],[2.3836904,48.9327194],[2.3836456,48.932716],[2.3839313,48.93252],[2.3837499,48.9323511],[2.3824616,48.9307457],[2.3834468,48.93042],[2.384261,48.9301065],[2.3855802,48.9297216],[2.3863481,48.931358],[2.3866748,48.9322663],[2.3860941,48.9324019],[2.3849786,48.9329637],[2.3841524,48.9328901],[2.3841896,48.9329435]]]]},"properties":{"code_section":"93027000AD","code_commune":"93027","section_courte":"AD"}},{"type":"Feature","geometry":{"type":"MultiPolygon","coordinates":[[[[2.3817556,48.9299542],[2.3806579,48.928734],[2.3811353,48.9286526],[2.3822082,48.9285368],[2.3823752,48.9285538],[2.3829099,48.9284772],[2.3831661,48.9284703],[2.384403,48.9282663],[2.3851345,48.9281081],[2.385338,48.928018],[2.3856236,48.9289293],[2.3855802,48.9297216],[2.384261,48.9301065],[2.3834468,48.93042],[2.3824616,48.9307457],[2.3817556,48.9299542]]]]},"properties":{"code_section":"93027000AE","code_commune":"93027","section_courte":"AE"}},{"type":"Feature","geometry":{"type":"MultiPolygon","coordinates":[[[[2.3789307,48.929263],[2.3789981,48.9292399],[2.3790375,48.9292878],[2.3798111,48.9289989],[2.3806579,48.928734],[2.3824616,48.9307457],[2.3813496,48.9312073],[2.3805643,48.9314121],[2.3776414,48.93178],[2.3765908,48.930062],[2.3766345,48.9299869],[2.3767421,48.9300173],[2.3789307,48.929263]]]]},"properties":{"code_section":"93027000AF","code_commune":"93027","section_courte":"AF"}},{"type":"Feature","geometry":{"type":"MultiPolygon","coordinates":[[[[2.3809897,48.9284824],[2.3815994,48.9278348],[2.3802979,48.9272834],[2.3825606,48.9259597],[2.3824957,48.9259111],[2.3826689,48.9258115],[2.3840265,48.9252154],[2.3849797,48.9268559],[2.385338,48.928018],[2.3851345,48.9281081],[2.384403,48.9282663],[2.3831661,48.9284703],[2.3829099,48.9284772],[2.3823752,48.9285538],[2.3822082,48.9285368],[2.3811353,48.9286526],[2.3809897,48.9284824]]]]},"properties":{"code_section":"93027000AG","code_commune":"93027","section_courte":"AG"}},{"type":"Feature","geometry":{"type":"MultiPolygon","coordinates":[[[[2.3810294,48.9234999],[2.3814685,48.9235891],[2.3827673,48.9254319],[2.3828998,48.9255423],[2.3828761,48.9255858],[2.3829462,48.9256865],[2.3824957,48.9259111],[2.3825606,48.9259597],[2.3802979,48.9272834],[2.3815994,48.9278348],[2.3809897,48.9284824],[2.3811353,48.9286526],[2.3806215,48.9287429],[2.3798111,48.9289989],[2.3790375,48.9292878],[2.3789981,48.9292399],[2.3767421,48.9300173],[2.3766345,48.9299869],[2.3765908,48.930062],[2.3750737,48.9276658],[2.3755056,48.92742],[2.3778402,48.925371],[2.3746817,48.9238545],[2.3749012,48.9236434],[2.376156,48.9230089],[2.376526,48.9226519],[2.3767153,48.922577],[2.3771988,48.9226096],[2.3772861,48.9225853],[2.3773261,48.922514],[2.3773753,48.9225261],[2.3773365,48.922596],[2.380417,48.9233091],[2.3805487,48.9234012],[2.3810294,48.9234999]]]]},"properties":{"code_section":"93027000AH","code_commune":"93027","section_courte":"AH"}},{"type":"Feature","geometry":{"type":"MultiPolygon","coordinates":[[[[2.3826632,48.9252845],[2.3814685,48.9235891],[2.3805487,48.9234012],[2.380417,48.9233091],[2.3804651,48.9232799],[2.380556,48.923296],[2.3814525,48.9226144],[2.3821643,48.9221846],[2.3835888,48.9217226],[2.3840495,48.9224838],[2.3839233,48.9225139],[2.3843187,48.923175],[2.383778,48.9230823],[2.3842591,48.9240736],[2.384631,48.9254025],[2.3846319,48.9256535],[2.3844498,48.925743],[2.3843454,48.9257423],[2.3840265,48.9252154],[2.3829462,48.9256865],[2.3828761,48.9255858],[2.3828998,48.9255423],[2.3826632,48.9252845]]]]},"properties":{"code_section":"93027000AI","code_commune":"93027","section_courte":"AI"}},{"type":"Feature","geometry":{"type":"MultiPolygon","coordinates":[[[[2.3817857,48.9214912],[2.382024,48.9219863],[2.3821643,48.9221846],[2.3814525,48.9226144],[2.380556,48.923296],[2.3804651,48.9232799],[2.380412,48.9233087],[2.3773365,48.922596],[2.3773753,48.9225261],[2.3773261,48.922514],[2.3772861,48.9225853],[2.3769814,48.9225183],[2.3771826,48.9224775],[2.3773068,48.9222793],[2.3775242,48.92219],[2.3776419,48.9220844],[2.378463,48.9218312],[2.378729,48.9216566],[2.3794088,48.9205439],[2.3798602,48.9201159],[2.3799609,48.9199259],[2.3801185,48.9197447],[2.3809407,48.919657],[2.3816175,48.9213242],[2.3817463,48.9214154],[2.3817857,48.9214912]]]]},"properties":{"code_section":"93027000AJ","code_commune":"93027","section_courte":"AJ"}},{"type":"Feature","geometry":{"type":"MultiPolygon","coordinates":[[[[2.3869058,48.9193662],[2.3869587,48.9193971],[2.386923,48.9195567],[2.3869901,48.9196057],[2.3869677,48.9197771],[2.3871993,48.9204458],[2.3868373,48.92032],[2.3862717,48.9209417],[2.3856869,48.9212477],[2.3835888,48.9217226],[2.3821643,48.9221846],[2.382024,48.9219863],[2.3817463,48.9214154],[2.3816175,48.9213242],[2.3809464,48.9196496],[2.384158,48.9193351],[2.3864758,48.9192879],[2.3869058,48.9193662]]]]},"properties":{"code_section":"93027000AK","code_commune":"93027","section_courte":"AK"}},{"type":"Feature","geometry":{"type":"MultiPolygon","coordinates":[[[[2.3894332,48.9198633],[2.3896073,48.9199354],[2.3897755,48.9199515],[2.3899751,48.9201037],[2.3902946,48.9205553],[2.3902307,48.9206732],[2.3902862,48.9207701],[2.3907508,48.9213555],[2.3908089,48.9214075],[2.3909889,48.9214733],[2.3912001,48.9219438],[2.3914908,48.9221878],[2.3884463,48.9230838],[2.3883037,48.9231889],[2.3886522,48.9233079],[2.3894292,48.9234343],[2.3902551,48.9236322],[2.3915841,48.9247721],[2.3924421,48.9250872],[2.3928028,48.9255789],[2.3925416,48.92558],[2.3920103,48.9254887],[2.3918509,48.9255179],[2.3868953,48.9246836],[2.384318,48.9242854],[2.3841864,48.9238776],[2.383778,48.9230823],[2.3843187,48.923175],[2.3839233,48.9225139],[2.3840495,48.9224838],[2.3835888,48.9217226],[2.3856869,48.9212477],[2.3862717,48.9209417],[2.3868373,48.92032],[2.3871993,48.9204458],[2.3869677,48.9197771],[2.3869947,48.9195609],[2.3880198,48.919533],[2.3883662,48.9197124],[2.3887595,48.9197745],[2.3890965,48.9198802],[2.3894332,48.9198633]]]]},"properties":{"code_section":"93027000AL","code_commune":"93027","section_courte":"AL"}},{"type":"Feature","geometry":{"type":"MultiPolygon","coordinates":[[[[2.3951317,48.9218575],[2.3952872,48.9218913],[2.3953478,48.9220159],[2.3954784,48.9220486],[2.3960627,48.9220925],[2.3967874,48.9219914],[2.3971585,48.9220238],[2.3975407,48.9221313],[2.3982652,48.9224153],[2.3984938,48.9224678],[2.3998122,48.9222995],[2.4014362,48.9246118],[2.4006148,48.9248287],[2.4000804,48.9249347],[2.397177,48.9258296],[2.3966205,48.9261337],[2.3960665,48.926088],[2.3953008,48.9259418],[2.3928028,48.9255789],[2.3924421,48.9250872],[2.3915841,48.9247721],[2.3902551,48.9236322],[2.3894292,48.9234343],[2.3886522,48.9233079],[2.3883037,48.9231889],[2.3884463,48.9230838],[2.3914908,48.9221878],[2.3916483,48.9223027],[2.3920381,48.9224732],[2.392272,48.9225416],[2.3924272,48.9225545],[2.3928058,48.9224461],[2.3931672,48.922176],[2.3938474,48.921859],[2.3945346,48.9217251],[2.3948348,48.9217651],[2.3951317,48.9218575]]]]},"properties":{"code_section":"93027000AM","code_commune":"93027","section_courte":"AM"}},{"type":"Feature","geometry":{"type":"MultiPolygon","coordinates":[[[[2.406665,48.9248566],[2.4065697,48.9250364],[2.404834,48.9248605],[2.4026157,48.9248604],[2.4007461,48.9252359],[2.4006148,48.9248287],[2.4026247,48.9243008],[2.4026646,48.9242114],[2.4022051,48.9236367],[2.4032668,48.9232931],[2.4033599,48.923404],[2.4048545,48.9228058],[2.4053637,48.9234095],[2.4053172,48.9235282],[2.4055379,48.9237216],[2.4056675,48.9236632],[2.4059231,48.9238774],[2.406071,48.9241216],[2.4066122,48.9247339],[2.406665,48.9248566]]]]},"properties":{"code_section":"93027000AN","code_commune":"93027","section_courte":"AN"}},{"type":"Feature","geometry":{"type":"MultiPolygon","coordinates":[[[[2.4046428,48.9222065],[2.4050609,48.9226972],[2.4048372,48.9227824],[2.4048545,48.9228058],[2.4033599,48.923404],[2.4032668,48.9232931],[2.4022051,48.9236367],[2.4026646,48.9242114],[2.4026247,48.9243008],[2.4014362,48.9246118],[2.3998122,48.9222995],[2.4000287,48.9222705],[2.4005044,48.9221296],[2.4007209,48.9221117],[2.4010918,48.9219206],[2.4012444,48.9219062],[2.401473,48.9218045],[2.4016299,48.9217788],[2.401865,48.9216414],[2.4021886,48.9212878],[2.4025467,48.9211482],[2.4031609,48.9215419],[2.4033205,48.9217443],[2.4040102,48.921463],[2.4046428,48.9222065]]]]},"properties":{"code_section":"93027000AO","code_commune":"93027","section_courte":"AO"}},{"type":"Feature","geometry":{"type":"MultiPolygon","coordinates":[[[[2.4032634,48.9216711],[2.4031609,48.9215419],[2.4025467,48.9211482],[2.4025614,48.9206626],[2.4032857,48.9201436],[2.4038448,48.9198977],[2.4036755,48.9196721],[2.4038075,48.9194766],[2.4041937,48.9192981],[2.4051417,48.9189487],[2.4065332,48.9203647],[2.4065679,48.9204779],[2.4082619,48.9219783],[2.4053637,48.9234095],[2.4048372,48.9227824],[2.4050609,48.9226972],[2.4040102,48.921463],[2.4033205,48.9217443],[2.4032634,48.9216711]]]]},"properties":{"code_section":"93027000AP","code_commune":"93027","section_courte":"AP"}},{"type":"Feature","geometry":{"type":"MultiPolygon","coordinates":[[[[2.4083474,48.9248907],[2.4083832,48.9252347],[2.4065697,48.9250364],[2.406665,48.9248566],[2.4066122,48.9247339],[2.406071,48.9241216],[2.4059231,48.9238774],[2.4056675,48.9236632],[2.4055379,48.9237216],[2.4053172,48.9235282],[2.4053637,48.9234095],[2.4096917,48.9212644],[2.4106342,48.9224848],[2.4109537,48.9226715],[2.410862,48.9227331],[2.4105271,48.9226742],[2.4104346,48.9227232],[2.4102848,48.9229138],[2.410163,48.9233594],[2.4100906,48.9234382],[2.409881,48.9234894],[2.4094384,48.9238153],[2.4092188,48.9239268],[2.4092448,48.9239585],[2.4087278,48.9243106],[2.4085225,48.9242412],[2.4082417,48.9243244],[2.4083474,48.9248907]]]]},"properties":{"code_section":"93027000AQ","code_commune":"93027","section_courte":"AQ"}},{"type":"Feature","geometry":{"type":"MultiPolygon","coordinates":[[[[2.4137342,48.9235941],[2.4144247,48.9241404],[2.415089,48.9247762],[2.4136791,48.9250614],[2.4083832,48.9252347],[2.4083019,48.9245139],[2.4082417,48.9243244],[2.4085225,48.9242412],[2.4087278,48.9243106],[2.4092448,48.9239585],[2.4092188,48.9239268],[2.4094384,48.9238153],[2.409881,48.9234894],[2.4100906,48.9234382],[2.410163,48.9233594],[2.4102848,48.9229138],[2.4104039,48.9227467],[2.4105271,48.9226742],[2.410862,48.9227331],[2.4110486,48.9226137],[2.4112469,48.9226491],[2.4112653,48.9226017],[2.4116118,48.9225628],[2.4115873,48.9225293],[2.4123252,48.9221986],[2.4137342,48.9235941]]]]},"properties":{"code_section":"93027000AR","code_commune":"93027","section_courte":"AR"}},{"type":"Feature","geometry":{"type":"MultiPolygon","coordinates":[[[[2.4136416,48.9213155],[2.4152711,48.9208042],[2.4162679,48.9217658],[2.417815,48.9239267],[2.4178194,48.9239809],[2.415089,48.9247762],[2.4144247,48.9241404],[2.4137342,48.9235941],[2.411864,48.9217292],[2.4136416,48.9213155]]]]},"properties":{"code_section":"93027000AS","code_commune":"93027","section_courte":"AS"}},{"type":"Feature","geometry":{"type":"MultiPolygon","coordinates":[[[[2.4109537,48.9226715],[2.4106342,48.9224848],[2.4096917,48.9212644],[2.4135033,48.9193825],[2.4149124,48.920493],[2.4152549,48.9208088],[2.4136416,48.9213155],[2.411864,48.9217292],[2.4123252,48.9221986],[2.4115873,48.9225293],[2.4116118,48.9225628],[2.4112653,48.9226017],[2.4112469,48.9226491],[2.4110486,48.9226137],[2.4109537,48.9226715]]]]},"properties":{"code_section":"93027000AT","code_commune":"93027","section_courte":"AT"}},{"type":"Feature","geometry":{"type":"MultiPolygon","coordinates":[[[[2.405861,48.9187732],[2.4061782,48.9187181],[2.406516,48.9187598],[2.4067914,48.9187256],[2.4070114,48.9185788],[2.407276,48.9183079],[2.4077038,48.9180917],[2.4093682,48.9195796],[2.4106445,48.9207949],[2.4082619,48.9219783],[2.4065679,48.9204779],[2.4065332,48.9203647],[2.4051417,48.9189487],[2.405861,48.9187732]]]]},"properties":{"code_section":"93027000AU","code_commune":"93027","section_courte":"AU"}},{"type":"Feature","geometry":{"type":"MultiPolygon","coordinates":[[[[2.4133583,48.9194466],[2.4106445,48.9207949],[2.4093682,48.9195796],[2.4076458,48.9180361],[2.4090666,48.9173773],[2.4100787,48.9166335],[2.4115252,48.9179749],[2.4133583,48.9194466]]]]},"properties":{"code_section":"93027000AV","code_commune":"93027","section_courte":"AV"}}]}