{"type":"FeatureCollection","features":[{"type":"Feature","geometry":{"type":"MultiPolygon","coordinates":[[[[2.2967295,48.9651928],[2.2953072,48.964434],[2.2974506,48.9633644],[2.299231,48.964697],[2.3004587,48.9656904],[2.2998899,48.9659519],[2.2992418,48.9661699],[2.2988822,48.9663363],[2.2967295,48.9651928]]]]},"properties":{"code_section":"930310000A","code_commune":"93031","section_courte":"A"}},{"type":"Feature","geometry":{"type":"MultiPolygon","coordinates":[[[[2.2931093,48.9632646],[2.2906974,48.961982],[2.2912712,48.9618418],[2.2932945,48.9611819],[2.2936293,48.9610061],[2.2950935,48.961702],[2.2974506,48.9633644],[2.2953072,48.964434],[2.2931093,48.9632646]]]]},"properties":{"code_section":"930310000B","code_commune":"93031","section_courte":"B"}},{"type":"Feature","geometry":{"type":"MultiPolygon","coordinates":[[[[2.296656,48.9610818],[2.2990794,48.9597049],[2.3013077,48.961362],[2.2974506,48.9633644],[2.2950935,48.961702],[2.296656,48.9610818]]]]},"properties":{"code_section":"930310000C","code_commune":"93031","section_courte":"C"}},{"type":"Feature","geometry":{"type":"MultiPolygon","coordinates":[[[[2.3035607,48.9636516],[2.3031582,48.9640035],[2.3013407,48.9653919],[2.3005319,48.9657526],[2.299231,48.964697],[2.2974506,48.9633644],[2.3009354,48.9615595],[2.3024352,48.9626993],[2.3021629,48.9628703],[2.3035607,48.9636516]]]]},"properties":{"code_section":"930310000D","code_commune":"93031","section_courte":"D"}},{"type":"Feature","geometry":{"type":"MultiPolygon","coordinates":[[[[2.3028852,48.9632766],[2.3021629,48.9628703],[2.3024352,48.9626993],[2.3009354,48.9615595],[2.3042774,48.9598276],[2.3048075,48.9597227],[2.3054092,48.9598541],[2.3068249,48.9605698],[2.3035607,48.9636516],[2.3028852,48.9632766]]]]},"properties":{"code_section":"930310000E","code_commune":"93031","section_courte":"E"}},{"type":"Feature","geometry":{"type":"MultiPolygon","coordinates":[[[[2.2996542,48.9593898],[2.3012722,48.9584541],[2.3023499,48.9589985],[2.3027841,48.9591672],[2.3038953,48.9593791],[2.3048075,48.9597227],[2.3042774,48.9598276],[2.3013077,48.961362],[2.2990794,48.9597049],[2.2996542,48.9593898]]]]},"properties":{"code_section":"930310000F","code_commune":"93031","section_courte":"F"}},{"type":"Feature","geometry":{"type":"MultiPolygon","coordinates":[[[[2.3091307,48.9582401],[2.3068249,48.9605698],[2.3054092,48.9598541],[2.3048075,48.9597227],[2.3038953,48.9593791],[2.3027841,48.9591672],[2.3023499,48.9589985],[2.3012722,48.9584541],[2.3046339,48.9565086],[2.3050297,48.9568299],[2.3060996,48.9573975],[2.3066585,48.9576123],[2.3075392,48.957845],[2.3074768,48.9580923],[2.3088287,48.9581672],[2.3091307,48.9582401]]]]},"properties":{"code_section":"930310000G","code_commune":"93031","section_courte":"G"}},{"type":"Feature","geometry":{"type":"MultiPolygon","coordinates":[[[[2.306488,48.9628466],[2.3050944,48.9622169],[2.307443,48.9599476],[2.3097617,48.960737],[2.3099717,48.9607813],[2.3108087,48.9612104],[2.3108819,48.9618134],[2.310799,48.9618957],[2.310421,48.9617442],[2.3103141,48.9618255],[2.3101169,48.9620519],[2.3097857,48.9622908],[2.3094184,48.9626729],[2.3091868,48.963057],[2.3091253,48.9632554],[2.308939,48.9635193],[2.3071504,48.962755],[2.3068114,48.9629928],[2.306488,48.9628466]]]]},"properties":{"code_section":"930310000H","code_commune":"93031","section_courte":"H"}},{"type":"Feature","geometry":{"type":"MultiPolygon","coordinates":[[[[2.3096149,48.9606864],[2.307443,48.9599476],[2.310964,48.9564308],[2.3142169,48.9580052],[2.3141561,48.9580954],[2.3138105,48.9582427],[2.3137539,48.9584815],[2.3137974,48.9585394],[2.3131981,48.9590661],[2.3129131,48.9589367],[2.3128192,48.9590264],[2.3127421,48.9591883],[2.3127428,48.9595479],[2.312532,48.9598314],[2.3122946,48.9602779],[2.3118268,48.9600681],[2.3117107,48.9599864],[2.3115554,48.9601444],[2.311318,48.960262],[2.3111754,48.9604631],[2.3110087,48.961012],[2.310883,48.9612007],[2.3108087,48.9612104],[2.3099717,48.9607813],[2.3096149,48.9606864]]]]},"properties":{"code_section":"930310000I","code_commune":"93031","section_courte":"I"}},{"type":"Feature","geometry":{"type":"MultiPolygon","coordinates":[[[[2.3115169,48.9601664],[2.3117107,48.9599864],[2.3118268,48.9600681],[2.3122946,48.9602779],[2.312532,48.9598314],[2.3127428,48.9595479],[2.3127421,48.9591883],[2.3128192,48.9590264],[2.3129131,48.9589367],[2.3131981,48.9590661],[2.3137974,48.9585394],[2.3139454,48.9586157],[2.3142268,48.9585795],[2.3151141,48.959549],[2.3151866,48.9595076],[2.3163487,48.9604357],[2.3130214,48.9623162],[2.3128943,48.9624149],[2.3110114,48.9621657],[2.3109262,48.9619621],[2.310799,48.9618957],[2.3108819,48.9618134],[2.3108087,48.9612104],[2.310883,48.9612007],[2.3109864,48.96106],[2.3111369,48.9605531],[2.3112436,48.960353],[2.3113402,48.9602446],[2.3115169,48.9601664]]]]},"properties":{"code_section":"930310000J","code_commune":"93031","section_courte":"J"}},{"type":"Feature","geometry":{"type":"MultiPolygon","coordinates":[[[[2.3156481,48.9598785],[2.3151866,48.9595076],[2.3151141,48.959549],[2.3142268,48.9585795],[2.3139454,48.9586157],[2.3137871,48.9585424],[2.3137539,48.9584815],[2.3138105,48.9582427],[2.3141561,48.9580954],[2.3142169,48.9580052],[2.313105,48.9574711],[2.3143653,48.9560599],[2.3152649,48.9565308],[2.3153552,48.9564638],[2.3157156,48.9567067],[2.3157852,48.9566634],[2.3170041,48.9575458],[2.3169468,48.957574],[2.3177242,48.9581433],[2.317391,48.9583745],[2.3175127,48.9584015],[2.3198387,48.958498],[2.3186623,48.9592061],[2.3178043,48.9596246],[2.3163487,48.9604357],[2.3156481,48.9598785]]]]},"properties":{"code_section":"930310000K","code_commune":"93031","section_courte":"K"}},{"type":"Feature","geometry":{"type":"MultiPolygon","coordinates":[[[[2.3204533,48.9582184],[2.3198387,48.958498],[2.3175127,48.9584015],[2.317391,48.9583745],[2.3177242,48.9581433],[2.3169468,48.957574],[2.3170041,48.9575458],[2.3157852,48.9566634],[2.3157156,48.9567067],[2.3153552,48.9564638],[2.3164839,48.955604],[2.317669,48.9545118],[2.3197822,48.9564634],[2.3208104,48.9570014],[2.3226897,48.9575194],[2.3220342,48.9577331],[2.3210875,48.9579928],[2.3204533,48.9582184]]]]},"properties":{"code_section":"930310000L","code_commune":"93031","section_courte":"L"}},{"type":"Feature","geometry":{"type":"MultiPolygon","coordinates":[[[[2.3122662,48.9535101],[2.3121903,48.9535399],[2.3120385,48.9533572],[2.3121119,48.9533295],[2.3120179,48.9532193],[2.3125241,48.9530466],[2.3131259,48.9529052],[2.3144419,48.9526936],[2.3149071,48.9526719],[2.3158083,48.952717],[2.3158748,48.9529031],[2.3168651,48.953927],[2.317669,48.9545118],[2.3164839,48.955604],[2.3152649,48.9565308],[2.3143653,48.9560599],[2.3148461,48.9555338],[2.3129076,48.9544478],[2.3128325,48.9545057],[2.3128726,48.9543642],[2.3128299,48.9543129],[2.3124264,48.9540806],[2.3125571,48.9539486],[2.3122662,48.9535101]]]]},"properties":{"code_section":"930310000M","code_commune":"93031","section_courte":"M"}},{"type":"Feature","geometry":{"type":"MultiPolygon","coordinates":[[[[2.3096232,48.9549575],[2.3094594,48.9548191],[2.3097643,48.954544],[2.3096398,48.95428],[2.3102919,48.9541944],[2.3106931,48.9540491],[2.3109978,48.9538711],[2.3117142,48.9533371],[2.3120179,48.9532193],[2.3121119,48.9533295],[2.3120385,48.9533572],[2.3121903,48.9535399],[2.3122662,48.9535101],[2.3125571,48.9539486],[2.3124264,48.9540806],[2.3128299,48.9543129],[2.3128726,48.9543642],[2.3128325,48.9545057],[2.3129076,48.9544478],[2.3148461,48.9555338],[2.313105,48.9574711],[2.310964,48.9564308],[2.3113603,48.9560442],[2.3100404,48.9552603],[2.3096232,48.9549575]]]]},"properties":{"code_section":"930310000N","code_commune":"93031","section_courte":"N"}},{"type":"Feature","geometry":{"type":"MultiPolygon","coordinates":[[[[2.308159,48.9560128],[2.3078741,48.9558363],[2.3078031,48.9558815],[2.3079173,48.9559675],[2.3067972,48.9552598],[2.3065523,48.9551879],[2.3062352,48.954477],[2.3077794,48.9541501],[2.3077129,48.9539163],[2.3095685,48.953643],[2.3097339,48.9538893],[2.309884,48.9542465],[2.3096398,48.95428],[2.3097643,48.954544],[2.309462,48.9548256],[2.3099684,48.9552146],[2.3113603,48.9560442],[2.3101,48.957276],[2.3088448,48.9565439],[2.3089217,48.9564836],[2.308159,48.9560128]]]]},"properties":{"code_section":"930310000O","code_commune":"93031","section_courte":"O"}},{"type":"Feature","geometry":{"type":"MultiPolygon","coordinates":[[[[2.3048105,48.9564119],[2.3067972,48.9552598],[2.3079173,48.9559675],[2.3078031,48.9558815],[2.3078741,48.9558363],[2.3089217,48.9564836],[2.3088448,48.9565439],[2.3101,48.957276],[2.3091307,48.9582401],[2.3088287,48.9581672],[2.3074768,48.9580923],[2.3075392,48.957845],[2.3066585,48.9576123],[2.3060996,48.9573975],[2.3054349,48.9570652],[2.3050297,48.9568299],[2.3046339,48.9565086],[2.3048105,48.9564119]]]]},"properties":{"code_section":"930310000P","code_commune":"93031","section_courte":"P"}},{"type":"Feature","geometry":{"type":"MultiPolygon","coordinates":[[[[2.3015577,48.9542793],[2.3018301,48.9541371],[2.3020692,48.9539456],[2.3027102,48.9539719],[2.3030248,48.9543962],[2.3041767,48.9545996],[2.3056061,48.95461],[2.3062352,48.954477],[2.3065523,48.9551879],[2.3067972,48.9552598],[2.3042282,48.9567481],[2.3033198,48.9560915],[2.3028919,48.9558416],[2.30285,48.955873],[2.3017383,48.9557877],[2.301636,48.9558124],[2.3012502,48.9557953],[2.3015577,48.9542793]]]]},"properties":{"code_section":"930310000Q","code_commune":"93031","section_courte":"Q"}},{"type":"Feature","geometry":{"type":"MultiPolygon","coordinates":[[[[2.2993008,48.9593417],[2.2985202,48.9592795],[2.298859,48.9590993],[2.297634,48.9582732],[2.2982152,48.9582295],[2.2987622,48.9582329],[2.298927,48.9572058],[2.2997814,48.9568283],[2.2996296,48.9557507],[2.301636,48.9558124],[2.3017383,48.9557877],[2.30285,48.955873],[2.3028919,48.9558416],[2.3033198,48.9560915],[2.3042282,48.9567481],[2.2996542,48.9593898],[2.2993008,48.9593417]]]]},"properties":{"code_section":"930310000R","code_commune":"93031","section_courte":"R"}},{"type":"Feature","geometry":{"type":"MultiPolygon","coordinates":[[[[2.2996542,48.9593898],[2.296656,48.9610818],[2.2950935,48.961702],[2.2936293,48.9610061],[2.2936885,48.9609424],[2.294443,48.9608061],[2.2941182,48.9602671],[2.2941671,48.9589897],[2.2954901,48.9590588],[2.2955095,48.9582435],[2.296235,48.9582778],[2.297634,48.9582732],[2.298859,48.9590993],[2.2985202,48.9592795],[2.2996542,48.9593898]]]]},"properties":{"code_section":"930310000S","code_commune":"93031","section_courte":"S"}},{"type":"Feature","geometry":{"type":"MultiPolygon","coordinates":[[[[2.2939181,48.9609001],[2.2936885,48.9609424],[2.2936293,48.9610061],[2.2932945,48.9611819],[2.2923409,48.9614893],[2.2920169,48.9607516],[2.2919446,48.9607668],[2.2918888,48.9606331],[2.2921428,48.9605733],[2.2919787,48.9603174],[2.2921975,48.9602516],[2.2914603,48.9597685],[2.2913324,48.9595919],[2.2913345,48.9578353],[2.2928254,48.9579782],[2.2938572,48.958114],[2.2950273,48.9582243],[2.2955095,48.9582435],[2.2954901,48.9590588],[2.2941671,48.9589897],[2.2941182,48.9602671],[2.294443,48.9608061],[2.2940839,48.9608891],[2.2939181,48.9609001]]]]},"properties":{"code_section":"930310000T","code_commune":"93031","section_courte":"T"}},{"type":"Feature","geometry":{"type":"MultiPolygon","coordinates":[[[[2.2920396,48.9608037],[2.2923409,48.9614893],[2.2912712,48.9618418],[2.2906974,48.961982],[2.2903076,48.9617747],[2.288293,48.9583994],[2.2887606,48.9575819],[2.2913345,48.9578353],[2.2913324,48.9595919],[2.2914603,48.9597685],[2.2921975,48.9602516],[2.2919787,48.9603174],[2.2921428,48.9605733],[2.2918888,48.9606331],[2.2919446,48.9607668],[2.2920169,48.9607516],[2.2920396,48.9608037]]]]},"properties":{"code_section":"930310000U","code_commune":"93031","section_courte":"U"}},{"type":"Feature","geometry":{"type":"MultiPolygon","coordinates":[[[[2.2921913,48.9552365],[2.2938853,48.9552551],[2.293908,48.9558439],[2.2938402,48.9571656],[2.293926,48.9575028],[2.2938572,48.958114],[2.2928254,48.9579782],[2.2887606,48.9575819],[2.2900482,48.9553028],[2.2910475,48.9554231],[2.2919514,48.9552524],[2.2921913,48.9552365]]]]},"properties":{"code_section":"930310000V","code_commune":"93031","section_courte":"V"}},{"type":"Feature","geometry":{"type":"MultiPolygon","coordinates":[[[[2.2949129,48.9552757],[2.2965206,48.9556182],[2.2977639,48.95571],[2.2996296,48.9557507],[2.2997814,48.9568283],[2.298927,48.9572058],[2.2987622,48.9582329],[2.2982152,48.9582295],[2.297634,48.9582732],[2.296235,48.9582778],[2.2950273,48.9582243],[2.2938572,48.958114],[2.293926,48.9575028],[2.2938402,48.9571656],[2.293908,48.9558439],[2.2938853,48.9552551],[2.2949129,48.9552757]]]]},"properties":{"code_section":"930310000X","code_commune":"93031","section_courte":"X"}},{"type":"Feature","geometry":{"type":"MultiPolygon","coordinates":[[[[2.2904714,48.9545468],[2.2912056,48.9532489],[2.2934132,48.9534971],[2.2948953,48.9537769],[2.2964902,48.9539848],[2.2964734,48.9544232],[2.2961557,48.9544188],[2.296099,48.954998],[2.2959906,48.9555057],[2.2949129,48.9552757],[2.2921913,48.9552365],[2.2919514,48.9552524],[2.2910475,48.9554231],[2.2900482,48.9553028],[2.2904714,48.9545468]]]]},"properties":{"code_section":"930310000Y","code_commune":"93031","section_courte":"Y"}},{"type":"Feature","geometry":{"type":"MultiPolygon","coordinates":[[[[2.2961046,48.9549472],[2.2961557,48.9544188],[2.2964734,48.9544232],[2.2964902,48.9539848],[2.2987816,48.9542062],[2.3007335,48.9541409],[2.3014075,48.9542178],[2.3015577,48.9542793],[2.3012502,48.9557953],[2.2977639,48.95571],[2.2965206,48.9556182],[2.2959906,48.9555057],[2.2961046,48.9549472]]]]},"properties":{"code_section":"930310000Z","code_commune":"93031","section_courte":"Z"}},{"type":"Feature","geometry":{"type":"MultiPolygon","coordinates":[[[[2.2968474,48.9534226],[2.2966439,48.9540009],[2.2948953,48.9537769],[2.2934132,48.9534971],[2.2912056,48.9532489],[2.292226,48.9514345],[2.2932921,48.9516349],[2.2972095,48.9518811],[2.2970626,48.9527336],[2.2970165,48.952745],[2.2969664,48.9530757],[2.2968474,48.9534226]]]]},"properties":{"code_section":"93031000AB","code_commune":"93031","section_courte":"AB"}},{"type":"Feature","geometry":{"type":"MultiPolygon","coordinates":[[[[2.2969659,48.9530694],[2.2970165,48.952745],[2.2970626,48.9527336],[2.2972095,48.9518811],[2.2992632,48.9519741],[2.3006976,48.9519916],[2.3021217,48.951947],[2.3022367,48.9524531],[2.302526,48.9524273],[2.3026728,48.9536678],[2.3026215,48.9538799],[2.3027102,48.9539719],[2.3020692,48.9539456],[2.3018301,48.9541371],[2.3015577,48.9542793],[2.3014075,48.9542178],[2.3007335,48.9541409],[2.2987816,48.9542062],[2.2966439,48.9540009],[2.2969659,48.9530694]]]]},"properties":{"code_section":"93031000AC","code_commune":"93031","section_courte":"AC"}},{"type":"Feature","geometry":{"type":"MultiPolygon","coordinates":[[[[2.3055524,48.9521306],[2.3056741,48.9526239],[2.3055887,48.952628],[2.3062352,48.954477],[2.3056061,48.95461],[2.3041767,48.9545996],[2.3030248,48.9543962],[2.3026215,48.9538799],[2.3026728,48.9536678],[2.302526,48.9524273],[2.3022367,48.9524531],[2.3021217,48.951947],[2.3053969,48.9514901],[2.3055524,48.9521306]]]]},"properties":{"code_section":"93031000AD","code_commune":"93031","section_courte":"AD"}},{"type":"Feature","geometry":{"type":"MultiPolygon","coordinates":[[[[2.3087904,48.9516706],[2.3091657,48.9519183],[2.3092194,48.9520154],[2.3091604,48.9523249],[2.3093239,48.9531665],[2.3095685,48.953643],[2.3077129,48.9539163],[2.3077794,48.9541501],[2.3062352,48.954477],[2.3055887,48.952628],[2.3056741,48.9526239],[2.3053969,48.9514901],[2.3086331,48.9510295],[2.3087904,48.9516706]]]]},"properties":{"code_section":"93031000AE","code_commune":"93031","section_courte":"AE"}},{"type":"Feature","geometry":{"type":"MultiPolygon","coordinates":[[[[2.309849,48.9541561],[2.3093239,48.9531665],[2.3091604,48.9523249],[2.3092194,48.9520154],[2.3091657,48.9519183],[2.3087904,48.9516706],[2.3086331,48.9510295],[2.31173,48.9505844],[2.3122311,48.9521132],[2.3120466,48.952176],[2.3125241,48.9530466],[2.3117142,48.9533371],[2.3109978,48.9538711],[2.3106931,48.9540491],[2.3102919,48.9541944],[2.309884,48.9542465],[2.309849,48.9541561]]]]},"properties":{"code_section":"93031000AF","code_commune":"93031","section_courte":"AF"}},{"type":"Feature","geometry":{"type":"MultiPolygon","coordinates":[[[[2.3152059,48.9505658],[2.315408,48.9511253],[2.3157566,48.95176],[2.3159415,48.9523186],[2.31598,48.9523178],[2.3161617,48.9527674],[2.3158748,48.9529031],[2.3158083,48.952717],[2.3149071,48.9526719],[2.3144419,48.9526936],[2.3131259,48.9529052],[2.3125241,48.9530466],[2.3120466,48.952176],[2.3122311,48.9521132],[2.31173,48.9505844],[2.312348,48.9504952],[2.3150116,48.9499962],[2.3152059,48.9505658]]]]},"properties":{"code_section":"93031000AG","code_commune":"93031","section_courte":"AG"}},{"type":"Feature","geometry":{"type":"MultiPolygon","coordinates":[[[[2.3193913,48.9513422],[2.3196696,48.9512798],[2.3197524,48.9514215],[2.319818,48.9513925],[2.320033,48.951747],[2.3192145,48.951941],[2.3161617,48.9527674],[2.31598,48.9523178],[2.3159415,48.9523186],[2.3157566,48.95176],[2.315408,48.9511253],[2.3150116,48.9499962],[2.3186438,48.9492659],[2.3190668,48.9497417],[2.3193533,48.9504074],[2.3192143,48.9504298],[2.3196287,48.9512121],[2.3193326,48.951279],[2.3193913,48.9513422]]]]},"properties":{"code_section":"93031000AH","code_commune":"93031","section_courte":"AH"}},{"type":"Feature","geometry":{"type":"MultiPolygon","coordinates":[[[[2.3222234,48.9492641],[2.3225741,48.9498903],[2.3226875,48.9498626],[2.3232709,48.95107],[2.320033,48.951747],[2.319818,48.9513925],[2.3197524,48.9514215],[2.3196696,48.9512798],[2.3193701,48.951347],[2.3193326,48.951279],[2.3196287,48.9512121],[2.3192143,48.9504298],[2.3193533,48.9504074],[2.3190668,48.9497417],[2.3186438,48.9492659],[2.3218161,48.9486374],[2.3222234,48.9492641]]]]},"properties":{"code_section":"93031000AI","code_commune":"93031","section_courte":"AI"}},{"type":"Feature","geometry":{"type":"MultiPolygon","coordinates":[[[[2.3254357,48.9483863],[2.3256183,48.9486487],[2.3255817,48.9487026],[2.3257515,48.9489287],[2.3253657,48.9490406],[2.3254672,48.9491815],[2.3256217,48.9491362],[2.325713,48.9491655],[2.3258093,48.9493516],[2.3260143,48.9492909],[2.326549,48.9504026],[2.3232709,48.95107],[2.3226875,48.9498626],[2.3225741,48.9498903],[2.3224565,48.949713],[2.3224931,48.949703],[2.3218161,48.9486374],[2.3226304,48.9484591],[2.324801,48.9479097],[2.3254357,48.9483863]]]]},"properties":{"code_section":"93031000AJ","code_commune":"93031","section_courte":"AJ"}},{"type":"Feature","geometry":{"type":"MultiPolygon","coordinates":[[[[2.3293834,48.9473126],[2.3305667,48.9495706],[2.326549,48.9504026],[2.3260143,48.9492909],[2.3258093,48.9493516],[2.325713,48.9491655],[2.3256217,48.9491362],[2.3254672,48.9491815],[2.3253657,48.9490406],[2.3257515,48.9489287],[2.3255817,48.9487026],[2.3256183,48.9486487],[2.3254357,48.9483863],[2.324801,48.9479097],[2.3290827,48.9467553],[2.3293834,48.9473126]]]]},"properties":{"code_section":"93031000AK","code_commune":"93031","section_courte":"AK"}},{"type":"Feature","geometry":{"type":"MultiPolygon","coordinates":[[[[2.3321286,48.946561],[2.3331475,48.9472123],[2.3325312,48.9475907],[2.3332044,48.9490365],[2.3305667,48.9495706],[2.3290827,48.9467553],[2.3314399,48.9461196],[2.3321286,48.946561]]]]},"properties":{"code_section":"93031000AL","code_commune":"93031","section_courte":"AL"}},{"type":"Feature","geometry":{"type":"MultiPolygon","coordinates":[[[[2.3367509,48.9449694],[2.3354463,48.9458192],[2.3331475,48.9472123],[2.3314399,48.9461196],[2.3336512,48.9454831],[2.3352157,48.9448177],[2.3361865,48.9442837],[2.3367509,48.9449694]]]]},"properties":{"code_section":"93031000AM","code_commune":"93031","section_courte":"AM"}},{"type":"Feature","geometry":{"type":"MultiPolygon","coordinates":[[[[2.3392933,48.9433122],[2.3396202,48.9435522],[2.3406349,48.9440225],[2.3405357,48.9440901],[2.3408081,48.9442576],[2.3392133,48.945369],[2.3385518,48.9447323],[2.3379165,48.9449691],[2.3375044,48.94472],[2.3369877,48.9449214],[2.3370046,48.9449397],[2.3368814,48.9449909],[2.3367509,48.9449694],[2.3361865,48.9442837],[2.3372934,48.9436113],[2.3378863,48.9431204],[2.3383669,48.9426318],[2.3392933,48.9433122]]]]},"properties":{"code_section":"93031000AN","code_commune":"93031","section_courte":"AN"}},{"type":"Feature","geometry":{"type":"MultiPolygon","coordinates":[[[[2.3370049,48.9468292],[2.3358823,48.94793],[2.3353013,48.9486169],[2.3332044,48.9490365],[2.3325312,48.9475907],[2.3354463,48.9458192],[2.3367509,48.9449694],[2.3377624,48.9459656],[2.3376068,48.94612],[2.337657,48.9462006],[2.3370049,48.9468292]]]]},"properties":{"code_section":"93031000AO","code_commune":"93031","section_courte":"AO"}},{"type":"Feature","geometry":{"type":"MultiPolygon","coordinates":[[[[2.3307484,48.9513664],[2.3312224,48.9507356],[2.3306973,48.9495563],[2.3353013,48.9486169],[2.3330472,48.9516542],[2.3329945,48.9518036],[2.3330126,48.9520963],[2.3331794,48.9524623],[2.3330992,48.9525306],[2.3322873,48.9521536],[2.3319676,48.9522419],[2.3317615,48.9522042],[2.3307035,48.9514301],[2.3307484,48.9513664]]]]},"properties":{"code_section":"93031000AP","code_commune":"93031","section_courte":"AP"}},{"type":"Feature","geometry":{"type":"MultiPolygon","coordinates":[[[[2.3274547,48.9526585],[2.325637,48.9526294],[2.3253287,48.9519543],[2.3257832,48.951936],[2.3251844,48.9506869],[2.3306973,48.9495563],[2.3312224,48.9507356],[2.3307035,48.9514301],[2.3312178,48.9517993],[2.3309973,48.95195],[2.3289098,48.9526744],[2.3274547,48.9526585]]]]},"properties":{"code_section":"93031000AQ","code_commune":"93031","section_courte":"AQ"}},{"type":"Feature","geometry":{"type":"MultiPolygon","coordinates":[[[[2.3255382,48.9524145],[2.3262131,48.9539003],[2.3254951,48.9537381],[2.3245931,48.9535951],[2.3242598,48.9534674],[2.3239458,48.9534651],[2.3239451,48.9535317],[2.3235398,48.9534666],[2.3234841,48.9534072],[2.322662,48.9531596],[2.3225435,48.9531516],[2.321768,48.9513831],[2.3251844,48.9506869],[2.3257832,48.951936],[2.3253287,48.9519543],[2.3255382,48.9524145]]]]},"properties":{"code_section":"93031000AR","code_commune":"93031","section_courte":"AR"}},{"type":"Feature","geometry":{"type":"MultiPolygon","coordinates":[[[[2.3218144,48.9531676],[2.3206268,48.9532341],[2.3199488,48.9533623],[2.3189364,48.9536751],[2.3185085,48.9538942],[2.3176485,48.9544861],[2.3168651,48.953927],[2.3158748,48.9529031],[2.3161617,48.9527674],[2.3192145,48.951941],[2.321768,48.9513831],[2.3225435,48.9531516],[2.3220714,48.9531173],[2.3218144,48.9531676]]]]},"properties":{"code_section":"93031000AS","code_commune":"93031","section_courte":"AS"}},{"type":"Feature","geometry":{"type":"MultiPolygon","coordinates":[[[[2.3209951,48.9561233],[2.3207117,48.9561798],[2.3207211,48.9562019],[2.3197822,48.9564634],[2.3176485,48.9544861],[2.3185085,48.9538942],[2.3189183,48.9536825],[2.3201517,48.9533204],[2.3206562,48.9532307],[2.3218144,48.9531676],[2.3220714,48.9531173],[2.322662,48.9531596],[2.3234841,48.9534072],[2.3235398,48.9534666],[2.3235793,48.9553729],[2.3231341,48.9553919],[2.3231331,48.9553736],[2.3209343,48.9555251],[2.3211316,48.9560967],[2.3209951,48.9561233]]]]},"properties":{"code_section":"93031000AT","code_commune":"93031","section_courte":"AT"}},{"type":"Feature","geometry":{"type":"MultiPolygon","coordinates":[[[[2.3211314,48.9555082],[2.3231331,48.9553736],[2.3231341,48.9553919],[2.3252233,48.9553009],[2.3253797,48.9575687],[2.3255432,48.9583165],[2.3208104,48.9570014],[2.3197822,48.9564634],[2.3207211,48.9562019],[2.3207117,48.9561798],[2.3211316,48.9560967],[2.3209343,48.9555251],[2.3211314,48.9555082]]]]},"properties":{"code_section":"93031000AU","code_commune":"93031","section_courte":"AU"}},{"type":"Feature","geometry":{"type":"MultiPolygon","coordinates":[[[[2.3239445,48.9535022],[2.3239458,48.9534651],[2.3242598,48.9534674],[2.3245931,48.9535951],[2.3254951,48.9537381],[2.3262131,48.9539003],[2.325637,48.9526294],[2.3288078,48.9526745],[2.3293416,48.9538389],[2.3284151,48.9538308],[2.3280105,48.9543767],[2.3281726,48.9544308],[2.328567,48.9550626],[2.3280056,48.9550611],[2.3266914,48.9551181],[2.326804,48.9548175],[2.3253134,48.9548571],[2.3252396,48.9548624],[2.3252233,48.9553009],[2.3235793,48.9553729],[2.3235398,48.9534666],[2.3239451,48.9535317],[2.3239445,48.9535022]]]]},"properties":{"code_section":"93031000AV","code_commune":"93031","section_courte":"AV"}},{"type":"Feature","geometry":{"type":"MultiPolygon","coordinates":[[[[2.3288577,48.9527833],[2.3288078,48.9526745],[2.3289098,48.9526744],[2.3309532,48.9519662],[2.3312178,48.9517993],[2.331747,48.9521959],[2.331844,48.9522373],[2.3320882,48.9522243],[2.3322873,48.9521536],[2.3330992,48.9525306],[2.3317173,48.9537612],[2.3308726,48.9544598],[2.3294365,48.9560057],[2.32842,48.9554907],[2.3286006,48.9551149],[2.3281726,48.9544308],[2.3280105,48.9543767],[2.3284151,48.9538308],[2.3293416,48.9538389],[2.3288577,48.9527833]]]]},"properties":{"code_section":"93031000AX","code_commune":"93031","section_courte":"AX"}},{"type":"Feature","geometry":{"type":"MultiPolygon","coordinates":[[[[2.3294365,48.9560057],[2.3282364,48.9572717],[2.3277714,48.9576819],[2.3269283,48.9581184],[2.325925,48.9584327],[2.3258142,48.9584353],[2.3255432,48.9583165],[2.3253797,48.9575687],[2.3252233,48.9553009],[2.3252396,48.9548624],[2.326804,48.9548175],[2.3266914,48.9551181],[2.3280056,48.9550611],[2.328567,48.9550626],[2.3286006,48.9551149],[2.32842,48.9554907],[2.3294365,48.9560057]]]]},"properties":{"code_section":"93031000AY","code_commune":"93031","section_courte":"AY"}},{"type":"Feature","geometry":{"type":"MultiPolygon","coordinates":[[[[2.3295796,48.9559579],[2.3301792,48.9561586],[2.3300367,48.9563291],[2.3312835,48.9569952],[2.3303916,48.9577082],[2.3278855,48.9595029],[2.3259387,48.9585231],[2.325925,48.9584327],[2.3269283,48.9581184],[2.3277714,48.9576819],[2.3282364,48.9572717],[2.3295053,48.9559385],[2.3295796,48.9559579]]]]},"properties":{"code_section":"93031000AZ","code_commune":"93031","section_courte":"AZ"}},{"type":"Feature","geometry":{"type":"MultiPolygon","coordinates":[[[[2.3301792,48.9561586],[2.3295053,48.9559385],[2.3308726,48.9544598],[2.3317173,48.9537612],[2.3331794,48.9524623],[2.3334646,48.9527884],[2.3339349,48.9531822],[2.3350532,48.9540097],[2.3351334,48.9541406],[2.3335766,48.9551601],[2.3312835,48.9569952],[2.3300367,48.9563291],[2.3301792,48.9561586]]]]},"properties":{"code_section":"93031000BC","code_commune":"93031","section_courte":"BC"}},{"type":"Feature","geometry":{"type":"MultiPolygon","coordinates":[[[[2.3347741,48.9499244],[2.3347238,48.9500157],[2.3351382,48.9501538],[2.3351505,48.9501303],[2.3359497,48.9506196],[2.3379881,48.9522386],[2.3373398,48.9526987],[2.3351334,48.9541406],[2.3350532,48.9540097],[2.3339349,48.9531822],[2.3334646,48.9527884],[2.3331794,48.9524623],[2.3330126,48.9520963],[2.3329945,48.9518036],[2.3330472,48.9516542],[2.3344199,48.9498093],[2.3347741,48.9499244]]]]},"properties":{"code_section":"93031000BD","code_commune":"93031","section_courte":"BD"}},{"type":"Feature","geometry":{"type":"MultiPolygon","coordinates":[[[[2.3347238,48.9500157],[2.3347741,48.9499244],[2.3344199,48.9498093],[2.3353013,48.9486169],[2.337129,48.9482428],[2.338203,48.9495357],[2.3398398,48.9509016],[2.3379881,48.9522386],[2.3359497,48.9506196],[2.3351505,48.9501303],[2.3351382,48.9501538],[2.3347238,48.9500157]]]]},"properties":{"code_section":"93031000BE","code_commune":"93031","section_courte":"BE"}},{"type":"Feature","geometry":{"type":"MultiPolygon","coordinates":[[[[2.3395181,48.9477325],[2.3390146,48.9478453],[2.3389927,48.948128],[2.3398615,48.948248],[2.3409752,48.9485397],[2.3418661,48.948896],[2.3422658,48.9491464],[2.3398398,48.9509016],[2.338203,48.9495357],[2.337129,48.9482428],[2.3353013,48.9486169],[2.3358823,48.94793],[2.337657,48.9462006],[2.3379567,48.9466802],[2.3395181,48.9477325]]]]},"properties":{"code_section":"93031000BF","code_commune":"93031","section_courte":"BF"}},{"type":"Feature","geometry":{"type":"MultiPolygon","coordinates":[[[[2.3460481,48.9463972],[2.3422658,48.9491464],[2.3418661,48.948896],[2.3409752,48.9485397],[2.3398615,48.948248],[2.3389927,48.948128],[2.3390146,48.9478453],[2.3395181,48.9477325],[2.3393832,48.9476321],[2.3445843,48.9465671],[2.344194,48.9463052],[2.3441972,48.9462248],[2.3447221,48.9458707],[2.3460481,48.9463972]]]]},"properties":{"code_section":"93031000BG","code_commune":"93031","section_courte":"BG"}}]}