{"type":"FeatureCollection","features":[{"type":"Feature","geometry":{"type":"MultiPolygon","coordinates":[[[[2.5213486,48.9121187],[2.5220294,48.9123839],[2.5307604,48.9161231],[2.5223525,48.9245434],[2.5217605,48.9239492],[2.5191007,48.9251076],[2.5187189,48.9251495],[2.5186934,48.925056],[2.5176287,48.9251527],[2.5175722,48.9246838],[2.5165424,48.9239972],[2.5163458,48.9237911],[2.5159735,48.9232378],[2.5156033,48.9228816],[2.5149356,48.9232457],[2.5135471,48.9216423],[2.5137346,48.9215632],[2.5121789,48.919347],[2.5071529,48.9187476],[2.5057082,48.9174465],[2.5087133,48.9162137],[2.5085005,48.914726],[2.5086451,48.9146947],[2.5087439,48.9146049],[2.5087004,48.9145949],[2.5086879,48.9145123],[2.5086178,48.9144503],[2.5084025,48.914416],[2.5097239,48.911267],[2.510115,48.9102318],[2.519471,48.9116223],[2.5205849,48.9118574],[2.5208946,48.9119414],[2.5213486,48.9121187]]]]},"properties":{"code_section":"930460000A","code_commune":"93046","section_courte":"A"}},{"type":"Feature","geometry":{"type":"MultiPolygon","coordinates":[[[[2.540691,48.9297947],[2.5401365,48.9293544],[2.5398756,48.929081],[2.5396153,48.9284594],[2.5391119,48.9274672],[2.5366626,48.9258513],[2.5346138,48.9272592],[2.5340456,48.9265912],[2.5332275,48.9269294],[2.5318346,48.9273125],[2.5316234,48.9263914],[2.5314419,48.926205],[2.5309407,48.9261845],[2.529693,48.9263009],[2.5293502,48.9260402],[2.5291199,48.9261352],[2.5288041,48.9261687],[2.5280755,48.9261486],[2.5276946,48.9262387],[2.5276939,48.9263109],[2.5276289,48.9263205],[2.5273077,48.9265342],[2.5267321,48.9267706],[2.5263659,48.9272001],[2.5263853,48.927245],[2.5262469,48.9272742],[2.5262814,48.927346],[2.5262177,48.9273617],[2.5259334,48.9276536],[2.5256891,48.9277947],[2.5253632,48.9278584],[2.5252147,48.9275398],[2.5248689,48.9276124],[2.5244086,48.9266115],[2.5244634,48.9265999],[2.5241905,48.926033],[2.5235023,48.9257335],[2.5241704,48.9250171],[2.5223525,48.9245434],[2.5307604,48.9161231],[2.5372961,48.9189752],[2.5394007,48.9201252],[2.5419789,48.9216026],[2.544609,48.9229141],[2.5451407,48.9263251],[2.5414685,48.9291231],[2.540691,48.9297947]]]]},"properties":{"code_section":"930460000B","code_commune":"93046","section_courte":"B"}},{"type":"Feature","geometry":{"type":"MultiPolygon","coordinates":[[[[2.5604349,48.933138],[2.559869,48.9337769],[2.5586059,48.9336047],[2.5574961,48.93367],[2.5574038,48.9342064],[2.5569221,48.9341855],[2.5562496,48.9339451],[2.5490545,48.9353325],[2.546016,48.9340969],[2.5456011,48.9343102],[2.5437775,48.9346401],[2.5437501,48.9344143],[2.5436777,48.9342648],[2.543583,48.9341707],[2.5435459,48.934042],[2.5435592,48.9337212],[2.543441,48.9335201],[2.5432029,48.9334141],[2.5420554,48.9330473],[2.5419106,48.9329106],[2.5417134,48.9323648],[2.5412458,48.931998],[2.5411994,48.9320224],[2.540861,48.9316871],[2.5411879,48.9315254],[2.5416328,48.9314399],[2.541603,48.9314083],[2.5420232,48.9312319],[2.5417119,48.9310847],[2.5408433,48.9305066],[2.5408889,48.930392],[2.5411196,48.9301863],[2.5407813,48.9297133],[2.5414685,48.9291231],[2.5451407,48.9263251],[2.5453064,48.9263434],[2.5592279,48.9324365],[2.5606144,48.9329429],[2.5604349,48.933138]]]]},"properties":{"code_section":"930460000C","code_commune":"93046","section_courte":"C"}},{"type":"Feature","geometry":{"type":"MultiPolygon","coordinates":[[[[2.5569841,48.9194049],[2.5584724,48.9202944],[2.5588531,48.9209111],[2.5592352,48.9213748],[2.5600303,48.9236514],[2.560955,48.9247575],[2.5612155,48.924888],[2.5618512,48.9250327],[2.5619575,48.9255503],[2.5617738,48.925983],[2.5619913,48.9262662],[2.5629909,48.9266066],[2.5638247,48.9273348],[2.5641906,48.9277473],[2.5645444,48.928002],[2.5642888,48.9298121],[2.5637453,48.930923],[2.5632015,48.9317729],[2.5615764,48.932867],[2.5615588,48.9331257],[2.5607121,48.9329292],[2.5606144,48.9329429],[2.5592279,48.9324365],[2.5453064,48.9263434],[2.5477291,48.9249995],[2.5479629,48.9247313],[2.5478593,48.9246638],[2.5480301,48.9245251],[2.5485575,48.9245438],[2.5493218,48.92484],[2.5495639,48.9248529],[2.5497479,48.9247868],[2.5508891,48.9239093],[2.5510891,48.9237058],[2.5503642,48.9231243],[2.5498963,48.9225738],[2.5499562,48.9225041],[2.5506797,48.922146],[2.5511753,48.9219936],[2.5522567,48.9217319],[2.552698,48.9215873],[2.5527282,48.9216152],[2.553481,48.9211886],[2.5539732,48.9207206],[2.5569266,48.9193224],[2.5569841,48.9194049]]]]},"properties":{"code_section":"930460000D","code_commune":"93046","section_courte":"D"}},{"type":"Feature","geometry":{"type":"MultiPolygon","coordinates":[[[[2.5445959,48.9181457],[2.5452138,48.9174493],[2.5462843,48.9167735],[2.5464354,48.9167155],[2.5473538,48.9165456],[2.5475281,48.9164458],[2.5476779,48.9163077],[2.5506038,48.9161735],[2.5515724,48.9154953],[2.5529147,48.9149679],[2.5552237,48.9168391],[2.5569386,48.9193193],[2.5539732,48.9207206],[2.553481,48.9211886],[2.5528078,48.9215797],[2.5527282,48.9216152],[2.552698,48.9215873],[2.5522567,48.9217319],[2.5511753,48.9219936],[2.5506797,48.922146],[2.5499562,48.9225041],[2.5498963,48.9225738],[2.5503642,48.9231243],[2.5510891,48.9237058],[2.5508891,48.9239093],[2.5497479,48.9247868],[2.5495639,48.9248529],[2.5493218,48.92484],[2.5485575,48.9245438],[2.5480301,48.9245251],[2.5478593,48.9246638],[2.5479629,48.9247313],[2.5477291,48.9249995],[2.5453064,48.9263434],[2.5451407,48.9263251],[2.544609,48.9229141],[2.5419789,48.9216026],[2.5374943,48.9190725],[2.5315978,48.9164861],[2.537979,48.9132284],[2.5382066,48.9131371],[2.5385576,48.9130541],[2.5399058,48.912787],[2.5410249,48.9155029],[2.5411444,48.9156395],[2.5416209,48.9161834],[2.5423214,48.9168079],[2.5433378,48.9175176],[2.5439607,48.9177857],[2.5445959,48.9181457]]]]},"properties":{"code_section":"930460000E","code_commune":"93046","section_courte":"E"}},{"type":"Feature","geometry":{"type":"MultiPolygon","coordinates":[[[[2.5397719,48.9121685],[2.5397619,48.9122958],[2.5399058,48.912787],[2.5385576,48.9130541],[2.5382066,48.9131371],[2.537979,48.9132284],[2.5315978,48.9164861],[2.5220294,48.9123839],[2.5213486,48.9121187],[2.5176371,48.9084348],[2.5175161,48.9080659],[2.5176099,48.9080559],[2.5177537,48.9076318],[2.5177572,48.9075021],[2.5177097,48.9074013],[2.5159613,48.9061677],[2.5151386,48.9057399],[2.5143261,48.9049002],[2.5142128,48.9048854],[2.5141197,48.904792],[2.5141316,48.9047671],[2.5115751,48.9021474],[2.5114795,48.9020704],[2.5113798,48.9020982],[2.5110506,48.9017982],[2.5119013,48.9014816],[2.512136,48.9017408],[2.5125581,48.901894],[2.5125966,48.9019158],[2.5125482,48.901946],[2.5126327,48.9019988],[2.512705,48.9019531],[2.5130268,48.902154],[2.5130784,48.9021201],[2.5138997,48.9024175],[2.514617,48.9023977],[2.5159041,48.902918],[2.5159061,48.9029497],[2.5161197,48.9029936],[2.516138,48.902957],[2.5164229,48.9028577],[2.518184,48.9030449],[2.5190048,48.903241],[2.5206756,48.9033236],[2.520835,48.9034939],[2.5209558,48.9034469],[2.520961,48.9033991],[2.5212029,48.9033148],[2.5212536,48.9033341],[2.5221875,48.90436],[2.5225591,48.9044639],[2.5235986,48.904955],[2.524043,48.9050533],[2.5247647,48.9053042],[2.5248456,48.9054025],[2.525237,48.9052495],[2.5270282,48.9069953],[2.5273128,48.9071201],[2.528843,48.907543],[2.5294354,48.907584],[2.5300459,48.9075496],[2.5328618,48.9082024],[2.5344877,48.9085291],[2.5362933,48.9086383],[2.5376584,48.9091552],[2.5383543,48.9094539],[2.5385657,48.9116568],[2.5396697,48.9117305],[2.5397495,48.9117895],[2.5398176,48.9119252],[2.5397719,48.9121685]]]]},"properties":{"code_section":"930460000F","code_commune":"93046","section_courte":"F"}}]}