{"type":"FeatureCollection","features":[{"type":"Feature","geometry":{"type":"MultiPolygon","coordinates":[[[[2.45133,48.8772438],[2.4522228,48.8769908],[2.4517578,48.8761798],[2.4509275,48.8751978],[2.451064,48.875142],[2.452256,48.8744156],[2.4525549,48.8745464],[2.4536281,48.8753685],[2.454055,48.8759179],[2.455475,48.8773012],[2.455575,48.8778124],[2.4555034,48.8778178],[2.4555876,48.8782691],[2.4517744,48.8785214],[2.45133,48.8772438]]]]},"properties":{"code_section":"930480000A","code_commune":"93048","section_courte":"A"}},{"type":"Feature","geometry":{"type":"MultiPolygon","coordinates":[[[[2.4599873,48.8783832],[2.4593013,48.8784783],[2.4591482,48.8787742],[2.4553373,48.8784017],[2.4549543,48.8783088],[2.4555876,48.8782691],[2.4555034,48.8778178],[2.455575,48.8778124],[2.455475,48.8773012],[2.4547422,48.876578],[2.4562825,48.8762717],[2.4590659,48.8756598],[2.4600738,48.8776524],[2.4603849,48.8776029],[2.4608228,48.8782697],[2.4611357,48.8782576],[2.461264,48.878322],[2.4612229,48.8783582],[2.4600089,48.8784447],[2.4599873,48.8783832]]]]},"properties":{"code_section":"930480000B","code_commune":"93048","section_courte":"B"}},{"type":"Feature","geometry":{"type":"MultiPolygon","coordinates":[[[[2.4636188,48.8783675],[2.4630795,48.8784799],[2.4628706,48.8781806],[2.4613162,48.878356],[2.4611357,48.8782576],[2.4608228,48.8782697],[2.4603849,48.8776029],[2.4600738,48.8776524],[2.4590659,48.8756598],[2.4614627,48.8750129],[2.462871,48.8772165],[2.4641607,48.8770113],[2.4644358,48.8774504],[2.464592,48.8774569],[2.4646777,48.8775075],[2.4648932,48.8780142],[2.4636188,48.8783675]]]]},"properties":{"code_section":"930480000C","code_commune":"93048","section_courte":"C"}},{"type":"Feature","geometry":{"type":"MultiPolygon","coordinates":[[[[2.4605503,48.8734855],[2.4622069,48.8729526],[2.4623896,48.8731],[2.4640153,48.8751679],[2.4651112,48.8768613],[2.462871,48.8772165],[2.4612813,48.8747496],[2.4605503,48.8734855]]]]},"properties":{"code_section":"930480000D","code_commune":"93048","section_courte":"D"}},{"type":"Feature","geometry":{"type":"MultiPolygon","coordinates":[[[[2.4660244,48.8738385],[2.4671638,48.8749214],[2.4672662,48.8748659],[2.4682157,48.8757894],[2.4674082,48.8763292],[2.4682374,48.8770977],[2.4683353,48.8772304],[2.4653775,48.8779459],[2.4649213,48.8780833],[2.4646777,48.8775075],[2.464592,48.8774569],[2.4644358,48.8774504],[2.4641607,48.8770113],[2.4651112,48.8768613],[2.4640153,48.8751679],[2.4637075,48.8747654],[2.4658323,48.8736608],[2.4660244,48.8738385]]]]},"properties":{"code_section":"930480000E","code_commune":"93048","section_courte":"E"}},{"type":"Feature","geometry":{"type":"MultiPolygon","coordinates":[[[[2.4666556,48.8732096],[2.4667574,48.8731198],[2.4671594,48.8729167],[2.4674129,48.8728574],[2.4686911,48.8722113],[2.4684252,48.8719819],[2.4684535,48.8719664],[2.4706332,48.8722616],[2.4702965,48.8740223],[2.4701405,48.874405],[2.4698277,48.8747166],[2.4682157,48.8757894],[2.4672662,48.8748659],[2.4671638,48.8749214],[2.4658323,48.8736608],[2.4665824,48.8732786],[2.4666556,48.8732096]]]]},"properties":{"code_section":"930480000F","code_commune":"93048","section_courte":"F"}},{"type":"Feature","geometry":{"type":"MultiPolygon","coordinates":[[[[2.4678618,48.8716299],[2.4682846,48.8718671],[2.4686911,48.8722113],[2.4674129,48.8728574],[2.4671594,48.8729167],[2.4667574,48.8731198],[2.4665824,48.8732786],[2.4660424,48.8735512],[2.4654692,48.8726285],[2.4653106,48.8721526],[2.4652809,48.8721261],[2.4652313,48.8721505],[2.4633709,48.8707468],[2.464592,48.8701369],[2.4649657,48.8698394],[2.4676262,48.8705929],[2.4678618,48.8716299]]]]},"properties":{"code_section":"930480000G","code_commune":"93048","section_courte":"G"}},{"type":"Feature","geometry":{"type":"MultiPolygon","coordinates":[[[[2.4660424,48.8735512],[2.4637075,48.8747654],[2.4623896,48.8731],[2.4622069,48.8729526],[2.4617869,48.8724682],[2.4617281,48.8724937],[2.4611705,48.8717796],[2.4633709,48.8707468],[2.4652313,48.8721505],[2.4652809,48.8721261],[2.4653106,48.8721526],[2.4654692,48.8726285],[2.4660424,48.8735512]]]]},"properties":{"code_section":"930480000H","code_commune":"93048","section_courte":"H"}},{"type":"Feature","geometry":{"type":"MultiPolygon","coordinates":[[[[2.4610418,48.8715858],[2.4603056,48.8702844],[2.4598124,48.869633],[2.4611382,48.8687009],[2.462174,48.8690432],[2.4649657,48.8698394],[2.464592,48.8701369],[2.4638617,48.8705233],[2.4611705,48.8717796],[2.4610418,48.8715858]]]]},"properties":{"code_section":"930480000I","code_commune":"93048","section_courte":"I"}},{"type":"Feature","geometry":{"type":"MultiPolygon","coordinates":[[[[2.4611999,48.8719538],[2.4608436,48.8721329],[2.4608256,48.8721112],[2.4606928,48.8721894],[2.4606593,48.8721484],[2.4604576,48.8722346],[2.4604531,48.8722732],[2.4603204,48.8723278],[2.460303,48.8723068],[2.4597655,48.8725284],[2.459897,48.8726769],[2.4592816,48.8729297],[2.459238,48.8728872],[2.4576993,48.8735736],[2.45639,48.8739813],[2.4562041,48.8735981],[2.4561703,48.873611],[2.4557144,48.8727973],[2.4557765,48.8726829],[2.4562937,48.872497],[2.4551891,48.8720031],[2.4569667,48.8710912],[2.4579818,48.8705113],[2.4589684,48.8700749],[2.4598124,48.869633],[2.4603056,48.8702844],[2.4607321,48.8709886],[2.460951,48.8714433],[2.4612792,48.8719124],[2.4611999,48.8719538]]]]},"properties":{"code_section":"930480000J","code_commune":"93048","section_courte":"J"}},{"type":"Feature","geometry":{"type":"MultiPolygon","coordinates":[[[[2.4612792,48.8719124],[2.4617281,48.8724937],[2.4617869,48.8724682],[2.4622069,48.8729526],[2.4605503,48.8734855],[2.4614627,48.8750129],[2.4590659,48.8756598],[2.4574964,48.876005],[2.4574613,48.8758989],[2.4575314,48.8758756],[2.4567062,48.8745508],[2.4564979,48.874173],[2.4565317,48.8741636],[2.45639,48.8739813],[2.4576993,48.8735736],[2.459238,48.8728872],[2.4592816,48.8729297],[2.459897,48.8726769],[2.4597655,48.8725284],[2.460303,48.8723068],[2.4603204,48.8723278],[2.4604531,48.8722732],[2.4604576,48.8722346],[2.4606593,48.8721484],[2.4606928,48.8721894],[2.4608256,48.8721112],[2.4608436,48.8721329],[2.4612792,48.8719124]]]]},"properties":{"code_section":"930480000K","code_commune":"93048","section_courte":"K"}},{"type":"Feature","geometry":{"type":"MultiPolygon","coordinates":[[[[2.4574613,48.8758989],[2.4574964,48.876005],[2.4547422,48.876578],[2.454055,48.8759179],[2.4536281,48.8753685],[2.4525549,48.8745464],[2.452256,48.8744156],[2.4528801,48.8741296],[2.4531683,48.8736213],[2.4542294,48.8725452],[2.4544381,48.8727968],[2.4548753,48.8727075],[2.4552678,48.8726899],[2.4554972,48.8727],[2.4556485,48.8727367],[2.4557144,48.8727973],[2.4561703,48.873611],[2.4562041,48.8735981],[2.45639,48.8739813],[2.4565317,48.8741636],[2.4564979,48.874173],[2.4567062,48.8745508],[2.4575314,48.8758756],[2.4574613,48.8758989]]]]},"properties":{"code_section":"930480000L","code_commune":"93048","section_courte":"L"}},{"type":"Feature","geometry":{"type":"MultiPolygon","coordinates":[[[[2.4517263,48.8747367],[2.4514113,48.874311],[2.4511208,48.8738026],[2.450738,48.8732852],[2.4483587,48.8734319],[2.4483305,48.8726858],[2.4498384,48.8719805],[2.4496601,48.8715057],[2.4493216,48.8716478],[2.4496661,48.870746],[2.4502219,48.8709004],[2.4505296,48.8710808],[2.4507932,48.8712688],[2.4510771,48.8717508],[2.4519372,48.8722049],[2.4524055,48.8727928],[2.4531683,48.8736213],[2.4528801,48.8741296],[2.452256,48.8744156],[2.4517263,48.8747367]]]]},"properties":{"code_section":"930480000M","code_commune":"93048","section_courte":"M"}},{"type":"Feature","geometry":{"type":"MultiPolygon","coordinates":[[[[2.4493849,48.8769726],[2.4491623,48.8764587],[2.4469859,48.8735802],[2.4483587,48.8734319],[2.450738,48.8732852],[2.4511208,48.8738026],[2.4514113,48.874311],[2.4517263,48.8747367],[2.4509275,48.8751978],[2.4517578,48.8761798],[2.4522228,48.8769908],[2.45133,48.8772438],[2.4512898,48.87713],[2.4493849,48.8769726]]]]},"properties":{"code_section":"930480000N","code_commune":"93048","section_courte":"N"}},{"type":"Feature","geometry":{"type":"MultiPolygon","coordinates":[[[[2.4473604,48.8735431],[2.446968,48.873587],[2.4468007,48.8732243],[2.4463873,48.8730116],[2.4460842,48.8727847],[2.4459908,48.8715244],[2.445343,48.8698728],[2.4472977,48.8696491],[2.44735,48.8698111],[2.4472786,48.8702874],[2.4488269,48.8705068],[2.4496661,48.870746],[2.4493216,48.8716478],[2.4496601,48.8715057],[2.4498384,48.8719805],[2.4483305,48.8726858],[2.4483587,48.8734319],[2.4473604,48.8735431]]]]},"properties":{"code_section":"930480000O","code_commune":"93048","section_courte":"O"}},{"type":"Feature","geometry":{"type":"MultiPolygon","coordinates":[[[[2.4508637,48.8708752],[2.4505296,48.8710808],[2.4502219,48.8709004],[2.4488269,48.8705068],[2.4472786,48.8702874],[2.44735,48.8698111],[2.4468491,48.8681903],[2.4472495,48.8680109],[2.4473787,48.8679153],[2.4475306,48.8677041],[2.4475533,48.8674505],[2.4489584,48.867064],[2.4510989,48.8689455],[2.4521612,48.8695622],[2.451116,48.8701471],[2.4503396,48.8699553],[2.4501469,48.8700609],[2.4509807,48.8705556],[2.4508637,48.8708752]]]]},"properties":{"code_section":"930480000P","code_commune":"93048","section_courte":"P"}},{"type":"Feature","geometry":{"type":"MultiPolygon","coordinates":[[[[2.4536891,48.8730805],[2.4531683,48.8736213],[2.4524055,48.8727928],[2.4519372,48.8722049],[2.4510771,48.8717508],[2.4507932,48.8712688],[2.4505296,48.8710808],[2.4508637,48.8708752],[2.4509807,48.8705556],[2.4501469,48.8700609],[2.4503396,48.8699553],[2.451116,48.8701471],[2.4521612,48.8695622],[2.4525989,48.8698355],[2.4529539,48.8701674],[2.4535453,48.8709285],[2.4536075,48.871082],[2.4551891,48.8720031],[2.4562937,48.872497],[2.4557765,48.8726829],[2.4557144,48.8727973],[2.4556485,48.8727367],[2.4554972,48.8727],[2.4552678,48.8726899],[2.4548753,48.8727075],[2.4544381,48.8727968],[2.4542294,48.8725452],[2.4536891,48.8730805]]]]},"properties":{"code_section":"930480000Q","code_commune":"93048","section_courte":"Q"}},{"type":"Feature","geometry":{"type":"MultiPolygon","coordinates":[[[[2.4551264,48.871964],[2.4536075,48.871082],[2.4535453,48.8709285],[2.4529539,48.8701674],[2.4525989,48.8698355],[2.4510989,48.8689455],[2.4518149,48.868532],[2.4541664,48.8673813],[2.4579818,48.8705113],[2.4569667,48.8710912],[2.4551891,48.8720031],[2.4551264,48.871964]]]]},"properties":{"code_section":"930480000R","code_commune":"93048","section_courte":"R"}},{"type":"Feature","geometry":{"type":"MultiPolygon","coordinates":[[[[2.4576251,48.8675547],[2.4611382,48.8687009],[2.4598456,48.8696142],[2.4589684,48.8700749],[2.4579818,48.8705113],[2.4541664,48.8673813],[2.4556469,48.8666766],[2.4565091,48.8671355],[2.4576251,48.8675547]]]]},"properties":{"code_section":"930480000S","code_commune":"93048","section_courte":"S"}},{"type":"Feature","geometry":{"type":"MultiPolygon","coordinates":[[[[2.4510989,48.8689455],[2.4489584,48.867064],[2.4514443,48.8663973],[2.4512076,48.8652818],[2.4533466,48.8648432],[2.4537579,48.8650864],[2.4552192,48.8663844],[2.4556469,48.8666766],[2.4518149,48.868532],[2.4510989,48.8689455]]]]},"properties":{"code_section":"930480000T","code_commune":"93048","section_courte":"T"}},{"type":"Feature","geometry":{"type":"MultiPolygon","coordinates":[[[[2.4475502,48.8675916],[2.4474869,48.8677898],[2.4473787,48.8679153],[2.4471106,48.8680822],[2.4467881,48.868201],[2.4451335,48.8667366],[2.4467012,48.86607],[2.4470669,48.8659863],[2.4480042,48.8656959],[2.4491256,48.8655283],[2.44989,48.8653186],[2.4501154,48.8652859],[2.4512085,48.8652556],[2.4514443,48.8663973],[2.4475533,48.8674505],[2.4475502,48.8675916]]]]},"properties":{"code_section":"930480000U","code_commune":"93048","section_courte":"U"}},{"type":"Feature","geometry":{"type":"MultiPolygon","coordinates":[[[[2.4461178,48.8697863],[2.445343,48.8698728],[2.4449439,48.8689268],[2.4439386,48.8691155],[2.4427569,48.8694328],[2.4427504,48.8689137],[2.4426623,48.8683744],[2.4427637,48.8682294],[2.4430379,48.8681464],[2.4427591,48.8678159],[2.4427695,48.8677457],[2.4451335,48.8667366],[2.4467881,48.868201],[2.4468491,48.8681903],[2.4469836,48.8685526],[2.4472977,48.8696491],[2.4461178,48.8697863]]]]},"properties":{"code_section":"930480000V","code_commune":"93048","section_courte":"V"}},{"type":"Feature","geometry":{"type":"MultiPolygon","coordinates":[[[[2.4458053,48.8725773],[2.4453091,48.8723238],[2.4447894,48.8722266],[2.4436932,48.8719003],[2.443121,48.8718581],[2.4422716,48.8718499],[2.4423723,48.8716377],[2.4412798,48.8694354],[2.4419927,48.8693266],[2.4427659,48.8691668],[2.4427569,48.8694328],[2.4439386,48.8691155],[2.4449439,48.8689268],[2.4456061,48.8704772],[2.4459908,48.8715244],[2.4460838,48.872781],[2.4458053,48.8725773]]]]},"properties":{"code_section":"930480000X","code_commune":"93048","section_courte":"X"}},{"type":"Feature","geometry":{"type":"MultiPolygon","coordinates":[[[[2.4396077,48.8713936],[2.4386709,48.871317],[2.4385185,48.8708387],[2.4370219,48.8711176],[2.4364767,48.8711313],[2.4359061,48.8712287],[2.4362692,48.8694068],[2.4373099,48.8695512],[2.4394145,48.8694859],[2.4406611,48.8694141],[2.4409673,48.8694454],[2.4412798,48.8694354],[2.4423723,48.8716377],[2.4423192,48.8717485],[2.4396077,48.8713936]]]]},"properties":{"code_section":"930480000Y","code_commune":"93048","section_courte":"Y"}},{"type":"Feature","geometry":{"type":"MultiPolygon","coordinates":[[[[2.4380722,48.8718634],[2.4384007,48.8718474],[2.4354136,48.8746155],[2.4343866,48.8741987],[2.4339523,48.8739299],[2.4327027,48.8721566],[2.4338323,48.8719238],[2.4343964,48.8716985],[2.4347051,48.8714615],[2.4364767,48.8711313],[2.4370219,48.8711176],[2.4385185,48.8708387],[2.4386689,48.8713107],[2.4382366,48.871381],[2.4380722,48.8718634]]]]},"properties":{"code_section":"930480000Z","code_commune":"93048","section_courte":"Z"}},{"type":"Feature","geometry":{"type":"MultiPolygon","coordinates":[[[[2.4327314,48.8695011],[2.4329668,48.8694703],[2.4333579,48.8695281],[2.4361932,48.8697876],[2.4359061,48.8712287],[2.4347051,48.8714615],[2.4343964,48.8716985],[2.4338323,48.8719238],[2.4327084,48.8721555],[2.4324695,48.8718034],[2.4322395,48.8716139],[2.4302058,48.8706744],[2.430796,48.8697709],[2.4312325,48.8694078],[2.431746,48.8692525],[2.4321224,48.8692378],[2.4327314,48.8695011]]]]},"properties":{"code_section":"93048000AB","code_commune":"93048","section_courte":"AB"}},{"type":"Feature","geometry":{"type":"MultiPolygon","coordinates":[[[[2.4363559,48.8669543],[2.4379661,48.8666189],[2.4380715,48.8667954],[2.4380591,48.8682864],[2.4381179,48.8695239],[2.4373099,48.8695512],[2.4362692,48.8694068],[2.4361932,48.8697876],[2.4333579,48.8695281],[2.4329668,48.8694703],[2.4327314,48.8695011],[2.4325935,48.8694416],[2.4341479,48.8676847],[2.4345061,48.8673338],[2.4363559,48.8669543]]]]},"properties":{"code_section":"93048000AC","code_commune":"93048","section_courte":"AC"}},{"type":"Feature","geometry":{"type":"MultiPolygon","coordinates":[[[[2.4380978,48.8689947],[2.4380636,48.8679505],[2.4393446,48.8678129],[2.4399647,48.867835],[2.4400261,48.8677827],[2.439864,48.8674744],[2.4407336,48.8671924],[2.4412433,48.8669344],[2.4416345,48.8671497],[2.4418833,48.8673667],[2.4420019,48.8673382],[2.4420461,48.8673885],[2.4421357,48.8674169],[2.4422114,48.8673],[2.442557,48.8675796],[2.4427605,48.8676979],[2.4427591,48.8678159],[2.4430379,48.8681464],[2.4427637,48.8682294],[2.4426623,48.8683744],[2.4427659,48.8691668],[2.4419927,48.8693266],[2.4412798,48.8694354],[2.4409673,48.8694454],[2.4406611,48.8694141],[2.4381179,48.8695239],[2.4380978,48.8689947]]]]},"properties":{"code_section":"93048000AD","code_commune":"93048","section_courte":"AD"}},{"type":"Feature","geometry":{"type":"MultiPolygon","coordinates":[[[[2.439864,48.8674744],[2.4400261,48.8677827],[2.4399647,48.867835],[2.4393446,48.8678129],[2.4380636,48.8679505],[2.4380715,48.8667954],[2.4379661,48.8666189],[2.4347076,48.8672925],[2.4389298,48.8644061],[2.4394201,48.864918],[2.4403342,48.8655171],[2.4413592,48.8663387],[2.4417307,48.8665182],[2.4412433,48.8669344],[2.4407336,48.8671924],[2.439864,48.8674744]]]]},"properties":{"code_section":"93048000AE","code_commune":"93048","section_courte":"AE"}},{"type":"Feature","geometry":{"type":"MultiPolygon","coordinates":[[[[2.4415966,48.8626224],[2.4437261,48.8623411],[2.4443407,48.8639855],[2.4436031,48.8651345],[2.4435022,48.8651208],[2.4433674,48.8651499],[2.4432643,48.8652644],[2.4432688,48.8653568],[2.4409254,48.8660045],[2.4403342,48.8655171],[2.4394201,48.864918],[2.4389298,48.8644061],[2.4413856,48.862733],[2.4415966,48.8626224]]]]},"properties":{"code_section":"93048000AF","code_commune":"93048","section_courte":"AF"}},{"type":"Feature","geometry":{"type":"MultiPolygon","coordinates":[[[[2.4422509,48.8656404],[2.4432688,48.8653568],[2.4432643,48.8652644],[2.4433674,48.8651499],[2.4435022,48.8651208],[2.4436031,48.8651345],[2.4443407,48.8639855],[2.4446326,48.8640295],[2.4449526,48.864248],[2.4466258,48.8659377],[2.4467012,48.86607],[2.4427695,48.8677457],[2.4427605,48.8676979],[2.442557,48.8675796],[2.4422114,48.8673],[2.4421357,48.8674169],[2.4420461,48.8673885],[2.4420019,48.8673382],[2.4418833,48.8673667],[2.4416345,48.8671497],[2.4412433,48.8669344],[2.4417307,48.8665182],[2.4413592,48.8663387],[2.4409254,48.8660045],[2.4422509,48.8656404]]]]},"properties":{"code_section":"93048000AG","code_commune":"93048","section_courte":"AG"}},{"type":"Feature","geometry":{"type":"MultiPolygon","coordinates":[[[[2.4480042,48.8656959],[2.4470669,48.8659863],[2.4467012,48.86607],[2.4466258,48.8659377],[2.4448457,48.8641671],[2.4457035,48.8634582],[2.4467383,48.8633638],[2.4473164,48.8632454],[2.4475595,48.8632301],[2.4488775,48.8632903],[2.4489205,48.8633758],[2.4505347,48.864495],[2.4508139,48.8647607],[2.4512085,48.8652556],[2.4501154,48.8652859],[2.44989,48.8653186],[2.4491256,48.8655283],[2.4480042,48.8656959]]]]},"properties":{"code_section":"93048000AH","code_commune":"93048","section_courte":"AH"}},{"type":"Feature","geometry":{"type":"MultiPolygon","coordinates":[[[[2.4504435,48.8631394],[2.4498051,48.863521],[2.4489839,48.8632306],[2.4488775,48.8632903],[2.4475595,48.8632301],[2.4473164,48.8632454],[2.4467383,48.8633638],[2.4457035,48.8634582],[2.4448457,48.8641671],[2.4446326,48.8640295],[2.4443407,48.8639855],[2.443724,48.8623289],[2.4466481,48.8618296],[2.447127,48.8612265],[2.4479367,48.8607648],[2.4499815,48.8626259],[2.4499289,48.8626572],[2.450293,48.8629612],[2.4504435,48.8631394]]]]},"properties":{"code_section":"93048000AI","code_commune":"93048","section_courte":"AI"}},{"type":"Feature","geometry":{"type":"MultiPolygon","coordinates":[[[[2.4438316,48.8607367],[2.4445752,48.8601195],[2.4448123,48.8599951],[2.447127,48.8612265],[2.4466481,48.8618296],[2.4437261,48.8623411],[2.4415966,48.8626224],[2.4414835,48.8621516],[2.4413877,48.8620075],[2.440967,48.860476],[2.4410348,48.86038],[2.4410295,48.8604053],[2.4411327,48.8603933],[2.4412722,48.8602952],[2.4414118,48.8602533],[2.4414769,48.8601818],[2.442123,48.8601198],[2.4422922,48.8601586],[2.4432812,48.8605297],[2.4435823,48.8607513],[2.4438316,48.8607367]]]]},"properties":{"code_section":"93048000AJ","code_commune":"93048","section_courte":"AJ"}},{"type":"Feature","geometry":{"type":"MultiPolygon","coordinates":[[[[2.4389298,48.8644061],[2.4388253,48.8643304],[2.4385255,48.8642486],[2.436935,48.8640977],[2.4368417,48.8630599],[2.4373333,48.8610034],[2.4373191,48.8604082],[2.4395116,48.8604747],[2.4395857,48.8605392],[2.440967,48.860476],[2.4413877,48.8620075],[2.4414835,48.8621516],[2.4415966,48.8626224],[2.4413856,48.862733],[2.4389298,48.8644061]]]]},"properties":{"code_section":"93048000AK","code_commune":"93048","section_courte":"AK"}},{"type":"Feature","geometry":{"type":"MultiPolygon","coordinates":[[[[2.4341004,48.8639948],[2.4340974,48.8639482],[2.4351352,48.8639288],[2.4354681,48.8639532],[2.4385255,48.8642486],[2.4388253,48.8643304],[2.4389298,48.8644061],[2.4347076,48.8672925],[2.4345061,48.8673338],[2.4343962,48.8672872],[2.4347811,48.8666567],[2.4350166,48.8661048],[2.433602,48.8658939],[2.4336441,48.8653181],[2.4335399,48.8653021],[2.4336096,48.8646363],[2.4344101,48.8646724],[2.434415,48.8645253],[2.4342932,48.8645056],[2.4342838,48.8642774],[2.4341232,48.8642739],[2.4341004,48.8639948]]]]},"properties":{"code_section":"93048000AL","code_commune":"93048","section_courte":"AL"}},{"type":"Feature","geometry":{"type":"MultiPolygon","coordinates":[[[[2.4303639,48.8695002],[2.4302956,48.8692564],[2.4299679,48.8690848],[2.4289484,48.8683072],[2.4308221,48.8679401],[2.4312837,48.8677133],[2.4325281,48.8664123],[2.4328184,48.8657921],[2.4350166,48.8661048],[2.4347811,48.8666567],[2.4343962,48.8672872],[2.4345061,48.8673338],[2.4341479,48.8676847],[2.4325935,48.8694416],[2.4321224,48.8692378],[2.431746,48.8692525],[2.4312325,48.8694078],[2.430796,48.8697709],[2.4305461,48.8701465],[2.4303639,48.8695002]]]]},"properties":{"code_section":"93048000AM","code_commune":"93048","section_courte":"AM"}},{"type":"Feature","geometry":{"type":"MultiPolygon","coordinates":[[[[2.429541,48.8675606],[2.4293368,48.8672894],[2.4289958,48.8669928],[2.4285471,48.866726],[2.4278556,48.8664184],[2.4278805,48.8663239],[2.4282056,48.8662479],[2.4281922,48.8662026],[2.4290605,48.8661285],[2.4291957,48.8661427],[2.4293641,48.8663808],[2.4298108,48.8659697],[2.4308614,48.8651186],[2.4328184,48.8657921],[2.4325281,48.8664123],[2.4312837,48.8677133],[2.4308221,48.8679401],[2.4293639,48.8682283],[2.4289456,48.8679441],[2.429541,48.8675606]]]]},"properties":{"code_section":"93048000AN","code_commune":"93048","section_courte":"AN"}},{"type":"Feature","geometry":{"type":"MultiPolygon","coordinates":[[[[2.4279256,48.8663106],[2.428212,48.8651212],[2.4287503,48.8635986],[2.4294802,48.863705],[2.4318523,48.8639032],[2.4340974,48.8639482],[2.4341232,48.8642739],[2.4342838,48.8642774],[2.4342932,48.8645056],[2.434415,48.8645253],[2.4344101,48.8646724],[2.4336096,48.8646363],[2.4335399,48.8653021],[2.4336441,48.8653181],[2.433602,48.8658939],[2.4328184,48.8657921],[2.4308614,48.8651186],[2.4298108,48.8659697],[2.4293641,48.8663808],[2.4291957,48.8661427],[2.4290605,48.8661285],[2.4281922,48.8662026],[2.4282056,48.8662479],[2.4279256,48.8663106]]]]},"properties":{"code_section":"93048000AO","code_commune":"93048","section_courte":"AO"}},{"type":"Feature","geometry":{"type":"MultiPolygon","coordinates":[[[[2.4326833,48.8639275],[2.4311589,48.8638533],[2.431515,48.861784],[2.4324661,48.8619279],[2.4337192,48.8618628],[2.4337225,48.8616458],[2.4370027,48.8618569],[2.4371143,48.8619035],[2.4368417,48.8630599],[2.436935,48.8640977],[2.4351352,48.8639288],[2.4340974,48.8639482],[2.4326833,48.8639275]]]]},"properties":{"code_section":"93048000AP","code_commune":"93048","section_courte":"AP"}},{"type":"Feature","geometry":{"type":"MultiPolygon","coordinates":[[[[2.4373333,48.8610034],[2.4371143,48.8619035],[2.4370027,48.8618569],[2.4337225,48.8616458],[2.4337192,48.8618628],[2.4324661,48.8619279],[2.431515,48.861784],[2.4317766,48.8601844],[2.4317357,48.8594691],[2.4337187,48.8597216],[2.4362721,48.8598439],[2.4370813,48.8596699],[2.437287,48.8601351],[2.4373333,48.8610034]]]]},"properties":{"code_section":"93048000AQ","code_commune":"93048","section_courte":"AQ"}},{"type":"Feature","geometry":{"type":"MultiPolygon","coordinates":[[[[2.4364805,48.8572104],[2.4365616,48.8573711],[2.4372141,48.8578862],[2.4372463,48.8580331],[2.4371485,48.8582173],[2.4369661,48.8583203],[2.4367367,48.8583699],[2.436959,48.8593827],[2.4370813,48.8596699],[2.4362721,48.8598439],[2.4337187,48.8597216],[2.4317357,48.8594691],[2.4316143,48.8572458],[2.433293,48.857546],[2.4332008,48.8572696],[2.4364805,48.8572104]]]]},"properties":{"code_section":"93048000AR","code_commune":"93048","section_courte":"AR"}},{"type":"Feature","geometry":{"type":"MultiPolygon","coordinates":[[[[2.4312644,48.8564608],[2.4316143,48.8572458],[2.4316779,48.8583494],[2.4282796,48.8576813],[2.427546,48.8576205],[2.4272303,48.8555352],[2.4288651,48.8554092],[2.4287058,48.8547224],[2.4302632,48.8543642],[2.4312644,48.8564608]]]]},"properties":{"code_section":"93048000AS","code_commune":"93048","section_courte":"AS"}},{"type":"Feature","geometry":{"type":"MultiPolygon","coordinates":[[[[2.4270953,48.8589556],[2.4270912,48.8586876],[2.4272064,48.8586833],[2.4271198,48.8575844],[2.4282796,48.8576813],[2.4316779,48.8583494],[2.4317766,48.8601844],[2.4317198,48.8605198],[2.4301727,48.8601493],[2.4283848,48.8600448],[2.4283811,48.860072],[2.4272959,48.8600291],[2.427291,48.8597783],[2.4272392,48.8597653],[2.4272407,48.8589602],[2.4270953,48.8589556]]]]},"properties":{"code_section":"93048000AT","code_commune":"93048","section_courte":"AT"}},{"type":"Feature","geometry":{"type":"MultiPolygon","coordinates":[[[[2.4238963,48.86269],[2.4240386,48.8620512],[2.4237541,48.8619618],[2.4231462,48.8618643],[2.4229572,48.8617598],[2.4228653,48.8615163],[2.4224888,48.8608583],[2.4229717,48.8605479],[2.4233595,48.8598867],[2.4239212,48.8599331],[2.4241598,48.859892],[2.4243959,48.8598998],[2.4251543,48.8599556],[2.4254167,48.8597449],[2.4256146,48.8597059],[2.4272186,48.8597725],[2.427291,48.8597783],[2.4272959,48.8600291],[2.4283811,48.860072],[2.4283848,48.8600448],[2.4301727,48.8601493],[2.4317198,48.8605198],[2.4311589,48.8638533],[2.4294802,48.863705],[2.4286268,48.8635989],[2.4286419,48.8635529],[2.4245709,48.8627775],[2.4238963,48.86269]]]]},"properties":{"code_section":"93048000AU","code_commune":"93048","section_courte":"AU"}},{"type":"Feature","geometry":{"type":"MultiPolygon","coordinates":[[[[2.4272186,48.8597725],[2.4256146,48.8597059],[2.4254167,48.8597449],[2.4251543,48.8599556],[2.4243959,48.8598998],[2.4241598,48.859892],[2.4239212,48.8599331],[2.4233638,48.8598869],[2.4234373,48.8597614],[2.4234032,48.8572881],[2.4271198,48.8575844],[2.4272064,48.8586833],[2.4270912,48.8586876],[2.4270797,48.8589551],[2.4272407,48.8589602],[2.4272186,48.8597725]]]]},"properties":{"code_section":"93048000AV","code_commune":"93048","section_courte":"AV"}},{"type":"Feature","geometry":{"type":"MultiPolygon","coordinates":[[[[2.4273881,48.8565012],[2.427546,48.8576205],[2.4232758,48.8572897],[2.4218323,48.8570622],[2.4225635,48.8568245],[2.4229022,48.8556869],[2.425757,48.8561993],[2.4258207,48.8556382],[2.4272303,48.8555352],[2.4273881,48.8565012]]]]},"properties":{"code_section":"93048000AX","code_commune":"93048","section_courte":"AX"}},{"type":"Feature","geometry":{"type":"MultiPolygon","coordinates":[[[[2.4235994,48.8532314],[2.4225635,48.8568245],[2.4218323,48.8570622],[2.4182515,48.8562844],[2.418543,48.8553304],[2.4190774,48.8551967],[2.420532,48.8528952],[2.4235994,48.8532314]]]]},"properties":{"code_section":"93048000AY","code_commune":"93048","section_courte":"AY"}},{"type":"Feature","geometry":{"type":"MultiPolygon","coordinates":[[[[2.4153997,48.8546177],[2.4158375,48.8521321],[2.4179091,48.8526204],[2.4176549,48.8534971],[2.4198984,48.8538947],[2.4190774,48.8551967],[2.418543,48.8553304],[2.4182515,48.8562844],[2.4175201,48.8561269],[2.4168878,48.8559254],[2.415304,48.8551825],[2.4153997,48.8546177]]]]},"properties":{"code_section":"93048000AZ","code_commune":"93048","section_courte":"AZ"}},{"type":"Feature","geometry":{"type":"MultiPolygon","coordinates":[[[[2.4158656,48.8519616],[2.4160177,48.8510958],[2.4165355,48.8505446],[2.4182533,48.8508421],[2.4182633,48.851036],[2.4181628,48.8516571],[2.4196789,48.8518455],[2.4211601,48.8519028],[2.4198984,48.8538947],[2.4176549,48.8534971],[2.4179091,48.8526204],[2.4158375,48.8521321],[2.4158656,48.8519616]]]]},"properties":{"code_section":"93048000BC","code_commune":"93048","section_courte":"BC"}},{"type":"Feature","geometry":{"type":"MultiPolygon","coordinates":[[[[2.4160851,48.8507371],[2.416352,48.8492384],[2.4176487,48.8492823],[2.4176379,48.8493417],[2.4189265,48.8493957],[2.4210435,48.8492491],[2.4213328,48.8510121],[2.4210542,48.8510181],[2.4211601,48.8519028],[2.4196789,48.8518455],[2.4181628,48.8516571],[2.4182633,48.851036],[2.4182533,48.8508421],[2.4165355,48.8505446],[2.4160177,48.8510958],[2.4160851,48.8507371]]]]},"properties":{"code_section":"93048000BD","code_commune":"93048","section_courte":"BD"}},{"type":"Feature","geometry":{"type":"MultiPolygon","coordinates":[[[[2.4219004,48.8491942],[2.4264455,48.8489146],[2.4265157,48.8491424],[2.4263528,48.8506766],[2.4245595,48.8509569],[2.4213328,48.8510121],[2.4210435,48.8492491],[2.4219004,48.8491942]]]]},"properties":{"code_section":"93048000BE","code_commune":"93048","section_courte":"BE"}},{"type":"Feature","geometry":{"type":"MultiPolygon","coordinates":[[[[2.4293035,48.8487447],[2.4295644,48.8510451],[2.4297664,48.8520334],[2.4279345,48.8522268],[2.4261848,48.8522781],[2.4265157,48.8491424],[2.4264455,48.8489146],[2.4293035,48.8487447]]]]},"properties":{"code_section":"93048000BF","code_commune":"93048","section_courte":"BF"}},{"type":"Feature","geometry":{"type":"MultiPolygon","coordinates":[[[[2.4246233,48.8509468],[2.4263528,48.8506766],[2.4261066,48.8529833],[2.4247221,48.8528443],[2.4247135,48.8528858],[2.4238031,48.8527924],[2.423667,48.8532387],[2.420532,48.8528952],[2.4211601,48.8519028],[2.4210542,48.8510181],[2.4246233,48.8509468]]]]},"properties":{"code_section":"93048000BG","code_commune":"93048","section_courte":"BG"}},{"type":"Feature","geometry":{"type":"MultiPolygon","coordinates":[[[[2.4234972,48.853581],[2.4235994,48.8532314],[2.423667,48.8532387],[2.4238031,48.8527924],[2.4247135,48.8528858],[2.4247221,48.8528443],[2.4261066,48.8529833],[2.4259717,48.8540905],[2.4275599,48.8541338],[2.4272303,48.8555352],[2.4258207,48.8556382],[2.425757,48.8561993],[2.4229022,48.8556869],[2.4234972,48.853581]]]]},"properties":{"code_section":"93048000BH","code_commune":"93048","section_courte":"BH"}},{"type":"Feature","geometry":{"type":"MultiPolygon","coordinates":[[[[2.4299592,48.8529409],[2.4302632,48.8543642],[2.4287058,48.8547224],[2.4288651,48.8554092],[2.4272303,48.8555352],[2.4275599,48.8541338],[2.4259717,48.8540905],[2.4261848,48.8522781],[2.4279345,48.8522268],[2.4297664,48.8520334],[2.4299592,48.8529409]]]]},"properties":{"code_section":"93048000BI","code_commune":"93048","section_courte":"BI"}},{"type":"Feature","geometry":{"type":"MultiPolygon","coordinates":[[[[2.4297664,48.8520334],[2.4295644,48.8510451],[2.4315308,48.8509278],[2.4325167,48.8511595],[2.4345755,48.8508199],[2.4346,48.8514083],[2.4348474,48.8524275],[2.4299592,48.8529409],[2.4297664,48.8520334]]]]},"properties":{"code_section":"93048000BJ","code_commune":"93048","section_courte":"BJ"}},{"type":"Feature","geometry":{"type":"MultiPolygon","coordinates":[[[[2.4303123,48.8529039],[2.4348474,48.8524275],[2.4354832,48.8538819],[2.4359995,48.8547412],[2.4308832,48.8556586],[2.4302632,48.8543642],[2.430038,48.8533222],[2.4299592,48.8529409],[2.4303123,48.8529039]]]]},"properties":{"code_section":"93048000BK","code_commune":"93048","section_courte":"BK"}},{"type":"Feature","geometry":{"type":"MultiPolygon","coordinates":[[[[2.435189,48.8554126],[2.4362487,48.8567122],[2.4364805,48.8572104],[2.4332008,48.8572696],[2.433293,48.857546],[2.4316143,48.8572458],[2.4308832,48.8556586],[2.4349164,48.8549323],[2.435189,48.8554126]]]]},"properties":{"code_section":"93048000BL","code_commune":"93048","section_courte":"BL"}},{"type":"Feature","geometry":{"type":"MultiPolygon","coordinates":[[[[2.4359995,48.8547412],[2.4354832,48.8538819],[2.435232,48.8533677],[2.4373417,48.8528183],[2.4376474,48.8532214],[2.4388226,48.8530201],[2.439576,48.8556627],[2.4371924,48.8564973],[2.4362487,48.8567122],[2.435189,48.8554126],[2.4349164,48.8549323],[2.4359995,48.8547412]]]]},"properties":{"code_section":"93048000BM","code_commune":"93048","section_courte":"BM"}},{"type":"Feature","geometry":{"type":"MultiPolygon","coordinates":[[[[2.4372141,48.8578862],[2.4365616,48.8573711],[2.4362487,48.8567122],[2.4371924,48.8564973],[2.439576,48.8556627],[2.4404092,48.8585653],[2.439672,48.859173],[2.4371485,48.8582173],[2.4372463,48.8580331],[2.4372141,48.8578862]]]]},"properties":{"code_section":"93048000BN","code_commune":"93048","section_courte":"BN"}},{"type":"Feature","geometry":{"type":"MultiPolygon","coordinates":[[[[2.4404177,48.858562],[2.4424482,48.8580702],[2.4431125,48.8586767],[2.4430546,48.8589052],[2.4430702,48.8590502],[2.4435823,48.8607513],[2.4432812,48.8605297],[2.4422922,48.8601586],[2.4420801,48.8601153],[2.4414769,48.8601818],[2.4414118,48.8602533],[2.4412722,48.8602952],[2.4411327,48.8603933],[2.4410295,48.8604053],[2.4410348,48.86038],[2.440967,48.860476],[2.4395857,48.8605392],[2.4395116,48.8604747],[2.4373191,48.8604082],[2.437287,48.8601351],[2.436959,48.8593827],[2.4367367,48.8583699],[2.4369661,48.8583203],[2.4371485,48.8582173],[2.439672,48.859173],[2.4404177,48.858562]]]]},"properties":{"code_section":"93048000BO","code_commune":"93048","section_courte":"BO"}},{"type":"Feature","geometry":{"type":"MultiPolygon","coordinates":[[[[2.439576,48.8556627],[2.4396579,48.8556304],[2.442225,48.8552389],[2.4429728,48.8549781],[2.4451228,48.8566053],[2.4440204,48.857699],[2.4405294,48.8585173],[2.4404092,48.8585653],[2.439576,48.8556627]]]]},"properties":{"code_section":"93048000BP","code_commune":"93048","section_courte":"BP"}},{"type":"Feature","geometry":{"type":"MultiPolygon","coordinates":[[[[2.439576,48.8556627],[2.4388303,48.8530373],[2.4411515,48.853024],[2.4425529,48.8528978],[2.443288,48.8525725],[2.4434612,48.852944],[2.4443016,48.8544115],[2.4430795,48.8549491],[2.442225,48.8552389],[2.4396579,48.8556304],[2.439576,48.8556627]]]]},"properties":{"code_section":"93048000BQ","code_commune":"93048","section_courte":"BQ"}},{"type":"Feature","geometry":{"type":"MultiPolygon","coordinates":[[[[2.4436941,48.8533638],[2.4434612,48.852944],[2.443309,48.8525657],[2.4424806,48.851896],[2.4430325,48.8517817],[2.4436281,48.851876],[2.4446226,48.8518048],[2.4471637,48.8511593],[2.4479036,48.852352],[2.4475461,48.8525163],[2.447836,48.8526909],[2.448295,48.8530466],[2.4461764,48.8539179],[2.4443016,48.8544115],[2.4436941,48.8533638]]]]},"properties":{"code_section":"93048000BR","code_commune":"93048","section_courte":"BR"}},{"type":"Feature","geometry":{"type":"MultiPolygon","coordinates":[[[[2.4480089,48.8558841],[2.4481277,48.8555183],[2.4481205,48.8554202],[2.4479116,48.8550228],[2.4472679,48.8544787],[2.4461764,48.8539179],[2.4482871,48.8530498],[2.4487731,48.8534247],[2.4489726,48.8535389],[2.4523311,48.8549162],[2.4520909,48.855097],[2.4517713,48.8552277],[2.4512704,48.855258],[2.450966,48.8551963],[2.4507852,48.8551019],[2.4505954,48.8546922],[2.4498803,48.8549923],[2.4490003,48.8558267],[2.4480089,48.8558841]]]]},"properties":{"code_section":"93048000BS","code_commune":"93048","section_courte":"BS"}},{"type":"Feature","geometry":{"type":"MultiPolygon","coordinates":[[[[2.4472679,48.8544787],[2.4479116,48.8550228],[2.4481205,48.8554202],[2.4481277,48.8555183],[2.4480089,48.8558841],[2.4490003,48.8558267],[2.4491829,48.8568656],[2.448149,48.8571284],[2.4476955,48.8579613],[2.4459984,48.8573277],[2.4451228,48.8566053],[2.4429728,48.8549781],[2.4443016,48.8544115],[2.4461764,48.8539179],[2.4472679,48.8544787]]]]},"properties":{"code_section":"93048000BT","code_commune":"93048","section_courte":"BT"}},{"type":"Feature","geometry":{"type":"MultiPolygon","coordinates":[[[[2.4440976,48.8576224],[2.4451228,48.8566053],[2.4459984,48.8573277],[2.4476955,48.8579613],[2.447149,48.858538],[2.4461162,48.8594288],[2.4456083,48.8597],[2.4448123,48.8599951],[2.4445752,48.8601195],[2.4438316,48.8607367],[2.4435823,48.8607513],[2.4430702,48.8590502],[2.4430546,48.8589052],[2.4431125,48.8586767],[2.4424482,48.8580702],[2.4440204,48.857699],[2.4440976,48.8576224]]]]},"properties":{"code_section":"93048000BU","code_commune":"93048","section_courte":"BU"}},{"type":"Feature","geometry":{"type":"MultiPolygon","coordinates":[[[[2.4463093,48.8592848],[2.447149,48.858538],[2.4475355,48.8581639],[2.4477162,48.8579315],[2.449428,48.8588494],[2.4503358,48.8596752],[2.448418,48.8605104],[2.447127,48.8612265],[2.4448123,48.8599951],[2.4458047,48.8596115],[2.4463093,48.8592848]]]]},"properties":{"code_section":"93048000BV","code_commune":"93048","section_courte":"BV"}},{"type":"Feature","geometry":{"type":"MultiPolygon","coordinates":[[[[2.4499289,48.8626572],[2.4499815,48.8626259],[2.4479367,48.8607648],[2.448418,48.8605104],[2.4503358,48.8596752],[2.449428,48.8588494],[2.4477162,48.8579315],[2.448149,48.8571284],[2.4491829,48.8568656],[2.4490003,48.8558267],[2.4498803,48.8549923],[2.4505954,48.8546922],[2.4507852,48.8551019],[2.450966,48.8551963],[2.4511187,48.8552337],[2.451457,48.8552644],[2.4517713,48.8552277],[2.4520909,48.855097],[2.4523311,48.8549162],[2.452773,48.8550875],[2.4535943,48.8553276],[2.4542441,48.8554589],[2.4541348,48.8564368],[2.4541607,48.8566998],[2.4547611,48.8579806],[2.4558098,48.8604711],[2.4559372,48.8608825],[2.4560074,48.861506],[2.4551824,48.862541],[2.4547908,48.8625402],[2.4515439,48.8629324],[2.4504435,48.8631394],[2.450293,48.8629612],[2.4499289,48.8626572]]]]},"properties":{"code_section":"93048000BX","code_commune":"93048","section_courte":"BX"}},{"type":"Feature","geometry":{"type":"MultiPolygon","coordinates":[[[[2.4494668,48.8634142],[2.4498051,48.863521],[2.4504435,48.8631394],[2.4515439,48.8629324],[2.4547908,48.8625402],[2.4552256,48.8625448],[2.4533219,48.8648295],[2.4533466,48.8648432],[2.4512076,48.8652818],[2.4508139,48.8647607],[2.4505347,48.864495],[2.4489205,48.8633758],[2.4488775,48.8632903],[2.4489839,48.8632306],[2.4494668,48.8634142]]]]},"properties":{"code_section":"93048000BY","code_commune":"93048","section_courte":"BY"}},{"type":"Feature","geometry":{"type":"MultiPolygon","coordinates":[[[[2.4552256,48.8625448],[2.4568211,48.862576],[2.4581276,48.8627925],[2.459694,48.8630984],[2.462857,48.8635911],[2.4621475,48.8641618],[2.4618015,48.8651427],[2.4617429,48.8656522],[2.4617447,48.865825],[2.4621586,48.8675473],[2.4625958,48.8691582],[2.462174,48.8690432],[2.4573702,48.867472],[2.4565091,48.8671355],[2.4556469,48.8666766],[2.4552192,48.8663844],[2.4537579,48.8650864],[2.4533219,48.8648295],[2.4552256,48.8625448]]]]},"properties":{"code_section":"93048000BZ","code_commune":"93048","section_courte":"BZ"}},{"type":"Feature","geometry":{"type":"MultiPolygon","coordinates":[[[[2.4637004,48.8583565],[2.4666335,48.8598062],[2.4665553,48.860176],[2.4664914,48.8601491],[2.4663724,48.8603237],[2.465788,48.8613625],[2.4631472,48.8634735],[2.462857,48.8635911],[2.459694,48.8630984],[2.4581276,48.8627925],[2.4568211,48.862576],[2.4551824,48.862541],[2.4560074,48.861506],[2.4562192,48.861492],[2.4574507,48.8615491],[2.4585535,48.8615123],[2.4589114,48.8614002],[2.4609002,48.8598572],[2.461278,48.8591476],[2.4615603,48.8588659],[2.4624014,48.8584357],[2.4630945,48.8584133],[2.4634433,48.8582286],[2.4637004,48.8583565]]]]},"properties":{"code_section":"93048000CD","code_commune":"93048","section_courte":"CD"}},{"type":"Feature","geometry":{"type":"MultiPolygon","coordinates":[[[[2.4597416,48.8566136],[2.4604874,48.8569546],[2.4629428,48.8584182],[2.4624014,48.8584357],[2.4615603,48.8588659],[2.461278,48.8591476],[2.4609002,48.8598572],[2.4589114,48.8614002],[2.4585535,48.8615123],[2.4574507,48.8615491],[2.4562192,48.861492],[2.4560074,48.861506],[2.4559372,48.8608825],[2.4558098,48.8604711],[2.4547611,48.8579806],[2.4541607,48.8566998],[2.4541348,48.8564368],[2.4542441,48.8554589],[2.455657,48.8557211],[2.4577228,48.8559562],[2.4587876,48.8560042],[2.4597416,48.8566136]]]]},"properties":{"code_section":"93048000CE","code_commune":"93048","section_courte":"CE"}},{"type":"Feature","geometry":{"type":"MultiPolygon","coordinates":[[[[2.4651238,48.8573454],[2.4630945,48.8584133],[2.4629428,48.8584182],[2.4604874,48.8569546],[2.4597416,48.8566136],[2.4587876,48.8560042],[2.4613224,48.8561166],[2.4651805,48.8564693],[2.4650141,48.8572573],[2.4651238,48.8573454]]]]},"properties":{"code_section":"93048000CF","code_commune":"93048","section_courte":"CF"}},{"type":"Feature","geometry":{"type":"MultiPolygon","coordinates":[[[[2.4650141,48.8572573],[2.4651805,48.8564693],[2.4659893,48.8565406],[2.4674103,48.8566153],[2.46696,48.8583722],[2.4670623,48.8583814],[2.4670919,48.8584302],[2.4670959,48.8591984],[2.4669514,48.8597637],[2.4668514,48.8599138],[2.4634433,48.8582286],[2.4651238,48.8573454],[2.4650141,48.8572573]]]]},"properties":{"code_section":"93048000CG","code_commune":"93048","section_courte":"CG"}},{"type":"Feature","geometry":{"type":"MultiPolygon","coordinates":[[[[2.4710431,48.8614726],[2.4712242,48.8625998],[2.4685826,48.8629686],[2.4662476,48.8618692],[2.4655248,48.8615733],[2.465788,48.8613625],[2.4663724,48.8603237],[2.4664914,48.8601491],[2.4665553,48.860176],[2.4665889,48.8600232],[2.4667467,48.8600661],[2.4679406,48.8605787],[2.4684199,48.8606669],[2.469408,48.860758],[2.4698019,48.8607333],[2.4709649,48.8605554],[2.4710823,48.8612093],[2.471003,48.8612257],[2.4710431,48.8614726]]]]},"properties":{"code_section":"93048000CH","code_commune":"93048","section_courte":"CH"}},{"type":"Feature","geometry":{"type":"MultiPolygon","coordinates":[[[[2.4656386,48.8616195],[2.4662476,48.8618692],[2.4685826,48.8629686],[2.467774,48.8629356],[2.4674365,48.8629982],[2.4665694,48.8632456],[2.4684956,48.865207],[2.467206,48.8654832],[2.4672208,48.8654025],[2.4670811,48.8651822],[2.4666677,48.8649107],[2.4666617,48.8649588],[2.4657717,48.8644059],[2.4648242,48.8640569],[2.4645593,48.8639167],[2.4643004,48.8638457],[2.4632106,48.8636974],[2.4632215,48.863672],[2.462857,48.8635911],[2.4631472,48.8634735],[2.4655248,48.8615733],[2.4656386,48.8616195]]]]},"properties":{"code_section":"93048000CI","code_commune":"93048","section_courte":"CI"}},{"type":"Feature","geometry":{"type":"MultiPolygon","coordinates":[[[[2.4674191,48.8672369],[2.4675135,48.8673799],[2.4678562,48.8683813],[2.467851,48.8685438],[2.4677151,48.868656],[2.468449,48.8707916],[2.4677275,48.8706228],[2.4625958,48.8691582],[2.4621586,48.8675473],[2.4617447,48.865825],[2.4617429,48.8656522],[2.4618015,48.8651427],[2.4621475,48.8641618],[2.462857,48.8635911],[2.4632215,48.863672],[2.4632106,48.8636974],[2.4643004,48.8638457],[2.4645593,48.8639167],[2.4648242,48.8640569],[2.4657717,48.8644059],[2.4666617,48.8649588],[2.4666677,48.8649107],[2.4670811,48.8651822],[2.4672208,48.8654025],[2.4671091,48.8662481],[2.4669333,48.8667776],[2.4669862,48.8668045],[2.4670468,48.8667712],[2.4672904,48.8669874],[2.4674191,48.8672369]]]]},"properties":{"code_section":"93048000CJ","code_commune":"93048","section_courte":"CJ"}},{"type":"Feature","geometry":{"type":"MultiPolygon","coordinates":[[[[2.4704834,48.8722423],[2.4684535,48.8719664],[2.4684252,48.8719819],[2.4682846,48.8718671],[2.4678618,48.8716299],[2.4676262,48.8705929],[2.4681507,48.87074],[2.468449,48.8707916],[2.4677151,48.868656],[2.467851,48.8685438],[2.4685971,48.8683808],[2.4703866,48.8681343],[2.4702629,48.8677575],[2.4720875,48.8680327],[2.4718946,48.8688465],[2.471837,48.8689433],[2.4717051,48.8690634],[2.4708351,48.8695033],[2.47102,48.8700957],[2.4710158,48.8703094],[2.4706332,48.8722616],[2.4704834,48.8722423]]]]},"properties":{"code_section":"93048000CK","code_commune":"93048","section_courte":"CK"}},{"type":"Feature","geometry":{"type":"MultiPolygon","coordinates":[[[[2.4671679,48.8658767],[2.467206,48.8654832],[2.4684956,48.865207],[2.4699002,48.8666534],[2.4703866,48.8681343],[2.4685971,48.8683808],[2.467851,48.8685438],[2.4678562,48.8683813],[2.4675135,48.8673799],[2.4672904,48.8669874],[2.4670468,48.8667712],[2.4669862,48.8668045],[2.4669333,48.8667776],[2.4671091,48.8662481],[2.4671679,48.8658767]]]]},"properties":{"code_section":"93048000CL","code_commune":"93048","section_courte":"CL"}},{"type":"Feature","geometry":{"type":"MultiPolygon","coordinates":[[[[2.4768081,48.8643977],[2.4775245,48.866428],[2.4773813,48.8664266],[2.4746151,48.8669975],[2.4742887,48.8673572],[2.4740633,48.867329],[2.4722591,48.867465],[2.4720875,48.8680327],[2.4702629,48.8677575],[2.4699002,48.8666534],[2.4665694,48.8632456],[2.4674365,48.8629982],[2.467774,48.8629356],[2.4685261,48.8629785],[2.4726541,48.8624092],[2.4728028,48.8623873],[2.4727915,48.8623586],[2.4771435,48.861718],[2.477247,48.8630945],[2.4763829,48.8632088],[2.4768081,48.8643977]]]]},"properties":{"code_section":"93048000CM","code_commune":"93048","section_courte":"CM"}},{"type":"Feature","geometry":{"type":"MultiPolygon","coordinates":[[[[2.4805035,48.8671633],[2.4799934,48.867596],[2.4797045,48.8677695],[2.4808648,48.868918],[2.4795661,48.8691924],[2.4795065,48.8688829],[2.4794307,48.8687174],[2.4792682,48.8685423],[2.4790626,48.8684355],[2.478857,48.8683767],[2.4770604,48.8681782],[2.4747103,48.8674019],[2.4742887,48.8673572],[2.4746151,48.8669975],[2.4773813,48.8664266],[2.4790961,48.8664597],[2.4794206,48.8666428],[2.4805937,48.8670846],[2.4805035,48.8671633]]]]},"properties":{"code_section":"93048000CN","code_commune":"93048","section_courte":"CN"}},{"type":"Feature","geometry":{"type":"MultiPolygon","coordinates":[[[[2.4771115,48.8652567],[2.4796281,48.8646935],[2.4796911,48.8649184],[2.4825946,48.8649866],[2.4821747,48.8670606],[2.4812001,48.8672873],[2.4794206,48.8666428],[2.4790961,48.8664597],[2.4775245,48.866428],[2.4771115,48.8652567]]]]},"properties":{"code_section":"93048000CO","code_commune":"93048","section_courte":"CO"}},{"type":"Feature","geometry":{"type":"MultiPolygon","coordinates":[[[[2.4817129,48.86495],[2.4796911,48.8649184],[2.4796281,48.8646935],[2.4771115,48.8652567],[2.4763829,48.8632088],[2.4820905,48.8625018],[2.482614,48.8635407],[2.4826888,48.8639997],[2.4826889,48.8645096],[2.4825946,48.8649866],[2.4817129,48.86495]]]]},"properties":{"code_section":"93048000CP","code_commune":"93048","section_courte":"CP"}},{"type":"Feature","geometry":{"type":"MultiPolygon","coordinates":[[[[2.4772021,48.8616738],[2.4772014,48.8606973],[2.4769907,48.8603827],[2.4783592,48.8601082],[2.4808201,48.8600686],[2.4810187,48.8603479],[2.4820905,48.8625018],[2.477247,48.8630945],[2.4771435,48.861718],[2.4772021,48.8616738]]]]},"properties":{"code_section":"93048000CQ","code_commune":"93048","section_courte":"CQ"}},{"type":"Feature","geometry":{"type":"MultiPolygon","coordinates":[[[[2.471003,48.8612257],[2.4710823,48.8612093],[2.4709649,48.8605554],[2.4732759,48.8602031],[2.4752253,48.8602016],[2.4755083,48.860259],[2.4759852,48.8604303],[2.47641,48.8604732],[2.4769907,48.8603827],[2.4772014,48.8606973],[2.4772021,48.8616738],[2.4771435,48.861718],[2.4712292,48.8626114],[2.471003,48.8612257]]]]},"properties":{"code_section":"93048000CR","code_commune":"93048","section_courte":"CR"}}]}