{"type":"FeatureCollection","features":[{"type":"Feature","geometry":{"type":"MultiPolygon","coordinates":[[[[2.4271833,48.8866171],[2.426801,48.8871365],[2.4267681,48.8875697],[2.426682,48.8878767],[2.4265516,48.8881824],[2.4264468,48.8883281],[2.4267351,48.8886118],[2.426606,48.8886953],[2.4267459,48.8894714],[2.4268854,48.8895497],[2.4269004,48.8896232],[2.4265305,48.8897499],[2.4256632,48.8898467],[2.4256379,48.8901102],[2.4250505,48.8906432],[2.4246318,48.8905833],[2.4244343,48.8909094],[2.4243093,48.8909953],[2.4239286,48.8909912],[2.4238546,48.8906666],[2.4223864,48.8890465],[2.4225715,48.8890053],[2.422469,48.8886717],[2.4224239,48.8876146],[2.4222817,48.8875479],[2.4220714,48.8872723],[2.4206067,48.8865705],[2.4202693,48.8867596],[2.419907,48.8863115],[2.4202253,48.8860428],[2.4205019,48.8860116],[2.4204245,48.8856608],[2.419999,48.8850464],[2.4194344,48.8847267],[2.4200672,48.8844055],[2.4217351,48.884403],[2.4220876,48.8840568],[2.4234419,48.8836819],[2.4239181,48.883237],[2.4244365,48.8830737],[2.4269554,48.8860547],[2.4276784,48.8859709],[2.4271833,48.8866171]]]]},"properties":{"code_section":"930450000A","code_commune":"93045","section_courte":"A"}},{"type":"Feature","geometry":{"type":"MultiPolygon","coordinates":[[[[2.4255813,48.8827702],[2.4248577,48.8829245],[2.4239181,48.883237],[2.4234419,48.8836819],[2.4220876,48.8840568],[2.4217351,48.884403],[2.4200672,48.8844055],[2.4191156,48.8826229],[2.4209935,48.8825176],[2.4215488,48.8814221],[2.4256227,48.8827575],[2.4255813,48.8827702]]]]},"properties":{"code_section":"930450000B","code_commune":"93045","section_courte":"B"}},{"type":"Feature","geometry":{"type":"MultiPolygon","coordinates":[[[[2.4202515,48.8860404],[2.419907,48.8863115],[2.4186562,48.8848136],[2.4173048,48.8840219],[2.417015,48.8842262],[2.4170844,48.8842525],[2.4169767,48.8844736],[2.4156031,48.8841813],[2.4169643,48.8831585],[2.4167033,48.8827279],[2.4191156,48.8826229],[2.4200672,48.8844055],[2.4194344,48.8847267],[2.419999,48.8850464],[2.4204245,48.8856608],[2.4205019,48.8860116],[2.4202515,48.8860404]]]]},"properties":{"code_section":"930450000C","code_commune":"93045","section_courte":"C"}},{"type":"Feature","geometry":{"type":"MultiPolygon","coordinates":[[[[2.4151331,48.880983],[2.4151098,48.8809331],[2.4168587,48.8808604],[2.4173689,48.8801293],[2.4170286,48.880033],[2.4171704,48.8797885],[2.4218971,48.8804479],[2.4215488,48.8814221],[2.4209935,48.8825176],[2.4167033,48.8827279],[2.4153453,48.8814306],[2.4151331,48.880983]]]]},"properties":{"code_section":"930450000D","code_commune":"93045","section_courte":"D"}},{"type":"Feature","geometry":{"type":"MultiPolygon","coordinates":[[[[2.414942,48.8836213],[2.4145576,48.8834272],[2.4130071,48.8830777],[2.4130912,48.8836125],[2.4114811,48.8831898],[2.4112426,48.8826187],[2.4111319,48.8819285],[2.4111298,48.8817214],[2.4111964,48.8814028],[2.4113645,48.8811289],[2.4126486,48.8811244],[2.4126584,48.8813903],[2.4152518,48.881232],[2.4153453,48.8814306],[2.4167033,48.8827279],[2.4169643,48.8831585],[2.4156031,48.8841813],[2.414942,48.8836213]]]]},"properties":{"code_section":"930450000E","code_commune":"93045","section_courte":"E"}},{"type":"Feature","geometry":{"type":"MultiPolygon","coordinates":[[[[2.4122986,48.8811217],[2.4113645,48.8811289],[2.4119155,48.8802086],[2.411984,48.8787636],[2.4141174,48.8792018],[2.4173689,48.8801293],[2.4168587,48.8808604],[2.4151098,48.8809331],[2.4152518,48.881232],[2.4126584,48.8813903],[2.4126486,48.8811244],[2.4122986,48.8811217]]]]},"properties":{"code_section":"930450000F","code_commune":"93045","section_courte":"F"}},{"type":"Feature","geometry":{"type":"MultiPolygon","coordinates":[[[[2.4116797,48.8773878],[2.4124932,48.8763835],[2.4125566,48.8761654],[2.4138514,48.876491],[2.4153943,48.8770674],[2.4150602,48.8774608],[2.4148892,48.8780155],[2.4148391,48.878771],[2.4148917,48.8792865],[2.4148345,48.8793898],[2.4139104,48.8791545],[2.411984,48.8787636],[2.4108409,48.8784227],[2.4116797,48.8773878]]]]},"properties":{"code_section":"930450000G","code_commune":"93045","section_courte":"G"}},{"type":"Feature","geometry":{"type":"MultiPolygon","coordinates":[[[[2.4127956,48.8753653],[2.4134464,48.8731551],[2.4158534,48.8750957],[2.416881,48.8756118],[2.4174945,48.8759961],[2.4167624,48.8760392],[2.4157374,48.877191],[2.4138514,48.876491],[2.4125566,48.8761654],[2.4127956,48.8753653]]]]},"properties":{"code_section":"930450000H","code_commune":"93045","section_courte":"H"}},{"type":"Feature","geometry":{"type":"MultiPolygon","coordinates":[[[[2.4157976,48.8771254],[2.4167624,48.8760392],[2.4174945,48.8759961],[2.4196659,48.8773639],[2.4190877,48.8779968],[2.4188445,48.8779694],[2.4184449,48.8790536],[2.4176004,48.8789483],[2.4170286,48.880033],[2.4148345,48.8793898],[2.4148917,48.8792865],[2.4148391,48.878771],[2.4148584,48.8783432],[2.41498,48.877641],[2.4150651,48.877453],[2.4153943,48.8770674],[2.4157374,48.877191],[2.4157976,48.8771254]]]]},"properties":{"code_section":"930450000I","code_commune":"93045","section_courte":"I"}},{"type":"Feature","geometry":{"type":"MultiPolygon","coordinates":[[[[2.4173252,48.8798102],[2.4171704,48.8797885],[2.4176004,48.8789483],[2.4184449,48.8790536],[2.4188445,48.8779694],[2.4190877,48.8779968],[2.4196659,48.8773639],[2.420416,48.8778244],[2.4208354,48.877991],[2.4216449,48.8781917],[2.4225079,48.8782783],[2.4221033,48.8793436],[2.4218971,48.8804479],[2.4173252,48.8798102]]]]},"properties":{"code_section":"930450000J","code_commune":"93045","section_courte":"J"}},{"type":"Feature","geometry":{"type":"MultiPolygon","coordinates":[[[[2.4253196,48.8789053],[2.4252883,48.8792842],[2.4243886,48.8789385],[2.4240549,48.8789571],[2.4244233,48.8803869],[2.4245047,48.8803749],[2.4246407,48.8809033],[2.4250837,48.880976],[2.4252737,48.8817138],[2.4250684,48.8817485],[2.4249068,48.8818367],[2.4246418,48.8819234],[2.4247211,48.882066],[2.4247991,48.8820409],[2.4249116,48.8825276],[2.4215488,48.8814221],[2.4218971,48.8804479],[2.4221122,48.8793128],[2.4225079,48.8782783],[2.4227663,48.8783027],[2.4253194,48.8782955],[2.4253196,48.8789053]]]]},"properties":{"code_section":"930450000K","code_commune":"93045","section_courte":"K"}},{"type":"Feature","geometry":{"type":"MultiPolygon","coordinates":[[[[2.4250362,48.8817718],[2.4252737,48.8817138],[2.4250837,48.880976],[2.4246407,48.8809033],[2.4245047,48.8803749],[2.4244233,48.8803869],[2.4240549,48.8789571],[2.4243886,48.8789385],[2.4260936,48.8795941],[2.4284249,48.8802303],[2.4290783,48.8826079],[2.4269077,48.883204],[2.4249116,48.8825276],[2.4247991,48.8820409],[2.4247211,48.882066],[2.4246418,48.8819234],[2.4250362,48.8817718]]]]},"properties":{"code_section":"930450000L","code_commune":"93045","section_courte":"L"}},{"type":"Feature","geometry":{"type":"MultiPolygon","coordinates":[[[[2.4252883,48.8792842],[2.4253187,48.8792302],[2.4253194,48.8782955],[2.4279682,48.8781887],[2.4291008,48.8782375],[2.4297894,48.8783094],[2.4299311,48.8798856],[2.4302718,48.880321],[2.430725,48.8806324],[2.428425,48.8802303],[2.4260936,48.8795941],[2.4252883,48.8792842]]]]},"properties":{"code_section":"930450000M","code_commune":"93045","section_courte":"M"}}]}