{"type":"FeatureCollection","features":[{"type":"Feature","geometry":{"type":"MultiPolygon","coordinates":[[[[2.5563933,48.9041835],[2.5518454,48.9020336],[2.5562398,48.9001724],[2.5562632,48.9001213],[2.553957,48.8990101],[2.5532732,48.898368],[2.5629059,48.8976781],[2.5632166,48.8979454],[2.5634478,48.8980867],[2.5638251,48.8982035],[2.5645219,48.8982225],[2.56427,48.8987642],[2.5643056,48.8992306],[2.5634299,48.8992501],[2.5611334,48.9019702],[2.5607443,48.9023539],[2.557908,48.9045511],[2.5575437,48.9047236],[2.5563933,48.9041835]]]]},"properties":{"code_section":"930470000A","code_commune":"93047","section_courte":"A"}},{"type":"Feature","geometry":{"type":"MultiPolygon","coordinates":[[[[2.5657054,48.9081171],[2.5652642,48.9083061],[2.5595733,48.9056395],[2.5575437,48.9047236],[2.5579649,48.9045088],[2.5607794,48.9023156],[2.5689182,48.9062319],[2.5688917,48.9062691],[2.5696025,48.9066014],[2.5703073,48.9076115],[2.5657054,48.9081171]]]]},"properties":{"code_section":"930470000B","code_commune":"93047","section_courte":"B"}},{"type":"Feature","geometry":{"type":"MultiPolygon","coordinates":[[[[2.5634843,48.9036229],[2.5607794,48.9023156],[2.5611334,48.9019702],[2.5634299,48.8992501],[2.5643056,48.8992306],[2.56427,48.8987642],[2.5645219,48.8982225],[2.5649306,48.898329],[2.5657129,48.8986591],[2.5662545,48.8987803],[2.5667577,48.8987739],[2.567215,48.8987099],[2.5679331,48.8987689],[2.5681844,48.8989078],[2.5687384,48.8990488],[2.5684274,48.8995396],[2.5684851,48.8995902],[2.5687575,48.8996139],[2.5692343,48.8997942],[2.5694236,48.8993398],[2.5695588,48.8992996],[2.5699821,48.8993861],[2.5703353,48.8994195],[2.5709753,48.8996516],[2.5718131,48.8998072],[2.5718413,48.8998939],[2.5718992,48.8999213],[2.5703177,48.9015205],[2.5700426,48.9014216],[2.5654408,48.904564],[2.5634843,48.9036229]]]]},"properties":{"code_section":"930470000C","code_commune":"93047","section_courte":"C"}},{"type":"Feature","geometry":{"type":"MultiPolygon","coordinates":[[[[2.5720526,48.907753],[2.5710143,48.9075562],[2.5703073,48.9076115],[2.5696025,48.9066014],[2.5688917,48.9062691],[2.5689182,48.9062319],[2.5654408,48.904564],[2.5700426,48.9014216],[2.5715698,48.9019494],[2.5728712,48.9027982],[2.5738049,48.9032154],[2.5737823,48.9033433],[2.5767325,48.9051844],[2.5770003,48.9055034],[2.577321,48.9065361],[2.5720526,48.907753]]]]},"properties":{"code_section":"930470000D","code_commune":"93047","section_courte":"D"}},{"type":"Feature","geometry":{"type":"MultiPolygon","coordinates":[[[[2.5835885,48.9103453],[2.5830861,48.9097982],[2.5816305,48.9090138],[2.5789087,48.9082294],[2.57881,48.9080948],[2.5784005,48.9072283],[2.57803,48.9068855],[2.5775366,48.906559],[2.5774998,48.9064909],[2.5855326,48.904614],[2.5856663,48.9047485],[2.5863734,48.9051346],[2.5875344,48.9054882],[2.5890708,48.9055155],[2.589277,48.9064544],[2.5908371,48.9065649],[2.5912787,48.9068469],[2.5914274,48.9070486],[2.5888845,48.908246],[2.5886383,48.9084804],[2.5884442,48.9085401],[2.5882854,48.9085395],[2.5849062,48.9101848],[2.5845627,48.9103178],[2.5838778,48.910683],[2.5835885,48.9103453]]]]},"properties":{"code_section":"930470000E","code_commune":"93047","section_courte":"E"}},{"type":"Feature","geometry":{"type":"MultiPolygon","coordinates":[[[[2.5770343,48.9056161],[2.5770003,48.9055034],[2.5767325,48.9051844],[2.5756161,48.9044691],[2.5740536,48.9035343],[2.5737823,48.9033433],[2.5738049,48.9032154],[2.5745458,48.9031385],[2.5768307,48.9025012],[2.5787183,48.9019049],[2.5783342,48.9012618],[2.5786224,48.901133],[2.5790251,48.9010458],[2.579666,48.9008361],[2.5800179,48.9012413],[2.5802442,48.9011592],[2.5805038,48.9015785],[2.5808668,48.9014287],[2.5812863,48.9011828],[2.5816479,48.9014215],[2.5822232,48.9010921],[2.5820152,48.9009686],[2.5824874,48.9006193],[2.5845861,48.9020014],[2.5853809,48.9015723],[2.5854509,48.9016132],[2.5853234,48.9017621],[2.584689,48.9021729],[2.5849016,48.902387],[2.5844097,48.9027572],[2.5845355,48.9029906],[2.584137,48.9033773],[2.5848821,48.9039866],[2.5855326,48.904614],[2.577321,48.9065361],[2.5770343,48.9056161]]]]},"properties":{"code_section":"930470000F","code_commune":"93047","section_courte":"F"}},{"type":"Feature","geometry":{"type":"MultiPolygon","coordinates":[[[[2.5845515,48.9019797],[2.5824874,48.9006193],[2.5820152,48.9009686],[2.5822232,48.9010921],[2.5816479,48.9014215],[2.5812863,48.9011828],[2.5808668,48.9014287],[2.5805038,48.9015785],[2.5802442,48.9011592],[2.5800179,48.9012413],[2.579666,48.9008361],[2.5808214,48.9004178],[2.580865,48.900357],[2.5808115,48.9001089],[2.5804561,48.8991573],[2.5803668,48.8991107],[2.5797872,48.8980412],[2.581514,48.8975794],[2.5845909,48.896567],[2.5855385,48.8963746],[2.587407,48.8961452],[2.5879907,48.8960452],[2.5878026,48.8967562],[2.5875257,48.8973364],[2.5869118,48.8980469],[2.5887537,48.8985035],[2.5892939,48.89868],[2.5891251,48.8987352],[2.587719,48.8995773],[2.5855018,48.9014935],[2.5845861,48.9020014],[2.5845515,48.9019797]]]]},"properties":{"code_section":"930470000G","code_commune":"93047","section_courte":"G"}},{"type":"Feature","geometry":{"type":"MultiPolygon","coordinates":[[[[2.5728712,48.9027982],[2.5715698,48.9019494],[2.5703177,48.9015205],[2.5724596,48.8993269],[2.572866,48.8990617],[2.5745004,48.8985543],[2.5745182,48.8986242],[2.5756092,48.8985463],[2.5763502,48.8985609],[2.5768788,48.8985394],[2.5784519,48.8983048],[2.5797872,48.8980412],[2.5803668,48.8991107],[2.5804561,48.8991573],[2.5808115,48.9001089],[2.580865,48.900357],[2.5808214,48.9004178],[2.5801736,48.9006624],[2.5790251,48.9010458],[2.5786224,48.901133],[2.5783342,48.9012618],[2.5787183,48.9019049],[2.5768307,48.9025012],[2.5745226,48.9031428],[2.5738049,48.9032154],[2.5728712,48.9027982]]]]},"properties":{"code_section":"930470000H","code_commune":"93047","section_courte":"H"}},{"type":"Feature","geometry":{"type":"MultiPolygon","coordinates":[[[[2.5756092,48.8985463],[2.5745182,48.8986242],[2.5745004,48.8985543],[2.5748552,48.8984321],[2.5751579,48.8981904],[2.5752585,48.8979314],[2.5753294,48.8971897],[2.5783319,48.8934238],[2.5785465,48.8934706],[2.5808336,48.8937518],[2.5819465,48.894054],[2.5819844,48.8940298],[2.5826729,48.8943342],[2.5826527,48.8943585],[2.5838655,48.8947941],[2.584174,48.894558],[2.5845993,48.8943187],[2.5852303,48.8937637],[2.585602,48.8937506],[2.5860085,48.8937875],[2.5865987,48.8938768],[2.5869339,48.8939754],[2.5869201,48.8944558],[2.5870527,48.8951359],[2.5870271,48.8952892],[2.5867402,48.8959473],[2.5866917,48.8962153],[2.5855385,48.8963746],[2.5845909,48.896567],[2.581514,48.8975794],[2.5795816,48.8980918],[2.5784519,48.8983048],[2.5768788,48.8985394],[2.5763502,48.8985609],[2.5756092,48.8985463]]]]},"properties":{"code_section":"930470000I","code_commune":"93047","section_courte":"I"}},{"type":"Feature","geometry":{"type":"MultiPolygon","coordinates":[[[[2.5729578,48.896365],[2.5726039,48.8963745],[2.5722798,48.8962416],[2.5721462,48.8959984],[2.5734238,48.8955921],[2.5734462,48.895472],[2.5728375,48.8949841],[2.5730563,48.8948781],[2.5733333,48.8948007],[2.5731623,48.8946614],[2.5732037,48.8946392],[2.5733217,48.8945874],[2.5734621,48.894726],[2.5736497,48.8946221],[2.572941,48.894034],[2.5727596,48.89412],[2.5725685,48.8939581],[2.5724845,48.8940588],[2.5728564,48.8943766],[2.572397,48.8945348],[2.5722073,48.8943724],[2.5723986,48.8941718],[2.5721121,48.8939454],[2.572391,48.8937942],[2.5730193,48.8935654],[2.5727405,48.8931722],[2.5724225,48.8926002],[2.5722721,48.8924824],[2.5730785,48.8920904],[2.5735935,48.8923755],[2.5740196,48.8927315],[2.5744712,48.8925259],[2.5747313,48.8927592],[2.5757269,48.8923923],[2.5758033,48.8925615],[2.5766237,48.8922347],[2.5770587,48.8928164],[2.5783319,48.8934238],[2.5765766,48.8956104],[2.5764186,48.8956213],[2.5757937,48.8957581],[2.5753929,48.8958755],[2.5751287,48.8960168],[2.5743918,48.8961717],[2.5741604,48.8962992],[2.5736715,48.8963995],[2.573212,48.896417],[2.5729578,48.896365]]]]},"properties":{"code_section":"930470000J","code_commune":"93047","section_courte":"J"}},{"type":"Feature","geometry":{"type":"MultiPolygon","coordinates":[[[[2.5718413,48.8998939],[2.5718131,48.8998072],[2.5709753,48.8996516],[2.5703353,48.8994195],[2.5699821,48.8993861],[2.5695588,48.8992996],[2.5694236,48.8993398],[2.5692343,48.8997942],[2.5687575,48.8996139],[2.5684851,48.8995902],[2.5684274,48.8995396],[2.5687384,48.8990488],[2.5681844,48.8989078],[2.5679331,48.8987689],[2.567215,48.8987099],[2.5667577,48.8987739],[2.5662545,48.8987803],[2.5657129,48.8986591],[2.5649306,48.898329],[2.5645219,48.8982225],[2.5638251,48.8982035],[2.5634478,48.8980867],[2.5632166,48.8979454],[2.5629059,48.8976781],[2.5629572,48.8974506],[2.5632869,48.8970848],[2.5636702,48.8969376],[2.5641929,48.8968528],[2.5667915,48.8960526],[2.5680368,48.8954544],[2.568729,48.8952895],[2.5701909,48.8952084],[2.5723005,48.8954019],[2.5734462,48.895472],[2.5734238,48.8955921],[2.5721462,48.8959984],[2.5722798,48.8962416],[2.5726039,48.8963745],[2.5729578,48.896365],[2.573212,48.896417],[2.5736715,48.8963995],[2.5741604,48.8962992],[2.5743918,48.8961717],[2.5751287,48.8960168],[2.5753929,48.8958755],[2.5757937,48.8957581],[2.5764186,48.8956213],[2.5765766,48.8956104],[2.5753294,48.8971897],[2.5752585,48.8979314],[2.5751579,48.8981904],[2.5748552,48.8984321],[2.5728543,48.8990675],[2.5724596,48.8993269],[2.5718992,48.8999213],[2.5718413,48.8998939]]]]},"properties":{"code_section":"930470000K","code_commune":"93047","section_courte":"K"}},{"type":"Feature","geometry":{"type":"MultiPolygon","coordinates":[[[[2.5636543,48.8968226],[2.5628764,48.8914785],[2.5629319,48.8914143],[2.5633604,48.8916969],[2.5648069,48.8924291],[2.5655159,48.8925655],[2.5660322,48.8925028],[2.5665201,48.8922294],[2.5677293,48.8916962],[2.570535,48.8915864],[2.570946,48.8913937],[2.5713498,48.8917343],[2.5716769,48.8919366],[2.5724225,48.8926002],[2.5727405,48.8931722],[2.5730193,48.8935654],[2.572391,48.8937942],[2.5721121,48.8939454],[2.5723986,48.8941718],[2.5722073,48.8943724],[2.572397,48.8945348],[2.5728564,48.8943766],[2.5724845,48.8940588],[2.5725685,48.8939581],[2.5727596,48.89412],[2.572941,48.894034],[2.5736497,48.8946221],[2.5734621,48.894726],[2.5733217,48.8945874],[2.5732037,48.8946392],[2.5731623,48.8946614],[2.5733333,48.8948007],[2.5730563,48.8948781],[2.5728375,48.8949841],[2.5734462,48.895472],[2.5723005,48.8954019],[2.5701909,48.8952084],[2.568729,48.8952895],[2.5680368,48.8954544],[2.5667915,48.8960526],[2.5641929,48.8968528],[2.5636702,48.8969376],[2.5636543,48.8968226]]]]},"properties":{"code_section":"930470000L","code_commune":"93047","section_courte":"L"}},{"type":"Feature","geometry":{"type":"MultiPolygon","coordinates":[[[[2.5615918,48.8935772],[2.5590193,48.8946184],[2.5583588,48.888743],[2.5616076,48.8885069],[2.5614452,48.8888207],[2.5621565,48.8887841],[2.5623539,48.8891447],[2.5627801,48.8897092],[2.5632419,48.8894502],[2.5631795,48.8893738],[2.5640998,48.8890838],[2.5646241,48.8892635],[2.564754,48.889472],[2.5648769,48.8895538],[2.5644152,48.8898268],[2.5648829,48.8902351],[2.5652817,48.8900161],[2.565801,48.8902308],[2.5661398,48.8903148],[2.5663559,48.8904617],[2.5665214,48.890676],[2.5668365,48.8909467],[2.5671116,48.8907971],[2.5673159,48.8907301],[2.5675823,48.8905692],[2.5674748,48.8904951],[2.5676883,48.890356],[2.5683656,48.8909466],[2.569087,48.8907479],[2.5692734,48.8906074],[2.5702024,48.8903375],[2.5706042,48.8907039],[2.5704613,48.8907792],[2.5711354,48.8912272],[2.570946,48.8913937],[2.570535,48.8915864],[2.5677293,48.8916962],[2.5665201,48.8922294],[2.5660322,48.8925028],[2.5655159,48.8925655],[2.5648069,48.8924291],[2.5633604,48.8916969],[2.5629319,48.8914143],[2.5628764,48.8914785],[2.5631191,48.8932236],[2.5617715,48.8933012],[2.5616924,48.8935183],[2.5615918,48.8935772]]]]},"properties":{"code_section":"930470000M","code_commune":"93047","section_courte":"M"}},{"type":"Feature","geometry":{"type":"MultiPolygon","coordinates":[[[[2.5517562,48.8882661],[2.55125,48.8852551],[2.5515568,48.8852315],[2.5515049,48.8848849],[2.5542426,48.8850704],[2.5549491,48.8851773],[2.5549764,48.8852211],[2.5550947,48.8852306],[2.555157,48.8852227],[2.5552001,48.8850211],[2.5567904,48.8850954],[2.5567803,48.8852954],[2.5575997,48.8853435],[2.5579744,48.8855062],[2.5579033,48.8849454],[2.5586887,48.8845887],[2.5592194,48.8851687],[2.5594874,48.8859878],[2.5598748,48.8869115],[2.5603467,48.8872399],[2.5615043,48.8874964],[2.5616502,48.8877178],[2.5617444,48.8880143],[2.5616076,48.8885069],[2.5583588,48.888743],[2.5584575,48.8897374],[2.5541385,48.8900332],[2.5517562,48.8882661]]]]},"properties":{"code_section":"930470000N","code_commune":"93047","section_courte":"N"}},{"type":"Feature","geometry":{"type":"MultiPolygon","coordinates":[[[[2.5466981,48.8911504],[2.5475025,48.8908493],[2.5474422,48.8907678],[2.548748,48.8903679],[2.5490087,48.8902604],[2.5473052,48.888017],[2.5471139,48.8877067],[2.5472421,48.8874247],[2.5495336,48.8872283],[2.5496699,48.8864151],[2.5494682,48.8855951],[2.5498474,48.8851777],[2.5499988,48.8847604],[2.5515064,48.8848723],[2.5515568,48.8852315],[2.55125,48.8852551],[2.5517562,48.8882661],[2.5541385,48.8900332],[2.5553113,48.8909473],[2.5470116,48.8915337],[2.5466981,48.8911504]]]]},"properties":{"code_section":"930470000O","code_commune":"93047","section_courte":"O"}},{"type":"Feature","geometry":{"type":"MultiPolygon","coordinates":[[[[2.5470402,48.8944681],[2.5465,48.893321],[2.546874,48.8928439],[2.5468039,48.8927231],[2.5476688,48.8922538],[2.5470116,48.8915337],[2.5553113,48.8909473],[2.5541385,48.8900332],[2.5584575,48.8897374],[2.5589031,48.8936812],[2.5470782,48.8945191],[2.5470402,48.8944681]]]]},"properties":{"code_section":"930470000P","code_commune":"93047","section_courte":"P"}},{"type":"Feature","geometry":{"type":"MultiPolygon","coordinates":[[[[2.5629059,48.8976781],[2.5532732,48.898368],[2.5515694,48.8964819],[2.5511795,48.894231],[2.5589031,48.8936812],[2.5590193,48.8946184],[2.5615918,48.8935772],[2.5616924,48.8935183],[2.5617715,48.8933012],[2.5631191,48.8932236],[2.5636702,48.8969376],[2.5632869,48.8970848],[2.5631956,48.8971656],[2.5629572,48.8974506],[2.5629059,48.8976781]]]]},"properties":{"code_section":"930470000Q","code_commune":"93047","section_courte":"Q"}},{"type":"Feature","geometry":{"type":"MultiPolygon","coordinates":[[[[2.5517307,48.9020787],[2.5514843,48.9021839],[2.5510907,48.9019852],[2.5502062,48.9018138],[2.5490763,48.9019021],[2.5491103,48.9019198],[2.5486779,48.9019638],[2.5487378,48.9017219],[2.5486478,48.9016313],[2.5472758,48.8995059],[2.5469315,48.8991167],[2.546314,48.8991085],[2.5462425,48.898682],[2.546453,48.8985439],[2.5452365,48.8972376],[2.5451807,48.8972716],[2.5441891,48.8962245],[2.5444387,48.8959198],[2.544682,48.8961174],[2.5477091,48.8957658],[2.5470782,48.8945191],[2.5511795,48.894231],[2.5515694,48.8964819],[2.5532732,48.898368],[2.553957,48.8990101],[2.5562632,48.9001213],[2.5562398,48.9001724],[2.5517307,48.9020787]]]]},"properties":{"code_section":"930470000R","code_commune":"93047","section_courte":"R"}}]}