{"type":"FeatureCollection","features":[{"type":"Feature","geometry":{"type":"MultiPolygon","coordinates":[[[[2.5247608,48.8754588],[2.524144,48.8753085],[2.522938,48.875163],[2.5223221,48.8752284],[2.5220307,48.874235],[2.522667,48.8742486],[2.5234698,48.8741855],[2.5239596,48.8741935],[2.5241476,48.8741661],[2.5243352,48.8740745],[2.5249593,48.8732701],[2.5260248,48.8728946],[2.5264713,48.8721443],[2.5265552,48.8717062],[2.5264947,48.8715327],[2.5265191,48.8709917],[2.5264378,48.8702967],[2.5260163,48.869247],[2.5261763,48.8692002],[2.5273877,48.8696517],[2.5285827,48.8697431],[2.5286604,48.8687541],[2.5316836,48.8701834],[2.5317009,48.8702742],[2.5314718,48.8709881],[2.5315323,48.8709985],[2.5310293,48.8723411],[2.5307192,48.8727408],[2.5296889,48.873555],[2.5297676,48.873581],[2.529762,48.87375],[2.5296748,48.8737286],[2.5296969,48.8738539],[2.5260293,48.8754013],[2.5252533,48.8755357],[2.5250677,48.875528],[2.5247608,48.8754588]]]]},"properties":{"code_section":"93050000AB","code_commune":"93050","section_courte":"AB"}},{"type":"Feature","geometry":{"type":"MultiPolygon","coordinates":[[[[2.5327588,48.8756785],[2.5312258,48.8766654],[2.5309586,48.8764366],[2.5305064,48.875616],[2.5303004,48.8748264],[2.5296969,48.8738539],[2.5296748,48.8737286],[2.529762,48.87375],[2.5297676,48.873581],[2.5296889,48.873555],[2.5307192,48.8727408],[2.5310293,48.8723411],[2.5315323,48.8709985],[2.5314718,48.8709881],[2.5317009,48.8702742],[2.5316903,48.8701275],[2.5317548,48.870111],[2.5326288,48.8674702],[2.536024,48.8684595],[2.5384595,48.8694079],[2.5392405,48.8696793],[2.5372659,48.8728151],[2.536881,48.8726387],[2.5363291,48.8731448],[2.5358518,48.8739748],[2.5354887,48.8743593],[2.5353973,48.874333],[2.5353307,48.8744136],[2.5354123,48.8744385],[2.5353674,48.8744869],[2.5349449,48.8743838],[2.5343264,48.8747123],[2.5338929,48.8749837],[2.5334902,48.8747412],[2.5331848,48.8748975],[2.5335774,48.8751478],[2.5327588,48.8756785]]]]},"properties":{"code_section":"93050000AC","code_commune":"93050","section_courte":"AC"}},{"type":"Feature","geometry":{"type":"MultiPolygon","coordinates":[[[[2.5384595,48.8694079],[2.536024,48.8684595],[2.532543,48.8674453],[2.5326409,48.8673806],[2.5336303,48.8643321],[2.5336847,48.8643387],[2.5340643,48.8632692],[2.5357135,48.8635318],[2.5360457,48.8622259],[2.5359006,48.8621248],[2.535844,48.862119],[2.5359555,48.8616534],[2.5360959,48.8616727],[2.5363195,48.8607835],[2.5383481,48.8610937],[2.5386448,48.8600128],[2.5439265,48.8621511],[2.541832,48.8650862],[2.539422,48.8675438],[2.5384595,48.8694079]]]]},"properties":{"code_section":"93050000AD","code_commune":"93050","section_courte":"AD"}},{"type":"Feature","geometry":{"type":"MultiPolygon","coordinates":[[[[2.5407291,48.8582962],[2.5404167,48.8606224],[2.5403675,48.8607062],[2.5334844,48.8579204],[2.5326632,48.8577507],[2.5323412,48.857808],[2.5313257,48.8577736],[2.5313356,48.8577498],[2.5310988,48.8577381],[2.5314632,48.856504],[2.5314421,48.8562572],[2.5318831,48.8550235],[2.5333097,48.8551269],[2.5334142,48.8546747],[2.5344796,48.8546108],[2.5352068,48.8546556],[2.5356309,48.8546471],[2.5359609,48.8545781],[2.5359721,48.8545344],[2.536282,48.854512],[2.5365278,48.8543122],[2.5366066,48.8542882],[2.537297,48.8543491],[2.5372651,48.8545349],[2.5386047,48.8547042],[2.5383356,48.8559617],[2.5390846,48.8560503],[2.5410975,48.8561688],[2.5408949,48.8576722],[2.5407291,48.8582962]]]]},"properties":{"code_section":"93050000AE","code_commune":"93050","section_courte":"AE"}},{"type":"Feature","geometry":{"type":"MultiPolygon","coordinates":[[[[2.538591,48.8601946],[2.5383481,48.8610937],[2.5363195,48.8607836],[2.5360959,48.8616727],[2.5359555,48.8616534],[2.535844,48.862119],[2.5359006,48.8621248],[2.5360457,48.8622259],[2.5357135,48.8635318],[2.5340643,48.8632692],[2.5344093,48.8622186],[2.5343483,48.8622118],[2.5344068,48.8620291],[2.5316158,48.8616645],[2.5317027,48.8615053],[2.5302782,48.8613862],[2.5301433,48.8621234],[2.5265953,48.8619494],[2.5266773,48.8610729],[2.5262591,48.857786],[2.5293951,48.857882],[2.5310988,48.8577381],[2.5313356,48.8577498],[2.5313257,48.8577736],[2.5323412,48.857808],[2.5326632,48.8577507],[2.5334844,48.8579204],[2.5386448,48.8600128],[2.538591,48.8601946]]]]},"properties":{"code_section":"93050000AH","code_commune":"93050","section_courte":"AH"}},{"type":"Feature","geometry":{"type":"MultiPolygon","coordinates":[[[[2.5183764,48.8594377],[2.517852,48.8579288],[2.5196441,48.8576566],[2.5195238,48.857356],[2.520027,48.857281],[2.5199185,48.8565855],[2.5204517,48.854281],[2.5232409,48.8548353],[2.5266143,48.8555548],[2.5270174,48.8547802],[2.5282229,48.8550476],[2.530121,48.8551319],[2.5301412,48.8549195],[2.5318831,48.8550235],[2.5314421,48.8562572],[2.5314632,48.856504],[2.5310988,48.8577381],[2.5293951,48.857882],[2.5262591,48.857786],[2.5253577,48.8578475],[2.519116,48.8592582],[2.5191319,48.8593233],[2.5183764,48.8594377]]]]},"properties":{"code_section":"93050000AI","code_commune":"93050","section_courte":"AI"}},{"type":"Feature","geometry":{"type":"MultiPolygon","coordinates":[[[[2.5235376,48.8659161],[2.5229716,48.8658079],[2.5229246,48.8656289],[2.5229554,48.8655136],[2.522183,48.8643946],[2.5218486,48.8640287],[2.5208781,48.8633276],[2.5206067,48.8629129],[2.5204454,48.8624148],[2.5188436,48.8622385],[2.5189089,48.8618514],[2.5192028,48.8618769],[2.5192911,48.8610616],[2.5196274,48.861071],[2.5196008,48.8603719],[2.5193317,48.8603878],[2.519116,48.8592582],[2.5252474,48.8578639],[2.5262591,48.857786],[2.5266775,48.8611212],[2.5263875,48.8634879],[2.5262149,48.8641064],[2.525193,48.8662244],[2.5245301,48.8661259],[2.5237778,48.8659652],[2.5237461,48.8659172],[2.523501,48.8658615],[2.5235376,48.8659161]]]]},"properties":{"code_section":"93050000AK","code_commune":"93050","section_courte":"AK"}},{"type":"Feature","geometry":{"type":"MultiPolygon","coordinates":[[[[2.5295781,48.862097],[2.5301433,48.8621234],[2.5302782,48.8613862],[2.5317027,48.8615053],[2.5316158,48.8616645],[2.5344068,48.8620291],[2.5343483,48.8622118],[2.5344093,48.8622186],[2.5342705,48.8626765],[2.5336847,48.8643387],[2.5336303,48.8643321],[2.5326409,48.8673806],[2.532543,48.8674453],[2.5326288,48.8674702],[2.5317548,48.870111],[2.5316903,48.8701275],[2.5316836,48.8701834],[2.5286604,48.8687541],[2.5289011,48.8665523],[2.5275026,48.8664553],[2.525193,48.8662244],[2.5262149,48.8641064],[2.5263875,48.8634879],[2.5265953,48.8619494],[2.5295781,48.862097]]]]},"properties":{"code_section":"93050000AL","code_commune":"93050","section_courte":"AL"}},{"type":"Feature","geometry":{"type":"MultiPolygon","coordinates":[[[[2.5245301,48.8661259],[2.5263692,48.8663539],[2.5289011,48.8665523],[2.5285827,48.8697431],[2.5273877,48.8696517],[2.5261763,48.8692002],[2.5260163,48.869247],[2.5244049,48.8671163],[2.5241739,48.8671476],[2.5241233,48.8671136],[2.5239694,48.8673661],[2.5212833,48.8666417],[2.5197132,48.8664648],[2.5198684,48.8662061],[2.5185029,48.8658056],[2.5187079,48.8655006],[2.5178809,48.8652968],[2.5182052,48.8646636],[2.5184708,48.8645491],[2.5184867,48.864478],[2.5210934,48.865203],[2.5229716,48.8658079],[2.5235376,48.8659161],[2.523501,48.8658615],[2.5237462,48.8659172],[2.5237778,48.8659652],[2.5245301,48.8661259]]]]},"properties":{"code_section":"93050000AM","code_commune":"93050","section_courte":"AM"}},{"type":"Feature","geometry":{"type":"MultiPolygon","coordinates":[[[[2.55303,48.8679743],[2.5553666,48.8653693],[2.5554815,48.8653332],[2.5570506,48.8682315],[2.5565171,48.8686064],[2.5552323,48.8697359],[2.5533385,48.8731062],[2.5528085,48.8737933],[2.5519799,48.8744419],[2.5507042,48.8737481],[2.5486772,48.8728217],[2.55303,48.8679743]]]]},"properties":{"code_section":"93050000AN","code_commune":"93050","section_courte":"AN"}},{"type":"Feature","geometry":{"type":"MultiPolygon","coordinates":[[[[2.5180682,48.8653416],[2.5187079,48.8655006],[2.5185029,48.8658056],[2.5198683,48.8662061],[2.5197132,48.8664648],[2.5212833,48.8666417],[2.5239694,48.8673661],[2.5232178,48.8684482],[2.5222708,48.8693723],[2.5215609,48.8700051],[2.5216136,48.8700388],[2.521578,48.8700749],[2.5211267,48.8697845],[2.5208099,48.8694819],[2.5195882,48.8688155],[2.5190134,48.8683546],[2.5189016,48.8682236],[2.5186968,48.8680967],[2.517267,48.8676156],[2.5162079,48.8673953],[2.5165625,48.8668777],[2.5173957,48.8658439],[2.5175379,48.8657938],[2.5175969,48.86574],[2.5178809,48.8652968],[2.5180682,48.8653416]]],[[[2.5185005,48.8643885],[2.5188436,48.8622385],[2.5204454,48.8624148],[2.5206067,48.8629129],[2.5208781,48.8633276],[2.5218486,48.8640287],[2.522183,48.8643946],[2.5229554,48.8655136],[2.5229246,48.8656289],[2.5229716,48.8658079],[2.5210934,48.865203],[2.5187104,48.8645522],[2.5184867,48.864478],[2.5185005,48.8643885]]]]},"properties":{"code_section":"93050000AO","code_commune":"93050","section_courte":"AO"}},{"type":"Feature","geometry":{"type":"MultiPolygon","coordinates":[[[[2.5204733,48.8745853],[2.521094,48.873799],[2.5210079,48.8734933],[2.5217904,48.8734347],[2.5218675,48.8736857],[2.5222119,48.873633],[2.5222494,48.8737442],[2.522745,48.8736375],[2.5226424,48.8733903],[2.5226997,48.8733803],[2.5226512,48.8732367],[2.523296,48.8731248],[2.5234338,48.8733794],[2.5244165,48.8732455],[2.524346,48.8728495],[2.5241661,48.872524],[2.523951,48.8722522],[2.523726,48.8720355],[2.5235147,48.8719046],[2.5228849,48.8713018],[2.5227972,48.871138],[2.5228672,48.871089],[2.5227051,48.8710126],[2.5220437,48.870568],[2.5220035,48.8704529],[2.5217837,48.8703151],[2.5218611,48.8702582],[2.521578,48.8700749],[2.5216136,48.8700388],[2.5215609,48.8700051],[2.5222708,48.8693723],[2.5232178,48.8684482],[2.5236747,48.8678281],[2.5241233,48.8671136],[2.5241739,48.8671476],[2.5244049,48.8671163],[2.5260769,48.8693601],[2.5263786,48.870118],[2.526477,48.8705317],[2.5265286,48.8712645],[2.5264947,48.8715327],[2.5265552,48.8717062],[2.5264713,48.8721443],[2.5260248,48.8728946],[2.5249593,48.8732701],[2.5243352,48.8740745],[2.5241476,48.8741661],[2.5239596,48.8741935],[2.5234698,48.8741855],[2.522667,48.8742486],[2.5220307,48.874235],[2.5223221,48.8752284],[2.5211543,48.8748607],[2.5204733,48.8745853]]]]},"properties":{"code_section":"93050000AP","code_commune":"93050","section_courte":"AP"}},{"type":"Feature","geometry":{"type":"MultiPolygon","coordinates":[[[[2.5537659,48.8671549],[2.5486772,48.8728217],[2.547116,48.8721779],[2.5410579,48.8702625],[2.5384595,48.8694079],[2.539422,48.8675438],[2.541832,48.8650862],[2.5439265,48.8621511],[2.5456636,48.8628197],[2.5513095,48.8643475],[2.5524503,48.8645644],[2.5583643,48.8650374],[2.5644364,48.8655946],[2.5605219,48.866627],[2.5588922,48.8671997],[2.5582782,48.8674294],[2.5577978,48.8677157],[2.5570506,48.8682315],[2.5554815,48.8653332],[2.5553666,48.8653693],[2.5537659,48.8671549]]]]},"properties":{"code_section":"93050000AR","code_commune":"93050","section_courte":"AR"}},{"type":"Feature","geometry":{"type":"MultiPolygon","coordinates":[[[[2.5661152,48.8652165],[2.56667,48.8655537],[2.5670485,48.8656733],[2.5675776,48.865687],[2.5675387,48.8658724],[2.5587345,48.8650693],[2.5524503,48.8645644],[2.5513095,48.8643475],[2.5456636,48.8628197],[2.5439265,48.8621511],[2.5440438,48.8619581],[2.5445426,48.8590118],[2.544506,48.8587699],[2.543892,48.8567141],[2.5460851,48.8549652],[2.5463176,48.8544385],[2.551791,48.8545967],[2.5546408,48.8544614],[2.5575988,48.8540505],[2.5585562,48.8539553],[2.5593521,48.8539334],[2.5604199,48.8538568],[2.5608224,48.8538662],[2.5619554,48.8539311],[2.562533,48.8540103],[2.5629087,48.8541143],[2.5643725,48.8547257],[2.5663453,48.8551442],[2.5669477,48.8553065],[2.5673722,48.8555236],[2.5675722,48.8557145],[2.5677149,48.8559844],[2.5677618,48.8565661],[2.5677096,48.856739],[2.5676001,48.8569759],[2.5671254,48.8576194],[2.5667092,48.8583892],[2.566126,48.8598077],[2.5659026,48.8606884],[2.5656934,48.8610695],[2.565523,48.8612629],[2.5648928,48.861563],[2.5646536,48.8617247],[2.5644635,48.8619453],[2.5643578,48.8622479],[2.5643912,48.8625319],[2.5645884,48.8628569],[2.5642017,48.8645971],[2.5660186,48.8651568],[2.5661152,48.8652165]]]]},"properties":{"code_section":"93050000AS","code_commune":"93050","section_courte":"AS"}},{"type":"Feature","geometry":{"type":"MultiPolygon","coordinates":[[[[2.5458394,48.8551642],[2.543892,48.8567141],[2.544506,48.8587699],[2.5445426,48.8590118],[2.5440438,48.8619581],[2.5439265,48.8621511],[2.5403675,48.8607062],[2.5404167,48.8606224],[2.5407291,48.8582962],[2.5408949,48.8576722],[2.5410975,48.8561688],[2.5390846,48.8560503],[2.5383356,48.8559617],[2.5386047,48.8547042],[2.5378669,48.8546086],[2.5381295,48.853621],[2.5381651,48.8532076],[2.539717,48.8529775],[2.5404627,48.852924],[2.5410661,48.8529305],[2.5414976,48.8529856],[2.5422521,48.8531551],[2.5427486,48.853327],[2.5431866,48.8535887],[2.5438296,48.8539069],[2.544622,48.8541974],[2.5452567,48.8543359],[2.5463176,48.8544385],[2.5460851,48.8549652],[2.5458394,48.8551642]]]]},"properties":{"code_section":"93050000AT","code_commune":"93050","section_courte":"AT"}},{"type":"Feature","geometry":{"type":"MultiPolygon","coordinates":[[[[2.5344572,48.8536582],[2.5357344,48.8536418],[2.537359,48.8533993],[2.5381651,48.8532076],[2.5381295,48.853621],[2.5378669,48.8546086],[2.5372651,48.8545349],[2.537297,48.8543491],[2.5366066,48.8542882],[2.5365278,48.8543122],[2.536282,48.854512],[2.5359721,48.8545344],[2.5359608,48.8545781],[2.5356309,48.8546471],[2.5352068,48.8546556],[2.5344796,48.8546108],[2.5334142,48.8546747],[2.5333097,48.8551269],[2.5301412,48.8549195],[2.530121,48.8551319],[2.5282229,48.8550476],[2.5270174,48.8547802],[2.5266143,48.8555548],[2.5232409,48.8548353],[2.523912,48.8524642],[2.527857,48.8527504],[2.5293945,48.8529699],[2.5319521,48.8534842],[2.5326047,48.8535768],[2.5344572,48.8536582]]]]},"properties":{"code_section":"93050000AV","code_commune":"93050","section_courte":"AV"}},{"type":"Feature","geometry":{"type":"MultiPolygon","coordinates":[[[[2.5201021,48.8558143],[2.5199185,48.8565855],[2.520027,48.857281],[2.5195238,48.857356],[2.5196441,48.8576566],[2.5173411,48.8580099],[2.5168528,48.8563884],[2.516933,48.8562561],[2.5167881,48.8562129],[2.5165203,48.8563265],[2.5164546,48.8563285],[2.5161613,48.8563238],[2.5160704,48.8562575],[2.5162981,48.8535403],[2.5164189,48.8533054],[2.5200785,48.8540529],[2.5209514,48.8522352],[2.5224653,48.8523583],[2.5224128,48.8527487],[2.5225344,48.8527572],[2.5226047,48.8523696],[2.523912,48.8524642],[2.5232409,48.8548353],[2.5204517,48.854281],[2.5201021,48.8558143]]]]},"properties":{"code_section":"93050000AW","code_commune":"93050","section_courte":"AW"}}]}