{"type":"FeatureCollection","features":[{"type":"Feature","geometry":{"type":"MultiPolygon","coordinates":[[[[2.404878,48.9147441],[2.4052898,48.9145461],[2.4074824,48.9139403],[2.4089035,48.9130083],[2.4136901,48.910865],[2.4148131,48.9111355],[2.4150652,48.9112852],[2.4154685,48.9119259],[2.4149891,48.9121685],[2.4145468,48.9123358],[2.4142634,48.9125077],[2.4141717,48.9126118],[2.4140579,48.9129313],[2.4139601,48.9130825],[2.41331,48.9136275],[2.4132792,48.9137768],[2.4133179,48.914078],[2.412851,48.9154745],[2.4127694,48.9155416],[2.4104361,48.9164474],[2.4100945,48.9166098],[2.4090233,48.9173996],[2.4076401,48.9180435],[2.4043915,48.9150128],[2.404878,48.9147441]]]]},"properties":{"code_section":"930550000A","code_commune":"93055","section_courte":"A"}},{"type":"Feature","geometry":{"type":"MultiPolygon","coordinates":[[[[2.4114098,48.911281],[2.4083489,48.9080886],[2.4060616,48.9085061],[2.4030833,48.9098688],[2.4009519,48.9111018],[2.4003685,48.9113061],[2.399565,48.9105717],[2.4018588,48.9094393],[2.4017743,48.9093635],[2.402037,48.9092219],[2.4084936,48.9061868],[2.4141536,48.9106497],[2.4095545,48.9127301],[2.4092865,48.9127581],[2.4114558,48.9113272],[2.4114098,48.911281]]]]},"properties":{"code_section":"930550000B","code_commune":"93055","section_courte":"B"}},{"type":"Feature","geometry":{"type":"MultiPolygon","coordinates":[[[[2.4058603,48.903157],[2.4055025,48.9028478],[2.411003,48.9005238],[2.4131313,48.9015445],[2.4130748,48.9016266],[2.4133301,48.9017507],[2.4134384,48.9016929],[2.4174012,48.9035728],[2.4171578,48.9035854],[2.4116222,48.9062295],[2.4146033,48.9089453],[2.4129719,48.9097209],[2.4084936,48.9061868],[2.4089558,48.9059672],[2.4058603,48.903157]]]]},"properties":{"code_section":"930550000C","code_commune":"93055","section_courte":"C"}},{"type":"Feature","geometry":{"type":"MultiPolygon","coordinates":[[[[2.4058603,48.903157],[2.4089558,48.9059672],[2.402037,48.9092219],[2.4008825,48.9083667],[2.4007525,48.9084317],[2.4006454,48.9083356],[2.4006753,48.9082645],[2.4004052,48.9080141],[2.4002848,48.9080063],[2.400256,48.9079756],[2.4003162,48.9079464],[2.4002705,48.9079116],[2.3983703,48.9065618],[2.3979229,48.9061122],[2.3977628,48.9061814],[2.3977114,48.9060822],[2.4055025,48.9028478],[2.4058603,48.903157]]]]},"properties":{"code_section":"930550000D","code_commune":"93055","section_courte":"D"}},{"type":"Feature","geometry":{"type":"MultiPolygon","coordinates":[[[[2.3992562,48.9071876],[2.4003162,48.9079464],[2.400256,48.9079756],[2.4002848,48.9080063],[2.4004052,48.9080141],[2.4006753,48.9082645],[2.4006454,48.9083356],[2.4007525,48.9084317],[2.4008825,48.9083667],[2.402037,48.9092219],[2.4017743,48.9093635],[2.4018588,48.9094393],[2.399565,48.9105717],[2.3958356,48.9071194],[2.3977114,48.9060822],[2.3977628,48.9061814],[2.3979229,48.9061122],[2.3983703,48.9065618],[2.3992562,48.9071876]]]]},"properties":{"code_section":"930550000E","code_commune":"93055","section_courte":"E"}},{"type":"Feature","geometry":{"type":"MultiPolygon","coordinates":[[[[2.3932413,48.9047312],[2.3934385,48.9046436],[2.3940981,48.9040707],[2.3945439,48.9037408],[2.3977114,48.9060822],[2.3958356,48.9071194],[2.3932413,48.9047312]]]]},"properties":{"code_section":"930550000F","code_commune":"93055","section_courte":"F"}},{"type":"Feature","geometry":{"type":"MultiPolygon","coordinates":[[[[2.3977114,48.9060822],[2.3945439,48.9037408],[2.3965807,48.9030423],[2.3976931,48.9026919],[2.3981605,48.9026002],[2.4010484,48.9047146],[2.3977114,48.9060822]]]]},"properties":{"code_section":"930550000G","code_commune":"93055","section_courte":"G"}},{"type":"Feature","geometry":{"type":"MultiPolygon","coordinates":[[[[2.3937283,48.904392],[2.3934385,48.9046436],[2.3932413,48.9047312],[2.3920596,48.9036372],[2.3943527,48.9012402],[2.3952169,48.9004492],[2.3981605,48.9026002],[2.3976931,48.9026919],[2.3965807,48.9030423],[2.3945439,48.9037408],[2.3937283,48.904392]]]]},"properties":{"code_section":"930550000H","code_commune":"93055","section_courte":"H"}},{"type":"Feature","geometry":{"type":"MultiPolygon","coordinates":[[[[2.3928565,48.9001556],[2.3943527,48.9012402],[2.3920596,48.9036372],[2.3894297,48.901219],[2.3907176,48.9009742],[2.3926384,48.8998867],[2.3927723,48.8999879],[2.3928565,48.9001556]]]]},"properties":{"code_section":"930550000I","code_commune":"93055","section_courte":"I"}},{"type":"Feature","geometry":{"type":"MultiPolygon","coordinates":[[[[2.397292,48.9016115],[2.3978227,48.9020018],[2.3980152,48.9021919],[2.3977588,48.9023035],[2.3952169,48.9004492],[2.3943527,48.9012402],[2.3928565,48.9001556],[2.3927723,48.8999879],[2.3926384,48.8998867],[2.3936196,48.8993356],[2.3970663,48.8990772],[2.3967652,48.8993691],[2.3973975,48.8994163],[2.3972613,48.900409],[2.3979923,48.9010256],[2.3970917,48.9014629],[2.397292,48.9016115]]]]},"properties":{"code_section":"930550000J","code_commune":"93055","section_courte":"J"}},{"type":"Feature","geometry":{"type":"MultiPolygon","coordinates":[[[[2.4019515,48.901464],[2.4017505,48.9015827],[2.403651,48.9029607],[2.4033539,48.9033674],[2.4036448,48.9036228],[2.4010484,48.9047146],[2.398002,48.9024833],[2.3982019,48.9023734],[2.398139,48.9023126],[2.3982058,48.9022804],[2.3982854,48.9023395],[2.4002598,48.9019884],[2.4006549,48.9018594],[2.4017159,48.9012917],[2.4019515,48.901464]]]]},"properties":{"code_section":"930550000K","code_commune":"93055","section_courte":"K"}},{"type":"Feature","geometry":{"type":"MultiPolygon","coordinates":[[[[2.4047471,48.9004778],[2.4059054,48.9019906],[2.4062935,48.9018369],[2.4064077,48.9021622],[2.4065745,48.9023994],[2.4036448,48.9036228],[2.4033539,48.9033674],[2.403651,48.9029607],[2.4017505,48.9015827],[2.4026864,48.9010491],[2.4045171,48.9002017],[2.4047471,48.9004778]]]]},"properties":{"code_section":"930550000L","code_commune":"93055","section_courte":"L"}},{"type":"Feature","geometry":{"type":"MultiPolygon","coordinates":[[[[2.4049641,48.9007612],[2.4045171,48.9002017],[2.407375,48.898786],[2.411003,48.9005238],[2.4065745,48.9023994],[2.4064077,48.9021622],[2.4062935,48.9018369],[2.4059054,48.9019906],[2.4049641,48.9007612]]]]},"properties":{"code_section":"930550000M","code_commune":"93055","section_courte":"M"}},{"type":"Feature","geometry":{"type":"MultiPolygon","coordinates":[[[[2.4011366,48.8975746],[2.4022939,48.8976403],[2.4022204,48.8978988],[2.4030177,48.8980302],[2.405323,48.8982414],[2.406129,48.898265],[2.4062895,48.8983332],[2.4064486,48.8983388],[2.407375,48.898786],[2.4045171,48.9002017],[2.4026864,48.9010491],[2.4019515,48.901464],[2.4017159,48.9012917],[2.4006549,48.9018594],[2.4002598,48.9019884],[2.3982854,48.9023395],[2.3982058,48.9022804],[2.398139,48.9023126],[2.3982019,48.9023734],[2.398002,48.9024833],[2.3977588,48.9023035],[2.3980152,48.9021919],[2.3978227,48.9020018],[2.3970917,48.9014629],[2.3979923,48.9010256],[2.3972613,48.900409],[2.3973975,48.8994163],[2.3967652,48.8993691],[2.3970663,48.8990772],[2.3936196,48.8993356],[2.395536,48.8982419],[2.3959679,48.8975396],[2.3990209,48.8977205],[2.3993228,48.8975714],[2.4011291,48.8976292],[2.4011366,48.8975746]]]]},"properties":{"code_section":"930550000N","code_commune":"93055","section_courte":"N"}},{"type":"Feature","geometry":{"type":"MultiPolygon","coordinates":[[[[2.4031878,48.8959901],[2.4033446,48.8959756],[2.4033366,48.8961398],[2.4033919,48.8961685],[2.4033878,48.8962293],[2.4031829,48.8964288],[2.4030145,48.8964959],[2.4029102,48.8964997],[2.4029066,48.8965334],[2.4028232,48.8965214],[2.4027684,48.8968759],[2.4023906,48.8975129],[2.4023745,48.8976442],[2.4011366,48.8975746],[2.4011291,48.8976292],[2.3993228,48.8975714],[2.3990209,48.8977205],[2.3959679,48.8975396],[2.3969481,48.8959504],[2.39786,48.8960195],[2.3979086,48.8960909],[2.3987468,48.8960852],[2.4007883,48.8959112],[2.4008807,48.8959446],[2.4011557,48.8959143],[2.4011514,48.8958841],[2.4012383,48.895837],[2.4029652,48.8956566],[2.4029392,48.8960099],[2.4031878,48.8959901]]]]},"properties":{"code_section":"930550000O","code_commune":"93055","section_courte":"O"}},{"type":"Feature","geometry":{"type":"MultiPolygon","coordinates":[[[[2.4029698,48.8965002],[2.4031829,48.8964288],[2.4033969,48.8961972],[2.4033366,48.8961398],[2.4033446,48.8959756],[2.4029392,48.8960099],[2.4029745,48.8956238],[2.4057154,48.8953406],[2.4059792,48.8956793],[2.40677,48.8955943],[2.4071488,48.8960572],[2.4070876,48.8960818],[2.4071397,48.8961488],[2.4071874,48.8961315],[2.4074629,48.896672],[2.4076436,48.8968765],[2.4074312,48.896955],[2.4074636,48.8969966],[2.4072506,48.8970738],[2.4075946,48.8974796],[2.4077046,48.897511],[2.4065903,48.8983434],[2.4062895,48.8983332],[2.4060263,48.8982518],[2.405323,48.8982414],[2.4030358,48.8980321],[2.4022204,48.8978988],[2.4022939,48.8976403],[2.4023745,48.8976442],[2.4023906,48.8975129],[2.4027684,48.8968759],[2.4028232,48.8965214],[2.4029066,48.8965334],[2.4029102,48.8964997],[2.4029698,48.8965002]]]]},"properties":{"code_section":"930550000P","code_commune":"93055","section_courte":"P"}},{"type":"Feature","geometry":{"type":"MultiPolygon","coordinates":[[[[2.4053253,48.8953717],[2.4053355,48.8943007],[2.4096813,48.8936811],[2.4097302,48.895919],[2.4077046,48.897511],[2.4075946,48.8974796],[2.4072506,48.8970738],[2.4074636,48.8969966],[2.4074312,48.896955],[2.4076436,48.8968765],[2.4074629,48.896672],[2.4071874,48.8961315],[2.4071397,48.8961488],[2.4070876,48.8960818],[2.4071488,48.8960572],[2.40677,48.8955943],[2.4059792,48.8956793],[2.4057154,48.8953406],[2.4053253,48.8953717]]]]},"properties":{"code_section":"930550000Q","code_commune":"93055","section_courte":"Q"}},{"type":"Feature","geometry":{"type":"MultiPolygon","coordinates":[[[[2.4177326,48.8960413],[2.4133583,48.9013054],[2.412914,48.9014347],[2.4064486,48.8983388],[2.4065903,48.8983434],[2.4077046,48.897511],[2.4097302,48.895919],[2.409723,48.8949984],[2.410044,48.8949452],[2.4121652,48.8947347],[2.4152464,48.8944748],[2.4159079,48.8944582],[2.4169528,48.8944898],[2.4185231,48.894652],[2.4183101,48.8953479],[2.4177326,48.8960413]]]]},"properties":{"code_section":"930550000R","code_commune":"93055","section_courte":"R"}},{"type":"Feature","geometry":{"type":"MultiPolygon","coordinates":[[[[2.4172544,48.8966176],[2.4183101,48.8953479],[2.4185231,48.894652],[2.4208945,48.8951037],[2.4241382,48.8957784],[2.4243851,48.8967486],[2.4212559,48.9020775],[2.4196398,48.9025541],[2.418174,48.9031196],[2.4179465,48.9032212],[2.4174012,48.9035728],[2.4134384,48.9016929],[2.4133301,48.9017507],[2.4130748,48.9016266],[2.4131313,48.9015445],[2.412914,48.9014347],[2.4133583,48.9013054],[2.4172544,48.8966176]]]]},"properties":{"code_section":"930550000S","code_commune":"93055","section_courte":"S"}},{"type":"Feature","geometry":{"type":"MultiPolygon","coordinates":[[[[2.4258486,48.8930443],[2.4265606,48.8929875],[2.4266911,48.8929534],[2.4276822,48.8959004],[2.4233593,48.8950943],[2.4233249,48.8932606],[2.4239626,48.893194],[2.4252358,48.8931218],[2.4254315,48.8930732],[2.4258486,48.8930443]]]]},"properties":{"code_section":"930550000T","code_commune":"93055","section_courte":"T"}},{"type":"Feature","geometry":{"type":"MultiPolygon","coordinates":[[[[2.4233344,48.8935999],[2.4233593,48.8950943],[2.4240015,48.8952255],[2.4241382,48.8957784],[2.4197166,48.894877],[2.4198856,48.8944639],[2.4198042,48.8944472],[2.4199088,48.8929963],[2.4205791,48.8930717],[2.420625,48.8932022],[2.4209177,48.8931611],[2.4209258,48.8931344],[2.4214301,48.8931519],[2.4214069,48.8932779],[2.4216545,48.893246],[2.4217102,48.8934454],[2.4222047,48.8934159],[2.4233249,48.8932606],[2.4233344,48.8935999]]]]},"properties":{"code_section":"930550000U","code_commune":"93055","section_courte":"U"}},{"type":"Feature","geometry":{"type":"MultiPolygon","coordinates":[[[[2.4198042,48.8944472],[2.4198856,48.8944639],[2.4197166,48.894877],[2.4185995,48.894663],[2.4179521,48.894576],[2.4169528,48.8944898],[2.4160987,48.894461],[2.4162699,48.8936414],[2.4165771,48.892678],[2.4166334,48.8917651],[2.4165742,48.8915057],[2.4203226,48.8921324],[2.4202095,48.8927155],[2.4200919,48.8927749],[2.4200012,48.8930085],[2.4199088,48.8929963],[2.4198042,48.8944472]]]]},"properties":{"code_section":"930550000V","code_commune":"93055","section_courte":"V"}},{"type":"Feature","geometry":{"type":"MultiPolygon","coordinates":[[[[2.4205197,48.8910699],[2.4203226,48.8921324],[2.4165742,48.8915057],[2.414105,48.8915924],[2.4147421,48.8906971],[2.4141625,48.889174],[2.4167163,48.8891776],[2.4198415,48.8893136],[2.4193208,48.8906212],[2.4204282,48.8907524],[2.420558,48.8908607],[2.4205197,48.8910699]]]]},"properties":{"code_section":"930550000X","code_commune":"93055","section_courte":"X"}},{"type":"Feature","geometry":{"type":"MultiPolygon","coordinates":[[[[2.4254341,48.8930856],[2.4252358,48.8931218],[2.4239626,48.893194],[2.4222047,48.8934159],[2.4217102,48.8934454],[2.4216545,48.893246],[2.4214069,48.8932779],[2.4214301,48.8931519],[2.4209258,48.8931344],[2.4209177,48.8931611],[2.420625,48.8932022],[2.4205791,48.8930717],[2.4200012,48.8930085],[2.4200919,48.8927749],[2.4202095,48.8927155],[2.4205197,48.8910699],[2.4217871,48.8911944],[2.4232598,48.8914869],[2.4239035,48.8913132],[2.4243525,48.8912503],[2.4244107,48.8915592],[2.4241518,48.8916015],[2.4243025,48.8921431],[2.425262,48.8920903],[2.4254341,48.8930856]]]]},"properties":{"code_section":"930550000Y","code_commune":"93055","section_courte":"Y"}},{"type":"Feature","geometry":{"type":"MultiPolygon","coordinates":[[[[2.4243504,48.8912411],[2.4239035,48.8913132],[2.4232598,48.8914869],[2.4217871,48.8911944],[2.4205197,48.8910699],[2.420558,48.8908607],[2.4204282,48.8907524],[2.4193208,48.8906212],[2.4198415,48.8893136],[2.4224361,48.8879285],[2.4224723,48.8886682],[2.4225686,48.8889991],[2.4223839,48.8890402],[2.4238518,48.8906628],[2.4239252,48.8909903],[2.4243029,48.890995],[2.4243504,48.8912411]]]]},"properties":{"code_section":"930550000Z","code_commune":"93055","section_courte":"Z"}},{"type":"Feature","geometry":{"type":"MultiPolygon","coordinates":[[[[2.4190595,48.8868428],[2.4193555,48.8867313],[2.4192968,48.8866907],[2.4198995,48.8863092],[2.4202694,48.8867585],[2.4206071,48.8865751],[2.4220584,48.8872715],[2.4222543,48.8875243],[2.4224189,48.8876144],[2.4224361,48.8879285],[2.4198415,48.8893136],[2.4167163,48.8891776],[2.4171324,48.8879861],[2.417727,48.8870439],[2.4178697,48.886954],[2.4182453,48.8868738],[2.4190595,48.8868428]]]]},"properties":{"code_section":"93055000AB","code_commune":"93055","section_courte":"AB"}},{"type":"Feature","geometry":{"type":"MultiPolygon","coordinates":[[[[2.4171088,48.8880443],[2.4167163,48.8891776],[2.4141625,48.889174],[2.4136605,48.8866688],[2.4139665,48.8858104],[2.4160993,48.8861115],[2.4172275,48.8863687],[2.417627,48.8865752],[2.4178697,48.886954],[2.417727,48.8870439],[2.4171088,48.8880443]]]]},"properties":{"code_section":"93055000AC","code_commune":"93055","section_courte":"AC"}},{"type":"Feature","geometry":{"type":"MultiPolygon","coordinates":[[[[2.4197018,48.8864275],[2.4192968,48.8866907],[2.4193555,48.8867313],[2.4190595,48.8868428],[2.4182453,48.8868738],[2.4178697,48.886954],[2.417627,48.8865752],[2.4172275,48.8863687],[2.4160993,48.8861115],[2.4139665,48.8858104],[2.4145864,48.8840564],[2.414895,48.8836034],[2.415619,48.884188],[2.4169797,48.8844748],[2.4170809,48.8842525],[2.4170145,48.8842277],[2.4173039,48.8840193],[2.4186662,48.8848218],[2.4198995,48.8863092],[2.4197018,48.8864275]]]]},"properties":{"code_section":"93055000AD","code_commune":"93055","section_courte":"AD"}},{"type":"Feature","geometry":{"type":"MultiPolygon","coordinates":[[[[2.4111979,48.8848519],[2.4115491,48.8836755],[2.4115556,48.8834954],[2.4114898,48.8831922],[2.4130943,48.8836071],[2.4130066,48.8830786],[2.4145614,48.8834285],[2.4148971,48.8835961],[2.4145864,48.8840564],[2.4139665,48.8858104],[2.4111588,48.8854049],[2.4102409,48.8851748],[2.4105959,48.8846874],[2.4108322,48.884773],[2.4111979,48.8848519]]]]},"properties":{"code_section":"93055000AE","code_commune":"93055","section_courte":"AE"}},{"type":"Feature","geometry":{"type":"MultiPolygon","coordinates":[[[[2.4103398,48.8891177],[2.410121,48.8891145],[2.4101536,48.8872232],[2.4100037,48.887208],[2.4099739,48.8867833],[2.4100105,48.8860982],[2.4102409,48.8851748],[2.4111588,48.8854049],[2.4139665,48.8858104],[2.4136605,48.8866688],[2.4141625,48.889174],[2.4103398,48.8891177]]]]},"properties":{"code_section":"93055000AF","code_commune":"93055","section_courte":"AF"}},{"type":"Feature","geometry":{"type":"MultiPolygon","coordinates":[[[[2.4130838,48.891569],[2.4131152,48.8914913],[2.4130359,48.8914764],[2.4129194,48.8917512],[2.4129627,48.8917589],[2.4128705,48.89194],[2.4129008,48.8919456],[2.4128718,48.8920184],[2.4128168,48.8920341],[2.4110753,48.8916384],[2.4098661,48.8914508],[2.4101042,48.8891401],[2.4103398,48.8891177],[2.4141625,48.889174],[2.4147421,48.8906971],[2.414105,48.8915924],[2.4138987,48.8919721],[2.4137538,48.8919498],[2.4138122,48.8918153],[2.4130446,48.891669],[2.4130838,48.891569]]]]},"properties":{"code_section":"93055000AG","code_commune":"93055","section_courte":"AG"}},{"type":"Feature","geometry":{"type":"MultiPolygon","coordinates":[[[[2.415954,48.8944592],[2.4151345,48.8944814],[2.4126803,48.8946864],[2.4126935,48.8943233],[2.4126569,48.8941301],[2.4127183,48.8939739],[2.4127452,48.8932068],[2.4138738,48.8934365],[2.4137331,48.8924297],[2.4138987,48.8919721],[2.414105,48.8915924],[2.4165742,48.8915057],[2.4166334,48.8917651],[2.4165645,48.8927449],[2.4162699,48.8936414],[2.4160987,48.894461],[2.415954,48.8944592]]]]},"properties":{"code_section":"93055000AH","code_commune":"93055","section_courte":"AH"}},{"type":"Feature","geometry":{"type":"MultiPolygon","coordinates":[[[[2.4127592,48.8933857],[2.4127183,48.8939739],[2.4126569,48.8941301],[2.4126935,48.8943233],[2.4126803,48.8946864],[2.410345,48.8949133],[2.409723,48.8949984],[2.4096491,48.8927939],[2.4098635,48.8924918],[2.4098661,48.8914508],[2.4110753,48.8916384],[2.4128168,48.8920341],[2.4128718,48.8920184],[2.4129008,48.8919456],[2.4128705,48.89194],[2.4129627,48.8917589],[2.4129194,48.8917512],[2.4130359,48.8914764],[2.4131154,48.8914913],[2.4130446,48.891669],[2.4138122,48.8918153],[2.4137537,48.8919498],[2.4138987,48.8919721],[2.4137325,48.8924366],[2.4138738,48.8934365],[2.4127452,48.8932068],[2.4127592,48.8933857]]]]},"properties":{"code_section":"93055000AI","code_commune":"93055","section_courte":"AI"}},{"type":"Feature","geometry":{"type":"MultiPolygon","coordinates":[[[[2.4053355,48.8943007],[2.40516,48.894325],[2.4058225,48.8918374],[2.4064327,48.8918746],[2.4098635,48.8924918],[2.4096491,48.8927939],[2.4096813,48.8936811],[2.4053355,48.8943007]]]]},"properties":{"code_section":"93055000AJ","code_commune":"93055","section_courte":"AJ"}},{"type":"Feature","geometry":{"type":"MultiPolygon","coordinates":[[[[2.4101042,48.8891403],[2.4098661,48.8914508],[2.4098635,48.8924918],[2.4064327,48.8918746],[2.4067425,48.8883267],[2.4073459,48.8883743],[2.4091517,48.8887445],[2.4092986,48.8890582],[2.4101042,48.8891403]]]]},"properties":{"code_section":"93055000AK","code_commune":"93055","section_courte":"AK"}},{"type":"Feature","geometry":{"type":"MultiPolygon","coordinates":[[[[2.4064327,48.8918746],[2.4058225,48.8918374],[2.4025724,48.8912033],[2.4027034,48.8910311],[2.4032742,48.8899059],[2.4036798,48.8883849],[2.4062189,48.8882833],[2.4067425,48.8883267],[2.4064327,48.8918746]]]]},"properties":{"code_section":"93055000AL","code_commune":"93055","section_courte":"AL"}},{"type":"Feature","geometry":{"type":"MultiPolygon","coordinates":[[[[2.405335,48.8944355],[2.4053253,48.8953717],[2.4037249,48.8955423],[2.4040124,48.8947143],[2.4033584,48.894878],[2.4016386,48.8945321],[2.4015476,48.8944934],[2.4018364,48.8937225],[2.4018519,48.8926398],[2.4025724,48.8912033],[2.4058225,48.8918374],[2.40516,48.894325],[2.4053355,48.8943007],[2.405335,48.8944355]]]]},"properties":{"code_section":"93055000AM","code_commune":"93055","section_courte":"AM"}},{"type":"Feature","geometry":{"type":"MultiPolygon","coordinates":[[[[2.4011557,48.8959143],[2.4008807,48.8959446],[2.4007883,48.8959112],[2.3990484,48.8960664],[2.3983697,48.8960942],[2.3978979,48.8960899],[2.39786,48.8960195],[2.3969481,48.8959504],[2.3977741,48.8946038],[2.3980486,48.8935629],[2.398685,48.8941459],[2.3993465,48.8936078],[2.4016386,48.8945321],[2.4033584,48.894878],[2.4040124,48.8947143],[2.4037249,48.8955423],[2.4029745,48.8956238],[2.4029652,48.8956566],[2.402243,48.895746],[2.4012383,48.895837],[2.4011514,48.8958841],[2.4011557,48.8959143]]]]},"properties":{"code_section":"93055000AN","code_commune":"93055","section_courte":"AN"}},{"type":"Feature","geometry":{"type":"MultiPolygon","coordinates":[[[[2.3981193,48.8932836],[2.3986272,48.891344],[2.3988112,48.8903298],[2.4025724,48.8912033],[2.4018519,48.8926398],[2.4018364,48.8937225],[2.4015476,48.8944934],[2.3993465,48.8936078],[2.398685,48.8941459],[2.3980486,48.8935629],[2.3981193,48.8932836]]]]},"properties":{"code_section":"93055000AO","code_commune":"93055","section_courte":"AO"}},{"type":"Feature","geometry":{"type":"MultiPolygon","coordinates":[[[[2.3988112,48.8903298],[2.3989541,48.8895438],[2.4016633,48.889637],[2.401538,48.8886225],[2.4036798,48.8883849],[2.4032742,48.8899059],[2.4027034,48.8910311],[2.4025724,48.8912033],[2.3988112,48.8903298]]]]},"properties":{"code_section":"93055000AP","code_commune":"93055","section_courte":"AP"}}]}