{"type":"FeatureCollection","features":[{"type":"Feature","geometry":{"type":"MultiPolygon","coordinates":[[[[2.461557,48.9024292],[2.4615765,48.902217],[2.4665896,48.9031554],[2.4664877,48.9032786],[2.4662938,48.903242],[2.4660581,48.9034647],[2.4660688,48.9036426],[2.4658122,48.9038447],[2.4655836,48.9038526],[2.4653307,48.904026],[2.4653982,48.9041366],[2.4652638,48.9042156],[2.4653938,48.9042428],[2.4652549,48.9043247],[2.4653036,48.9043348],[2.465349,48.9044259],[2.4655241,48.9052404],[2.4633627,48.9052925],[2.4620831,48.9054302],[2.461557,48.9024292]]]]},"properties":{"code_section":"930530000A","code_commune":"93053","section_courte":"A"}},{"type":"Feature","geometry":{"type":"MultiPolygon","coordinates":[[[[2.465546,48.9038781],[2.4655836,48.9038526],[2.4658122,48.9038447],[2.4660688,48.9036426],[2.4660581,48.9034647],[2.4662938,48.903242],[2.4664877,48.9032786],[2.4666297,48.9031132],[2.4694136,48.9036908],[2.4705814,48.9038966],[2.4699396,48.9052323],[2.4695069,48.9053041],[2.4692002,48.9053187],[2.4678122,48.9052702],[2.4655241,48.9052404],[2.465349,48.9044259],[2.4653036,48.9043348],[2.4652549,48.9043247],[2.4653938,48.9042428],[2.4652638,48.9042156],[2.4653982,48.9041366],[2.4653307,48.904026],[2.465546,48.9038781]]]]},"properties":{"code_section":"930530000B","code_commune":"93053","section_courte":"B"}},{"type":"Feature","geometry":{"type":"MultiPolygon","coordinates":[[[[2.4674348,48.9024763],[2.4679652,48.901728],[2.4680541,48.9014986],[2.4684295,48.9010336],[2.4692023,48.8999073],[2.4695884,48.9011993],[2.4698182,48.9016218],[2.4706681,48.9029273],[2.4705814,48.9038966],[2.4694136,48.9036908],[2.4669298,48.9031816],[2.4674348,48.9024763]]]]},"properties":{"code_section":"930530000C","code_commune":"93053","section_courte":"C"}},{"type":"Feature","geometry":{"type":"MultiPolygon","coordinates":[[[[2.4691807,48.8998216],[2.4692023,48.8999073],[2.4684295,48.9010336],[2.4680541,48.9014986],[2.4680161,48.9016346],[2.4677675,48.9020382],[2.4674675,48.9024042],[2.4669298,48.9031816],[2.4666297,48.9031132],[2.4665896,48.9031554],[2.4654572,48.9029496],[2.4655196,48.902793],[2.4652805,48.9004652],[2.4691074,48.8995236],[2.4691807,48.8998216]]]]},"properties":{"code_section":"930530000D","code_commune":"93053","section_courte":"D"}},{"type":"Feature","geometry":{"type":"MultiPolygon","coordinates":[[[[2.4682442,48.8983341],[2.4684001,48.8985745],[2.4688354,48.8995973],[2.4652805,48.9004652],[2.4650811,48.900488],[2.4642643,48.9003439],[2.462305,48.897813],[2.4679312,48.8974727],[2.4682442,48.8983341]]]]},"properties":{"code_section":"930530000E","code_commune":"93053","section_courte":"E"}},{"type":"Feature","geometry":{"type":"MultiPolygon","coordinates":[[[[2.4692649,48.8994806],[2.4688354,48.8995973],[2.4684001,48.8985745],[2.4682656,48.8983891],[2.4679312,48.8974727],[2.4705043,48.897305],[2.4706247,48.897182],[2.4706205,48.8967303],[2.4714376,48.8965754],[2.4717176,48.8961519],[2.4719336,48.8959308],[2.4721399,48.8958063],[2.4726487,48.8956144],[2.4726342,48.8955863],[2.4728819,48.8955103],[2.472924,48.8956415],[2.4728262,48.8956622],[2.4746428,48.8981469],[2.4740229,48.8982444],[2.4692649,48.8994806]]]]},"properties":{"code_section":"930530000F","code_commune":"93053","section_courte":"F"}},{"type":"Feature","geometry":{"type":"MultiPolygon","coordinates":[[[[2.4726487,48.8956144],[2.4721399,48.8958063],[2.4719235,48.8959385],[2.4717176,48.8961519],[2.4714376,48.8965754],[2.4706205,48.8967303],[2.4705124,48.8956387],[2.468943,48.8958396],[2.4686844,48.8942866],[2.4695649,48.8939352],[2.4707412,48.893264],[2.4706438,48.8941099],[2.4709477,48.8940802],[2.4714429,48.8939259],[2.4730149,48.893109],[2.4737306,48.8940559],[2.4744439,48.8951105],[2.4728819,48.8955103],[2.4726342,48.8955863],[2.4726487,48.8956144]]]]},"properties":{"code_section":"930530000G","code_commune":"93053","section_courte":"G"}},{"type":"Feature","geometry":{"type":"MultiPolygon","coordinates":[[[[2.4665585,48.8971517],[2.4655248,48.8955857],[2.4657759,48.8955005],[2.4666116,48.895082],[2.4686844,48.8942866],[2.4689542,48.8958484],[2.4705124,48.8956387],[2.4706205,48.8967303],[2.4706138,48.8972005],[2.4705043,48.897305],[2.4667931,48.8975413],[2.4665585,48.8971517]]]]},"properties":{"code_section":"930530000H","code_commune":"93053","section_courte":"H"}},{"type":"Feature","geometry":{"type":"MultiPolygon","coordinates":[[[[2.4667931,48.8975413],[2.462305,48.897813],[2.4622126,48.8975447],[2.4605899,48.8961079],[2.4628843,48.8948004],[2.4636621,48.8951071],[2.4653613,48.8956307],[2.4655248,48.8955857],[2.4667931,48.8975413]]]]},"properties":{"code_section":"930530000I","code_commune":"93053","section_courte":"I"}},{"type":"Feature","geometry":{"type":"MultiPolygon","coordinates":[[[[2.4602618,48.8962224],[2.4605899,48.8961079],[2.4622126,48.8975447],[2.462305,48.897813],[2.4642643,48.9003439],[2.4650811,48.900488],[2.4652805,48.9004652],[2.4655196,48.902793],[2.4654572,48.9029496],[2.455227,48.9009967],[2.4559575,48.8993621],[2.4565822,48.899481],[2.4580343,48.8962057],[2.4600985,48.8961962],[2.4601744,48.8961659],[2.4602618,48.8962224]]]]},"properties":{"code_section":"930530000J","code_commune":"93053","section_courte":"J"}},{"type":"Feature","geometry":{"type":"MultiPolygon","coordinates":[[[[2.457977,48.8963395],[2.4565822,48.899481],[2.4559575,48.8993621],[2.455227,48.9009967],[2.4470447,48.8994294],[2.4470365,48.8990272],[2.4484854,48.8958707],[2.4489136,48.8956624],[2.4490815,48.895622],[2.449251,48.8955214],[2.4495924,48.8955237],[2.4505789,48.8954211],[2.4513091,48.8953971],[2.4523067,48.8954683],[2.4532308,48.8953607],[2.4534657,48.8953906],[2.4535293,48.8952303],[2.4537733,48.8952333],[2.4543246,48.8957196],[2.4542317,48.8957663],[2.4547927,48.8962663],[2.4554372,48.8962629],[2.455464,48.8962843],[2.4558235,48.8960918],[2.4563884,48.8959838],[2.4565649,48.8958845],[2.4573282,48.896192],[2.4580543,48.8961911],[2.457977,48.8963395]]]]},"properties":{"code_section":"930530000K","code_commune":"93053","section_courte":"K"}},{"type":"Feature","geometry":{"type":"MultiPolygon","coordinates":[[[[2.4509865,48.8954061],[2.4505789,48.8954211],[2.4495924,48.8955237],[2.449251,48.8955214],[2.4490815,48.895622],[2.4489136,48.8956624],[2.4484854,48.8958707],[2.4470365,48.8990272],[2.4470447,48.8994294],[2.442147,48.8985185],[2.4434679,48.8955008],[2.4486835,48.8941019],[2.4510708,48.893554],[2.4537971,48.8943449],[2.4533721,48.8953801],[2.4532308,48.8953607],[2.4523067,48.8954683],[2.4513091,48.8953971],[2.4509865,48.8954061]]]]},"properties":{"code_section":"930530000L","code_commune":"93053","section_courte":"L"}},{"type":"Feature","geometry":{"type":"MultiPolygon","coordinates":[[[[2.4473826,48.891556],[2.4481626,48.8927801],[2.4478783,48.8928787],[2.4486835,48.8941019],[2.4434679,48.8955008],[2.442147,48.8985185],[2.4417327,48.8984465],[2.4395845,48.8945808],[2.4389966,48.8932091],[2.4405978,48.8927885],[2.4415394,48.8924615],[2.4423072,48.892375],[2.4430789,48.8931399],[2.4459724,48.8916707],[2.4472759,48.8914014],[2.4473826,48.891556]]]]},"properties":{"code_section":"930530000M","code_commune":"93053","section_courte":"M"}},{"type":"Feature","geometry":{"type":"MultiPolygon","coordinates":[[[[2.4428366,48.8907034],[2.4427517,48.8905558],[2.4444152,48.8907538],[2.4450677,48.8915939],[2.4449577,48.8918677],[2.4459724,48.8916707],[2.4430789,48.8931399],[2.4423072,48.892375],[2.4415394,48.8924615],[2.4421054,48.8922696],[2.4415853,48.8916437],[2.4424638,48.8912919],[2.4422416,48.8910009],[2.4428709,48.8907578],[2.4428366,48.8907034]]]]},"properties":{"code_section":"930530000N","code_commune":"93053","section_courte":"N"}},{"type":"Feature","geometry":{"type":"MultiPolygon","coordinates":[[[[2.4444644,48.8900043],[2.4445007,48.8890045],[2.4449099,48.8887941],[2.444973,48.8887259],[2.4448171,48.8885892],[2.4448195,48.8884787],[2.4460022,48.8880892],[2.4462476,48.8884548],[2.4462946,48.8886959],[2.4482542,48.8912179],[2.4449577,48.8918677],[2.4450677,48.8915939],[2.4444152,48.8907538],[2.4444644,48.8900043]]]]},"properties":{"code_section":"930530000O","code_commune":"93053","section_courte":"O"}},{"type":"Feature","geometry":{"type":"MultiPolygon","coordinates":[[[[2.4457005,48.8881903],[2.4448195,48.8884787],[2.4448238,48.8884082],[2.4441914,48.8878403],[2.444018,48.8879108],[2.4438143,48.8877143],[2.4436328,48.8874548],[2.4431281,48.887056],[2.442897,48.886823],[2.4427054,48.8865462],[2.4434888,48.8861433],[2.4435079,48.8860216],[2.4441259,48.8855715],[2.4444156,48.8853188],[2.4443424,48.88532],[2.445288,48.8845484],[2.4455513,48.8846872],[2.4456368,48.8847778],[2.4462048,48.8850208],[2.4465268,48.8850314],[2.4464967,48.8850774],[2.4465228,48.8852535],[2.4466942,48.885354],[2.4466661,48.8853908],[2.4467613,48.8854463],[2.4467425,48.8854672],[2.4469627,48.8855633],[2.4469119,48.8856076],[2.4469844,48.8856527],[2.4470119,48.8856288],[2.4472567,48.8857549],[2.4472292,48.8857803],[2.4472684,48.8858051],[2.4472937,48.8857847],[2.4474206,48.8858592],[2.4474902,48.8859199],[2.4474155,48.8859834],[2.4476942,48.8860954],[2.4477289,48.8860628],[2.4477868,48.8860876],[2.4475811,48.8862809],[2.447952,48.8864802],[2.4478136,48.8865963],[2.4472062,48.8864686],[2.44761,48.886847],[2.4468499,48.887293],[2.446607,48.8874141],[2.4463909,48.8874605],[2.4457693,48.8877948],[2.4460022,48.8880892],[2.4457005,48.8881903]]]]},"properties":{"code_section":"930530000P","code_commune":"93053","section_courte":"P"}},{"type":"Feature","geometry":{"type":"MultiPolygon","coordinates":[[[[2.4440479,48.8834691],[2.4455802,48.8840788],[2.445288,48.8845484],[2.4443424,48.88532],[2.4444156,48.8853188],[2.4441259,48.8855715],[2.4435079,48.8860216],[2.4434888,48.8861433],[2.4427054,48.8865462],[2.4423624,48.8861437],[2.441964,48.8858903],[2.4415329,48.8855535],[2.440401,48.8845935],[2.440491,48.8845382],[2.4408121,48.8840363],[2.4410675,48.884433],[2.4421309,48.883906],[2.44171,48.8834475],[2.443176,48.8828608],[2.443665,48.8832815],[2.4440479,48.8834691]]]]},"properties":{"code_section":"930530000Q","code_commune":"93053","section_courte":"Q"}},{"type":"Feature","geometry":{"type":"MultiPolygon","coordinates":[[[[2.4463909,48.8874605],[2.446607,48.8874141],[2.4467991,48.8873188],[2.44761,48.886847],[2.4472062,48.8864686],[2.4478136,48.8865963],[2.447952,48.8864802],[2.4485268,48.8867858],[2.4485731,48.886734],[2.4521982,48.8875145],[2.4497741,48.8887671],[2.4494233,48.8884515],[2.4470074,48.889624],[2.4462946,48.8886959],[2.4462476,48.8884548],[2.4457693,48.8877948],[2.4463909,48.8874605]]]]},"properties":{"code_section":"930530000R","code_commune":"93053","section_courte":"R"}},{"type":"Feature","geometry":{"type":"MultiPolygon","coordinates":[[[[2.4497741,48.8887671],[2.4521982,48.8875145],[2.452635,48.8876821],[2.4528606,48.8878612],[2.4531976,48.8885342],[2.4528406,48.8893195],[2.4528382,48.8896664],[2.4529053,48.8901842],[2.4514129,48.8906213],[2.4482542,48.8912179],[2.4470074,48.889624],[2.4494233,48.8884515],[2.4497741,48.8887671]]]]},"properties":{"code_section":"930530000S","code_commune":"93053","section_courte":"S"}},{"type":"Feature","geometry":{"type":"MultiPolygon","coordinates":[[[[2.4498355,48.8929924],[2.4497526,48.8930217],[2.4497926,48.8930839],[2.4503373,48.8937212],[2.450245,48.8937422],[2.4496569,48.8930555],[2.4493522,48.8931634],[2.4487562,48.8924319],[2.4483774,48.892528],[2.448197,48.8922011],[2.4478261,48.8922527],[2.4472759,48.8914014],[2.4514129,48.8906213],[2.4523045,48.8912026],[2.4525848,48.8914219],[2.4530215,48.8919803],[2.4519727,48.8922783],[2.4520142,48.8924352],[2.4519757,48.8924536],[2.4505454,48.8927404],[2.4498355,48.8929924]]]]},"properties":{"code_section":"930530000T","code_commune":"93053","section_courte":"T"}},{"type":"Feature","geometry":{"type":"MultiPolygon","coordinates":[[[[2.4478261,48.8922527],[2.448197,48.8922011],[2.4483774,48.892528],[2.4487562,48.8924319],[2.4493522,48.8931634],[2.4496569,48.8930555],[2.450245,48.8937422],[2.4486835,48.8941019],[2.4478783,48.8928787],[2.4481626,48.8927801],[2.4478261,48.8922527]]],[[[2.4518623,48.8924758],[2.4520142,48.8924352],[2.4519727,48.8922783],[2.4530215,48.8919803],[2.4536743,48.8925284],[2.4539967,48.8930593],[2.4540405,48.8932859],[2.4544506,48.8933274],[2.4540181,48.893881],[2.4537971,48.8943449],[2.4510708,48.893554],[2.4503373,48.8937212],[2.4497526,48.8930217],[2.4505454,48.8927404],[2.4518623,48.8924758]]]]},"properties":{"code_section":"930530000U","code_commune":"93053","section_courte":"U"}},{"type":"Feature","geometry":{"type":"MultiPolygon","coordinates":[[[[2.4551348,48.8899805],[2.4553935,48.8898017],[2.4554592,48.8897192],[2.4576865,48.8914327],[2.4559964,48.8923377],[2.454711,48.8928353],[2.4544506,48.8933274],[2.4540405,48.8932859],[2.4539967,48.8930593],[2.4536743,48.8925284],[2.4530215,48.8919803],[2.4525848,48.8914219],[2.4523045,48.8912026],[2.4514129,48.8906213],[2.4529053,48.8901842],[2.453714,48.8907331],[2.4551348,48.8899805]]]]},"properties":{"code_section":"930530000V","code_commune":"93053","section_courte":"V"}},{"type":"Feature","geometry":{"type":"MultiPolygon","coordinates":[[[[2.4560307,48.8956773],[2.4565649,48.8958845],[2.4563884,48.8959838],[2.4558235,48.8960918],[2.455464,48.8962843],[2.4554372,48.8962629],[2.4547927,48.8962663],[2.4542317,48.8957663],[2.4543246,48.8957196],[2.4537733,48.8952333],[2.4535293,48.8952303],[2.4534657,48.8953906],[2.4533721,48.8953801],[2.4540181,48.893881],[2.4544506,48.8933274],[2.454711,48.8928353],[2.4557499,48.892439],[2.4582498,48.8943376],[2.4578724,48.8944161],[2.4560943,48.8955988],[2.4560307,48.8956773]]]]},"properties":{"code_section":"930530000X","code_commune":"93053","section_courte":"X"}},{"type":"Feature","geometry":{"type":"MultiPolygon","coordinates":[[[[2.4605899,48.8961079],[2.4602618,48.8962224],[2.4601744,48.8961659],[2.4600985,48.8961962],[2.4573282,48.896192],[2.4560307,48.8956773],[2.4560943,48.8955988],[2.4578724,48.8944161],[2.4582498,48.8943376],[2.461047,48.8931923],[2.4616961,48.8942295],[2.4628843,48.8948004],[2.4605899,48.8961079]]]]},"properties":{"code_section":"930530000Y","code_commune":"93053","section_courte":"Y"}},{"type":"Feature","geometry":{"type":"MultiPolygon","coordinates":[[[[2.4672954,48.892104],[2.4628843,48.8948004],[2.4616961,48.8942295],[2.461047,48.8931923],[2.4647904,48.8916816],[2.4653145,48.8919527],[2.4657232,48.8920734],[2.4672954,48.892104]]]]},"properties":{"code_section":"930530000Z","code_commune":"93053","section_courte":"Z"}},{"type":"Feature","geometry":{"type":"MultiPolygon","coordinates":[[[[2.4653613,48.8956307],[2.4636621,48.8951071],[2.4628843,48.8948004],[2.4672954,48.892104],[2.4684851,48.8932682],[2.4695649,48.8939352],[2.4666116,48.895082],[2.4657759,48.8955005],[2.4653613,48.8956307]]]]},"properties":{"code_section":"93053000AB","code_commune":"93053","section_courte":"AB"}},{"type":"Feature","geometry":{"type":"MultiPolygon","coordinates":[[[[2.471151,48.8915354],[2.4723578,48.8914208],[2.4725139,48.892063],[2.4727673,48.8927799],[2.4730149,48.893109],[2.4714429,48.8939259],[2.4709477,48.8940802],[2.4706377,48.8941079],[2.4707412,48.893264],[2.4695649,48.8939352],[2.4684851,48.8932682],[2.4672954,48.892104],[2.4675188,48.892108],[2.4686891,48.8923196],[2.4687892,48.8917021],[2.4710426,48.8914866],[2.471151,48.8915354]]]]},"properties":{"code_section":"93053000AC","code_commune":"93053","section_courte":"AC"}},{"type":"Feature","geometry":{"type":"MultiPolygon","coordinates":[[[[2.4679239,48.889229],[2.4713334,48.8890192],[2.4713177,48.8891127],[2.4718997,48.8900645],[2.4721551,48.8907272],[2.4723578,48.8914208],[2.4711389,48.8915364],[2.4710426,48.8914866],[2.4687892,48.8917021],[2.4682573,48.891372],[2.4684283,48.8912371],[2.4674358,48.8907072],[2.4673338,48.890561],[2.4673059,48.8904534],[2.46734,48.89032],[2.4675162,48.8901086],[2.4674068,48.8900166],[2.4673796,48.8899144],[2.4674307,48.8899068],[2.4672327,48.8893783],[2.4679239,48.889229]]]]},"properties":{"code_section":"93053000AD","code_commune":"93053","section_courte":"AD"}},{"type":"Feature","geometry":{"type":"MultiPolygon","coordinates":[[[[2.4674157,48.8902139],[2.4673059,48.8904534],[2.4674195,48.8906951],[2.4684283,48.8912371],[2.4682573,48.891372],[2.4687892,48.8917021],[2.4686891,48.8923196],[2.4675188,48.892108],[2.4657344,48.892075],[2.4653145,48.8919527],[2.463924,48.8912166],[2.4639246,48.8910674],[2.4636339,48.8905309],[2.4636825,48.8905193],[2.4632068,48.8897829],[2.4640526,48.8897423],[2.4646359,48.8896595],[2.4654296,48.889483],[2.4655739,48.8897066],[2.4672327,48.8893783],[2.4674307,48.8899068],[2.4673796,48.8899144],[2.4674068,48.8900166],[2.4675162,48.8901086],[2.4674157,48.8902139]]]]},"properties":{"code_section":"93053000AE","code_commune":"93053","section_courte":"AE"}},{"type":"Feature","geometry":{"type":"MultiPolygon","coordinates":[[[[2.4632692,48.8898774],[2.4636825,48.8905193],[2.4636339,48.8905309],[2.4639246,48.8910674],[2.463924,48.8912166],[2.4647904,48.8916816],[2.461047,48.8931923],[2.4593196,48.8905013],[2.4600334,48.8901124],[2.4610818,48.8898942],[2.4632068,48.8897829],[2.4632692,48.8898774]]]]},"properties":{"code_section":"93053000AF","code_commune":"93053","section_courte":"AF"}},{"type":"Feature","geometry":{"type":"MultiPolygon","coordinates":[[[[2.4586262,48.8941804],[2.4582498,48.8943376],[2.4557499,48.892439],[2.4559964,48.8923377],[2.4576865,48.8914327],[2.4593196,48.8905013],[2.461047,48.8931923],[2.4586262,48.8941804]]]]},"properties":{"code_section":"93053000AG","code_commune":"93053","section_courte":"AG"}},{"type":"Feature","geometry":{"type":"MultiPolygon","coordinates":[[[[2.4600494,48.890107],[2.4576865,48.8914327],[2.4563292,48.8903742],[2.4571807,48.8897468],[2.4580777,48.8893029],[2.4569169,48.8881294],[2.4584224,48.8880172],[2.4590916,48.8882086],[2.4599658,48.8882357],[2.4610818,48.8898942],[2.4600494,48.890107]]]]},"properties":{"code_section":"93053000AH","code_commune":"93053","section_courte":"AH"}},{"type":"Feature","geometry":{"type":"MultiPolygon","coordinates":[[[[2.4614036,48.8898751],[2.4610818,48.8898942],[2.4599658,48.8882357],[2.4610891,48.8882046],[2.4642384,48.8875886],[2.4649645,48.8886577],[2.4654296,48.889483],[2.4646359,48.8896595],[2.4640526,48.8897423],[2.4614036,48.8898751]]]]},"properties":{"code_section":"93053000AI","code_commune":"93053","section_courte":"AI"}},{"type":"Feature","geometry":{"type":"MultiPolygon","coordinates":[[[[2.4702088,48.8869105],[2.4705765,48.8869987],[2.4710221,48.8879416],[2.4712261,48.8885576],[2.4713255,48.8885471],[2.4713003,48.8887646],[2.4713334,48.8890192],[2.4679239,48.889229],[2.4655739,48.8897066],[2.4649645,48.8886577],[2.4642384,48.8875886],[2.4665617,48.8872286],[2.4701456,48.8868517],[2.4702088,48.8869105]]]]},"properties":{"code_section":"93053000AJ","code_commune":"93053","section_courte":"AJ"}},{"type":"Feature","geometry":{"type":"MultiPolygon","coordinates":[[[[2.475373,48.8863869],[2.4759562,48.8873642],[2.4766987,48.888769],[2.4762943,48.8887675],[2.4713364,48.8890197],[2.4713003,48.8887646],[2.4713255,48.8885471],[2.4712261,48.8885576],[2.4710221,48.8879416],[2.4705765,48.8869987],[2.4706492,48.8869244],[2.4709738,48.8868956],[2.4709468,48.8867812],[2.4736628,48.8865485],[2.4753337,48.8863216],[2.475373,48.8863869]]]]},"properties":{"code_section":"93053000AK","code_commune":"93053","section_courte":"AK"}},{"type":"Feature","geometry":{"type":"MultiPolygon","coordinates":[[[[2.4664393,48.8867529],[2.4664034,48.8864962],[2.4663392,48.8865119],[2.4662222,48.8859987],[2.4661745,48.8860094],[2.4661421,48.8857476],[2.4663064,48.8857377],[2.466155,48.8845704],[2.4656938,48.8844703],[2.4656886,48.884419],[2.4686531,48.8835153],[2.4692268,48.8841758],[2.4694706,48.8845643],[2.4698539,48.8854527],[2.4703368,48.8868292],[2.4665617,48.8872286],[2.466493,48.8871444],[2.4664393,48.8867529]]]]},"properties":{"code_section":"93053000AL","code_commune":"93053","section_courte":"AL"}},{"type":"Feature","geometry":{"type":"MultiPolygon","coordinates":[[[[2.4639911,48.8829836],[2.4629144,48.8822164],[2.4632549,48.8820772],[2.4636459,48.8819638],[2.4651745,48.8816578],[2.4665738,48.8813306],[2.4665839,48.8813504],[2.4666252,48.8813374],[2.466672,48.8814901],[2.4670071,48.8819543],[2.4677508,48.8825891],[2.4686531,48.8835153],[2.4656886,48.884419],[2.4648209,48.8834504],[2.464672,48.8835158],[2.4639911,48.8829836]]]]},"properties":{"code_section":"93053000AM","code_commune":"93053","section_courte":"AM"}},{"type":"Feature","geometry":{"type":"MultiPolygon","coordinates":[[[[2.4633358,48.882515],[2.464672,48.8835158],[2.4648209,48.8834504],[2.4656886,48.884419],[2.4634319,48.8851031],[2.4619134,48.8854812],[2.4608563,48.8846168],[2.4601752,48.8842651],[2.4597501,48.8841787],[2.4601238,48.8837029],[2.4602961,48.8837003],[2.4606634,48.8837572],[2.4609231,48.883649],[2.462237,48.8825195],[2.4628105,48.8822306],[2.4629144,48.8822164],[2.4633358,48.882515]]]]},"properties":{"code_section":"93053000AN","code_commune":"93053","section_courte":"AN"}},{"type":"Feature","geometry":{"type":"MultiPolygon","coordinates":[[[[2.466409,48.8865324],[2.466493,48.8871444],[2.4665617,48.8872286],[2.4635859,48.8877043],[2.4624584,48.8860371],[2.4619134,48.8854812],[2.4634319,48.8851031],[2.4656886,48.884419],[2.4656938,48.8844703],[2.466155,48.8845704],[2.4663064,48.8857377],[2.4661421,48.8857476],[2.4661745,48.8860094],[2.4662222,48.8859987],[2.4663392,48.8865119],[2.4664034,48.8864962],[2.466409,48.8865324]]]]},"properties":{"code_section":"93053000AO","code_commune":"93053","section_courte":"AO"}},{"type":"Feature","geometry":{"type":"MultiPolygon","coordinates":[[[[2.4590916,48.8882086],[2.4584224,48.8880172],[2.4588054,48.8877664],[2.4605568,48.886101],[2.4609383,48.8858371],[2.4619134,48.8854812],[2.4624584,48.8860371],[2.4635859,48.8877043],[2.4610891,48.8882046],[2.4599658,48.8882357],[2.4590916,48.8882086]]]]},"properties":{"code_section":"93053000AP","code_commune":"93053","section_courte":"AP"}},{"type":"Feature","geometry":{"type":"MultiPolygon","coordinates":[[[[2.4619134,48.8854812],[2.4609383,48.8858371],[2.4605568,48.886101],[2.4588054,48.8877664],[2.4584224,48.8880172],[2.4569169,48.8881294],[2.4558518,48.8870689],[2.4562842,48.8868431],[2.4572797,48.885891],[2.4591056,48.8840503],[2.4601752,48.8842651],[2.4608856,48.8846369],[2.4619134,48.8854812]]]]},"properties":{"code_section":"93053000AQ","code_commune":"93053","section_courte":"AQ"}},{"type":"Feature","geometry":{"type":"MultiPolygon","coordinates":[[[[2.4553054,48.8898596],[2.4550042,48.8900652],[2.453714,48.8907331],[2.4529053,48.8901842],[2.4528382,48.8896664],[2.4528406,48.8893195],[2.4531976,48.8885342],[2.4537953,48.8882915],[2.4541549,48.8880983],[2.4546839,48.8876525],[2.4558518,48.8870689],[2.4580777,48.8893029],[2.4571807,48.8897468],[2.4563292,48.8903742],[2.4554592,48.8897192],[2.4553054,48.8898596]]]]},"properties":{"code_section":"93053000AR","code_commune":"93053","section_courte":"AR"}},{"type":"Feature","geometry":{"type":"MultiPolygon","coordinates":[[[[2.4552182,48.8849841],[2.4553185,48.8849572],[2.4553933,48.8856348],[2.456383,48.8856887],[2.4572797,48.885891],[2.4562765,48.8868487],[2.4546839,48.8876525],[2.4541549,48.8880983],[2.4537953,48.8882915],[2.4531976,48.8885342],[2.4528606,48.8878612],[2.452635,48.8876821],[2.4521982,48.8875145],[2.4508637,48.8872224],[2.4552182,48.8849841]]]]},"properties":{"code_section":"93053000AS","code_commune":"93053","section_courte":"AS"}},{"type":"Feature","geometry":{"type":"MultiPolygon","coordinates":[[[[2.4518032,48.8856441],[2.4521733,48.8857569],[2.4521931,48.8850438],[2.4525331,48.8849296],[2.4529354,48.8848495],[2.4532153,48.8848457],[2.4533564,48.8847895],[2.4542859,48.8846626],[2.4552736,48.8846156],[2.4553139,48.8849604],[2.4552296,48.8849691],[2.4508637,48.8872224],[2.4485731,48.886734],[2.4487649,48.8865391],[2.4484777,48.8864429],[2.4492941,48.8855906],[2.4499069,48.8858451],[2.4500064,48.8857181],[2.450277,48.8860677],[2.4504895,48.8860055],[2.4508249,48.8856647],[2.4513096,48.885454],[2.4514764,48.8854785],[2.4518032,48.8856441]]]]},"properties":{"code_section":"93053000AT","code_commune":"93053","section_courte":"AT"}},{"type":"Feature","geometry":{"type":"MultiPolygon","coordinates":[[[[2.4576453,48.8833929],[2.4576092,48.8842921],[2.4581327,48.8845224],[2.4581977,48.8844697],[2.4585205,48.8846351],[2.4572797,48.885891],[2.456383,48.8856887],[2.4553933,48.8856348],[2.4552736,48.8846156],[2.4542859,48.8846626],[2.4533564,48.8847895],[2.4536195,48.8846891],[2.4533249,48.8845023],[2.4529971,48.8843629],[2.4541454,48.8843421],[2.454075,48.8836564],[2.4539135,48.8832235],[2.4537231,48.8832099],[2.4536634,48.8831389],[2.4549456,48.8830359],[2.4554642,48.883023],[2.4566108,48.8831833],[2.4566603,48.8829903],[2.4576453,48.8833929]]]]},"properties":{"code_section":"93053000AU","code_commune":"93053","section_courte":"AU"}},{"type":"Feature","geometry":{"type":"MultiPolygon","coordinates":[[[[2.454745,48.8830528],[2.4536634,48.8831389],[2.4532681,48.8826876],[2.4530325,48.8823388],[2.4524596,48.8817911],[2.4521717,48.8813153],[2.4517647,48.8811658],[2.4502915,48.8807776],[2.4500581,48.8806453],[2.4499158,48.8804793],[2.4505178,48.8803967],[2.4512133,48.8799683],[2.4516598,48.8800175],[2.4523124,48.8801968],[2.4524255,48.8801976],[2.4523753,48.8805031],[2.4529573,48.8805658],[2.4529721,48.8805079],[2.4531915,48.8806306],[2.4554644,48.8808508],[2.4554817,48.8807655],[2.4557574,48.880788],[2.4554093,48.8816873],[2.4552944,48.8823068],[2.4553813,48.8825302],[2.4554642,48.883023],[2.454745,48.8830528]]]]},"properties":{"code_section":"93053000AV","code_commune":"93053","section_courte":"AV"}},{"type":"Feature","geometry":{"type":"MultiPolygon","coordinates":[[[[2.4587551,48.8804693],[2.4592516,48.8806324],[2.4590324,48.880998],[2.4590627,48.8810081],[2.4588428,48.881424],[2.4587918,48.8814508],[2.4584878,48.8812875],[2.4584346,48.8812979],[2.4581477,48.8818825],[2.4576394,48.8833899],[2.4566603,48.8829903],[2.4566108,48.8831833],[2.4554642,48.883023],[2.4553813,48.8825302],[2.4552944,48.8823068],[2.4554093,48.8816873],[2.4557574,48.880788],[2.4554817,48.8807655],[2.455686,48.8798965],[2.4560963,48.8801341],[2.4564287,48.8802254],[2.4577019,48.8803163],[2.4587551,48.8804693]]]]},"properties":{"code_section":"93053000AX","code_commune":"93053","section_courte":"AX"}},{"type":"Feature","geometry":{"type":"MultiPolygon","coordinates":[[[[2.4576394,48.8833899],[2.4581477,48.8818825],[2.4584346,48.8812979],[2.4584878,48.8812875],[2.4587918,48.8814508],[2.4588428,48.881424],[2.4590627,48.8810081],[2.4590324,48.880998],[2.4592516,48.8806324],[2.459553,48.8807349],[2.4609062,48.8813435],[2.4612757,48.8814209],[2.4618918,48.8813905],[2.4629144,48.8822164],[2.4628105,48.8822306],[2.462237,48.8825195],[2.4609231,48.883649],[2.4606634,48.8837572],[2.4602961,48.8837003],[2.4601238,48.8837029],[2.4597501,48.8841787],[2.4591056,48.8840503],[2.4585205,48.8846351],[2.4581977,48.8844697],[2.4581327,48.8845224],[2.4576092,48.8842921],[2.4576394,48.8833899]]]]},"properties":{"code_section":"93053000AY","code_commune":"93053","section_courte":"AY"}},{"type":"Feature","geometry":{"type":"MultiPolygon","coordinates":[[[[2.4618844,48.8813926],[2.4612757,48.8814209],[2.4609062,48.8813435],[2.4610741,48.8806658],[2.4608801,48.8801442],[2.4609191,48.8799504],[2.4619385,48.8799619],[2.4630307,48.8799108],[2.4629428,48.8796126],[2.4639376,48.8795504],[2.4651596,48.8795169],[2.4657776,48.8793278],[2.4658533,48.8795686],[2.4659387,48.8795559],[2.4665338,48.8802374],[2.4666801,48.8804569],[2.4667024,48.8807152],[2.4666198,48.8813309],[2.4665839,48.8813504],[2.4665738,48.8813306],[2.4651745,48.8816578],[2.4636459,48.8819638],[2.4632549,48.8820772],[2.4629199,48.8822164],[2.4618844,48.8813926]]]]},"properties":{"code_section":"93053000AZ","code_commune":"93053","section_courte":"AZ"}},{"type":"Feature","geometry":{"type":"MultiPolygon","coordinates":[[[[2.4603055,48.8784256],[2.4613803,48.8783449],[2.4628698,48.8781789],[2.4630795,48.8784799],[2.4642147,48.8782181],[2.4648898,48.8780123],[2.4654031,48.8787921],[2.4656697,48.8790379],[2.4657776,48.8793278],[2.4651596,48.8795169],[2.4639376,48.8795504],[2.4629426,48.8796126],[2.4630307,48.8799108],[2.4619385,48.8799619],[2.4609191,48.8799504],[2.4601406,48.8797703],[2.46014,48.8795364],[2.4598496,48.8787369],[2.4600306,48.8785441],[2.4600038,48.8784446],[2.4603055,48.8784256]]]]},"properties":{"code_section":"93053000BC","code_commune":"93053","section_courte":"BC"}},{"type":"Feature","geometry":{"type":"MultiPolygon","coordinates":[[[[2.4559009,48.8790274],[2.4557113,48.8789262],[2.4556343,48.878432],[2.4591482,48.878759],[2.4592829,48.8784755],[2.4599877,48.8783848],[2.4600306,48.8785441],[2.4598496,48.8787369],[2.46014,48.8795364],[2.4601406,48.8797703],[2.4609191,48.8799504],[2.4608801,48.8801442],[2.4610741,48.8806658],[2.4609062,48.8813435],[2.459553,48.8807349],[2.4587551,48.8804693],[2.4575712,48.8803026],[2.4565033,48.8802355],[2.4560963,48.8801341],[2.455686,48.8798965],[2.4557872,48.8795399],[2.4558558,48.8794629],[2.4559009,48.8790274]]]]},"properties":{"code_section":"93053000BD","code_commune":"93053","section_courte":"BD"}},{"type":"Feature","geometry":{"type":"MultiPolygon","coordinates":[[[[2.4514012,48.8799901],[2.4512133,48.8799683],[2.4505178,48.8803967],[2.4499158,48.8804793],[2.4498564,48.880247],[2.4500018,48.8800318],[2.4502705,48.8797904],[2.4503053,48.8795942],[2.4501308,48.8794282],[2.449752,48.8793224],[2.4495584,48.8792326],[2.4494506,48.8791393],[2.4493611,48.8789519],[2.4493866,48.8786756],[2.4549626,48.8783051],[2.4553453,48.8784072],[2.4556343,48.878432],[2.4557113,48.8789262],[2.4559235,48.8790392],[2.4558558,48.8794629],[2.4557872,48.8795399],[2.455686,48.8798965],[2.4554644,48.8808508],[2.4531915,48.8806306],[2.4529721,48.8805079],[2.4529573,48.8805658],[2.4523753,48.8805031],[2.4524255,48.8801976],[2.4523124,48.8801968],[2.4518607,48.8800573],[2.4514012,48.8799901]]]]},"properties":{"code_section":"93053000BE","code_commune":"93053","section_courte":"BE"}}]}