{"type":"FeatureCollection","features":[{"type":"Feature","geometry":{"type":"MultiPolygon","coordinates":[[[[2.3992096,48.8864291],[2.3992111,48.8858977],[2.4001045,48.8858204],[2.40149,48.8882906],[2.4016676,48.8896412],[2.3989542,48.8895438],[2.3991925,48.8882242],[2.3992096,48.8864291]]]]},"properties":{"code_section":"930610000A","code_commune":"93061","section_courte":"A"}},{"type":"Feature","geometry":{"type":"MultiPolygon","coordinates":[[[[2.4004171,48.8847956],[2.4036247,48.8845018],[2.403866,48.8856342],[2.4040146,48.8870343],[2.4036819,48.8883864],[2.4015382,48.8886247],[2.40149,48.8882906],[2.4001045,48.8858204],[2.4005918,48.8857779],[2.4004171,48.8847956]]]]},"properties":{"code_section":"930610000B","code_commune":"93061","section_courte":"B"}},{"type":"Feature","geometry":{"type":"MultiPolygon","coordinates":[[[[2.407174,48.8862716],[2.4067497,48.8883292],[2.4060199,48.8882864],[2.4036819,48.8883864],[2.4040146,48.8870343],[2.403866,48.8856342],[2.4035455,48.8841799],[2.4059209,48.8842823],[2.4078534,48.884559],[2.407174,48.8862716]]]]},"properties":{"code_section":"930610000C","code_commune":"93061","section_courte":"C"}},{"type":"Feature","geometry":{"type":"MultiPolygon","coordinates":[[[[2.4101447,48.8872932],[2.4099483,48.8891297],[2.4093009,48.8890562],[2.4091486,48.8887456],[2.407384,48.8883771],[2.4067497,48.8883292],[2.407174,48.8862716],[2.4078534,48.884559],[2.4102424,48.8851717],[2.4100106,48.8861113],[2.4099805,48.8866979],[2.4100088,48.8872082],[2.4101525,48.8872259],[2.4101447,48.8872932]]]]},"properties":{"code_section":"930610000D","code_commune":"93061","section_courte":"D"}},{"type":"Feature","geometry":{"type":"MultiPolygon","coordinates":[[[[2.4108306,48.8847709],[2.4105921,48.8846836],[2.4102424,48.8851717],[2.4078534,48.884559],[2.4086086,48.8825213],[2.4085167,48.8824732],[2.4083601,48.8809016],[2.4089448,48.881021],[2.4090797,48.8810264],[2.4094393,48.8809217],[2.4098485,48.8809801],[2.4100953,48.8811624],[2.4102817,48.8816513],[2.4110837,48.8814386],[2.4111933,48.8814313],[2.4111221,48.8817617],[2.411225,48.8826054],[2.4115289,48.8833145],[2.4115534,48.88364],[2.4111987,48.8848549],[2.4108306,48.8847709]]]]},"properties":{"code_section":"930610000E","code_commune":"93061","section_courte":"E"}},{"type":"Feature","geometry":{"type":"MultiPolygon","coordinates":[[[[2.4059418,48.8842842],[2.4035455,48.8841799],[2.4031874,48.8827293],[2.4039701,48.8827841],[2.404262,48.8826869],[2.4042256,48.8824368],[2.4057113,48.8820441],[2.4059367,48.882059],[2.4062484,48.88201],[2.4065337,48.8819094],[2.4067727,48.8817004],[2.4068547,48.8818004],[2.4068115,48.8823605],[2.4068938,48.8827506],[2.4079596,48.8827165],[2.4082556,48.8829844],[2.4082967,48.8831238],[2.4083796,48.8831456],[2.4078534,48.884559],[2.4059418,48.8842842]]]]},"properties":{"code_section":"930610000F","code_commune":"93061","section_courte":"F"}},{"type":"Feature","geometry":{"type":"MultiPolygon","coordinates":[[[[2.4004355,48.8835356],[2.4014983,48.8826174],[2.4026092,48.8821262],[2.4031874,48.8827293],[2.4036247,48.8845018],[2.4004113,48.8847962],[2.4005918,48.8857779],[2.3992111,48.8858977],[2.3992144,48.8854169],[2.4001173,48.8838087],[2.4004355,48.8835356]]]]},"properties":{"code_section":"930610000G","code_commune":"93061","section_courte":"G"}},{"type":"Feature","geometry":{"type":"MultiPolygon","coordinates":[[[[2.4030506,48.8819291],[2.4046294,48.8812271],[2.4083439,48.8804697],[2.4085167,48.8824732],[2.4086086,48.8825213],[2.4083796,48.8831456],[2.4082967,48.8831238],[2.4082556,48.8829844],[2.4079596,48.8827165],[2.4068938,48.8827506],[2.4068115,48.8823605],[2.4068547,48.8818004],[2.4067727,48.8817004],[2.4065337,48.8819094],[2.4062484,48.88201],[2.4059367,48.882059],[2.4057113,48.8820441],[2.4042256,48.8824368],[2.404262,48.8826869],[2.4039701,48.8827841],[2.4031874,48.8827293],[2.4026092,48.8821262],[2.4030506,48.8819291]]]]},"properties":{"code_section":"930610000H","code_commune":"93061","section_courte":"H"}},{"type":"Feature","geometry":{"type":"MultiPolygon","coordinates":[[[[2.4093492,48.8802654],[2.4108372,48.8784237],[2.4119829,48.8787547],[2.4119076,48.8802208],[2.4111933,48.8814313],[2.4110837,48.8814386],[2.4102817,48.8816513],[2.4100953,48.8811624],[2.4098485,48.8809801],[2.4094393,48.8809217],[2.4090797,48.8810264],[2.4089448,48.881021],[2.4083601,48.8809016],[2.4083439,48.8804697],[2.4093492,48.8802654]]]]},"properties":{"code_section":"930610000I","code_commune":"93061","section_courte":"I"}}]}