{"type":"FeatureCollection","features":[{"type":"Feature","geometry":{"type":"MultiPolygon","coordinates":[[[[2.5206798,48.9033312],[2.519005,48.9032484],[2.5181821,48.9030422],[2.5175533,48.902998],[2.5164231,48.9028627],[2.516135,48.9029624],[2.516117,48.9029953],[2.5158983,48.9029526],[2.5159064,48.9029227],[2.514608,48.902408],[2.5138986,48.9024144],[2.5130891,48.9021183],[2.5130406,48.9021574],[2.5127104,48.9019547],[2.5126841,48.9019706],[2.5121552,48.9017372],[2.5119152,48.9014842],[2.5110774,48.9018068],[2.5085073,48.8991782],[2.5094186,48.8989897],[2.5103427,48.8989171],[2.5111494,48.8986572],[2.5118612,48.8981024],[2.5122568,48.8979138],[2.5139989,48.8975956],[2.5146165,48.897137],[2.5153343,48.8968998],[2.5211125,48.9033754],[2.5209502,48.9034274],[2.5209692,48.9034501],[2.5208468,48.9035009],[2.5206798,48.9033312]]]]},"properties":{"code_section":"93062000AB","code_commune":"93062","section_courte":"AB"}},{"type":"Feature","geometry":{"type":"MultiPolygon","coordinates":[[[[2.528183,48.9035887],[2.527677,48.9037321],[2.5272107,48.9036949],[2.5264167,48.9037843],[2.5259409,48.9038914],[2.5219453,48.9035112],[2.5214092,48.9034292],[2.5213035,48.9033123],[2.5211125,48.9033754],[2.5192588,48.9012981],[2.526709,48.8984172],[2.5268159,48.8984748],[2.5267744,48.8989523],[2.5270342,48.8994423],[2.527614,48.8999289],[2.5283741,48.9002368],[2.5293076,48.9003922],[2.5305479,48.9005539],[2.5298188,48.9032036],[2.5289869,48.903364],[2.528183,48.9035887]]]]},"properties":{"code_section":"93062000AC","code_commune":"93062","section_courte":"AC"}},{"type":"Feature","geometry":{"type":"MultiPolygon","coordinates":[[[[2.5309282,48.8991868],[2.5305479,48.9005539],[2.5293076,48.9003922],[2.5283741,48.9002368],[2.527614,48.8999289],[2.5270342,48.8994423],[2.5267744,48.8989523],[2.5268159,48.8984748],[2.526709,48.8984172],[2.523636,48.8996035],[2.5235163,48.8992502],[2.523095,48.8985304],[2.5229014,48.8979627],[2.5230972,48.8964471],[2.5227396,48.8956436],[2.5235316,48.8955699],[2.5245296,48.8955198],[2.5254069,48.8955664],[2.5259205,48.8956452],[2.5268438,48.8958345],[2.5315228,48.8969918],[2.5309282,48.8991868]]]]},"properties":{"code_section":"93062000AD","code_commune":"93062","section_courte":"AD"}},{"type":"Feature","geometry":{"type":"MultiPolygon","coordinates":[[[[2.5299874,48.8966069],[2.5266865,48.8957979],[2.5254069,48.8955664],[2.5244734,48.8955206],[2.5227396,48.8956436],[2.5223179,48.8950853],[2.5217865,48.8946257],[2.5198368,48.8933686],[2.5209011,48.8929638],[2.5192807,48.892489],[2.5197514,48.8922907],[2.5209833,48.891471],[2.5228747,48.8931619],[2.523619,48.8933666],[2.5241271,48.8932263],[2.5260905,48.8918225],[2.5272087,48.8917204],[2.5282419,48.8920793],[2.5304472,48.8922474],[2.5317292,48.892878],[2.5325814,48.8932474],[2.5315228,48.8969918],[2.5299874,48.8966069]]]]},"properties":{"code_section":"93062000AE","code_commune":"93062","section_courte":"AE"}},{"type":"Feature","geometry":{"type":"MultiPolygon","coordinates":[[[[2.5192588,48.9012981],[2.513514,48.8948528],[2.515235,48.8946544],[2.5158698,48.8945055],[2.5168293,48.8944271],[2.5173727,48.8942835],[2.5198368,48.8933686],[2.5217865,48.8946257],[2.5223179,48.8950853],[2.5227396,48.8956436],[2.5230972,48.8964471],[2.5229014,48.8979627],[2.523095,48.8985304],[2.5235163,48.8992502],[2.523636,48.8996035],[2.5192588,48.9012981]]]]},"properties":{"code_section":"93062000AH","code_commune":"93062","section_courte":"AH"}},{"type":"Feature","geometry":{"type":"MultiPolygon","coordinates":[[[[2.5185122,48.890939],[2.519226,48.8909159],[2.5196648,48.8908107],[2.5205773,48.8917352],[2.5197514,48.8922907],[2.5192807,48.892489],[2.5209011,48.8929638],[2.5173727,48.8942835],[2.5168293,48.8944271],[2.5158698,48.8945055],[2.515235,48.8946544],[2.513514,48.8948528],[2.512006,48.8903683],[2.5115746,48.8895031],[2.5128478,48.8890065],[2.5136911,48.8887967],[2.5149513,48.8881895],[2.5161347,48.8876869],[2.5165058,48.8882597],[2.5171776,48.8895874],[2.5181543,48.8911349],[2.5185122,48.890939]]]]},"properties":{"code_section":"93062000AI","code_commune":"93062","section_courte":"AI"}},{"type":"Feature","geometry":{"type":"MultiPolygon","coordinates":[[[[2.5100055,48.8919042],[2.5102417,48.8916483],[2.5101858,48.8915541],[2.5104329,48.8914405],[2.5113744,48.8904027],[2.5113498,48.8900649],[2.5112604,48.8898239],[2.5114707,48.889732],[2.5116688,48.8896946],[2.512006,48.8903683],[2.513514,48.8948528],[2.5153343,48.8968998],[2.5146165,48.897137],[2.5139989,48.8975956],[2.5122568,48.8979138],[2.5118612,48.8981024],[2.5111494,48.8986572],[2.5103427,48.8989171],[2.5094186,48.8989897],[2.5085073,48.8991782],[2.5080686,48.8987151],[2.5081233,48.8986836],[2.5078653,48.8983748],[2.5078556,48.8982184],[2.5079147,48.8979993],[2.5077619,48.8967462],[2.507888,48.896728],[2.5077431,48.8965731],[2.5076519,48.8957843],[2.5066,48.892719],[2.5065641,48.892712],[2.50976,48.892161],[2.5100055,48.8919042]]]]},"properties":{"code_section":"93062000AK","code_commune":"93062","section_courte":"AK"}}]}