{"type":"FeatureCollection","features":[{"type":"Feature","geometry":{"type":"MultiPolygon","coordinates":[[[[2.4380126,48.89777],[2.4365259,48.897501],[2.4365601,48.8974044],[2.4390625,48.8966025],[2.439821,48.8964225],[2.4404037,48.8963216],[2.4403871,48.8962823],[2.4405333,48.8962551],[2.4417242,48.8984393],[2.4380126,48.89777]]]]},"properties":{"code_section":"930630000A","code_commune":"93063","section_courte":"A"}},{"type":"Feature","geometry":{"type":"MultiPolygon","coordinates":[[[[2.4367287,48.8973517],[2.4363631,48.8974693],[2.435558,48.8973245],[2.4368234,48.8959379],[2.4381523,48.8952388],[2.4395781,48.8945582],[2.4405333,48.8962551],[2.4403871,48.8962823],[2.4404037,48.8963216],[2.439821,48.8964225],[2.4390625,48.8966025],[2.4367287,48.8973517]]]]},"properties":{"code_section":"930630000B","code_commune":"93063","section_courte":"B"}},{"type":"Feature","geometry":{"type":"MultiPolygon","coordinates":[[[[2.4348326,48.8938985],[2.4347955,48.8938166],[2.4389355,48.8930236],[2.4395781,48.8945582],[2.4381523,48.8952388],[2.4371457,48.8957602],[2.4367671,48.8959893],[2.4367045,48.8959665],[2.436066,48.8943092],[2.4351581,48.8944951],[2.4348326,48.8938985]]]]},"properties":{"code_section":"930630000C","code_commune":"93063","section_courte":"C"}},{"type":"Feature","geometry":{"type":"MultiPolygon","coordinates":[[[[2.4367671,48.8959893],[2.435558,48.8973245],[2.4325815,48.8967872],[2.43273,48.8954263],[2.4329083,48.89542],[2.4327631,48.8951397],[2.4325556,48.8943676],[2.4323944,48.8943016],[2.4347955,48.8938166],[2.4351581,48.8944951],[2.436066,48.8943092],[2.4367045,48.8959665],[2.4367671,48.8959893]]]]},"properties":{"code_section":"930630000D","code_commune":"93063","section_courte":"D"}},{"type":"Feature","geometry":{"type":"MultiPolygon","coordinates":[[[[2.4276243,48.8957387],[2.4274567,48.8952535],[2.4323944,48.8943016],[2.4325437,48.8943439],[2.4327631,48.8951397],[2.4329083,48.89542],[2.43273,48.8954263],[2.4325815,48.8967872],[2.4276756,48.8958932],[2.4276243,48.8957387]]]]},"properties":{"code_section":"930630000E","code_commune":"93063","section_courte":"E"}},{"type":"Feature","geometry":{"type":"MultiPolygon","coordinates":[[[[2.4266199,48.8929813],[2.4264307,48.8920911],[2.4274099,48.8919338],[2.4283727,48.8919199],[2.4287932,48.8919748],[2.4295994,48.8918347],[2.4300395,48.8931954],[2.4297849,48.8932434],[2.4301244,48.8940349],[2.4300557,48.8940479],[2.4300763,48.8940963],[2.4304931,48.8940235],[2.4305402,48.8946617],[2.4274567,48.8952535],[2.4266962,48.8929741],[2.4266199,48.8929813]]]]},"properties":{"code_section":"930630000F","code_commune":"93063","section_courte":"F"}},{"type":"Feature","geometry":{"type":"MultiPolygon","coordinates":[[[[2.4295994,48.8918347],[2.4313511,48.8915415],[2.4317104,48.891434],[2.4326463,48.8912398],[2.4345919,48.8938707],[2.4305402,48.8946617],[2.4304931,48.8940235],[2.4300763,48.8940963],[2.4300557,48.8940479],[2.4301244,48.8940349],[2.4297849,48.8932434],[2.4300395,48.8931954],[2.4295994,48.8918347]]]]},"properties":{"code_section":"930630000G","code_commune":"93063","section_courte":"G"}},{"type":"Feature","geometry":{"type":"MultiPolygon","coordinates":[[[[2.4374352,48.8928002],[2.4374128,48.8933213],[2.4345919,48.8938707],[2.4326463,48.8912398],[2.4342233,48.8904835],[2.4358046,48.8899259],[2.4363755,48.8896702],[2.4369994,48.8907485],[2.4373118,48.8913799],[2.4376096,48.8922822],[2.4374352,48.8928002]]]]},"properties":{"code_section":"930630000H","code_commune":"93063","section_courte":"H"}},{"type":"Feature","geometry":{"type":"MultiPolygon","coordinates":[[[[2.4385386,48.8920999],[2.4376096,48.8922822],[2.4373118,48.8913799],[2.4369994,48.8907485],[2.4363755,48.8896702],[2.4363338,48.8894688],[2.4364409,48.888844],[2.4365793,48.8886907],[2.4383326,48.8882362],[2.4389176,48.8897352],[2.4389577,48.8900786],[2.4382155,48.8912558],[2.4385386,48.8920999]]]]},"properties":{"code_section":"930630000I","code_commune":"93063","section_courte":"I"}},{"type":"Feature","geometry":{"type":"MultiPolygon","coordinates":[[[[2.4399824,48.8929456],[2.4390098,48.8932011],[2.4389355,48.8930236],[2.4374128,48.8933213],[2.4374352,48.8928002],[2.4376096,48.8922822],[2.4385386,48.8920999],[2.4382155,48.8912558],[2.4389577,48.8900786],[2.4403228,48.8902827],[2.4415279,48.8903654],[2.4427597,48.8905613],[2.4428758,48.8907564],[2.4422475,48.8909997],[2.4424642,48.8912912],[2.4415909,48.8916434],[2.4421081,48.8922708],[2.4406423,48.8927719],[2.4399824,48.8929456]]]]},"properties":{"code_section":"930630000J","code_commune":"93063","section_courte":"J"}},{"type":"Feature","geometry":{"type":"MultiPolygon","coordinates":[[[[2.4389176,48.8897352],[2.4383326,48.8882362],[2.438536,48.8881792],[2.4386802,48.8882733],[2.4432153,48.8882705],[2.4441981,48.8878471],[2.4448251,48.888413],[2.4448155,48.888593],[2.4449702,48.8887265],[2.4449037,48.888796],[2.4444953,48.8890059],[2.4444314,48.8907632],[2.4434483,48.8906599],[2.4415279,48.8903654],[2.4403228,48.8902827],[2.4389577,48.8900786],[2.4389176,48.8897352]]]]},"properties":{"code_section":"930630000K","code_commune":"93063","section_courte":"K"}},{"type":"Feature","geometry":{"type":"MultiPolygon","coordinates":[[[[2.4380993,48.8877222],[2.4388953,48.8872608],[2.4388519,48.8872286],[2.4389744,48.8871344],[2.4388215,48.8869281],[2.4387233,48.8866781],[2.4394797,48.8860938],[2.4398262,48.8861835],[2.4405613,48.8862662],[2.4417083,48.8856896],[2.4423456,48.8861302],[2.4428792,48.8867959],[2.4431303,48.8870543],[2.4436389,48.8874592],[2.4438337,48.8877326],[2.4440185,48.8879116],[2.4432153,48.8882705],[2.4386802,48.8882733],[2.438536,48.8881792],[2.4383326,48.8882362],[2.4380561,48.8877481],[2.4380993,48.8877222]]]]},"properties":{"code_section":"930630000L","code_commune":"93063","section_courte":"L"}},{"type":"Feature","geometry":{"type":"MultiPolygon","coordinates":[[[[2.4385674,48.8874626],[2.4380561,48.8877481],[2.4377979,48.8873611],[2.4373253,48.8868364],[2.4369963,48.8862616],[2.4365574,48.885245],[2.4405233,48.883911],[2.4407406,48.8839562],[2.4408114,48.8840611],[2.4404945,48.8845501],[2.4404166,48.8846013],[2.4417083,48.8856896],[2.4405613,48.8862662],[2.4398262,48.8861835],[2.4394797,48.8860938],[2.4387233,48.8866781],[2.4388215,48.8869281],[2.4389744,48.8871344],[2.4388519,48.8872286],[2.4388953,48.8872608],[2.4385674,48.8874626]]]]},"properties":{"code_section":"930630000M","code_commune":"93063","section_courte":"M"}},{"type":"Feature","geometry":{"type":"MultiPolygon","coordinates":[[[[2.4302506,48.8853698],[2.4322343,48.8843452],[2.4341347,48.8837712],[2.4344364,48.8839351],[2.435016,48.8845654],[2.4354955,48.8849458],[2.4361146,48.8853609],[2.4365574,48.885245],[2.4368358,48.8858703],[2.4360437,48.8860924],[2.4357423,48.8856415],[2.4356352,48.8856343],[2.4355742,48.8855802],[2.4345728,48.8858221],[2.4344048,48.8855584],[2.4325183,48.8860671],[2.4325057,48.8860466],[2.431527,48.8863292],[2.4312735,48.886004],[2.4309542,48.886088],[2.4302506,48.8853698]]]]},"properties":{"code_section":"930630000N","code_commune":"93063","section_courte":"N"}},{"type":"Feature","geometry":{"type":"MultiPolygon","coordinates":[[[[2.4364419,48.8859775],[2.4368358,48.8858703],[2.4369963,48.8862616],[2.4373253,48.8868364],[2.4377979,48.8873611],[2.4382461,48.888033],[2.4383326,48.8882362],[2.4365793,48.8886907],[2.4364409,48.888844],[2.4363338,48.8894688],[2.4363755,48.8896702],[2.4358046,48.8899259],[2.4342233,48.8904835],[2.4326463,48.8912398],[2.4318736,48.890139],[2.4306979,48.8895824],[2.4299716,48.8890446],[2.4293621,48.8886998],[2.4289213,48.8883394],[2.4282541,48.8879384],[2.4282472,48.8878658],[2.4284246,48.8875076],[2.4284483,48.8873671],[2.4284121,48.8872239],[2.428266,48.886999],[2.4282757,48.8868239],[2.4289401,48.885931],[2.4289807,48.8857977],[2.4298525,48.8855276],[2.4302506,48.8853698],[2.4309542,48.886088],[2.4312735,48.886004],[2.431527,48.8863292],[2.4325057,48.8860466],[2.4325183,48.8860671],[2.4344048,48.8855584],[2.4345728,48.8858221],[2.4355742,48.8855802],[2.4356352,48.8856343],[2.4357423,48.8856415],[2.4360437,48.8860924],[2.4364419,48.8859775]]]]},"properties":{"code_section":"930630000O","code_commune":"93063","section_courte":"O"}},{"type":"Feature","geometry":{"type":"MultiPolygon","coordinates":[[[[2.4296382,48.8904197],[2.4297844,48.8903708],[2.4296008,48.8901365],[2.4296983,48.8901065],[2.4292991,48.8896436],[2.4293308,48.8895358],[2.4292737,48.8894638],[2.4294547,48.889399],[2.4300162,48.8890791],[2.4306979,48.8895824],[2.4318736,48.890139],[2.4326463,48.8912398],[2.4317104,48.891434],[2.4313511,48.8915415],[2.4287932,48.8919748],[2.4283727,48.8919199],[2.4274099,48.8919338],[2.4264307,48.8920911],[2.426303,48.8914997],[2.4296382,48.8904197]]]]},"properties":{"code_section":"930630000P","code_commune":"93063","section_courte":"P"}},{"type":"Feature","geometry":{"type":"MultiPolygon","coordinates":[[[[2.4297844,48.8903708],[2.426303,48.8914997],[2.4266199,48.8929813],[2.4254347,48.8930775],[2.4252626,48.8920906],[2.4243024,48.8921431],[2.4241537,48.8916029],[2.4244122,48.8915616],[2.4242987,48.8909959],[2.4244282,48.8909062],[2.4246305,48.890575],[2.4250493,48.8906388],[2.4256406,48.8901042],[2.4256623,48.8898423],[2.4265329,48.8897423],[2.4269011,48.8896153],[2.4274901,48.8895854],[2.4275042,48.8895304],[2.427855,48.8895663],[2.4277673,48.8899011],[2.4292461,48.8894234],[2.4293308,48.8895358],[2.4292991,48.8896436],[2.4296983,48.8901065],[2.4296008,48.8901365],[2.4297844,48.8903708]]]]},"properties":{"code_section":"930630000Q","code_commune":"93063","section_courte":"Q"}},{"type":"Feature","geometry":{"type":"MultiPolygon","coordinates":[[[[2.4292737,48.8894638],[2.4292461,48.8894234],[2.4277673,48.8899011],[2.427855,48.8895663],[2.4275042,48.8895304],[2.4274901,48.8895854],[2.4269011,48.8896153],[2.4268881,48.8895392],[2.4267476,48.8894619],[2.4266033,48.8886898],[2.4267305,48.8886055],[2.4264456,48.8883194],[2.426642,48.8879875],[2.4267673,48.8875601],[2.426805,48.8871267],[2.4276734,48.8859607],[2.4289807,48.8857977],[2.4289401,48.885931],[2.4282757,48.8868239],[2.428266,48.886999],[2.4284121,48.8872239],[2.4284483,48.8873671],[2.4282458,48.8879218],[2.4289213,48.8883394],[2.4293621,48.8886998],[2.4300162,48.8890791],[2.4294547,48.889399],[2.4292737,48.8894638]]]]},"properties":{"code_section":"930630000R","code_commune":"93063","section_courte":"R"}},{"type":"Feature","geometry":{"type":"MultiPolygon","coordinates":[[[[2.4283441,48.8858745],[2.426959,48.8860499],[2.4244337,48.8830648],[2.4248389,48.8829321],[2.425632,48.8827603],[2.4292612,48.8840187],[2.4281035,48.8843479],[2.4289807,48.8857977],[2.4283441,48.8858745]]]]},"properties":{"code_section":"930630000S","code_commune":"93063","section_courte":"S"}},{"type":"Feature","geometry":{"type":"MultiPolygon","coordinates":[[[[2.4285079,48.8842351],[2.4292612,48.8840187],[2.4269077,48.8832041],[2.4290847,48.8826037],[2.4297641,48.8834307],[2.4332492,48.8829243],[2.4338483,48.8835336],[2.4341347,48.8837712],[2.4322343,48.8843452],[2.4302506,48.8853698],[2.4298525,48.8855276],[2.4289807,48.8857977],[2.4281035,48.8843479],[2.4285079,48.8842351]]]]},"properties":{"code_section":"930630000T","code_commune":"93063","section_courte":"T"}},{"type":"Feature","geometry":{"type":"MultiPolygon","coordinates":[[[[2.4332492,48.8829243],[2.4297641,48.8834307],[2.4290847,48.8826037],[2.4284245,48.8802263],[2.4307493,48.8806539],[2.4319978,48.8815013],[2.4332492,48.8829243]]]]},"properties":{"code_section":"930630000U","code_commune":"93063","section_courte":"U"}},{"type":"Feature","geometry":{"type":"MultiPolygon","coordinates":[[[[2.4321032,48.881013],[2.4315791,48.8812087],[2.4302845,48.8803276],[2.4299307,48.8798974],[2.4297867,48.8782989],[2.4315032,48.8786098],[2.4329068,48.8789913],[2.4341344,48.8783712],[2.4346124,48.8781931],[2.4360855,48.8791977],[2.4352918,48.8798415],[2.4352181,48.8798078],[2.4342459,48.8804364],[2.4340531,48.8802975],[2.4321032,48.881013]]]]},"properties":{"code_section":"930630000V","code_commune":"93063","section_courte":"V"}},{"type":"Feature","geometry":{"type":"MultiPolygon","coordinates":[[[[2.4350281,48.8799302],[2.4352181,48.8798078],[2.4369672,48.8806074],[2.4368153,48.8810201],[2.4366485,48.8811737],[2.4341458,48.8825297],[2.4332492,48.8829243],[2.4319978,48.8815013],[2.4315791,48.8812087],[2.4340531,48.8802975],[2.4342459,48.8804364],[2.4350281,48.8799302]]]]},"properties":{"code_section":"930630000X","code_commune":"93063","section_courte":"X"}},{"type":"Feature","geometry":{"type":"MultiPolygon","coordinates":[[[[2.4332492,48.8829243],[2.4341458,48.8825297],[2.4366485,48.8811737],[2.4368153,48.8810201],[2.4369672,48.8806074],[2.4387496,48.8814204],[2.43911,48.8816501],[2.4393757,48.8818628],[2.4398383,48.8824663],[2.4365778,48.8834405],[2.4364619,48.883064],[2.4353919,48.8834081],[2.4343993,48.8839143],[2.4341347,48.8837712],[2.4338483,48.8835336],[2.4332492,48.8829243]]]]},"properties":{"code_section":"930630000Y","code_commune":"93063","section_courte":"Y"}},{"type":"Feature","geometry":{"type":"MultiPolygon","coordinates":[[[[2.4343993,48.8839143],[2.4353919,48.8834081],[2.4364619,48.883064],[2.4365778,48.8834405],[2.4398383,48.8824663],[2.4405476,48.8836147],[2.4404269,48.8837607],[2.4405233,48.883911],[2.4365574,48.885245],[2.4361146,48.8853609],[2.4354955,48.8849458],[2.435016,48.8845654],[2.4343993,48.8839143]]]]},"properties":{"code_section":"930630000Z","code_commune":"93063","section_courte":"Z"}},{"type":"Feature","geometry":{"type":"MultiPolygon","coordinates":[[[[2.4522569,48.8814397],[2.4524649,48.8817937],[2.4530323,48.8823308],[2.4532774,48.8826959],[2.4537317,48.8832107],[2.4539222,48.8832134],[2.4540901,48.8836577],[2.4541522,48.8843464],[2.4530048,48.8843646],[2.4533302,48.884504],[2.453619,48.8846888],[2.4532141,48.8848449],[2.4529195,48.8848523],[2.4525242,48.8849355],[2.4521952,48.885045],[2.4521762,48.8857568],[2.4518067,48.8856461],[2.4514722,48.8854778],[2.4513142,48.8854554],[2.4508301,48.8856622],[2.450492,48.8860047],[2.4502837,48.8860721],[2.4500085,48.885716],[2.4499005,48.8858405],[2.4492951,48.8855909],[2.4484804,48.8864457],[2.4487644,48.8865397],[2.4485294,48.8867879],[2.4475764,48.8862873],[2.4477813,48.8860902],[2.4477292,48.8860675],[2.4476962,48.886099],[2.447418,48.885985],[2.4474968,48.8859234],[2.4474257,48.8858579],[2.4472957,48.8857898],[2.4472731,48.8858126],[2.4472299,48.8857855],[2.4472549,48.8857574],[2.447012,48.8856318],[2.4469853,48.8856554],[2.4469131,48.8856117],[2.446961,48.8855667],[2.4467441,48.8854685],[2.4467622,48.8854511],[2.4466657,48.8853958],[2.4466908,48.885355],[2.4465267,48.8852606],[2.4464985,48.8850785],[2.4465314,48.8850338],[2.4462004,48.8850205],[2.4456356,48.8847809],[2.4455571,48.8846942],[2.4452861,48.8845606],[2.4455774,48.8840829],[2.4446596,48.8837398],[2.4436994,48.883301],[2.4431746,48.8828615],[2.4466754,48.8814771],[2.4471101,48.8812447],[2.4493615,48.8787537],[2.4493781,48.8790296],[2.4494697,48.8791653],[2.4497042,48.8793013],[2.450185,48.8794609],[2.4503052,48.8796096],[2.4502609,48.8798006],[2.4499803,48.8800539],[2.4498887,48.8802123],[2.4498987,48.8804325],[2.450045,48.8806388],[2.4502975,48.8807742],[2.4520106,48.8812497],[2.4521739,48.8813169],[2.4522569,48.8814397]]]]},"properties":{"code_section":"93063000AB","code_commune":"93063","section_courte":"AB"}},{"type":"Feature","geometry":{"type":"MultiPolygon","coordinates":[[[[2.4410671,48.8844347],[2.4407406,48.8839562],[2.4405233,48.883911],[2.4404269,48.8837607],[2.4405476,48.8836147],[2.4398383,48.8824663],[2.4394603,48.8819656],[2.4429143,48.8803655],[2.443257,48.8801578],[2.4433662,48.8800487],[2.4448288,48.881282],[2.4447603,48.8813835],[2.4443426,48.8815639],[2.4449327,48.8821742],[2.4417132,48.8834518],[2.4421294,48.8839064],[2.4410671,48.8844347]]]]},"properties":{"code_section":"93063000AC","code_commune":"93063","section_courte":"AC"}},{"type":"Feature","geometry":{"type":"MultiPolygon","coordinates":[[[[2.4416865,48.8795558],[2.4424436,48.8800244],[2.4429143,48.8803655],[2.4394603,48.8819656],[2.43911,48.8816501],[2.4387496,48.8814204],[2.4369672,48.8806074],[2.4376315,48.880192],[2.4392682,48.8790099],[2.4402648,48.8781335],[2.4420556,48.8792937],[2.4416865,48.8795558]]]]},"properties":{"code_section":"93063000AD","code_commune":"93063","section_courte":"AD"}},{"type":"Feature","geometry":{"type":"MultiPolygon","coordinates":[[[[2.4395702,48.8787442],[2.4392682,48.8790099],[2.4376315,48.880192],[2.4369672,48.8806074],[2.4352918,48.8798415],[2.4360855,48.8791977],[2.4346124,48.8781931],[2.4378171,48.877004],[2.4383436,48.8773933],[2.4387974,48.87702],[2.440441,48.8779799],[2.4395702,48.8787442]]]]},"properties":{"code_section":"93063000AE","code_commune":"93063","section_courte":"AE"}},{"type":"Feature","geometry":{"type":"MultiPolygon","coordinates":[[[[2.4399738,48.8743571],[2.4385884,48.8754018],[2.4368256,48.8764396],[2.4366744,48.8764615],[2.4362662,48.8747887],[2.4359607,48.8747729],[2.4354091,48.8746178],[2.4379105,48.8722974],[2.440037,48.8730528],[2.4401424,48.8729707],[2.4404365,48.8740092],[2.4399738,48.8743571]]]]},"properties":{"code_section":"93063000AF","code_commune":"93063","section_courte":"AF"}},{"type":"Feature","geometry":{"type":"MultiPolygon","coordinates":[[[[2.4403129,48.8741006],[2.4404365,48.8740092],[2.4406625,48.8746294],[2.4413776,48.8740627],[2.4414436,48.8742083],[2.4434969,48.8754725],[2.4414168,48.8770668],[2.440441,48.8779799],[2.4387974,48.87702],[2.4383436,48.8773933],[2.4378171,48.877004],[2.4370559,48.8772919],[2.4367772,48.8768548],[2.4368442,48.8768352],[2.4365839,48.8764746],[2.4368256,48.8764396],[2.4385884,48.8754018],[2.4403129,48.8741006]]]]},"properties":{"code_section":"93063000AG","code_commune":"93063","section_courte":"AG"}},{"type":"Feature","geometry":{"type":"MultiPolygon","coordinates":[[[[2.4454623,48.8783212],[2.4453281,48.8784437],[2.4448284,48.8787572],[2.443257,48.8801578],[2.4429143,48.8803655],[2.4424436,48.8800244],[2.4416865,48.8795558],[2.4420556,48.8792937],[2.4402648,48.8781335],[2.4414168,48.8770668],[2.4434969,48.8754725],[2.4444489,48.8759354],[2.4447824,48.8761626],[2.445969,48.877161],[2.4461223,48.8774776],[2.4466763,48.8779016],[2.4454623,48.8783212]]]]},"properties":{"code_section":"93063000AH","code_commune":"93063","section_courte":"AH"}},{"type":"Feature","geometry":{"type":"MultiPolygon","coordinates":[[[[2.4484479,48.8795962],[2.4486157,48.8795873],[2.4471101,48.8812447],[2.4466754,48.8814771],[2.4449327,48.8821742],[2.4443426,48.8815639],[2.4447603,48.8813835],[2.4448288,48.881282],[2.4433662,48.8800487],[2.4448284,48.8787572],[2.4453281,48.8784437],[2.4454623,48.8783212],[2.446798,48.8788826],[2.447442,48.8794321],[2.4475121,48.8796528],[2.4484479,48.8795962]]]]},"properties":{"code_section":"93063000AI","code_commune":"93063","section_courte":"AI"}},{"type":"Feature","geometry":{"type":"MultiPolygon","coordinates":[[[[2.4493834,48.8786795],[2.4493615,48.8787537],[2.4486157,48.8795873],[2.4475121,48.8796528],[2.447442,48.8794321],[2.446798,48.8788826],[2.4454623,48.8783212],[2.4493709,48.8769219],[2.449532,48.8768306],[2.4510975,48.8770195],[2.4512888,48.8771292],[2.4517763,48.8785159],[2.4493834,48.8786795]]]]},"properties":{"code_section":"93063000AJ","code_commune":"93063","section_courte":"AJ"}},{"type":"Feature","geometry":{"type":"MultiPolygon","coordinates":[[[[2.4493709,48.8769219],[2.4466763,48.8779016],[2.4461223,48.8774776],[2.445969,48.877161],[2.4452882,48.8765743],[2.4477275,48.8745973],[2.4491536,48.876461],[2.4493709,48.8769219]]]]},"properties":{"code_section":"93063000AK","code_commune":"93063","section_courte":"AK"}},{"type":"Feature","geometry":{"type":"MultiPolygon","coordinates":[[[[2.4453626,48.8734813],[2.4460397,48.8727517],[2.4464235,48.8730323],[2.4468134,48.8732521],[2.4470662,48.8737347],[2.4477275,48.8745973],[2.4452882,48.8765743],[2.4444489,48.8759354],[2.4434969,48.8754725],[2.4449948,48.874376],[2.4451617,48.8737628],[2.4453626,48.8734813]]]]},"properties":{"code_section":"93063000AL","code_commune":"93063","section_courte":"AL"}},{"type":"Feature","geometry":{"type":"MultiPolygon","coordinates":[[[[2.4419182,48.8726351],[2.4422816,48.8718516],[2.4428776,48.8718531],[2.4435993,48.8719098],[2.44534,48.8723419],[2.4457873,48.8725617],[2.4460397,48.8727517],[2.445323,48.8735239],[2.4451617,48.8737628],[2.4449948,48.874376],[2.4434969,48.8754725],[2.4414436,48.8742083],[2.4413776,48.8740627],[2.4414529,48.8735864],[2.4419182,48.8726351]]]]},"properties":{"code_section":"93063000AM","code_commune":"93063","section_courte":"AM"}},{"type":"Feature","geometry":{"type":"MultiPolygon","coordinates":[[[[2.4380697,48.8718662],[2.4382345,48.8713807],[2.4385971,48.8713076],[2.440088,48.8714354],[2.4423244,48.8717453],[2.4414529,48.8735864],[2.4413776,48.8740627],[2.4406625,48.8746294],[2.4404365,48.8740092],[2.4401424,48.8729707],[2.440037,48.8730528],[2.4379105,48.8722974],[2.4384012,48.8718494],[2.4380697,48.8718662]]]]},"properties":{"code_section":"93063000AN","code_commune":"93063","section_courte":"AN"}}]}