{"type":"FeatureCollection","features":[{"type":"Feature","geometry":{"type":"MultiPolygon","coordinates":[[[[2.4796283,48.8853399],[2.4798915,48.8865311],[2.4807602,48.8864414],[2.4808802,48.8872648],[2.4808403,48.8880711],[2.4797853,48.8883327],[2.4792578,48.888503],[2.4778099,48.8890905],[2.4774315,48.888802],[2.4766955,48.8887767],[2.475934,48.8873176],[2.4771702,48.8864832],[2.4778593,48.8859108],[2.4778514,48.8858331],[2.4779559,48.8856334],[2.4779778,48.8853528],[2.4782264,48.8852984],[2.4783021,48.885438],[2.4795865,48.8852395],[2.4796283,48.8853399]]]]},"properties":{"code_section":"930640000A","code_commune":"93064","section_courte":"A"}},{"type":"Feature","geometry":{"type":"MultiPolygon","coordinates":[[[[2.4798657,48.8864087],[2.4795865,48.8852395],[2.4841992,48.8845445],[2.484925,48.8863824],[2.485304,48.8872316],[2.4830606,48.8876294],[2.4808403,48.8880711],[2.4808802,48.8872648],[2.4807602,48.8864414],[2.4798915,48.8865311],[2.4798657,48.8864087]]]]},"properties":{"code_section":"930640000B","code_commune":"93064","section_courte":"B"}},{"type":"Feature","geometry":{"type":"MultiPolygon","coordinates":[[[[2.4944809,48.8849301],[2.4953395,48.8848196],[2.4954548,48.8851249],[2.4933069,48.8856971],[2.4920363,48.8860015],[2.4893785,48.8864718],[2.4869516,48.8869647],[2.485304,48.8872316],[2.484925,48.8863824],[2.4841992,48.8845445],[2.4889224,48.883815],[2.4899408,48.8835526],[2.4916345,48.8830419],[2.4929987,48.8826666],[2.4938353,48.8826254],[2.4948196,48.882754],[2.495586,48.8829034],[2.4944809,48.8849301]]]]},"properties":{"code_section":"930640000C","code_commune":"93064","section_courte":"C"}},{"type":"Feature","geometry":{"type":"MultiPolygon","coordinates":[[[[2.4859122,48.8812561],[2.4860492,48.8812038],[2.4869147,48.8823457],[2.4883213,48.8839107],[2.4839064,48.8845887],[2.4838793,48.8844606],[2.4835201,48.8837861],[2.4827424,48.8830774],[2.4826356,48.8830522],[2.4825861,48.8829993],[2.4821947,48.8830664],[2.4817778,48.8824721],[2.4818879,48.882428],[2.4817199,48.8823031],[2.4828658,48.8810139],[2.4829347,48.8810397],[2.482974,48.8809936],[2.483635,48.8817667],[2.483796,48.8820336],[2.4859122,48.8812561]]]]},"properties":{"code_section":"930640000D","code_commune":"93064","section_courte":"D"}},{"type":"Feature","geometry":{"type":"MultiPolygon","coordinates":[[[[2.4858244,48.8803592],[2.4870678,48.8804574],[2.4876427,48.88092],[2.4886797,48.8805561],[2.4897955,48.8815457],[2.4912282,48.8826034],[2.4916345,48.8830419],[2.4899408,48.8835526],[2.4889224,48.883815],[2.4883213,48.8839107],[2.4869147,48.8823457],[2.4857685,48.8808238],[2.4855294,48.8803387],[2.4858244,48.8803592]]]]},"properties":{"code_section":"930640000E","code_commune":"93064","section_courte":"E"}},{"type":"Feature","geometry":{"type":"MultiPolygon","coordinates":[[[[2.4887629,48.8805381],[2.4893696,48.8801749],[2.4894405,48.8802193],[2.4908364,48.8791228],[2.4951568,48.8811527],[2.4938545,48.8826222],[2.4929987,48.8826666],[2.4916345,48.8830419],[2.4912282,48.8826034],[2.4897131,48.8814766],[2.4886797,48.8805561],[2.4887629,48.8805381]]]]},"properties":{"code_section":"930640000F","code_commune":"93064","section_courte":"F"}},{"type":"Feature","geometry":{"type":"MultiPolygon","coordinates":[[[[2.4876427,48.88092],[2.4870678,48.8804574],[2.4855294,48.8803387],[2.4853887,48.880046],[2.4854627,48.879494],[2.4858611,48.8777546],[2.4858069,48.8775819],[2.4898843,48.8786428],[2.4908364,48.8791228],[2.4894405,48.8802193],[2.4893696,48.8801749],[2.4887629,48.8805381],[2.4876427,48.88092]]]]},"properties":{"code_section":"930640000G","code_commune":"93064","section_courte":"G"}},{"type":"Feature","geometry":{"type":"MultiPolygon","coordinates":[[[[2.4831053,48.8775998],[2.4830743,48.8775979],[2.4830568,48.877518],[2.4850716,48.8774032],[2.4852915,48.8774334],[2.4858069,48.8775819],[2.4858611,48.8777546],[2.4854627,48.879494],[2.4853887,48.880046],[2.4857572,48.8808054],[2.4860492,48.8812038],[2.483796,48.8820336],[2.483635,48.8817667],[2.482974,48.8809936],[2.4829347,48.8810397],[2.4828658,48.8810139],[2.4829496,48.8809209],[2.4824746,48.8807661],[2.4825314,48.880705],[2.4825564,48.8807238],[2.4834311,48.8797936],[2.4821065,48.8792919],[2.4833794,48.8776151],[2.4831053,48.8775998]]]]},"properties":{"code_section":"930640000H","code_commune":"93064","section_courte":"H"}},{"type":"Feature","geometry":{"type":"MultiPolygon","coordinates":[[[[2.4833497,48.8776128],[2.4833794,48.8776151],[2.4821065,48.8792919],[2.4834311,48.8797936],[2.4822427,48.8810272],[2.4805291,48.8803337],[2.4804253,48.8803837],[2.479217,48.879375],[2.4791302,48.879365],[2.4792798,48.8784542],[2.4792258,48.8781746],[2.4797485,48.8775323],[2.4809746,48.877471],[2.4823721,48.8775651],[2.4830568,48.877518],[2.4830743,48.8775979],[2.4833497,48.8776128]]]]},"properties":{"code_section":"930640000I","code_commune":"93064","section_courte":"I"}},{"type":"Feature","geometry":{"type":"MultiPolygon","coordinates":[[[[2.4827424,48.8830774],[2.4835201,48.8837861],[2.4838793,48.8844606],[2.4839064,48.8845887],[2.4783021,48.885438],[2.4782264,48.8852984],[2.4785597,48.8852242],[2.4813405,48.8821007],[2.4817357,48.8823074],[2.4818879,48.882428],[2.4817778,48.8824721],[2.4821947,48.8830664],[2.4825861,48.8829993],[2.4826356,48.8830522],[2.4827424,48.8830774]]]]},"properties":{"code_section":"930640000K","code_commune":"93064","section_courte":"K"}},{"type":"Feature","geometry":{"type":"MultiPolygon","coordinates":[[[[2.4704015,48.882782],[2.4707354,48.8826353],[2.4715082,48.8835746],[2.4716784,48.8839053],[2.4726502,48.8836036],[2.4731973,48.8842464],[2.4735588,48.884099],[2.4737662,48.884315],[2.4738437,48.8843347],[2.4726026,48.8857958],[2.4724284,48.8866601],[2.4703464,48.8868289],[2.4698582,48.8854335],[2.4694668,48.884565],[2.4692053,48.8841497],[2.4683541,48.8832154],[2.4695873,48.8831213],[2.4704015,48.882782]]]]},"properties":{"code_section":"930640000M","code_commune":"93064","section_courte":"M"}},{"type":"Feature","geometry":{"type":"MultiPolygon","coordinates":[[[[2.4744688,48.8799022],[2.4758916,48.8809508],[2.4762209,48.8812313],[2.4764061,48.881327],[2.4738437,48.8843347],[2.4737662,48.884315],[2.4735588,48.884099],[2.4731973,48.8842464],[2.4726502,48.8836036],[2.4716784,48.8839053],[2.4715082,48.8835746],[2.4707354,48.8826353],[2.4724647,48.8818433],[2.4729476,48.8815125],[2.4733635,48.8810827],[2.473946,48.8803098],[2.4741897,48.8800562],[2.4744365,48.8798794],[2.4744688,48.8799022]]]]},"properties":{"code_section":"930640000N","code_commune":"93064","section_courte":"N"}},{"type":"Feature","geometry":{"type":"MultiPolygon","coordinates":[[[[2.4757072,48.87884],[2.4763827,48.8779777],[2.4771186,48.8772248],[2.4778204,48.8772419],[2.4781148,48.8768105],[2.4785664,48.8769258],[2.4792931,48.8768894],[2.4792565,48.8773995],[2.4797485,48.8775323],[2.4792258,48.8781746],[2.4792798,48.8784542],[2.4790858,48.8796448],[2.4789721,48.8796718],[2.4788797,48.8796312],[2.4785681,48.8798135],[2.4783901,48.8797217],[2.4780276,48.8799301],[2.4777622,48.8798408],[2.4764061,48.881327],[2.4762209,48.8812313],[2.4758916,48.8809508],[2.4744365,48.8798794],[2.4752442,48.8793087],[2.4757072,48.87884]]]]},"properties":{"code_section":"930640000O","code_commune":"93064","section_courte":"O"}},{"type":"Feature","geometry":{"type":"MultiPolygon","coordinates":[[[[2.4756781,48.8787268],[2.4757803,48.8785857],[2.4758415,48.8786427],[2.4756461,48.8789307],[2.4752442,48.8793087],[2.4741897,48.8800562],[2.473946,48.8803098],[2.4733635,48.8810827],[2.4728975,48.8814136],[2.4728652,48.8813904],[2.4729189,48.8813351],[2.4729561,48.881362],[2.4730819,48.8812338],[2.4714387,48.8800233],[2.4713313,48.8800632],[2.4707298,48.8795131],[2.4709424,48.8794387],[2.4705845,48.8789989],[2.4711759,48.8786302],[2.470818,48.8784223],[2.4706487,48.8786471],[2.4702279,48.8783649],[2.4703791,48.8780566],[2.4703128,48.8775298],[2.4708749,48.8777332],[2.4709323,48.8771319],[2.4710084,48.8769943],[2.4733714,48.8771135],[2.4732204,48.8773233],[2.4731423,48.8775115],[2.4756781,48.8787268]]]]},"properties":{"code_section":"930640000P","code_commune":"93064","section_courte":"P"}},{"type":"Feature","geometry":{"type":"MultiPolygon","coordinates":[[[[2.4708537,48.8796469],[2.4713313,48.8800632],[2.4714387,48.8800233],[2.4730819,48.8812338],[2.4729561,48.881362],[2.4729189,48.8813351],[2.4728652,48.8813904],[2.4728975,48.8814136],[2.4732837,48.8811636],[2.4729476,48.8815125],[2.4724647,48.8818433],[2.4697647,48.8830611],[2.4695873,48.8831213],[2.4683541,48.8832154],[2.4678261,48.88268],[2.4669014,48.8818345],[2.4666544,48.8814393],[2.466617,48.881331],[2.4666396,48.8811502],[2.4675342,48.8808935],[2.4678374,48.8807382],[2.4682588,48.8804466],[2.4692106,48.8802171],[2.4691019,48.8800838],[2.4694739,48.8799379],[2.4697362,48.8798484],[2.4703342,48.879729],[2.4707919,48.8795926],[2.4708537,48.8796469]]]]},"properties":{"code_section":"930640000Q","code_commune":"93064","section_courte":"Q"}},{"type":"Feature","geometry":{"type":"MultiPolygon","coordinates":[[[[2.4694004,48.8787155],[2.4694829,48.8784631],[2.4695958,48.8783651],[2.4699494,48.8783865],[2.4702279,48.8783649],[2.4706487,48.8786471],[2.470818,48.8784223],[2.4711759,48.8786302],[2.4705845,48.8789989],[2.4709424,48.8794387],[2.4707298,48.8795131],[2.4707919,48.8795926],[2.4703342,48.879729],[2.4697362,48.8798484],[2.4694739,48.8799379],[2.4691019,48.8800838],[2.4692106,48.880217],[2.4682588,48.8804466],[2.4678374,48.8807382],[2.4675342,48.8808935],[2.4666396,48.8811502],[2.4667012,48.8807006],[2.4667062,48.8805187],[2.4666659,48.8804251],[2.4665193,48.8802069],[2.4659461,48.8795589],[2.4661665,48.879555],[2.4661796,48.8794482],[2.4668618,48.8792376],[2.4671034,48.8790188],[2.4675633,48.8791658],[2.4681117,48.8792434],[2.4686589,48.8792235],[2.4690337,48.8791532],[2.4695717,48.8789494],[2.469401,48.8788359],[2.4694004,48.8787155]]]]},"properties":{"code_section":"930640000R","code_commune":"93064","section_courte":"R"}},{"type":"Feature","geometry":{"type":"MultiPolygon","coordinates":[[[[2.4661665,48.879555],[2.4658503,48.8795652],[2.465607,48.8789681],[2.4649191,48.8780856],[2.4653787,48.8779493],[2.4683386,48.8772294],[2.4683654,48.8772685],[2.4697686,48.8769331],[2.4698381,48.8769374],[2.4696759,48.8770512],[2.4701112,48.8772129],[2.470186,48.8772905],[2.4703385,48.8776162],[2.4703791,48.8780567],[2.4702279,48.8783649],[2.4699494,48.8783865],[2.4695958,48.8783651],[2.4694829,48.8784631],[2.4693807,48.8787785],[2.469401,48.8788359],[2.4695717,48.8789494],[2.4690337,48.8791532],[2.4687239,48.8792155],[2.4683732,48.8792454],[2.467744,48.8792007],[2.4671034,48.8790188],[2.4668618,48.8792376],[2.4661796,48.8794482],[2.4661665,48.879555]]]]},"properties":{"code_section":"930640000S","code_commune":"93064","section_courte":"S"}},{"type":"Feature","geometry":{"type":"MultiPolygon","coordinates":[[[[2.4715651,48.8740803],[2.4719247,48.8742697],[2.4731147,48.8750056],[2.4734484,48.8752691],[2.4734078,48.8752963],[2.4729193,48.8752945],[2.4726665,48.8753564],[2.4720366,48.8757134],[2.4715462,48.8758583],[2.4713748,48.8760097],[2.4709265,48.8768938],[2.4710694,48.8768996],[2.4709323,48.8771319],[2.4708749,48.8777332],[2.4703128,48.8775298],[2.4701112,48.8772129],[2.4696759,48.8770512],[2.4698381,48.8769374],[2.4697686,48.8769331],[2.4683654,48.8772685],[2.4682419,48.877099],[2.4674126,48.8763257],[2.4699823,48.874603],[2.4701479,48.8744118],[2.4702511,48.8742146],[2.4703955,48.873513],[2.4715651,48.8740803]]]]},"properties":{"code_section":"930640000T","code_commune":"93064","section_courte":"T"}},{"type":"Feature","geometry":{"type":"MultiPolygon","coordinates":[[[[2.4760377,48.8766592],[2.4771186,48.8772248],[2.4763827,48.8779777],[2.4758415,48.8786427],[2.4757803,48.8785857],[2.4756781,48.8787268],[2.4731423,48.8775115],[2.4732204,48.8773233],[2.4733714,48.8771135],[2.4710084,48.8769943],[2.4710694,48.8768996],[2.4709265,48.8768938],[2.4711947,48.8764173],[2.4713158,48.8760722],[2.4715464,48.8758583],[2.4720366,48.8757134],[2.4726665,48.8753564],[2.4729193,48.8752945],[2.4734078,48.8752963],[2.4734484,48.8752691],[2.4742493,48.8757425],[2.4760377,48.8766592]]]]},"properties":{"code_section":"930640000U","code_commune":"93064","section_courte":"U"}},{"type":"Feature","geometry":{"type":"MultiPolygon","coordinates":[[[[2.4746429,48.8752188],[2.4764497,48.8745181],[2.477633,48.8753268],[2.4777417,48.8753212],[2.4781877,48.875059],[2.4782352,48.8750957],[2.4785148,48.874921],[2.4785824,48.8749748],[2.4782606,48.8754732],[2.4788277,48.8755017],[2.4791567,48.8757198],[2.4783635,48.8763476],[2.4780271,48.8767035],[2.4781148,48.8768105],[2.4778204,48.8772419],[2.4771186,48.8772248],[2.4738974,48.8755511],[2.4743273,48.8753871],[2.4742768,48.8753542],[2.4746429,48.8752188]]]]},"properties":{"code_section":"930640000V","code_commune":"93064","section_courte":"V"}},{"type":"Feature","geometry":{"type":"MultiPolygon","coordinates":[[[[2.4717326,48.8741649],[2.4715651,48.8740803],[2.4735986,48.873485],[2.4737052,48.8734273],[2.4757883,48.8729104],[2.4761274,48.8729639],[2.4762107,48.8729455],[2.476551,48.8727962],[2.4789031,48.8743621],[2.4791874,48.8744338],[2.4777417,48.8753212],[2.477633,48.8753268],[2.4764497,48.8745181],[2.4742768,48.8753542],[2.4743273,48.8753872],[2.4738974,48.8755511],[2.4734484,48.8752691],[2.4731147,48.8750056],[2.4717326,48.8741649]]]]},"properties":{"code_section":"930640000X","code_commune":"93064","section_courte":"X"}},{"type":"Feature","geometry":{"type":"MultiPolygon","coordinates":[[[[2.4708528,48.8737341],[2.4703955,48.873513],[2.4708587,48.8711334],[2.4741994,48.8716073],[2.474868,48.8718344],[2.474771,48.871881],[2.4738081,48.8721245],[2.4740074,48.8724742],[2.4748824,48.8725888],[2.474848,48.8726939],[2.4741477,48.8731664],[2.4742204,48.8732868],[2.4715651,48.8740803],[2.4708528,48.8737341]]]]},"properties":{"code_section":"930640000Y","code_commune":"93064","section_courte":"Y"}},{"type":"Feature","geometry":{"type":"MultiPolygon","coordinates":[[[[2.479057,48.8719872],[2.479183,48.8720521],[2.4791978,48.8722134],[2.4791499,48.8722985],[2.4793379,48.8724254],[2.4797483,48.8726198],[2.4797159,48.8727853],[2.4796111,48.8729289],[2.4806895,48.873119],[2.479767,48.8740265],[2.4797846,48.8740647],[2.4791874,48.8744338],[2.4789031,48.8743621],[2.476551,48.8727962],[2.4761274,48.8729639],[2.4757883,48.8729104],[2.4742204,48.8732868],[2.4741477,48.8731664],[2.474848,48.8726939],[2.4748824,48.8725888],[2.4740074,48.8724742],[2.4738081,48.8721245],[2.474771,48.871881],[2.474868,48.8718344],[2.4760721,48.8723038],[2.4783709,48.8720636],[2.4786127,48.8719864],[2.4788322,48.8718702],[2.479057,48.8719872]]]]},"properties":{"code_section":"930640000Z","code_commune":"93064","section_courte":"Z"}},{"type":"Feature","geometry":{"type":"MultiPolygon","coordinates":[[[[2.4765576,48.8722533],[2.4760721,48.8723038],[2.474868,48.8718344],[2.4741994,48.8716073],[2.4708587,48.8711334],[2.4710354,48.8702063],[2.4708342,48.8694979],[2.471725,48.8690507],[2.4718902,48.868882],[2.4722292,48.8674718],[2.4740713,48.8673334],[2.4745368,48.8673711],[2.4747161,48.8674017],[2.4770456,48.8681744],[2.4785082,48.8683291],[2.4790616,48.8684261],[2.479202,48.8684954],[2.4794126,48.8686674],[2.4795265,48.8689219],[2.4797807,48.8708637],[2.4796822,48.8711097],[2.4792849,48.8715151],[2.4788322,48.8718702],[2.4786127,48.8719864],[2.4783709,48.8720636],[2.4765576,48.8722533]]]]},"properties":{"code_section":"93064000AB","code_commune":"93064","section_courte":"AB"}},{"type":"Feature","geometry":{"type":"MultiPolygon","coordinates":[[[[2.4829284,48.8700417],[2.4834533,48.8701868],[2.4834036,48.8702611],[2.482708,48.8711583],[2.4819661,48.8717831],[2.4817954,48.8720297],[2.4812049,48.8724552],[2.4811622,48.8724336],[2.4808775,48.8728011],[2.4806895,48.873119],[2.4796111,48.8729289],[2.4797159,48.8727853],[2.4797483,48.8726198],[2.4793379,48.8724254],[2.4791499,48.8722985],[2.4791978,48.8722134],[2.479183,48.8720521],[2.4788322,48.8718702],[2.4792849,48.8715151],[2.4796822,48.8711097],[2.4797807,48.8708637],[2.4795608,48.8691887],[2.4808504,48.8689201],[2.4820666,48.8689687],[2.4822088,48.8693198],[2.4821985,48.8698351],[2.4829284,48.8700417]]]]},"properties":{"code_section":"93064000AC","code_commune":"93064","section_courte":"AC"}},{"type":"Feature","geometry":{"type":"MultiPolygon","coordinates":[[[[2.4846824,48.8682881],[2.4836271,48.8690625],[2.4837335,48.869305],[2.4837237,48.8695669],[2.4836396,48.8698626],[2.4834533,48.8701868],[2.4821985,48.8698351],[2.4822088,48.8693198],[2.4820666,48.8689687],[2.4808617,48.8689196],[2.479703,48.8677667],[2.4799925,48.8675953],[2.4806167,48.8670588],[2.4808982,48.867171],[2.4810806,48.867282],[2.4812032,48.8672858],[2.4821705,48.8670584],[2.4823795,48.8659676],[2.4840095,48.8668999],[2.4847953,48.8675868],[2.4850191,48.8680661],[2.4846824,48.8682881]]]]},"properties":{"code_section":"93064000AD","code_commune":"93064","section_courte":"AD"}},{"type":"Feature","geometry":{"type":"MultiPolygon","coordinates":[[[[2.484759,48.8682315],[2.4849356,48.8681019],[2.4850917,48.8680491],[2.4858187,48.86812],[2.485914,48.8683615],[2.4863115,48.868524],[2.4870195,48.8693568],[2.487511,48.8707266],[2.4862614,48.8714186],[2.4856452,48.8718567],[2.4851779,48.8723372],[2.482708,48.8711583],[2.4834248,48.8702317],[2.4836396,48.8698626],[2.4837237,48.8695669],[2.4837335,48.869305],[2.4836271,48.8690625],[2.484759,48.8682315]]]]},"properties":{"code_section":"93064000AE","code_commune":"93064","section_courte":"AE"}},{"type":"Feature","geometry":{"type":"MultiPolygon","coordinates":[[[[2.4812507,48.8724143],[2.4814989,48.8722672],[2.4817954,48.8720297],[2.4819661,48.8717831],[2.482708,48.8711583],[2.4849925,48.872232],[2.4853865,48.8724519],[2.4858529,48.8725804],[2.4863765,48.8727897],[2.4865523,48.8729546],[2.4867387,48.8736663],[2.4865647,48.8749439],[2.4849713,48.8746404],[2.4838558,48.8744618],[2.4838466,48.8745762],[2.482572,48.874259],[2.4823796,48.8741888],[2.4806895,48.873119],[2.4808775,48.8728011],[2.4811622,48.8724336],[2.4812049,48.8724552],[2.4812507,48.8724143]]]]},"properties":{"code_section":"93064000AF","code_commune":"93064","section_courte":"AF"}},{"type":"Feature","geometry":{"type":"MultiPolygon","coordinates":[[[[2.4838442,48.8746646],[2.483966,48.875145],[2.482736,48.875165],[2.4821518,48.876249],[2.4809746,48.877471],[2.4797485,48.8775323],[2.4792565,48.8773995],[2.4792931,48.8768894],[2.4785664,48.8769258],[2.4781039,48.876806],[2.4780271,48.8767035],[2.4783635,48.8763476],[2.4791567,48.8757198],[2.4788277,48.8755017],[2.4782606,48.8754732],[2.4785824,48.8749748],[2.4785148,48.874921],[2.4782352,48.8750957],[2.4781877,48.875059],[2.4797846,48.8740647],[2.479767,48.8740265],[2.4806895,48.873119],[2.4823796,48.8741888],[2.482572,48.874259],[2.4838466,48.8745762],[2.4838442,48.8746646]]]]},"properties":{"code_section":"93064000AG","code_commune":"93064","section_courte":"AG"}},{"type":"Feature","geometry":{"type":"MultiPolygon","coordinates":[[[[2.4861931,48.8763785],[2.4862014,48.8764659],[2.4858122,48.8774614],[2.4858069,48.8775819],[2.4852915,48.8774334],[2.4850716,48.8774032],[2.4823894,48.8775651],[2.4809746,48.877471],[2.4821518,48.876249],[2.482736,48.875165],[2.483966,48.875145],[2.4838442,48.8746646],[2.4838558,48.8744618],[2.4849713,48.8746404],[2.4865647,48.8749439],[2.4861931,48.8763785]]]]},"properties":{"code_section":"93064000AH","code_commune":"93064","section_courte":"AH"}},{"type":"Feature","geometry":{"type":"MultiPolygon","coordinates":[[[[2.4909475,48.877302],[2.490616,48.8775512],[2.4897185,48.8785964],[2.4858069,48.8775819],[2.4858122,48.8774614],[2.4862014,48.8764659],[2.486194,48.8763719],[2.4865647,48.8749439],[2.4887462,48.8756466],[2.4894322,48.8759598],[2.4907103,48.8766789],[2.4914108,48.8768532],[2.4909475,48.877302]]]]},"properties":{"code_section":"93064000AI","code_commune":"93064","section_courte":"AI"}},{"type":"Feature","geometry":{"type":"MultiPolygon","coordinates":[[[[2.4917437,48.8738918],[2.4923136,48.8740774],[2.4927609,48.8741641],[2.4927405,48.8743098],[2.4921692,48.8749019],[2.4917118,48.8750273],[2.4894322,48.8759598],[2.4887462,48.8756466],[2.4865647,48.8749439],[2.4867387,48.8736663],[2.4866059,48.8731318],[2.4870157,48.8730072],[2.4889636,48.8738011],[2.4895299,48.8739332],[2.4898118,48.8740642],[2.4903222,48.8741547],[2.4905042,48.8740975],[2.4910765,48.8740854],[2.4917437,48.8738918]]]]},"properties":{"code_section":"93064000AJ","code_commune":"93064","section_courte":"AJ"}},{"type":"Feature","geometry":{"type":"MultiPolygon","coordinates":[[[[2.4917238,48.8750233],[2.4921692,48.8749019],[2.4927405,48.8743098],[2.4927609,48.8741641],[2.4957073,48.8749663],[2.4951476,48.8758399],[2.4945865,48.8763226],[2.4940495,48.8767273],[2.4936798,48.8766183],[2.4931742,48.8767594],[2.492581,48.8770112],[2.4918198,48.8769266],[2.4917361,48.8769229],[2.491693,48.8769652],[2.4913415,48.8768276],[2.4907174,48.8766816],[2.4894322,48.8759598],[2.4917238,48.8750233]]]]},"properties":{"code_section":"93064000AK","code_commune":"93064","section_courte":"AK"}},{"type":"Feature","geometry":{"type":"MultiPolygon","coordinates":[[[[2.4912776,48.876981],[2.4914108,48.8768532],[2.491693,48.8769652],[2.4917361,48.8769229],[2.4918198,48.8769266],[2.492581,48.8770112],[2.4931742,48.8767594],[2.4936798,48.8766183],[2.4940495,48.8767273],[2.4942706,48.8765595],[2.4945245,48.8767162],[2.4944692,48.8767604],[2.4949867,48.8769927],[2.4953096,48.8770727],[2.4945414,48.8778262],[2.4953223,48.8780817],[2.494621,48.8789121],[2.4943906,48.8787475],[2.4933339,48.8796834],[2.4932939,48.879665],[2.4929164,48.880097],[2.4908364,48.8791228],[2.4898843,48.8786428],[2.4897185,48.8785964],[2.490616,48.8775512],[2.4909475,48.877302],[2.4912776,48.876981]]]]},"properties":{"code_section":"93064000AL","code_commune":"93064","section_courte":"AL"}},{"type":"Feature","geometry":{"type":"MultiPolygon","coordinates":[[[[2.4934192,48.8796076],[2.4943906,48.8787475],[2.494621,48.8789121],[2.4953223,48.8780817],[2.4945414,48.8778262],[2.4953096,48.8770727],[2.4957205,48.8772026],[2.4971513,48.8778421],[2.4973411,48.8779403],[2.4972884,48.8779788],[2.4973931,48.8780348],[2.4974193,48.8780167],[2.4974753,48.8780478],[2.4975238,48.8780113],[2.4977304,48.8781347],[2.4973516,48.8784077],[2.4971876,48.8786537],[2.4967714,48.879544],[2.4953616,48.8810129],[2.4951592,48.8811577],[2.4929164,48.880097],[2.4932939,48.879665],[2.4933339,48.8796834],[2.4934192,48.8796076]]]]},"properties":{"code_section":"93064000AM","code_commune":"93064","section_courte":"AM"}},{"type":"Feature","geometry":{"type":"MultiPolygon","coordinates":[[[[2.4969094,48.8777338],[2.4957205,48.8772026],[2.4949775,48.8769891],[2.4944692,48.8767604],[2.4945245,48.8767162],[2.4942706,48.8765595],[2.4951476,48.8758398],[2.4957073,48.8749663],[2.5002765,48.8762771],[2.4987759,48.8776224],[2.4986552,48.8776534],[2.4977415,48.8781411],[2.4975238,48.8780113],[2.4974753,48.8780478],[2.4974193,48.8780167],[2.4973931,48.8780348],[2.4972884,48.8779788],[2.4973411,48.8779403],[2.4969094,48.8777338]]]]},"properties":{"code_section":"93064000AN","code_commune":"93064","section_courte":"AN"}},{"type":"Feature","geometry":{"type":"MultiPolygon","coordinates":[[[[2.5065043,48.8790318],[2.5056793,48.8793018],[2.5037284,48.8767513],[2.5052673,48.8759663],[2.5064656,48.8749143],[2.5066202,48.8745616],[2.5067936,48.8745159],[2.5078428,48.8759274],[2.5078246,48.8761274],[2.5094288,48.8780539],[2.5065043,48.8790318]]]]},"properties":{"code_section":"93064000AO","code_commune":"93064","section_courte":"AO"}},{"type":"Feature","geometry":{"type":"MultiPolygon","coordinates":[[[[2.5057822,48.8721389],[2.5061801,48.8727791],[2.505783,48.8729041],[2.5067936,48.8745159],[2.5066202,48.8745616],[2.5064656,48.8749143],[2.5052673,48.8759663],[2.5037284,48.8767513],[2.5041357,48.8773071],[2.50166,48.8781018],[2.5015748,48.8778853],[2.5015501,48.8776766],[2.5011513,48.8774533],[2.5007861,48.8771069],[2.4990143,48.8775645],[2.4989073,48.8775188],[2.5002765,48.8762771],[2.4969612,48.8753078],[2.4927609,48.8741641],[2.492799,48.8739855],[2.4933429,48.8739439],[2.4954161,48.8731992],[2.5009161,48.8733785],[2.5009544,48.8729376],[2.5016942,48.8729479],[2.5022147,48.87306],[2.5026386,48.8730873],[2.5032366,48.8730541],[2.5036726,48.8728901],[2.5044017,48.8724987],[2.5050798,48.8722843],[2.5057644,48.8721199],[2.5057822,48.8721389]]]]},"properties":{"code_section":"93064000AP","code_commune":"93064","section_courte":"AP"}},{"type":"Feature","geometry":{"type":"MultiPolygon","coordinates":[[[[2.4964192,48.8729233],[2.4960636,48.8722729],[2.4959465,48.8723099],[2.4954479,48.8716411],[2.4955679,48.8716065],[2.4961969,48.8715575],[2.4975569,48.8710484],[2.4998139,48.870931],[2.5004413,48.8708775],[2.5006888,48.8708286],[2.5012017,48.870825],[2.5011312,48.8711013],[2.5011898,48.8715265],[2.5009957,48.8721709],[2.5009161,48.8733785],[2.4965849,48.8732401],[2.4964192,48.8729233]]]]},"properties":{"code_section":"93064000AQ","code_commune":"93064","section_courte":"AQ"}},{"type":"Feature","geometry":{"type":"MultiPolygon","coordinates":[[[[2.4955827,48.8718236],[2.4959465,48.8723099],[2.4960636,48.8722729],[2.4965849,48.8732401],[2.4954161,48.8731992],[2.4933429,48.8739439],[2.492799,48.8739855],[2.4927609,48.8741641],[2.4923136,48.8740774],[2.4917437,48.8738918],[2.4910765,48.8740854],[2.4909114,48.8740763],[2.4909203,48.8738592],[2.4913412,48.8729482],[2.4920131,48.8730824],[2.4913845,48.8722123],[2.4910328,48.8719706],[2.4917078,48.8718371],[2.4939189,48.8719975],[2.4947096,48.8718741],[2.4954479,48.8716411],[2.4955827,48.8718236]]]]},"properties":{"code_section":"93064000AR","code_commune":"93064","section_courte":"AR"}},{"type":"Feature","geometry":{"type":"MultiPolygon","coordinates":[[[[2.4893893,48.8739005],[2.4889636,48.8738011],[2.4870157,48.8730072],[2.4866059,48.8731318],[2.4865523,48.8729546],[2.4863765,48.8727897],[2.4858529,48.8725804],[2.4853865,48.8724519],[2.4851779,48.8723372],[2.4856452,48.8718567],[2.4862614,48.8714186],[2.487511,48.8707266],[2.4900053,48.8714276],[2.4910328,48.8719706],[2.4913787,48.872207],[2.4920131,48.8730824],[2.4913412,48.8729482],[2.4909203,48.8738592],[2.4909114,48.8740763],[2.4905042,48.8740975],[2.4903222,48.8741547],[2.4898118,48.8740642],[2.4895299,48.8739332],[2.4893893,48.8739005]]]]},"properties":{"code_section":"93064000AS","code_commune":"93064","section_courte":"AS"}},{"type":"Feature","geometry":{"type":"MultiPolygon","coordinates":[[[[2.4897642,48.8686643],[2.4904782,48.8691205],[2.4910842,48.8687286],[2.4929449,48.8701946],[2.4907496,48.8711596],[2.4900053,48.8714276],[2.487511,48.8707266],[2.4872125,48.8698824],[2.4895467,48.8685201],[2.4897642,48.8686643]]]]},"properties":{"code_section":"93064000AT","code_commune":"93064","section_courte":"AT"}},{"type":"Feature","geometry":{"type":"MultiPolygon","coordinates":[[[[2.4955679,48.8716065],[2.4947096,48.8718741],[2.4939189,48.8719975],[2.4917078,48.8718371],[2.4910328,48.8719706],[2.4900053,48.8714276],[2.4907496,48.8711596],[2.4929449,48.8701946],[2.4949442,48.8695836],[2.4956151,48.8695462],[2.4959132,48.870049],[2.4959146,48.8701417],[2.496105,48.870586],[2.496091,48.87068],[2.4965284,48.8714331],[2.4961969,48.8715575],[2.4955679,48.8716065]]]]},"properties":{"code_section":"93064000AU","code_commune":"93064","section_courte":"AU"}},{"type":"Feature","geometry":{"type":"MultiPolygon","coordinates":[[[[2.495931,48.8701758],[2.4959132,48.870049],[2.4956151,48.8695462],[2.4966583,48.8693861],[2.4965392,48.8690437],[2.4970222,48.8689132],[2.4989067,48.8685422],[2.4993341,48.8683497],[2.4997528,48.8682775],[2.5012248,48.8681911],[2.5010357,48.8691356],[2.5009864,48.8701912],[2.5012407,48.8706594],[2.5012017,48.870825],[2.5006888,48.8708286],[2.5004413,48.8708775],[2.4998139,48.870931],[2.4975569,48.8710484],[2.4965284,48.8714331],[2.496091,48.87068],[2.496105,48.870586],[2.495931,48.8701758]]]]},"properties":{"code_section":"93064000AV","code_commune":"93064","section_courte":"AV"}},{"type":"Feature","geometry":{"type":"MultiPolygon","coordinates":[[[[2.4975263,48.8655807],[2.4970486,48.8646968],[2.4970716,48.8646203],[2.4970348,48.8645326],[2.4984845,48.8641763],[2.4995208,48.8640347],[2.4996038,48.8646459],[2.4997453,48.8651237],[2.500231,48.8656856],[2.5009111,48.8669139],[2.5011755,48.8677192],[2.5012248,48.8681911],[2.4997432,48.8682784],[2.4993341,48.8683497],[2.4989067,48.8685422],[2.4979918,48.8687267],[2.497626,48.8668667],[2.4975882,48.8665333],[2.4975868,48.8655715],[2.4975263,48.8655807]]]]},"properties":{"code_section":"93064000AX","code_commune":"93064","section_courte":"AX"}},{"type":"Feature","geometry":{"type":"MultiPolygon","coordinates":[[[[2.4970716,48.8646203],[2.4970486,48.8646968],[2.4975225,48.8655811],[2.4975868,48.8655715],[2.4975882,48.8665333],[2.4977927,48.8676911],[2.4953356,48.867718],[2.4948508,48.8678151],[2.4937056,48.8672911],[2.4940013,48.8670621],[2.4955341,48.8654768],[2.4961238,48.8649269],[2.4965098,48.86465],[2.4970348,48.8645326],[2.4970716,48.8646203]]]]},"properties":{"code_section":"93064000AY","code_commune":"93064","section_courte":"AY"}},{"type":"Feature","geometry":{"type":"MultiPolygon","coordinates":[[[[2.4979918,48.8687267],[2.4970222,48.8689132],[2.4965392,48.8690437],[2.4966583,48.8693861],[2.4956151,48.8695462],[2.4949442,48.8695836],[2.4929449,48.8701946],[2.4910842,48.8687286],[2.4916984,48.8683561],[2.4933045,48.8676036],[2.4937056,48.8672911],[2.4948508,48.8678151],[2.4953356,48.867718],[2.4977927,48.8676911],[2.4979918,48.8687267]]]]},"properties":{"code_section":"93064000AZ","code_commune":"93064","section_courte":"AZ"}},{"type":"Feature","geometry":{"type":"MultiPolygon","coordinates":[[[[2.4926819,48.8678808],[2.4916808,48.8683656],[2.4904782,48.8691205],[2.4895467,48.8685201],[2.4872125,48.8698824],[2.486992,48.869314],[2.4863115,48.868524],[2.4885466,48.866719],[2.4898689,48.8655573],[2.4926819,48.8678808]]]]},"properties":{"code_section":"93064000BC","code_commune":"93064","section_courte":"BC"}},{"type":"Feature","geometry":{"type":"MultiPolygon","coordinates":[[[[2.4867926,48.8654912],[2.4867858,48.8655307],[2.4873584,48.8657681],[2.4871923,48.866092],[2.4885466,48.866719],[2.4863115,48.868524],[2.485914,48.8683615],[2.4858187,48.86812],[2.4850917,48.8680491],[2.4850191,48.8680661],[2.4847953,48.8675868],[2.4840183,48.8669062],[2.4823795,48.8659676],[2.4824831,48.8654879],[2.4832912,48.8653096],[2.4844213,48.864964],[2.4850227,48.8653172],[2.4850372,48.8652374],[2.4868156,48.8653769],[2.4867926,48.8654912]]]]},"properties":{"code_section":"93064000BD","code_commune":"93064","section_courte":"BD"}},{"type":"Feature","geometry":{"type":"MultiPolygon","coordinates":[[[[2.4844871,48.8649828],[2.4852016,48.8646299],[2.4853598,48.8640071],[2.4863158,48.8641581],[2.4866081,48.8641693],[2.4873056,48.8640976],[2.4881988,48.8641579],[2.4905006,48.8650557],[2.4898689,48.8655573],[2.4885466,48.866719],[2.4871923,48.866092],[2.4873584,48.8657681],[2.4867858,48.8655307],[2.4868156,48.8653769],[2.4850372,48.8652374],[2.4850227,48.8653172],[2.4844621,48.8649964],[2.4844871,48.8649828]]]]},"properties":{"code_section":"93064000BE","code_commune":"93064","section_courte":"BE"}},{"type":"Feature","geometry":{"type":"MultiPolygon","coordinates":[[[[2.4852016,48.8646299],[2.4844621,48.8649964],[2.4844213,48.864964],[2.4832912,48.8653096],[2.4824831,48.8654879],[2.4826822,48.8645503],[2.4826848,48.8641367],[2.4826143,48.8635509],[2.4816375,48.8615884],[2.4820837,48.8615242],[2.4852512,48.8608459],[2.4853718,48.8611937],[2.4852497,48.8614818],[2.4857986,48.8626803],[2.4853889,48.8638803],[2.4852016,48.8646299]]]]},"properties":{"code_section":"93064000BF","code_commune":"93064","section_courte":"BF"}},{"type":"Feature","geometry":{"type":"MultiPolygon","coordinates":[[[[2.4857488,48.8628225],[2.4857863,48.8626462],[2.4852497,48.8614818],[2.4853718,48.8611937],[2.4852512,48.8608459],[2.4867662,48.8606013],[2.4886181,48.8608279],[2.4886915,48.8605566],[2.4900212,48.8606946],[2.4881988,48.8641579],[2.4873056,48.8640976],[2.4866081,48.8641693],[2.4863158,48.8641581],[2.4853598,48.8640071],[2.4857488,48.8628225]]]]},"properties":{"code_section":"93064000BG","code_commune":"93064","section_courte":"BG"}},{"type":"Feature","geometry":{"type":"MultiPolygon","coordinates":[[[[2.4902829,48.8607226],[2.4909794,48.8607973],[2.4908242,48.861353],[2.4917251,48.8617595],[2.492849,48.8623276],[2.4914938,48.8640477],[2.4909091,48.8647103],[2.4905006,48.8650557],[2.4881988,48.8641579],[2.4900212,48.8606946],[2.4902829,48.8607226]]]]},"properties":{"code_section":"93064000BH","code_commune":"93064","section_courte":"BH"}},{"type":"Feature","geometry":{"type":"MultiPolygon","coordinates":[[[[2.4920647,48.8642962],[2.4936204,48.8649783],[2.4938722,48.8647329],[2.4955341,48.8654768],[2.4939671,48.8670928],[2.4933045,48.8676036],[2.4926819,48.8678808],[2.4898689,48.8655573],[2.4909028,48.8647165],[2.4914938,48.8640477],[2.4920647,48.8642962]]]]},"properties":{"code_section":"93064000BI","code_commune":"93064","section_courte":"BI"}},{"type":"Feature","geometry":{"type":"MultiPolygon","coordinates":[[[[2.4943928,48.864967],[2.4938722,48.8647329],[2.4936204,48.8649783],[2.4914938,48.8640477],[2.492849,48.8623276],[2.493582,48.8626591],[2.4939251,48.8627503],[2.494362,48.8628039],[2.4958613,48.8627068],[2.4967652,48.8645929],[2.4965098,48.86465],[2.4961552,48.8649027],[2.4955341,48.8654768],[2.4943928,48.864967]]]]},"properties":{"code_section":"93064000BJ","code_commune":"93064","section_courte":"BJ"}},{"type":"Feature","geometry":{"type":"MultiPolygon","coordinates":[[[[2.4935014,48.8603797],[2.4941935,48.860548],[2.494396,48.8602254],[2.4962311,48.8606912],[2.4955086,48.860876],[2.495639,48.8609247],[2.4956076,48.8609328],[2.4957259,48.860999],[2.4955972,48.8618782],[2.4960143,48.8626981],[2.494362,48.8628039],[2.4939251,48.8627503],[2.493582,48.8626591],[2.4908242,48.861353],[2.491129,48.8603463],[2.4913125,48.8601021],[2.4915565,48.8595303],[2.4923202,48.8599446],[2.4935014,48.8603797]]]]},"properties":{"code_section":"93064000BK","code_commune":"93064","section_courte":"BK"}},{"type":"Feature","geometry":{"type":"MultiPolygon","coordinates":[[[[2.4960143,48.8626981],[2.4955972,48.8618782],[2.4957259,48.860999],[2.4956076,48.8609328],[2.495639,48.8609247],[2.4955086,48.860876],[2.4973248,48.8604115],[2.4985128,48.8623253],[2.4985795,48.8623687],[2.4993205,48.8634844],[2.4995208,48.8640347],[2.4984845,48.8641763],[2.4967652,48.8645929],[2.4958705,48.8627539],[2.4958613,48.8627068],[2.4960143,48.8626981]]]]},"properties":{"code_section":"93064000BL","code_commune":"93064","section_courte":"BL"}},{"type":"Feature","geometry":{"type":"MultiPolygon","coordinates":[[[[2.4780276,48.8799301],[2.4783901,48.8797217],[2.4785681,48.8798135],[2.4788797,48.8796312],[2.4789721,48.8796718],[2.4790858,48.8796448],[2.4791302,48.879365],[2.479217,48.879375],[2.4804253,48.8803837],[2.4805291,48.8803337],[2.4822427,48.8810272],[2.4824746,48.8807661],[2.4829496,48.8809209],[2.4817199,48.8823031],[2.4813405,48.8821007],[2.4785472,48.8852364],[2.4779778,48.8853528],[2.4779559,48.8856334],[2.4778514,48.8858331],[2.4778593,48.8859108],[2.4771702,48.8864832],[2.475934,48.8873176],[2.475341,48.8863206],[2.4735768,48.8865526],[2.4724284,48.8866601],[2.4726026,48.8857958],[2.4728479,48.8854912],[2.4764061,48.881327],[2.4777622,48.8798408],[2.4780276,48.8799301]]]]},"properties":{"code_section":"93064000BM","code_commune":"93064","section_courte":"BM"}}]}