{"type":"FeatureCollection","features":[{"type":"Feature","geometry":{"type":"MultiPolygon","coordinates":[[[[2.3435535,48.9679887],[2.3413426,48.9647736],[2.3441825,48.9645201],[2.3446643,48.9663422],[2.3446951,48.9670469],[2.344431,48.9679527],[2.3444276,48.9682403],[2.343858,48.9684301],[2.3435535,48.9679887]]]]},"properties":{"code_section":"930790000A","code_commune":"93079","section_courte":"A"}},{"type":"Feature","geometry":{"type":"MultiPolygon","coordinates":[[[[2.3478768,48.9647852],[2.3481818,48.9656248],[2.3484163,48.9661046],[2.3485214,48.9668378],[2.3485077,48.9674981],[2.3472105,48.9677123],[2.3470587,48.9676483],[2.3450283,48.9681948],[2.3447346,48.9681927],[2.3444276,48.9682403],[2.344431,48.9679527],[2.3446951,48.9670469],[2.3446643,48.9663422],[2.3441825,48.9645201],[2.3478402,48.9641673],[2.3478768,48.9647852]]]]},"properties":{"code_section":"930790000B","code_commune":"93079","section_courte":"B"}},{"type":"Feature","geometry":{"type":"MultiPolygon","coordinates":[[[[2.3468789,48.9622522],[2.3465015,48.9611071],[2.3465941,48.961093],[2.3465304,48.9609124],[2.349259,48.9604768],[2.3508378,48.9605334],[2.3524326,48.961148],[2.3524058,48.9616856],[2.3535589,48.9624006],[2.3530263,48.9627264],[2.3536109,48.9631147],[2.3529891,48.963444],[2.3537222,48.9639168],[2.3545616,48.9646303],[2.3536981,48.9650833],[2.3535684,48.9651829],[2.3535058,48.9652839],[2.3534437,48.9656127],[2.352486,48.9658072],[2.3519508,48.9661434],[2.3516542,48.9662616],[2.3516319,48.9665811],[2.3504668,48.9670337],[2.3494355,48.9673446],[2.3485077,48.9674981],[2.3485214,48.9668378],[2.3484163,48.9661046],[2.3481818,48.9656248],[2.3478768,48.9647852],[2.3478402,48.9641673],[2.3472901,48.9642196],[2.3467626,48.9628415],[2.3471092,48.962776],[2.3469644,48.962336],[2.3469097,48.9623446],[2.3468789,48.9622522]]]]},"properties":{"code_section":"930790000C","code_commune":"93079","section_courte":"C"}},{"type":"Feature","geometry":{"type":"MultiPolygon","coordinates":[[[[2.3466419,48.9615292],[2.3469097,48.9623446],[2.3469644,48.962336],[2.3471092,48.962776],[2.3467626,48.9628415],[2.3472901,48.9642196],[2.3441825,48.9645201],[2.343998,48.96335],[2.3427434,48.9613326],[2.3435742,48.9612175],[2.3436771,48.9612619],[2.3436848,48.961312],[2.3437498,48.9613106],[2.343814,48.9614165],[2.3443178,48.9612834],[2.3442207,48.9611255],[2.3448507,48.9610366],[2.3447859,48.9611039],[2.3443499,48.9612182],[2.3443798,48.9612657],[2.3443512,48.9612734],[2.3452807,48.9616595],[2.3458654,48.9610066],[2.3465304,48.9609124],[2.3465941,48.961093],[2.3465015,48.9611071],[2.3466419,48.9615292]]]]},"properties":{"code_section":"930790000D","code_commune":"93079","section_courte":"D"}},{"type":"Feature","geometry":{"type":"MultiPolygon","coordinates":[[[[2.3410943,48.9644331],[2.3397986,48.9625727],[2.3429732,48.961734],[2.343998,48.96335],[2.3441825,48.9645201],[2.3413426,48.9647736],[2.3410943,48.9644331]]]]},"properties":{"code_section":"930790000E","code_commune":"93079","section_courte":"E"}},{"type":"Feature","geometry":{"type":"MultiPolygon","coordinates":[[[[2.3379655,48.9598592],[2.3395826,48.9599395],[2.3412547,48.9599627],[2.3414417,48.9602108],[2.341964,48.9600688],[2.3429732,48.961734],[2.3397986,48.9625727],[2.339817,48.9626028],[2.3396098,48.9626585],[2.3391403,48.9628745],[2.3389243,48.9627804],[2.3375306,48.9608445],[2.3380889,48.9600818],[2.3379224,48.9598583],[2.3379655,48.9598592]]]]},"properties":{"code_section":"930790000F","code_commune":"93079","section_courte":"F"}},{"type":"Feature","geometry":{"type":"MultiPolygon","coordinates":[[[[2.3397281,48.9564547],[2.341964,48.9600688],[2.3414417,48.9602108],[2.3412546,48.9599627],[2.3395826,48.9599395],[2.3379224,48.9598583],[2.3377323,48.9595456],[2.3372161,48.9590704],[2.3371358,48.9590697],[2.336655,48.9583605],[2.3370355,48.9582495],[2.3371298,48.958367],[2.3382829,48.957928],[2.3377072,48.9574089],[2.3397281,48.9564547]]]]},"properties":{"code_section":"930790000G","code_commune":"93079","section_courte":"G"}},{"type":"Feature","geometry":{"type":"MultiPolygon","coordinates":[[[[2.3364505,48.9559683],[2.3373337,48.9567328],[2.3370534,48.9568774],[2.3382829,48.957928],[2.3371298,48.958367],[2.3370355,48.9582495],[2.336655,48.9583605],[2.3360818,48.9575447],[2.3350349,48.9567775],[2.3342666,48.9560657],[2.3340925,48.9561294],[2.3334585,48.9552586],[2.3346875,48.9544322],[2.3364505,48.9559683]]]]},"properties":{"code_section":"930790000H","code_commune":"93079","section_courte":"H"}},{"type":"Feature","geometry":{"type":"MultiPolygon","coordinates":[[[[2.3351286,48.9548207],[2.3346875,48.9544322],[2.3373398,48.9526987],[2.3374665,48.9527987],[2.3397281,48.9564547],[2.3377072,48.9574089],[2.3370534,48.9568774],[2.3373337,48.9567328],[2.3351286,48.9548207]]]]},"properties":{"code_section":"930790000I","code_commune":"93079","section_courte":"I"}},{"type":"Feature","geometry":{"type":"MultiPolygon","coordinates":[[[[2.3439926,48.9555509],[2.3419919,48.9557864],[2.3396201,48.9562812],[2.3382,48.9539805],[2.3391307,48.9535593],[2.3398417,48.9537634],[2.3436001,48.9535101],[2.3442684,48.9555142],[2.3439926,48.9555509]]]]},"properties":{"code_section":"930790000J","code_commune":"93079","section_courte":"J"}},{"type":"Feature","geometry":{"type":"MultiPolygon","coordinates":[[[[2.344928,48.9580451],[2.3428247,48.9583379],[2.342886,48.9585246],[2.3411615,48.9587685],[2.3396219,48.9562809],[2.3419919,48.9557864],[2.3442684,48.9555142],[2.3450988,48.9580236],[2.344928,48.9580451]]]]},"properties":{"code_section":"930790000K","code_commune":"93079","section_courte":"K"}},{"type":"Feature","geometry":{"type":"MultiPolygon","coordinates":[[[[2.341754,48.9597383],[2.3411615,48.9587685],[2.342886,48.9585246],[2.3428247,48.9583379],[2.3450988,48.9580236],[2.3460755,48.9609769],[2.3458654,48.9610066],[2.3452807,48.9616595],[2.3443512,48.9612734],[2.3443798,48.9612657],[2.3443499,48.9612182],[2.3447859,48.9611039],[2.3448507,48.9610366],[2.3442207,48.9611255],[2.3443178,48.9612834],[2.343814,48.9614165],[2.3437498,48.9613106],[2.3436848,48.961312],[2.3436771,48.9612619],[2.3435742,48.9612175],[2.3427434,48.9613326],[2.341754,48.9597383]]]]},"properties":{"code_section":"930790000L","code_commune":"93079","section_courte":"L"}},{"type":"Feature","geometry":{"type":"MultiPolygon","coordinates":[[[[2.3500471,48.9581791],[2.3506173,48.9599799],[2.350675,48.9600215],[2.3507016,48.9601069],[2.3505696,48.9601808],[2.3504353,48.9602045],[2.3507445,48.9602315],[2.3508101,48.9605271],[2.349259,48.9604768],[2.3460755,48.9609769],[2.34534,48.9587623],[2.3463211,48.9586181],[2.3462609,48.9584265],[2.3462857,48.9583933],[2.3468252,48.9582944],[2.346962,48.9587305],[2.348383,48.9585328],[2.3483521,48.9584337],[2.3500471,48.9581791]]]]},"properties":{"code_section":"930790000M","code_commune":"93079","section_courte":"M"}},{"type":"Feature","geometry":{"type":"MultiPolygon","coordinates":[[[[2.3490931,48.9583217],[2.3483521,48.9584337],[2.348383,48.9585328],[2.346962,48.9587305],[2.3468252,48.9582944],[2.3462857,48.9583933],[2.3462609,48.9584265],[2.3463211,48.9586181],[2.34534,48.9587623],[2.3445612,48.9564169],[2.3492843,48.955756],[2.3496872,48.9570086],[2.3499974,48.9570361],[2.3501528,48.9571],[2.3502554,48.9571751],[2.350335,48.9573031],[2.3503456,48.9574264],[2.3502849,48.9575655],[2.3501872,48.9576481],[2.3499311,48.9577513],[2.350067,48.9581765],[2.3490931,48.9583217]]]]},"properties":{"code_section":"930790000N","code_commune":"93079","section_courte":"N"}},{"type":"Feature","geometry":{"type":"MultiPolygon","coordinates":[[[[2.353382,48.9575237],[2.3541794,48.9587211],[2.3548942,48.9596534],[2.3528731,48.9603396],[2.3532152,48.960716],[2.352436,48.960974],[2.3524326,48.961148],[2.3508101,48.9605271],[2.3507445,48.9602315],[2.3504353,48.9602045],[2.3505696,48.9601808],[2.3507016,48.9601069],[2.350675,48.9600215],[2.3506173,48.9599799],[2.3500471,48.9581791],[2.3500867,48.9581739],[2.350126,48.9582944],[2.353382,48.9575237]]]]},"properties":{"code_section":"930790000O","code_commune":"93079","section_courte":"O"}},{"type":"Feature","geometry":{"type":"MultiPolygon","coordinates":[[[[2.3521706,48.9553364],[2.3536681,48.9550399],[2.353673,48.9560338],[2.3535267,48.9567909],[2.3530199,48.9569608],[2.353382,48.9575237],[2.350126,48.9582944],[2.3499311,48.9577513],[2.3500463,48.957724],[2.3502849,48.9575655],[2.3503456,48.9574264],[2.350335,48.9573031],[2.3502554,48.9571751],[2.3501528,48.9571],[2.3499974,48.9570361],[2.3496872,48.9570086],[2.3492843,48.955756],[2.3518279,48.9554162],[2.3521706,48.9553364]]]]},"properties":{"code_section":"930790000P","code_commune":"93079","section_courte":"P"}},{"type":"Feature","geometry":{"type":"MultiPolygon","coordinates":[[[[2.3479527,48.947223],[2.3479854,48.9471651],[2.3504619,48.9486361],[2.3523023,48.9516188],[2.3536599,48.9539637],[2.3536681,48.9550399],[2.3518279,48.9554162],[2.348126,48.9559168],[2.3473786,48.9531374],[2.3451021,48.9533613],[2.345096,48.9532855],[2.3451013,48.9519954],[2.3451611,48.9515586],[2.3452179,48.951581],[2.3452561,48.9514661],[2.3452135,48.9513715],[2.3452263,48.9513352],[2.3452846,48.9513196],[2.3453505,48.9511255],[2.3453173,48.9511087],[2.3455386,48.9505252],[2.3461031,48.9496905],[2.34641,48.9485219],[2.3466454,48.9486541],[2.3467405,48.9489628],[2.3484455,48.9487944],[2.3483365,48.9482316],[2.3481093,48.947716],[2.3478422,48.9474239],[2.3479527,48.947223]]]]},"properties":{"code_section":"930790000Q","code_commune":"93079","section_courte":"Q"}},{"type":"Feature","geometry":{"type":"MultiPolygon","coordinates":[[[[2.3481109,48.9558761],[2.348126,48.9559168],[2.3445612,48.9564169],[2.3436001,48.9535101],[2.3473786,48.9531374],[2.3481109,48.9558761]]]]},"properties":{"code_section":"930790000R","code_commune":"93079","section_courte":"R"}},{"type":"Feature","geometry":{"type":"MultiPolygon","coordinates":[[[[2.3412116,48.9524331],[2.3405161,48.9520773],[2.3405498,48.9519902],[2.3408614,48.951797],[2.3448677,48.9513926],[2.3448412,48.9514174],[2.3451611,48.9515586],[2.3451013,48.9519954],[2.3451021,48.9533613],[2.3436001,48.9535101],[2.3401007,48.9537466],[2.3400955,48.953704],[2.3412706,48.9524637],[2.3412116,48.9524331]]]]},"properties":{"code_section":"930790000S","code_commune":"93079","section_courte":"S"}},{"type":"Feature","geometry":{"type":"MultiPolygon","coordinates":[[[[2.3386185,48.9537882],[2.3382,48.9539805],[2.3374665,48.9527987],[2.3373398,48.9526987],[2.3400877,48.9507248],[2.3417672,48.9517213],[2.3408614,48.951797],[2.3405498,48.9519902],[2.3405161,48.9520773],[2.3412706,48.9524637],[2.3400955,48.953704],[2.3401007,48.9537466],[2.3398417,48.9537634],[2.3391307,48.9535593],[2.3386185,48.9537882]]]]},"properties":{"code_section":"930790000T","code_commune":"93079","section_courte":"T"}},{"type":"Feature","geometry":{"type":"MultiPolygon","coordinates":[[[[2.3416929,48.9516696],[2.3400877,48.9507248],[2.3422658,48.9491464],[2.3454591,48.9507105],[2.3452846,48.9513196],[2.3452263,48.9513352],[2.3452023,48.9514096],[2.3452561,48.9514661],[2.3452179,48.951581],[2.3448412,48.9514174],[2.3448677,48.9513926],[2.3417672,48.9517213],[2.3416929,48.9516696]]]]},"properties":{"code_section":"930790000U","code_commune":"93079","section_courte":"U"}},{"type":"Feature","geometry":{"type":"MultiPolygon","coordinates":[[[[2.3452146,48.9505945],[2.3422658,48.9491464],[2.3460481,48.9463972],[2.3479854,48.9471651],[2.3478422,48.9474239],[2.3481093,48.947716],[2.3483365,48.9482316],[2.3484455,48.9487944],[2.3467405,48.9489628],[2.3466454,48.9486541],[2.34641,48.9485219],[2.3460495,48.949797],[2.3455493,48.9505063],[2.3454591,48.9507105],[2.3452146,48.9505945]]]]},"properties":{"code_section":"930790000V","code_commune":"93079","section_courte":"V"}}]}