{"type":"FeatureCollection","features":[{"type":"Feature","geometry":{"type":"MultiPolygon","coordinates":[[[[2.5773387,48.9314413],[2.578463,48.9312492],[2.5800183,48.9311915],[2.5801421,48.9310897],[2.5801223,48.9308382],[2.5801831,48.9308273],[2.5808458,48.9308119],[2.5808744,48.9309792],[2.5825589,48.9307217],[2.5826349,48.9311975],[2.5830223,48.9321427],[2.5830286,48.9325332],[2.5829499,48.9332651],[2.5829985,48.9339778],[2.5831735,48.934793],[2.5834155,48.936735],[2.5831634,48.9374803],[2.5819214,48.9372938],[2.581904,48.9373345],[2.5814576,48.9372238],[2.5814214,48.9372894],[2.5810526,48.9372021],[2.5806904,48.9371055],[2.5806439,48.9370648],[2.5807638,48.9368715],[2.579476,48.9365177],[2.5793497,48.9365118],[2.5788887,48.936572],[2.578841,48.9366009],[2.5786038,48.936607],[2.577408,48.9365658],[2.577339,48.9364077],[2.5772652,48.9363889],[2.5769205,48.9364392],[2.5760343,48.9368018],[2.5758331,48.9369301],[2.5754525,48.9369713],[2.5743206,48.9368337],[2.5741746,48.9376206],[2.5740074,48.9377996],[2.5723759,48.9389562],[2.5721675,48.9390718],[2.5715982,48.9392425],[2.5712698,48.9393775],[2.5709753,48.9397082],[2.5707946,48.9399847],[2.5702527,48.9412176],[2.5694672,48.942357],[2.5689166,48.9432725],[2.5663449,48.9426185],[2.566818,48.9417548],[2.5669419,48.9416643],[2.5686615,48.9385563],[2.5687895,48.9382507],[2.5684693,48.937012],[2.5616049,48.9353742],[2.5610881,48.9362981],[2.5567708,48.9352569],[2.5569782,48.9341856],[2.5574521,48.9342045],[2.5575409,48.9337303],[2.5575871,48.9336724],[2.558673,48.9336119],[2.5599308,48.9337697],[2.5604593,48.9331498],[2.5606402,48.9330867],[2.5614342,48.933448],[2.5615547,48.9333703],[2.5616072,48.9332775],[2.56159,48.9328703],[2.5632013,48.9317869],[2.5637601,48.9309049],[2.5661448,48.9309066],[2.5655575,48.9320383],[2.5673967,48.9324095],[2.5684313,48.9303053],[2.5685618,48.9301866],[2.5690917,48.9300763],[2.5705771,48.9303522],[2.5708013,48.93057],[2.5736551,48.931412],[2.5755409,48.9316525],[2.5760156,48.9316828],[2.5773387,48.9314413]]]]},"properties":{"code_section":"930740000A","code_commune":"93074","section_courte":"A"}},{"type":"Feature","geometry":{"type":"MultiPolygon","coordinates":[[[[2.5825529,48.930463],[2.5825297,48.9302782],[2.5826113,48.9298717],[2.5825845,48.929654],[2.5823041,48.9293968],[2.5824387,48.9289686],[2.5831501,48.9274532],[2.5849123,48.9274224],[2.5856299,48.9273706],[2.5870329,48.9274875],[2.5887843,48.9279971],[2.5905934,48.9281186],[2.5908128,48.927838],[2.592112,48.9273448],[2.5925127,48.9269549],[2.5926044,48.9264759],[2.5921446,48.9251695],[2.5925247,48.9250677],[2.5927106,48.9250696],[2.5943107,48.9256567],[2.5960689,48.9258941],[2.5961757,48.9258984],[2.5963057,48.9258618],[2.5972026,48.9264576],[2.5975756,48.9268235],[2.5976886,48.9270584],[2.5977393,48.9273112],[2.5976971,48.9277575],[2.5986576,48.9278866],[2.5995485,48.9281179],[2.6002583,48.9284004],[2.6009066,48.9287829],[2.601529,48.9290544],[2.6022028,48.9292753],[2.6027136,48.9293711],[2.6025863,48.9298168],[2.6023987,48.9301832],[2.60238,48.9303648],[2.6024318,48.930492],[2.6028238,48.9308907],[2.6028999,48.9310526],[2.6029147,48.931216],[2.6027358,48.9318677],[2.6024163,48.9325624],[2.6023346,48.9334527],[2.60219,48.9339547],[2.6023509,48.93548],[2.6027257,48.9361212],[2.603071,48.937346],[2.6033215,48.937732],[2.6015125,48.9377925],[2.6016251,48.9384565],[2.5977331,48.9380543],[2.5977291,48.938826],[2.5947803,48.9385183],[2.5944582,48.9386455],[2.5941591,48.9383202],[2.5939616,48.9385113],[2.5936092,48.9384656],[2.5936194,48.9384305],[2.5922827,48.9382652],[2.5922716,48.9383034],[2.591096,48.9382295],[2.5910828,48.9382762],[2.5910062,48.9382797],[2.5904046,48.9382034],[2.5897176,48.9379773],[2.5891111,48.9379125],[2.5891039,48.937944],[2.5884992,48.9378872],[2.5884367,48.937874],[2.5884479,48.9378219],[2.5871635,48.9377174],[2.5870992,48.9376901],[2.5871085,48.9376384],[2.5858273,48.9375066],[2.584585,48.9374113],[2.5844238,48.9374262],[2.5841825,48.9375358],[2.5840762,48.9375511],[2.5831792,48.9374331],[2.5834155,48.936735],[2.5831735,48.934793],[2.5829985,48.9339778],[2.5829499,48.9332651],[2.5830286,48.9325332],[2.5830223,48.9321427],[2.5826349,48.9311975],[2.5825529,48.930463]]]]},"properties":{"code_section":"930740000B","code_commune":"93074","section_courte":"B"}},{"type":"Feature","geometry":{"type":"MultiPolygon","coordinates":[[[[2.5713167,48.9307292],[2.5708013,48.93057],[2.5705771,48.9303522],[2.5690917,48.9300763],[2.5685618,48.9301866],[2.5684313,48.9303053],[2.5673967,48.9324095],[2.5655575,48.9320383],[2.5661448,48.9309066],[2.5637601,48.9309049],[2.5642798,48.9298208],[2.5645376,48.9280008],[2.5652763,48.9271709],[2.5653365,48.9267155],[2.5655538,48.9262353],[2.5656525,48.9257298],[2.5662107,48.9253901],[2.5674803,48.9244065],[2.5722645,48.9243481],[2.5723525,48.9244701],[2.572321,48.9249325],[2.5724554,48.9249526],[2.5721602,48.925786],[2.5744568,48.9258745],[2.5751322,48.925947],[2.575605,48.9265541],[2.575942,48.9266818],[2.5764669,48.9272816],[2.5775737,48.9272562],[2.5787268,48.927316],[2.579681,48.9274654],[2.5802697,48.927278],[2.5813459,48.926823],[2.5815946,48.9267662],[2.5818635,48.9267514],[2.5823248,48.9267978],[2.5819157,48.9274388],[2.5831501,48.9274532],[2.5824387,48.9289686],[2.5823041,48.9293968],[2.5825845,48.929654],[2.5826113,48.9298717],[2.5825297,48.9302782],[2.5825922,48.9307181],[2.5808744,48.9309792],[2.5808458,48.9308119],[2.5801831,48.9308273],[2.5801223,48.9308382],[2.5801421,48.9310897],[2.5800183,48.9311915],[2.5781932,48.9312787],[2.5760156,48.9316828],[2.5755409,48.9316525],[2.5736551,48.931412],[2.5713167,48.9307292]]]]},"properties":{"code_section":"930740000C","code_commune":"93074","section_courte":"C"}}]}