{"type":"FeatureCollection","features":[{"type":"Feature","geometry":{"type":"MultiPolygon","coordinates":[[[[2.3795773,48.9715683],[2.375716,48.9720603],[2.3742015,48.9684878],[2.3771338,48.9680091],[2.377707,48.9679418],[2.3781649,48.9676596],[2.3776738,48.9673277],[2.3788792,48.9667582],[2.3817831,48.9663693],[2.3819424,48.9667085],[2.3828971,48.9678364],[2.3840613,48.9709854],[2.3795773,48.9715683]]]]},"properties":{"code_section":"930720000A","code_commune":"93072","section_courte":"A"}},{"type":"Feature","geometry":{"type":"MultiPolygon","coordinates":[[[[2.377707,48.9679418],[2.3771338,48.9680091],[2.3742015,48.9684878],[2.3737651,48.9674846],[2.3735572,48.9655252],[2.373451,48.9651222],[2.3734948,48.9646907],[2.3734108,48.9643403],[2.3775755,48.9630675],[2.3792592,48.9625863],[2.3797354,48.9622878],[2.381136,48.9649106],[2.3817831,48.9663693],[2.3788792,48.9667582],[2.3776738,48.9673277],[2.3781649,48.9676596],[2.377707,48.9679418]]]]},"properties":{"code_section":"930720000B","code_commune":"93072","section_courte":"B"}},{"type":"Feature","geometry":{"type":"MultiPolygon","coordinates":[[[[2.3853593,48.9694786],[2.3846202,48.9701226],[2.384469,48.9709671],[2.3840613,48.9709854],[2.3828971,48.9678364],[2.3819424,48.9667085],[2.3816805,48.9661017],[2.3845368,48.9645011],[2.3858435,48.9632889],[2.3875531,48.963814],[2.3884338,48.964248],[2.3902557,48.9655404],[2.3874049,48.9676965],[2.3853593,48.9694786]]]]},"properties":{"code_section":"930720000C","code_commune":"93072","section_courte":"C"}},{"type":"Feature","geometry":{"type":"MultiPolygon","coordinates":[[[[2.388556,48.9592912],[2.3880844,48.9597474],[2.3881175,48.9597615],[2.3874016,48.9605846],[2.3873403,48.9605608],[2.3871481,48.9607882],[2.3872009,48.9608148],[2.3868628,48.9612227],[2.3868865,48.9612738],[2.3864531,48.9618817],[2.3859241,48.9627658],[2.3862125,48.9628566],[2.3859779,48.9632424],[2.3857841,48.9633277],[2.3845368,48.9645011],[2.3816805,48.9661017],[2.381136,48.9649106],[2.3797354,48.9622878],[2.3814455,48.960972],[2.3818579,48.9605727],[2.382108,48.9596479],[2.3835379,48.9597283],[2.3838789,48.9583726],[2.3839025,48.9582357],[2.3838194,48.958231],[2.3838154,48.9581892],[2.3840409,48.9581276],[2.3844723,48.9580685],[2.3848396,48.957827],[2.3847493,48.9577467],[2.384745,48.957697],[2.3848792,48.957624],[2.3850273,48.9574644],[2.3860609,48.9577775],[2.386642,48.9580074],[2.3887408,48.959114],[2.388556,48.9592912]]]]},"properties":{"code_section":"930720000D","code_commune":"93072","section_courte":"D"}},{"type":"Feature","geometry":{"type":"MultiPolygon","coordinates":[[[[2.3859241,48.9627658],[2.3864531,48.9618817],[2.3868865,48.9612738],[2.3868628,48.9612227],[2.3872009,48.9608148],[2.3871481,48.9607882],[2.3873403,48.9605608],[2.3874016,48.9605846],[2.3881175,48.9597615],[2.3880844,48.9597474],[2.3887408,48.959114],[2.3896379,48.9596045],[2.3901609,48.9598185],[2.3925605,48.9604809],[2.3932717,48.9606131],[2.395326,48.9608159],[2.3966014,48.9610976],[2.3942877,48.9625578],[2.3945754,48.9626493],[2.3931502,48.9636575],[2.3932393,48.9637038],[2.3922539,48.9645251],[2.3918364,48.9646856],[2.3911348,48.9650909],[2.3909451,48.9649546],[2.3902301,48.9655225],[2.3884338,48.964248],[2.3875531,48.963814],[2.3858435,48.9632889],[2.3859779,48.9632424],[2.3862125,48.9628566],[2.3859241,48.9627658]]]]},"properties":{"code_section":"930720000E","code_commune":"93072","section_courte":"E"}},{"type":"Feature","geometry":{"type":"MultiPolygon","coordinates":[[[[2.386263,48.9567168],[2.3879507,48.9558848],[2.3893114,48.9553476],[2.3900972,48.9550963],[2.3902036,48.9550907],[2.3908394,48.9549125],[2.3915956,48.9549037],[2.3919632,48.954779],[2.3946585,48.9562713],[2.3957672,48.9570243],[2.39791,48.9587945],[2.3988486,48.9596404],[2.3966584,48.9611117],[2.395326,48.9608159],[2.3932717,48.9606131],[2.3925605,48.9604809],[2.3901609,48.9598185],[2.3895881,48.9595797],[2.386401,48.9578968],[2.3848472,48.9574045],[2.3849683,48.957383],[2.386263,48.9567168]]]]},"properties":{"code_section":"930720000F","code_commune":"93072","section_courte":"F"}},{"type":"Feature","geometry":{"type":"MultiPolygon","coordinates":[[[[2.3861247,48.9547173],[2.3875327,48.9540128],[2.3885143,48.9531886],[2.3892546,48.9526831],[2.3907491,48.9541002],[2.3911217,48.9543649],[2.3916923,48.9546669],[2.3918302,48.9548136],[2.3915956,48.9549037],[2.3908394,48.9549125],[2.3902036,48.9550907],[2.3900972,48.9550963],[2.3888174,48.9555278],[2.3877534,48.9559766],[2.3869928,48.9554453],[2.3870423,48.9554133],[2.386318,48.9547821],[2.3862073,48.9547703],[2.3861247,48.9547173]]]]},"properties":{"code_section":"930720000G","code_commune":"93072","section_courte":"G"}},{"type":"Feature","geometry":{"type":"MultiPolygon","coordinates":[[[[2.3849708,48.9574505],[2.3850273,48.9574644],[2.3848792,48.957624],[2.384745,48.957697],[2.3847493,48.9577467],[2.3848396,48.957827],[2.3844723,48.9580685],[2.3840409,48.9581276],[2.3838154,48.9581892],[2.3836401,48.9574321],[2.383632,48.9570389],[2.3819425,48.9568556],[2.3820688,48.956456],[2.3823539,48.9561351],[2.3829498,48.9558472],[2.3849971,48.955283],[2.3861247,48.9547173],[2.3862073,48.9547703],[2.386318,48.9547821],[2.3870423,48.9554133],[2.3869928,48.9554453],[2.3877534,48.9559766],[2.3849683,48.957383],[2.3848472,48.9574045],[2.3849708,48.9574505]]]]},"properties":{"code_section":"930720000H","code_commune":"93072","section_courte":"H"}},{"type":"Feature","geometry":{"type":"MultiPolygon","coordinates":[[[[2.380526,48.9546508],[2.3810539,48.9548337],[2.3826147,48.9546296],[2.3829219,48.9555613],[2.3830466,48.9556977],[2.3829498,48.9558472],[2.3823458,48.9561408],[2.3820688,48.956456],[2.381821,48.9572432],[2.3809088,48.9573096],[2.3802812,48.9572312],[2.3783799,48.9566002],[2.3785718,48.9559828],[2.3792848,48.9552664],[2.3797999,48.9554634],[2.380526,48.9546508]]]]},"properties":{"code_section":"930720000I","code_commune":"93072","section_courte":"I"}},{"type":"Feature","geometry":{"type":"MultiPolygon","coordinates":[[[[2.3810419,48.9588406],[2.3783879,48.9585797],[2.378425,48.958527],[2.3776231,48.9583491],[2.3781378,48.957301],[2.3783799,48.9566002],[2.3802812,48.9572312],[2.3809088,48.9573096],[2.381821,48.9572432],[2.3819425,48.9568556],[2.383632,48.9570389],[2.3836401,48.9574321],[2.3837446,48.9578096],[2.3837096,48.9578288],[2.3838194,48.958231],[2.3839025,48.9582357],[2.3835379,48.9597283],[2.382108,48.9596479],[2.3822782,48.9589896],[2.3810419,48.9588406]]]]},"properties":{"code_section":"930720000J","code_commune":"93072","section_courte":"J"}},{"type":"Feature","geometry":{"type":"MultiPolygon","coordinates":[[[[2.3810419,48.9588406],[2.3822782,48.9589896],[2.3818579,48.9605727],[2.3814455,48.960972],[2.3797354,48.9622878],[2.3792592,48.9625863],[2.3775755,48.9630675],[2.3734108,48.9643403],[2.3734046,48.962588],[2.3732423,48.9618225],[2.3731191,48.9607616],[2.3733671,48.959881],[2.3734327,48.9598752],[2.3733123,48.9595828],[2.3738109,48.9594394],[2.3741596,48.9593777],[2.3759081,48.958823],[2.3773571,48.958642],[2.3776231,48.9583491],[2.378425,48.958527],[2.3783879,48.9585797],[2.3810419,48.9588406]]]]},"properties":{"code_section":"930720000K","code_commune":"93072","section_courte":"K"}},{"type":"Feature","geometry":{"type":"MultiPolygon","coordinates":[[[[2.3780887,48.9574062],[2.3776231,48.9583491],[2.3773571,48.958642],[2.3759081,48.958823],[2.3741596,48.9593777],[2.3738109,48.9594394],[2.3733123,48.9595828],[2.3734327,48.9598752],[2.3733671,48.959881],[2.3732941,48.9600966],[2.3689967,48.9601425],[2.3688095,48.9589405],[2.3654575,48.9588279],[2.3677578,48.9542455],[2.3719078,48.955129],[2.3719611,48.9550085],[2.3730407,48.9552232],[2.3739466,48.9553117],[2.3743977,48.9565685],[2.374688,48.956651],[2.3752595,48.9555528],[2.3753962,48.955592],[2.3753673,48.9556384],[2.3763381,48.9559423],[2.3761689,48.9562382],[2.3771597,48.9565493],[2.3768882,48.9570893],[2.3781151,48.957348],[2.3780887,48.9574062]]]]},"properties":{"code_section":"930720000L","code_commune":"93072","section_courte":"L"}},{"type":"Feature","geometry":{"type":"MultiPolygon","coordinates":[[[[2.3760428,48.9558507],[2.3753673,48.9556384],[2.3753962,48.955592],[2.3752595,48.9555528],[2.374688,48.956651],[2.3743977,48.9565685],[2.3740529,48.9556581],[2.3737501,48.9546586],[2.3738103,48.9540322],[2.375399,48.9545831],[2.3778448,48.9556249],[2.3784609,48.9549328],[2.3792848,48.9552664],[2.3785718,48.9559828],[2.3781151,48.957348],[2.3768882,48.9570893],[2.3771597,48.9565493],[2.3761689,48.9562382],[2.3763381,48.9559423],[2.3760428,48.9558507]]]]},"properties":{"code_section":"930720000M","code_commune":"93072","section_courte":"M"}},{"type":"Feature","geometry":{"type":"MultiPolygon","coordinates":[[[[2.3737715,48.9539295],[2.3737226,48.953938],[2.3738103,48.9540322],[2.3737501,48.9546586],[2.3739466,48.9553117],[2.3730407,48.9552232],[2.3719611,48.9550085],[2.3719078,48.955129],[2.3677578,48.9542455],[2.3688118,48.9527618],[2.3691875,48.9523232],[2.3701886,48.9499567],[2.3716829,48.9469681],[2.3740402,48.9474107],[2.3740348,48.9479843],[2.37501,48.9479822],[2.3750113,48.948102],[2.3749791,48.9480929],[2.3748986,48.9483403],[2.3748242,48.949491],[2.3748374,48.9503003],[2.3747725,48.9507121],[2.3746772,48.9511223],[2.37421,48.951483],[2.3739931,48.9518337],[2.3739736,48.9519009],[2.3744835,48.9519524],[2.3743404,48.9525702],[2.3737715,48.9539295]]]]},"properties":{"code_section":"930720000N","code_commune":"93072","section_courte":"N"}},{"type":"Feature","geometry":{"type":"MultiPolygon","coordinates":[[[[2.3749011,48.9483308],[2.3749791,48.9480929],[2.3750113,48.948102],[2.37501,48.9479822],[2.3740348,48.9479843],[2.3740402,48.9474107],[2.3806144,48.9486622],[2.3808605,48.9492866],[2.3804879,48.9493398],[2.3800257,48.9503901],[2.3802616,48.9504335],[2.3802915,48.9505448],[2.3800461,48.9505791],[2.3799316,48.9509111],[2.3784198,48.951118],[2.3782863,48.9510943],[2.3781545,48.9511145],[2.3779075,48.9512693],[2.3781394,48.9514921],[2.3781578,48.953752],[2.3780045,48.9543683],[2.3784609,48.9549328],[2.3778448,48.9556249],[2.375399,48.9545831],[2.3738103,48.9540322],[2.3737226,48.953938],[2.3737844,48.953902],[2.3743404,48.9525702],[2.3744835,48.9519524],[2.3739736,48.9519009],[2.3739931,48.9518337],[2.37421,48.951483],[2.3746772,48.9511223],[2.3747725,48.9507121],[2.3748374,48.9503003],[2.3748242,48.949491],[2.3749011,48.9483308]]]]},"properties":{"code_section":"930720000O","code_commune":"93072","section_courte":"O"}},{"type":"Feature","geometry":{"type":"MultiPolygon","coordinates":[[[[2.3798276,48.9554278],[2.3797999,48.9554634],[2.3784609,48.9549328],[2.3780045,48.9543683],[2.3781578,48.953752],[2.3781394,48.9514921],[2.3779075,48.9512693],[2.3781545,48.9511145],[2.3782861,48.9510943],[2.3784198,48.951118],[2.3799316,48.9509111],[2.3800461,48.9505791],[2.3802915,48.9505448],[2.3802616,48.9504335],[2.3800257,48.9503901],[2.3804879,48.9493398],[2.3808605,48.9492866],[2.3806144,48.9486622],[2.3860889,48.9497068],[2.3830466,48.9556977],[2.3829219,48.9555613],[2.3826147,48.9546296],[2.3810539,48.9548337],[2.380526,48.9546508],[2.3798276,48.9554278]]]]},"properties":{"code_section":"930720000P","code_commune":"93072","section_courte":"P"}},{"type":"Feature","geometry":{"type":"MultiPolygon","coordinates":[[[[2.3879027,48.9537047],[2.3873974,48.9540981],[2.3849971,48.955283],[2.3829498,48.9558472],[2.3847667,48.9523007],[2.3863932,48.9520696],[2.3879027,48.9537047]]]]},"properties":{"code_section":"930720000Q","code_commune":"93072","section_courte":"Q"}},{"type":"Feature","geometry":{"type":"MultiPolygon","coordinates":[[[[2.3860889,48.9497068],[2.3892546,48.9526831],[2.3885143,48.9531886],[2.3879027,48.9537047],[2.3863932,48.9520696],[2.3847667,48.9523007],[2.3860889,48.9497068]]]]},"properties":{"code_section":"930720000R","code_commune":"93072","section_courte":"R"}},{"type":"Feature","geometry":{"type":"MultiPolygon","coordinates":[[[[2.3870037,48.9443513],[2.3860889,48.9497068],[2.3752186,48.9476295],[2.375586,48.9465795],[2.3757634,48.9462164],[2.3769309,48.9446973],[2.3778125,48.9448754],[2.3789063,48.9448095],[2.379529,48.944874],[2.3815884,48.9452569],[2.3821424,48.9454417],[2.3829473,48.9443002],[2.3831082,48.944348],[2.3835621,48.943708],[2.3835273,48.9436976],[2.3836779,48.9434723],[2.3838597,48.9434981],[2.3844497,48.9438285],[2.3847884,48.9436967],[2.3848282,48.9437153],[2.3848306,48.9438465],[2.3854,48.9439075],[2.3857031,48.9438718],[2.3857496,48.9439151],[2.3857515,48.9440047],[2.3858291,48.9440474],[2.3860432,48.9439256],[2.3861154,48.9439223],[2.3861754,48.9440289],[2.3864215,48.9441593],[2.3870037,48.9443513]]]]},"properties":{"code_section":"930720000S","code_commune":"93072","section_courte":"S"}},{"type":"Feature","geometry":{"type":"MultiPolygon","coordinates":[[[[2.3900886,48.9468942],[2.3903863,48.946951],[2.3908245,48.94698],[2.3910729,48.9470355],[2.3919423,48.9473505],[2.3922182,48.9474808],[2.3924632,48.9475325],[2.3927974,48.9476803],[2.3931143,48.9477557],[2.3933194,48.9478617],[2.3937626,48.9479486],[2.3943018,48.9483931],[2.3942643,48.9484037],[2.3952049,48.9493975],[2.395136,48.9497694],[2.3905332,48.9536984],[2.390387,48.9537721],[2.3879864,48.9514635],[2.3860889,48.9497068],[2.3870037,48.9443513],[2.3872715,48.9444234],[2.3876105,48.9445743],[2.3877303,48.9447692],[2.387856,48.9448404],[2.3886282,48.9449756],[2.3897181,48.9453718],[2.3899358,48.9454134],[2.3901105,48.9454836],[2.3901654,48.9455855],[2.3901422,48.9458463],[2.3898359,48.9462459],[2.3897049,48.9466075],[2.3897205,48.9466924],[2.3898182,48.9467907],[2.3900886,48.9468942]]]]},"properties":{"code_section":"930720000T","code_commune":"93072","section_courte":"T"}},{"type":"Feature","geometry":{"type":"MultiPolygon","coordinates":[[[[2.4008327,48.9498078],[2.4013928,48.9500748],[2.401602,48.9500019],[2.4019469,48.9502373],[2.4019987,48.950244],[2.4020952,48.9501718],[2.4021556,48.9501666],[2.4031022,48.9507814],[2.4025847,48.9511642],[2.4017462,48.9516614],[2.4003236,48.9523353],[2.3997932,48.9525426],[2.3990642,48.9528102],[2.3977386,48.9532145],[2.3923146,48.9545398],[2.3919147,48.9546932],[2.3917602,48.9546537],[2.3916923,48.9546669],[2.3911217,48.9543649],[2.3907491,48.9541002],[2.390387,48.9537721],[2.3905332,48.9536984],[2.395136,48.9497694],[2.3952049,48.9493975],[2.3942643,48.9484037],[2.3946101,48.9484173],[2.3946642,48.9484486],[2.394858,48.9487465],[2.3949412,48.948783],[2.3951258,48.9487763],[2.3951869,48.9487986],[2.3954415,48.9492144],[2.3954973,48.9493885],[2.3958139,48.9492748],[2.3960391,48.9492349],[2.3969178,48.9494483],[2.3972055,48.9496587],[2.3976703,48.9494677],[2.3981275,48.9489547],[2.3981002,48.9489115],[2.3974419,48.9486327],[2.397668,48.9485756],[2.3977733,48.9485142],[2.3981316,48.9481555],[2.3990396,48.9487746],[2.3992876,48.948572],[2.3993309,48.9487131],[2.3994447,48.948771],[2.3994362,48.9488948],[2.3994769,48.9489089],[2.3995574,48.9488764],[2.3997362,48.9490195],[2.3996794,48.949126],[2.3997073,48.9491719],[2.3998899,48.9493069],[2.4000541,48.9493466],[2.400205,48.9494631],[2.4004788,48.9495912],[2.4006323,48.9497656],[2.4008327,48.9498078]]]]},"properties":{"code_section":"930720000U","code_commune":"93072","section_courte":"U"}},{"type":"Feature","geometry":{"type":"MultiPolygon","coordinates":[[[[2.4030237,48.9576115],[2.402563,48.9579472],[2.3990833,48.9595753],[2.3988486,48.9596404],[2.39791,48.9587945],[2.3957672,48.9570243],[2.3946585,48.9562713],[2.3919632,48.954779],[2.3918302,48.9548136],[2.3916923,48.9546669],[2.3917602,48.9546537],[2.3919147,48.9546932],[2.3923146,48.9545398],[2.3972423,48.9533319],[2.3969474,48.9537288],[2.3993322,48.9547562],[2.3987333,48.9552764],[2.4030237,48.9576115]]]]},"properties":{"code_section":"930720000V","code_commune":"93072","section_courte":"V"}},{"type":"Feature","geometry":{"type":"MultiPolygon","coordinates":[[[[2.4069141,48.9546062],[2.4068904,48.9546724],[2.4070526,48.9551142],[2.4072873,48.9555043],[2.4073392,48.9560396],[2.4047102,48.957428],[2.4032933,48.9580227],[2.402563,48.9579472],[2.4030237,48.9576115],[2.3987333,48.9552764],[2.3993322,48.9547562],[2.3969474,48.9537288],[2.3972423,48.9533319],[2.3977386,48.9532145],[2.3990642,48.9528102],[2.4003236,48.9523353],[2.4017462,48.9516614],[2.4025847,48.9511642],[2.4031022,48.9507814],[2.4034165,48.9510544],[2.403844,48.9512337],[2.4039197,48.9513512],[2.4041194,48.9515139],[2.4035633,48.9518858],[2.4029681,48.9517938],[2.4032504,48.951886],[2.4033918,48.9519965],[2.4034742,48.9520159],[2.4039031,48.9519887],[2.4045258,48.9520281],[2.4052536,48.9521504],[2.4054775,48.9521538],[2.406413,48.9522669],[2.4067421,48.9523954],[2.4069956,48.9523089],[2.4070571,48.9523162],[2.4074733,48.9526913],[2.4079632,48.953031],[2.4080605,48.9531311],[2.4078743,48.9532268],[2.4077631,48.9539324],[2.4078217,48.9541745],[2.4079335,48.9542413],[2.4078291,48.9543477],[2.407356,48.9543391],[2.4071799,48.9543767],[2.4069141,48.9546062]]]]},"properties":{"code_section":"930720000X","code_commune":"93072","section_courte":"X"}}]}