{"type":"FeatureCollection","features":[{"type":"Feature","geometry":{"type":"MultiPolygon","coordinates":[[[[2.3338652,48.9228168],[2.3332359,48.9231779],[2.331175,48.9209355],[2.3324522,48.920458],[2.3324502,48.9203952],[2.3344995,48.9194304],[2.3349723,48.9197329],[2.3372755,48.9209921],[2.3369992,48.9211279],[2.336835,48.9210983],[2.3338652,48.9228168]]]]},"properties":{"code_section":"930700000A","code_commune":"93070","section_courte":"A"}},{"type":"Feature","geometry":{"type":"MultiPolygon","coordinates":[[[[2.3287594,48.9186833],[2.3295233,48.9181739],[2.3307669,48.9177933],[2.3312452,48.9175542],[2.3313122,48.9175555],[2.3314412,48.917639],[2.3319845,48.9175544],[2.3335014,48.9187612],[2.3336444,48.9189216],[2.3344995,48.9194304],[2.3324502,48.9203952],[2.3324522,48.920458],[2.331175,48.9209355],[2.3300756,48.9197335],[2.3295585,48.9192866],[2.3287594,48.9186833]]]]},"properties":{"code_section":"930700000B","code_commune":"93070","section_courte":"B"}},{"type":"Feature","geometry":{"type":"MultiPolygon","coordinates":[[[[2.3371476,48.9209233],[2.3349723,48.9197329],[2.3342702,48.9192793],[2.3349557,48.9189632],[2.3366556,48.9183049],[2.3387754,48.9173413],[2.3391428,48.9181177],[2.3393341,48.9183354],[2.3395576,48.9188792],[2.3399787,48.919594],[2.3391124,48.9199217],[2.339151,48.9199682],[2.3371476,48.9209233]]]]},"properties":{"code_section":"930700000C","code_commune":"93070","section_courte":"C"}},{"type":"Feature","geometry":{"type":"MultiPolygon","coordinates":[[[[2.3387502,48.9172896],[2.3387754,48.9173413],[2.3366556,48.9183049],[2.3349557,48.9189632],[2.3342702,48.9192793],[2.3340123,48.9191572],[2.3336444,48.9189216],[2.3335014,48.9187612],[2.3319845,48.9175544],[2.3328594,48.9171867],[2.3328893,48.9171128],[2.3358972,48.9160244],[2.3377928,48.9152121],[2.3387502,48.9172896]]]]},"properties":{"code_section":"930700000D","code_commune":"93070","section_courte":"D"}},{"type":"Feature","geometry":{"type":"MultiPolygon","coordinates":[[[[2.3342498,48.9165794],[2.3342761,48.9166135],[2.3328893,48.9171128],[2.3328594,48.9171867],[2.3319845,48.9175544],[2.3314412,48.917639],[2.3313122,48.9175555],[2.3312452,48.9175542],[2.3307669,48.9177933],[2.3295233,48.9181739],[2.330353,48.9164584],[2.3311238,48.9156122],[2.3313459,48.9152715],[2.332103,48.9143827],[2.3338444,48.9157552],[2.333688,48.9158251],[2.3337706,48.9159067],[2.3337143,48.9159303],[2.334085,48.9162725],[2.3340221,48.9162995],[2.3342498,48.9165794]]]]},"properties":{"code_section":"930700000E","code_commune":"93070","section_courte":"E"}},{"type":"Feature","geometry":{"type":"MultiPolygon","coordinates":[[[[2.333688,48.9158251],[2.3338444,48.9157552],[2.332103,48.9143827],[2.3321698,48.9143044],[2.3338332,48.9132906],[2.3348705,48.9128328],[2.3377928,48.9152121],[2.3358972,48.9160244],[2.3342761,48.9166135],[2.3340221,48.9162995],[2.334085,48.9162725],[2.3337143,48.9159303],[2.3337706,48.9159067],[2.333688,48.9158251]]]]},"properties":{"code_section":"930700000F","code_commune":"93070","section_courte":"F"}},{"type":"Feature","geometry":{"type":"MultiPolygon","coordinates":[[[[2.3236031,48.9159744],[2.3303036,48.90979],[2.3334922,48.9117672],[2.3333808,48.9118772],[2.333351,48.9120105],[2.3333806,48.9121175],[2.3324062,48.9123702],[2.332422,48.9126181],[2.3338332,48.9132906],[2.3321698,48.9143044],[2.3313459,48.9152715],[2.3311238,48.9156122],[2.330353,48.9164584],[2.3295233,48.9181739],[2.3287594,48.9186833],[2.328192,48.9183956],[2.324716,48.9170476],[2.3238637,48.9167821],[2.3229416,48.9165729],[2.3236031,48.9159744]]]]},"properties":{"code_section":"930700000G","code_commune":"93070","section_courte":"G"}},{"type":"Feature","geometry":{"type":"MultiPolygon","coordinates":[[[[2.3268522,48.9076352],[2.3303036,48.90979],[2.3286639,48.9113041],[2.326369,48.9102756],[2.3235638,48.9093395],[2.3243514,48.9085607],[2.3241933,48.9084899],[2.3249143,48.9077839],[2.3257754,48.9074333],[2.3261591,48.9072061],[2.3268522,48.9076352]]]]},"properties":{"code_section":"930700000H","code_commune":"93070","section_courte":"H"}},{"type":"Feature","geometry":{"type":"MultiPolygon","coordinates":[[[[2.3204946,48.9084321],[2.3217943,48.9073165],[2.3218724,48.9071975],[2.3221055,48.9061404],[2.3222667,48.906025],[2.3224101,48.9060523],[2.3233256,48.9054447],[2.3261591,48.9072061],[2.3257754,48.9074333],[2.3249143,48.9077839],[2.3241933,48.9084899],[2.3243514,48.9085607],[2.3235638,48.9093395],[2.3229586,48.9091376],[2.3229835,48.9091055],[2.3220106,48.908777],[2.3219709,48.9088295],[2.3213183,48.9086392],[2.3212602,48.9085967],[2.3204946,48.9084321]]]]},"properties":{"code_section":"930700000I","code_commune":"93070","section_courte":"I"}},{"type":"Feature","geometry":{"type":"MultiPolygon","coordinates":[[[[2.3272224,48.9106553],[2.3286639,48.9113041],[2.3229416,48.9165729],[2.3214265,48.9163469],[2.3206926,48.9161895],[2.3198738,48.9159578],[2.3172535,48.9150972],[2.3179545,48.9141565],[2.3183284,48.913589],[2.3185792,48.9130444],[2.3189976,48.9117857],[2.3192656,48.9112456],[2.3204848,48.9096346],[2.3209266,48.9092232],[2.3216061,48.908718],[2.3219709,48.9088295],[2.3220106,48.908777],[2.3229835,48.9091055],[2.3229586,48.9091376],[2.326369,48.9102756],[2.3272224,48.9106553]]]]},"properties":{"code_section":"930700000J","code_commune":"93070","section_courte":"J"}},{"type":"Feature","geometry":{"type":"MultiPolygon","coordinates":[[[[2.3143807,48.9132049],[2.3155253,48.911668],[2.3161831,48.9116907],[2.3164258,48.9116719],[2.316521,48.9117016],[2.3165658,48.9117539],[2.3167636,48.9116574],[2.3188117,48.9123338],[2.3185792,48.9130444],[2.3183284,48.913589],[2.3179545,48.9141565],[2.3172535,48.9150972],[2.3137751,48.9140145],[2.3143807,48.9132049]]]]},"properties":{"code_section":"930700000K","code_commune":"93070","section_courte":"K"}},{"type":"Feature","geometry":{"type":"MultiPolygon","coordinates":[[[[2.3165655,48.9102775],[2.3162615,48.9101516],[2.3183777,48.9079769],[2.3212602,48.9085967],[2.3213183,48.9086392],[2.3216061,48.908718],[2.3208127,48.9093194],[2.3202652,48.9098993],[2.3192308,48.9112974],[2.3189976,48.9117857],[2.3188117,48.9123338],[2.3167636,48.9116574],[2.3165658,48.9117539],[2.316521,48.9117016],[2.3164258,48.9116719],[2.3161831,48.9116907],[2.3155253,48.911668],[2.3165655,48.9102775]]]]},"properties":{"code_section":"930700000L","code_commune":"93070","section_courte":"L"}},{"type":"Feature","geometry":{"type":"MultiPolygon","coordinates":[[[[2.3218724,48.9071975],[2.3217943,48.9073165],[2.3204946,48.9084321],[2.3179629,48.9078935],[2.3209072,48.9046234],[2.3205325,48.9036814],[2.3233256,48.9054447],[2.3224101,48.9060523],[2.3222667,48.906025],[2.3221055,48.9061404],[2.3218724,48.9071975]]]]},"properties":{"code_section":"930700000M","code_commune":"93070","section_courte":"M"}},{"type":"Feature","geometry":{"type":"MultiPolygon","coordinates":[[[[2.3236438,48.9024724],[2.3241947,48.9037351],[2.3253008,48.9052046],[2.3247704,48.9063444],[2.3205325,48.9036814],[2.3204279,48.9033996],[2.3207927,48.9031452],[2.3208154,48.9031612],[2.3230653,48.9019707],[2.3236438,48.9024724]]]]},"properties":{"code_section":"930700000N","code_commune":"93070","section_courte":"N"}},{"type":"Feature","geometry":{"type":"MultiPolygon","coordinates":[[[[2.3204036,48.903338],[2.3196149,48.9013134],[2.3198865,48.9004573],[2.320387,48.90076],[2.323263,48.9008572],[2.3231831,48.9011819],[2.3232502,48.901226],[2.3230653,48.9019707],[2.3208154,48.9031612],[2.3207927,48.9031452],[2.3204279,48.9033996],[2.3204036,48.903338]]]]},"properties":{"code_section":"930700000O","code_commune":"93070","section_courte":"O"}},{"type":"Feature","geometry":{"type":"MultiPolygon","coordinates":[[[[2.3265283,48.9023938],[2.3266008,48.9027267],[2.3268776,48.9030398],[2.3245828,48.9042537],[2.3241947,48.9037351],[2.3236438,48.9024724],[2.3230653,48.9019707],[2.3232502,48.901226],[2.3231831,48.9011819],[2.323263,48.9008572],[2.3258732,48.9009505],[2.3263306,48.9014122],[2.3265283,48.9023938]]]]},"properties":{"code_section":"930700000P","code_commune":"93070","section_courte":"P"}},{"type":"Feature","geometry":{"type":"MultiPolygon","coordinates":[[[[2.3270752,48.9032654],[2.3287349,48.9045118],[2.3269968,48.9068064],[2.3268522,48.9076352],[2.3247704,48.9063444],[2.3253008,48.9052046],[2.3245828,48.9042537],[2.3268776,48.9030398],[2.3270752,48.9032654]]]]},"properties":{"code_section":"930700000Q","code_commune":"93070","section_courte":"Q"}},{"type":"Feature","geometry":{"type":"MultiPolygon","coordinates":[[[[2.3304779,48.9058028],[2.331894,48.9066119],[2.3312587,48.9073811],[2.3299682,48.9086058],[2.3297149,48.9094254],[2.3268522,48.9076352],[2.3269968,48.9068064],[2.3287349,48.9045118],[2.3304779,48.9058028]]]]},"properties":{"code_section":"930700000R","code_commune":"93070","section_courte":"R"}},{"type":"Feature","geometry":{"type":"MultiPolygon","coordinates":[[[[2.3299682,48.9086058],[2.3311275,48.9075084],[2.3323946,48.90771],[2.332637,48.9084405],[2.3332676,48.90801],[2.3354708,48.9094098],[2.3334407,48.9108148],[2.3337312,48.9116757],[2.3334922,48.9117672],[2.3297149,48.9094254],[2.3299682,48.9086058]]]]},"properties":{"code_section":"930700000S","code_commune":"93070","section_courte":"S"}},{"type":"Feature","geometry":{"type":"MultiPolygon","coordinates":[[[[2.3379843,48.9101046],[2.3378662,48.9102086],[2.3367783,48.9116956],[2.3362545,48.9120731],[2.3348705,48.9128328],[2.3338332,48.9132906],[2.332422,48.9126181],[2.3324062,48.9123702],[2.3333806,48.9121175],[2.333351,48.9120105],[2.3333808,48.9118772],[2.3334922,48.9117672],[2.3337312,48.9116757],[2.3334407,48.9108148],[2.3354708,48.9094098],[2.3359432,48.9096996],[2.3364816,48.9093545],[2.3367007,48.9090866],[2.3379843,48.9101046]]]]},"properties":{"code_section":"930700000T","code_commune":"93070","section_courte":"T"}},{"type":"Feature","geometry":{"type":"MultiPolygon","coordinates":[[[[2.3336947,48.9077173],[2.3353706,48.9065706],[2.3367069,48.9075219],[2.3370949,48.9078446],[2.3372681,48.9079201],[2.3390423,48.9091807],[2.3379843,48.9101046],[2.3367007,48.9090866],[2.3364816,48.9093545],[2.3359432,48.9096996],[2.3332676,48.90801],[2.3336947,48.9077173]]]]},"properties":{"code_section":"930700000U","code_commune":"93070","section_courte":"U"}},{"type":"Feature","geometry":{"type":"MultiPolygon","coordinates":[[[[2.331894,48.9066119],[2.3336551,48.9036375],[2.335271,48.905014],[2.3363863,48.9058758],[2.332637,48.9084405],[2.3323946,48.90771],[2.3311275,48.9075084],[2.331894,48.9066119]]]]},"properties":{"code_section":"930700000V","code_commune":"93070","section_courte":"V"}},{"type":"Feature","geometry":{"type":"MultiPolygon","coordinates":[[[[2.3306276,48.9024649],[2.3313942,48.9047461],[2.3331725,48.9044864],[2.331894,48.9066119],[2.3304779,48.9058028],[2.3287349,48.9045118],[2.33052,48.9021606],[2.3306276,48.9024649]]]]},"properties":{"code_section":"930700000X","code_commune":"93070","section_courte":"X"}},{"type":"Feature","geometry":{"type":"MultiPolygon","coordinates":[[[[2.3296487,48.9010279],[2.3301473,48.9010387],[2.33052,48.9021606],[2.3287349,48.9045118],[2.327139,48.9033378],[2.3266008,48.9027267],[2.3263306,48.9014122],[2.3258732,48.9009505],[2.3296487,48.9010279]]]]},"properties":{"code_section":"930700000Y","code_commune":"93070","section_courte":"Y"}},{"type":"Feature","geometry":{"type":"MultiPolygon","coordinates":[[[[2.3338106,48.9033741],[2.3331725,48.9044864],[2.3313942,48.9047461],[2.3301473,48.9010387],[2.331336,48.9010623],[2.3325474,48.9020652],[2.3326598,48.9020007],[2.332778,48.9020978],[2.332749,48.9021192],[2.3328344,48.9021957],[2.3327787,48.9022251],[2.3330318,48.9025026],[2.3331525,48.9024832],[2.3338507,48.9031058],[2.3339948,48.9030687],[2.3338106,48.9033741]]]]},"properties":{"code_section":"930700000Z","code_commune":"93070","section_courte":"Z"}},{"type":"Feature","geometry":{"type":"MultiPolygon","coordinates":[[[[2.3320471,48.9016518],[2.331336,48.9010623],[2.3373928,48.9011957],[2.3343304,48.9029822],[2.3344321,48.9023256],[2.3339948,48.9030687],[2.3338507,48.9031058],[2.3331525,48.9024832],[2.3330318,48.9025026],[2.3327787,48.9022251],[2.3328344,48.9021957],[2.3326598,48.9020007],[2.3325474,48.9020652],[2.3320471,48.9016518]]]]},"properties":{"code_section":"93070000AB","code_commune":"93070","section_courte":"AB"}},{"type":"Feature","geometry":{"type":"MultiPolygon","coordinates":[[[[2.3380669,48.9012088],[2.343292,48.9013143],[2.3427677,48.9020079],[2.3403408,48.9032258],[2.3378168,48.9012016],[2.3380669,48.9012088]]]]},"properties":{"code_section":"93070000AC","code_commune":"93070","section_courte":"AC"}},{"type":"Feature","geometry":{"type":"MultiPolygon","coordinates":[[[[2.337764,48.9012002],[2.3378168,48.9012016],[2.3403408,48.9032258],[2.3400348,48.9033747],[2.3380494,48.904738],[2.3367977,48.9039421],[2.3364156,48.9036539],[2.3362819,48.90343],[2.3366206,48.9032328],[2.335374,48.9023737],[2.3373928,48.9011957],[2.337764,48.9012002]]]]},"properties":{"code_section":"93070000AD","code_commune":"93070","section_courte":"AD"}},{"type":"Feature","geometry":{"type":"MultiPolygon","coordinates":[[[[2.3343304,48.9029822],[2.335374,48.9023737],[2.3366206,48.9032328],[2.3362819,48.90343],[2.3364156,48.9036539],[2.3367977,48.9039421],[2.3380494,48.904738],[2.3363863,48.9058758],[2.335271,48.905014],[2.3336551,48.9036375],[2.3344321,48.9023256],[2.3343304,48.9029822]]]]},"properties":{"code_section":"93070000AE","code_commune":"93070","section_courte":"AE"}},{"type":"Feature","geometry":{"type":"MultiPolygon","coordinates":[[[[2.3367069,48.9075219],[2.3353706,48.9065706],[2.3372377,48.905295],[2.3408634,48.9077752],[2.3394156,48.9088479],[2.3390423,48.9091807],[2.3372681,48.9079201],[2.3370949,48.9078446],[2.3367069,48.9075219]]]]},"properties":{"code_section":"93070000AF","code_commune":"93070","section_courte":"AF"}},{"type":"Feature","geometry":{"type":"MultiPolygon","coordinates":[[[[2.342161,48.9068074],[2.3408634,48.9077752],[2.3372377,48.905295],[2.3389866,48.904095],[2.3405026,48.9051867],[2.3405515,48.9052093],[2.340579,48.9051919],[2.3406448,48.9052782],[2.341063,48.9050119],[2.3428415,48.9063022],[2.342161,48.9068074]]]]},"properties":{"code_section":"93070000AG","code_commune":"93070","section_courte":"AG"}},{"type":"Feature","geometry":{"type":"MultiPolygon","coordinates":[[[[2.3406448,48.9052782],[2.340579,48.9051919],[2.3405515,48.9052093],[2.3405026,48.9051867],[2.3389866,48.904095],[2.3400348,48.9033747],[2.3417739,48.9025083],[2.3441512,48.904408],[2.3441531,48.9054602],[2.343934,48.9055097],[2.3428415,48.9063022],[2.341063,48.9050119],[2.3406448,48.9052782]]]]},"properties":{"code_section":"93070000AH","code_commune":"93070","section_courte":"AH"}},{"type":"Feature","geometry":{"type":"MultiPolygon","coordinates":[[[[2.3449841,48.9013495],[2.3470687,48.903497],[2.3451417,48.9046834],[2.3441553,48.9053524],[2.3441512,48.904408],[2.3417739,48.9025083],[2.3427677,48.9020079],[2.343292,48.9013143],[2.3449841,48.9013495]]]]},"properties":{"code_section":"93070000AI","code_commune":"93070","section_courte":"AI"}},{"type":"Feature","geometry":{"type":"MultiPolygon","coordinates":[[[[2.3441726,48.90736],[2.3432307,48.9077308],[2.342161,48.9068074],[2.343934,48.9055097],[2.3441531,48.9054602],[2.3453091,48.9054575],[2.3453273,48.9061849],[2.345652,48.9060576],[2.3462532,48.9067081],[2.3455785,48.9069317],[2.3463185,48.9083723],[2.3456469,48.908598],[2.3457722,48.9089321],[2.3441892,48.9094627],[2.3441726,48.90736]]]]},"properties":{"code_section":"93070000AJ","code_commune":"93070","section_courte":"AJ"}},{"type":"Feature","geometry":{"type":"MultiPolygon","coordinates":[[[[2.340006,48.9089121],[2.3396748,48.9086561],[2.342161,48.9068074],[2.3432307,48.9077308],[2.3441726,48.90736],[2.3442008,48.9104934],[2.3427909,48.9103046],[2.340006,48.9089121]]]]},"properties":{"code_section":"93070000AK","code_commune":"93070","section_courte":"AK"}},{"type":"Feature","geometry":{"type":"MultiPolygon","coordinates":[[[[2.3372582,48.9112001],[2.337185,48.9111504],[2.3378662,48.9102086],[2.3394156,48.9088479],[2.3396748,48.9086561],[2.340006,48.9089121],[2.3427909,48.9103046],[2.3431146,48.9103506],[2.3412501,48.911023],[2.3398434,48.9115822],[2.3401683,48.9118827],[2.3398997,48.9119901],[2.3402402,48.9128325],[2.3402298,48.9128935],[2.3384395,48.9127208],[2.3379694,48.9126293],[2.337357,48.9114732],[2.3375469,48.9114035],[2.3372582,48.9112001]]]]},"properties":{"code_section":"93070000AL","code_commune":"93070","section_courte":"AL"}},{"type":"Feature","geometry":{"type":"MultiPolygon","coordinates":[[[[2.3408552,48.9144554],[2.3401875,48.9145297],[2.3391029,48.9147404],[2.3383715,48.9149648],[2.3377928,48.9152121],[2.3348705,48.9128328],[2.3362545,48.9120731],[2.3367783,48.9116956],[2.337185,48.9111504],[2.3375469,48.9114035],[2.337357,48.9114732],[2.3379694,48.9126293],[2.3384395,48.9127208],[2.3402298,48.9128935],[2.3405194,48.9128938],[2.3408552,48.9144554]]]]},"properties":{"code_section":"93070000AM","code_commune":"93070","section_courte":"AM"}},{"type":"Feature","geometry":{"type":"MultiPolygon","coordinates":[[[[2.3405194,48.9128938],[2.3402298,48.9128935],[2.3402402,48.9128325],[2.3398997,48.9119901],[2.3401683,48.9118827],[2.3398434,48.9115822],[2.3412501,48.911023],[2.3431146,48.9103506],[2.3442008,48.9104934],[2.3442135,48.9118456],[2.3439731,48.9118648],[2.3439609,48.9118275],[2.3423632,48.9121329],[2.3430236,48.9132693],[2.3431997,48.9133205],[2.3432007,48.9141889],[2.3408552,48.9144554],[2.3405194,48.9128938]]]]},"properties":{"code_section":"93070000AN","code_commune":"93070","section_courte":"AN"}},{"type":"Feature","geometry":{"type":"MultiPolygon","coordinates":[[[[2.3481495,48.9118313],[2.3470515,48.9143837],[2.3456296,48.9140534],[2.3451088,48.914005],[2.344581,48.9140332],[2.3432007,48.9141889],[2.3431997,48.9133205],[2.3430236,48.9132693],[2.3423632,48.9121329],[2.3439609,48.9118275],[2.3439731,48.9118648],[2.3442135,48.9118456],[2.3442096,48.9121055],[2.3481495,48.9118313]]]]},"properties":{"code_section":"93070000AO","code_commune":"93070","section_courte":"AO"}},{"type":"Feature","geometry":{"type":"MultiPolygon","coordinates":[[[[2.3483284,48.9114092],[2.3481495,48.9118313],[2.3442096,48.9121055],[2.3441892,48.9094627],[2.3457722,48.9089321],[2.3456469,48.908598],[2.3463185,48.9083723],[2.3455785,48.9069317],[2.3487936,48.9058321],[2.3485863,48.9055363],[2.3488939,48.9054277],[2.348958,48.9055201],[2.349824,48.9052223],[2.3488653,48.9037242],[2.3515951,48.9036812],[2.3514647,48.9044594],[2.3512453,48.9074479],[2.3517544,48.9082413],[2.3512633,48.91037],[2.3511284,48.9106391],[2.3508144,48.9109785],[2.3494844,48.911062],[2.3484577,48.9110209],[2.3483284,48.9114092]]]]},"properties":{"code_section":"93070000AP","code_commune":"93070","section_courte":"AP"}},{"type":"Feature","geometry":{"type":"MultiPolygon","coordinates":[[[[2.345652,48.9060576],[2.3453273,48.9061849],[2.3453091,48.9054575],[2.3441531,48.9054602],[2.3441553,48.9053524],[2.3451417,48.9046834],[2.3472727,48.9033686],[2.3483795,48.9029523],[2.349824,48.9052223],[2.348958,48.9055201],[2.3488939,48.9054277],[2.3485863,48.9055363],[2.3487936,48.9058321],[2.3462532,48.9067081],[2.345652,48.9060576]]]]},"properties":{"code_section":"93070000AQ","code_commune":"93070","section_courte":"AQ"}},{"type":"Feature","geometry":{"type":"MultiPolygon","coordinates":[[[[2.348069,48.9014148],[2.3483963,48.9029254],[2.3472727,48.9033686],[2.3470687,48.903497],[2.3449945,48.9013501],[2.348069,48.9014148]]]]},"properties":{"code_section":"93070000AR","code_commune":"93070","section_courte":"AR"}},{"type":"Feature","geometry":{"type":"MultiPolygon","coordinates":[[[[2.3488653,48.9037242],[2.3483795,48.9029523],[2.348069,48.9014148],[2.3520576,48.9014947],[2.3515951,48.9036812],[2.3488653,48.9037242]]]]},"properties":{"code_section":"93070000AS","code_commune":"93070","section_courte":"AS"}}]}