{"type":"FeatureCollection","features":[{"type":"Feature","geometry":{"type":"MultiPolygon","coordinates":[[[[2.4167362,48.7279597],[2.4163394,48.7279907],[2.415945,48.7279409],[2.4153853,48.7279279],[2.4153437,48.727356],[2.4153713,48.7268946],[2.4157901,48.7260161],[2.41589,48.7257023],[2.4159879,48.7253544],[2.4159762,48.7249915],[2.4186347,48.7251306],[2.4186208,48.7245328],[2.4187104,48.7244586],[2.4188213,48.7244498],[2.4191416,48.7245199],[2.4198789,48.7251925],[2.4203697,48.7258949],[2.4225961,48.7275911],[2.4237393,48.7285903],[2.4232809,48.7287866],[2.4233175,48.7288878],[2.4227116,48.7289994],[2.4227753,48.7291979],[2.4215673,48.729265],[2.4215416,48.7293615],[2.4214349,48.729294],[2.4211029,48.7295247],[2.4204906,48.7291435],[2.4202068,48.728953],[2.4202037,48.7289213],[2.4187168,48.7289849],[2.4187039,48.7284695],[2.4171856,48.7284779],[2.4172102,48.7282699],[2.4171715,48.7279375],[2.4167362,48.7279597]]]]},"properties":{"code_section":"94001000AA","code_commune":"94001","section_courte":"AA"}},{"type":"Feature","geometry":{"type":"MultiPolygon","coordinates":[[[[2.4298638,48.727157],[2.429757,48.7273551],[2.4291748,48.7272179],[2.4287959,48.7279281],[2.427614,48.7286146],[2.4272592,48.728351],[2.4266737,48.7286987],[2.4260372,48.72823],[2.4243724,48.72919],[2.4234715,48.7283419],[2.4227048,48.7276785],[2.4203697,48.7258949],[2.4198789,48.7251925],[2.4191416,48.7245199],[2.4299349,48.7270249],[2.4298638,48.727157]]]]},"properties":{"code_section":"94001000AB","code_commune":"94001","section_courte":"AB"}},{"type":"Feature","geometry":{"type":"MultiPolygon","coordinates":[[[[2.4347545,48.7250582],[2.4345516,48.7256449],[2.4344342,48.7256242],[2.4344198,48.7256574],[2.4341066,48.7266548],[2.4313768,48.7264878],[2.4309644,48.7272567],[2.4248805,48.7258487],[2.4251504,48.7257227],[2.4268057,48.7252459],[2.4271559,48.7246006],[2.4271416,48.7244144],[2.4277515,48.7232623],[2.4288173,48.7234492],[2.4312644,48.7237335],[2.4320564,48.7237936],[2.4350393,48.7242287],[2.4347545,48.7250582]]]]},"properties":{"code_section":"94001000AC","code_commune":"94001","section_courte":"AC"}},{"type":"Feature","geometry":{"type":"MultiPolygon","coordinates":[[[[2.4277178,48.723256],[2.4277515,48.7232623],[2.4271416,48.7244144],[2.4271559,48.7246006],[2.4268057,48.7252459],[2.4251504,48.7257227],[2.4248805,48.7258487],[2.4205337,48.7248385],[2.4209111,48.7242227],[2.4213827,48.7231107],[2.4213195,48.7229371],[2.4213906,48.7227342],[2.4220455,48.721643],[2.4232911,48.7221193],[2.4244237,48.7224597],[2.4264503,48.7229815],[2.4277178,48.723256]]]]},"properties":{"code_section":"94001000AD","code_commune":"94001","section_courte":"AD"}},{"type":"Feature","geometry":{"type":"MultiPolygon","coordinates":[[[[2.4156897,48.7208255],[2.4153893,48.7204965],[2.4154268,48.7204801],[2.4146949,48.7197949],[2.4139469,48.719187],[2.4132225,48.7186781],[2.4145163,48.7178038],[2.4180097,48.7196742],[2.4205014,48.7209513],[2.4215155,48.7214303],[2.4220455,48.721643],[2.4213906,48.7227342],[2.4213195,48.7229371],[2.4213827,48.7231107],[2.4209111,48.7242227],[2.4205337,48.7248385],[2.4188213,48.7244498],[2.4186781,48.7244722],[2.4186184,48.7245752],[2.4184879,48.7244677],[2.4175853,48.723434],[2.4171401,48.7228422],[2.4171012,48.7227231],[2.4163842,48.7216855],[2.4158947,48.721038],[2.4156897,48.7208255]]]]},"properties":{"code_section":"94001000AE","code_commune":"94001","section_courte":"AE"}},{"type":"Feature","geometry":{"type":"MultiPolygon","coordinates":[[[[2.4161064,48.7213141],[2.4171012,48.7227231],[2.4171401,48.7228422],[2.4177669,48.7236699],[2.418241,48.7241741],[2.4183339,48.7243186],[2.4186184,48.7245752],[2.4186347,48.7251306],[2.4159762,48.7249915],[2.4159879,48.7253544],[2.41589,48.7257023],[2.4157901,48.7260161],[2.4154937,48.7266015],[2.4143604,48.7265994],[2.4127759,48.7263415],[2.4108847,48.7261327],[2.4111765,48.7240144],[2.4111922,48.7229668],[2.4110875,48.7225436],[2.4107099,48.7219765],[2.4114957,48.7217504],[2.4114401,48.7216684],[2.4120599,48.7214803],[2.4122596,48.7219063],[2.4124826,48.7219486],[2.4129773,48.7218769],[2.4132334,48.7220178],[2.4134314,48.722036],[2.4133731,48.721548],[2.4143193,48.7212554],[2.414963,48.7210212],[2.4154891,48.7209099],[2.4157453,48.7208864],[2.4161064,48.7213141]]]]},"properties":{"code_section":"94001000AG","code_commune":"94001","section_courte":"AG"}}]}