{"type":"FeatureCollection","features":[{"type":"Feature","geometry":{"type":"MultiPolygon","coordinates":[[[[2.325332,48.8094794],[2.3253059,48.8095625],[2.3218648,48.8096886],[2.3190471,48.8099684],[2.3178684,48.8083956],[2.3183344,48.8060873],[2.3186622,48.8060986],[2.3192988,48.80606],[2.3204199,48.8061277],[2.3210257,48.8056876],[2.3217381,48.8059513],[2.3239966,48.8053612],[2.3242754,48.8058594],[2.3244418,48.8058162],[2.3243436,48.8066813],[2.3245363,48.8069957],[2.324789,48.8070149],[2.3247555,48.8076708],[2.3250053,48.8081538],[2.3256041,48.8088038],[2.3257203,48.8090455],[2.3253064,48.8094254],[2.325332,48.8094794]]]]},"properties":{"code_section":"940030000A","code_commune":"94003","section_courte":"A"}},{"type":"Feature","geometry":{"type":"MultiPolygon","coordinates":[[[[2.3267823,48.8101618],[2.3265928,48.8108196],[2.3255316,48.8095543],[2.3253059,48.8095625],[2.3253064,48.8094254],[2.3257203,48.8090455],[2.3256041,48.8088038],[2.3252482,48.80842],[2.3263679,48.8082945],[2.3263077,48.8080454],[2.3265374,48.8080158],[2.3280922,48.8075194],[2.3297049,48.8089053],[2.3294162,48.8090073],[2.3295908,48.8092189],[2.329943,48.8090965],[2.3304572,48.8095653],[2.3296694,48.8098709],[2.329781,48.8100403],[2.3295385,48.8101087],[2.329738,48.8104267],[2.3267823,48.8101618]]]]},"properties":{"code_section":"940030000B","code_commune":"94003","section_courte":"B"}},{"type":"Feature","geometry":{"type":"MultiPolygon","coordinates":[[[[2.3293551,48.81373],[2.3290682,48.8137838],[2.3265928,48.8108196],[2.3267823,48.8101618],[2.330547,48.8104981],[2.3305345,48.8106279],[2.3310524,48.8118383],[2.3320697,48.8132253],[2.3293551,48.81373]]]]},"properties":{"code_section":"940030000C","code_commune":"94003","section_courte":"C"}},{"type":"Feature","geometry":{"type":"MultiPolygon","coordinates":[[[[2.3322769,48.8097898],[2.3327713,48.8095494],[2.3342632,48.8107849],[2.3341831,48.8108949],[2.3345338,48.8109267],[2.3341319,48.8111159],[2.334386,48.811678],[2.3343004,48.8116954],[2.3345164,48.8121779],[2.333977,48.8122855],[2.3341481,48.8126646],[2.3327146,48.8129477],[2.3328553,48.8132578],[2.3321527,48.8133971],[2.3320243,48.8131508],[2.3310573,48.8118467],[2.3305345,48.8106279],[2.330547,48.8104981],[2.3309359,48.8104687],[2.3322769,48.8097898]]]]},"properties":{"code_section":"940030000D","code_commune":"94003","section_courte":"D"}},{"type":"Feature","geometry":{"type":"MultiPolygon","coordinates":[[[[2.3355705,48.8134906],[2.3350882,48.8134753],[2.3346165,48.8135688],[2.3343443,48.8129646],[2.3342878,48.8129756],[2.333977,48.8122855],[2.3346751,48.8121476],[2.3348006,48.8124147],[2.3349268,48.8124584],[2.3361388,48.8122429],[2.3363777,48.8118769],[2.3371145,48.8111004],[2.337618,48.8111288],[2.3389182,48.8118975],[2.3397568,48.8126166],[2.3382822,48.8131822],[2.3384073,48.8132815],[2.3373463,48.8136078],[2.3371351,48.8132914],[2.3367084,48.813468],[2.3366749,48.8135258],[2.3355705,48.8134906]]]]},"properties":{"code_section":"940030000E","code_commune":"94003","section_courte":"E"}},{"type":"Feature","geometry":{"type":"MultiPolygon","coordinates":[[[[2.3371145,48.8111004],[2.3363777,48.8118769],[2.3361388,48.8122429],[2.334954,48.8124562],[2.3348387,48.8124406],[2.3346751,48.8121476],[2.3345164,48.8121779],[2.3343004,48.8116954],[2.334386,48.811678],[2.3341319,48.8111159],[2.3345338,48.8109267],[2.3341831,48.8108949],[2.3342632,48.8107849],[2.3321619,48.8090399],[2.3339804,48.8082891],[2.3376674,48.8110468],[2.3374595,48.8111046],[2.3371145,48.8111004]]]]},"properties":{"code_section":"940030000F","code_commune":"94003","section_courte":"F"}},{"type":"Feature","geometry":{"type":"MultiPolygon","coordinates":[[[[2.3292444,48.8077749],[2.3309643,48.8069806],[2.3309404,48.8069609],[2.3314339,48.8066369],[2.332334,48.8072385],[2.3321862,48.8073548],[2.3329831,48.8079831],[2.3332893,48.8078269],[2.3339804,48.8082891],[2.3321619,48.8090399],[2.3327713,48.8095494],[2.3309359,48.8104687],[2.330547,48.8104981],[2.329738,48.8104267],[2.3295385,48.8101087],[2.329781,48.8100403],[2.3296694,48.8098709],[2.3304572,48.8095653],[2.329943,48.8090965],[2.3295908,48.8092189],[2.3294162,48.8090073],[2.3297049,48.8089053],[2.3286828,48.8080358],[2.3292444,48.8077749]]]]},"properties":{"code_section":"940030000G","code_commune":"94003","section_courte":"G"}},{"type":"Feature","geometry":{"type":"MultiPolygon","coordinates":[[[[2.3265374,48.8080158],[2.3263077,48.8080454],[2.3259835,48.8067349],[2.3255892,48.8057821],[2.3292041,48.8044091],[2.3297263,48.8050304],[2.330524,48.8071814],[2.3286828,48.8080358],[2.3280922,48.8075194],[2.3265374,48.8080158]]]]},"properties":{"code_section":"940030000H","code_commune":"94003","section_courte":"H"}},{"type":"Feature","geometry":{"type":"MultiPolygon","coordinates":[[[[2.328885,48.8021438],[2.3288655,48.8020519],[2.3290597,48.8019818],[2.330572,48.8037895],[2.3292041,48.8044091],[2.3255892,48.8057821],[2.3247147,48.8034851],[2.3271716,48.8026578],[2.3271498,48.8027172],[2.3273747,48.8026678],[2.3274219,48.8025385],[2.3277142,48.8024862],[2.3276659,48.8022843],[2.328896,48.8021913],[2.328885,48.8021438]]]]},"properties":{"code_section":"940030000I","code_commune":"94003","section_courte":"I"}},{"type":"Feature","geometry":{"type":"MultiPolygon","coordinates":[[[[2.3271716,48.8026578],[2.3247147,48.8034851],[2.3239504,48.8015534],[2.325029,48.8011253],[2.3274908,48.8004129],[2.3281586,48.7997529],[2.3284701,48.799735],[2.3285334,48.8000843],[2.3284705,48.8000964],[2.3284803,48.8001578],[2.3285454,48.8001474],[2.3289009,48.8018086],[2.3290597,48.8019818],[2.3288655,48.8020519],[2.328896,48.8021913],[2.3276659,48.8022843],[2.3277142,48.8024862],[2.3274219,48.8025385],[2.3273747,48.8026678],[2.3272981,48.8026944],[2.3271498,48.8027172],[2.3271716,48.8026578]]]]},"properties":{"code_section":"940030000J","code_commune":"94003","section_courte":"J"}},{"type":"Feature","geometry":{"type":"MultiPolygon","coordinates":[[[[2.3321336,48.8023664],[2.3322185,48.8024881],[2.3317931,48.8025946],[2.3317627,48.8026525],[2.3316447,48.8026706],[2.331717,48.8029053],[2.3322014,48.8034706],[2.330572,48.8037895],[2.3289009,48.8018086],[2.3285454,48.8001474],[2.3284803,48.8001578],[2.3284705,48.8000964],[2.3285334,48.8000843],[2.3284701,48.799735],[2.3313684,48.7995015],[2.3314455,48.7996738],[2.3315256,48.7996587],[2.3316241,48.8002375],[2.3317121,48.8015471],[2.3324346,48.8021313],[2.3325997,48.8023461],[2.3321336,48.8023664]]]]},"properties":{"code_section":"940030000K","code_commune":"94003","section_courte":"K"}},{"type":"Feature","geometry":{"type":"MultiPolygon","coordinates":[[[[2.3306619,48.8071178],[2.330524,48.8071814],[2.3297263,48.8050304],[2.3292041,48.8044091],[2.330572,48.8037895],[2.3322014,48.8034706],[2.3328927,48.8040955],[2.3334368,48.8044109],[2.3336333,48.8051641],[2.3343193,48.8055988],[2.3325656,48.8068427],[2.3323144,48.8069713],[2.3324901,48.8071495],[2.332334,48.8072385],[2.3314339,48.8066369],[2.3309404,48.8069609],[2.3309643,48.8069806],[2.3306619,48.8071178]]]]},"properties":{"code_section":"940030000L","code_commune":"94003","section_courte":"L"}},{"type":"Feature","geometry":{"type":"MultiPolygon","coordinates":[[[[2.3378335,48.8088619],[2.3374038,48.8090196],[2.3374726,48.809111],[2.336957,48.8093375],[2.3370357,48.8094128],[2.3360784,48.8098357],[2.3339804,48.8082891],[2.3332893,48.8078269],[2.3329831,48.8079831],[2.3321862,48.8073548],[2.3324901,48.8071495],[2.3323144,48.8069713],[2.3325656,48.8068427],[2.3348882,48.8051946],[2.3356568,48.8060287],[2.335784,48.806286],[2.3360257,48.8070718],[2.3373461,48.808208],[2.3382549,48.808684],[2.3378335,48.8088619]]]]},"properties":{"code_section":"940030000M","code_commune":"94003","section_courte":"M"}},{"type":"Feature","geometry":{"type":"MultiPolygon","coordinates":[[[[2.3378335,48.8088619],[2.3382549,48.808684],[2.3394694,48.8093737],[2.3406741,48.810138],[2.3390257,48.8108001],[2.3402633,48.8124241],[2.3397568,48.8126166],[2.3389182,48.8118975],[2.337618,48.8111288],[2.3374595,48.8111046],[2.3376674,48.8110468],[2.3360784,48.8098357],[2.3370357,48.8094128],[2.336957,48.8093375],[2.3374726,48.809111],[2.3374038,48.8090196],[2.3378335,48.8088619]]]]},"properties":{"code_section":"940030000N","code_commune":"94003","section_courte":"N"}},{"type":"Feature","geometry":{"type":"MultiPolygon","coordinates":[[[[2.3420045,48.8087284],[2.342242,48.8092658],[2.3423759,48.8096828],[2.3419774,48.8097667],[2.3406741,48.810138],[2.3394694,48.8093737],[2.3381803,48.8086477],[2.3393606,48.807982],[2.3394064,48.8080211],[2.3396552,48.8078643],[2.339642,48.8078248],[2.3406246,48.8072515],[2.3409314,48.8071162],[2.340791,48.806969],[2.340893,48.8069248],[2.3409568,48.8069854],[2.3410183,48.8068765],[2.341946,48.8065193],[2.3420759,48.8065848],[2.3425318,48.8065952],[2.3434195,48.8082894],[2.3419637,48.8086381],[2.3420045,48.8087284]]]]},"properties":{"code_section":"940030000O","code_commune":"94003","section_courte":"O"}},{"type":"Feature","geometry":{"type":"MultiPolygon","coordinates":[[[[2.3390446,48.8081596],[2.3381803,48.8086477],[2.3373461,48.808208],[2.3360257,48.8070718],[2.335784,48.806286],[2.3356568,48.8060287],[2.3351551,48.8054716],[2.3354056,48.8053229],[2.3353488,48.8052891],[2.3364132,48.8046492],[2.3370441,48.8051353],[2.3374178,48.80535],[2.3398149,48.8061058],[2.3400994,48.8062474],[2.3409314,48.8071162],[2.3406246,48.8072515],[2.339642,48.8078248],[2.3396552,48.8078643],[2.3394064,48.8080211],[2.3393606,48.807982],[2.3390446,48.8081596]]]]},"properties":{"code_section":"940030000P","code_commune":"94003","section_courte":"P"}},{"type":"Feature","geometry":{"type":"MultiPolygon","coordinates":[[[[2.3354056,48.8053229],[2.3351551,48.8054716],[2.3348882,48.8051946],[2.3343193,48.8055988],[2.3336333,48.8051641],[2.3334368,48.8044109],[2.3328927,48.8040955],[2.3322014,48.8034706],[2.331717,48.8029053],[2.3316447,48.8026706],[2.3317627,48.8026525],[2.3317931,48.8025946],[2.3322185,48.8024881],[2.3321323,48.8023601],[2.3323421,48.802373],[2.3325997,48.8023461],[2.3327184,48.8025002],[2.3341095,48.8023353],[2.3351467,48.8020271],[2.3352664,48.8021406],[2.3351439,48.8022065],[2.3359607,48.8033279],[2.3352832,48.8036658],[2.3364132,48.8046492],[2.3353488,48.8052891],[2.3354056,48.8053229]]]]},"properties":{"code_section":"940030000Q","code_commune":"94003","section_courte":"Q"}},{"type":"Feature","geometry":{"type":"MultiPolygon","coordinates":[[[[2.333074,48.7993749],[2.3331039,48.7995164],[2.3337584,48.799395],[2.3337337,48.7993344],[2.3342011,48.7992481],[2.3344687,48.7997706],[2.3352277,48.8002558],[2.3359546,48.8016774],[2.3352664,48.8021406],[2.3351467,48.8020271],[2.3341095,48.8023353],[2.3327184,48.8025002],[2.3324346,48.8021313],[2.3317121,48.8015471],[2.3316253,48.8002459],[2.3315256,48.7996587],[2.3329939,48.7993928],[2.3329701,48.799333],[2.3330405,48.7993196],[2.333074,48.7993749]]]]},"properties":{"code_section":"940030000R","code_commune":"94003","section_courte":"R"}},{"type":"Feature","geometry":{"type":"MultiPolygon","coordinates":[[[[2.333074,48.7993749],[2.3330405,48.7993196],[2.3329701,48.799333],[2.3329372,48.7992558],[2.3332458,48.7991899],[2.3335497,48.7987127],[2.3337718,48.7984913],[2.3349797,48.7982994],[2.3365884,48.7982797],[2.33686,48.7987101],[2.3372708,48.7987931],[2.3379772,48.8003821],[2.337336,48.8007428],[2.3359546,48.8016774],[2.3352277,48.8002558],[2.3344687,48.7997706],[2.3342011,48.7992481],[2.3337337,48.7993344],[2.3337584,48.799395],[2.3331039,48.7995164],[2.333074,48.7993749]]]]},"properties":{"code_section":"940030000S","code_commune":"94003","section_courte":"S"}},{"type":"Feature","geometry":{"type":"MultiPolygon","coordinates":[[[[2.3368157,48.7986039],[2.3365884,48.7982797],[2.3376258,48.7981061],[2.3378575,48.7980437],[2.3400165,48.7972961],[2.3410088,48.7988912],[2.3394621,48.7995473],[2.3379772,48.8003821],[2.3372708,48.7987931],[2.33686,48.7987101],[2.3368157,48.7986039]]]]},"properties":{"code_section":"940030000T","code_commune":"94003","section_courte":"T"}},{"type":"Feature","geometry":{"type":"MultiPolygon","coordinates":[[[[2.3368024,48.8015804],[2.3364945,48.8013377],[2.337336,48.8007428],[2.3394621,48.7995473],[2.3410088,48.7988912],[2.3409956,48.7989416],[2.3417946,48.7998442],[2.3417946,48.7999076],[2.3416912,48.7999257],[2.3417731,48.8000074],[2.3417394,48.8001607],[2.3418209,48.8004527],[2.3396231,48.8014042],[2.3390517,48.801703],[2.3385445,48.8021574],[2.3371073,48.8013499],[2.3368024,48.8015804]]]]},"properties":{"code_section":"940030000U","code_commune":"94003","section_courte":"U"}},{"type":"Feature","geometry":{"type":"MultiPolygon","coordinates":[[[[2.3368024,48.8015804],[2.3371073,48.8013499],[2.3385445,48.8021574],[2.3383849,48.8023941],[2.3382776,48.802676],[2.3379918,48.80553],[2.3374178,48.80535],[2.3370441,48.8051353],[2.3364132,48.8046492],[2.3352832,48.8036658],[2.3359607,48.8033279],[2.3351439,48.8022065],[2.3364945,48.8013377],[2.3368024,48.8015804]]]]},"properties":{"code_section":"940030000V","code_commune":"94003","section_courte":"V"}},{"type":"Feature","geometry":{"type":"MultiPolygon","coordinates":[[[[2.3405807,48.8053041],[2.340382,48.8054616],[2.3402583,48.8054025],[2.3401578,48.8054994],[2.3400302,48.8061745],[2.3400994,48.8062474],[2.3398149,48.8061058],[2.3379918,48.80553],[2.3382793,48.8026696],[2.3383849,48.8023941],[2.3385445,48.8021574],[2.3390517,48.801703],[2.3411955,48.8032197],[2.3424138,48.8039207],[2.3405807,48.8053041]]]]},"properties":{"code_section":"940030000X","code_commune":"94003","section_courte":"X"}},{"type":"Feature","geometry":{"type":"MultiPolygon","coordinates":[[[[2.3425437,48.8066118],[2.3420759,48.8065848],[2.341946,48.8065193],[2.3410183,48.8068765],[2.3409568,48.8069854],[2.340893,48.8069248],[2.340791,48.806969],[2.3400302,48.8061745],[2.3401578,48.8054994],[2.3402583,48.8054025],[2.340382,48.8054616],[2.3424138,48.8039207],[2.3424354,48.803323],[2.343534,48.8029534],[2.3437483,48.8029166],[2.344226,48.8041762],[2.3445152,48.8046958],[2.3450199,48.8053606],[2.3425437,48.8066118]]]]},"properties":{"code_section":"940030000Y","code_commune":"94003","section_courte":"Y"}},{"type":"Feature","geometry":{"type":"MultiPolygon","coordinates":[[[[2.34378,48.8003721],[2.3435245,48.8015176],[2.3435469,48.8020494],[2.3437483,48.8029166],[2.343534,48.8029534],[2.3424354,48.803323],[2.3424138,48.8039207],[2.3411955,48.8032197],[2.3390517,48.801703],[2.3396231,48.8014042],[2.3438086,48.7996001],[2.34378,48.8003721]]]]},"properties":{"code_section":"940030000Z","code_commune":"94003","section_courte":"Z"}},{"type":"Feature","geometry":{"type":"MultiPolygon","coordinates":[[[[2.3474211,48.8017545],[2.3461807,48.8021285],[2.3463723,48.8023248],[2.3438872,48.8032122],[2.3437483,48.8029166],[2.3435469,48.8020494],[2.3435254,48.8016303],[2.3437803,48.8003704],[2.3454522,48.7998382],[2.3454315,48.7998131],[2.3460168,48.7996235],[2.3477801,48.8015316],[2.3475665,48.8015959],[2.3476313,48.8016942],[2.3474211,48.8017545]]]]},"properties":{"code_section":"94003000AB","code_commune":"94003","section_courte":"AB"}},{"type":"Feature","geometry":{"type":"MultiPolygon","coordinates":[[[[2.3474422,48.7988138],[2.3474068,48.79884],[2.347707,48.7990093],[2.3454315,48.7998131],[2.3454522,48.7998382],[2.3437803,48.8003704],[2.3438086,48.7996001],[2.3418209,48.8004527],[2.3417394,48.8001607],[2.3417731,48.8000074],[2.3416912,48.7999257],[2.3417946,48.7999076],[2.3417946,48.7998442],[2.3409956,48.7989416],[2.3410088,48.7988912],[2.3430071,48.7981003],[2.3452512,48.7968893],[2.3460172,48.7971461],[2.3452276,48.7977955],[2.3470628,48.798314],[2.3476503,48.7986597],[2.3474422,48.7988138]]]]},"properties":{"code_section":"94003000AC","code_commune":"94003","section_courte":"AC"}}]}