{"type":"FeatureCollection","features":[{"type":"Feature","geometry":{"type":"MultiPolygon","coordinates":[[[[2.5288854,48.8059972],[2.5288159,48.8052731],[2.5271336,48.80516],[2.5270358,48.8056688],[2.5267555,48.8061724],[2.5260601,48.8069358],[2.5257211,48.8071258],[2.5250275,48.8068138],[2.5252662,48.806585],[2.5257453,48.8060063],[2.5259789,48.8056355],[2.52603,48.8054882],[2.5259948,48.8051721],[2.5262096,48.8047899],[2.5249285,48.8046028],[2.5247834,48.8047204],[2.5224161,48.8041421],[2.5228096,48.8025106],[2.5229013,48.8017422],[2.5232907,48.8017704],[2.5246499,48.8017635],[2.5246556,48.8014583],[2.5255678,48.8015288],[2.5256321,48.8014924],[2.5257281,48.8013417],[2.5262055,48.8013345],[2.5263524,48.8012597],[2.5264504,48.8012499],[2.5269903,48.8013022],[2.5271464,48.8013745],[2.5272193,48.8013025],[2.5283352,48.8014605],[2.5285115,48.8017871],[2.5288021,48.8015159],[2.5291425,48.800664],[2.529358,48.8003173],[2.5300595,48.7996597],[2.5299526,48.8002396],[2.5299315,48.8023938],[2.5300186,48.8028502],[2.529977,48.8044225],[2.5301516,48.8047341],[2.5300869,48.8051695],[2.5300953,48.8054326],[2.5301662,48.8056323],[2.5301539,48.8060747],[2.5289027,48.8061586],[2.5288854,48.8059972]]]]},"properties":{"code_section":"94019000AH","code_commune":"94019","section_courte":"AH"}},{"type":"Feature","geometry":{"type":"MultiPolygon","coordinates":[[[[2.5308344,48.8059947],[2.5301553,48.8060476],[2.5301662,48.8056323],[2.5300953,48.8054326],[2.5300869,48.8051695],[2.5301516,48.8047341],[2.529977,48.8044225],[2.5300186,48.8028502],[2.5299315,48.8023938],[2.5299526,48.8002396],[2.5301978,48.7987952],[2.5308608,48.7987116],[2.5310301,48.7987482],[2.5312767,48.7987435],[2.5312663,48.7987173],[2.5314469,48.7986918],[2.531536,48.7987773],[2.5316963,48.7988461],[2.5337813,48.799045],[2.5359622,48.8008373],[2.5386267,48.8027467],[2.5330945,48.806004],[2.5308344,48.8059947]]]]},"properties":{"code_section":"94019000AI","code_commune":"94019","section_courte":"AI"}},{"type":"Feature","geometry":{"type":"MultiPolygon","coordinates":[[[[2.5354029,48.7988407],[2.5353615,48.7992496],[2.538023,48.7995875],[2.5387697,48.7996186],[2.5393789,48.799596],[2.5418433,48.7993361],[2.5421736,48.7992338],[2.5438537,48.7991633],[2.5443217,48.7990586],[2.5447781,48.799145],[2.5402178,48.8017873],[2.5386267,48.8027467],[2.5359622,48.8008373],[2.5337813,48.799045],[2.5337422,48.7983015],[2.5354534,48.7983518],[2.5354029,48.7988407]]]]},"properties":{"code_section":"94019000AK","code_commune":"94019","section_courte":"AK"}},{"type":"Feature","geometry":{"type":"MultiPolygon","coordinates":[[[[2.5426279,48.8057701],[2.5397009,48.8060395],[2.5359428,48.8058829],[2.5354251,48.8062191],[2.5353626,48.8062928],[2.5347711,48.8060382],[2.5334172,48.805809],[2.5402178,48.8017873],[2.5414672,48.8010862],[2.5433415,48.8056998],[2.5426279,48.8057701]]]]},"properties":{"code_section":"94019000AL","code_commune":"94019","section_courte":"AL"}},{"type":"Feature","geometry":{"type":"MultiPolygon","coordinates":[[[[2.543574,48.8062504],[2.5414672,48.8010862],[2.5447781,48.799145],[2.5464361,48.799595],[2.5470474,48.7999181],[2.547695,48.8004176],[2.5454654,48.8000471],[2.545137,48.8008789],[2.5466035,48.8011335],[2.5462135,48.8017166],[2.5462935,48.8018444],[2.5461041,48.8020601],[2.5456103,48.8040517],[2.5443538,48.8041269],[2.5449113,48.8055851],[2.5446631,48.8056887],[2.5444953,48.8058711],[2.543932,48.8060738],[2.543574,48.8062504]]]]},"properties":{"code_section":"94019000AM","code_commune":"94019","section_courte":"AM"}},{"type":"Feature","geometry":{"type":"MultiPolygon","coordinates":[[[[2.5448921,48.8055341],[2.5443538,48.8041269],[2.5456103,48.8040517],[2.5461041,48.8020601],[2.5462935,48.8018444],[2.5462135,48.8017166],[2.5466035,48.8011335],[2.545137,48.8008789],[2.5454654,48.8000471],[2.547695,48.8004176],[2.5470474,48.7999181],[2.5464361,48.799595],[2.5447781,48.799145],[2.544751,48.7989623],[2.5472467,48.7975139],[2.5537288,48.7983014],[2.5533242,48.800007],[2.553161,48.8002968],[2.5539658,48.8004082],[2.5582715,48.8027951],[2.5582316,48.80293],[2.5583518,48.8029972],[2.5581725,48.8036379],[2.5580649,48.8036231],[2.5577026,48.8047169],[2.5597665,48.8050151],[2.55859,48.8073844],[2.5584872,48.8076008],[2.5585178,48.8076296],[2.5583641,48.8075448],[2.5557889,48.807971],[2.5542969,48.8081639],[2.5537279,48.8074962],[2.554068,48.8068802],[2.5541801,48.8065079],[2.5541881,48.8062341],[2.5539923,48.8049426],[2.5510453,48.8031708],[2.550664,48.8032415],[2.5506154,48.8032105],[2.5480148,48.8036917],[2.5474045,48.803867],[2.5466602,48.8042065],[2.5455769,48.8048263],[2.5452506,48.8051305],[2.5451653,48.8052801],[2.5451983,48.8052918],[2.5451333,48.8055288],[2.5449082,48.8055761],[2.5448921,48.8055341]]]]},"properties":{"code_section":"94019000AN","code_commune":"94019","section_courte":"AN"}},{"type":"Feature","geometry":{"type":"MultiPolygon","coordinates":[[[[2.5679264,48.7974117],[2.5715784,48.7988864],[2.5713937,48.7991664],[2.5712658,48.7994876],[2.5711397,48.8014087],[2.5709766,48.8021164],[2.5691538,48.8032176],[2.5664383,48.8051813],[2.5581725,48.8036379],[2.5583518,48.8029972],[2.5582316,48.80293],[2.5582715,48.8027951],[2.5539658,48.8004082],[2.553161,48.8002968],[2.5533242,48.800007],[2.5537288,48.7983014],[2.5538605,48.7982847],[2.5613268,48.7992212],[2.561472,48.7986533],[2.5619561,48.7982306],[2.5622016,48.798115],[2.564241,48.7958936],[2.5673909,48.7972388],[2.5674579,48.7972251],[2.5679264,48.7974117]]]]},"properties":{"code_section":"94019000AO","code_commune":"94019","section_courte":"AO"}},{"type":"Feature","geometry":{"type":"MultiPolygon","coordinates":[[[[2.553371,48.7967618],[2.5534464,48.7956318],[2.5534987,48.795644],[2.5535211,48.7953164],[2.5539333,48.7947504],[2.5557498,48.7944437],[2.5544497,48.792641],[2.5552819,48.7920262],[2.564241,48.7958936],[2.5622016,48.798115],[2.5619561,48.7982306],[2.561472,48.7986533],[2.5613268,48.7992212],[2.5538605,48.7982847],[2.5537288,48.7983014],[2.5535006,48.7982735],[2.5534939,48.7981967],[2.5533262,48.7980354],[2.553371,48.7967618]]]]},"properties":{"code_section":"94019000AP","code_commune":"94019","section_courte":"AP"}},{"type":"Feature","geometry":{"type":"MultiPolygon","coordinates":[[[[2.5467004,48.7934383],[2.5469457,48.7942555],[2.5472745,48.7950161],[2.5477395,48.796305],[2.5476888,48.7968995],[2.5482567,48.7969963],[2.54753,48.7974877],[2.5474418,48.7975361],[2.5472467,48.7975139],[2.544751,48.7989623],[2.5447781,48.799145],[2.5443217,48.7990586],[2.5438537,48.7991633],[2.5421736,48.7992338],[2.5418433,48.7993361],[2.5393789,48.799596],[2.5387697,48.7996186],[2.538023,48.7995875],[2.5353615,48.7992496],[2.5354534,48.7983518],[2.5337422,48.7983015],[2.5337263,48.7978835],[2.5346848,48.7978723],[2.5345012,48.7967287],[2.5347328,48.7967082],[2.5346123,48.7960192],[2.5348037,48.7960061],[2.5346675,48.7952523],[2.5334669,48.7948748],[2.5336517,48.7947747],[2.5370668,48.7936181],[2.5388808,48.7931344],[2.5398275,48.7929174],[2.5420342,48.7925656],[2.543745,48.7921332],[2.5455293,48.7915347],[2.5461837,48.7912784],[2.5463693,48.7925353],[2.5467004,48.7934383]]]]},"properties":{"code_section":"94019000AR","code_commune":"94019","section_courte":"AR"}},{"type":"Feature","geometry":{"type":"MultiPolygon","coordinates":[[[[2.5447531,48.7906962],[2.5460971,48.7906619],[2.5461837,48.7912784],[2.5455293,48.7915347],[2.543745,48.7921332],[2.5420342,48.7925656],[2.5398275,48.7929174],[2.5388808,48.7931344],[2.5370668,48.7936181],[2.5353459,48.7941992],[2.5349763,48.7939035],[2.5343855,48.7935157],[2.5342833,48.792993],[2.5347489,48.7929623],[2.5346207,48.7918773],[2.5391526,48.7911667],[2.5391734,48.791229],[2.5394463,48.7912609],[2.5411966,48.7912653],[2.5444735,48.7907035],[2.5447531,48.7906962]]]]},"properties":{"code_section":"94019000AS","code_commune":"94019","section_courte":"AS"}},{"type":"Feature","geometry":{"type":"MultiPolygon","coordinates":[[[[2.5336517,48.7947747],[2.5334669,48.7948748],[2.5346675,48.7952523],[2.5348037,48.7960061],[2.5346123,48.7960192],[2.5347328,48.7967082],[2.5345012,48.7967287],[2.5346848,48.7978723],[2.5337263,48.7978835],[2.5337813,48.799045],[2.5316963,48.7988461],[2.531536,48.7987773],[2.5314469,48.7986918],[2.5312663,48.7987173],[2.5312767,48.7987435],[2.5310301,48.7987482],[2.5308608,48.7987116],[2.5301978,48.7987952],[2.5303515,48.798003],[2.5301674,48.7975503],[2.5299862,48.7969007],[2.5302691,48.7967369],[2.5303765,48.7965343],[2.5295734,48.7957556],[2.5290566,48.7954442],[2.5288426,48.7952603],[2.5286272,48.7947113],[2.5285042,48.7940257],[2.5280283,48.793392],[2.5292747,48.7931848],[2.5291231,48.7930142],[2.5293722,48.7929204],[2.5289813,48.7924875],[2.5283901,48.7922111],[2.52801,48.7918561],[2.527842,48.7914287],[2.5291861,48.7911826],[2.5319867,48.7905442],[2.5325804,48.7921993],[2.5346207,48.7918773],[2.5347489,48.7929623],[2.5342833,48.792993],[2.5343855,48.7935157],[2.5349763,48.7939035],[2.5353459,48.7941992],[2.5336517,48.7947747]]]]},"properties":{"code_section":"94019000AT","code_commune":"94019","section_courte":"AT"}},{"type":"Feature","geometry":{"type":"MultiPolygon","coordinates":[[[[2.5257406,48.7940161],[2.5271581,48.7938361],[2.5282258,48.7936363],[2.5285042,48.7940257],[2.5286272,48.7947113],[2.5288426,48.7952603],[2.5290566,48.7954442],[2.5295734,48.7957556],[2.5303765,48.7965343],[2.5302691,48.7967369],[2.5299862,48.7969007],[2.5301674,48.7975503],[2.5303515,48.798003],[2.5300595,48.7996597],[2.529358,48.8003173],[2.5291425,48.800664],[2.5288021,48.8015159],[2.5285115,48.8017871],[2.5283352,48.8014605],[2.5272193,48.8013025],[2.5271464,48.8013745],[2.5269903,48.8013022],[2.5264504,48.8012499],[2.5263524,48.8012597],[2.5262055,48.8013345],[2.5257281,48.8013417],[2.5256321,48.8014924],[2.5255678,48.8015288],[2.5246556,48.8014583],[2.5246499,48.8017635],[2.5232907,48.8017704],[2.5229013,48.8017422],[2.5228624,48.8010632],[2.5229158,48.8006313],[2.5230237,48.8002673],[2.5230122,48.7999008],[2.5231213,48.7997219],[2.5233044,48.7995556],[2.5232507,48.7988346],[2.523092,48.7986134],[2.5230782,48.7983376],[2.5231946,48.7979855],[2.5234097,48.7975619],[2.5234728,48.796904],[2.5235606,48.7966621],[2.5235726,48.7964873],[2.5235169,48.7959085],[2.5234203,48.7954514],[2.522977,48.7942248],[2.5227928,48.793267],[2.5235282,48.7931356],[2.5240361,48.794174],[2.5257406,48.7940161]]]]},"properties":{"code_section":"94019000AV","code_commune":"94019","section_courte":"AV"}},{"type":"Feature","geometry":{"type":"MultiPolygon","coordinates":[[[[2.5257406,48.7940161],[2.5240361,48.794174],[2.5235282,48.7931356],[2.5227928,48.793267],[2.5227482,48.7929824],[2.5224452,48.7921496],[2.5221055,48.7914562],[2.5215807,48.7906361],[2.5224511,48.7902409],[2.5214564,48.7887917],[2.5224574,48.7883741],[2.5228359,48.788573],[2.522977,48.7884573],[2.5228464,48.7883772],[2.523452,48.7880277],[2.523474,48.7879305],[2.5238709,48.787691],[2.5234789,48.7871731],[2.5231246,48.7870701],[2.5230068,48.7870002],[2.522773,48.7867559],[2.5224111,48.7865792],[2.523473,48.7859152],[2.5246225,48.7867143],[2.5255418,48.7867785],[2.5278107,48.7910681],[2.5278463,48.7914699],[2.52801,48.7918561],[2.5283901,48.7922111],[2.5289813,48.7924875],[2.5293722,48.7929204],[2.5291231,48.7930142],[2.5292747,48.7931848],[2.5280283,48.793392],[2.5282258,48.7936363],[2.5271581,48.7938361],[2.5257406,48.7940161]]]]},"properties":{"code_section":"94019000AW","code_commune":"94019","section_courte":"AW"}},{"type":"Feature","geometry":{"type":"MultiPolygon","coordinates":[[[[2.5284025,48.7856149],[2.52875,48.7858922],[2.528973,48.7860193],[2.5306085,48.7867775],[2.5319867,48.7905442],[2.5291861,48.7911826],[2.527842,48.7914287],[2.5278107,48.7910681],[2.5255418,48.7867785],[2.5246225,48.7867143],[2.523473,48.7859152],[2.5235202,48.7859031],[2.5226928,48.7851428],[2.5227265,48.7851232],[2.5228113,48.7851658],[2.5249057,48.7839455],[2.5248181,48.783897],[2.5256411,48.7834186],[2.5284025,48.7856149]]]]},"properties":{"code_section":"94019000AX","code_commune":"94019","section_courte":"AX"}},{"type":"Feature","geometry":{"type":"MultiPolygon","coordinates":[[[[2.5185238,48.7851373],[2.5186029,48.7850936],[2.5180788,48.7846976],[2.518959,48.7842159],[2.5201588,48.7836841],[2.5198793,48.7834786],[2.5223821,48.7820313],[2.5238026,48.7831387],[2.5249057,48.7839455],[2.5228113,48.7851658],[2.5227265,48.7851232],[2.5226928,48.7851428],[2.5235202,48.7859031],[2.5224111,48.7865792],[2.522773,48.7867559],[2.5230068,48.7870002],[2.5231246,48.7870701],[2.5234789,48.7871731],[2.5238709,48.787691],[2.523474,48.7879305],[2.523452,48.7880277],[2.5228464,48.7883772],[2.522977,48.7884573],[2.5228359,48.788573],[2.5224574,48.7883741],[2.5214564,48.7887917],[2.5224511,48.7902409],[2.5215807,48.7906361],[2.5214272,48.7904359],[2.5212605,48.7900787],[2.520602,48.7891516],[2.5200758,48.7885699],[2.5191104,48.78764],[2.5187883,48.7873984],[2.5178519,48.7868024],[2.5168689,48.7864061],[2.518182,48.7856504],[2.5179345,48.785449],[2.5185238,48.7851373]]]]},"properties":{"code_section":"94019000AY","code_commune":"94019","section_courte":"AY"}}]}