{"type":"FeatureCollection","features":[{"type":"Feature","geometry":{"type":"MultiPolygon","coordinates":[[[[2.4045815,48.8279489],[2.4053037,48.828298],[2.4047069,48.8286716],[2.4039241,48.8290694],[2.4029758,48.8294691],[2.4024345,48.8296304],[2.3991391,48.8286963],[2.4009848,48.8270713],[2.4016167,48.8265639],[2.4041786,48.827821],[2.4042606,48.8277682],[2.4042621,48.8277942],[2.4045815,48.8279489]]]]},"properties":{"code_section":"940180000A","code_commune":"94018","section_courte":"A"}},{"type":"Feature","geometry":{"type":"MultiPolygon","coordinates":[[[[2.401378,48.8265911],[2.4014729,48.8266537],[2.3991391,48.8286963],[2.3957255,48.8277265],[2.3943646,48.8275126],[2.3901695,48.8256879],[2.3941979,48.8228914],[2.3962195,48.8217161],[2.3998081,48.8240025],[2.3990217,48.8245189],[2.401378,48.8265911]]]]},"properties":{"code_section":"940180000B","code_commune":"94018","section_courte":"B"}},{"type":"Feature","geometry":{"type":"MultiPolygon","coordinates":[[[[2.4008553,48.8261312],[2.3990217,48.8245189],[2.3998081,48.8240025],[2.3962195,48.8217161],[2.3979482,48.8208176],[2.4002285,48.8199151],[2.4031487,48.8225888],[2.4054851,48.8245091],[2.402959,48.8256708],[2.4014729,48.8266537],[2.4008553,48.8261312]]]]},"properties":{"code_section":"940180000C","code_commune":"94018","section_courte":"C"}},{"type":"Feature","geometry":{"type":"MultiPolygon","coordinates":[[[[2.4074369,48.8262849],[2.4076602,48.8265006],[2.4069642,48.8269942],[2.4059461,48.8278254],[2.4053037,48.828298],[2.4042621,48.8277942],[2.4042606,48.8277682],[2.4041786,48.827821],[2.4016167,48.8265639],[2.402959,48.8256708],[2.4054851,48.8245091],[2.407023,48.825992],[2.407109,48.8259398],[2.4074369,48.8262849]]]]},"properties":{"code_section":"940180000D","code_commune":"94018","section_courte":"D"}},{"type":"Feature","geometry":{"type":"MultiPolygon","coordinates":[[[[2.4091125,48.8247946],[2.4098691,48.8253033],[2.408769,48.8258248],[2.4076602,48.8265006],[2.4071035,48.8259676],[2.407109,48.8259398],[2.407023,48.825992],[2.4054851,48.8245091],[2.4075312,48.8237687],[2.4089388,48.8247675],[2.4090298,48.8247082],[2.4091125,48.8247946]]]]},"properties":{"code_section":"940180000E","code_commune":"94018","section_courte":"E"}},{"type":"Feature","geometry":{"type":"MultiPolygon","coordinates":[[[[2.4117856,48.8239852],[2.4113703,48.8243443],[2.4108085,48.8247625],[2.4110066,48.8250086],[2.4098691,48.8253033],[2.4090284,48.8247384],[2.4090298,48.8247082],[2.4089388,48.8247675],[2.4075312,48.8237687],[2.4089092,48.823047],[2.4107054,48.8223302],[2.4130766,48.8214671],[2.413342,48.8217559],[2.4128267,48.8221718],[2.4123506,48.8231961],[2.4124278,48.8232215],[2.4121542,48.8235858],[2.4117856,48.8239852]]]]},"properties":{"code_section":"940180000F","code_commune":"94018","section_courte":"F"}},{"type":"Feature","geometry":{"type":"MultiPolygon","coordinates":[[[[2.4075786,48.8212983],[2.4081264,48.8203337],[2.4085748,48.82103],[2.4092825,48.8213857],[2.4107054,48.8223302],[2.4089092,48.823047],[2.4075312,48.8237687],[2.4054851,48.8245091],[2.4031487,48.8225888],[2.4032245,48.8225352],[2.4035584,48.8224158],[2.4039679,48.8223371],[2.4043039,48.8223214],[2.4048483,48.8225605],[2.4054474,48.8227464],[2.4064063,48.8221983],[2.4075786,48.8212983]]]]},"properties":{"code_section":"940180000G","code_commune":"94018","section_courte":"G"}},{"type":"Feature","geometry":{"type":"MultiPolygon","coordinates":[[[[2.4077193,48.8197751],[2.4078954,48.8197395],[2.4081264,48.8203337],[2.4075786,48.8212983],[2.4064063,48.8221983],[2.4054474,48.8227464],[2.4048483,48.8225605],[2.4043039,48.8223214],[2.4039679,48.8223371],[2.4035584,48.8224158],[2.4032245,48.8225352],[2.4031487,48.8225888],[2.4019401,48.8215031],[2.4024731,48.8212242],[2.4029666,48.8216743],[2.4051341,48.8206572],[2.4051022,48.8205952],[2.4065124,48.8201143],[2.4072529,48.8199549],[2.407217,48.8198809],[2.4077193,48.8197751]]]]},"properties":{"code_section":"940180000H","code_commune":"94018","section_courte":"H"}},{"type":"Feature","geometry":{"type":"MultiPolygon","coordinates":[[[[2.4034184,48.8192817],[2.4041265,48.8202095],[2.404275,48.8201677],[2.4047221,48.8205531],[2.4047465,48.8205406],[2.4048941,48.8207659],[2.4029666,48.8216743],[2.4024731,48.8212242],[2.4019401,48.8215031],[2.4002285,48.8199151],[2.4031664,48.8189479],[2.4034184,48.8192817]]]]},"properties":{"code_section":"940180000I","code_commune":"94018","section_courte":"I"}},{"type":"Feature","geometry":{"type":"MultiPolygon","coordinates":[[[[2.4068852,48.8178196],[2.4069523,48.8178007],[2.4078954,48.8197395],[2.407217,48.8198809],[2.4072529,48.8199549],[2.4065124,48.8201143],[2.4051022,48.8205952],[2.4051341,48.8206572],[2.4048941,48.8207659],[2.4047465,48.8205406],[2.4047221,48.8205531],[2.404275,48.8201677],[2.4041265,48.8202095],[2.4031664,48.8189479],[2.4054909,48.8181918],[2.4068852,48.8178196]]]]},"properties":{"code_section":"940180000J","code_commune":"94018","section_courte":"J"}},{"type":"Feature","geometry":{"type":"MultiPolygon","coordinates":[[[[2.4075935,48.8190687],[2.4104676,48.8183468],[2.4130766,48.8214671],[2.4107054,48.8223302],[2.4092825,48.8213857],[2.4085748,48.82103],[2.4081264,48.8203337],[2.4075935,48.8190687]]]]},"properties":{"code_section":"940180000K","code_commune":"94018","section_courte":"K"}},{"type":"Feature","geometry":{"type":"MultiPolygon","coordinates":[[[[2.4148203,48.81805],[2.4151383,48.8180256],[2.4151348,48.8181576],[2.4138336,48.8196379],[2.4147521,48.8207502],[2.4145966,48.8210226],[2.4138412,48.8213785],[2.413342,48.8217559],[2.4104676,48.8183468],[2.4115919,48.818195],[2.4127231,48.8178896],[2.4138982,48.8179336],[2.4143198,48.818059],[2.4145596,48.8180733],[2.4148203,48.81805]]]]},"properties":{"code_section":"940180000L","code_commune":"94018","section_courte":"L"}},{"type":"Feature","geometry":{"type":"MultiPolygon","coordinates":[[[[2.4160108,48.823633],[2.4151043,48.824864],[2.413984,48.8248049],[2.4130637,48.8247992],[2.4119381,48.8248679],[2.4110066,48.8250086],[2.4108085,48.8247625],[2.411656,48.8241055],[2.4122446,48.8234761],[2.4124278,48.8232215],[2.4123506,48.8231961],[2.4128267,48.8221718],[2.4138412,48.8213785],[2.416911,48.8224774],[2.4168197,48.8225323],[2.4160108,48.823633]]]]},"properties":{"code_section":"940180000M","code_commune":"94018","section_courte":"M"}},{"type":"Feature","geometry":{"type":"MultiPolygon","coordinates":[[[[2.4160108,48.823633],[2.4168197,48.8225323],[2.416911,48.8224774],[2.4174809,48.8226728],[2.4179959,48.8220744],[2.4188461,48.8223515],[2.4198631,48.822476],[2.4199728,48.8241511],[2.4191122,48.8242846],[2.4178709,48.824591],[2.4170708,48.8247416],[2.4159732,48.8248553],[2.4151043,48.824864],[2.4160108,48.823633]]]]},"properties":{"code_section":"940180000N","code_commune":"94018","section_courte":"N"}},{"type":"Feature","geometry":{"type":"MultiPolygon","coordinates":[[[[2.4197513,48.8206014],[2.4198631,48.822476],[2.4188461,48.8223515],[2.4179959,48.8220744],[2.4174809,48.8226728],[2.4138412,48.8213785],[2.4145966,48.8210226],[2.4147521,48.8207502],[2.4158235,48.8196132],[2.416256,48.8193262],[2.4165714,48.8195119],[2.4171333,48.8197318],[2.417787,48.8198707],[2.4182352,48.8199475],[2.4197191,48.8200536],[2.4197513,48.8206014]]]]},"properties":{"code_section":"940180000O","code_commune":"94018","section_courte":"O"}},{"type":"Feature","geometry":{"type":"MultiPolygon","coordinates":[[[[2.4179088,48.8178549],[2.419639,48.8178333],[2.4196196,48.8183264],[2.4197191,48.8200536],[2.4182352,48.8199475],[2.417787,48.8198707],[2.4171333,48.8197318],[2.4165714,48.8195119],[2.416256,48.8193262],[2.4158235,48.8196132],[2.4147521,48.8207502],[2.4138336,48.8196379],[2.4151348,48.8181576],[2.4151383,48.8180256],[2.4170377,48.8178871],[2.4179088,48.8178549]]]]},"properties":{"code_section":"940180000P","code_commune":"94018","section_courte":"P"}},{"type":"Feature","geometry":{"type":"MultiPolygon","coordinates":[[[[2.4179088,48.8178549],[2.4170377,48.8178871],[2.4145596,48.8180733],[2.4143198,48.818059],[2.4138982,48.8179336],[2.4127231,48.8178896],[2.4115919,48.818195],[2.4104676,48.8183468],[2.4075935,48.8190687],[2.4069523,48.8178007],[2.4077558,48.8175429],[2.408452,48.8171955],[2.4093818,48.8166283],[2.4096319,48.8165714],[2.4108761,48.8163934],[2.4147168,48.8162255],[2.4153708,48.8162485],[2.4164929,48.8163671],[2.4175606,48.8165242],[2.419222,48.8168717],[2.4196994,48.8169086],[2.419639,48.8178333],[2.4179088,48.8178549]]]]},"properties":{"code_section":"940180000Q","code_commune":"94018","section_courte":"Q"}}]}