{"type":"FeatureCollection","features":[{"type":"Feature","geometry":{"type":"MultiPolygon","coordinates":[[[[2.513656,48.8501401],[2.5132375,48.8497738],[2.512258,48.8487523],[2.5138819,48.8478347],[2.5153362,48.8489524],[2.5171309,48.8497815],[2.515525,48.8512961],[2.5148715,48.8510502],[2.5146629,48.8509355],[2.513656,48.8501401]]]]},"properties":{"code_section":"940150000A","code_commune":"94015","section_courte":"A"}},{"type":"Feature","geometry":{"type":"MultiPolygon","coordinates":[[[[2.5118025,48.844786],[2.5143264,48.8455699],[2.5150046,48.8472043],[2.512258,48.8487523],[2.5118945,48.8482039],[2.5116303,48.8476165],[2.5114416,48.8470609],[2.5113357,48.8464873],[2.5112315,48.8453788],[2.5113433,48.8446993],[2.5118025,48.844786]]]]},"properties":{"code_section":"940150000B","code_commune":"94015","section_courte":"B"}},{"type":"Feature","geometry":{"type":"MultiPolygon","coordinates":[[[[2.5150046,48.8472043],[2.5143264,48.8455699],[2.5166176,48.8463046],[2.5170306,48.8467249],[2.517851,48.8473263],[2.5183215,48.8476271],[2.5187731,48.8478614],[2.5190555,48.8479653],[2.5171309,48.8497815],[2.5153362,48.8489524],[2.5138819,48.8478347],[2.5150046,48.8472043]]]]},"properties":{"code_section":"940150000C","code_commune":"94015","section_courte":"C"}},{"type":"Feature","geometry":{"type":"MultiPolygon","coordinates":[[[[2.5237935,48.8467894],[2.5261955,48.8470664],[2.5246731,48.8491207],[2.5243952,48.8490294],[2.5241772,48.8491064],[2.5236775,48.8489962],[2.523636,48.8487686],[2.5232742,48.8486767],[2.5232,48.8487005],[2.5231089,48.8488477],[2.5201187,48.8481966],[2.5198248,48.8482925],[2.5190555,48.8479653],[2.5222957,48.846612],[2.5237935,48.8467894]]]]},"properties":{"code_section":"940150000D","code_commune":"94015","section_courte":"D"}},{"type":"Feature","geometry":{"type":"MultiPolygon","coordinates":[[[[2.5189844,48.8455771],[2.5191227,48.8456539],[2.5201707,48.8448215],[2.5222957,48.846612],[2.5190555,48.8479653],[2.5187731,48.8478614],[2.5183215,48.8476271],[2.517851,48.8473263],[2.5170306,48.8467249],[2.5166176,48.8463046],[2.5184198,48.84526],[2.5189844,48.8455771]]]]},"properties":{"code_section":"940150000E","code_commune":"94015","section_courte":"E"}},{"type":"Feature","geometry":{"type":"MultiPolygon","coordinates":[[[[2.5184503,48.843042],[2.5197345,48.8429116],[2.5201707,48.8448215],[2.5191227,48.8456539],[2.5184198,48.84526],[2.5166176,48.8463046],[2.5162538,48.8457354],[2.5160715,48.8452072],[2.5159262,48.8444884],[2.5158254,48.843601],[2.5166398,48.8430302],[2.5170641,48.843288],[2.5171474,48.843305],[2.5180512,48.843213],[2.5180204,48.8430859],[2.5184503,48.843042]]]]},"properties":{"code_section":"940150000F","code_commune":"94015","section_courte":"F"}},{"type":"Feature","geometry":{"type":"MultiPolygon","coordinates":[[[[2.512051,48.8425082],[2.5158254,48.843601],[2.5159262,48.8444884],[2.5160715,48.8452072],[2.5162538,48.8457354],[2.5166176,48.8463046],[2.5119772,48.8448283],[2.5113433,48.8446993],[2.5115645,48.8437649],[2.512051,48.8425082]]]]},"properties":{"code_section":"940150000G","code_commune":"94015","section_courte":"G"}},{"type":"Feature","geometry":{"type":"MultiPolygon","coordinates":[[[[2.5139086,48.8392292],[2.5163101,48.8399054],[2.5160254,48.8408243],[2.5157924,48.8419242],[2.5157551,48.8426788],[2.5158254,48.843601],[2.512051,48.8425082],[2.5125276,48.8409846],[2.5131792,48.8395027],[2.5134386,48.8391029],[2.5139086,48.8392292]]]]},"properties":{"code_section":"940150000H","code_commune":"94015","section_courte":"H"}},{"type":"Feature","geometry":{"type":"MultiPolygon","coordinates":[[[[2.5184503,48.843042],[2.5180204,48.8430859],[2.5180512,48.843213],[2.5171474,48.843305],[2.5170641,48.843288],[2.5166398,48.8430302],[2.5158254,48.843601],[2.5157551,48.8426788],[2.5157924,48.8419242],[2.5160254,48.8408243],[2.5163101,48.8399054],[2.5192317,48.8407218],[2.5197345,48.8429116],[2.5184503,48.843042]]]]},"properties":{"code_section":"940150000I","code_commune":"94015","section_courte":"I"}},{"type":"Feature","geometry":{"type":"MultiPolygon","coordinates":[[[[2.5221057,48.8398932],[2.5223601,48.8397899],[2.5221578,48.8406137],[2.522183,48.8409927],[2.5233968,48.8431025],[2.5224287,48.8429371],[2.5221007,48.8429491],[2.5219786,48.8429855],[2.5216494,48.8431007],[2.5212789,48.8433013],[2.5198127,48.8432143],[2.5193143,48.8410918],[2.5206067,48.8404319],[2.5221057,48.8398932]]]]},"properties":{"code_section":"940150000J","code_commune":"94015","section_courte":"J"}},{"type":"Feature","geometry":{"type":"MultiPolygon","coordinates":[[[[2.523639,48.8434783],[2.5238058,48.8437465],[2.5239389,48.8441046],[2.523984,48.8443833],[2.5238751,48.8447734],[2.5230609,48.8461417],[2.5229062,48.8463029],[2.5222957,48.846612],[2.5201707,48.8448215],[2.5198127,48.8432143],[2.5212789,48.8433013],[2.5216494,48.8431007],[2.5219786,48.8429855],[2.5221007,48.8429491],[2.5224287,48.8429371],[2.5233968,48.8431025],[2.523639,48.8434783]]]]},"properties":{"code_section":"940150000K","code_commune":"94015","section_courte":"K"}},{"type":"Feature","geometry":{"type":"MultiPolygon","coordinates":[[[[2.5237935,48.8467894],[2.5222957,48.846612],[2.5229062,48.8463029],[2.5230609,48.8461417],[2.5238751,48.8447734],[2.523984,48.8443833],[2.5239389,48.8441046],[2.5238058,48.8437465],[2.5240772,48.8437887],[2.5276814,48.8451285],[2.5261955,48.8470664],[2.5237935,48.8467894]]]]},"properties":{"code_section":"940150000L","code_commune":"94015","section_courte":"L"}},{"type":"Feature","geometry":{"type":"MultiPolygon","coordinates":[[[[2.5276444,48.843236],[2.5287664,48.8435779],[2.5276814,48.8451285],[2.5240772,48.8437887],[2.5238058,48.8437465],[2.5233968,48.8431025],[2.523972,48.8432059],[2.5242578,48.8432187],[2.5249376,48.8431273],[2.5263002,48.8427598],[2.5269044,48.8430134],[2.526918,48.843087],[2.5270653,48.8431368],[2.5270714,48.8430644],[2.5276444,48.843236]]]]},"properties":{"code_section":"940150000M","code_commune":"94015","section_courte":"M"}},{"type":"Feature","geometry":{"type":"MultiPolygon","coordinates":[[[[2.5254977,48.8409775],[2.5256015,48.8411586],[2.5255268,48.8412529],[2.5256127,48.8414673],[2.5257393,48.841604],[2.5258902,48.8416072],[2.5260369,48.8417923],[2.5262604,48.8422266],[2.5260003,48.842459],[2.5263002,48.8427598],[2.5249376,48.8431273],[2.5242578,48.8432187],[2.523972,48.8432059],[2.5233968,48.8431025],[2.522183,48.8409927],[2.5221578,48.8406137],[2.5224964,48.8391571],[2.5234059,48.8395007],[2.5236235,48.8392455],[2.5242378,48.8394496],[2.5253405,48.8395987],[2.5254538,48.839752],[2.526239,48.8402038],[2.5263393,48.8402292],[2.5261926,48.8409186],[2.5256287,48.8408613],[2.5256713,48.8409268],[2.5254977,48.8409775]]]]},"properties":{"code_section":"940150000N","code_commune":"94015","section_courte":"N"}},{"type":"Feature","geometry":{"type":"MultiPolygon","coordinates":[[[[2.5243007,48.8388944],[2.5245802,48.8394953],[2.5242378,48.8394496],[2.5236235,48.8392455],[2.5234059,48.8395007],[2.5224964,48.8391571],[2.5223601,48.8397899],[2.5206067,48.8404319],[2.5213245,48.8381744],[2.5208384,48.83755],[2.5208061,48.8371362],[2.5209271,48.837134],[2.5210814,48.8373477],[2.5216816,48.8371931],[2.5214972,48.836766],[2.5216242,48.836762],[2.5233438,48.8374028],[2.5234171,48.8376866],[2.523473,48.8376751],[2.5234873,48.8377194],[2.5236679,48.8377961],[2.5237832,48.8377756],[2.5240549,48.8386038],[2.5241525,48.8385926],[2.5242235,48.8386566],[2.5243007,48.8388944]]]]},"properties":{"code_section":"940150000O","code_commune":"94015","section_courte":"O"}},{"type":"Feature","geometry":{"type":"MultiPolygon","coordinates":[[[[2.5184795,48.837317],[2.5190944,48.8371713],[2.5208061,48.8371362],[2.5208384,48.83755],[2.5213245,48.8381744],[2.5206067,48.8404319],[2.5193143,48.8410918],[2.5192317,48.8407218],[2.5163101,48.8399054],[2.5165023,48.8395536],[2.5184795,48.837317]]]]},"properties":{"code_section":"940150000P","code_commune":"94015","section_courte":"P"}},{"type":"Feature","geometry":{"type":"MultiPolygon","coordinates":[[[[2.5171943,48.8369314],[2.5184795,48.837317],[2.5165023,48.8395536],[2.5163101,48.8399054],[2.5134386,48.8391029],[2.5137369,48.838808],[2.514336,48.8383917],[2.5157416,48.8375832],[2.5162985,48.8371022],[2.516629,48.8367663],[2.5171943,48.8369314]]]]},"properties":{"code_section":"940150000Q","code_commune":"94015","section_courte":"Q"}},{"type":"Feature","geometry":{"type":"MultiPolygon","coordinates":[[[[2.5175269,48.8338695],[2.5173059,48.8333263],[2.5178921,48.8333238],[2.5182537,48.8340278],[2.5182636,48.8341106],[2.5184713,48.8340707],[2.5191841,48.8336957],[2.5199669,48.8330427],[2.5200915,48.8330628],[2.5198258,48.8340218],[2.5199527,48.83465],[2.520276,48.8357976],[2.520045,48.8360431],[2.5196738,48.836764],[2.5190944,48.8371713],[2.5184795,48.837317],[2.516629,48.8367663],[2.5168935,48.8363747],[2.5170687,48.8359589],[2.5172455,48.8353479],[2.5175596,48.834793],[2.5176006,48.8344186],[2.5175269,48.8338695]]]]},"properties":{"code_section":"940150000R","code_commune":"94015","section_courte":"R"}},{"type":"Feature","geometry":{"type":"MultiPolygon","coordinates":[[[[2.5233924,48.8371717],[2.523286,48.8372009],[2.5233438,48.8374028],[2.5216242,48.836762],[2.5214972,48.836766],[2.5216816,48.8371931],[2.5210814,48.8373477],[2.5209271,48.837134],[2.5190944,48.8371713],[2.5196738,48.836764],[2.520045,48.8360431],[2.520276,48.8357976],[2.5199527,48.83465],[2.5202694,48.8345588],[2.5206216,48.8341856],[2.5210186,48.8339249],[2.5216466,48.8336301],[2.5220056,48.8336415],[2.5222177,48.8337031],[2.5224163,48.8338085],[2.5227939,48.8343746],[2.5231041,48.8349594],[2.5230253,48.8350664],[2.523195,48.8358267],[2.5232965,48.8360584],[2.5234072,48.836181],[2.5236659,48.8370004],[2.5235573,48.8370361],[2.5235791,48.8371232],[2.523549,48.8371499],[2.5233924,48.8371717]]]]},"properties":{"code_section":"940150000S","code_commune":"94015","section_courte":"S"}},{"type":"Feature","geometry":{"type":"MultiPolygon","coordinates":[[[[2.5215158,48.8327029],[2.5218783,48.8333226],[2.5219422,48.8333033],[2.5222177,48.8337031],[2.5220056,48.8336415],[2.5216466,48.8336301],[2.5210186,48.8339249],[2.5206216,48.8341856],[2.5202694,48.8345588],[2.5199527,48.83465],[2.5198258,48.8340218],[2.5200915,48.8330628],[2.5199669,48.8330427],[2.5191841,48.8336957],[2.5184713,48.8340707],[2.5182636,48.8341106],[2.5182537,48.8340278],[2.5178921,48.8333238],[2.5173059,48.8333263],[2.5168632,48.8323795],[2.5164611,48.8317737],[2.5194866,48.8307992],[2.5200101,48.8317815],[2.520055,48.8324723],[2.521173,48.8321974],[2.5215158,48.8327029]]]]},"properties":{"code_section":"940150000T","code_commune":"94015","section_courte":"T"}},{"type":"Feature","geometry":{"type":"MultiPolygon","coordinates":[[[[2.5140499,48.8293249],[2.5145502,48.8284168],[2.515606,48.8285683],[2.5177142,48.8293523],[2.5186656,48.8297465],[2.5188894,48.8299117],[2.5191526,48.8302012],[2.5194866,48.8307992],[2.5164611,48.8317737],[2.5160362,48.8313781],[2.5145209,48.8304661],[2.5133364,48.8299418],[2.513868,48.8296651],[2.5140499,48.8293249]]]]},"properties":{"code_section":"940150000U","code_commune":"94015","section_courte":"U"}},{"type":"Feature","geometry":{"type":"MultiPolygon","coordinates":[[[[2.5140499,48.8293249],[2.513868,48.8296651],[2.5133364,48.8299418],[2.5125165,48.829621],[2.5120414,48.8294689],[2.5117344,48.8293992],[2.5113237,48.829357],[2.5107695,48.8293922],[2.5094931,48.8297547],[2.5094987,48.8295087],[2.5098581,48.8294077],[2.5098313,48.8293069],[2.5097807,48.8292712],[2.5094964,48.8292845],[2.5094959,48.8291746],[2.5096975,48.8291778],[2.5097408,48.8291271],[2.5097232,48.8290934],[2.5094954,48.8290996],[2.5094931,48.828888],[2.5082619,48.8289067],[2.5078167,48.8289661],[2.50748,48.828732],[2.5074451,48.8286311],[2.5078819,48.8284103],[2.508476,48.828186],[2.509511,48.8279178],[2.5102025,48.827815],[2.5105534,48.8276545],[2.5126851,48.8280293],[2.5145502,48.8284168],[2.5140499,48.8293249]]]]},"properties":{"code_section":"940150000V","code_commune":"94015","section_courte":"V"}},{"type":"Feature","geometry":{"type":"MultiPolygon","coordinates":[[[[2.5096017,48.8291801],[2.5094959,48.8291746],[2.5094964,48.8292845],[2.5097807,48.8292712],[2.5098313,48.8293069],[2.5098581,48.8294077],[2.5094987,48.8295087],[2.5094931,48.8297547],[2.5090522,48.8299032],[2.508672,48.8300985],[2.5083949,48.8301976],[2.5076173,48.8302769],[2.506642,48.8301951],[2.5059577,48.8302457],[2.5049589,48.8304369],[2.5039903,48.8307508],[2.5041584,48.8303965],[2.5042878,48.8302423],[2.504795,48.8298018],[2.5049984,48.8296868],[2.5067951,48.8292956],[2.507992,48.8289282],[2.5089664,48.8288815],[2.5094931,48.828888],[2.5094954,48.8290996],[2.5097348,48.8291063],[2.5097155,48.8291741],[2.5096017,48.8291801]]]]},"properties":{"code_section":"940150000X","code_commune":"94015","section_courte":"X"}},{"type":"Feature","geometry":{"type":"MultiPolygon","coordinates":[[[[2.5221401,48.8294856],[2.5219589,48.8295806],[2.5223919,48.8298468],[2.522276,48.8299179],[2.5223203,48.8299485],[2.5224722,48.8298583],[2.5231491,48.8305396],[2.5234461,48.8308501],[2.5240209,48.8316689],[2.5233063,48.831916],[2.5233328,48.8319297],[2.5231697,48.8320094],[2.5231297,48.8319775],[2.5226075,48.8321964],[2.5226287,48.8322274],[2.5221402,48.8323592],[2.5220295,48.83231],[2.5213743,48.8324907],[2.521173,48.8321974],[2.520055,48.8324723],[2.5200101,48.8317815],[2.5191526,48.8302012],[2.5188894,48.8299117],[2.5186656,48.8297465],[2.5177142,48.8293523],[2.5180942,48.8290894],[2.5187325,48.828766],[2.5203765,48.8297651],[2.5211958,48.8291234],[2.5218148,48.8287846],[2.5225378,48.8292814],[2.5221401,48.8294856]]]]},"properties":{"code_section":"940150000Y","code_commune":"94015","section_courte":"Y"}},{"type":"Feature","geometry":{"type":"MultiPolygon","coordinates":[[[[2.5214521,48.8326032],[2.5213743,48.8324907],[2.5220295,48.83231],[2.5221402,48.8323592],[2.5226287,48.8322274],[2.5226075,48.8321964],[2.5231297,48.8319775],[2.5231697,48.8320094],[2.5233328,48.8319297],[2.5233063,48.831916],[2.5240209,48.8316689],[2.5245052,48.8323653],[2.5248867,48.8328073],[2.5250225,48.8329084],[2.5258658,48.8350378],[2.5252973,48.8351583],[2.5253254,48.8352081],[2.5245107,48.8355217],[2.5243535,48.8355343],[2.5240109,48.8354462],[2.5231382,48.8355584],[2.5230253,48.8350664],[2.5231041,48.8349594],[2.5227939,48.8343746],[2.5224163,48.8338085],[2.5222008,48.8336853],[2.5221247,48.833525],[2.5219422,48.8333033],[2.5218783,48.8333226],[2.5214521,48.8326032]]]]},"properties":{"code_section":"940150000Z","code_commune":"94015","section_courte":"Z"}},{"type":"Feature","geometry":{"type":"MultiPolygon","coordinates":[[[[2.5276869,48.8375754],[2.5275468,48.8376902],[2.5276734,48.8377614],[2.527107,48.8381612],[2.5268959,48.8382707],[2.5267179,48.8381209],[2.5262972,48.8382943],[2.5262496,48.8382693],[2.526178,48.838303],[2.5260859,48.8382531],[2.5254337,48.8386489],[2.5252751,48.83936],[2.5252735,48.8394702],[2.5253405,48.8395987],[2.5245802,48.8394953],[2.5242235,48.8386566],[2.5241525,48.8385926],[2.5240549,48.8386038],[2.5237832,48.8377756],[2.5236679,48.8377961],[2.5234873,48.8377194],[2.523473,48.8376751],[2.5234171,48.8376866],[2.5233909,48.8376373],[2.523286,48.8372009],[2.523549,48.8371499],[2.5235791,48.8371232],[2.5235573,48.8370361],[2.5236659,48.8370004],[2.5234072,48.836181],[2.5232965,48.8360584],[2.523195,48.8358267],[2.5231382,48.8355584],[2.5240109,48.8354462],[2.5243535,48.8355343],[2.5245107,48.8355217],[2.5253254,48.8352081],[2.5252973,48.8351583],[2.5258658,48.8350378],[2.5262419,48.8358792],[2.5278592,48.8374397],[2.5276869,48.8375754]]]]},"properties":{"code_section":"94015000AB","code_commune":"94015","section_courte":"AB"}},{"type":"Feature","geometry":{"type":"MultiPolygon","coordinates":[[[[2.5296445,48.8386645],[2.5297189,48.8385994],[2.5301758,48.8388797],[2.5303978,48.8389648],[2.530615,48.8387988],[2.5319281,48.8394687],[2.5308052,48.8407447],[2.5307325,48.8407152],[2.5303113,48.841126],[2.5298149,48.8408903],[2.5289061,48.8405251],[2.5280104,48.8402542],[2.5273303,48.8402006],[2.5263393,48.8402292],[2.526239,48.8402038],[2.5254538,48.839752],[2.5252964,48.8395448],[2.5252751,48.83936],[2.5254337,48.8386489],[2.5260859,48.8382531],[2.526178,48.838303],[2.5262496,48.8382693],[2.5262972,48.8382943],[2.5267179,48.8381209],[2.5268959,48.8382707],[2.527107,48.8381612],[2.5276734,48.8377614],[2.5275468,48.8376902],[2.5278592,48.8374397],[2.5291096,48.8385976],[2.5293434,48.8389339],[2.5296445,48.8386645]]]]},"properties":{"code_section":"94015000AC","code_commune":"94015","section_courte":"AC"}},{"type":"Feature","geometry":{"type":"MultiPolygon","coordinates":[[[[2.5276444,48.843236],[2.5270714,48.8430644],[2.5270653,48.8431368],[2.526918,48.843087],[2.5269044,48.8430134],[2.5263002,48.8427598],[2.5260003,48.842459],[2.5262604,48.8422266],[2.5260369,48.8417923],[2.5258902,48.8416072],[2.5257393,48.841604],[2.5256127,48.8414673],[2.5255268,48.8412529],[2.5256015,48.8411586],[2.5254977,48.8409775],[2.5256713,48.8409268],[2.5256287,48.8408613],[2.5261926,48.8409186],[2.5263393,48.8402292],[2.5273303,48.8402006],[2.5280104,48.8402542],[2.5289061,48.8405251],[2.5298149,48.8408903],[2.5303113,48.841126],[2.5314417,48.8415368],[2.529519,48.8438071],[2.5276444,48.843236]]]]},"properties":{"code_section":"94015000AD","code_commune":"94015","section_courte":"AD"}},{"type":"Feature","geometry":{"type":"MultiPolygon","coordinates":[[[[2.5333902,48.8449892],[2.529519,48.8438071],[2.5314417,48.8415368],[2.5318268,48.8416762],[2.5327027,48.841589],[2.5345175,48.8423168],[2.5355612,48.8430027],[2.5355116,48.8436422],[2.5352826,48.8440945],[2.5345344,48.8453366],[2.5333902,48.8449892]]]]},"properties":{"code_section":"94015000AE","code_commune":"94015","section_courte":"AE"}},{"type":"Feature","geometry":{"type":"MultiPolygon","coordinates":[[[[2.5335653,48.8397325],[2.5342263,48.8400114],[2.5346917,48.8394787],[2.5351015,48.8396588],[2.535404,48.8396367],[2.5354231,48.8397107],[2.5357049,48.8398556],[2.5364114,48.8397531],[2.536479,48.8399558],[2.5365573,48.8399481],[2.5366011,48.840289],[2.537244,48.840468],[2.5369827,48.8408009],[2.537109,48.8408556],[2.5373352,48.8410574],[2.5373447,48.8411101],[2.5376111,48.8414132],[2.5371688,48.8417668],[2.5359311,48.842651],[2.5355612,48.8430027],[2.5345175,48.8423168],[2.5327027,48.841589],[2.5318268,48.8416762],[2.5303113,48.841126],[2.5307325,48.8407152],[2.5308052,48.8407447],[2.5319281,48.8394687],[2.5321755,48.839574],[2.5324998,48.8392498],[2.5335653,48.8397325]]]]},"properties":{"code_section":"94015000AF","code_commune":"94015","section_courte":"AF"}},{"type":"Feature","geometry":{"type":"MultiPolygon","coordinates":[[[[2.5381551,48.8388212],[2.5394684,48.8389691],[2.5398867,48.8390416],[2.5408091,48.8393774],[2.540273,48.8398223],[2.5394371,48.8397834],[2.5393684,48.8398047],[2.5386028,48.8404388],[2.5381596,48.8407078],[2.5373971,48.8410498],[2.5373447,48.8411101],[2.5373352,48.8410574],[2.5371291,48.8408727],[2.5369827,48.8408009],[2.537244,48.840468],[2.5366011,48.840289],[2.5365573,48.8399481],[2.536479,48.8399558],[2.5364114,48.8397531],[2.5357049,48.8398556],[2.5354231,48.8397107],[2.535404,48.8396367],[2.5351015,48.8396588],[2.5346917,48.8394787],[2.5349847,48.839142],[2.5354934,48.8384599],[2.5354449,48.8384418],[2.5356305,48.8382256],[2.5371244,48.8386367],[2.5381551,48.8388212]]]]},"properties":{"code_section":"94015000AG","code_commune":"94015","section_courte":"AG"}},{"type":"Feature","geometry":{"type":"MultiPolygon","coordinates":[[[[2.5315913,48.8372844],[2.5341739,48.8359349],[2.5364449,48.8372897],[2.5354531,48.8384314],[2.5354934,48.8384599],[2.5349847,48.839142],[2.5342263,48.8400114],[2.5324998,48.8392498],[2.5321755,48.839574],[2.530615,48.8387988],[2.5303978,48.8389648],[2.5303081,48.8389298],[2.5307603,48.8385329],[2.5306763,48.8384792],[2.5320916,48.8376912],[2.5315913,48.8372844]]]]},"properties":{"code_section":"94015000AH","code_commune":"94015","section_courte":"AH"}},{"type":"Feature","geometry":{"type":"MultiPolygon","coordinates":[[[[2.5338719,48.8357668],[2.5341739,48.8359349],[2.5315913,48.8372844],[2.5320916,48.8376912],[2.5306763,48.8384792],[2.5307603,48.8385329],[2.5303081,48.8389298],[2.5301349,48.8388571],[2.5297189,48.8385994],[2.5293434,48.8389339],[2.5291096,48.8385976],[2.5274613,48.8370567],[2.5283229,48.8364248],[2.5293753,48.8358201],[2.5293767,48.8357933],[2.5294143,48.8358158],[2.5294423,48.8357986],[2.529608,48.8358938],[2.5296486,48.8358801],[2.5296135,48.8358586],[2.5317843,48.834696],[2.5317873,48.8346687],[2.5319044,48.8347626],[2.5323335,48.8349912],[2.5338719,48.8357668]]]]},"properties":{"code_section":"94015000AI","code_commune":"94015","section_courte":"AI"}},{"type":"Feature","geometry":{"type":"MultiPolygon","coordinates":[[[[2.5343888,48.8349435],[2.5335384,48.8356096],[2.5319044,48.8347626],[2.531269,48.8342506],[2.5306035,48.8334052],[2.5306176,48.8333609],[2.5311589,48.8331896],[2.5315424,48.8329936],[2.5326693,48.8321561],[2.5333298,48.8318523],[2.5340405,48.8329389],[2.5349014,48.834061],[2.5352407,48.8343586],[2.5349374,48.83451],[2.5343888,48.8349435]]]]},"properties":{"code_section":"94015000AJ","code_commune":"94015","section_courte":"AJ"}},{"type":"Feature","geometry":{"type":"MultiPolygon","coordinates":[[[[2.5306035,48.8334052],[2.531269,48.8342506],[2.5317873,48.8346687],[2.5317843,48.834696],[2.5296135,48.8358586],[2.5296486,48.8358801],[2.529608,48.8358938],[2.5294423,48.8357986],[2.5294143,48.8358158],[2.5293767,48.8357933],[2.5293753,48.8358201],[2.5283229,48.8364248],[2.5274613,48.8370567],[2.5262419,48.8358792],[2.5260677,48.8355439],[2.5256073,48.8344095],[2.5272841,48.8344281],[2.5283502,48.8340367],[2.5306176,48.8333609],[2.5306035,48.8334052]]]]},"properties":{"code_section":"94015000AK","code_commune":"94015","section_courte":"AK"}},{"type":"Feature","geometry":{"type":"MultiPolygon","coordinates":[[[[2.5246619,48.8310863],[2.5252003,48.8309396],[2.5252191,48.8309778],[2.5267618,48.8305747],[2.5269931,48.8314631],[2.5272181,48.8317147],[2.5276633,48.8323986],[2.5278037,48.8327502],[2.5279844,48.8334339],[2.5283502,48.8340367],[2.5272841,48.8344281],[2.5256073,48.8344095],[2.5250225,48.8329084],[2.5248867,48.8328073],[2.5245052,48.8323653],[2.523782,48.8313278],[2.5246619,48.8310863]]]]},"properties":{"code_section":"94015000AL","code_commune":"94015","section_courte":"AL"}},{"type":"Feature","geometry":{"type":"MultiPolygon","coordinates":[[[[2.5246619,48.8310863],[2.523782,48.8313278],[2.5234461,48.8308501],[2.5224722,48.8298583],[2.5223203,48.8299485],[2.522276,48.8299179],[2.5223919,48.8298468],[2.5219589,48.8295806],[2.5225378,48.8292814],[2.5218148,48.8287846],[2.5237754,48.8278977],[2.5249487,48.8271505],[2.5254914,48.8271941],[2.5264893,48.8288414],[2.5263497,48.8288412],[2.5267618,48.8305747],[2.5252191,48.8309778],[2.5252003,48.8309396],[2.5246619,48.8310863]]]]},"properties":{"code_section":"94015000AM","code_commune":"94015","section_courte":"AM"}},{"type":"Feature","geometry":{"type":"MultiPolygon","coordinates":[[[[2.5302056,48.8291157],[2.5319038,48.8292614],[2.5336382,48.8317212],[2.5326693,48.8321561],[2.5315424,48.8329936],[2.5311589,48.8331896],[2.5283502,48.8340367],[2.5279844,48.8334339],[2.5278037,48.8327502],[2.5276633,48.8323986],[2.5272181,48.8317147],[2.5269794,48.8314286],[2.5263497,48.8288412],[2.5281549,48.8288675],[2.529436,48.8290519],[2.5302056,48.8291157]]]]},"properties":{"code_section":"94015000AN","code_commune":"94015","section_courte":"AN"}}]}