{"type":"FeatureCollection","features":[{"type":"Feature","geometry":{"type":"MultiPolygon","coordinates":[[[[2.3996718,48.7749444],[2.3996554,48.7749739],[2.3987174,48.7747932],[2.4012014,48.7709976],[2.4031972,48.7714499],[2.4003241,48.7750762],[2.3996718,48.7749444]]]]},"properties":{"code_section":"940220000A","code_commune":"94022","section_courte":"A"}},{"type":"Feature","geometry":{"type":"MultiPolygon","coordinates":[[[[2.402144,48.771212],[2.4012014,48.7709976],[2.4031231,48.7680415],[2.4054386,48.7686581],[2.4049909,48.7692839],[2.4031972,48.7714499],[2.402144,48.771212]]]]},"properties":{"code_section":"940220000B","code_commune":"94022","section_courte":"B"}},{"type":"Feature","geometry":{"type":"MultiPolygon","coordinates":[[[[2.4044354,48.7733551],[2.4020108,48.7729646],[2.4035533,48.7710197],[2.4062799,48.7713961],[2.4066258,48.7718863],[2.4068877,48.7725184],[2.4070864,48.7732459],[2.4071237,48.7739341],[2.4057022,48.7738377],[2.4057394,48.7735691],[2.4044354,48.7733551]]]]},"properties":{"code_section":"940220000C","code_commune":"94022","section_courte":"C"}},{"type":"Feature","geometry":{"type":"MultiPolygon","coordinates":[[[[2.4103791,48.7741801],[2.4071237,48.7739341],[2.4070864,48.7732459],[2.4068877,48.7725184],[2.4066258,48.7718863],[2.4062799,48.7713961],[2.4115618,48.771594],[2.4116555,48.7725364],[2.4119453,48.7742918],[2.4103791,48.7741801]]]]},"properties":{"code_section":"940220000D","code_commune":"94022","section_courte":"D"}},{"type":"Feature","geometry":{"type":"MultiPolygon","coordinates":[[[[2.4079685,48.7706252],[2.4082321,48.7706508],[2.4084162,48.7703288],[2.4085711,48.7699339],[2.4077471,48.7698595],[2.4078331,48.7694569],[2.4087699,48.7695375],[2.4087309,48.7689086],[2.4086061,48.7689219],[2.408599,48.7689541],[2.4083748,48.7689285],[2.4083867,48.768873],[2.4081945,48.7687016],[2.4082233,48.7683669],[2.4095707,48.7684604],[2.4113742,48.7684373],[2.411355,48.7697064],[2.4115618,48.771594],[2.4075216,48.7714413],[2.407708,48.7705998],[2.4079685,48.7706252]]]]},"properties":{"code_section":"940220000E","code_commune":"94022","section_courte":"E"}},{"type":"Feature","geometry":{"type":"MultiPolygon","coordinates":[[[[2.4079685,48.7706252],[2.407708,48.7705998],[2.4075216,48.7714413],[2.4059287,48.7713605],[2.4035533,48.7710197],[2.4049909,48.7692839],[2.4058305,48.7681848],[2.4082233,48.7683669],[2.4081945,48.7687016],[2.4083867,48.768873],[2.4083748,48.7689285],[2.408599,48.7689541],[2.4086061,48.7689219],[2.4087309,48.7689086],[2.4087699,48.7695375],[2.4078331,48.7694569],[2.4077471,48.7698595],[2.4085711,48.7699339],[2.4084162,48.7703288],[2.4082321,48.7706508],[2.4079685,48.7706252]]]]},"properties":{"code_section":"940220000F","code_commune":"94022","section_courte":"F"}},{"type":"Feature","geometry":{"type":"MultiPolygon","coordinates":[[[[2.4107487,48.7684435],[2.4095707,48.7684604],[2.4058305,48.7681848],[2.4060711,48.7679178],[2.4072047,48.7663196],[2.4072943,48.7660525],[2.4075637,48.7660425],[2.4076223,48.7661418],[2.4077473,48.7661008],[2.4091163,48.7664328],[2.4090949,48.7664808],[2.4091607,48.766559],[2.4103781,48.7668639],[2.4107249,48.7665737],[2.4115295,48.7665877],[2.4113742,48.7684373],[2.4107487,48.7684435]]]]},"properties":{"code_section":"940220000G","code_commune":"94022","section_courte":"G"}},{"type":"Feature","geometry":{"type":"MultiPolygon","coordinates":[[[[2.4080621,48.7654022],[2.4079717,48.765476],[2.4076142,48.7660035],[2.4075637,48.7660425],[2.4072943,48.7660525],[2.4072047,48.7663196],[2.4062668,48.7676462],[2.4054386,48.7686581],[2.4031231,48.7680415],[2.4038848,48.7668672],[2.4048106,48.765598],[2.4056637,48.7643256],[2.408157,48.7650785],[2.4080621,48.7654022]]]]},"properties":{"code_section":"940220000H","code_commune":"94022","section_courte":"H"}},{"type":"Feature","geometry":{"type":"MultiPolygon","coordinates":[[[[2.4012959,48.7659669],[2.4016457,48.7660679],[2.4032708,48.7636045],[2.4056637,48.7643256],[2.4048106,48.765598],[2.4038848,48.7668672],[2.4010407,48.7663773],[2.4012959,48.7659669]]]]},"properties":{"code_section":"940220000I","code_commune":"94022","section_courte":"I"}},{"type":"Feature","geometry":{"type":"MultiPolygon","coordinates":[[[[2.4012959,48.7659669],[2.4010407,48.7663773],[2.3980451,48.7658619],[2.3996663,48.7644279],[2.4003892,48.7638685],[2.4005145,48.7636682],[2.4005293,48.7634221],[2.4008092,48.7633877],[2.4007258,48.763159],[2.4013537,48.7630579],[2.4013963,48.763019],[2.4032708,48.7636045],[2.4016457,48.7660679],[2.4012959,48.7659669]]]]},"properties":{"code_section":"940220000J","code_commune":"94022","section_courte":"J"}},{"type":"Feature","geometry":{"type":"MultiPolygon","coordinates":[[[[2.4044561,48.7616846],[2.4068943,48.7623887],[2.4056637,48.7643256],[2.4013963,48.763019],[2.4032898,48.76135],[2.4044561,48.7616846]]]]},"properties":{"code_section":"940220000K","code_commune":"94022","section_courte":"K"}},{"type":"Feature","geometry":{"type":"MultiPolygon","coordinates":[[[[2.4084533,48.7617608],[2.4108932,48.7624544],[2.4104224,48.7637627],[2.4092876,48.7654163],[2.4056637,48.7643256],[2.4074845,48.7614875],[2.4084533,48.7617608]]]]},"properties":{"code_section":"940220000L","code_commune":"94022","section_courte":"L"}},{"type":"Feature","geometry":{"type":"MultiPolygon","coordinates":[[[[2.4114956,48.7632576],[2.4126078,48.7634655],[2.4121793,48.7642705],[2.412667,48.764385],[2.4129668,48.7644953],[2.4118079,48.7661026],[2.4115295,48.7665877],[2.4107249,48.7665737],[2.4103781,48.7668639],[2.4091607,48.766559],[2.4090949,48.7664808],[2.4091163,48.7664328],[2.4077473,48.7661008],[2.4076223,48.7661418],[2.4075637,48.7660425],[2.4079717,48.765476],[2.4080637,48.7654001],[2.408157,48.7650785],[2.4092876,48.7654163],[2.4104224,48.7637627],[2.4106568,48.7631112],[2.4114956,48.7632576]]]]},"properties":{"code_section":"940220000M","code_commune":"94022","section_courte":"M"}},{"type":"Feature","geometry":{"type":"MultiPolygon","coordinates":[[[[2.4121792,48.7612606],[2.411819,48.7615917],[2.4112856,48.7624554],[2.4109606,48.7631576],[2.4106568,48.7631112],[2.4108932,48.7624544],[2.4074845,48.7614875],[2.4086351,48.7596508],[2.4126692,48.7607901],[2.4121792,48.7612606]]]]},"properties":{"code_section":"940220000N","code_commune":"94022","section_courte":"N"}},{"type":"Feature","geometry":{"type":"MultiPolygon","coordinates":[[[[2.4039679,48.7588522],[2.4040241,48.7586436],[2.4084403,48.7599672],[2.4068943,48.7623887],[2.4032898,48.76135],[2.4039679,48.7588522]]]]},"properties":{"code_section":"940220000O","code_commune":"94022","section_courte":"O"}},{"type":"Feature","geometry":{"type":"MultiPolygon","coordinates":[[[[2.4041786,48.7580691],[2.4045729,48.7565783],[2.4096511,48.7580237],[2.4084403,48.7599672],[2.4040241,48.7586436],[2.4041786,48.7580691]]]]},"properties":{"code_section":"940220000P","code_commune":"94022","section_courte":"P"}},{"type":"Feature","geometry":{"type":"MultiPolygon","coordinates":[[[[2.4141289,48.7587335],[2.4140351,48.7588586],[2.4140062,48.7588503],[2.4127436,48.7607276],[2.4126692,48.7607901],[2.4086351,48.7596508],[2.4096511,48.7580237],[2.4100064,48.7576148],[2.4135734,48.7586295],[2.4141623,48.7586517],[2.4141289,48.7587335]]]]},"properties":{"code_section":"940220000Q","code_commune":"94022","section_courte":"Q"}},{"type":"Feature","geometry":{"type":"MultiPolygon","coordinates":[[[[2.415358,48.756532],[2.415975,48.7566614],[2.4147182,48.7586725],[2.4135734,48.7586295],[2.4100064,48.7576148],[2.4123253,48.7559676],[2.4123876,48.7560028],[2.4146551,48.7564492],[2.41469,48.7563841],[2.415358,48.756532]]]]},"properties":{"code_section":"940220000R","code_commune":"94022","section_courte":"R"}},{"type":"Feature","geometry":{"type":"MultiPolygon","coordinates":[[[[2.4097887,48.7545166],[2.4107718,48.7546792],[2.4129342,48.7552344],[2.4126422,48.7557177],[2.4119831,48.7562236],[2.4100064,48.7576148],[2.4096511,48.7580237],[2.4079075,48.7575274],[2.4085231,48.7565068],[2.4093663,48.7544465],[2.4097887,48.7545166]]]]},"properties":{"code_section":"940220000S","code_commune":"94022","section_courte":"S"}},{"type":"Feature","geometry":{"type":"MultiPolygon","coordinates":[[[[2.4052117,48.7542265],[2.4053308,48.7537728],[2.4093663,48.7544465],[2.4085231,48.7565068],[2.4079075,48.7575274],[2.4045729,48.7565783],[2.4052117,48.7542265]]]]},"properties":{"code_section":"940220000T","code_commune":"94022","section_courte":"T"}},{"type":"Feature","geometry":{"type":"MultiPolygon","coordinates":[[[[2.4104765,48.7519734],[2.4109787,48.752074],[2.4101794,48.7545814],[2.4053308,48.7537728],[2.4060582,48.7510814],[2.4104765,48.7519734]]]]},"properties":{"code_section":"940220000U","code_commune":"94022","section_courte":"U"}},{"type":"Feature","geometry":{"type":"MultiPolygon","coordinates":[[[[2.411643,48.7521887],[2.4132593,48.7524652],[2.4137675,48.7516747],[2.418116,48.7529007],[2.4189779,48.7515706],[2.4194848,48.7516749],[2.4192721,48.7524678],[2.4186495,48.7530643],[2.4176183,48.7541436],[2.415975,48.7566614],[2.41469,48.7563841],[2.4146551,48.7564492],[2.4123876,48.7560028],[2.4123253,48.7559676],[2.4126422,48.7557177],[2.4129342,48.7552344],[2.4107718,48.7546792],[2.4101794,48.7545814],[2.4109787,48.752074],[2.411643,48.7521887]]]]},"properties":{"code_section":"940220000V","code_commune":"94022","section_courte":"V"}},{"type":"Feature","geometry":{"type":"MultiPolygon","coordinates":[[[[2.4192808,48.7525921],[2.4193114,48.7524817],[2.4192721,48.7524678],[2.4194848,48.7516749],[2.4189779,48.7515706],[2.4201491,48.7497508],[2.4206615,48.7501864],[2.4213587,48.7506941],[2.4242616,48.7524908],[2.4235549,48.7529568],[2.4227651,48.753623],[2.4206006,48.7530685],[2.4205623,48.7531641],[2.4196033,48.7530413],[2.419708,48.7527035],[2.4192676,48.75264],[2.4192808,48.7525921]]]]},"properties":{"code_section":"940220000X","code_commune":"94022","section_courte":"X"}},{"type":"Feature","geometry":{"type":"MultiPolygon","coordinates":[[[[2.4192808,48.7525921],[2.4192676,48.75264],[2.419708,48.7527035],[2.4196033,48.7530413],[2.4205623,48.7531641],[2.4206006,48.7530685],[2.4227651,48.753623],[2.4215251,48.7548605],[2.4208933,48.7557696],[2.4204714,48.7565233],[2.4187172,48.7561828],[2.4180451,48.7559669],[2.4178141,48.7563567],[2.4176635,48.7563171],[2.4175787,48.7564597],[2.4165193,48.7560364],[2.4163956,48.7560172],[2.4176183,48.7541436],[2.4186495,48.7530643],[2.4192721,48.7524678],[2.4193114,48.7524817],[2.4192808,48.7525921]]]]},"properties":{"code_section":"940220000Y","code_commune":"94022","section_courte":"Y"}},{"type":"Feature","geometry":{"type":"MultiPolygon","coordinates":[[[[2.4184603,48.7601334],[2.4177671,48.7597573],[2.4171937,48.7595673],[2.4172164,48.7595354],[2.4171672,48.7594956],[2.4158651,48.7590665],[2.415237,48.758806],[2.4150328,48.758748],[2.4148634,48.7588052],[2.4147182,48.7586725],[2.4163956,48.7560172],[2.4165193,48.7560364],[2.4175787,48.7564597],[2.4176635,48.7563171],[2.4178141,48.7563567],[2.4180451,48.7559669],[2.4187172,48.7561828],[2.4204714,48.7565233],[2.4202791,48.757089],[2.419932,48.7578612],[2.4184603,48.7601334]]]]},"properties":{"code_section":"940220000Z","code_commune":"94022","section_courte":"Z"}},{"type":"Feature","geometry":{"type":"MultiPolygon","coordinates":[[[[2.4141289,48.7587335],[2.4141623,48.7586517],[2.4147182,48.7586725],[2.4148634,48.7588052],[2.4150328,48.758748],[2.415237,48.758806],[2.4158651,48.7590665],[2.4171672,48.7594956],[2.4172164,48.7595354],[2.4171937,48.7595673],[2.4177671,48.7597573],[2.4184603,48.7601334],[2.4179941,48.7610614],[2.417552,48.7615448],[2.4168819,48.762007],[2.4164665,48.7618418],[2.4126692,48.7607901],[2.4127436,48.7607276],[2.4140062,48.7588503],[2.4140351,48.7588586],[2.4141289,48.7587335]]]]},"properties":{"code_section":"94022000AB","code_commune":"94022","section_courte":"AB"}},{"type":"Feature","geometry":{"type":"MultiPolygon","coordinates":[[[[2.4121792,48.7612606],[2.4126692,48.7607901],[2.4164665,48.7618418],[2.4168819,48.762007],[2.4165868,48.7628092],[2.4141734,48.7642062],[2.4129668,48.7644953],[2.412667,48.764385],[2.4121793,48.7642705],[2.4126078,48.7634655],[2.4109606,48.7631576],[2.4112856,48.7624554],[2.411819,48.7615917],[2.4121792,48.7612606]]]]},"properties":{"code_section":"94022000AC","code_commune":"94022","section_courte":"AC"}},{"type":"Feature","geometry":{"type":"MultiPolygon","coordinates":[[[[2.4122266,48.7694107],[2.411355,48.7697064],[2.4113742,48.7684373],[2.4115295,48.7665877],[2.4117386,48.7662142],[2.4143796,48.766915],[2.4136084,48.7692363],[2.4122266,48.7694107]]]]},"properties":{"code_section":"94022000AD","code_commune":"94022","section_courte":"AD"}},{"type":"Feature","geometry":{"type":"MultiPolygon","coordinates":[[[[2.4142387,48.7732187],[2.412761,48.7736489],[2.4118579,48.7737671],[2.4116555,48.7725364],[2.411355,48.7697064],[2.4122266,48.7694107],[2.4136084,48.7692363],[2.4135416,48.7702105],[2.4135761,48.7711311],[2.413986,48.7720553],[2.4146893,48.7730904],[2.4142387,48.7732187]]]]},"properties":{"code_section":"94022000AE","code_commune":"94022","section_courte":"AE"}},{"type":"Feature","geometry":{"type":"MultiPolygon","coordinates":[[[[2.4230656,48.7749247],[2.4241687,48.7748528],[2.4242518,48.776249],[2.4248084,48.7764216],[2.4243955,48.7764559],[2.4242673,48.7764115],[2.4242649,48.7763847],[2.4215482,48.7765991],[2.421808,48.7766816],[2.4168101,48.7771117],[2.4165109,48.7773811],[2.4163789,48.7775481],[2.4162332,48.7776059],[2.4157434,48.7772035],[2.4147009,48.7772958],[2.4136733,48.7764328],[2.4128672,48.7756374],[2.4123072,48.774924],[2.4119453,48.7742918],[2.4118579,48.7737671],[2.412761,48.7736489],[2.4146893,48.7730904],[2.4158074,48.7747842],[2.4159576,48.7754721],[2.4180658,48.775195],[2.4180686,48.775234],[2.4230656,48.7749247]]]]},"properties":{"code_section":"94022000AF","code_commune":"94022","section_courte":"AF"}},{"type":"Feature","geometry":{"type":"MultiPolygon","coordinates":[[[[2.4177022,48.772818],[2.4180658,48.775195],[2.4159576,48.7754721],[2.4158074,48.7747842],[2.413986,48.7720553],[2.4175879,48.7720261],[2.4177022,48.772818]]]]},"properties":{"code_section":"94022000AG","code_commune":"94022","section_courte":"AG"}},{"type":"Feature","geometry":{"type":"MultiPolygon","coordinates":[[[[2.421752,48.7744782],[2.4217988,48.7750021],[2.4180686,48.775234],[2.4175879,48.7720261],[2.4214315,48.7719801],[2.4215101,48.7720543],[2.421752,48.7744782]]]]},"properties":{"code_section":"94022000AH","code_commune":"94022","section_courte":"AH"}},{"type":"Feature","geometry":{"type":"MultiPolygon","coordinates":[[[[2.4226959,48.7749477],[2.4217988,48.7750021],[2.4215101,48.7720543],[2.4214311,48.7719398],[2.4236112,48.7719155],[2.4235628,48.7696477],[2.4276536,48.7708604],[2.4274048,48.772345],[2.427565,48.7736187],[2.4282182,48.7761253],[2.4248084,48.7764216],[2.4242518,48.776249],[2.4241687,48.7748528],[2.4226959,48.7749477]]]]},"properties":{"code_section":"94022000AI","code_commune":"94022","section_courte":"AI"}},{"type":"Feature","geometry":{"type":"MultiPolygon","coordinates":[[[[2.4206727,48.7687797],[2.4235628,48.7696477],[2.4236112,48.7719155],[2.4214311,48.7719398],[2.4214315,48.7719801],[2.4206996,48.7719963],[2.4206034,48.768759],[2.4206727,48.7687797]]]]},"properties":{"code_section":"94022000AJ","code_commune":"94022","section_courte":"AJ"}},{"type":"Feature","geometry":{"type":"MultiPolygon","coordinates":[[[[2.4168924,48.7697716],[2.4169033,48.7696667],[2.4181098,48.7700293],[2.4192736,48.7683595],[2.4206034,48.768759],[2.4206996,48.7719963],[2.4169197,48.7720316],[2.4168924,48.7697716]]]]},"properties":{"code_section":"94022000AK","code_commune":"94022","section_courte":"AK"}},{"type":"Feature","geometry":{"type":"MultiPolygon","coordinates":[[[[2.4168924,48.7697716],[2.4169197,48.7720316],[2.413986,48.7720553],[2.4135761,48.7711311],[2.4135416,48.7702105],[2.4136084,48.7692363],[2.4137699,48.7687505],[2.4169033,48.7696667],[2.4168924,48.7697716]]]]},"properties":{"code_section":"94022000AL","code_commune":"94022","section_courte":"AL"}},{"type":"Feature","geometry":{"type":"MultiPolygon","coordinates":[[[[2.4143796,48.766915],[2.4192736,48.7683595],[2.4181098,48.7700293],[2.4137699,48.7687505],[2.4143796,48.766915]]]]},"properties":{"code_section":"94022000AM","code_commune":"94022","section_courte":"AM"}},{"type":"Feature","geometry":{"type":"MultiPolygon","coordinates":[[[[2.4264053,48.7696126],[2.4259158,48.7703461],[2.4207179,48.7687934],[2.4219231,48.7670306],[2.4225252,48.7672107],[2.4225379,48.7671927],[2.4227897,48.7672671],[2.4228181,48.7672336],[2.4250736,48.7679099],[2.4250548,48.7679347],[2.4260841,48.7682435],[2.426131,48.7682213],[2.4271399,48.7685311],[2.4264053,48.7696126]]]]},"properties":{"code_section":"94022000AN","code_commune":"94022","section_courte":"AN"}},{"type":"Feature","geometry":{"type":"MultiPolygon","coordinates":[[[[2.416577,48.7666801],[2.4173368,48.765579],[2.419792,48.7663533],[2.4196836,48.766527],[2.421825,48.7671739],[2.4207179,48.7687934],[2.4160707,48.767414],[2.416577,48.7666801]]]]},"properties":{"code_section":"94022000AO","code_commune":"94022","section_courte":"AO"}},{"type":"Feature","geometry":{"type":"MultiPolygon","coordinates":[[[[2.4151568,48.7647075],[2.4158029,48.7651097],[2.4173368,48.765579],[2.4160707,48.767414],[2.4143796,48.766915],[2.4117386,48.7662142],[2.4129668,48.7644953],[2.4141734,48.7642062],[2.4151568,48.7647075]]]]},"properties":{"code_section":"94022000AP","code_commune":"94022","section_courte":"AP"}},{"type":"Feature","geometry":{"type":"MultiPolygon","coordinates":[[[[2.4165868,48.7628092],[2.4187626,48.7634619],[2.4173368,48.765579],[2.4158029,48.7651097],[2.4151354,48.7646956],[2.4141734,48.7642062],[2.4165868,48.7628092]]]]},"properties":{"code_section":"94022000AQ","code_commune":"94022","section_courte":"AQ"}},{"type":"Feature","geometry":{"type":"MultiPolygon","coordinates":[[[[2.4222352,48.764554],[2.4232944,48.7649876],[2.421825,48.7671739],[2.4196836,48.766527],[2.419792,48.7663533],[2.4173368,48.765579],[2.4187626,48.7634619],[2.4212639,48.764202],[2.4209981,48.7645934],[2.4220095,48.7648853],[2.4222352,48.764554]]]]},"properties":{"code_section":"94022000AR","code_commune":"94022","section_courte":"AR"}},{"type":"Feature","geometry":{"type":"MultiPolygon","coordinates":[[[[2.4275886,48.7659724],[2.4270951,48.7676455],[2.4266326,48.7683786],[2.4250548,48.7679347],[2.4250736,48.7679099],[2.4228181,48.7672336],[2.4227897,48.7672671],[2.4225379,48.7671927],[2.4225252,48.7672107],[2.4219231,48.7670306],[2.4235436,48.7646331],[2.4245087,48.7650245],[2.4245651,48.7649744],[2.4250881,48.765188],[2.4250761,48.7652522],[2.4256525,48.7654933],[2.4276141,48.7658803],[2.4275886,48.7659724]]]]},"properties":{"code_section":"94022000AS","code_commune":"94022","section_courte":"AS"}},{"type":"Feature","geometry":{"type":"MultiPolygon","coordinates":[[[[2.4240245,48.7648296],[2.4235436,48.7646331],[2.4238571,48.764165],[2.4249265,48.7630106],[2.427568,48.7640558],[2.4262521,48.7656121],[2.4256525,48.7654933],[2.4250761,48.7652522],[2.4250881,48.765188],[2.4245651,48.7649744],[2.4245087,48.7650245],[2.4240245,48.7648296]]]]},"properties":{"code_section":"94022000AT","code_commune":"94022","section_courte":"AT"}},{"type":"Feature","geometry":{"type":"MultiPolygon","coordinates":[[[[2.4187626,48.7634619],[2.4180804,48.7632571],[2.4205355,48.7612406],[2.4249265,48.7630106],[2.4238571,48.764165],[2.4232944,48.7649876],[2.4222352,48.764554],[2.4220095,48.7648853],[2.4209981,48.7645934],[2.4212639,48.764202],[2.4187626,48.7634619]]]]},"properties":{"code_section":"94022000AU","code_commune":"94022","section_courte":"AU"}},{"type":"Feature","geometry":{"type":"MultiPolygon","coordinates":[[[[2.4216206,48.7572035],[2.4252258,48.7573917],[2.4180804,48.7632571],[2.4165868,48.7628092],[2.4168819,48.762007],[2.417552,48.7615448],[2.4179941,48.7610614],[2.4184603,48.7601334],[2.419932,48.7578612],[2.4202595,48.7571325],[2.4216206,48.7572035]]]]},"properties":{"code_section":"94022000AV","code_commune":"94022","section_courte":"AV"}},{"type":"Feature","geometry":{"type":"MultiPolygon","coordinates":[[[[2.4274841,48.7543615],[2.4272222,48.7547696],[2.4264485,48.7556517],[2.4260937,48.7561487],[2.4258573,48.756509],[2.4257412,48.7569857],[2.4252258,48.7573917],[2.4202595,48.7571325],[2.4204714,48.7565233],[2.4208933,48.7557696],[2.4215251,48.7548605],[2.4228857,48.7535029],[2.4235549,48.7529568],[2.4242616,48.7524908],[2.4246123,48.7527109],[2.4258339,48.7519046],[2.4274234,48.7509227],[2.4285711,48.7515392],[2.4284846,48.7518195],[2.4285965,48.7524855],[2.428541,48.7527194],[2.4283814,48.752964],[2.4282339,48.7531385],[2.4279173,48.7533941],[2.427789,48.7535615],[2.4274841,48.7543615]]]]},"properties":{"code_section":"94022000AX","code_commune":"94022","section_courte":"AX"}},{"type":"Feature","geometry":{"type":"MultiPolygon","coordinates":[[[[2.4259145,48.7571575],[2.4285775,48.7581307],[2.4277478,48.7593377],[2.4265777,48.7606081],[2.4333628,48.7631734],[2.4333307,48.7637757],[2.432485,48.7641724],[2.4320942,48.7643192],[2.431612,48.764438],[2.431584,48.7643917],[2.4307184,48.7646275],[2.4301307,48.7649652],[2.4300956,48.7649444],[2.429991,48.7649899],[2.4275863,48.7640173],[2.427568,48.7640558],[2.4205355,48.7612406],[2.4257412,48.7569857],[2.4256924,48.7570737],[2.4259145,48.7571575]]]]},"properties":{"code_section":"94022000AY","code_commune":"94022","section_courte":"AY"}},{"type":"Feature","geometry":{"type":"MultiPolygon","coordinates":[[[[2.431612,48.764438],[2.4319367,48.7649251],[2.4333523,48.7655305],[2.4333224,48.7668184],[2.4324533,48.7667371],[2.4320425,48.7667373],[2.4315981,48.76699],[2.4314382,48.7671888],[2.4313451,48.76739],[2.4317932,48.7675018],[2.4309047,48.7692781],[2.4308106,48.7699662],[2.4308436,48.7699747],[2.4305375,48.7706833],[2.4323183,48.7710346],[2.4323151,48.7722571],[2.4259158,48.7703461],[2.4271399,48.7685311],[2.4266326,48.7683786],[2.4270951,48.7676455],[2.4276141,48.7658803],[2.4262521,48.7656121],[2.4275338,48.764127],[2.4275863,48.7640173],[2.429991,48.7649899],[2.4300956,48.7649444],[2.4301307,48.7649652],[2.4307184,48.7646275],[2.431584,48.7643917],[2.431612,48.764438]]]]},"properties":{"code_section":"94022000AZ","code_commune":"94022","section_courte":"AZ"}},{"type":"Feature","geometry":{"type":"MultiPolygon","coordinates":[[[[2.4332292,48.7654761],[2.4319367,48.7649251],[2.431612,48.764438],[2.4320942,48.7643192],[2.432485,48.7641724],[2.4333307,48.7637757],[2.4333628,48.7631734],[2.4340793,48.7634416],[2.4356904,48.7628014],[2.4368673,48.7623754],[2.4414,48.7612277],[2.4423787,48.7616325],[2.4422437,48.7621443],[2.4401883,48.7627329],[2.4399443,48.7628301],[2.4384927,48.7636006],[2.4398051,48.7646303],[2.4390745,48.7650882],[2.4382175,48.7657163],[2.4380461,48.7656418],[2.4376091,48.7659806],[2.4370242,48.7662987],[2.4365067,48.7663905],[2.4360664,48.7665666],[2.435467,48.767233],[2.4345098,48.7669337],[2.4333224,48.7668184],[2.4333523,48.7655305],[2.4332292,48.7654761]]]]},"properties":{"code_section":"94022000BC","code_commune":"94022","section_courte":"BC"}}]}