{"type":"FeatureCollection","features":[{"type":"Feature","geometry":{"type":"MultiPolygon","coordinates":[[[[2.3461098,48.7894346],[2.346237,48.7896114],[2.3450361,48.7902466],[2.343573,48.7911068],[2.3430355,48.7884307],[2.3423138,48.7871029],[2.342196,48.7867447],[2.3448623,48.7863641],[2.3454221,48.7879373],[2.3461098,48.7894346]]]]},"properties":{"code_section":"940380000A","code_commune":"94038","section_courte":"A"}},{"type":"Feature","geometry":{"type":"MultiPolygon","coordinates":[[[[2.3418927,48.7833666],[2.3423289,48.7832628],[2.3427576,48.7841044],[2.3435576,48.7839209],[2.3443117,48.7855198],[2.3446446,48.7854686],[2.3449516,48.786353],[2.342196,48.7867447],[2.3420149,48.7861917],[2.3412567,48.7844976],[2.3407634,48.783634],[2.3414709,48.7834665],[2.3414657,48.7832952],[2.341552,48.7832762],[2.3416332,48.7834278],[2.3418927,48.7833666]]]]},"properties":{"code_section":"940380000B","code_commune":"94038","section_courte":"B"}},{"type":"Feature","geometry":{"type":"MultiPolygon","coordinates":[[[[2.3419269,48.7833583],[2.3416332,48.7834278],[2.341552,48.7832762],[2.3414657,48.7832952],[2.3414709,48.7834665],[2.3407634,48.783634],[2.3409279,48.7839236],[2.339495,48.7842583],[2.338899,48.7833455],[2.3386965,48.7829592],[2.3382615,48.7820582],[2.3381271,48.7815923],[2.3380278,48.7813945],[2.3394575,48.7811575],[2.3391028,48.7800305],[2.3410881,48.7808307],[2.3412103,48.780845],[2.3412459,48.7811403],[2.3423289,48.7832628],[2.3419269,48.7833583]]]]},"properties":{"code_section":"940380000C","code_commune":"94038","section_courte":"C"}},{"type":"Feature","geometry":{"type":"MultiPolygon","coordinates":[[[[2.3415986,48.7799083],[2.3417732,48.7802301],[2.3431144,48.7799049],[2.3422207,48.7782874],[2.3457106,48.7781701],[2.3457014,48.7781178],[2.3458304,48.7781139],[2.3458225,48.7780921],[2.3463616,48.7780931],[2.3467148,48.7809333],[2.347024,48.7812295],[2.3476778,48.7817288],[2.3477008,48.7821633],[2.3473917,48.7822135],[2.3481857,48.7839828],[2.3475809,48.7840451],[2.347816,48.784992],[2.3443117,48.7855198],[2.3435576,48.7839209],[2.3427576,48.7841044],[2.3412459,48.7811403],[2.3410096,48.7799296],[2.3415684,48.7798503],[2.3415986,48.7799083]]]]},"properties":{"code_section":"940380000D","code_commune":"94038","section_courte":"D"}},{"type":"Feature","geometry":{"type":"MultiPolygon","coordinates":[[[[2.3423831,48.7776028],[2.3420319,48.7782452],[2.3421875,48.7782305],[2.3431144,48.7799049],[2.3417732,48.7802301],[2.3415684,48.7798503],[2.3410096,48.7799296],[2.3406569,48.778395],[2.3393504,48.7785651],[2.3389864,48.7763586],[2.3400338,48.7763675],[2.3405763,48.7763309],[2.3427866,48.77598],[2.3433214,48.7758633],[2.3423831,48.7776028]]]]},"properties":{"code_section":"940380000E","code_commune":"94038","section_courte":"E"}},{"type":"Feature","geometry":{"type":"MultiPolygon","coordinates":[[[[2.3530603,48.78074],[2.3526541,48.7809613],[2.3505794,48.7809646],[2.3496635,48.781827],[2.3477008,48.7821633],[2.3476778,48.7817288],[2.347024,48.7812295],[2.3467148,48.7809333],[2.3463616,48.7780931],[2.3458225,48.7780921],[2.3458304,48.7781139],[2.3457014,48.7781178],[2.3457106,48.7781701],[2.3422207,48.7782874],[2.3421875,48.7782305],[2.3420319,48.7782452],[2.3433214,48.7758633],[2.34534,48.7753475],[2.3473592,48.7750818],[2.3478105,48.7749312],[2.3510948,48.7778308],[2.3507753,48.7782598],[2.3509998,48.7783598],[2.3507469,48.7786448],[2.3535109,48.7798965],[2.3530435,48.7802903],[2.3535059,48.7805022],[2.3530603,48.78074]]]]},"properties":{"code_section":"940380000F","code_commune":"94038","section_courte":"F"}},{"type":"Feature","geometry":{"type":"MultiPolygon","coordinates":[[[[2.3542155,48.7793214],[2.3535109,48.7798965],[2.3507469,48.7786448],[2.3509998,48.7783598],[2.3507753,48.7782598],[2.3510948,48.7778308],[2.3512265,48.777948],[2.3513475,48.7779752],[2.3515622,48.7776744],[2.3514035,48.7776323],[2.3511078,48.7774414],[2.3535937,48.7760606],[2.3544835,48.7771297],[2.354754,48.7776176],[2.3548578,48.7787447],[2.3547621,48.7788745],[2.3542155,48.7793214]]]]},"properties":{"code_section":"940380000G","code_commune":"94038","section_courte":"G"}},{"type":"Feature","geometry":{"type":"MultiPolygon","coordinates":[[[[2.3490003,48.7759844],[2.3478105,48.7749312],[2.3484202,48.7747118],[2.3518256,48.773943],[2.3535937,48.7760606],[2.3511078,48.7774414],[2.3514035,48.7776323],[2.3515622,48.7776744],[2.3513428,48.7779753],[2.3512265,48.777948],[2.3490003,48.7759844]]]]},"properties":{"code_section":"940380000H","code_commune":"94038","section_courte":"H"}},{"type":"Feature","geometry":{"type":"MultiPolygon","coordinates":[[[[2.3556064,48.7763566],[2.3536888,48.7754771],[2.3533799,48.7758051],[2.3518256,48.773943],[2.3530722,48.7733184],[2.3536216,48.7730944],[2.3535687,48.7732235],[2.3536603,48.7734358],[2.3542511,48.774017],[2.3546864,48.7745913],[2.3555,48.77504],[2.3566591,48.7755295],[2.3562574,48.7766551],[2.3556064,48.7763566]]]]},"properties":{"code_section":"940380000I","code_commune":"94038","section_courte":"I"}},{"type":"Feature","geometry":{"type":"MultiPolygon","coordinates":[[[[2.3572618,48.7768526],[2.3566958,48.7784666],[2.3580762,48.7786876],[2.3578652,48.779208],[2.3548578,48.7787447],[2.354754,48.7776176],[2.3544835,48.7771297],[2.3533799,48.7758051],[2.3536888,48.7754771],[2.3562574,48.7766551],[2.3566591,48.7755295],[2.3575916,48.7759103],[2.3572618,48.7768526]]]]},"properties":{"code_section":"940380000J","code_commune":"94038","section_courte":"J"}},{"type":"Feature","geometry":{"type":"MultiPolygon","coordinates":[[[[2.3601466,48.7792492],[2.3592247,48.7790592],[2.3592653,48.7789669],[2.3580762,48.7786876],[2.3566958,48.7784666],[2.3575916,48.7759103],[2.3600762,48.7769395],[2.3621413,48.7775795],[2.3617047,48.7784016],[2.3617338,48.7784072],[2.3616903,48.7785333],[2.3618673,48.7785577],[2.3617836,48.7788134],[2.3615083,48.778772],[2.3613964,48.7789832],[2.3611837,48.7789516],[2.3609383,48.7794122],[2.3601466,48.7792492]]]]},"properties":{"code_section":"940380000K","code_commune":"94038","section_courte":"K"}},{"type":"Feature","geometry":{"type":"MultiPolygon","coordinates":[[[[2.362516,48.7798082],[2.3609383,48.7794122],[2.3611837,48.7789516],[2.3613964,48.7789832],[2.3615083,48.778772],[2.3617836,48.7788134],[2.3618673,48.7785577],[2.3616903,48.7785333],[2.3617338,48.7784072],[2.3617047,48.7784016],[2.3621413,48.7775795],[2.3628875,48.7778314],[2.3669568,48.779341],[2.3671704,48.7794167],[2.3673447,48.7794395],[2.3672608,48.7808562],[2.3666837,48.7807778],[2.3649359,48.780444],[2.362516,48.7798082]]]]},"properties":{"code_section":"940380000L","code_commune":"94038","section_courte":"L"}},{"type":"Feature","geometry":{"type":"MultiPolygon","coordinates":[[[[2.3391482,48.7743387],[2.3434397,48.7734745],[2.3427311,48.7722159],[2.3436426,48.7720525],[2.3498831,48.7710843],[2.3512015,48.773118],[2.3518256,48.773943],[2.3484202,48.7747118],[2.3473592,48.7750818],[2.34534,48.7753475],[2.3427866,48.77598],[2.3405763,48.7763309],[2.3400338,48.7763675],[2.3397271,48.7747626],[2.3388644,48.7743892],[2.3391482,48.7743387]]]]},"properties":{"code_section":"940380000M","code_commune":"94038","section_courte":"M"}},{"type":"Feature","geometry":{"type":"MultiPolygon","coordinates":[[[[2.337748,48.7734048],[2.3378538,48.7733929],[2.3381428,48.7740424],[2.3382041,48.7741091],[2.3397271,48.7747626],[2.3400338,48.7763675],[2.3390835,48.7763644],[2.3386448,48.7762882],[2.3376798,48.7764712],[2.3374672,48.7761124],[2.3343737,48.7771015],[2.3349494,48.777573],[2.3349914,48.7776837],[2.3349341,48.7776959],[2.3349993,48.7778673],[2.3344703,48.7780589],[2.3342686,48.7779565],[2.3340612,48.7779051],[2.3336569,48.7777312],[2.3324464,48.7770254],[2.3318137,48.7766051],[2.3303949,48.7761164],[2.3304274,48.775718],[2.3299682,48.7748095],[2.3300042,48.7746857],[2.3301509,48.7745789],[2.3314432,48.7742685],[2.3326885,48.7741471],[2.3333853,48.7739638],[2.3342164,48.7736816],[2.3358607,48.7735252],[2.3361752,48.7735248],[2.3371956,48.7732901],[2.3372904,48.7734989],[2.337748,48.7734048]]]]},"properties":{"code_section":"940380000N","code_commune":"94038","section_courte":"N"}},{"type":"Feature","geometry":{"type":"MultiPolygon","coordinates":[[[[2.3349914,48.7776837],[2.3349494,48.777573],[2.3343737,48.7771015],[2.3374672,48.7761124],[2.3376798,48.7764712],[2.3386448,48.7762882],[2.3389864,48.7763586],[2.3393504,48.7785651],[2.3386806,48.7787689],[2.3382236,48.7787995],[2.3372362,48.7789789],[2.3365532,48.7790652],[2.336185,48.7790249],[2.3355223,48.7788894],[2.3350866,48.7783869],[2.3344703,48.7780589],[2.3349993,48.7778673],[2.3349341,48.7776959],[2.3349914,48.7776837]]]]},"properties":{"code_section":"940380000O","code_commune":"94038","section_courte":"O"}},{"type":"Feature","geometry":{"type":"MultiPolygon","coordinates":[[[[2.338224,48.781366],[2.3373899,48.7814929],[2.3370879,48.780485],[2.3368082,48.7799823],[2.3358979,48.7799865],[2.3351816,48.7800583],[2.3351601,48.7798299],[2.3355223,48.7788894],[2.3363696,48.7790609],[2.3365532,48.7790652],[2.3372362,48.7789789],[2.3382236,48.7787995],[2.3386806,48.7787689],[2.3394106,48.7785523],[2.3406569,48.778395],[2.3412103,48.780845],[2.3410881,48.7808307],[2.3391028,48.7800305],[2.3394575,48.7811575],[2.338224,48.781366]]]]},"properties":{"code_section":"940380000P","code_commune":"94038","section_courte":"P"}},{"type":"Feature","geometry":{"type":"MultiPolygon","coordinates":[[[[2.335738,48.7833042],[2.3352999,48.7834336],[2.3350765,48.7829667],[2.3345494,48.7811297],[2.3348617,48.780912],[2.3351229,48.7806218],[2.3352266,48.78033],[2.3351816,48.7800583],[2.3358979,48.7799865],[2.3368082,48.7799823],[2.3370879,48.780485],[2.3373899,48.7814929],[2.3380278,48.7813945],[2.3381271,48.7815923],[2.3382615,48.7820582],[2.3385695,48.782705],[2.3378913,48.7828521],[2.337837,48.7827456],[2.335738,48.7833042]]]]},"properties":{"code_section":"940380000Q","code_commune":"94038","section_courte":"Q"}},{"type":"Feature","geometry":{"type":"MultiPolygon","coordinates":[[[[2.3343456,48.7843682],[2.3318201,48.7843755],[2.3314038,48.7839383],[2.3313071,48.7837917],[2.3308969,48.7825426],[2.3311374,48.7821743],[2.3314042,48.7819204],[2.3315477,48.7818387],[2.33337,48.7814002],[2.3334415,48.7809859],[2.3335083,48.780842],[2.3335926,48.7807817],[2.3350448,48.7807124],[2.3348617,48.780912],[2.3345494,48.7811297],[2.3351592,48.7831727],[2.3352999,48.7834336],[2.3354454,48.7833925],[2.3356857,48.7836921],[2.3357783,48.7837335],[2.3358498,48.7838297],[2.3351339,48.7839971],[2.3351613,48.7840452],[2.3344023,48.7842481],[2.3343768,48.7843683],[2.3343456,48.7843682]]]]},"properties":{"code_section":"940380000R","code_commune":"94038","section_courte":"R"}},{"type":"Feature","geometry":{"type":"MultiPolygon","coordinates":[[[[2.3312414,48.7814823],[2.3313865,48.7815275],[2.3315477,48.7818387],[2.3314042,48.7819204],[2.3311374,48.7821743],[2.3308969,48.7825426],[2.3313071,48.7837917],[2.3314038,48.7839383],[2.3318201,48.7843755],[2.3293607,48.7845088],[2.3292778,48.7843894],[2.328382,48.7844334],[2.3278579,48.7828905],[2.3276592,48.7821087],[2.3308194,48.7814597],[2.330887,48.7813708],[2.3312414,48.7814823]]]]},"properties":{"code_section":"940380000S","code_commune":"94038","section_courte":"S"}},{"type":"Feature","geometry":{"type":"MultiPolygon","coordinates":[[[[2.3264384,48.7812244],[2.3258334,48.7819416],[2.3248451,48.7799368],[2.3280455,48.7794116],[2.3276434,48.7820559],[2.3267146,48.7820396],[2.3264384,48.7812244]]]]},"properties":{"code_section":"940380000T","code_commune":"94038","section_courte":"T"}},{"type":"Feature","geometry":{"type":"MultiPolygon","coordinates":[[[[2.3314236,48.7806842],[2.3308194,48.7814597],[2.3276592,48.7821087],[2.3280455,48.7794116],[2.3295408,48.7791582],[2.3311281,48.7791473],[2.3314236,48.7806842]]]]},"properties":{"code_section":"940380000U","code_commune":"94038","section_courte":"U"}},{"type":"Feature","geometry":{"type":"MultiPolygon","coordinates":[[[[2.3312414,48.7814823],[2.330887,48.7813708],[2.3314236,48.7806842],[2.3311281,48.7791473],[2.3318239,48.7791464],[2.3326308,48.7790306],[2.3327777,48.7787874],[2.3329148,48.7782006],[2.3336569,48.7777312],[2.3340612,48.7779051],[2.3342686,48.7779565],[2.3350866,48.7783869],[2.3355223,48.7788894],[2.3351601,48.7798299],[2.3352266,48.78033],[2.3351229,48.7806218],[2.3350448,48.7807124],[2.3335926,48.7807817],[2.3335083,48.780842],[2.3334415,48.7809859],[2.33337,48.7814002],[2.3315477,48.7818387],[2.3313865,48.7815275],[2.3312414,48.7814823]]]]},"properties":{"code_section":"940380000V","code_commune":"94038","section_courte":"V"}},{"type":"Feature","geometry":{"type":"MultiPolygon","coordinates":[[[[2.3277534,48.7773743],[2.3279085,48.7773213],[2.3283108,48.7778101],[2.3296071,48.7773556],[2.3305552,48.7769747],[2.3303289,48.7767251],[2.3303226,48.7764485],[2.3303949,48.7761164],[2.3318137,48.7766051],[2.3324464,48.7770254],[2.3336569,48.7777312],[2.3329148,48.7782006],[2.3327777,48.7787874],[2.3326308,48.7790306],[2.3318239,48.7791464],[2.3295408,48.7791582],[2.3280455,48.7794116],[2.3281288,48.7789813],[2.3277643,48.7780765],[2.3273197,48.7775221],[2.3277534,48.7773743]]]]},"properties":{"code_section":"940380000X","code_commune":"94038","section_courte":"X"}},{"type":"Feature","geometry":{"type":"MultiPolygon","coordinates":[[[[2.3277534,48.7773743],[2.3273197,48.7775221],[2.3264299,48.776387],[2.3263068,48.7761222],[2.3263948,48.77547],[2.326375,48.7753814],[2.3282692,48.7753408],[2.3287267,48.775502],[2.3300052,48.7748749],[2.3304274,48.775718],[2.3304357,48.7758609],[2.3303226,48.7764485],[2.3303289,48.7767251],[2.3305552,48.7769747],[2.3296071,48.7773556],[2.3283108,48.7778101],[2.3279085,48.7773213],[2.3277534,48.7773743]]]]},"properties":{"code_section":"940380000Y","code_commune":"94038","section_courte":"Y"}},{"type":"Feature","geometry":{"type":"MultiPolygon","coordinates":[[[[2.325708,48.7770416],[2.3250509,48.7772723],[2.324238,48.7763566],[2.326375,48.7753814],[2.3263948,48.77547],[2.3263068,48.7761222],[2.3263353,48.7762233],[2.3264299,48.776387],[2.3277643,48.7780765],[2.3281288,48.7789813],[2.3280455,48.7794116],[2.3250257,48.779908],[2.3245787,48.7790733],[2.3266172,48.7787313],[2.325708,48.7770416]]]]},"properties":{"code_section":"940380000Z","code_commune":"94038","section_courte":"Z"}},{"type":"Feature","geometry":{"type":"MultiPolygon","coordinates":[[[[2.3218137,48.7737641],[2.3217813,48.7737125],[2.3225914,48.7734904],[2.323101,48.7734817],[2.3233369,48.7738294],[2.3242684,48.7736175],[2.324397,48.7737357],[2.3256245,48.7745084],[2.3262001,48.7751118],[2.326375,48.7753814],[2.3237392,48.7765867],[2.3230327,48.7754865],[2.3223478,48.7746322],[2.3218137,48.7737641]]]]},"properties":{"code_section":"94038000AB","code_commune":"94038","section_courte":"AB"}},{"type":"Feature","geometry":{"type":"MultiPolygon","coordinates":[[[[2.3215569,48.7664716],[2.3216284,48.7668092],[2.3216135,48.7671032],[2.3219766,48.7680946],[2.3219251,48.7681056],[2.3219093,48.7680637],[2.3213914,48.7682739],[2.3214198,48.7683092],[2.3208711,48.7685291],[2.3208371,48.7684941],[2.3207,48.7685517],[2.3216908,48.7694782],[2.3223172,48.7701631],[2.3231179,48.7713607],[2.3239937,48.7732788],[2.3242684,48.7736175],[2.3233369,48.7738294],[2.323101,48.7734817],[2.3225914,48.7734904],[2.3217813,48.7737125],[2.3212487,48.7727337],[2.3206822,48.7719139],[2.3205553,48.7714417],[2.320101,48.7709349],[2.3195935,48.7704465],[2.3192297,48.7700002],[2.3186615,48.7695096],[2.3183489,48.7691394],[2.3178813,48.7686745],[2.3176957,48.768553],[2.3172297,48.7683457],[2.316728,48.7675543],[2.3158755,48.7667668],[2.3167589,48.7665924],[2.3175502,48.7660924],[2.3176866,48.7661684],[2.3177202,48.7662228],[2.317647,48.7663665],[2.3185477,48.7665099],[2.3185199,48.7666304],[2.3208073,48.7664467],[2.3207915,48.7663863],[2.321521,48.7663267],[2.3215284,48.7662462],[2.3215569,48.7664716]]]]},"properties":{"code_section":"94038000AC","code_commune":"94038","section_courte":"AC"}},{"type":"Feature","geometry":{"type":"MultiPolygon","coordinates":[[[[2.3225413,48.7700932],[2.3223172,48.7701631],[2.3216908,48.7694782],[2.3207,48.7685517],[2.3208371,48.7684941],[2.3208711,48.7685291],[2.3214198,48.7683092],[2.3213914,48.7682739],[2.3219093,48.7680637],[2.3219251,48.7681056],[2.3219766,48.7680946],[2.3216135,48.7671032],[2.3216284,48.7668092],[2.3215691,48.7665505],[2.3231815,48.7662473],[2.3232685,48.7662932],[2.3233239,48.7666707],[2.3233544,48.7666667],[2.3234436,48.7669471],[2.3242568,48.7686994],[2.3243742,48.7686689],[2.3247418,48.7693666],[2.323967,48.769593],[2.3240624,48.7696632],[2.3231671,48.769924],[2.3231427,48.7698973],[2.3225413,48.7700932]]]]},"properties":{"code_section":"94038000AD","code_commune":"94038","section_courte":"AD"}},{"type":"Feature","geometry":{"type":"MultiPolygon","coordinates":[[[[2.326045,48.7725854],[2.3257816,48.7726912],[2.3257117,48.7727599],[2.3239937,48.7732788],[2.3231179,48.7713607],[2.3223172,48.7701631],[2.3231427,48.7698973],[2.3231671,48.769924],[2.3240624,48.7696632],[2.323967,48.769593],[2.3247395,48.7693728],[2.3247361,48.7693399],[2.3248824,48.7695255],[2.3258933,48.7711808],[2.3265832,48.7718284],[2.3269051,48.7722389],[2.326045,48.7725854]]]]},"properties":{"code_section":"94038000AE","code_commune":"94038","section_courte":"AE"}},{"type":"Feature","geometry":{"type":"MultiPolygon","coordinates":[[[[2.326045,48.7725854],[2.3269051,48.7722389],[2.3275397,48.7730489],[2.3292005,48.7740962],[2.3294105,48.7744125],[2.3297807,48.7747983],[2.3300052,48.7748749],[2.3287267,48.775502],[2.3282692,48.7753408],[2.326375,48.7753814],[2.3262001,48.7751118],[2.3256245,48.7745084],[2.324397,48.7737357],[2.3239937,48.7732788],[2.3257117,48.7727599],[2.3257816,48.7726912],[2.326045,48.7725854]]]]},"properties":{"code_section":"94038000AF","code_commune":"94038","section_courte":"AF"}},{"type":"Feature","geometry":{"type":"MultiPolygon","coordinates":[[[[2.3298908,48.7725374],[2.3303264,48.7731613],[2.3314432,48.7742685],[2.3301509,48.7745789],[2.3300042,48.7746857],[2.3299682,48.7748095],[2.3300052,48.7748749],[2.3297807,48.7747983],[2.3294105,48.7744125],[2.3292005,48.7740962],[2.3275397,48.7730489],[2.3265832,48.7718284],[2.328854,48.7710602],[2.3289831,48.7714062],[2.3298908,48.7725374]]]]},"properties":{"code_section":"94038000AG","code_commune":"94038","section_courte":"AG"}},{"type":"Feature","geometry":{"type":"MultiPolygon","coordinates":[[[[2.3253918,48.7691379],[2.3259703,48.7689589],[2.3258324,48.7686833],[2.3267896,48.7684623],[2.3268605,48.7684854],[2.3284771,48.7681706],[2.3286809,48.7686903],[2.3292459,48.7697984],[2.328854,48.7710602],[2.3265832,48.7718284],[2.3258933,48.7711808],[2.3248824,48.7695255],[2.3247361,48.7693399],[2.3253918,48.7691379]]]]},"properties":{"code_section":"94038000AH","code_commune":"94038","section_courte":"AH"}},{"type":"Feature","geometry":{"type":"MultiPolygon","coordinates":[[[[2.3246909,48.7665073],[2.3268506,48.7659136],[2.3277887,48.7657928],[2.3281291,48.7671543],[2.3284771,48.7681706],[2.3268605,48.7684854],[2.3267896,48.7684623],[2.3258324,48.7686833],[2.3259703,48.7689589],[2.3247361,48.7693399],[2.3243742,48.7686689],[2.3242568,48.7686994],[2.3234436,48.7669471],[2.3233544,48.7666667],[2.3246909,48.7665073]]]]},"properties":{"code_section":"94038000AI","code_commune":"94038","section_courte":"AI"}},{"type":"Feature","geometry":{"type":"MultiPolygon","coordinates":[[[[2.3318254,48.7691879],[2.3291759,48.7696321],[2.3286809,48.7686903],[2.3284771,48.7681706],[2.3281291,48.7671543],[2.3277731,48.7657363],[2.3298163,48.7652134],[2.3300285,48.7654897],[2.3307825,48.766883],[2.3312922,48.7673785],[2.3314116,48.7676255],[2.3316064,48.7678676],[2.3321573,48.7677415],[2.3323882,48.768188],[2.3327536,48.7690007],[2.3323457,48.769083],[2.3323699,48.7691397],[2.3319615,48.7692179],[2.3319439,48.7691642],[2.3318254,48.7691879]]]]},"properties":{"code_section":"94038000AJ","code_commune":"94038","section_courte":"AJ"}},{"type":"Feature","geometry":{"type":"MultiPolygon","coordinates":[[[[2.3319617,48.7718579],[2.3314914,48.7720285],[2.3307411,48.772243],[2.3307809,48.7723206],[2.3299294,48.7725853],[2.3289831,48.7714062],[2.328854,48.7710602],[2.3292459,48.7697984],[2.3291759,48.7696321],[2.3319439,48.7691642],[2.3319615,48.7692179],[2.3320304,48.7692063],[2.3323699,48.7691397],[2.3323457,48.769083],[2.3327536,48.7690007],[2.333265,48.769964],[2.3341371,48.7712689],[2.3332204,48.7715383],[2.3331815,48.7714817],[2.3319617,48.7718579]]]]},"properties":{"code_section":"94038000AK","code_commune":"94038","section_courte":"AK"}},{"type":"Feature","geometry":{"type":"MultiPolygon","coordinates":[[[[2.3319617,48.7718579],[2.3331815,48.7714817],[2.3332204,48.7715383],[2.3341371,48.7712689],[2.3354837,48.772985],[2.3358607,48.7735252],[2.3342164,48.7736816],[2.3333853,48.7739638],[2.3326885,48.7741471],[2.3314432,48.7742685],[2.3303264,48.7731613],[2.3299294,48.7725853],[2.3307809,48.7723206],[2.3307411,48.772243],[2.3314914,48.7720285],[2.3319617,48.7718579]]]]},"properties":{"code_section":"94038000AL","code_commune":"94038","section_courte":"AL"}},{"type":"Feature","geometry":{"type":"MultiPolygon","coordinates":[[[[2.3346258,48.7705755],[2.3345665,48.7704933],[2.3337673,48.7707532],[2.3329515,48.7694026],[2.3321573,48.7677415],[2.3343397,48.7672403],[2.3353684,48.7693889],[2.3358946,48.7702358],[2.3346743,48.7706427],[2.3346258,48.7705755]]]]},"properties":{"code_section":"94038000AM","code_commune":"94038","section_courte":"AM"}},{"type":"Feature","geometry":{"type":"MultiPolygon","coordinates":[[[[2.3334106,48.7674366],[2.3316064,48.7678676],[2.3314116,48.7676255],[2.3312922,48.7673785],[2.3307825,48.766883],[2.3300285,48.7654897],[2.3298163,48.7652134],[2.3299476,48.7652434],[2.3325595,48.7645757],[2.3327304,48.7646221],[2.3328481,48.7647793],[2.3329823,48.7648813],[2.3336231,48.7657435],[2.3343397,48.7672403],[2.3334106,48.7674366]]]]},"properties":{"code_section":"94038000AN","code_commune":"94038","section_courte":"AN"}},{"type":"Feature","geometry":{"type":"MultiPolygon","coordinates":[[[[2.3225396,48.7644611],[2.3238489,48.7644074],[2.3233294,48.7660374],[2.3232701,48.7664117],[2.3232581,48.7662786],[2.3231446,48.7662493],[2.3215691,48.7665505],[2.3215284,48.7662462],[2.3218548,48.7662139],[2.3218802,48.7644896],[2.3225396,48.7644611]]]]},"properties":{"code_section":"94038000AO","code_commune":"94038","section_courte":"AO"}}]}