{"type":"FeatureCollection","features":[{"type":"Feature","geometry":{"type":"MultiPolygon","coordinates":[[[[2.4928493,48.7355584],[2.4928983,48.7353405],[2.4933024,48.7346366],[2.4933992,48.7346294],[2.4935249,48.7344156],[2.493568,48.7344003],[2.4943444,48.732978],[2.4946661,48.7324888],[2.4969869,48.7332668],[2.4972242,48.7333379],[2.4972497,48.7332962],[2.4974305,48.7333512],[2.5040092,48.7354898],[2.5041051,48.7352818],[2.5061821,48.735848],[2.5076559,48.7350413],[2.5073212,48.7330435],[2.5091715,48.7336085],[2.5096286,48.7347521],[2.5099137,48.7348122],[2.508605,48.7361054],[2.5085417,48.7362444],[2.5086145,48.7369518],[2.5115809,48.7377323],[2.5116004,48.7377813],[2.5121738,48.7379315],[2.5149527,48.7388309],[2.5161947,48.7382536],[2.5169006,48.7385825],[2.5116573,48.7448006],[2.5117766,48.745148],[2.5118903,48.7451334],[2.5119196,48.7452269],[2.5104571,48.7471059],[2.5085187,48.7456573],[2.507742,48.7452413],[2.5045173,48.7438322],[2.5035738,48.7434825],[2.5023827,48.7432131],[2.5000301,48.7428474],[2.4966994,48.7423785],[2.4959351,48.7423762],[2.4936647,48.7426882],[2.4933056,48.7427056],[2.4929724,48.7426994],[2.4923923,48.7426018],[2.4913178,48.7423249],[2.4921252,48.7414321],[2.4924689,48.7397799],[2.4925527,48.739702],[2.4928512,48.7395624],[2.492888,48.7377042],[2.4927338,48.7376375],[2.4927295,48.737596],[2.4927348,48.7375067],[2.4928713,48.7374053],[2.4928785,48.7373213],[2.4928262,48.7372919],[2.4927386,48.7372971],[2.4929068,48.7368209],[2.4929739,48.7362065],[2.4928493,48.7355584]]]]},"properties":{"code_section":"940440000C","code_commune":"94044","section_courte":"C"}},{"type":"Feature","geometry":{"type":"MultiPolygon","coordinates":[[[[2.4928493,48.7355584],[2.4929739,48.7362065],[2.4929068,48.7368209],[2.4927386,48.7372971],[2.4928262,48.7372919],[2.4928785,48.7373213],[2.4928713,48.7374053],[2.4927348,48.7375067],[2.4927295,48.737596],[2.4927338,48.7376375],[2.492888,48.7377042],[2.4928512,48.7395624],[2.4925527,48.739702],[2.4924689,48.7397799],[2.4921252,48.7414321],[2.4913178,48.7423249],[2.4906847,48.7421959],[2.4870239,48.7419339],[2.4865017,48.7419029],[2.4847265,48.7418962],[2.4840464,48.7418557],[2.4797775,48.7410675],[2.4795124,48.7410599],[2.4756783,48.7414757],[2.476032,48.740964],[2.4735697,48.739927],[2.4734609,48.7396923],[2.4746461,48.7389353],[2.4755512,48.738198],[2.4758798,48.7379004],[2.4768842,48.7367308],[2.4778481,48.7358],[2.4784229,48.7355237],[2.4792876,48.735285],[2.4794268,48.7352223],[2.4799569,48.7349113],[2.4806386,48.7344426],[2.4815245,48.7337147],[2.4822271,48.7329963],[2.4825334,48.7325077],[2.4829646,48.7316414],[2.4835046,48.730932],[2.4846539,48.7292194],[2.4908989,48.7312274],[2.4946661,48.7324888],[2.4943444,48.732978],[2.493568,48.7344003],[2.4935249,48.7344156],[2.4933992,48.7346294],[2.4933024,48.7346366],[2.4928983,48.7353405],[2.4928493,48.7355584]]]]},"properties":{"code_section":"940440000D","code_commune":"94044","section_courte":"D"}},{"type":"Feature","geometry":{"type":"MultiPolygon","coordinates":[[[[2.4725005,48.7626882],[2.4721163,48.7632162],[2.4682059,48.7623218],[2.4686045,48.7609411],[2.4688738,48.7595887],[2.4687556,48.7582864],[2.4686764,48.7562956],[2.4677814,48.7512422],[2.4721999,48.7524351],[2.4740584,48.75279],[2.4748178,48.7529608],[2.4752988,48.7531111],[2.4760137,48.7533741],[2.4775307,48.7541897],[2.4784587,48.7544365],[2.4799366,48.7549003],[2.4810026,48.755295],[2.4813923,48.7555493],[2.4817812,48.7557519],[2.4834452,48.7564312],[2.4794141,48.7604828],[2.4766017,48.7595315],[2.4761444,48.7599479],[2.4738174,48.7611005],[2.4739423,48.7611344],[2.4735274,48.7617263],[2.4725005,48.7626882]]]]},"properties":{"code_section":"94044000AB","code_commune":"94044","section_courte":"AB"}},{"type":"Feature","geometry":{"type":"MultiPolygon","coordinates":[[[[2.4744131,48.7490745],[2.4807808,48.7497253],[2.4811898,48.7498053],[2.4826654,48.7502769],[2.4828947,48.7503265],[2.4799366,48.7549003],[2.4784587,48.7544365],[2.4775307,48.7541897],[2.4760137,48.7533741],[2.4752988,48.7531111],[2.4748178,48.7529608],[2.4740584,48.75279],[2.4725423,48.7525161],[2.4731132,48.7502275],[2.4732776,48.7502456],[2.4732865,48.7497038],[2.4734152,48.7489829],[2.4744131,48.7490745]]]]},"properties":{"code_section":"94044000AC","code_commune":"94044","section_courte":"AC"}},{"type":"Feature","geometry":{"type":"MultiPolygon","coordinates":[[[[2.490336,48.7516476],[2.4852212,48.7572888],[2.4834658,48.7564398],[2.4817812,48.7557519],[2.4813923,48.7555493],[2.4810026,48.755295],[2.4799366,48.7549003],[2.4828947,48.7503265],[2.4834576,48.7505443],[2.4860373,48.7513809],[2.4876168,48.7518358],[2.4880325,48.7513728],[2.4891246,48.7514388],[2.4905419,48.7514213],[2.490336,48.7516476]]]]},"properties":{"code_section":"94044000AD","code_commune":"94044","section_courte":"AD"}},{"type":"Feature","geometry":{"type":"MultiPolygon","coordinates":[[[[2.4934212,48.7587426],[2.4929489,48.7592764],[2.492496,48.7591702],[2.4905419,48.7589661],[2.4891717,48.7585657],[2.4885906,48.7584268],[2.4860813,48.7576326],[2.4852212,48.7572888],[2.4889158,48.7532203],[2.4925945,48.7547481],[2.4926949,48.7546427],[2.4936415,48.7550272],[2.4959796,48.7558897],[2.4959984,48.7559579],[2.4949002,48.757066],[2.4934212,48.7587426]]]]},"properties":{"code_section":"94044000AE","code_commune":"94044","section_courte":"AE"}},{"type":"Feature","geometry":{"type":"MultiPolygon","coordinates":[[[[2.493503,48.754971],[2.4926949,48.7546427],[2.4925945,48.7547481],[2.4889158,48.7532203],[2.4905419,48.7514213],[2.5002335,48.7507806],[2.5007191,48.7507527],[2.5008975,48.7507727],[2.4992195,48.7526614],[2.4991584,48.7526712],[2.4990153,48.7526272],[2.4987093,48.7529392],[2.4959984,48.7559579],[2.4959796,48.7558897],[2.493503,48.754971]]]]},"properties":{"code_section":"94044000AH","code_commune":"94044","section_courte":"AH"}},{"type":"Feature","geometry":{"type":"MultiPolygon","coordinates":[[[[2.5013254,48.7497215],[2.5010696,48.750651],[2.5008975,48.7507727],[2.5007191,48.7507527],[2.5002335,48.7507806],[2.4905419,48.7514213],[2.4912957,48.7508142],[2.492293,48.7498259],[2.4938788,48.7477138],[2.4946735,48.74696],[2.4952225,48.746794],[2.4951812,48.7467359],[2.4988406,48.7479199],[2.50064,48.7485689],[2.5011618,48.7488291],[2.501125,48.7489149],[2.5015215,48.7489788],[2.5013254,48.7497215]]]]},"properties":{"code_section":"94044000AI","code_commune":"94044","section_courte":"AI"}},{"type":"Feature","geometry":{"type":"MultiPolygon","coordinates":[[[[2.5037754,48.7446836],[2.5031411,48.7454139],[2.5026568,48.7464662],[2.5016051,48.7462188],[2.5014578,48.7473189],[2.5014573,48.7478524],[2.5015358,48.747853],[2.5013984,48.748345],[2.5013674,48.7483392],[2.5011618,48.7488291],[2.50064,48.7485689],[2.4988406,48.7479199],[2.4949435,48.7466554],[2.496021,48.7457378],[2.4967587,48.7449439],[2.4972566,48.7446598],[2.4977829,48.7444458],[2.4983662,48.7445489],[2.4988323,48.7441104],[2.5000301,48.7428474],[2.5023827,48.7432131],[2.5035738,48.7434825],[2.5045173,48.7438322],[2.5037754,48.7446836]]]]},"properties":{"code_section":"94044000AK","code_commune":"94044","section_courte":"AK"}},{"type":"Feature","geometry":{"type":"MultiPolygon","coordinates":[[[[2.4892674,48.7449585],[2.4896488,48.7445326],[2.4902161,48.7436087],[2.4913178,48.7423249],[2.4923923,48.7426018],[2.4929724,48.7426994],[2.4936647,48.7426882],[2.4959351,48.7423762],[2.4963814,48.7423654],[2.4966994,48.7423785],[2.5000301,48.7428474],[2.4988323,48.7441104],[2.4983662,48.7445489],[2.4977829,48.7444458],[2.4972566,48.7446598],[2.4967587,48.7449439],[2.496021,48.7457378],[2.4949435,48.7466554],[2.4951812,48.7467359],[2.4952225,48.746794],[2.4946735,48.74696],[2.4938245,48.7477767],[2.49346,48.7477069],[2.4913952,48.7470473],[2.4887788,48.7466894],[2.4892867,48.7453793],[2.4891387,48.7452601],[2.4890916,48.7451191],[2.4892674,48.7449585]]]]},"properties":{"code_section":"94044000AL","code_commune":"94044","section_courte":"AL"}},{"type":"Feature","geometry":{"type":"MultiPolygon","coordinates":[[[[2.4855668,48.7469475],[2.4883596,48.7466114],[2.4913952,48.7470473],[2.49346,48.7477069],[2.4938245,48.7477767],[2.492293,48.7498259],[2.4912957,48.7508142],[2.4905419,48.7514213],[2.4891246,48.7514388],[2.4880325,48.7513728],[2.4876168,48.7518358],[2.4862486,48.751448],[2.4834576,48.7505443],[2.4828947,48.7503265],[2.4809638,48.7497582],[2.483041,48.7465278],[2.4855668,48.7469475]]]]},"properties":{"code_section":"94044000AM","code_commune":"94044","section_courte":"AM"}},{"type":"Feature","geometry":{"type":"MultiPolygon","coordinates":[[[[2.489295,48.7449275],[2.4890916,48.7451191],[2.4891387,48.7452601],[2.4892867,48.7453793],[2.4887788,48.7466894],[2.4883596,48.7466114],[2.4855668,48.7469475],[2.483041,48.7465278],[2.4811552,48.746271],[2.4816511,48.7450005],[2.4816985,48.7435187],[2.4827585,48.7435385],[2.482757,48.7436667],[2.4828858,48.7437449],[2.4830578,48.7437446],[2.483208,48.7436844],[2.4834315,48.7436971],[2.4834219,48.7437625],[2.485649,48.7440477],[2.4859913,48.7433805],[2.4855274,48.7429564],[2.4851633,48.7425493],[2.4847265,48.7418962],[2.4865017,48.7419029],[2.4870239,48.7419339],[2.4906847,48.7421959],[2.4913178,48.7423249],[2.4902161,48.7436087],[2.4896488,48.7445326],[2.489295,48.7449275]]]]},"properties":{"code_section":"94044000AN","code_commune":"94044","section_courte":"AN"}},{"type":"Feature","geometry":{"type":"MultiPolygon","coordinates":[[[[2.485704,48.7439389],[2.485649,48.7440477],[2.4834219,48.7437625],[2.4834315,48.7436971],[2.483208,48.7436844],[2.4830578,48.7437446],[2.4828858,48.7437449],[2.482757,48.7436667],[2.4827585,48.7435385],[2.4816985,48.7435187],[2.4816511,48.7450005],[2.4811552,48.746271],[2.4807406,48.7462465],[2.4805846,48.7462631],[2.479018,48.7460784],[2.4782151,48.7460331],[2.4779048,48.745918],[2.4775814,48.7457361],[2.4771439,48.7454166],[2.4764847,48.7450174],[2.4762048,48.7447231],[2.4757784,48.7445098],[2.4746891,48.7440951],[2.4738356,48.7439992],[2.4748123,48.7425743],[2.4756783,48.7414757],[2.4795124,48.7410599],[2.4797775,48.7410675],[2.4840464,48.7418557],[2.4847265,48.7418962],[2.4851633,48.7425493],[2.4855274,48.7429564],[2.4859913,48.7433805],[2.485704,48.7439389]]]]},"properties":{"code_section":"94044000AO","code_commune":"94044","section_courte":"AO"}},{"type":"Feature","geometry":{"type":"MultiPolygon","coordinates":[[[[2.4735705,48.7476373],[2.4734256,48.7469973],[2.4733416,48.7452626],[2.4734692,48.7445045],[2.4738535,48.7443695],[2.4738356,48.7439992],[2.4746891,48.7440951],[2.4757784,48.7445098],[2.4762048,48.7447231],[2.4764847,48.7450174],[2.4771439,48.7454166],[2.4775814,48.7457361],[2.4779048,48.745918],[2.4782151,48.7460331],[2.479018,48.7460784],[2.4805846,48.7462631],[2.4807406,48.7462465],[2.4811552,48.746271],[2.483041,48.7465278],[2.4809638,48.7497582],[2.4769379,48.7493446],[2.4769425,48.7493249],[2.4734152,48.7489829],[2.4735552,48.7488198],[2.4735972,48.7487071],[2.4736271,48.7483042],[2.4735705,48.7476373]]]]},"properties":{"code_section":"94044000AP","code_commune":"94044","section_courte":"AP"}}]}