{"type":"FeatureCollection","features":[{"type":"Feature","geometry":{"type":"MultiPolygon","coordinates":[[[[2.4187533,48.8167735],[2.4175416,48.8165209],[2.4158856,48.8162984],[2.4169975,48.8147808],[2.4203841,48.8153343],[2.4200991,48.8157304],[2.4197925,48.8162758],[2.4197696,48.8169114],[2.4192661,48.8168789],[2.4187533,48.8167735]]]]},"properties":{"code_section":"940460000A","code_commune":"94046","section_courte":"A"}},{"type":"Feature","geometry":{"type":"MultiPolygon","coordinates":[[[[2.4194806,48.8123385],[2.4203834,48.8125155],[2.4203525,48.8125631],[2.4219342,48.8128199],[2.4203841,48.8153343],[2.4169975,48.8147808],[2.4177204,48.8139436],[2.4184177,48.8132213],[2.4194002,48.812322],[2.4194806,48.8123385]]]]},"properties":{"code_section":"940460000B","code_commune":"94046","section_courte":"B"}},{"type":"Feature","geometry":{"type":"MultiPolygon","coordinates":[[[[2.4224613,48.8096969],[2.4230189,48.8099472],[2.4241267,48.8088985],[2.4244323,48.8088089],[2.4235728,48.8102849],[2.4265964,48.8109839],[2.4283511,48.8124396],[2.4265677,48.8134212],[2.4259604,48.8136975],[2.4253171,48.8139112],[2.4235923,48.8143877],[2.4207602,48.8152809],[2.4203841,48.8153343],[2.4219342,48.8128199],[2.4203525,48.8125631],[2.4203834,48.8125155],[2.4194002,48.812322],[2.4210299,48.8109633],[2.4223789,48.8096509],[2.4224613,48.8096969]]]]},"properties":{"code_section":"940460000C","code_commune":"94046","section_courte":"C"}},{"type":"Feature","geometry":{"type":"MultiPolygon","coordinates":[[[[2.4200565,48.8169022],[2.4197696,48.8169114],[2.4197925,48.8162758],[2.4200991,48.8157304],[2.4203841,48.8153343],[2.4207602,48.8152809],[2.4235923,48.8143877],[2.4236959,48.8145231],[2.423747,48.8145332],[2.4240733,48.8149614],[2.4241127,48.8151218],[2.424593,48.8157143],[2.4250348,48.8157219],[2.4250339,48.8158082],[2.4249893,48.8158127],[2.4250357,48.8158162],[2.4250358,48.8163607],[2.424534,48.8162838],[2.4241464,48.8162631],[2.4230104,48.8163508],[2.4219618,48.8165071],[2.4200565,48.8169022]]]]},"properties":{"code_section":"940460000D","code_commune":"94046","section_courte":"D"}},{"type":"Feature","geometry":{"type":"MultiPolygon","coordinates":[[[[2.424325,48.8153833],[2.4241127,48.8151218],[2.4240733,48.8149614],[2.423747,48.8145332],[2.4236959,48.8145231],[2.4235923,48.8143877],[2.4253171,48.8139112],[2.4259604,48.8136975],[2.4265677,48.8134212],[2.4274413,48.8129209],[2.4275199,48.813179],[2.4275515,48.8135519],[2.4276387,48.8155468],[2.4254492,48.8157292],[2.424593,48.8157143],[2.424325,48.8153833]]]]},"properties":{"code_section":"940460000E","code_commune":"94046","section_courte":"E"}},{"type":"Feature","geometry":{"type":"MultiPolygon","coordinates":[[[[2.4309068,48.8165988],[2.4301169,48.8163333],[2.4292202,48.816435],[2.4283898,48.8165661],[2.426521,48.8165142],[2.4252609,48.8163913],[2.4250358,48.8163607],[2.4250357,48.8158162],[2.4249893,48.8158127],[2.4250339,48.8158082],[2.4250348,48.8157219],[2.4254492,48.8157292],[2.426123,48.8156808],[2.4289469,48.8154239],[2.4313381,48.8153931],[2.4313349,48.8156859],[2.4311548,48.8157054],[2.4311658,48.8166637],[2.4309068,48.8165988]]]]},"properties":{"code_section":"940460000F","code_commune":"94046","section_courte":"F"}},{"type":"Feature","geometry":{"type":"MultiPolygon","coordinates":[[[[2.4322978,48.8135729],[2.4321633,48.8141762],[2.4319714,48.8145847],[2.4317187,48.8149286],[2.4313438,48.8151893],[2.4313381,48.8153931],[2.4289469,48.8154239],[2.4276387,48.8155468],[2.4275515,48.8135519],[2.4275199,48.813179],[2.4274413,48.8129209],[2.4276127,48.8128298],[2.4290051,48.813643],[2.4292044,48.8136452],[2.4302852,48.8131661],[2.4323542,48.8132574],[2.4322978,48.8135729]]]]},"properties":{"code_section":"940460000G","code_commune":"94046","section_courte":"G"}},{"type":"Feature","geometry":{"type":"MultiPolygon","coordinates":[[[[2.432666,48.8109004],[2.4325275,48.8121815],[2.4323542,48.8132574],[2.4302852,48.8131661],[2.4292044,48.8136452],[2.4290051,48.813643],[2.4276127,48.8128298],[2.4327129,48.8101353],[2.432666,48.8109004]]]]},"properties":{"code_section":"940460000H","code_commune":"94046","section_courte":"H"}},{"type":"Feature","geometry":{"type":"MultiPolygon","coordinates":[[[[2.4224613,48.8096969],[2.4223789,48.8096509],[2.4234725,48.8083826],[2.4241876,48.807348],[2.4249902,48.8071746],[2.425057,48.8070632],[2.4255132,48.8071986],[2.4259353,48.806963],[2.4288123,48.8063512],[2.4303504,48.8059882],[2.4310485,48.8057266],[2.4315625,48.8053949],[2.4324705,48.8044784],[2.4361535,48.8082957],[2.4283511,48.8124396],[2.4265964,48.8109839],[2.4235728,48.8102849],[2.4244323,48.8088089],[2.4241267,48.8088985],[2.4230189,48.8099472],[2.4224613,48.8096969]]]]},"properties":{"code_section":"940460000I","code_commune":"94046","section_courte":"I"}},{"type":"Feature","geometry":{"type":"MultiPolygon","coordinates":[[[[2.4374458,48.8101822],[2.4374728,48.8107995],[2.4326651,48.8109108],[2.4327129,48.8101353],[2.4361535,48.8082957],[2.4374422,48.810108],[2.4374458,48.8101822]]]]},"properties":{"code_section":"940460000J","code_commune":"94046","section_courte":"J"}},{"type":"Feature","geometry":{"type":"MultiPolygon","coordinates":[[[[2.4375775,48.812934],[2.4376115,48.8135909],[2.4322638,48.813726],[2.4325275,48.8121815],[2.4326651,48.8109108],[2.4374728,48.8107995],[2.4375775,48.812934]]]]},"properties":{"code_section":"940460000K","code_commune":"94046","section_courte":"K"}},{"type":"Feature","geometry":{"type":"MultiPolygon","coordinates":[[[[2.4313345,48.8155605],[2.4313438,48.8151893],[2.4317187,48.8149286],[2.4319714,48.8145847],[2.4321633,48.8141762],[2.4322638,48.813726],[2.4376115,48.8135909],[2.4377147,48.8156055],[2.4390147,48.8158189],[2.4405356,48.8156421],[2.4405904,48.8157144],[2.4407595,48.8157172],[2.440784,48.8157462],[2.4413688,48.8158722],[2.4413706,48.8162496],[2.4406475,48.8163833],[2.439254,48.8168024],[2.4379246,48.8169863],[2.4364647,48.8169328],[2.4360623,48.8168815],[2.4357658,48.816798],[2.4350814,48.8164685],[2.4344708,48.8163301],[2.4338552,48.8163456],[2.4332215,48.8165981],[2.4328005,48.8166496],[2.4321033,48.8166822],[2.4312016,48.8166728],[2.4311658,48.8166637],[2.4311548,48.8157054],[2.4313349,48.8156859],[2.4313345,48.8155605]]]]},"properties":{"code_section":"940460000L","code_commune":"94046","section_courte":"L"}},{"type":"Feature","geometry":{"type":"MultiPolygon","coordinates":[[[[2.443806,48.8162087],[2.4420919,48.8162005],[2.4413706,48.8162496],[2.4413688,48.8158722],[2.440784,48.8157462],[2.4407595,48.8157172],[2.4405904,48.8157144],[2.4405356,48.8156421],[2.4390147,48.8158189],[2.4377147,48.8156055],[2.4376459,48.8142549],[2.443729,48.8141243],[2.443806,48.8162087]]]]},"properties":{"code_section":"940460000M","code_commune":"94046","section_courte":"M"}},{"type":"Feature","geometry":{"type":"MultiPolygon","coordinates":[[[[2.4435197,48.8120218],[2.4436203,48.812019],[2.443729,48.8141243],[2.4376459,48.8142549],[2.437531,48.8121577],[2.4435197,48.8120218]]]]},"properties":{"code_section":"940460000N","code_commune":"94046","section_courte":"N"}},{"type":"Feature","geometry":{"type":"MultiPolygon","coordinates":[[[[2.4416084,48.8100118],[2.4435094,48.8099669],[2.4436203,48.812019],[2.437531,48.8121577],[2.4374422,48.810108],[2.4416084,48.8100118]]]]},"properties":{"code_section":"940460000O","code_commune":"94046","section_courte":"O"}},{"type":"Feature","geometry":{"type":"MultiPolygon","coordinates":[[[[2.4399358,48.8070137],[2.4400884,48.810046],[2.4374422,48.810108],[2.4361535,48.8082957],[2.4393991,48.8065857],[2.4399358,48.8070137]]]]},"properties":{"code_section":"940460000P","code_commune":"94046","section_courte":"P"}},{"type":"Feature","geometry":{"type":"MultiPolygon","coordinates":[[[[2.4404413,48.8060369],[2.4409339,48.8057791],[2.4433469,48.8065524],[2.4435094,48.8099669],[2.4400884,48.810046],[2.4399358,48.8070137],[2.4393991,48.8065857],[2.4404413,48.8060369]]]]},"properties":{"code_section":"940460000Q","code_commune":"94046","section_courte":"Q"}},{"type":"Feature","geometry":{"type":"MultiPolygon","coordinates":[[[[2.4474197,48.8072932],[2.4479793,48.8072809],[2.4481128,48.8098654],[2.4435094,48.8099669],[2.4433951,48.8073839],[2.4474197,48.8072932]]]]},"properties":{"code_section":"940460000R","code_commune":"94046","section_courte":"R"}},{"type":"Feature","geometry":{"type":"MultiPolygon","coordinates":[[[[2.4481128,48.8098654],[2.4482203,48.8119069],[2.4436203,48.812019],[2.4435094,48.8099669],[2.4481128,48.8098654]]]]},"properties":{"code_section":"940460000S","code_commune":"94046","section_courte":"S"}},{"type":"Feature","geometry":{"type":"MultiPolygon","coordinates":[[[[2.4497832,48.8126512],[2.4498431,48.8139811],[2.443729,48.8141243],[2.4436203,48.812019],[2.4497489,48.8118713],[2.4497832,48.8126512]]]]},"properties":{"code_section":"940460000T","code_commune":"94046","section_courte":"T"}},{"type":"Feature","geometry":{"type":"MultiPolygon","coordinates":[[[[2.447287,48.8161062],[2.4450352,48.8162397],[2.4446886,48.8162429],[2.4443107,48.8161957],[2.4438318,48.8162086],[2.443729,48.8141243],[2.4498431,48.8139811],[2.4499533,48.8159295],[2.447287,48.8161062]]]]},"properties":{"code_section":"940460000U","code_commune":"94046","section_courte":"U"}},{"type":"Feature","geometry":{"type":"MultiPolygon","coordinates":[[[[2.4508291,48.8158176],[2.4499533,48.8159295],[2.4497489,48.8118713],[2.452799,48.8118144],[2.452834,48.8125333],[2.4528826,48.8126019],[2.4531179,48.8127126],[2.4517092,48.8139591],[2.4517572,48.8144069],[2.4525809,48.8149117],[2.4521079,48.8152538],[2.4515832,48.8155783],[2.4512248,48.8157302],[2.4508291,48.8158176]]]]},"properties":{"code_section":"940460000V","code_commune":"94046","section_courte":"V"}},{"type":"Feature","geometry":{"type":"MultiPolygon","coordinates":[[[[2.455388,48.8118375],[2.4558818,48.8120467],[2.4554957,48.812393],[2.4546264,48.8133245],[2.4543381,48.8135549],[2.4536951,48.8139578],[2.4525809,48.8149117],[2.4517572,48.8144069],[2.4517092,48.8139591],[2.4531179,48.8127126],[2.4528826,48.8126019],[2.452834,48.8125333],[2.452799,48.8118144],[2.4552122,48.8117629],[2.455388,48.8118375]]]]},"properties":{"code_section":"940460000X","code_commune":"94046","section_courte":"X"}},{"type":"Feature","geometry":{"type":"MultiPolygon","coordinates":[[[[2.4558818,48.8120467],[2.4552122,48.8117629],[2.452799,48.8118144],[2.4526562,48.809052],[2.4540595,48.8094273],[2.4546969,48.8096503],[2.455844,48.8101642],[2.4571956,48.8109259],[2.4558818,48.8120467]]]]},"properties":{"code_section":"940460000Y","code_commune":"94046","section_courte":"Y"}},{"type":"Feature","geometry":{"type":"MultiPolygon","coordinates":[[[[2.4527438,48.8107556],[2.452799,48.8118144],[2.4482203,48.8119069],[2.4481128,48.8098654],[2.4526916,48.8097526],[2.4527438,48.8107556]]]]},"properties":{"code_section":"940460000Z","code_commune":"94046","section_courte":"Z"}},{"type":"Feature","geometry":{"type":"MultiPolygon","coordinates":[[[[2.4516385,48.8071927],[2.4525573,48.8071697],[2.4526916,48.8097526],[2.4481128,48.8098654],[2.4479793,48.8072809],[2.4516385,48.8071927]]]]},"properties":{"code_section":"94046000AB","code_commune":"94046","section_courte":"AB"}},{"type":"Feature","geometry":{"type":"MultiPolygon","coordinates":[[[[2.4525573,48.8071697],[2.4525051,48.8061186],[2.4531949,48.8061174],[2.4552369,48.8058776],[2.4557056,48.8075821],[2.4557799,48.8076666],[2.4565105,48.808125],[2.453489,48.8092742],[2.4526562,48.809052],[2.4525573,48.8071697]]]]},"properties":{"code_section":"94046000AC","code_commune":"94046","section_courte":"AC"}},{"type":"Feature","geometry":{"type":"MultiPolygon","coordinates":[[[[2.4593599,48.8098901],[2.4581064,48.8104324],[2.4571956,48.8109259],[2.455844,48.8101642],[2.4553548,48.809933],[2.4546969,48.8096503],[2.4540595,48.8094273],[2.453489,48.8092742],[2.4565105,48.808125],[2.4593599,48.8098901]]]]},"properties":{"code_section":"94046000AD","code_commune":"94046","section_courte":"AD"}},{"type":"Feature","geometry":{"type":"MultiPolygon","coordinates":[[[[2.4623979,48.806713],[2.4640879,48.8073492],[2.4634473,48.8077807],[2.4624738,48.8083715],[2.4593599,48.8098901],[2.4557799,48.8076666],[2.4557056,48.8075821],[2.4552369,48.8058776],[2.4567991,48.805481],[2.4574999,48.805101],[2.4603329,48.8063256],[2.460698,48.8060764],[2.4623979,48.806713]]]]},"properties":{"code_section":"94046000AE","code_commune":"94046","section_courte":"AE"}},{"type":"Feature","geometry":{"type":"MultiPolygon","coordinates":[[[[2.4515343,48.803947],[2.4528361,48.8048468],[2.4527104,48.8049411],[2.4544681,48.8059726],[2.4531949,48.8061174],[2.4525051,48.8061186],[2.4506603,48.8061116],[2.4494887,48.8059755],[2.4508933,48.8051621],[2.4501828,48.8047512],[2.4494373,48.8051603],[2.448492,48.8046105],[2.449033,48.8040682],[2.448622,48.8038393],[2.4499379,48.803005],[2.4503628,48.8032962],[2.4515343,48.803947]]]]},"properties":{"code_section":"94046000AF","code_commune":"94046","section_courte":"AF"}},{"type":"Feature","geometry":{"type":"MultiPolygon","coordinates":[[[[2.447411,48.805739],[2.448492,48.8046105],[2.4494373,48.8051603],[2.4501828,48.8047512],[2.4508933,48.8051621],[2.4494887,48.8059755],[2.4506603,48.8061116],[2.4525051,48.8061186],[2.4525573,48.8071697],[2.4469822,48.807303],[2.4469154,48.8056887],[2.447411,48.805739]]]]},"properties":{"code_section":"94046000AG","code_commune":"94046","section_courte":"AG"}},{"type":"Feature","geometry":{"type":"MultiPolygon","coordinates":[[[[2.4423105,48.8050574],[2.4437746,48.8053829],[2.4445252,48.805489],[2.4469154,48.8056887],[2.4469822,48.807303],[2.4433951,48.8073839],[2.4433469,48.8065524],[2.4409339,48.8057791],[2.4423105,48.8050574]]]]},"properties":{"code_section":"94046000AH","code_commune":"94046","section_courte":"AH"}},{"type":"Feature","geometry":{"type":"MultiPolygon","coordinates":[[[[2.4459562,48.8031046],[2.4469799,48.8025588],[2.4483362,48.803665],[2.449033,48.8040682],[2.447411,48.805739],[2.4445252,48.805489],[2.4437746,48.8053829],[2.4423105,48.8050574],[2.4459562,48.8031046]]]]},"properties":{"code_section":"94046000AI","code_commune":"94046","section_courte":"AI"}},{"type":"Feature","geometry":{"type":"MultiPolygon","coordinates":[[[[2.4413123,48.8008177],[2.4412943,48.8007705],[2.4416214,48.8006463],[2.4416384,48.7996828],[2.4443657,48.7997111],[2.4453359,48.7996588],[2.4456748,48.8007301],[2.4470688,48.8019683],[2.4474058,48.8021699],[2.4468486,48.8024654],[2.4469799,48.8025588],[2.4415875,48.8054322],[2.4399292,48.804075],[2.4398204,48.8038466],[2.4392175,48.803339],[2.4395941,48.8032044],[2.4395532,48.8030693],[2.4394281,48.8031185],[2.4393292,48.8027817],[2.4394552,48.8027353],[2.4394642,48.8024559],[2.4395326,48.8023127],[2.4399314,48.8017691],[2.4405192,48.8015474],[2.4404524,48.801517],[2.4404735,48.8014703],[2.4410029,48.8012843],[2.4411127,48.801413],[2.4412416,48.8013469],[2.4413903,48.801179],[2.4415241,48.8011152],[2.4415617,48.8010474],[2.4415339,48.8009506],[2.4413227,48.8008613],[2.4413123,48.8008177]]]]},"properties":{"code_section":"94046000AJ","code_commune":"94046","section_courte":"AJ"}},{"type":"Feature","geometry":{"type":"MultiPolygon","coordinates":[[[[2.443606,48.7978552],[2.4437299,48.7978606],[2.4440064,48.7981686],[2.4441979,48.7982919],[2.444482,48.7986028],[2.4450046,48.7993968],[2.4450354,48.7993951],[2.4451472,48.7996229],[2.4453359,48.7996588],[2.4443657,48.7997111],[2.4419225,48.7996854],[2.4419249,48.7996383],[2.4420491,48.7996401],[2.4420716,48.7989366],[2.4424129,48.7989502],[2.4424157,48.7988156],[2.4424554,48.7988151],[2.4424514,48.798411],[2.4421588,48.7983635],[2.4421562,48.797905],[2.442061,48.7979044],[2.4420595,48.7977599],[2.443606,48.7978552]]]]},"properties":{"code_section":"94046000AK","code_commune":"94046","section_courte":"AK"}},{"type":"Feature","geometry":{"type":"MultiPolygon","coordinates":[[[[2.443606,48.7978552],[2.4420595,48.7977599],[2.442061,48.7979044],[2.4421562,48.797905],[2.4421588,48.7983635],[2.4424514,48.798411],[2.4424554,48.7988151],[2.4424157,48.7988156],[2.4424129,48.7989502],[2.4420716,48.7989366],[2.4420491,48.7996401],[2.4419249,48.7996383],[2.4419225,48.7996854],[2.4383296,48.7997145],[2.437464,48.7998834],[2.4381539,48.798976],[2.4391646,48.7975393],[2.4406736,48.7972125],[2.4413528,48.7969945],[2.4420113,48.796631],[2.4424929,48.7962633],[2.4437201,48.7978632],[2.443606,48.7978552]]]]},"properties":{"code_section":"94046000AL","code_commune":"94046","section_courte":"AL"}},{"type":"Feature","geometry":{"type":"MultiPolygon","coordinates":[[[[2.4413123,48.8008177],[2.4413227,48.8008613],[2.4415339,48.8009506],[2.4415617,48.8010474],[2.4415241,48.8011152],[2.4413903,48.801179],[2.4412569,48.8013354],[2.4411127,48.801413],[2.4410029,48.8012843],[2.4404735,48.8014703],[2.4404524,48.801517],[2.4405192,48.8015474],[2.4399314,48.8017691],[2.4394642,48.8024559],[2.4394552,48.8027353],[2.4393292,48.8027817],[2.4394281,48.8031185],[2.4395532,48.8030693],[2.4395941,48.8032044],[2.4392175,48.803339],[2.4398204,48.8038466],[2.4399292,48.804075],[2.4367063,48.8014314],[2.437464,48.7998834],[2.4383296,48.7997145],[2.4416384,48.7996828],[2.4416214,48.8006463],[2.4412943,48.8007705],[2.4413123,48.8008177]]]]},"properties":{"code_section":"94046000AM","code_commune":"94046","section_courte":"AM"}},{"type":"Feature","geometry":{"type":"MultiPolygon","coordinates":[[[[2.4333641,48.8002636],[2.4340443,48.8000116],[2.4347212,48.8006629],[2.4350905,48.8005744],[2.4352581,48.8006061],[2.4356802,48.8005069],[2.437451,48.7999006],[2.4367063,48.8014314],[2.4367722,48.8014882],[2.4354022,48.8022374],[2.4349281,48.8023789],[2.434071,48.8028298],[2.4323116,48.8017423],[2.4316133,48.8011749],[2.431648,48.8011004],[2.4318531,48.8010596],[2.4319533,48.8008966],[2.4319988,48.8007089],[2.4333641,48.8002636]]]]},"properties":{"code_section":"94046000AN","code_commune":"94046","section_courte":"AN"}},{"type":"Feature","geometry":{"type":"MultiPolygon","coordinates":[[[[2.4377299,48.803985],[2.4372916,48.8042187],[2.434071,48.8028298],[2.4349281,48.8023789],[2.4354022,48.8022374],[2.4367722,48.8014882],[2.4390206,48.8033306],[2.4377299,48.803985]]]]},"properties":{"code_section":"94046000AO","code_commune":"94046","section_courte":"AO"}},{"type":"Feature","geometry":{"type":"MultiPolygon","coordinates":[[[[2.4377299,48.803985],[2.4390206,48.8033306],[2.4415875,48.8054322],[2.4397349,48.8064068],[2.4390885,48.8058826],[2.4388394,48.805736],[2.4373067,48.8050886],[2.437147,48.804534],[2.4374058,48.8042676],[2.4372916,48.8042187],[2.4377299,48.803985]]]]},"properties":{"code_section":"94046000AP","code_commune":"94046","section_courte":"AP"}},{"type":"Feature","geometry":{"type":"MultiPolygon","coordinates":[[[[2.4361081,48.8060341],[2.4372938,48.8051342],[2.4373067,48.8050886],[2.4388394,48.805736],[2.4390885,48.8058826],[2.4397349,48.8064068],[2.4361535,48.8082957],[2.4349316,48.807017],[2.4362896,48.8062731],[2.4359155,48.8061411],[2.4361081,48.8060341]]]]},"properties":{"code_section":"94046000AQ","code_commune":"94046","section_courte":"AQ"}},{"type":"Feature","geometry":{"type":"MultiPolygon","coordinates":[[[[2.4361081,48.8060341],[2.4359155,48.8061411],[2.4362896,48.8062731],[2.4349316,48.807017],[2.4324705,48.8044784],[2.434071,48.8028298],[2.4374058,48.8042676],[2.437147,48.804534],[2.4372938,48.8051342],[2.4361081,48.8060341]]]]},"properties":{"code_section":"94046000AR","code_commune":"94046","section_courte":"AR"}},{"type":"Feature","geometry":{"type":"MultiPolygon","coordinates":[[[[2.4290778,48.8024494],[2.4293662,48.8022784],[2.4316192,48.8011624],[2.4323116,48.8017423],[2.434071,48.8028298],[2.4324705,48.8044784],[2.4301138,48.8034192],[2.4286577,48.8026985],[2.4290778,48.8024494]]]]},"properties":{"code_section":"94046000AS","code_commune":"94046","section_courte":"AS"}},{"type":"Feature","geometry":{"type":"MultiPolygon","coordinates":[[[[2.4280323,48.805298],[2.4269142,48.8049381],[2.4285077,48.8027978],[2.4286577,48.8026985],[2.4301138,48.8034192],[2.4324705,48.8044784],[2.4315625,48.8053949],[2.4310485,48.8057266],[2.4301368,48.8060563],[2.430027,48.8059363],[2.4280323,48.805298]]]]},"properties":{"code_section":"94046000AT","code_commune":"94046","section_courte":"AT"}},{"type":"Feature","geometry":{"type":"MultiPolygon","coordinates":[[[[2.4280323,48.805298],[2.430027,48.8059363],[2.4301368,48.8060563],[2.4259353,48.806963],[2.4255132,48.8071986],[2.425057,48.8070632],[2.4249902,48.8071746],[2.4241876,48.807348],[2.4248982,48.8061462],[2.4253903,48.8050753],[2.4264561,48.8055129],[2.4269142,48.8049381],[2.4280323,48.805298]]]]},"properties":{"code_section":"94046000AU","code_commune":"94046","section_courte":"AU"}},{"type":"Feature","geometry":{"type":"MultiPolygon","coordinates":[[[[2.4259056,48.8037968],[2.4266847,48.8018728],[2.4271934,48.8019571],[2.4279625,48.802515],[2.4285041,48.8028027],[2.4264561,48.8055129],[2.4253903,48.8050753],[2.4259056,48.8037968]]]]},"properties":{"code_section":"94046000AV","code_commune":"94046","section_courte":"AV"}},{"type":"Feature","geometry":{"type":"MultiPolygon","coordinates":[[[[2.42778,48.7999894],[2.4285675,48.8001124],[2.430574,48.8006323],[2.4312675,48.8008702],[2.4316286,48.8011418],[2.4293662,48.8022784],[2.4285041,48.8028027],[2.4279625,48.802515],[2.4271934,48.8019571],[2.4266847,48.8018728],[2.4274596,48.7999571],[2.42778,48.7999894]]]]},"properties":{"code_section":"94046000AX","code_commune":"94046","section_courte":"AX"}},{"type":"Feature","geometry":{"type":"MultiPolygon","coordinates":[[[[2.4327682,48.7972691],[2.4333517,48.7973602],[2.4331296,48.798205],[2.4328902,48.7987604],[2.4340443,48.8000116],[2.4319988,48.8007089],[2.4319533,48.8008966],[2.4318531,48.8010596],[2.431648,48.8011004],[2.4316286,48.8011418],[2.4312675,48.8008702],[2.430574,48.8006323],[2.4289051,48.8002],[2.4292628,48.7999329],[2.4295114,48.7996238],[2.4327682,48.7972691]]]]},"properties":{"code_section":"94046000AY","code_commune":"94046","section_courte":"AY"}},{"type":"Feature","geometry":{"type":"MultiPolygon","coordinates":[[[[2.4274596,48.7999571],[2.4289217,48.7963238],[2.4309662,48.7967484],[2.4327682,48.7972691],[2.4295114,48.7996238],[2.4292628,48.7999329],[2.4289051,48.8002],[2.4285675,48.8001124],[2.4274596,48.7999571]]]]},"properties":{"code_section":"94046000AZ","code_commune":"94046","section_courte":"AZ"}},{"type":"Feature","geometry":{"type":"MultiPolygon","coordinates":[[[[2.4329206,48.7902307],[2.4324242,48.7935695],[2.434289,48.7937776],[2.4333517,48.7973602],[2.4327682,48.7972691],[2.4309662,48.7967484],[2.4289217,48.7963238],[2.4314167,48.7901319],[2.4319441,48.7901659],[2.4318396,48.7904249],[2.432333,48.7904554],[2.432353,48.7903296],[2.432835,48.790361],[2.4328535,48.7902267],[2.4329206,48.7902307]]]]},"properties":{"code_section":"94046000BC","code_commune":"94046","section_courte":"BC"}},{"type":"Feature","geometry":{"type":"MultiPolygon","coordinates":[[[[2.441549,48.795696],[2.4422256,48.7958612],[2.4424929,48.7962633],[2.4420113,48.796631],[2.4413528,48.7969945],[2.4409534,48.7971357],[2.4391646,48.7975393],[2.4381539,48.798976],[2.437451,48.7999006],[2.4356802,48.8005069],[2.4352581,48.8006061],[2.4350905,48.8005744],[2.4347212,48.8006629],[2.4340443,48.8000116],[2.4328902,48.7987604],[2.4331296,48.798205],[2.433594,48.7963985],[2.4338233,48.7964187],[2.4366958,48.7961214],[2.4369099,48.795317],[2.4399487,48.7950096],[2.4398432,48.7952835],[2.441549,48.795696]]]]},"properties":{"code_section":"94046000BD","code_commune":"94046","section_courte":"BD"}},{"type":"Feature","geometry":{"type":"MultiPolygon","coordinates":[[[[2.4366877,48.7941951],[2.4366636,48.7940969],[2.436735,48.7940426],[2.4363758,48.7925104],[2.436777,48.792329],[2.4408686,48.7935233],[2.4404748,48.7939698],[2.4402581,48.7942955],[2.4399487,48.7950096],[2.4370685,48.7953027],[2.4369607,48.7947332],[2.4368144,48.7946556],[2.4366877,48.7941951]]]]},"properties":{"code_section":"94046000BE","code_commune":"94046","section_courte":"BE"}},{"type":"Feature","geometry":{"type":"MultiPolygon","coordinates":[[[[2.4366877,48.7941951],[2.4368144,48.7946556],[2.4369607,48.7947332],[2.4370685,48.7953027],[2.4369099,48.795317],[2.4366958,48.7961214],[2.4338233,48.7964187],[2.433594,48.7963985],[2.4344246,48.7932887],[2.4363758,48.7925104],[2.436735,48.7940426],[2.4366636,48.7940969],[2.4366877,48.7941951]]]]},"properties":{"code_section":"94046000BF","code_commune":"94046","section_courte":"BF"}},{"type":"Feature","geometry":{"type":"MultiPolygon","coordinates":[[[[2.4361893,48.7921625],[2.436777,48.792329],[2.4344246,48.7932887],[2.434289,48.7937776],[2.4324242,48.7935695],[2.4329335,48.790134],[2.4351553,48.790386],[2.434822,48.7917615],[2.4361893,48.7921625]]]]},"properties":{"code_section":"94046000BG","code_commune":"94046","section_courte":"BG"}},{"type":"Feature","geometry":{"type":"MultiPolygon","coordinates":[[[[2.4356953,48.7920191],[2.434822,48.7917615],[2.4356825,48.7882961],[2.4390842,48.7891931],[2.4384963,48.790191],[2.4379696,48.7909786],[2.436777,48.792329],[2.4356953,48.7920191]]]]},"properties":{"code_section":"94046000BH","code_commune":"94046","section_courte":"BH"}},{"type":"Feature","geometry":{"type":"MultiPolygon","coordinates":[[[[2.4328364,48.7866266],[2.4360292,48.7869959],[2.4351553,48.790386],[2.4329335,48.790134],[2.4329206,48.7902307],[2.4328535,48.7902267],[2.432835,48.790361],[2.432353,48.7903296],[2.432333,48.7904554],[2.4318396,48.7904249],[2.4319441,48.7901659],[2.4314167,48.7901319],[2.4328364,48.7866266]]]]},"properties":{"code_section":"94046000BI","code_commune":"94046","section_courte":"BI"}}]}