{"type":"FeatureCollection","features":[{"type":"Feature","geometry":{"type":"MultiPolygon","coordinates":[[[[2.5401391,48.7661013],[2.5402666,48.7660329],[2.5401944,48.7659557],[2.5421116,48.765413],[2.5429827,48.765264],[2.543428,48.7652363],[2.5496244,48.7655163],[2.5496477,48.7655441],[2.5495729,48.7657861],[2.5494518,48.7659938],[2.5487111,48.7666023],[2.5486169,48.7666986],[2.5485683,48.7668208],[2.5478032,48.7676194],[2.5474338,48.7684376],[2.5475227,48.7697039],[2.5436685,48.7685864],[2.5422567,48.768511],[2.5419548,48.7685375],[2.541477,48.7686429],[2.5407174,48.7692309],[2.5405661,48.7692862],[2.5401862,48.7687015],[2.5401211,48.7685052],[2.5397545,48.7680324],[2.5396596,48.7679951],[2.5394992,48.7677182],[2.5394651,48.7672943],[2.5399903,48.7662498],[2.5401391,48.7661013]]]]},"properties":{"code_section":"94053000AA","code_commune":"94053","section_courte":"AA"}},{"type":"Feature","geometry":{"type":"MultiPolygon","coordinates":[[[[2.5479349,48.7735937],[2.54791,48.7740108],[2.5473832,48.7750328],[2.5471194,48.7747644],[2.545575,48.7728057],[2.5422567,48.768511],[2.5436685,48.7685864],[2.5475227,48.7697039],[2.5479349,48.7735937]]]]},"properties":{"code_section":"94053000AB","code_commune":"94053","section_courte":"AB"}},{"type":"Feature","geometry":{"type":"MultiPolygon","coordinates":[[[[2.5406668,48.769753],[2.5407379,48.769699],[2.5406865,48.7696344],[2.5407167,48.7695646],[2.5405661,48.7692862],[2.5407174,48.7692309],[2.541477,48.7686429],[2.5419548,48.7685375],[2.5422567,48.768511],[2.545575,48.7728057],[2.5471194,48.7747644],[2.5473832,48.7750328],[2.5469523,48.7750444],[2.5435629,48.7744411],[2.5419428,48.7740368],[2.5396859,48.7735364],[2.5378472,48.7733859],[2.5368471,48.773209],[2.5371511,48.7729708],[2.5373943,48.7728385],[2.5379904,48.7725498],[2.5383683,48.7724409],[2.5390094,48.7721137],[2.5395842,48.771535],[2.5400037,48.7712384],[2.5405989,48.7706833],[2.5406398,48.7704978],[2.5405511,48.7704233],[2.5406449,48.770228],[2.5406668,48.769753]]]]},"properties":{"code_section":"94053000AC","code_commune":"94053","section_courte":"AC"}},{"type":"Feature","geometry":{"type":"MultiPolygon","coordinates":[[[[2.5368042,48.7732661],[2.5368471,48.773209],[2.5378472,48.7733859],[2.5396859,48.7735364],[2.5419428,48.7740368],[2.5435629,48.7744411],[2.5469523,48.7750444],[2.5473832,48.7750328],[2.5471792,48.7752897],[2.5451071,48.7773045],[2.5431668,48.7766106],[2.5418687,48.7762592],[2.5398736,48.7754866],[2.5383642,48.7750531],[2.5364765,48.7746461],[2.5368042,48.7732661]]]]},"properties":{"code_section":"94053000AD","code_commune":"94053","section_courte":"AD"}},{"type":"Feature","geometry":{"type":"MultiPolygon","coordinates":[[[[2.5364112,48.7747686],[2.5364765,48.7746461],[2.5383642,48.7750531],[2.5398736,48.7754866],[2.5418687,48.7762592],[2.5431668,48.7766106],[2.5451071,48.7773045],[2.5444931,48.7778529],[2.5440635,48.7776659],[2.5415799,48.7767277],[2.5414434,48.7768496],[2.541361,48.7767965],[2.5411853,48.7768158],[2.5411282,48.7768906],[2.5411514,48.7769504],[2.5397817,48.779824],[2.5394129,48.779721],[2.539156,48.7795912],[2.5391152,48.7794238],[2.5386664,48.7791826],[2.5384422,48.7790125],[2.5381613,48.7789048],[2.5378656,48.7787166],[2.5378609,48.7784533],[2.5380399,48.7783779],[2.538055,48.7783194],[2.5376763,48.7781607],[2.5371484,48.7778326],[2.5365297,48.7774318],[2.5363867,48.7772915],[2.5361826,48.7771873],[2.53607,48.7770673],[2.5355168,48.7770317],[2.5356169,48.7768307],[2.5356816,48.7762115],[2.5358017,48.7760888],[2.5360527,48.7752938],[2.5361678,48.7750641],[2.5364112,48.7747686]]]]},"properties":{"code_section":"94053000AE","code_commune":"94053","section_courte":"AE"}},{"type":"Feature","geometry":{"type":"MultiPolygon","coordinates":[[[[2.5463779,48.7787319],[2.5466323,48.7787829],[2.5471745,48.7788322],[2.547868,48.7787645],[2.5482817,48.778579],[2.5497859,48.7790747],[2.5503167,48.779327],[2.5513545,48.7796064],[2.5523089,48.780495],[2.551106,48.7829205],[2.5503713,48.7827601],[2.5497392,48.7823596],[2.5495358,48.782277],[2.5489688,48.7823241],[2.5481362,48.7823335],[2.547172,48.7823977],[2.5461099,48.7822673],[2.5457584,48.7822789],[2.5448071,48.7825141],[2.5445798,48.7825142],[2.5446133,48.7824837],[2.5445082,48.782301],[2.5433887,48.7817945],[2.5432274,48.7815039],[2.54312,48.7814108],[2.5428712,48.7813666],[2.5424675,48.7814032],[2.5413714,48.7809291],[2.5410963,48.7808879],[2.5408786,48.7809432],[2.540644,48.7804015],[2.5397817,48.779824],[2.5411514,48.7769504],[2.5411411,48.7768568],[2.5412756,48.7767941],[2.5413936,48.7768062],[2.5414434,48.7768496],[2.5415799,48.7767277],[2.5440635,48.7776659],[2.5444931,48.7778529],[2.5454727,48.7784239],[2.5460093,48.7786421],[2.5463779,48.7787319]]]]},"properties":{"code_section":"94053000AH","code_commune":"94053","section_courte":"AH"}},{"type":"Feature","geometry":{"type":"MultiPolygon","coordinates":[[[[2.5463779,48.7787319],[2.5460093,48.7786421],[2.5454727,48.7784239],[2.5444931,48.7778529],[2.5451071,48.7773045],[2.5471792,48.7752897],[2.5473832,48.7750328],[2.5499497,48.7762661],[2.5529644,48.7776132],[2.5539705,48.7780427],[2.55618,48.7788562],[2.5553927,48.7801257],[2.5549332,48.7800969],[2.5546938,48.7804677],[2.5523089,48.780495],[2.5513545,48.7796064],[2.5503167,48.779327],[2.5497859,48.7790747],[2.5482817,48.778579],[2.547868,48.7787645],[2.5471745,48.7788322],[2.5466323,48.7787829],[2.5463779,48.7787319]]]]},"properties":{"code_section":"94053000AI","code_commune":"94053","section_courte":"AI"}},{"type":"Feature","geometry":{"type":"MultiPolygon","coordinates":[[[[2.5618595,48.7878314],[2.5608089,48.7875203],[2.560456,48.7873761],[2.5592782,48.7870329],[2.5586414,48.7868021],[2.5585047,48.7867848],[2.5573173,48.7864256],[2.5567622,48.7860276],[2.5564754,48.7857584],[2.5560864,48.7855547],[2.5558093,48.7851269],[2.55547,48.7847813],[2.5552535,48.7844794],[2.553908,48.7833691],[2.55367,48.7832992],[2.5517181,48.783042],[2.551106,48.7829205],[2.5523089,48.780495],[2.5546938,48.7804677],[2.5549332,48.7800969],[2.5553927,48.7801257],[2.55618,48.7788562],[2.5606913,48.7805386],[2.5628962,48.7810934],[2.5643364,48.7813561],[2.5642832,48.7814046],[2.5643582,48.7814192],[2.564097,48.7819427],[2.564052,48.7821885],[2.563687,48.7829548],[2.5638182,48.7847868],[2.5639051,48.784935],[2.5638213,48.7854316],[2.563675,48.7857599],[2.561959,48.7878661],[2.5618595,48.7878314]]]]},"properties":{"code_section":"94053000AK","code_commune":"94053","section_courte":"AK"}},{"type":"Feature","geometry":{"type":"MultiPolygon","coordinates":[[[[2.5514089,48.7726204],[2.553172,48.7733663],[2.554101,48.7726576],[2.5550584,48.7717155],[2.5562546,48.7722714],[2.5575236,48.7733444],[2.5555444,48.7769048],[2.5552391,48.7772594],[2.5573995,48.7781183],[2.5567466,48.7790738],[2.5539705,48.7780427],[2.5529644,48.7776132],[2.5499497,48.7762661],[2.5473832,48.7750328],[2.54791,48.7740108],[2.5479349,48.7735937],[2.5483366,48.7731907],[2.5488239,48.7734099],[2.5498893,48.7723195],[2.5509157,48.7722496],[2.5509459,48.7724496],[2.5513483,48.7724488],[2.551367,48.7726025],[2.5514089,48.7726204]]]]},"properties":{"code_section":"94053000AL","code_commune":"94053","section_courte":"AL"}},{"type":"Feature","geometry":{"type":"MultiPolygon","coordinates":[[[[2.5649862,48.7802765],[2.5643364,48.7813561],[2.5628962,48.7810934],[2.5606913,48.7805386],[2.5567466,48.7790738],[2.5573995,48.7781183],[2.5552391,48.7772594],[2.5555444,48.7769048],[2.5575236,48.7733444],[2.5579627,48.7737022],[2.5598551,48.7738776],[2.5598589,48.7739121],[2.5677562,48.77461],[2.5674787,48.7747996],[2.5669562,48.7752384],[2.5665747,48.7756756],[2.5663831,48.7759791],[2.5664678,48.7760619],[2.5664268,48.7761488],[2.5657309,48.7773169],[2.5661934,48.7774602],[2.5659252,48.777922],[2.5665329,48.7781963],[2.5662626,48.7785058],[2.5656738,48.7794523],[2.5654665,48.7795219],[2.5649862,48.7802765]]]]},"properties":{"code_section":"94053000AM","code_commune":"94053","section_courte":"AM"}},{"type":"Feature","geometry":{"type":"MultiPolygon","coordinates":[[[[2.5735342,48.771494],[2.5736685,48.7715922],[2.57505,48.7716723],[2.5752308,48.7714914],[2.5765603,48.7716852],[2.5764992,48.7727225],[2.5757921,48.7725813],[2.574898,48.7724789],[2.5748523,48.7728482],[2.5747416,48.7732567],[2.5730924,48.7733158],[2.573016,48.7735388],[2.5727338,48.7735612],[2.572685,48.7738849],[2.572219,48.7741925],[2.5721407,48.7743127],[2.5716472,48.7744305],[2.5709527,48.774455],[2.5708305,48.7746856],[2.570357,48.7747862],[2.5700044,48.7748207],[2.5694288,48.7748276],[2.5689813,48.7747876],[2.5678269,48.7745965],[2.5677345,48.7746081],[2.5598589,48.7739121],[2.5598551,48.7738776],[2.5579627,48.7737022],[2.5562546,48.7722714],[2.5559232,48.7721089],[2.5565767,48.7721149],[2.5570754,48.7721638],[2.5576482,48.7725478],[2.5580348,48.7726793],[2.558683,48.7725358],[2.5586776,48.7724964],[2.563189,48.769986],[2.5631583,48.7698978],[2.5632431,48.7697931],[2.5633375,48.769779],[2.5635238,48.7698334],[2.5635029,48.7698108],[2.5697421,48.7663393],[2.5717185,48.7671416],[2.5705226,48.7693417],[2.5707404,48.7693458],[2.5735342,48.771494]]]]},"properties":{"code_section":"94053000AN","code_commune":"94053","section_courte":"AN"}},{"type":"Feature","geometry":{"type":"MultiPolygon","coordinates":[[[[2.5479349,48.7735937],[2.5475227,48.7697039],[2.5474338,48.7684376],[2.5478032,48.7676194],[2.5485683,48.7668208],[2.5486169,48.7666986],[2.5487111,48.7666023],[2.5494518,48.7659938],[2.5495729,48.7657861],[2.5496477,48.7655441],[2.5496244,48.7655163],[2.5498246,48.7656507],[2.5555711,48.764514],[2.555966,48.7644534],[2.5568211,48.7644036],[2.5570007,48.7644185],[2.5575661,48.7648093],[2.5576304,48.7649279],[2.5578837,48.7651082],[2.5581279,48.7653922],[2.5581551,48.7653747],[2.5587007,48.7658137],[2.5591862,48.7661422],[2.5600038,48.7657028],[2.5608306,48.7645139],[2.5612305,48.7642262],[2.5613421,48.7640367],[2.5618005,48.7635018],[2.561925,48.7634586],[2.5629373,48.7635963],[2.5631274,48.7635243],[2.5680633,48.7672779],[2.5635029,48.7698108],[2.5635238,48.7698334],[2.5633375,48.769779],[2.5632431,48.7697931],[2.5631583,48.7698978],[2.563189,48.769986],[2.5586776,48.7724964],[2.558683,48.7725358],[2.5580348,48.7726793],[2.5578764,48.7726449],[2.5576482,48.7725478],[2.5570754,48.7721638],[2.5565767,48.7721149],[2.5559232,48.7721089],[2.5550584,48.7717155],[2.554101,48.7726576],[2.553172,48.7733663],[2.551367,48.7726025],[2.5513483,48.7724488],[2.5509459,48.7724496],[2.5509157,48.7722496],[2.5498893,48.7723195],[2.5488239,48.7734099],[2.5483366,48.7731907],[2.5479349,48.7735937]]]]},"properties":{"code_section":"94053000AP","code_commune":"94053","section_courte":"AP"}}]}