{"type":"FeatureCollection","features":[{"type":"Feature","geometry":{"type":"MultiPolygon","coordinates":[[[[2.5571217,48.8214604],[2.5560595,48.8209148],[2.5578979,48.8193908],[2.5573601,48.8187584],[2.5606114,48.8168141],[2.5618696,48.8161185],[2.5632701,48.8168152],[2.5638869,48.8174185],[2.5645421,48.8175792],[2.5652059,48.8178296],[2.5662378,48.8183638],[2.5671712,48.8194531],[2.5664808,48.8197004],[2.5658508,48.8200272],[2.565098,48.8203447],[2.5649368,48.8203879],[2.5640366,48.8204968],[2.5637687,48.8205792],[2.5631461,48.8209497],[2.5623748,48.8214798],[2.5617082,48.8218043],[2.5606452,48.8222366],[2.5596779,48.8227833],[2.5571217,48.8214604]]]]},"properties":{"code_section":"94059000AB","code_commune":"94059","section_courte":"AB"}},{"type":"Feature","geometry":{"type":"MultiPolygon","coordinates":[[[[2.5671456,48.8194425],[2.5662378,48.8183638],[2.5652059,48.8178296],[2.5645421,48.8175792],[2.5638869,48.8174185],[2.5632701,48.8168152],[2.5618696,48.8161185],[2.5655388,48.8139436],[2.5665461,48.8131376],[2.5672574,48.812082],[2.5683861,48.8126661],[2.5687025,48.8125433],[2.5690516,48.8124992],[2.5695952,48.8126052],[2.5698941,48.8128734],[2.5699491,48.8131713],[2.569898,48.8134549],[2.5709436,48.8139964],[2.5700665,48.8148222],[2.5699225,48.8150093],[2.5698003,48.8153954],[2.5697903,48.8162435],[2.569615,48.8167669],[2.5694448,48.8169855],[2.5692768,48.8171109],[2.5691768,48.8172629],[2.5690945,48.8175248],[2.5688729,48.8178744],[2.5686312,48.8180853],[2.5681958,48.8186968],[2.567901,48.8190195],[2.5674539,48.8193429],[2.5671456,48.8194425]]]]},"properties":{"code_section":"94059000AC","code_commune":"94059","section_courte":"AC"}},{"type":"Feature","geometry":{"type":"MultiPolygon","coordinates":[[[[2.5721423,48.8107344],[2.5723257,48.8106566],[2.5724989,48.8104777],[2.5723495,48.8102752],[2.5758568,48.8073292],[2.5776001,48.8083894],[2.5810793,48.8105876],[2.578152,48.811943],[2.5741705,48.8129639],[2.5744957,48.8136815],[2.5728217,48.8140214],[2.5717837,48.8141938],[2.5714576,48.8142973],[2.5708707,48.8145425],[2.5699225,48.8150093],[2.5700665,48.8148222],[2.5709436,48.8139964],[2.569898,48.8134549],[2.5699491,48.8131713],[2.5698941,48.8128734],[2.5695952,48.8126052],[2.5713883,48.8110914],[2.5716311,48.8109333],[2.5721423,48.8107344]]]]},"properties":{"code_section":"94059000AD","code_commune":"94059","section_courte":"AD"}},{"type":"Feature","geometry":{"type":"MultiPolygon","coordinates":[[[[2.5814473,48.8104259],[2.5810793,48.8105876],[2.5776001,48.8083894],[2.5758568,48.8073292],[2.5809552,48.8030271],[2.5820836,48.8033541],[2.5821997,48.8044506],[2.5879368,48.8065068],[2.5884721,48.8089844],[2.5872726,48.8091066],[2.5828487,48.8100732],[2.5814473,48.8104259]]]]},"properties":{"code_section":"94059000AE","code_commune":"94059","section_courte":"AE"}},{"type":"Feature","geometry":{"type":"MultiPolygon","coordinates":[[[[2.5959582,48.8047916],[2.5965451,48.8058012],[2.5947691,48.806531],[2.5943062,48.8066509],[2.5933062,48.8067919],[2.5918003,48.8072178],[2.5901682,48.808806],[2.5884721,48.8089844],[2.5879368,48.8065068],[2.5847286,48.8053652],[2.593956,48.8014646],[2.5959582,48.8047916]]]]},"properties":{"code_section":"94059000AH","code_commune":"94059","section_courte":"AH"}},{"type":"Feature","geometry":{"type":"MultiPolygon","coordinates":[[[[2.5858037,48.8008469],[2.5872848,48.7976403],[2.5890501,48.7981016],[2.589511,48.7973122],[2.5899287,48.7999219],[2.5937282,48.8010822],[2.593956,48.8014646],[2.5847286,48.8053652],[2.5821997,48.8044506],[2.5820836,48.8033541],[2.5816275,48.8032198],[2.5817256,48.8030539],[2.5817931,48.8030647],[2.5828738,48.8033372],[2.5839548,48.803655],[2.5846122,48.8028683],[2.5858773,48.8009591],[2.5871398,48.8012825],[2.5871824,48.801196],[2.5858037,48.8008469]]]]},"properties":{"code_section":"94059000AI","code_commune":"94059","section_courte":"AI"}},{"type":"Feature","geometry":{"type":"MultiPolygon","coordinates":[[[[2.5820361,48.7941271],[2.5861181,48.7932542],[2.588413,48.7932175],[2.5913841,48.7971288],[2.5921818,48.7994923],[2.5931781,48.8001328],[2.5937282,48.8010822],[2.5899287,48.7999219],[2.589511,48.7973122],[2.5890501,48.7981016],[2.5872848,48.7976403],[2.5858037,48.8008469],[2.5871824,48.801196],[2.5871398,48.8012825],[2.5858773,48.8009591],[2.5846122,48.8028683],[2.5839548,48.803655],[2.5828738,48.8033372],[2.5817931,48.8030647],[2.5817256,48.8030539],[2.5816275,48.8032198],[2.5809552,48.8030271],[2.5774101,48.806008],[2.5742773,48.8064177],[2.5741921,48.8062927],[2.5711079,48.8043635],[2.5713816,48.8033412],[2.5713916,48.8031124],[2.5715398,48.8025459],[2.5709468,48.8022701],[2.5711397,48.8014087],[2.5712658,48.7994876],[2.5713937,48.7991664],[2.5715784,48.7988864],[2.5715506,48.7988753],[2.5716842,48.7983217],[2.5717827,48.7964315],[2.5722338,48.7955434],[2.5750159,48.7954582],[2.5760249,48.793439],[2.5769455,48.7936899],[2.579506,48.7939022],[2.5819536,48.7937444],[2.5820361,48.7941271]]]]},"properties":{"code_section":"94059000AK","code_commune":"94059","section_courte":"AK"}},{"type":"Feature","geometry":{"type":"MultiPolygon","coordinates":[[[[2.5721423,48.8107344],[2.5716311,48.8109333],[2.5713883,48.8110914],[2.5695952,48.8126052],[2.5690516,48.8124992],[2.5687025,48.8125433],[2.5683861,48.8126661],[2.5672574,48.812082],[2.5684335,48.8103619],[2.5683778,48.8102694],[2.565668,48.810495],[2.5651102,48.8075829],[2.569341,48.8070455],[2.5692632,48.8067357],[2.5706776,48.8040896],[2.5722957,48.8051312],[2.5741921,48.8062927],[2.5742773,48.8064177],[2.5774101,48.806008],[2.5723495,48.8102752],[2.5724989,48.8104777],[2.5723257,48.8106566],[2.5721423,48.8107344]]]]},"properties":{"code_section":"94059000AL","code_commune":"94059","section_courte":"AL"}},{"type":"Feature","geometry":{"type":"MultiPolygon","coordinates":[[[[2.5712406,48.8038769],[2.5711079,48.8043635],[2.5706776,48.8040896],[2.5692632,48.8067357],[2.569341,48.8070455],[2.5651102,48.8075829],[2.5651341,48.8078311],[2.5587274,48.8076177],[2.5585178,48.8076296],[2.5584872,48.8076008],[2.5597665,48.8050151],[2.5577026,48.8047169],[2.5580649,48.8036231],[2.5664383,48.8051813],[2.5691538,48.8032176],[2.5709766,48.8021164],[2.5709468,48.8022701],[2.5715398,48.8025459],[2.5712406,48.8038769]]]]},"properties":{"code_section":"94059000AM","code_commune":"94059","section_courte":"AM"}},{"type":"Feature","geometry":{"type":"MultiPolygon","coordinates":[[[[2.5614708,48.8109921],[2.5584733,48.807767],[2.5584535,48.8077417],[2.5585178,48.8076296],[2.5587274,48.8076177],[2.5651341,48.8078311],[2.565668,48.810495],[2.5683778,48.8102694],[2.5684335,48.8103619],[2.5665461,48.8131376],[2.5655388,48.8139436],[2.5650817,48.813607],[2.5650483,48.8132711],[2.564849,48.812808],[2.5643005,48.8123771],[2.5635127,48.8119897],[2.563012,48.8117859],[2.5627938,48.8117113],[2.5620373,48.8115949],[2.5614708,48.8109921]]]]},"properties":{"code_section":"94059000AN","code_commune":"94059","section_courte":"AN"}}]}