{"type":"FeatureCollection","features":[{"type":"Feature","geometry":{"type":"MultiPolygon","coordinates":[[[[2.4959868,48.8519551],[2.495629,48.8527274],[2.4945297,48.8521961],[2.4940334,48.8518684],[2.4933509,48.8516571],[2.4934431,48.8508988],[2.4935983,48.8502809],[2.4935485,48.8497145],[2.4935538,48.8487413],[2.494696,48.8489587],[2.4959313,48.8492511],[2.4961551,48.8494938],[2.4970692,48.8508327],[2.4965782,48.8506503],[2.4959868,48.8519551]]]]},"properties":{"code_section":"940580000A","code_commune":"94058","section_courte":"A"}},{"type":"Feature","geometry":{"type":"MultiPolygon","coordinates":[[[[2.4968069,48.8545226],[2.4967324,48.8542717],[2.496795,48.8541773],[2.4960022,48.8534532],[2.4959828,48.8532808],[2.4960719,48.8531728],[2.4959097,48.8530747],[2.4959242,48.8529757],[2.4959839,48.8529075],[2.495629,48.8527274],[2.4965782,48.8506503],[2.4970692,48.8508327],[2.498624,48.8518681],[2.4996309,48.8527221],[2.4995184,48.8529298],[2.4977241,48.8550689],[2.4976772,48.8550543],[2.4976503,48.8550865],[2.4973214,48.8549736],[2.496827,48.8545902],[2.4968069,48.8545226]]]]},"properties":{"code_section":"940580000B","code_commune":"94058","section_courte":"B"}},{"type":"Feature","geometry":{"type":"MultiPolygon","coordinates":[[[[2.4999498,48.855752],[2.4977241,48.8550689],[2.4995184,48.8529298],[2.4996309,48.8527221],[2.5010183,48.8536989],[2.5031263,48.8550468],[2.5018351,48.8565304],[2.4999779,48.8557161],[2.4999498,48.855752]]]]},"properties":{"code_section":"940580000C","code_commune":"94058","section_courte":"C"}},{"type":"Feature","geometry":{"type":"MultiPolygon","coordinates":[[[[2.5052796,48.8535028],[2.5079625,48.8542158],[2.5072926,48.8546145],[2.5065575,48.8554413],[2.5055627,48.8570703],[2.5054618,48.8571768],[2.5053438,48.8572173],[2.5046861,48.8573006],[2.5031888,48.8571833],[2.5027308,48.8569294],[2.5018351,48.8565304],[2.5031263,48.8550468],[2.502866,48.854877],[2.5035494,48.8547367],[2.5039414,48.8540946],[2.5040117,48.8540795],[2.5043496,48.853544],[2.5045458,48.8533596],[2.5046314,48.8533491],[2.5052796,48.8535028]]]]},"properties":{"code_section":"940580000D","code_commune":"94058","section_courte":"D"}},{"type":"Feature","geometry":{"type":"MultiPolygon","coordinates":[[[[2.5052796,48.8535028],[2.5046314,48.8533491],[2.5045458,48.8533596],[2.5046292,48.8532938],[2.5058752,48.8512969],[2.5118463,48.8524649],[2.5112801,48.8525161],[2.50893,48.853236],[2.5085556,48.8534126],[2.5081121,48.854066],[2.5079625,48.8542158],[2.5052796,48.8535028]]]]},"properties":{"code_section":"940580000E","code_commune":"94058","section_courte":"E"}},{"type":"Feature","geometry":{"type":"MultiPolygon","coordinates":[[[[2.5025691,48.8514278],[2.5021774,48.8519591],[2.5037289,48.8524455],[2.5049541,48.8527754],[2.5046292,48.8532938],[2.5043496,48.853544],[2.5040117,48.8540795],[2.5039414,48.8540946],[2.5035494,48.8547367],[2.502866,48.854877],[2.5003668,48.8532533],[2.4996309,48.8527221],[2.499237,48.852368],[2.4992205,48.8522715],[2.4992109,48.8520363],[2.4992628,48.8519148],[2.4998892,48.8514845],[2.5000604,48.8513043],[2.5004244,48.8507932],[2.5025691,48.8514278]]]]},"properties":{"code_section":"940580000F","code_commune":"94058","section_courte":"F"}},{"type":"Feature","geometry":{"type":"MultiPolygon","coordinates":[[[[2.5058627,48.8508071],[2.5063101,48.850906],[2.5061329,48.8513435],[2.5058752,48.8512969],[2.5049541,48.8527754],[2.5037289,48.8524455],[2.5021774,48.8519591],[2.5025691,48.8514278],[2.5004244,48.8507932],[2.5007953,48.8502892],[2.5003959,48.8501574],[2.5006759,48.8491058],[2.5032329,48.8496256],[2.503986,48.849848],[2.5044597,48.8500231],[2.5058627,48.8508071]]]]},"properties":{"code_section":"940580000G","code_commune":"94058","section_courte":"G"}},{"type":"Feature","geometry":{"type":"MultiPolygon","coordinates":[[[[2.4959313,48.8492511],[2.5003959,48.8501574],[2.5007953,48.8502892],[2.5000604,48.8513043],[2.4998892,48.8514845],[2.4992628,48.8519148],[2.4992109,48.8520363],[2.499237,48.852368],[2.498624,48.8518681],[2.4970692,48.8508327],[2.4961551,48.8494938],[2.4959313,48.8492511]]]]},"properties":{"code_section":"940580000H","code_commune":"94058","section_courte":"H"}},{"type":"Feature","geometry":{"type":"MultiPolygon","coordinates":[[[[2.5006006,48.8479256],[2.5009509,48.8480328],[2.5003959,48.8501574],[2.4959313,48.8492511],[2.4961709,48.8487858],[2.4968128,48.8467919],[2.5006006,48.8479256]]]]},"properties":{"code_section":"940580000I","code_commune":"94058","section_courte":"I"}},{"type":"Feature","geometry":{"type":"MultiPolygon","coordinates":[[[[2.4918831,48.8469045],[2.4923356,48.8456356],[2.4935096,48.8458152],[2.4968128,48.8467919],[2.4961709,48.8487858],[2.4959313,48.8492511],[2.494696,48.8489587],[2.4913778,48.8482904],[2.4918831,48.8469045]]]]},"properties":{"code_section":"940580000J","code_commune":"94058","section_courte":"J"}},{"type":"Feature","geometry":{"type":"MultiPolygon","coordinates":[[[[2.4923478,48.8456032],[2.4930157,48.843741],[2.495103,48.8440254],[2.4976296,48.8444234],[2.4968128,48.8467919],[2.4935096,48.8458152],[2.4923356,48.8456356],[2.4923478,48.8456032]]]]},"properties":{"code_section":"940580000K","code_commune":"94058","section_courte":"K"}},{"type":"Feature","geometry":{"type":"MultiPolygon","coordinates":[[[[2.5007554,48.8454161],[2.5011184,48.8463842],[2.501173,48.8468933],[2.5009509,48.8480328],[2.4968128,48.8467919],[2.4976296,48.8444234],[2.5000861,48.8448839],[2.5002974,48.844953],[2.5008613,48.8452582],[2.5007554,48.8454161]]]]},"properties":{"code_section":"940580000L","code_commune":"94058","section_courte":"L"}},{"type":"Feature","geometry":{"type":"MultiPolygon","coordinates":[[[[2.5028335,48.8461998],[2.5035108,48.8462277],[2.5041751,48.846163],[2.504333,48.848053],[2.503986,48.849848],[2.5032329,48.8496256],[2.5006759,48.8491058],[2.5009509,48.8480328],[2.501173,48.8468933],[2.5011184,48.8463842],[2.5010124,48.8461427],[2.5028335,48.8461998]]]]},"properties":{"code_section":"940580000M","code_commune":"94058","section_courte":"M"}},{"type":"Feature","geometry":{"type":"MultiPolygon","coordinates":[[[[2.5072287,48.8462105],[2.5082999,48.8472564],[2.5085596,48.8479603],[2.5085699,48.8485572],[2.5041798,48.8489171],[2.504333,48.848053],[2.5042353,48.8466238],[2.507045,48.8461957],[2.5072555,48.846123],[2.5072287,48.8462105]]]]},"properties":{"code_section":"940580000N","code_commune":"94058","section_courte":"N"}},{"type":"Feature","geometry":{"type":"MultiPolygon","coordinates":[[[[2.5089683,48.8495908],[2.5094096,48.8500596],[2.5066372,48.8501521],[2.5063101,48.850906],[2.5058627,48.8508071],[2.5044597,48.8500231],[2.503986,48.849848],[2.5041798,48.8489171],[2.5085699,48.8485572],[2.5089683,48.8495908]]]]},"properties":{"code_section":"940580000O","code_commune":"94058","section_courte":"O"}},{"type":"Feature","geometry":{"type":"MultiPolygon","coordinates":[[[[2.5118463,48.8524649],[2.5061329,48.8513435],[2.5066372,48.8501521],[2.5094096,48.8500596],[2.5105735,48.8511205],[2.5119143,48.8524495],[2.5118463,48.8524649]]]]},"properties":{"code_section":"940580000P","code_commune":"94058","section_courte":"P"}},{"type":"Feature","geometry":{"type":"MultiPolygon","coordinates":[[[[2.5132131,48.8502989],[2.5134835,48.8512424],[2.5134387,48.8513586],[2.5122067,48.85231],[2.5121281,48.852423],[2.5119143,48.8524495],[2.5105735,48.8511205],[2.5094096,48.8500596],[2.5089683,48.8495908],[2.5087818,48.8490915],[2.5122351,48.8487236],[2.5132375,48.8497738],[2.513656,48.8501401],[2.5132131,48.8502989]]]]},"properties":{"code_section":"940580000Q","code_commune":"94058","section_courte":"Q"}},{"type":"Feature","geometry":{"type":"MultiPolygon","coordinates":[[[[2.5080678,48.8469058],[2.508988,48.8469456],[2.5089898,48.8469258],[2.5114416,48.8470609],[2.5118506,48.8481189],[2.5122351,48.8487236],[2.5087818,48.8490915],[2.5085699,48.8485572],[2.5085596,48.8479603],[2.5082999,48.8472564],[2.5079562,48.8469186],[2.5080678,48.8469058]]]]},"properties":{"code_section":"940580000R","code_commune":"94058","section_courte":"R"}},{"type":"Feature","geometry":{"type":"MultiPolygon","coordinates":[[[[2.5086334,48.844189],[2.5094012,48.8442613],[2.5093537,48.8445789],[2.5113535,48.8446469],[2.5112315,48.8453788],[2.5113357,48.8464873],[2.5114416,48.8470609],[2.5089898,48.8469258],[2.508988,48.8469456],[2.5079562,48.8469186],[2.5072287,48.8462105],[2.507703,48.8442271],[2.5080566,48.8443278],[2.5082799,48.8443215],[2.5085017,48.8442468],[2.5085636,48.8441807],[2.5086334,48.844189]]]]},"properties":{"code_section":"940580000S","code_commune":"94058","section_courte":"S"}},{"type":"Feature","geometry":{"type":"MultiPolygon","coordinates":[[[[2.5040933,48.8429392],[2.5060981,48.8427612],[2.5058984,48.8436426],[2.507703,48.8442271],[2.5072555,48.846123],[2.507045,48.8461957],[2.5042353,48.8466238],[2.5041751,48.846163],[2.5036228,48.8434716],[2.5034403,48.843261],[2.5037747,48.8429599],[2.5040933,48.8429392]]]]},"properties":{"code_section":"940580000T","code_commune":"94058","section_courte":"T"}},{"type":"Feature","geometry":{"type":"MultiPolygon","coordinates":[[[[2.5028335,48.8461998],[2.5010124,48.8461427],[2.5007554,48.8454161],[2.5008613,48.8452582],[2.501862,48.844479],[2.500917,48.8439463],[2.5026019,48.8425746],[2.5037747,48.8429599],[2.5034403,48.843261],[2.5036228,48.8434716],[2.5041751,48.846163],[2.5035108,48.8462277],[2.5028335,48.8461998]]]]},"properties":{"code_section":"940580000U","code_commune":"94058","section_courte":"U"}},{"type":"Feature","geometry":{"type":"MultiPolygon","coordinates":[[[[2.4987266,48.8421202],[2.4990678,48.8414235],[2.5026019,48.8425746],[2.500917,48.8439463],[2.501862,48.844479],[2.5008613,48.8452582],[2.5002974,48.844953],[2.5000861,48.8448839],[2.4976296,48.8444234],[2.4987266,48.8421202]]]]},"properties":{"code_section":"940580000V","code_commune":"94058","section_courte":"V"}},{"type":"Feature","geometry":{"type":"MultiPolygon","coordinates":[[[[2.4930308,48.8437042],[2.4936373,48.8419787],[2.4963348,48.8417849],[2.4987266,48.8421202],[2.4976296,48.8444234],[2.495103,48.8440254],[2.4930157,48.843741],[2.4930308,48.8437042]]]]},"properties":{"code_section":"940580000X","code_commune":"94058","section_courte":"X"}},{"type":"Feature","geometry":{"type":"MultiPolygon","coordinates":[[[[2.4938107,48.8413516],[2.4940196,48.8403748],[2.4941474,48.8393981],[2.494439,48.8394194],[2.4954976,48.8398292],[2.4961447,48.8399839],[2.4963348,48.8417849],[2.4936373,48.8419787],[2.4938107,48.8413516]]]]},"properties":{"code_section":"940580000Y","code_commune":"94058","section_courte":"Y"}},{"type":"Feature","geometry":{"type":"MultiPolygon","coordinates":[[[[2.4942688,48.8383518],[2.4943498,48.8376776],[2.4950335,48.8376693],[2.4954587,48.8373434],[2.5002519,48.8372913],[2.4992422,48.8394069],[2.4970214,48.8389857],[2.4961016,48.8390421],[2.4961447,48.8399839],[2.4954976,48.8398292],[2.494439,48.8394194],[2.4941474,48.8393981],[2.4942688,48.8383518]]]]},"properties":{"code_section":"940580000Z","code_commune":"94058","section_courte":"Z"}},{"type":"Feature","geometry":{"type":"MultiPolygon","coordinates":[[[[2.4984291,48.8411678],[2.4990678,48.8414235],[2.4987266,48.8421202],[2.4963348,48.8417849],[2.4961447,48.8399839],[2.4961016,48.8390421],[2.4970214,48.8389857],[2.4992422,48.8394069],[2.4984291,48.8411678]]]]},"properties":{"code_section":"94058000AB","code_commune":"94058","section_courte":"AB"}},{"type":"Feature","geometry":{"type":"MultiPolygon","coordinates":[[[[2.5007509,48.8389969],[2.5015405,48.8391567],[2.5014028,48.8394785],[2.5015308,48.8395854],[2.5015335,48.839716],[2.5053056,48.8404408],[2.5034564,48.8428443],[2.4990678,48.8414235],[2.4984291,48.8411678],[2.4995496,48.8387644],[2.5007509,48.8389969]]]]},"properties":{"code_section":"94058000AC","code_commune":"94058","section_courte":"AC"}},{"type":"Feature","geometry":{"type":"MultiPolygon","coordinates":[[[[2.5007509,48.8389969],[2.4995496,48.8387644],[2.5002519,48.8372913],[2.5035376,48.8372641],[2.5063207,48.8382351],[2.5053056,48.8404408],[2.5015335,48.839716],[2.5015308,48.8395854],[2.5014028,48.8394785],[2.5015405,48.8391567],[2.5007509,48.8389969]]]]},"properties":{"code_section":"94058000AD","code_commune":"94058","section_courte":"AD"}},{"type":"Feature","geometry":{"type":"MultiPolygon","coordinates":[[[[2.5104769,48.8396469],[2.5093944,48.8424822],[2.5093007,48.8415858],[2.5092132,48.8413256],[2.5090871,48.8412494],[2.508571,48.8411003],[2.5053056,48.8404408],[2.5063207,48.8382351],[2.5104769,48.8396469]]]]},"properties":{"code_section":"94058000AE","code_commune":"94058","section_courte":"AE"}},{"type":"Feature","geometry":{"type":"MultiPolygon","coordinates":[[[[2.5093757,48.8424837],[2.5037747,48.8429599],[2.5034564,48.8428443],[2.5053056,48.8404408],[2.508571,48.8411003],[2.5090871,48.8412494],[2.5092132,48.8413256],[2.5093007,48.8415858],[2.5093757,48.8424837]]]]},"properties":{"code_section":"94058000AF","code_commune":"94058","section_courte":"AF"}},{"type":"Feature","geometry":{"type":"MultiPolygon","coordinates":[[[[2.5086334,48.844189],[2.5085636,48.8441807],[2.5085017,48.8442468],[2.5082799,48.8443215],[2.5080566,48.8443278],[2.5058984,48.8436426],[2.5060981,48.8427612],[2.5093944,48.8424822],[2.5118565,48.8430134],[2.5115645,48.8437649],[2.5113535,48.8446469],[2.5093537,48.8445789],[2.5094012,48.8442613],[2.5086334,48.844189]]]]},"properties":{"code_section":"94058000AG","code_commune":"94058","section_courte":"AG"}},{"type":"Feature","geometry":{"type":"MultiPolygon","coordinates":[[[[2.5104769,48.8396469],[2.5127735,48.8404164],[2.5125276,48.8409846],[2.5118565,48.8430134],[2.5093944,48.8424822],[2.5104769,48.8396469]]]]},"properties":{"code_section":"94058000AH","code_commune":"94058","section_courte":"AH"}},{"type":"Feature","geometry":{"type":"MultiPolygon","coordinates":[[[[2.5153628,48.8371978],[2.515855,48.8374976],[2.5155056,48.8377305],[2.5146336,48.8382002],[2.5136119,48.8389139],[2.5134386,48.8391029],[2.5131792,48.8395027],[2.5127735,48.8404164],[2.5104769,48.8396469],[2.5116156,48.8383962],[2.5126562,48.8377641],[2.5132497,48.837528],[2.5136144,48.8371517],[2.5152197,48.8371312],[2.5153628,48.8371978]]]]},"properties":{"code_section":"94058000AI","code_commune":"94058","section_courte":"AI"}},{"type":"Feature","geometry":{"type":"MultiPolygon","coordinates":[[[[2.5105265,48.8371788],[2.5136144,48.8371517],[2.5132497,48.837528],[2.5126562,48.8377641],[2.5116156,48.8383962],[2.5104769,48.8396469],[2.5073494,48.8385835],[2.5078131,48.8372083],[2.5105265,48.8371788]]]]},"properties":{"code_section":"94058000AJ","code_commune":"94058","section_courte":"AJ"}},{"type":"Feature","geometry":{"type":"MultiPolygon","coordinates":[[[[2.5104137,48.8345182],[2.5109173,48.837167],[2.5068003,48.8372138],[2.5079239,48.8346844],[2.5104137,48.8345182]]]]},"properties":{"code_section":"94058000AK","code_commune":"94058","section_courte":"AK"}},{"type":"Feature","geometry":{"type":"MultiPolygon","coordinates":[[[[2.5038694,48.8359593],[2.5041294,48.8349052],[2.5079239,48.8346844],[2.5068003,48.8372138],[2.5078131,48.8372083],[2.5073494,48.8385835],[2.5035376,48.8372641],[2.5038694,48.8359593]]]]},"properties":{"code_section":"94058000AL","code_commune":"94058","section_courte":"AL"}},{"type":"Feature","geometry":{"type":"MultiPolygon","coordinates":[[[[2.4986591,48.8352361],[2.5041294,48.8349052],[2.5035376,48.8372641],[2.5006247,48.8372879],[2.5006951,48.8366155],[2.4998458,48.8359375],[2.4987278,48.8354094],[2.4986591,48.8352361]]]]},"properties":{"code_section":"94058000AM","code_commune":"94058","section_courte":"AM"}},{"type":"Feature","geometry":{"type":"MultiPolygon","coordinates":[[[[2.4948605,48.8354758],[2.4986591,48.8352361],[2.4987278,48.8354094],[2.4998458,48.8359375],[2.5006951,48.8366155],[2.5006247,48.8372879],[2.4954587,48.8373434],[2.4950335,48.8376693],[2.4943498,48.8376776],[2.4945487,48.8362843],[2.49479,48.8354825],[2.4948605,48.8354758]]]]},"properties":{"code_section":"94058000AN","code_commune":"94058","section_courte":"AN"}},{"type":"Feature","geometry":{"type":"MultiPolygon","coordinates":[[[[2.4971792,48.8331779],[2.4972263,48.8333773],[2.4982903,48.8332293],[2.4984983,48.8338174],[2.49992,48.8332362],[2.500211,48.8331917],[2.5005287,48.8351115],[2.49479,48.8354825],[2.4952212,48.8345373],[2.4960251,48.8332705],[2.4971792,48.8331779]]]]},"properties":{"code_section":"94058000AO","code_commune":"94058","section_courte":"AO"}},{"type":"Feature","geometry":{"type":"MultiPolygon","coordinates":[[[[2.5017389,48.8316131],[2.5028146,48.8314489],[2.5035772,48.8312636],[2.5041294,48.8349052],[2.5005287,48.8351115],[2.5001181,48.8325975],[2.5004342,48.8325301],[2.5002177,48.8319653],[2.5017389,48.8316131]]]]},"properties":{"code_section":"94058000AP","code_commune":"94058","section_courte":"AP"}},{"type":"Feature","geometry":{"type":"MultiPolygon","coordinates":[[[[2.5037756,48.8326608],[2.503766,48.8326125],[2.5100091,48.8323802],[2.5104137,48.8345182],[2.5041294,48.8349052],[2.5037756,48.8326608]]]]},"properties":{"code_section":"94058000AQ","code_commune":"94058","section_courte":"AQ"}},{"type":"Feature","geometry":{"type":"MultiPolygon","coordinates":[[[[2.5143139,48.8329882],[2.5139858,48.8336998],[2.5140743,48.834314],[2.5143289,48.8344513],[2.5129236,48.8355785],[2.5106227,48.8355968],[2.5100091,48.8323802],[2.5120379,48.8326385],[2.5143139,48.8329882]]]]},"properties":{"code_section":"94058000AR","code_commune":"94058","section_courte":"AR"}},{"type":"Feature","geometry":{"type":"MultiPolygon","coordinates":[[[[2.5148263,48.8349798],[2.5147972,48.8350715],[2.5153981,48.8353236],[2.5136144,48.8371517],[2.5109173,48.837167],[2.5106227,48.8355968],[2.5129236,48.8355785],[2.514204,48.8345669],[2.5148509,48.8349108],[2.5148263,48.8349798]]]]},"properties":{"code_section":"94058000AS","code_commune":"94058","section_courte":"AS"}},{"type":"Feature","geometry":{"type":"MultiPolygon","coordinates":[[[[2.5148139,48.83502],[2.5148509,48.8349108],[2.514204,48.8345669],[2.5143289,48.8344513],[2.5140743,48.834314],[2.5175772,48.8341336],[2.5176018,48.8344578],[2.5175596,48.834793],[2.5172455,48.8353479],[2.5170687,48.8359589],[2.5168935,48.8363747],[2.5165483,48.836855],[2.515855,48.8374976],[2.5152197,48.8371312],[2.5136144,48.8371517],[2.5153981,48.8353236],[2.5147972,48.8350715],[2.5148139,48.83502]]]]},"properties":{"code_section":"94058000AT","code_commune":"94058","section_courte":"AT"}},{"type":"Feature","geometry":{"type":"MultiPolygon","coordinates":[[[[2.5147808,48.8321184],[2.5149845,48.8318112],[2.5155671,48.8310942],[2.5161916,48.8314979],[2.5163843,48.8316821],[2.5166591,48.832043],[2.5171168,48.8328895],[2.5175269,48.8338695],[2.5175772,48.8341336],[2.5140743,48.834314],[2.5139858,48.8336998],[2.5145554,48.8324624],[2.5147808,48.8321184]]]]},"properties":{"code_section":"94058000AU","code_commune":"94058","section_courte":"AU"}},{"type":"Feature","geometry":{"type":"MultiPolygon","coordinates":[[[[2.5147518,48.8321631],[2.5145554,48.8324624],[2.5143139,48.8329882],[2.5120379,48.8326385],[2.5130744,48.8298383],[2.5143972,48.830397],[2.5155671,48.8310942],[2.5149845,48.8318112],[2.5147518,48.8321631]]]]},"properties":{"code_section":"94058000AV","code_commune":"94058","section_courte":"AV"}},{"type":"Feature","geometry":{"type":"MultiPolygon","coordinates":[[[[2.5100091,48.8323802],[2.5094931,48.8297547],[2.5107695,48.8293922],[2.5113237,48.829357],[2.5119938,48.8294553],[2.5130744,48.8298383],[2.5120379,48.8326385],[2.5100091,48.8323802]]]]},"properties":{"code_section":"94058000AX","code_commune":"94058","section_courte":"AX"}},{"type":"Feature","geometry":{"type":"MultiPolygon","coordinates":[[[[2.5035772,48.8312636],[2.503659,48.8307843],[2.5039903,48.8307508],[2.5049589,48.8304369],[2.5057219,48.8302783],[2.5064521,48.8301978],[2.5076173,48.8302769],[2.5083228,48.8302147],[2.5086305,48.8301169],[2.5090656,48.8298978],[2.5094931,48.8297547],[2.5100091,48.8323802],[2.503766,48.8326125],[2.5035772,48.8312636]]]]},"properties":{"code_section":"94058000AY","code_commune":"94058","section_courte":"AY"}},{"type":"Feature","geometry":{"type":"MultiPolygon","coordinates":[[[[2.5003381,48.831941],[2.4998173,48.8305038],[2.5007576,48.8302646],[2.5017074,48.8301677],[2.5044171,48.8297527],[2.5049984,48.8296868],[2.504795,48.8298018],[2.5042878,48.8302423],[2.5041584,48.8303965],[2.5039903,48.8307508],[2.503659,48.8307843],[2.5035772,48.8312636],[2.5028146,48.8314489],[2.5017389,48.8316131],[2.5003381,48.831941]]]]},"properties":{"code_section":"94058000AZ","code_commune":"94058","section_courte":"AZ"}},{"type":"Feature","geometry":{"type":"MultiPolygon","coordinates":[[[[2.4971792,48.8331779],[2.4960251,48.8332705],[2.4976346,48.8308196],[2.4983724,48.8307632],[2.4998173,48.8305038],[2.5003381,48.831941],[2.5002177,48.8319653],[2.5004342,48.8325301],[2.5001181,48.8325975],[2.500211,48.8331917],[2.49992,48.8332362],[2.4984983,48.8338174],[2.4982903,48.8332293],[2.4972263,48.8333773],[2.4971792,48.8331779]]]]},"properties":{"code_section":"94058000BC","code_commune":"94058","section_courte":"BC"}}]}