{"type":"FeatureCollection","features":[{"type":"Feature","geometry":{"type":"MultiPolygon","coordinates":[[[[2.5152032,48.7834766],[2.5151579,48.7833035],[2.512554,48.7812822],[2.5123305,48.7810617],[2.5122789,48.7809225],[2.5208413,48.7808644],[2.5223821,48.7820313],[2.5198793,48.7834786],[2.5201588,48.7836841],[2.518959,48.7842159],[2.5180788,48.7846976],[2.5186029,48.7850936],[2.5179345,48.785449],[2.5161644,48.7840922],[2.5153872,48.783806],[2.51527,48.7836836],[2.5152032,48.7834766]]]]},"properties":{"code_section":"94055000AD","code_commune":"94055","section_courte":"AD"}},{"type":"Feature","geometry":{"type":"MultiPolygon","coordinates":[[[[2.5284025,48.7856149],[2.5256411,48.7834186],[2.5248181,48.783897],[2.5208413,48.7808644],[2.5283957,48.7807954],[2.5287984,48.7808359],[2.5329356,48.7825857],[2.530568,48.7866683],[2.5306085,48.7867775],[2.528973,48.7860193],[2.52875,48.7858922],[2.5284025,48.7856149]]]]},"properties":{"code_section":"94055000AE","code_commune":"94055","section_courte":"AE"}},{"type":"Feature","geometry":{"type":"MultiPolygon","coordinates":[[[[2.5377873,48.7846512],[2.5392955,48.7852956],[2.5325804,48.7921993],[2.530568,48.7866683],[2.5329356,48.7825857],[2.5377873,48.7846512]]]]},"properties":{"code_section":"94055000AH","code_commune":"94055","section_courte":"AH"}},{"type":"Feature","geometry":{"type":"MultiPolygon","coordinates":[[[[2.5410188,48.7912684],[2.5394426,48.7912607],[2.5391734,48.791229],[2.5391526,48.7911667],[2.5325804,48.7921993],[2.5382305,48.7863879],[2.5395751,48.787246],[2.5406396,48.7909284],[2.5425139,48.7899481],[2.5426082,48.7900276],[2.5424997,48.7910481],[2.5411966,48.7912653],[2.5410188,48.7912684]]]]},"properties":{"code_section":"94055000AI","code_commune":"94055","section_courte":"AI"}},{"type":"Feature","geometry":{"type":"MultiPolygon","coordinates":[[[[2.5447531,48.7906962],[2.5444735,48.7907035],[2.5424997,48.7910481],[2.5426082,48.7900276],[2.5425139,48.7899481],[2.5406396,48.7909284],[2.5395751,48.787246],[2.5382305,48.7863879],[2.5392955,48.7852956],[2.5489197,48.7893913],[2.5491905,48.7906872],[2.5481041,48.7907254],[2.5461984,48.791387],[2.546097,48.7906623],[2.5447531,48.7906962]]]]},"properties":{"code_section":"94055000AK","code_commune":"94055","section_courte":"AK"}},{"type":"Feature","geometry":{"type":"MultiPolygon","coordinates":[[[[2.5467004,48.7934383],[2.5463697,48.7925369],[2.5461984,48.791387],[2.5481041,48.7907254],[2.5491905,48.7906872],[2.5489197,48.7893913],[2.5552133,48.7920816],[2.5482567,48.7969963],[2.5476888,48.7968995],[2.5477395,48.796305],[2.5472745,48.7950161],[2.5469457,48.7942555],[2.5467004,48.7934383]]]]},"properties":{"code_section":"94055000AL","code_commune":"94055","section_courte":"AL"}},{"type":"Feature","geometry":{"type":"MultiPolygon","coordinates":[[[[2.553371,48.7967618],[2.5533262,48.7980354],[2.5534939,48.7981967],[2.5535006,48.7982735],[2.5474418,48.7975361],[2.5482567,48.7969963],[2.5544497,48.792641],[2.5557498,48.7944437],[2.5539333,48.7947504],[2.5535211,48.7953164],[2.5534987,48.795644],[2.5534464,48.7956318],[2.553371,48.7967618]]]]},"properties":{"code_section":"94055000AM","code_commune":"94055","section_courte":"AM"}},{"type":"Feature","geometry":{"type":"MultiPolygon","coordinates":[[[[2.5618222,48.7878196],[2.561959,48.7878661],[2.5616111,48.7882717],[2.5612069,48.7886708],[2.5607845,48.788985],[2.5601316,48.7893519],[2.558223,48.7901709],[2.5575521,48.7905072],[2.5567451,48.7909954],[2.5552133,48.7920816],[2.545978,48.7881331],[2.5490457,48.7865298],[2.5483685,48.7862884],[2.5481686,48.786173],[2.5434181,48.7846632],[2.5423246,48.7848296],[2.5420127,48.7848475],[2.5408181,48.7845242],[2.5398342,48.7855225],[2.5374687,48.7845085],[2.537626,48.7843667],[2.5397817,48.779824],[2.540644,48.7804015],[2.5408786,48.7809432],[2.5410963,48.7808879],[2.5413714,48.7809291],[2.5424675,48.7814032],[2.5428712,48.7813666],[2.54312,48.7814108],[2.5432274,48.7815039],[2.5433887,48.7817945],[2.5445082,48.782301],[2.5446133,48.7824837],[2.5445798,48.7825142],[2.5448071,48.7825141],[2.5457584,48.7822789],[2.5461099,48.7822673],[2.547172,48.7823977],[2.5481362,48.7823335],[2.5489688,48.7823241],[2.5495358,48.782277],[2.5497392,48.7823596],[2.5503713,48.7827601],[2.5517181,48.783042],[2.5538209,48.7833337],[2.5539419,48.7833884],[2.5545546,48.783877],[2.555253,48.7844789],[2.55547,48.7847813],[2.5558093,48.7851269],[2.5560864,48.7855547],[2.5564754,48.7857584],[2.5567622,48.7860276],[2.5573173,48.7864256],[2.5585047,48.7867848],[2.5586414,48.7868021],[2.5592782,48.7870329],[2.560456,48.7873761],[2.5608089,48.7875203],[2.5618222,48.7878196]]]]},"properties":{"code_section":"94055000AN","code_commune":"94055","section_courte":"AN"}},{"type":"Feature","geometry":{"type":"MultiPolygon","coordinates":[[[[2.5443406,48.787436],[2.5398342,48.7855225],[2.5408181,48.7845242],[2.5420127,48.7848475],[2.5423246,48.7848296],[2.5434181,48.7846632],[2.5481686,48.786173],[2.5483685,48.7862884],[2.5490457,48.7865298],[2.545978,48.7881331],[2.5443406,48.787436]]]]},"properties":{"code_section":"94055000AP","code_commune":"94055","section_courte":"AP"}},{"type":"Feature","geometry":{"type":"MultiPolygon","coordinates":[[[[2.5340418,48.7769999],[2.5345814,48.7770675],[2.5347201,48.7769482],[2.534892,48.7769061],[2.5352601,48.7770176],[2.53607,48.7770673],[2.5361826,48.7771873],[2.5363867,48.7772915],[2.5365297,48.7774318],[2.5371484,48.7778326],[2.5376763,48.7781607],[2.538055,48.7783194],[2.5380399,48.7783779],[2.5378609,48.7784533],[2.5378376,48.7786016],[2.5378523,48.778697],[2.5379044,48.7787478],[2.5381613,48.7789048],[2.5384422,48.7790125],[2.5386664,48.7791826],[2.5391152,48.7794238],[2.539156,48.7795912],[2.5394129,48.779721],[2.5397817,48.779824],[2.537626,48.7843667],[2.5374687,48.7845085],[2.5313473,48.7819098],[2.5318986,48.780957],[2.5320442,48.7809933],[2.5330813,48.7785758],[2.5318589,48.7781626],[2.5320788,48.7779264],[2.5331673,48.7782916],[2.53333,48.7778921],[2.5325321,48.7774078],[2.5323447,48.7773919],[2.5322139,48.7773134],[2.5322776,48.7771999],[2.5322093,48.7771501],[2.5319575,48.7771517],[2.5320251,48.7769742],[2.5317861,48.7768371],[2.5317986,48.7767838],[2.5318662,48.7766702],[2.5320991,48.7768081],[2.5321586,48.7769125],[2.5322241,48.7769255],[2.5322808,48.776925],[2.5322958,48.7768203],[2.5323608,48.7767842],[2.5325824,48.7769092],[2.532702,48.776925],[2.5333567,48.776989],[2.5340418,48.7769999]]]]},"properties":{"code_section":"94055000AR","code_commune":"94055","section_courte":"AR"}},{"type":"Feature","geometry":{"type":"MultiPolygon","coordinates":[[[[2.5273108,48.777303],[2.5272113,48.7773856],[2.527189,48.7774779],[2.5272723,48.7775872],[2.5273082,48.7777589],[2.5275168,48.7779423],[2.5275666,48.7781183],[2.5279011,48.7780912],[2.5283089,48.7782284],[2.5284193,48.7780865],[2.528523,48.7780746],[2.5287082,48.7781332],[2.5289049,48.7781431],[2.5289726,48.7782847],[2.5292265,48.778263],[2.5297029,48.7779761],[2.5297124,48.7779393],[2.5297105,48.7779076],[2.5294558,48.7778203],[2.5294813,48.7777167],[2.5294032,48.7776575],[2.5293962,48.7776029],[2.5295906,48.7775946],[2.5296892,48.7775545],[2.5296424,48.7773674],[2.5297563,48.777353],[2.5299674,48.7774454],[2.5300183,48.7774161],[2.5301086,48.7772981],[2.5298433,48.7772265],[2.5301946,48.7770559],[2.5304018,48.7770173],[2.5304219,48.7769745],[2.5302858,48.7769208],[2.5302907,48.776888],[2.5305296,48.7768499],[2.5305885,48.776809],[2.5304488,48.7766971],[2.5305324,48.7766257],[2.530515,48.7764719],[2.5309654,48.7764366],[2.5310165,48.7764657],[2.5309774,48.7766252],[2.5310783,48.7766438],[2.5311823,48.7765442],[2.5313039,48.7765508],[2.5313331,48.7765662],[2.5312659,48.7766906],[2.5313425,48.7767347],[2.5317165,48.7766559],[2.5318662,48.7766702],[2.5317861,48.7768371],[2.5320251,48.7769742],[2.5319575,48.7771517],[2.5322093,48.7771501],[2.5322776,48.7771999],[2.5322139,48.7773134],[2.5323447,48.7773919],[2.5325321,48.7774078],[2.53333,48.7778921],[2.5331673,48.7782916],[2.5320788,48.7779264],[2.5318498,48.7781712],[2.5299571,48.7797081],[2.5277035,48.7795346],[2.5275565,48.7797162],[2.5273806,48.7797122],[2.5269522,48.7796058],[2.5263388,48.7793777],[2.5259223,48.7790343],[2.5253729,48.7784725],[2.5251532,48.7783373],[2.5242745,48.7780964],[2.5234029,48.7780031],[2.5223557,48.7780294],[2.5221165,48.778062],[2.5214261,48.7782537],[2.5210177,48.7778001],[2.5206131,48.7771022],[2.5202527,48.7767718],[2.5203467,48.7767546],[2.5208317,48.7767809],[2.5222111,48.7769289],[2.5236302,48.7767319],[2.5240275,48.7768073],[2.5256383,48.776921],[2.5262827,48.7770351],[2.5267491,48.7770577],[2.5270985,48.7772168],[2.5272957,48.7772457],[2.5273108,48.777303]]]]},"properties":{"code_section":"94055000AS","code_commune":"94055","section_courte":"AS"}},{"type":"Feature","geometry":{"type":"MultiPolygon","coordinates":[[[[2.524947,48.7782645],[2.5251532,48.7783373],[2.5253729,48.7784725],[2.5259223,48.7790343],[2.5263388,48.7793777],[2.5269522,48.7796058],[2.5273806,48.7797122],[2.5275565,48.7797162],[2.5277035,48.7795346],[2.5299571,48.7797081],[2.5318589,48.7781626],[2.5330813,48.7785758],[2.5320442,48.7809933],[2.5318986,48.780957],[2.5313473,48.7819098],[2.5287984,48.7808359],[2.5283957,48.7807954],[2.5196044,48.7808724],[2.5225989,48.7795805],[2.5221461,48.7790135],[2.5214261,48.7782537],[2.5221165,48.778062],[2.5223557,48.7780294],[2.5234029,48.7780031],[2.5242745,48.7780964],[2.524947,48.7782645]]]]},"properties":{"code_section":"94055000AT","code_commune":"94055","section_courte":"AT"}}]}