{"type":"FeatureCollection","features":[{"type":"Feature","geometry":{"type":"MultiPolygon","coordinates":[[[[2.5743189,48.6971428],[2.5728916,48.6979762],[2.573406,48.6983735],[2.5727626,48.6985246],[2.5721189,48.6987763],[2.5744582,48.7007032],[2.5742431,48.7008351],[2.5735938,48.701358],[2.572213,48.7022926],[2.5710996,48.7028488],[2.5703474,48.7031487],[2.5700412,48.703497],[2.5707981,48.7038966],[2.5702502,48.7045647],[2.5704599,48.7046714],[2.568645,48.7071773],[2.5685922,48.7071611],[2.5685719,48.7071937],[2.5676543,48.7068669],[2.5673107,48.7066798],[2.5669612,48.7064374],[2.5645284,48.7043123],[2.5618131,48.7025779],[2.5613492,48.7023648],[2.5608726,48.7022203],[2.5601867,48.7020932],[2.5585672,48.7019234],[2.5581508,48.7018152],[2.5577346,48.7016101],[2.5565839,48.7008243],[2.5552299,48.7000036],[2.5547656,48.6996754],[2.5543061,48.6992728],[2.55321,48.6981738],[2.5521331,48.6972313],[2.5545209,48.6959787],[2.5550722,48.6956383],[2.555613,48.6952323],[2.5570504,48.69388],[2.557947,48.6931218],[2.5583293,48.6928691],[2.5584886,48.6928085],[2.5586625,48.6927987],[2.5597228,48.693134],[2.5616201,48.6936238],[2.5622821,48.6937676],[2.5634258,48.6939954],[2.5681594,48.6947527],[2.5707098,48.6950269],[2.572387,48.6954106],[2.5738707,48.6958611],[2.5745456,48.6960244],[2.5754615,48.6961924],[2.574675,48.6968728],[2.5743702,48.6970653],[2.5743189,48.6971428]]]]},"properties":{"code_section":"94056000AA","code_commune":"94056","section_courte":"AA"}},{"type":"Feature","geometry":{"type":"MultiPolygon","coordinates":[[[[2.5453863,48.6992383],[2.544381,48.6987734],[2.5443353,48.69879],[2.5441616,48.6986149],[2.5442346,48.6985815],[2.54413,48.6983541],[2.543842,48.6980324],[2.543523,48.6977069],[2.5424335,48.69678],[2.5426391,48.6966372],[2.5428967,48.696358],[2.5435563,48.6952336],[2.543767,48.6946295],[2.5439114,48.6945202],[2.5439925,48.6945112],[2.5441185,48.6945479],[2.5444616,48.6947464],[2.5452888,48.6950857],[2.5466745,48.6953303],[2.5478736,48.6956383],[2.5491486,48.6950357],[2.5496246,48.6948714],[2.5501083,48.6953278],[2.5505072,48.6955389],[2.5511153,48.6953941],[2.5523584,48.6957371],[2.552748,48.6960146],[2.5540508,48.6962275],[2.5521331,48.6972313],[2.55321,48.6981738],[2.5531729,48.6981928],[2.5507759,48.6990084],[2.5496339,48.6989879],[2.5485839,48.6989316],[2.5480999,48.6989484],[2.546885,48.6991318],[2.5458184,48.6994386],[2.5453863,48.6992383]]]]},"properties":{"code_section":"94056000AB","code_commune":"94056","section_courte":"AB"}},{"type":"Feature","geometry":{"type":"MultiPolygon","coordinates":[[[[2.5538595,48.6917206],[2.5542785,48.6918954],[2.554964,48.6918851],[2.5579218,48.6931507],[2.5570504,48.69388],[2.555613,48.6952323],[2.5550722,48.6956383],[2.5540508,48.6962275],[2.552748,48.6960146],[2.5523584,48.6957371],[2.5511153,48.6953941],[2.5505072,48.6955389],[2.5501083,48.6953278],[2.5496246,48.6948714],[2.5491486,48.6950357],[2.5478736,48.6956383],[2.5467336,48.6953547],[2.5466745,48.6953303],[2.5465295,48.694418],[2.5466288,48.6937876],[2.5456278,48.6936197],[2.5452373,48.6935866],[2.5453938,48.6931185],[2.5458896,48.693199],[2.5461017,48.6931862],[2.5469144,48.6928761],[2.5484896,48.6925467],[2.5486003,48.6924847],[2.5488501,48.6922076],[2.5489596,48.6921434],[2.549135,48.6919485],[2.5492694,48.6917242],[2.5494981,48.6916335],[2.5498886,48.6916883],[2.5503826,48.691257],[2.5507973,48.6907106],[2.5509,48.6906267],[2.5514237,48.690845],[2.5516675,48.690858],[2.5518758,48.6909801],[2.5519715,48.6909832],[2.5521654,48.6909332],[2.5523723,48.6909397],[2.5528729,48.69107],[2.5533468,48.6913252],[2.5538595,48.6917206]]]]},"properties":{"code_section":"94056000AC","code_commune":"94056","section_courte":"AC"}},{"type":"Feature","geometry":{"type":"MultiPolygon","coordinates":[[[[2.5538595,48.6917206],[2.5533468,48.6913252],[2.5528729,48.69107],[2.5523723,48.6909397],[2.5521654,48.6909332],[2.5519715,48.6909832],[2.5518758,48.6909801],[2.5516675,48.690858],[2.5514237,48.690845],[2.5509,48.6906267],[2.5510955,48.6904597],[2.5511182,48.6903818],[2.5510999,48.6902573],[2.5509994,48.6901171],[2.5506555,48.6898433],[2.5502857,48.6896269],[2.5489464,48.6890647],[2.5490277,48.6889596],[2.549984,48.6884472],[2.5504776,48.6883922],[2.5505034,48.6884289],[2.5512309,48.6884648],[2.551424,48.6884502],[2.5514313,48.6884902],[2.552431,48.6884354],[2.5539346,48.6883069],[2.5538244,48.6881055],[2.55367,48.68763],[2.5550266,48.6876152],[2.554861,48.6884166],[2.5549159,48.6884723],[2.5608009,48.6895951],[2.5611651,48.6896375],[2.5610411,48.6906901],[2.5606757,48.6906534],[2.5593413,48.6930155],[2.5586625,48.6927987],[2.5584886,48.6928085],[2.5583293,48.6928691],[2.5579218,48.6931507],[2.554964,48.6918851],[2.5542785,48.6918954],[2.5538595,48.6917206]]]]},"properties":{"code_section":"94056000AD","code_commune":"94056","section_courte":"AD"}},{"type":"Feature","geometry":{"type":"MultiPolygon","coordinates":[[[[2.5715928,48.6929125],[2.5715865,48.6933986],[2.5707098,48.6950269],[2.5681594,48.6947527],[2.5634258,48.6939954],[2.5616201,48.6936238],[2.5593413,48.6930155],[2.5606757,48.6906534],[2.5617255,48.6907569],[2.5617341,48.6908088],[2.5628477,48.690959],[2.5642737,48.6910212],[2.5658385,48.691035],[2.5661341,48.691774],[2.5697082,48.6918945],[2.5697039,48.6916528],[2.5717628,48.6920031],[2.5715958,48.6927429],[2.5715928,48.6929125]]]]},"properties":{"code_section":"94056000AE","code_commune":"94056","section_courte":"AE"}},{"type":"Feature","geometry":{"type":"MultiPolygon","coordinates":[[[[2.5743189,48.6971428],[2.5743702,48.6970653],[2.574675,48.6968728],[2.5754615,48.6961924],[2.5757902,48.6962581],[2.5756777,48.6971796],[2.5815727,48.6974367],[2.5756752,48.7000628],[2.5744582,48.7007032],[2.5721189,48.6987763],[2.5727626,48.6985246],[2.573406,48.6983735],[2.5728916,48.6979762],[2.5743189,48.6971428]]]]},"properties":{"code_section":"94056000AH","code_commune":"94056","section_courte":"AH"}},{"type":"Feature","geometry":{"type":"MultiPolygon","coordinates":[[[[2.5795816,48.6969983],[2.5802312,48.6970511],[2.5816508,48.6973899],[2.5815727,48.6974367],[2.5756777,48.6971796],[2.5757902,48.6962581],[2.5766206,48.6964333],[2.5783732,48.696871],[2.5789382,48.6969598],[2.5795816,48.6969983]]]]},"properties":{"code_section":"94056000YA","code_commune":"94056","section_courte":"YA"}}]}