{"type":"FeatureCollection","features":[{"type":"Feature","geometry":{"type":"MultiPolygon","coordinates":[[[[2.3821488,48.7482721],[2.3812669,48.7483995],[2.3778037,48.7492854],[2.3773987,48.7493245],[2.3770657,48.7493184],[2.3763288,48.7491903],[2.3742273,48.7483842],[2.3744994,48.7462527],[2.3804601,48.7462959],[2.3816954,48.7462581],[2.3821973,48.7461376],[2.3829588,48.7456288],[2.3831328,48.7455438],[2.3836266,48.7454332],[2.3845961,48.7453657],[2.3870198,48.7453802],[2.3881559,48.7452245],[2.3880607,48.7470182],[2.3881382,48.7470373],[2.3877594,48.7481223],[2.3865554,48.7486244],[2.3855895,48.7493065],[2.3856044,48.7494042],[2.3846578,48.7496519],[2.3841093,48.7487276],[2.3826432,48.7491078],[2.3821488,48.7482721]]]]},"properties":{"code_section":"940540000A","code_commune":"94054","section_courte":"A"}},{"type":"Feature","geometry":{"type":"MultiPolygon","coordinates":[[[[2.369805,48.7403224],[2.3736579,48.7405785],[2.3777653,48.746274],[2.3744994,48.7462527],[2.3692898,48.7461392],[2.3696309,48.7403131],[2.369805,48.7403224]]]]},"properties":{"code_section":"940540000B","code_commune":"94054","section_courte":"B"}},{"type":"Feature","geometry":{"type":"MultiPolygon","coordinates":[[[[2.3864568,48.7429413],[2.386552,48.7446842],[2.3866373,48.7446817],[2.3866511,48.7448815],[2.3865423,48.7448797],[2.386575,48.7453745],[2.3845961,48.7453657],[2.3836266,48.7454332],[2.3831328,48.7455438],[2.3829588,48.7456288],[2.3821973,48.7461376],[2.3816954,48.7462581],[2.3804601,48.7462959],[2.3777653,48.746274],[2.3742362,48.7413786],[2.3758889,48.7408584],[2.3755614,48.7404112],[2.3782614,48.7404517],[2.3781008,48.7419518],[2.3804374,48.7423759],[2.3806772,48.7425079],[2.380804,48.7413371],[2.3836493,48.7415925],[2.383639,48.7428178],[2.3864502,48.7428193],[2.3864568,48.7429413]]]]},"properties":{"code_section":"940540000C","code_commune":"94054","section_courte":"C"}},{"type":"Feature","geometry":{"type":"MultiPolygon","coordinates":[[[[2.380714,48.7372396],[2.3826564,48.7374704],[2.3822827,48.7390462],[2.3810412,48.7389679],[2.3807907,48.7402596],[2.3809211,48.7402794],[2.3806772,48.7425079],[2.3804374,48.7423759],[2.3781008,48.7419518],[2.3782614,48.7404517],[2.3755614,48.7404112],[2.3758889,48.7408584],[2.3742362,48.7413786],[2.3736579,48.7405785],[2.3696309,48.7403131],[2.3699159,48.7354428],[2.3700906,48.7354454],[2.3700858,48.7354924],[2.3732393,48.7357024],[2.3736173,48.7357543],[2.3781496,48.7368996],[2.380714,48.7372396]]]]},"properties":{"code_section":"940540000D","code_commune":"94054","section_courte":"D"}},{"type":"Feature","geometry":{"type":"MultiPolygon","coordinates":[[[[2.3831949,48.7375439],[2.3781496,48.7368996],[2.3736173,48.7357543],[2.3732393,48.7357024],[2.3700858,48.7354924],[2.3700906,48.7354454],[2.3699159,48.7354428],[2.3703228,48.7279163],[2.371231,48.7279392],[2.3724084,48.7278857],[2.3749972,48.727609],[2.3757191,48.7275611],[2.3763038,48.7275798],[2.3795885,48.7280502],[2.3797844,48.7292943],[2.382289,48.7292337],[2.3823322,48.7296929],[2.3849689,48.7298488],[2.3850344,48.7314685],[2.3851956,48.7314614],[2.3850807,48.7326525],[2.3878026,48.7327284],[2.3878561,48.7343871],[2.3892214,48.7344479],[2.3890714,48.7363003],[2.3867348,48.7385084],[2.3838855,48.7376664],[2.3831949,48.7375439]]]]},"properties":{"code_section":"940540000E","code_commune":"94054","section_courte":"E"}},{"type":"Feature","geometry":{"type":"MultiPolygon","coordinates":[[[[2.3831949,48.7375439],[2.3838855,48.7376664],[2.3867348,48.7385084],[2.388357,48.7369831],[2.3911876,48.7373178],[2.391138,48.7376149],[2.3936703,48.7375465],[2.3939208,48.7401339],[2.3939183,48.7407764],[2.3932212,48.740481],[2.3928004,48.7403894],[2.3907527,48.7401067],[2.3872134,48.740274],[2.3870649,48.7403116],[2.3863312,48.7406971],[2.3861231,48.7406981],[2.3839484,48.7418762],[2.3836514,48.7418696],[2.3836493,48.7415925],[2.380804,48.7413371],[2.3809211,48.7402794],[2.3807907,48.7402596],[2.3810412,48.7389679],[2.3822827,48.7390462],[2.3826564,48.7374704],[2.3831949,48.7375439]]]]},"properties":{"code_section":"940540000F","code_commune":"94054","section_courte":"F"}},{"type":"Feature","geometry":{"type":"MultiPolygon","coordinates":[[[[2.3871241,48.7428202],[2.383639,48.7428178],[2.3836514,48.7418696],[2.3839484,48.7418762],[2.3861231,48.7406981],[2.3863312,48.7406971],[2.3870649,48.7403116],[2.3872134,48.740274],[2.3888327,48.7402077],[2.3887295,48.7430418],[2.3873713,48.7430283],[2.3873763,48.7428239],[2.3871241,48.7428202]]]]},"properties":{"code_section":"940540000G","code_commune":"94054","section_courte":"G"}},{"type":"Feature","geometry":{"type":"MultiPolygon","coordinates":[[[[2.3935056,48.7420508],[2.391948,48.7417544],[2.3915306,48.742855],[2.3887295,48.7430418],[2.3888327,48.7402077],[2.3907527,48.7401067],[2.3928004,48.7403894],[2.3932212,48.740481],[2.3940252,48.7408288],[2.3935056,48.7420508]]]]},"properties":{"code_section":"940540000H","code_commune":"94054","section_courte":"H"}},{"type":"Feature","geometry":{"type":"MultiPolygon","coordinates":[[[[2.3902033,48.7433084],[2.3901429,48.7433121],[2.390127,48.7437171],[2.3900504,48.7437218],[2.3900087,48.7449352],[2.3872805,48.7453613],[2.386575,48.7453745],[2.3865423,48.7448797],[2.3866511,48.7448815],[2.3866373,48.7446817],[2.386552,48.7446842],[2.3864502,48.7428193],[2.3873763,48.7428239],[2.3873713,48.7430283],[2.3887295,48.7430418],[2.3915306,48.742855],[2.39139,48.7432253],[2.3902033,48.7433084]]]]},"properties":{"code_section":"940540000I","code_commune":"94054","section_courte":"I"}},{"type":"Feature","geometry":{"type":"MultiPolygon","coordinates":[[[[2.3941174,48.7424703],[2.3946323,48.7426222],[2.3946675,48.7426566],[2.3943942,48.7428074],[2.3942228,48.7430064],[2.3939697,48.7439357],[2.3939769,48.7440704],[2.3932174,48.7442796],[2.3931924,48.7445798],[2.3932304,48.7448232],[2.3926825,48.744894],[2.3908155,48.7448158],[2.3900087,48.7449352],[2.3900504,48.7437218],[2.390127,48.7437171],[2.3901429,48.7433121],[2.39139,48.7432253],[2.391948,48.7417544],[2.3936426,48.7420772],[2.3940679,48.7421015],[2.3939004,48.7424153],[2.3941174,48.7424703]]]]},"properties":{"code_section":"940540000J","code_commune":"94054","section_courte":"J"}},{"type":"Feature","geometry":{"type":"MultiPolygon","coordinates":[[[[2.3902336,48.7464223],[2.3887716,48.7464708],[2.3880897,48.7465227],[2.3881559,48.7452245],[2.3908155,48.7448158],[2.3926825,48.744894],[2.3932304,48.7448232],[2.3935855,48.7457174],[2.393624,48.7459457],[2.3935786,48.7461634],[2.3935025,48.7461986],[2.3931616,48.7462135],[2.3925107,48.7463205],[2.3921412,48.7464352],[2.3914624,48.746472],[2.3902336,48.7464223]]]]},"properties":{"code_section":"940540000K","code_commune":"94054","section_courte":"K"}},{"type":"Feature","geometry":{"type":"MultiPolygon","coordinates":[[[[2.3911112,48.7521158],[2.389931,48.7524851],[2.3889827,48.752691],[2.3880037,48.7528137],[2.3872244,48.7528518],[2.3894359,48.7494746],[2.3861534,48.750326],[2.3855694,48.749347],[2.3865554,48.7486244],[2.3877594,48.7481223],[2.3881382,48.7470373],[2.3880607,48.7470182],[2.3880897,48.7465227],[2.3887716,48.7464708],[2.3902336,48.7464223],[2.3914624,48.746472],[2.3921412,48.7464352],[2.3925107,48.7463205],[2.3931616,48.7462135],[2.3935025,48.7461986],[2.3935786,48.7461634],[2.3934873,48.7464855],[2.3930801,48.747075],[2.3930503,48.7471898],[2.3930879,48.7474212],[2.3932622,48.7479198],[2.3932611,48.7480239],[2.3941273,48.7480963],[2.3941473,48.7482115],[2.3940224,48.7482415],[2.393933,48.7483161],[2.3939228,48.7484205],[2.393985,48.7485423],[2.3939646,48.7486523],[2.3935477,48.749142],[2.3929955,48.7489346],[2.3928272,48.7492858],[2.3932769,48.7494563],[2.3930773,48.7496868],[2.3933124,48.7497403],[2.3933855,48.7496573],[2.3939506,48.7498717],[2.3939291,48.7498964],[2.3944274,48.7500164],[2.3937792,48.750705],[2.3935218,48.7509303],[2.3932819,48.7508566],[2.3927317,48.7512895],[2.3922271,48.751617],[2.3917107,48.7518765],[2.3911112,48.7521158]]]]},"properties":{"code_section":"940540000L","code_commune":"94054","section_courte":"L"}},{"type":"Feature","geometry":{"type":"MultiPolygon","coordinates":[[[[2.3950772,48.7492434],[2.3944274,48.7500164],[2.3939291,48.7498964],[2.3939506,48.7498717],[2.3933855,48.7496573],[2.3933124,48.7497403],[2.3930773,48.7496868],[2.3932769,48.7494563],[2.3928272,48.7492858],[2.3929955,48.7489346],[2.3935477,48.749142],[2.3939646,48.7486523],[2.393985,48.7485423],[2.3939228,48.7484205],[2.393933,48.7483161],[2.3940224,48.7482415],[2.3941473,48.7482115],[2.3941273,48.7480963],[2.3932611,48.7480239],[2.3930503,48.7471898],[2.3930801,48.747075],[2.3934873,48.7464855],[2.3935387,48.7463278],[2.3941375,48.7463618],[2.3962991,48.7466349],[2.3968047,48.7467137],[2.3967934,48.7467519],[2.3968938,48.746764],[2.3969379,48.746711],[2.3971508,48.7467895],[2.3975099,48.7464278],[2.3973134,48.7468952],[2.3973375,48.7472347],[2.3972846,48.7478231],[2.3970545,48.7486139],[2.3970604,48.7490115],[2.3953834,48.7488641],[2.3950772,48.7492434]]]]},"properties":{"code_section":"940540000M","code_commune":"94054","section_courte":"M"}},{"type":"Feature","geometry":{"type":"MultiPolygon","coordinates":[[[[2.3937407,48.7463417],[2.3935387,48.7463278],[2.3936207,48.7458587],[2.3932304,48.7448232],[2.3931924,48.7445798],[2.3932174,48.7442796],[2.3945085,48.7439445],[2.3956937,48.743774],[2.3959499,48.7436358],[2.3961403,48.743419],[2.3970049,48.7433686],[2.3970497,48.7440255],[2.3971501,48.7446101],[2.3976449,48.7459268],[2.3977914,48.7461419],[2.3971508,48.7467895],[2.3969379,48.746711],[2.3968938,48.746764],[2.3967934,48.7467519],[2.3968047,48.7467137],[2.3962991,48.7466349],[2.3941375,48.7463618],[2.3937407,48.7463417]]]]},"properties":{"code_section":"940540000N","code_commune":"94054","section_courte":"N"}},{"type":"Feature","geometry":{"type":"MultiPolygon","coordinates":[[[[2.3951097,48.7513926],[2.3935218,48.7509303],[2.3943626,48.7500904],[2.3950876,48.7492614],[2.3953834,48.7488641],[2.3970604,48.7490115],[2.3975978,48.7491297],[2.3980474,48.7492725],[2.3980606,48.7494241],[2.3994409,48.7495885],[2.3993063,48.7508279],[2.3990243,48.7523732],[2.3969416,48.7519603],[2.3951097,48.7513926]]]]},"properties":{"code_section":"940540000O","code_commune":"94054","section_courte":"O"}},{"type":"Feature","geometry":{"type":"MultiPolygon","coordinates":[[[[2.4013223,48.748916],[2.4017508,48.7490075],[2.4024621,48.7502318],[2.402369,48.7502139],[2.402354,48.7502548],[2.3994343,48.749655],[2.3994409,48.7495885],[2.3980606,48.7494241],[2.3980474,48.7492725],[2.3975978,48.7491297],[2.3970604,48.7490115],[2.3970545,48.7486139],[2.3972846,48.7478231],[2.3973375,48.7472347],[2.3973134,48.7468952],[2.3975099,48.7464278],[2.3977914,48.7461419],[2.3986652,48.7475579],[2.3987784,48.7473159],[2.4007215,48.747704],[2.4002959,48.7486947],[2.4013223,48.748916]]]]},"properties":{"code_section":"940540000P","code_commune":"94054","section_courte":"P"}},{"type":"Feature","geometry":{"type":"MultiPolygon","coordinates":[[[[2.4050638,48.7508029],[2.4024621,48.7502318],[2.4017508,48.7490075],[2.4002959,48.7486947],[2.4007215,48.747704],[2.4011706,48.7477969],[2.4044297,48.7486581],[2.4044063,48.7487346],[2.4062396,48.7490032],[2.4063422,48.7486079],[2.4067152,48.7486621],[2.4060747,48.7510395],[2.4050638,48.7508029]]]]},"properties":{"code_section":"940540000Q","code_commune":"94054","section_courte":"Q"}},{"type":"Feature","geometry":{"type":"MultiPolygon","coordinates":[[[[2.404414,48.7487357],[2.4044297,48.7486581],[2.4010825,48.7477781],[2.4010596,48.747747],[2.4011185,48.7477037],[2.4017757,48.745941],[2.4020798,48.7460121],[2.4023445,48.7453569],[2.4041367,48.7457263],[2.4072148,48.7467992],[2.4067152,48.7486621],[2.4063422,48.7486079],[2.4062396,48.7490032],[2.404414,48.7487357]]]]},"properties":{"code_section":"940540000R","code_commune":"94054","section_courte":"R"}},{"type":"Feature","geometry":{"type":"MultiPolygon","coordinates":[[[[2.3990911,48.744786],[2.3994974,48.7448799],[2.401175,48.7451351],[2.4023445,48.7453569],[2.4020798,48.7460121],[2.4017757,48.745941],[2.4011185,48.7477037],[2.4010596,48.747747],[2.4010825,48.7477781],[2.3987784,48.7473159],[2.3986652,48.7475579],[2.3976449,48.7459268],[2.3971501,48.7446101],[2.3989885,48.7447198],[2.3990123,48.7447684],[2.3990911,48.744786]]]]},"properties":{"code_section":"940540000S","code_commune":"94054","section_courte":"S"}},{"type":"Feature","geometry":{"type":"MultiPolygon","coordinates":[[[[2.4068709,48.7446445],[2.4077623,48.7448282],[2.4072148,48.7467992],[2.4041367,48.7457263],[2.4024259,48.7453736],[2.4036039,48.743619],[2.4068709,48.7446445]]]]},"properties":{"code_section":"940540000T","code_commune":"94054","section_courte":"T"}},{"type":"Feature","geometry":{"type":"MultiPolygon","coordinates":[[[[2.4013452,48.743029],[2.4018611,48.7431881],[2.4030292,48.7434235],[2.4036039,48.743619],[2.4024259,48.7453736],[2.401175,48.7451351],[2.3994974,48.7448799],[2.3990123,48.7447684],[2.3989885,48.7447198],[2.3971501,48.7446101],[2.3970497,48.7440255],[2.3970049,48.7433686],[2.3970152,48.7427023],[2.3976417,48.7427979],[2.3978826,48.7423449],[2.3983759,48.7425322],[2.4003784,48.7427368],[2.4008181,48.7428227],[2.4013452,48.743029]]]]},"properties":{"code_section":"940540000U","code_commune":"94054","section_courte":"U"}},{"type":"Feature","geometry":{"type":"MultiPolygon","coordinates":[[[[2.3941174,48.7424703],[2.3939004,48.7424153],[2.3940679,48.7421015],[2.3935056,48.7420508],[2.3940252,48.7408288],[2.3946008,48.7410807],[2.3945544,48.7405779],[2.3961188,48.7409518],[2.3968141,48.7412131],[2.39728,48.7415169],[2.3970773,48.7419993],[2.3978826,48.7423449],[2.3976417,48.7427979],[2.3970152,48.7427023],[2.3970049,48.7433686],[2.3961403,48.743419],[2.3959499,48.7436358],[2.3956937,48.743774],[2.3945085,48.7439445],[2.3939769,48.7440704],[2.3939697,48.7439357],[2.3942228,48.7430064],[2.3943942,48.7428074],[2.3946675,48.7426566],[2.3946323,48.7426222],[2.3941174,48.7424703]]]]},"properties":{"code_section":"940540000V","code_commune":"94054","section_courte":"V"}},{"type":"Feature","geometry":{"type":"MultiPolygon","coordinates":[[[[2.3968929,48.7376379],[2.3961649,48.7395906],[2.3975893,48.7398071],[2.3976175,48.7404292],[2.3976719,48.7405561],[2.39728,48.7415169],[2.3968141,48.7412131],[2.3963233,48.7410121],[2.3945544,48.7405779],[2.3946008,48.7410807],[2.3939183,48.7407764],[2.3939208,48.7401339],[2.3936703,48.7375465],[2.3947672,48.7375173],[2.3950589,48.7373986],[2.3969884,48.7373782],[2.3968929,48.7376379]]]]},"properties":{"code_section":"940540000X","code_commune":"94054","section_courte":"X"}},{"type":"Feature","geometry":{"type":"MultiPolygon","coordinates":[[[[2.4020032,48.7389716],[2.4019193,48.7391777],[2.4016341,48.7389689],[2.4013391,48.7396551],[2.3979165,48.7391252],[2.3975893,48.7398071],[2.3961649,48.7395906],[2.3969884,48.7373782],[2.3994937,48.73739],[2.4025353,48.7379919],[2.4027563,48.7379985],[2.4025341,48.7384625],[2.4022657,48.7386992],[2.4021411,48.7386747],[2.4020032,48.7389716]]]]},"properties":{"code_section":"940540000Y","code_commune":"94054","section_courte":"Y"}},{"type":"Feature","geometry":{"type":"MultiPolygon","coordinates":[[[[2.4002855,48.7423999],[2.4001531,48.7427133],[2.3987983,48.7425895],[2.3983759,48.7425322],[2.3970773,48.7419993],[2.3976719,48.7405561],[2.3976175,48.7404292],[2.3975893,48.7398071],[2.3979165,48.7391252],[2.4013391,48.7396551],[2.4002453,48.7422928],[2.4003271,48.7423077],[2.4002855,48.7423999]]]]},"properties":{"code_section":"940540000Z","code_commune":"94054","section_courte":"Z"}},{"type":"Feature","geometry":{"type":"MultiPolygon","coordinates":[[[[2.4041626,48.7396312],[2.404511,48.7397697],[2.4043644,48.7399791],[2.4053952,48.7403659],[2.4050401,48.7407373],[2.4055986,48.7409268],[2.4052573,48.7411667],[2.4046235,48.7418145],[2.4032172,48.7434885],[2.4030292,48.7434235],[2.4018611,48.7431881],[2.4014434,48.7430658],[2.4008181,48.7428227],[2.4001531,48.7427133],[2.4003271,48.7423077],[2.4002453,48.7422928],[2.4016341,48.7389689],[2.4019193,48.7391777],[2.4020634,48.7388232],[2.4041626,48.7396312]]]]},"properties":{"code_section":"94054000AB","code_commune":"94054","section_courte":"AB"}},{"type":"Feature","geometry":{"type":"MultiPolygon","coordinates":[[[[2.4072181,48.7420686],[2.4071169,48.7422685],[2.4078641,48.7424359],[2.4072392,48.7447234],[2.4068709,48.7446445],[2.4060977,48.7444076],[2.4032172,48.7434885],[2.4046235,48.7418145],[2.4052573,48.7411667],[2.405654,48.7408869],[2.4065457,48.7412092],[2.4065149,48.7412539],[2.4074565,48.7415954],[2.4072181,48.7420686]]]]},"properties":{"code_section":"94054000AC","code_commune":"94054","section_courte":"AC"}},{"type":"Feature","geometry":{"type":"MultiPolygon","coordinates":[[[[2.4100579,48.750686],[2.4106159,48.7508175],[2.4109787,48.752074],[2.4060582,48.7510814],[2.4063967,48.7498414],[2.4100579,48.750686]]]]},"properties":{"code_section":"94054000AD","code_commune":"94054","section_courte":"AD"}},{"type":"Feature","geometry":{"type":"MultiPolygon","coordinates":[[[[2.4081082,48.7423848],[2.4087964,48.7422336],[2.4147619,48.7436344],[2.4150482,48.7430038],[2.4172139,48.7432995],[2.4174234,48.7456941],[2.4175737,48.7462305],[2.4179304,48.7471776],[2.4180583,48.7474082],[2.4181981,48.7474115],[2.418221,48.7474517],[2.418118,48.7475176],[2.4182874,48.7478016],[2.4189714,48.7487076],[2.4189093,48.7487987],[2.4191406,48.7494266],[2.4191904,48.7503065],[2.418959,48.7509816],[2.4186575,48.7515036],[2.4189808,48.7515651],[2.418116,48.7529007],[2.4137675,48.7516747],[2.4132593,48.7524652],[2.4109787,48.752074],[2.4106159,48.7508175],[2.4063967,48.7498414],[2.4077623,48.7448282],[2.4072392,48.7447234],[2.4078641,48.7424359],[2.4081082,48.7423848]]]]},"properties":{"code_section":"94054000AE","code_commune":"94054","section_courte":"AE"}},{"type":"Feature","geometry":{"type":"MultiPolygon","coordinates":[[[[2.420122,48.7445531],[2.4210216,48.7446894],[2.4218424,48.7432709],[2.4237063,48.7437426],[2.4243859,48.7426971],[2.4249276,48.7428013],[2.420998,48.7488517],[2.4203135,48.7498402],[2.4201678,48.7497181],[2.4201511,48.7497392],[2.4189821,48.7515596],[2.4186575,48.7515036],[2.418959,48.7509816],[2.4191904,48.7503065],[2.4191406,48.7494266],[2.4189093,48.7487987],[2.4189714,48.7487076],[2.4182874,48.7478016],[2.418118,48.7475176],[2.418221,48.7474517],[2.4181981,48.7474115],[2.4180583,48.7474082],[2.4179304,48.7471776],[2.4175737,48.7462305],[2.4174234,48.7456941],[2.4172139,48.7432995],[2.4177816,48.7433771],[2.4190375,48.7436394],[2.4188121,48.7443488],[2.420122,48.7445531]]]]},"properties":{"code_section":"94054000AF","code_commune":"94054","section_courte":"AF"}},{"type":"Feature","geometry":{"type":"MultiPolygon","coordinates":[[[[2.4202981,48.749828],[2.420998,48.7488517],[2.4224623,48.7465754],[2.4249774,48.7470996],[2.4278116,48.7477645],[2.428347,48.7479386],[2.4291588,48.748233],[2.4296283,48.7484407],[2.4306649,48.7492716],[2.4274234,48.7509227],[2.4258339,48.7519046],[2.4246123,48.7527109],[2.4213587,48.7506941],[2.4206143,48.7501495],[2.4201491,48.7497508],[2.4201678,48.7497181],[2.4202981,48.749828]]]]},"properties":{"code_section":"94054000AG","code_commune":"94054","section_courte":"AG"}},{"type":"Feature","geometry":{"type":"MultiPolygon","coordinates":[[[[2.4319012,48.7439919],[2.4328785,48.7441393],[2.4343018,48.7444158],[2.4358077,48.7447743],[2.4368586,48.7449855],[2.4355887,48.7461467],[2.4348282,48.7467389],[2.4329268,48.7479775],[2.4306649,48.7492716],[2.4296283,48.7484407],[2.4291588,48.748233],[2.428347,48.7479386],[2.4278116,48.7477645],[2.4249774,48.7470996],[2.4224623,48.7465754],[2.4249276,48.7428013],[2.4281962,48.7434936],[2.4286297,48.7435584],[2.42874,48.7434316],[2.4319012,48.7439919]]]]},"properties":{"code_section":"94054000AH","code_commune":"94054","section_courte":"AH"}}]}