{"type":"FeatureCollection","features":[{"type":"Feature","geometry":{"type":"MultiPolygon","coordinates":[[[[2.4676732,48.7512433],[2.4677814,48.7512422],[2.4678205,48.7514364],[2.4686764,48.7562956],[2.4687494,48.7581787],[2.4688659,48.7596888],[2.4686045,48.7609411],[2.4679713,48.763041],[2.4674149,48.7641631],[2.4663095,48.76604],[2.463374,48.7668289],[2.4612605,48.7659423],[2.4612675,48.7658858],[2.4600041,48.7656454],[2.4596215,48.766632],[2.4572341,48.7662966],[2.4558389,48.7667259],[2.454885,48.7670769],[2.4538952,48.7674903],[2.4525917,48.7681047],[2.4510538,48.7689408],[2.4493319,48.7701208],[2.4407693,48.7718192],[2.4399638,48.7716478],[2.4400389,48.7713367],[2.4391227,48.7712272],[2.4353365,48.7673827],[2.4356557,48.7675462],[2.4392898,48.7690099],[2.4395507,48.7690043],[2.4398095,48.769051],[2.4405918,48.7693639],[2.4410792,48.7672853],[2.4412881,48.7672722],[2.4449713,48.7676679],[2.445163,48.7668703],[2.4467035,48.7670537],[2.4470128,48.7664572],[2.446298,48.7663775],[2.4463557,48.766157],[2.4453673,48.7660437],[2.4463197,48.7623274],[2.4470689,48.7620619],[2.4469495,48.7619821],[2.4470413,48.7618771],[2.4478935,48.7616074],[2.4485418,48.7609113],[2.4491261,48.761093],[2.4492848,48.7608157],[2.4495444,48.7605111],[2.4503211,48.7598092],[2.4508691,48.759039],[2.4516831,48.7581321],[2.4534211,48.7554895],[2.4534234,48.7551556],[2.4535597,48.7546273],[2.4542847,48.7525606],[2.4544102,48.7525307],[2.4543867,48.7522054],[2.4543417,48.7520666],[2.454261,48.7519705],[2.4541404,48.7519283],[2.4537921,48.7519224],[2.4536043,48.7504622],[2.4533291,48.7490754],[2.4569293,48.7483661],[2.4586064,48.748191],[2.4586682,48.7493247],[2.4585972,48.7493271],[2.4586023,48.749451],[2.4586784,48.7494524],[2.4587342,48.7505775],[2.4600641,48.750706],[2.4600956,48.7510531],[2.463278,48.7502056],[2.463899,48.7499046],[2.4641466,48.750265],[2.4645783,48.7505866],[2.4651822,48.7512266],[2.4652715,48.751267],[2.4676732,48.7512433]]]]},"properties":{"code_section":"940740000A","code_commune":"94074","section_courte":"A"}},{"type":"Feature","geometry":{"type":"MultiPolygon","coordinates":[[[[2.4755671,48.7381838],[2.4746461,48.7389353],[2.4734609,48.7396923],[2.4734362,48.7396387],[2.4735039,48.7395888],[2.4719505,48.7386356],[2.4719786,48.7361511],[2.4725367,48.7345469],[2.4729011,48.7330309],[2.4724891,48.7323991],[2.4723424,48.7320411],[2.4722948,48.731738],[2.4726745,48.7307679],[2.4727016,48.7275604],[2.4729837,48.7275921],[2.4753409,48.7276592],[2.4772444,48.7277895],[2.4773456,48.7277756],[2.4792539,48.7278817],[2.4800033,48.7279555],[2.4828104,48.7287184],[2.4846199,48.7292436],[2.4835046,48.730932],[2.4829646,48.7316414],[2.4823121,48.7328735],[2.4817402,48.7335047],[2.4814526,48.7337799],[2.4806386,48.7344426],[2.4796126,48.7351167],[2.4792876,48.735285],[2.4782502,48.7355903],[2.4778481,48.7358],[2.4768842,48.7367308],[2.4758798,48.7379004],[2.4755671,48.7381838]]]]},"properties":{"code_section":"940740000C","code_commune":"94074","section_courte":"C"}},{"type":"Feature","geometry":{"type":"MultiPolygon","coordinates":[[[[2.4417825,48.7622722],[2.4422437,48.7621443],[2.4423302,48.7618166],[2.4446666,48.762959],[2.4463197,48.7623274],[2.4453673,48.7660437],[2.4463557,48.766157],[2.446298,48.7663775],[2.4470128,48.7664572],[2.4467035,48.7670537],[2.445163,48.7668703],[2.4449713,48.7676679],[2.4412881,48.7672722],[2.4410792,48.7672853],[2.4405918,48.7693639],[2.4398095,48.769051],[2.4395507,48.7690043],[2.4392898,48.7690099],[2.4356557,48.7675462],[2.4353365,48.7673827],[2.4360664,48.7665666],[2.4365067,48.7663905],[2.4370242,48.7662987],[2.4376091,48.7659806],[2.4380461,48.7656418],[2.4382175,48.7657163],[2.4390745,48.7650882],[2.4398051,48.7646303],[2.4384927,48.7636006],[2.4399443,48.7628301],[2.4406609,48.7625859],[2.4417825,48.7622722]]]]},"properties":{"code_section":"94074000AB","code_commune":"94074","section_courte":"AB"}},{"type":"Feature","geometry":{"type":"MultiPolygon","coordinates":[[[[2.4586149,48.7482636],[2.4586064,48.748191],[2.4601696,48.7480675],[2.4620986,48.7473232],[2.4626315,48.7476328],[2.4632188,48.7478228],[2.4652416,48.7480155],[2.4669942,48.7480813],[2.4675548,48.7481348],[2.4675146,48.7486352],[2.4676378,48.7501242],[2.4677814,48.7512422],[2.4652715,48.751267],[2.4651822,48.7512266],[2.4645783,48.7505866],[2.4641466,48.750265],[2.463899,48.7499046],[2.463278,48.7502056],[2.4600956,48.7510531],[2.4600641,48.750706],[2.4587342,48.7505775],[2.4586784,48.7494524],[2.4586023,48.749451],[2.4585972,48.7493271],[2.4586682,48.7493247],[2.4586149,48.7482636]]]]},"properties":{"code_section":"94074000AC","code_commune":"94074","section_courte":"AC"}},{"type":"Feature","geometry":{"type":"MultiPolygon","coordinates":[[[[2.4735577,48.7475005],[2.4736271,48.7483042],[2.4735956,48.748718],[2.4734152,48.7489829],[2.4732865,48.7497038],[2.4732776,48.7502456],[2.4731132,48.7502275],[2.4725423,48.7525161],[2.4707166,48.7520519],[2.4677814,48.7512422],[2.4676378,48.7501242],[2.4675146,48.7486352],[2.4675548,48.7481348],[2.4669942,48.7480813],[2.4672341,48.7479676],[2.4674725,48.7476287],[2.4675624,48.7468763],[2.4681663,48.7463751],[2.4702775,48.7444],[2.4704294,48.7441591],[2.471445,48.7443971],[2.4725836,48.7445507],[2.4734692,48.7445045],[2.4733408,48.7452771],[2.4734256,48.7469973],[2.4735577,48.7475005]]]]},"properties":{"code_section":"94074000AD","code_commune":"94074","section_courte":"AD"}},{"type":"Feature","geometry":{"type":"MultiPolygon","coordinates":[[[[2.4657422,48.7435317],[2.466971,48.7441562],[2.4676474,48.7434419],[2.4675081,48.7424868],[2.4676985,48.7425794],[2.4683219,48.7427799],[2.4689341,48.7427882],[2.4693145,48.7428451],[2.4696333,48.742911],[2.4701179,48.743066],[2.4705111,48.7433113],[2.470857,48.7435923],[2.4702775,48.7444],[2.4681663,48.7463751],[2.4675624,48.7468763],[2.4674725,48.7476287],[2.4672341,48.7479676],[2.4669942,48.7480813],[2.4652416,48.7480155],[2.4632188,48.7478228],[2.4626315,48.7476328],[2.4620986,48.7473232],[2.4619032,48.7471697],[2.4608985,48.7462471],[2.4594032,48.7445348],[2.459384,48.7444289],[2.4613117,48.7439863],[2.4614143,48.7441369],[2.4626747,48.7447376],[2.4631232,48.744486],[2.4634963,48.7443623],[2.4641474,48.744235],[2.4643713,48.7441399],[2.4641911,48.7435591],[2.4643626,48.7435595],[2.4651537,48.7433898],[2.4652912,48.743396],[2.4657422,48.7435317]]]]},"properties":{"code_section":"94074000AE","code_commune":"94074","section_courte":"AE"}},{"type":"Feature","geometry":{"type":"MultiPolygon","coordinates":[[[[2.4657422,48.7435317],[2.4652912,48.743396],[2.4651537,48.7433898],[2.4643626,48.7435595],[2.4641911,48.7435591],[2.4643713,48.7441399],[2.4641474,48.744235],[2.4634963,48.7443623],[2.4631232,48.744486],[2.4626747,48.7447376],[2.4614143,48.7441369],[2.4613117,48.7439863],[2.459384,48.7444289],[2.4591545,48.7434991],[2.4590159,48.7431726],[2.4588416,48.7428984],[2.4579544,48.7418062],[2.4575682,48.7412436],[2.457083,48.7401457],[2.4576764,48.7400034],[2.4580797,48.7398705],[2.4587649,48.7393705],[2.4602092,48.7387136],[2.4611373,48.7380332],[2.4622996,48.7375301],[2.4632946,48.7388882],[2.4642375,48.7407687],[2.4646481,48.7412505],[2.4650407,48.7415696],[2.4655107,48.7418293],[2.4672101,48.7423269],[2.4675081,48.7424868],[2.4676474,48.7434419],[2.466971,48.7441562],[2.4657422,48.7435317]]]]},"properties":{"code_section":"94074000AH","code_commune":"94074","section_courte":"AH"}},{"type":"Feature","geometry":{"type":"MultiPolygon","coordinates":[[[[2.4661847,48.7414929],[2.4670245,48.7407565],[2.4681869,48.7395445],[2.4684123,48.7396707],[2.4698762,48.7384929],[2.4705583,48.737992],[2.4707715,48.7379152],[2.4735039,48.7395888],[2.4734362,48.7396387],[2.4735697,48.739927],[2.476032,48.740964],[2.4756214,48.7415648],[2.4747808,48.7426177],[2.4738356,48.7439992],[2.4738535,48.7443695],[2.4734692,48.7445045],[2.4725836,48.7445507],[2.471445,48.7443971],[2.4704294,48.7441591],[2.470857,48.7435923],[2.4702222,48.7431076],[2.4696333,48.742911],[2.4693145,48.7428451],[2.4689341,48.7427882],[2.4683219,48.7427799],[2.4676985,48.7425794],[2.4672101,48.7423269],[2.4657554,48.7419133],[2.4661847,48.7414929]]]]},"properties":{"code_section":"94074000AI","code_commune":"94074","section_courte":"AI"}}]}