{"type":"FeatureCollection","features":[{"type":"Feature","geometry":{"type":"MultiPolygon","coordinates":[[[[2.4519502,48.757709],[2.4516831,48.7581321],[2.4508691,48.759039],[2.4503211,48.7598092],[2.4495444,48.7605111],[2.4492848,48.7608157],[2.4491261,48.761093],[2.4485418,48.7609113],[2.4478935,48.7616074],[2.4470413,48.7618771],[2.4469495,48.7619821],[2.4470689,48.7620619],[2.4446666,48.762959],[2.4423302,48.7618166],[2.4423787,48.7616325],[2.4426348,48.7614147],[2.4435428,48.7577439],[2.444029,48.7554461],[2.4442329,48.7555661],[2.4444033,48.7555493],[2.4451175,48.7559683],[2.4469108,48.7565544],[2.4500663,48.7570346],[2.4500883,48.7570013],[2.4505104,48.7570598],[2.4505438,48.7571052],[2.4521731,48.7573589],[2.4519502,48.757709]]]]},"properties":{"code_section":"94078000AB","code_commune":"94078","section_courte":"AB"}},{"type":"Feature","geometry":{"type":"MultiPolygon","coordinates":[[[[2.4542847,48.7525606],[2.4535597,48.7546273],[2.4534234,48.7551556],[2.4534211,48.7554895],[2.4521731,48.7573589],[2.4505438,48.7571052],[2.4505104,48.7570598],[2.4500883,48.7570013],[2.4500663,48.7570346],[2.4469108,48.7565544],[2.4451175,48.7559683],[2.4444033,48.7555493],[2.4442329,48.7555661],[2.444029,48.7554461],[2.4444658,48.7542175],[2.445229,48.751321],[2.4454161,48.7513436],[2.4498375,48.749747],[2.4517008,48.7495601],[2.4533291,48.7490754],[2.4536043,48.7504622],[2.4537921,48.7519224],[2.4541404,48.7519283],[2.454261,48.7519705],[2.4543417,48.7520666],[2.4544102,48.7525307],[2.4542847,48.7525606]]]]},"properties":{"code_section":"94078000AC","code_commune":"94078","section_courte":"AC"}},{"type":"Feature","geometry":{"type":"MultiPolygon","coordinates":[[[[2.4539424,48.7414138],[2.4551193,48.7414622],[2.4551341,48.7409704],[2.455055,48.7407019],[2.457083,48.7401457],[2.4575682,48.7412436],[2.4579544,48.7418062],[2.4588416,48.7428984],[2.4590159,48.7431726],[2.4591545,48.7434991],[2.4594303,48.7445795],[2.4608985,48.7462471],[2.4620986,48.7473232],[2.4601696,48.7480675],[2.4581191,48.748229],[2.4569293,48.7483661],[2.4533291,48.7490754],[2.4529632,48.7483495],[2.4526577,48.7460479],[2.45238,48.7450652],[2.4522001,48.7442249],[2.4521581,48.7430927],[2.4522705,48.7413383],[2.4539424,48.7414138]]]]},"properties":{"code_section":"94078000AD","code_commune":"94078","section_courte":"AD"}},{"type":"Feature","geometry":{"type":"MultiPolygon","coordinates":[[[[2.4465697,48.7449622],[2.446654,48.742327],[2.4522068,48.7422076],[2.4521581,48.7430927],[2.4522001,48.7442249],[2.45238,48.7450652],[2.4526577,48.7460479],[2.4529632,48.7483495],[2.4533291,48.7490754],[2.4517008,48.7495601],[2.4498375,48.749747],[2.4454161,48.7513436],[2.445229,48.751321],[2.4464303,48.7463177],[2.4465697,48.7449622]]]]},"properties":{"code_section":"94078000AE","code_commune":"94078","section_courte":"AE"}},{"type":"Feature","geometry":{"type":"MultiPolygon","coordinates":[[[[2.4517037,48.7353414],[2.4525845,48.737649],[2.4527922,48.7389318],[2.4527276,48.7395978],[2.4522705,48.7413383],[2.4522068,48.7422076],[2.446654,48.742327],[2.4466908,48.7355814],[2.4517037,48.7353414]]]]},"properties":{"code_section":"94078000AH","code_commune":"94078","section_courte":"AH"}},{"type":"Feature","geometry":{"type":"MultiPolygon","coordinates":[[[[2.4539424,48.7414138],[2.4522705,48.7413383],[2.4527276,48.7395978],[2.4527922,48.7389318],[2.4525845,48.737649],[2.4517037,48.7353414],[2.4511006,48.7339947],[2.4507753,48.7336163],[2.4506771,48.7332643],[2.4512025,48.733024],[2.4515317,48.7331656],[2.4517742,48.7333654],[2.4531965,48.7328504],[2.4537546,48.7335723],[2.4560025,48.7361299],[2.4561105,48.7362373],[2.4564465,48.7364489],[2.4566247,48.7366257],[2.4567838,48.736824],[2.4569801,48.7373081],[2.4572373,48.7376548],[2.4577352,48.7382122],[2.4582589,48.7389646],[2.4587649,48.7393705],[2.4582342,48.7397793],[2.4579351,48.739929],[2.4573394,48.7400955],[2.457004,48.740154],[2.455055,48.7407019],[2.4551341,48.7409704],[2.4551193,48.7414622],[2.4539424,48.7414138]]]]},"properties":{"code_section":"94078000AI","code_commune":"94078","section_courte":"AI"}},{"type":"Feature","geometry":{"type":"MultiPolygon","coordinates":[[[[2.4613806,48.7336154],[2.4612839,48.7337239],[2.4609656,48.7335523],[2.4607261,48.7336415],[2.4606595,48.7335962],[2.4598794,48.7341344],[2.4599193,48.7341664],[2.4597668,48.7342713],[2.4598091,48.7342982],[2.4596933,48.7343823],[2.4597953,48.7344468],[2.4591618,48.7349021],[2.4596169,48.735179],[2.4603975,48.7355427],[2.4610495,48.7359403],[2.4613363,48.7361814],[2.4618223,48.7369587],[2.4622996,48.7375301],[2.4611373,48.7380332],[2.4602092,48.7387136],[2.4587649,48.7393705],[2.4582589,48.7389646],[2.4577352,48.7382122],[2.4572373,48.7376548],[2.4569801,48.7373081],[2.4567838,48.736824],[2.4566247,48.7366257],[2.4564465,48.7364489],[2.4561105,48.7362373],[2.4560025,48.7361299],[2.4537546,48.7335723],[2.4531965,48.7328504],[2.4533939,48.7327361],[2.4535781,48.7321064],[2.4546645,48.7318021],[2.4552743,48.7314675],[2.4555681,48.7317296],[2.4566557,48.7313729],[2.4574178,48.7322778],[2.4587145,48.7313414],[2.4610344,48.7328843],[2.4617403,48.7332977],[2.4613386,48.7335915],[2.4613806,48.7336154]]]]},"properties":{"code_section":"94078000AK","code_commune":"94078","section_courte":"AK"}},{"type":"Feature","geometry":{"type":"MultiPolygon","coordinates":[[[[2.4612839,48.7337239],[2.4613806,48.7336154],[2.4613386,48.7335915],[2.4617403,48.7332977],[2.463274,48.7341976],[2.4673765,48.7364796],[2.4690027,48.7370143],[2.4698276,48.737402],[2.4707715,48.7379152],[2.4705583,48.737992],[2.4698762,48.7384929],[2.4684123,48.7396707],[2.4681869,48.7395445],[2.4670245,48.7407565],[2.4665945,48.741112],[2.4657554,48.7419133],[2.4653356,48.7417463],[2.4648553,48.7414409],[2.4643286,48.7408955],[2.4632946,48.7388882],[2.462227,48.7374236],[2.4618223,48.7369587],[2.4613363,48.7361814],[2.4610495,48.7359403],[2.4603975,48.7355427],[2.4596169,48.735179],[2.4591618,48.7349021],[2.4597953,48.7344468],[2.4596933,48.7343823],[2.4598091,48.7342982],[2.4597668,48.7342713],[2.4599193,48.7341664],[2.4598794,48.7341344],[2.4606595,48.7335962],[2.4607261,48.7336415],[2.4609656,48.7335523],[2.4612839,48.7337239]]]]},"properties":{"code_section":"94078000AL","code_commune":"94078","section_courte":"AL"}},{"type":"Feature","geometry":{"type":"MultiPolygon","coordinates":[[[[2.4637558,48.7268985],[2.4648959,48.72698],[2.4649064,48.7285898],[2.4653651,48.7289278],[2.4657391,48.7294174],[2.4668089,48.7295888],[2.4677623,48.7281718],[2.4678323,48.7266591],[2.4700966,48.7270092],[2.4705425,48.7271211],[2.471342,48.7274829],[2.4716426,48.7275428],[2.4720882,48.7275595],[2.4720927,48.7275303],[2.4727016,48.7275604],[2.4726745,48.7307679],[2.4722948,48.731738],[2.4723424,48.7320411],[2.4724891,48.7323991],[2.4729011,48.7330309],[2.4725367,48.7345469],[2.4719786,48.7361511],[2.4719505,48.7386356],[2.4707715,48.7379152],[2.4696767,48.7373264],[2.4690027,48.7370143],[2.4673765,48.7364796],[2.463274,48.7341976],[2.4610806,48.7329133],[2.4587145,48.7313414],[2.4571204,48.7304462],[2.4556476,48.7293028],[2.4546103,48.7285963],[2.4538927,48.7283576],[2.4530381,48.7281361],[2.4530368,48.7281077],[2.4529621,48.7281033],[2.4527154,48.7279985],[2.4520915,48.7276741],[2.4517712,48.7272523],[2.4517111,48.7272996],[2.4502627,48.7262528],[2.4510503,48.7258483],[2.4514807,48.7256778],[2.4524943,48.725174],[2.4531304,48.7248948],[2.4541588,48.7246251],[2.4563,48.7239643],[2.4577796,48.7239461],[2.4598965,48.7237957],[2.4603415,48.7259956],[2.4608335,48.7260481],[2.4608286,48.7260783],[2.4626619,48.7262657],[2.4627126,48.7263035],[2.4627971,48.7262845],[2.4633164,48.7268572],[2.4637558,48.7268985]]]]},"properties":{"code_section":"94078000AM","code_commune":"94078","section_courte":"AM"}},{"type":"Feature","geometry":{"type":"MultiPolygon","coordinates":[[[[2.4508226,48.7266482],[2.4517111,48.7272996],[2.4517712,48.7272523],[2.4520915,48.7276741],[2.4527154,48.7279985],[2.4529621,48.7281033],[2.4530368,48.7281077],[2.4530381,48.7281361],[2.4538927,48.7283576],[2.4546103,48.7285963],[2.4556476,48.7293028],[2.4571204,48.7304462],[2.4587145,48.7313414],[2.4574178,48.7322778],[2.4566557,48.7313729],[2.4555681,48.7317296],[2.4552743,48.7314675],[2.4546645,48.7318021],[2.4535781,48.7321064],[2.4524346,48.7312469],[2.4519705,48.7307534],[2.4517099,48.7303924],[2.4513907,48.7301591],[2.4511316,48.7298976],[2.4508152,48.7294604],[2.4503334,48.7292566],[2.4499006,48.7293652],[2.4491598,48.7292205],[2.4481848,48.7285784],[2.4479199,48.7282138],[2.4480095,48.7280413],[2.4478295,48.7277215],[2.4479358,48.7275224],[2.4481878,48.7273838],[2.4479468,48.7271166],[2.4493085,48.7267121],[2.4495997,48.7265944],[2.4502627,48.7262528],[2.4508226,48.7266482]]]]},"properties":{"code_section":"94078000AN","code_commune":"94078","section_courte":"AN"}},{"type":"Feature","geometry":{"type":"MultiPolygon","coordinates":[[[[2.4481848,48.7285784],[2.4491598,48.7292205],[2.4499006,48.7293652],[2.4503334,48.7292566],[2.4508152,48.7294604],[2.4511316,48.7298976],[2.4513907,48.7301591],[2.4517099,48.7303924],[2.4519705,48.7307534],[2.4524346,48.7312469],[2.4535781,48.7321064],[2.4533939,48.7327361],[2.4531965,48.7328504],[2.4517742,48.7333654],[2.4515317,48.7331656],[2.4512025,48.733024],[2.4506771,48.7332643],[2.4507753,48.7336163],[2.4511006,48.7339947],[2.4517037,48.7353414],[2.4466908,48.7355814],[2.4468952,48.7304424],[2.4467459,48.7291873],[2.4481848,48.7285784]]]]},"properties":{"code_section":"94078000AO","code_commune":"94078","section_courte":"AO"}},{"type":"Feature","geometry":{"type":"MultiPolygon","coordinates":[[[[2.4535552,48.7237283],[2.4541588,48.7246251],[2.4531304,48.7248948],[2.4524943,48.725174],[2.4514807,48.7256778],[2.4510503,48.7258483],[2.4495997,48.7265944],[2.4493085,48.7267121],[2.4479468,48.7271166],[2.4481878,48.7273838],[2.4479358,48.7275224],[2.4478295,48.7277215],[2.4480095,48.7280413],[2.4479199,48.7282138],[2.4481848,48.7285784],[2.4467459,48.7291873],[2.4449249,48.7267813],[2.4445043,48.7259488],[2.4448367,48.7253556],[2.4460105,48.7249107],[2.4464986,48.7246587],[2.4466177,48.7247243],[2.4466243,48.7248412],[2.4470404,48.7245301],[2.4473778,48.7242237],[2.4478329,48.7236982],[2.4494283,48.7223364],[2.4506085,48.7212751],[2.4508006,48.721366],[2.4512379,48.7217199],[2.4513542,48.7216582],[2.4515432,48.721809],[2.4514669,48.7218547],[2.4518995,48.7221855],[2.4525452,48.7228415],[2.4518455,48.723122],[2.4524683,48.7236253],[2.4533883,48.7234976],[2.4535552,48.7237283]]]]},"properties":{"code_section":"94078000AP","code_commune":"94078","section_courte":"AP"}},{"type":"Feature","geometry":{"type":"MultiPolygon","coordinates":[[[[2.4484785,48.7219207],[2.4484237,48.7220101],[2.4477867,48.7219822],[2.4477514,48.7221251],[2.4467004,48.7220355],[2.4466899,48.721696],[2.446122,48.720157],[2.4460504,48.7201484],[2.445428,48.72133],[2.4434638,48.7206449],[2.444173,48.7194068],[2.4458483,48.7173214],[2.446341,48.7168378],[2.446448,48.7166905],[2.4473917,48.7158864],[2.4487971,48.7148121],[2.4494927,48.7146622],[2.4504992,48.7145584],[2.4509629,48.7144113],[2.4511305,48.71489],[2.4507426,48.7149972],[2.4505593,48.7150899],[2.4503368,48.7152101],[2.4502135,48.7153628],[2.4502107,48.7154441],[2.450515,48.7158093],[2.450536,48.7159172],[2.4505015,48.7160215],[2.4502572,48.716285],[2.4494481,48.7166515],[2.4494681,48.7167946],[2.4495965,48.7170062],[2.449598,48.7170653],[2.449519,48.7171498],[2.4493716,48.7172191],[2.448983,48.7173247],[2.4486067,48.7174897],[2.4478853,48.7179142],[2.4478537,48.7180793],[2.44807,48.7183435],[2.4480912,48.7185601],[2.4478733,48.7188853],[2.4477058,48.719288],[2.4476264,48.7193628],[2.4473874,48.7194302],[2.4473248,48.7194991],[2.4473628,48.7196191],[2.4475638,48.7198867],[2.4477825,48.7199631],[2.4478343,48.7200314],[2.4478379,48.7204819],[2.4482037,48.721273],[2.4484494,48.7216125],[2.4484785,48.7219207]]]]},"properties":{"code_section":"94078000AR","code_commune":"94078","section_courte":"AR"}},{"type":"Feature","geometry":{"type":"MultiPolygon","coordinates":[[[[2.4402437,48.7246782],[2.4406931,48.7242298],[2.4418849,48.7238712],[2.4435429,48.724399],[2.4434967,48.7229231],[2.442298,48.7216528],[2.4431221,48.7205373],[2.445428,48.72133],[2.4460504,48.7201484],[2.446122,48.720157],[2.4466899,48.721696],[2.4467004,48.7220355],[2.4477514,48.7221251],[2.4477867,48.7219822],[2.4484237,48.7220101],[2.4483204,48.7220859],[2.448259,48.7221891],[2.4481755,48.7224694],[2.4481857,48.7227142],[2.4481137,48.7229932],[2.4484658,48.7231719],[2.4478329,48.7236982],[2.4473778,48.7242237],[2.4470404,48.7245301],[2.4466243,48.7248412],[2.4466177,48.7247243],[2.4464986,48.7246587],[2.4460105,48.7249107],[2.4448367,48.7253556],[2.4445043,48.7259488],[2.4449249,48.7267813],[2.4455905,48.7276571],[2.4439052,48.728066],[2.4437643,48.7277053],[2.4434987,48.72728],[2.4431903,48.7269139],[2.442875,48.7266774],[2.4417144,48.7260504],[2.4396349,48.7252556],[2.4402437,48.7246782]]]]},"properties":{"code_section":"94078000AS","code_commune":"94078","section_courte":"AS"}},{"type":"Feature","geometry":{"type":"MultiPolygon","coordinates":[[[[2.4334376,48.7631975],[2.4265777,48.7606081],[2.4277478,48.7593377],[2.4285775,48.7581307],[2.4256924,48.7570737],[2.4257412,48.7569857],[2.4286698,48.7545516],[2.4303708,48.7549576],[2.4316231,48.7551175],[2.433756,48.7552793],[2.4337498,48.7530413],[2.4337804,48.7527211],[2.4338854,48.7523333],[2.4341353,48.7517233],[2.4342028,48.751658],[2.4341261,48.7516175],[2.4352152,48.7506945],[2.435785,48.7500409],[2.4356871,48.750015],[2.4357649,48.7499162],[2.4356655,48.7498886],[2.4359623,48.7495117],[2.436897,48.7484499],[2.437015,48.748476],[2.4373282,48.7479286],[2.4377609,48.7467594],[2.4378159,48.7467113],[2.4379679,48.7461535],[2.4379983,48.7461562],[2.438034,48.7460524],[2.4380062,48.7460524],[2.438038,48.7458788],[2.4381572,48.7454863],[2.4378938,48.7453883],[2.4379554,48.7452939],[2.4368586,48.7449855],[2.4380827,48.7434743],[2.4395753,48.7412787],[2.4429738,48.7383324],[2.4441622,48.7368954],[2.4445353,48.7361486],[2.4448369,48.7351794],[2.4449407,48.7343037],[2.4449507,48.7336756],[2.4449164,48.7332381],[2.444762,48.7325911],[2.444708,48.7316723],[2.4445369,48.7305147],[2.4442119,48.7289835],[2.4439052,48.728066],[2.4455905,48.7276571],[2.4467459,48.7291873],[2.4468952,48.7304424],[2.4466908,48.7355814],[2.446654,48.742327],[2.4465697,48.7449622],[2.4464303,48.7463177],[2.445229,48.751321],[2.4444658,48.7542175],[2.444029,48.7554461],[2.4435428,48.7577439],[2.4426348,48.7614147],[2.4423787,48.7616325],[2.4414,48.7612277],[2.4368673,48.7623754],[2.4356904,48.7628014],[2.4340793,48.7634416],[2.4334376,48.7631975]]]]},"properties":{"code_section":"94078000AT","code_commune":"94078","section_courte":"AT"}},{"type":"Feature","geometry":{"type":"MultiPolygon","coordinates":[[[[2.4337953,48.7504186],[2.4337224,48.7503277],[2.4318967,48.7498405],[2.4306649,48.7492716],[2.4329268,48.7479775],[2.4348282,48.7467389],[2.4355887,48.7461467],[2.4368586,48.7449855],[2.4379554,48.7452939],[2.4378938,48.7453883],[2.4381572,48.7454863],[2.438038,48.7458788],[2.4380062,48.7460524],[2.438034,48.7460524],[2.4379983,48.7461562],[2.4379679,48.7461535],[2.4378159,48.7467113],[2.4377609,48.7467594],[2.4373282,48.7479286],[2.437015,48.748476],[2.436897,48.7484499],[2.4356655,48.7498886],[2.4357649,48.7499162],[2.4356871,48.750015],[2.435785,48.7500409],[2.4352152,48.7506945],[2.4340469,48.7503904],[2.4340347,48.7504203],[2.4337953,48.7504186]]]]},"properties":{"code_section":"94078000AV","code_commune":"94078","section_courte":"AV"}},{"type":"Feature","geometry":{"type":"MultiPolygon","coordinates":[[[[2.4257412,48.7569857],[2.4258573,48.756509],[2.4263608,48.75576],[2.4273174,48.7546401],[2.4274841,48.7543615],[2.4278053,48.7535343],[2.4279173,48.7533941],[2.4282999,48.7530665],[2.4285736,48.7526372],[2.4285899,48.7523806],[2.4284846,48.7518195],[2.4285711,48.7515392],[2.4274234,48.7509227],[2.4306649,48.7492716],[2.4318524,48.7498239],[2.4321079,48.7499127],[2.4337224,48.7503277],[2.4337953,48.7504186],[2.4340347,48.7504203],[2.4340469,48.7503904],[2.4352031,48.7506919],[2.4341261,48.7516175],[2.4342028,48.751658],[2.4341353,48.7517233],[2.4338585,48.7524077],[2.4337498,48.7530413],[2.433756,48.7552793],[2.4316231,48.7551175],[2.4303708,48.7549576],[2.4286698,48.7545516],[2.4257412,48.7569857]]]]},"properties":{"code_section":"94078000AW","code_commune":"94078","section_courte":"AW"}},{"type":"Feature","geometry":{"type":"MultiPolygon","coordinates":[[[[2.4522519,48.7225316],[2.4518995,48.7221855],[2.4514669,48.7218547],[2.4515432,48.721809],[2.4514793,48.7217593],[2.4517786,48.7216121],[2.4517566,48.721595],[2.4522068,48.7213232],[2.4521657,48.7212797],[2.4525003,48.7212042],[2.452051,48.720704],[2.4522264,48.7206362],[2.4523163,48.7207087],[2.4541713,48.7204488],[2.4543579,48.720812],[2.4541165,48.7208482],[2.4542852,48.721241],[2.4543464,48.7212309],[2.4545514,48.721659],[2.4554881,48.7214276],[2.4561852,48.7211677],[2.4564643,48.721553],[2.4565718,48.7215307],[2.456655,48.721622],[2.4565901,48.7216379],[2.4567473,48.7220124],[2.4562811,48.7220717],[2.4562909,48.7221429],[2.4539955,48.7224665],[2.4525452,48.7228415],[2.4522519,48.7225316]]]]},"properties":{"code_section":"94078000AX","code_commune":"94078","section_courte":"AX"}}]}