{"type":"FeatureCollection","features":[{"type":"Feature","geometry":{"type":"MultiPolygon","coordinates":[[[[2.5343888,48.8349435],[2.5349374,48.83451],[2.5352407,48.8343586],[2.5349014,48.834061],[2.5340405,48.8329389],[2.5333298,48.8318523],[2.534126,48.831538],[2.538291,48.8342227],[2.5388917,48.8344884],[2.5395946,48.834659],[2.540079,48.8347099],[2.5405486,48.8347125],[2.5411676,48.8346431],[2.5417898,48.8344929],[2.542527,48.8341621],[2.5425694,48.8341946],[2.5426226,48.8341754],[2.5441213,48.8349926],[2.5380785,48.836764],[2.5366555,48.8385023],[2.5356305,48.8382256],[2.5364449,48.8372897],[2.5335628,48.8355921],[2.5343888,48.8349435]]]]},"properties":{"code_section":"94079000AA","code_commune":"94079","section_courte":"AA"}},{"type":"Feature","geometry":{"type":"MultiPolygon","coordinates":[[[[2.5439517,48.8335317],[2.5438796,48.8335501],[2.5438913,48.8335249],[2.5435557,48.83339],[2.5425694,48.8341946],[2.542527,48.8341621],[2.5420857,48.8343786],[2.5414587,48.8345824],[2.5411676,48.8346431],[2.5405126,48.8347157],[2.540079,48.8347099],[2.5395946,48.834659],[2.5391785,48.8345746],[2.5388917,48.8344884],[2.538291,48.8342227],[2.534126,48.831538],[2.536184,48.8307559],[2.5389642,48.8297573],[2.5391339,48.8296202],[2.5393736,48.8291286],[2.540791,48.8288255],[2.5410557,48.8287349],[2.5418267,48.8297423],[2.5425326,48.8305136],[2.543427,48.8309207],[2.5453301,48.8324512],[2.5440257,48.8335393],[2.5439818,48.8335163],[2.5439517,48.8335317]]]]},"properties":{"code_section":"94079000AB","code_commune":"94079","section_courte":"AB"}},{"type":"Feature","geometry":{"type":"MultiPolygon","coordinates":[[[[2.5473169,48.835879],[2.547295,48.8360646],[2.5453015,48.8354307],[2.5445676,48.8352324],[2.5426226,48.8341754],[2.5425694,48.8341946],[2.5425814,48.8341661],[2.5435557,48.83339],[2.5438913,48.8335249],[2.5438796,48.8335501],[2.5439818,48.8335163],[2.5440257,48.8335393],[2.5453301,48.8324512],[2.544968,48.8321817],[2.5512661,48.8296272],[2.5518495,48.8302543],[2.5509202,48.8310878],[2.550586,48.8313289],[2.5514208,48.8317254],[2.5515307,48.8318302],[2.5527123,48.8323982],[2.5505531,48.8340931],[2.5504547,48.8340415],[2.5492253,48.8350397],[2.5488552,48.8348453],[2.5488015,48.8348546],[2.5474504,48.8341444],[2.5475089,48.8343398],[2.5475266,48.8346368],[2.5475074,48.834838],[2.5474512,48.8348304],[2.5473169,48.835879]]]]},"properties":{"code_section":"94079000AC","code_commune":"94079","section_courte":"AC"}},{"type":"Feature","geometry":{"type":"MultiPolygon","coordinates":[[[[2.5565274,48.828056],[2.5566305,48.8280261],[2.5568142,48.8280289],[2.5569408,48.8279447],[2.5556102,48.8271341],[2.555613,48.8270907],[2.5561027,48.8268141],[2.555544,48.8264752],[2.5578709,48.8261298],[2.5587619,48.8270894],[2.560329,48.8273315],[2.5603428,48.8272918],[2.560589,48.8273172],[2.5610772,48.8272928],[2.5606809,48.8286731],[2.5605653,48.8289018],[2.5582234,48.8299805],[2.5580529,48.8300899],[2.5567627,48.8316366],[2.5553943,48.831058],[2.5533918,48.8326884],[2.5527123,48.8323982],[2.5515307,48.8318302],[2.5514208,48.8317254],[2.550586,48.8313289],[2.5509202,48.8310878],[2.5518495,48.8302543],[2.5512661,48.8296272],[2.5541465,48.82847],[2.5544238,48.8285953],[2.5563517,48.8281536],[2.5563848,48.8280956],[2.5565274,48.828056]]]]},"properties":{"code_section":"94079000AD","code_commune":"94079","section_courte":"AD"}},{"type":"Feature","geometry":{"type":"MultiPolygon","coordinates":[[[[2.5611933,48.8269248],[2.5610772,48.8272928],[2.560589,48.8273172],[2.5603428,48.8272918],[2.560329,48.8273315],[2.5587619,48.8270894],[2.5578709,48.8261298],[2.5608455,48.8256819],[2.5607124,48.8252863],[2.5584466,48.8233841],[2.5590909,48.8230241],[2.5596779,48.8227833],[2.5606452,48.8222366],[2.5617082,48.8218043],[2.5623748,48.8214798],[2.562887,48.8211379],[2.5667025,48.8249504],[2.5613209,48.8265245],[2.5611933,48.8269248]]]]},"properties":{"code_section":"94079000AE","code_commune":"94079","section_courte":"AE"}},{"type":"Feature","geometry":{"type":"MultiPolygon","coordinates":[[[[2.5680026,48.818923],[2.5686306,48.8181232],[2.5709438,48.8225963],[2.5724145,48.8234944],[2.5724749,48.8235049],[2.5724456,48.8235742],[2.5692651,48.8240693],[2.5690302,48.8241617],[2.5686893,48.8244325],[2.5674187,48.8247251],[2.5667025,48.8249504],[2.562887,48.8211379],[2.5637687,48.8205792],[2.5640366,48.8204968],[2.5649368,48.8203879],[2.565098,48.8203447],[2.5658508,48.8200272],[2.5664808,48.8197004],[2.5673741,48.81938],[2.5676536,48.8192188],[2.5680026,48.818923]]]]},"properties":{"code_section":"94079000AH","code_commune":"94079","section_courte":"AH"}},{"type":"Feature","geometry":{"type":"MultiPolygon","coordinates":[[[[2.5561019,48.821493],[2.5561987,48.8214182],[2.5566586,48.8218502],[2.5571259,48.8214626],[2.5596779,48.8227833],[2.5590909,48.8230241],[2.5584466,48.8233841],[2.5607124,48.8252863],[2.5608455,48.8256819],[2.555544,48.8264752],[2.5561027,48.8268141],[2.555613,48.8270907],[2.5556102,48.8271341],[2.5569408,48.8279447],[2.5568142,48.8280289],[2.5566305,48.8280261],[2.5563848,48.8280956],[2.5563517,48.8281536],[2.5544238,48.8285953],[2.5510942,48.8271741],[2.5502642,48.8267841],[2.5502711,48.8267126],[2.553408,48.8251667],[2.5534842,48.8250652],[2.5528586,48.8242038],[2.5527881,48.8240618],[2.5528186,48.8239498],[2.5531169,48.8237438],[2.5532435,48.8235866],[2.553447,48.8235068],[2.5538547,48.8232448],[2.553873,48.8231946],[2.5549393,48.8224461],[2.5561019,48.821493]]]]},"properties":{"code_section":"94079000AI","code_commune":"94079","section_courte":"AI"}},{"type":"Feature","geometry":{"type":"MultiPolygon","coordinates":[[[[2.5431885,48.8280927],[2.5433828,48.8279936],[2.5441612,48.8277066],[2.5450062,48.8275725],[2.5471018,48.8269566],[2.5477694,48.8268448],[2.5502642,48.8267841],[2.5517734,48.8274696],[2.5541465,48.82847],[2.544968,48.8321817],[2.5437688,48.8311686],[2.543427,48.8309207],[2.5425326,48.8305136],[2.5418267,48.8297423],[2.5410557,48.8287349],[2.5427983,48.8281434],[2.5431885,48.8280927]]]]},"properties":{"code_section":"94079000AK","code_commune":"94079","section_courte":"AK"}},{"type":"Feature","geometry":{"type":"MultiPolygon","coordinates":[[[[2.5561608,48.8214473],[2.5549393,48.8224461],[2.553873,48.8231946],[2.5538547,48.8232448],[2.553447,48.8235068],[2.5532435,48.8235866],[2.5534219,48.8228418],[2.5533469,48.8224289],[2.5525189,48.8223922],[2.5523116,48.8224131],[2.5513563,48.8226831],[2.5493912,48.8229455],[2.5490614,48.821093],[2.5497019,48.8210771],[2.5507388,48.8208058],[2.5507601,48.820846],[2.5530597,48.8193813],[2.5533118,48.818634],[2.5531959,48.8185721],[2.5544845,48.8182134],[2.5555339,48.8187454],[2.5559319,48.8188107],[2.5562281,48.8189632],[2.5568416,48.8190263],[2.5573592,48.8187598],[2.5578979,48.8193908],[2.5560595,48.8209148],[2.5571259,48.8214626],[2.5566586,48.8218502],[2.5561987,48.8214182],[2.5561608,48.8214473]]]]},"properties":{"code_section":"94079000AL","code_commune":"94079","section_courte":"AL"}},{"type":"Feature","geometry":{"type":"MultiPolygon","coordinates":[[[[2.5531425,48.8191801],[2.5530597,48.8193813],[2.5507601,48.820846],[2.5507388,48.8208058],[2.5497019,48.8210771],[2.5490614,48.821093],[2.5490207,48.8208652],[2.5482628,48.8198467],[2.5485997,48.8197504],[2.5487117,48.8196888],[2.5492709,48.8190881],[2.5497114,48.8188166],[2.5501031,48.818673],[2.5503568,48.8186251],[2.5530838,48.8185124],[2.5533118,48.818634],[2.5531425,48.8191801]]]]},"properties":{"code_section":"94079000AM","code_commune":"94079","section_courte":"AM"}},{"type":"Feature","geometry":{"type":"MultiPolygon","coordinates":[[[[2.5447187,48.8237977],[2.5449401,48.8235167],[2.5449705,48.823273],[2.5451614,48.8227089],[2.5455285,48.8218921],[2.5458243,48.8214156],[2.5459541,48.8212871],[2.5461711,48.8211577],[2.5465587,48.8210666],[2.5469287,48.8210074],[2.548488,48.8208587],[2.5489444,48.8207625],[2.5490207,48.8208652],[2.5493912,48.8229455],[2.5513563,48.8226831],[2.5523116,48.8224131],[2.5525189,48.8223922],[2.5533469,48.8224289],[2.5534219,48.8228418],[2.5532435,48.8235866],[2.5531169,48.8237438],[2.5528186,48.8239498],[2.5527881,48.8240618],[2.5534842,48.8250652],[2.553408,48.8251667],[2.5531782,48.8252847],[2.5502711,48.8267126],[2.5502642,48.8267841],[2.548698,48.826813],[2.5486424,48.8264834],[2.5483064,48.8256006],[2.5479436,48.8255062],[2.5473148,48.8252658],[2.5469773,48.8252205],[2.546763,48.8251597],[2.5465898,48.825071],[2.5464599,48.8245842],[2.546384,48.8245055],[2.5462699,48.8244374],[2.5446765,48.8239361],[2.5447187,48.8237977]]]]},"properties":{"code_section":"94079000AN","code_commune":"94079","section_courte":"AN"}},{"type":"Feature","geometry":{"type":"MultiPolygon","coordinates":[[[[2.5478809,48.8254802],[2.5483064,48.8256006],[2.5486424,48.8264834],[2.548698,48.826813],[2.5477694,48.8268448],[2.5474546,48.8268914],[2.5471018,48.8269566],[2.5459001,48.8273134],[2.5456767,48.8267561],[2.5452894,48.8262758],[2.5449231,48.8259855],[2.5447153,48.8258856],[2.5436576,48.8256538],[2.5427696,48.8253117],[2.5433722,48.8249136],[2.5446765,48.8239361],[2.5462699,48.8244374],[2.5464599,48.8245842],[2.5465898,48.825071],[2.546763,48.8251597],[2.5469773,48.8252205],[2.5473148,48.8252658],[2.5478809,48.8254802]]]]},"properties":{"code_section":"94079000AO","code_commune":"94079","section_courte":"AO"}},{"type":"Feature","geometry":{"type":"MultiPolygon","coordinates":[[[[2.5431885,48.8280927],[2.5427983,48.8281434],[2.5410557,48.8287349],[2.5408277,48.8283595],[2.5408828,48.8278913],[2.5413176,48.8272853],[2.5410494,48.8271869],[2.5409989,48.8271389],[2.5418932,48.8266109],[2.5421659,48.8265022],[2.5422565,48.8263426],[2.5423001,48.8258286],[2.5429536,48.82575],[2.5428563,48.8253451],[2.5436576,48.8256538],[2.5447153,48.8258856],[2.5449231,48.8259855],[2.5452894,48.8262758],[2.5456767,48.8267561],[2.5459001,48.8273134],[2.5450062,48.8275725],[2.5441612,48.8277066],[2.5433828,48.8279936],[2.5431885,48.8280927]]]]},"properties":{"code_section":"94079000AP","code_commune":"94079","section_courte":"AP"}},{"type":"Feature","geometry":{"type":"MultiPolygon","coordinates":[[[[2.5320546,48.8294705],[2.5319038,48.8292614],[2.5323877,48.8293345],[2.5328743,48.829484],[2.5327712,48.8272281],[2.5334757,48.8272173],[2.5353276,48.827034],[2.5370074,48.8267314],[2.5387201,48.8266878],[2.5394325,48.826609],[2.5397644,48.8266129],[2.5402043,48.8267178],[2.5409017,48.8271174],[2.5413176,48.8272853],[2.5408828,48.8278913],[2.5408325,48.828167],[2.5408277,48.8283595],[2.5410557,48.8287349],[2.540791,48.8288255],[2.5393736,48.8291286],[2.5391339,48.8296202],[2.5389642,48.8297573],[2.536184,48.8307559],[2.5336382,48.8317212],[2.5320546,48.8294705]]]]},"properties":{"code_section":"94079000AR","code_commune":"94079","section_courte":"AR"}},{"type":"Feature","geometry":{"type":"MultiPolygon","coordinates":[[[[2.5331016,48.8228216],[2.5330897,48.822768],[2.533132,48.8227639],[2.5330898,48.8226988],[2.5325631,48.8221212],[2.5325019,48.8221229],[2.5324298,48.8220386],[2.5324929,48.8220367],[2.5324389,48.821972],[2.5328086,48.8219207],[2.5341099,48.8219686],[2.5359546,48.8221674],[2.5375425,48.8223758],[2.5378771,48.8224584],[2.5380129,48.8223075],[2.5399694,48.8224916],[2.5406082,48.8225873],[2.5409574,48.8227317],[2.5410191,48.8228374],[2.5411574,48.8228563],[2.5412633,48.822717],[2.5413752,48.8226844],[2.5439258,48.8232361],[2.544507,48.8234111],[2.5447341,48.8235873],[2.5447952,48.8237006],[2.5447045,48.8238159],[2.5446765,48.8239361],[2.5433722,48.8249136],[2.5427696,48.8253117],[2.5428563,48.8253451],[2.5429536,48.82575],[2.5423001,48.8258286],[2.5422565,48.8263426],[2.5421659,48.8265022],[2.5418932,48.8266109],[2.5409989,48.8271389],[2.5409017,48.8271174],[2.5402043,48.8267178],[2.5397644,48.8266129],[2.5394325,48.826609],[2.5387201,48.8266878],[2.5370074,48.8267314],[2.5362822,48.8266405],[2.5360602,48.8265277],[2.5357526,48.8262235],[2.5332266,48.8230223],[2.5331485,48.822839],[2.5331016,48.8228216]]]]},"properties":{"code_section":"94079000AS","code_commune":"94079","section_courte":"AS"}},{"type":"Feature","geometry":{"type":"MultiPolygon","coordinates":[[[[2.5359562,48.822048],[2.5360434,48.8219856],[2.5360501,48.8214134],[2.5361507,48.8212719],[2.5362509,48.8199072],[2.5363396,48.8196313],[2.5365595,48.8183871],[2.5368442,48.8184211],[2.536968,48.817961],[2.536903,48.8175371],[2.5386605,48.817877],[2.5401677,48.8182443],[2.5404272,48.8183506],[2.5411555,48.8187842],[2.5415002,48.8188977],[2.5418536,48.8189425],[2.5426777,48.8189631],[2.543384,48.8194161],[2.5439172,48.8196116],[2.5446793,48.8197862],[2.54493,48.8198232],[2.5470272,48.8199114],[2.5474147,48.8199109],[2.5482628,48.8198467],[2.5489444,48.8207625],[2.548488,48.8208587],[2.5469287,48.8210074],[2.5465587,48.8210666],[2.5461711,48.8211577],[2.5459541,48.8212871],[2.5458243,48.8214156],[2.5455285,48.8218921],[2.5452757,48.8224085],[2.5449705,48.823273],[2.5449401,48.8235167],[2.5447952,48.8237006],[2.5447341,48.8235873],[2.544507,48.8234111],[2.5439258,48.8232361],[2.5413752,48.8226844],[2.5412633,48.822717],[2.5411574,48.8228563],[2.5410191,48.8228374],[2.5409574,48.8227317],[2.5406082,48.8225873],[2.5399694,48.8224916],[2.5380129,48.8223075],[2.5378771,48.8224584],[2.5375425,48.8223758],[2.5359546,48.8221674],[2.5359562,48.822048]]]]},"properties":{"code_section":"94079000AT","code_commune":"94079","section_courte":"AT"}},{"type":"Feature","geometry":{"type":"MultiPolygon","coordinates":[[[[2.5333058,48.8184402],[2.5333234,48.8183255],[2.5344822,48.8183133],[2.5347801,48.8170616],[2.5358763,48.8173352],[2.536903,48.8175371],[2.536968,48.817961],[2.5368442,48.8184211],[2.5365595,48.8183871],[2.5363396,48.8196313],[2.5362509,48.8199072],[2.5361507,48.8212719],[2.5360501,48.8214134],[2.5360434,48.8219856],[2.5359567,48.8220376],[2.5359546,48.8221674],[2.5341099,48.8219686],[2.5328086,48.8219207],[2.5324389,48.821972],[2.532068,48.82156],[2.5306081,48.8207206],[2.5316766,48.820251],[2.5323642,48.8197706],[2.5326966,48.8194536],[2.5329659,48.8191353],[2.5331812,48.8187751],[2.5333058,48.8184402]]]]},"properties":{"code_section":"94079000AV","code_commune":"94079","section_courte":"AV"}},{"type":"Feature","geometry":{"type":"MultiPolygon","coordinates":[[[[2.5304571,48.8206646],[2.5304967,48.8206522],[2.532068,48.82156],[2.5324929,48.8220367],[2.5324298,48.8220386],[2.5325019,48.8221229],[2.5325631,48.8221212],[2.5330898,48.8226988],[2.533132,48.8227639],[2.5330897,48.822768],[2.5331063,48.8228431],[2.5331485,48.822839],[2.5332266,48.8230223],[2.5352438,48.8255539],[2.5341567,48.8254954],[2.5324755,48.8242646],[2.5321842,48.8241368],[2.5315456,48.8240579],[2.5311441,48.8240843],[2.5294559,48.8238466],[2.5294777,48.8237808],[2.5289153,48.8237007],[2.5288586,48.8235956],[2.5287648,48.8235253],[2.528515,48.8234665],[2.5283227,48.8233808],[2.5269925,48.8235896],[2.5263223,48.8236466],[2.5262917,48.8236798],[2.5265128,48.8236601],[2.5264324,48.8236698],[2.5259392,48.8240018],[2.5257502,48.8229484],[2.5249589,48.8214283],[2.5256453,48.8212717],[2.5255616,48.8211282],[2.5262377,48.8210959],[2.5264559,48.8210456],[2.5267125,48.8210314],[2.5267589,48.8211161],[2.5270467,48.8211835],[2.5275029,48.8211706],[2.5284263,48.8212121],[2.5286658,48.8212546],[2.5287267,48.8212241],[2.528722,48.8211239],[2.5287555,48.8211034],[2.5295299,48.8212146],[2.5299925,48.8209004],[2.5304571,48.8206646]]]]},"properties":{"code_section":"94079000AW","code_commune":"94079","section_courte":"AW"}},{"type":"Feature","geometry":{"type":"MultiPolygon","coordinates":[[[[2.5302056,48.8291157],[2.529436,48.8290519],[2.5281549,48.8288675],[2.5264893,48.8288414],[2.5254914,48.8271941],[2.5240344,48.8270772],[2.5239157,48.8252415],[2.524204,48.8252266],[2.5241922,48.8248316],[2.5255095,48.8247868],[2.5256552,48.8243179],[2.52577,48.8241392],[2.5264324,48.8236698],[2.5265128,48.8236601],[2.5262917,48.8236798],[2.5263223,48.8236466],[2.5269925,48.8235896],[2.5283227,48.8233808],[2.528515,48.8234665],[2.5287648,48.8235253],[2.5288586,48.8235956],[2.5289153,48.8237007],[2.5294777,48.8237808],[2.5294559,48.8238466],[2.5311441,48.8240843],[2.5315456,48.8240579],[2.5321842,48.8241368],[2.5324755,48.8242646],[2.5341567,48.8254954],[2.5352438,48.8255539],[2.5357526,48.8262235],[2.5360602,48.8265277],[2.5362822,48.8266405],[2.5370074,48.8267314],[2.5353276,48.827034],[2.5334757,48.8272173],[2.5327712,48.8272281],[2.5328743,48.829484],[2.5323877,48.8293345],[2.5321619,48.8292962],[2.5302056,48.8291157]]]]},"properties":{"code_section":"94079000AX","code_commune":"94079","section_courte":"AX"}}]}