{"type":"FeatureCollection","features":[{"type":"Feature","geometry":{"type":"MultiPolygon","coordinates":[[[[2.5576545,48.7645198],[2.5574733,48.7600041],[2.5575146,48.7600036],[2.5575074,48.7590077],[2.5573081,48.7545635],[2.5590235,48.7541448],[2.5606597,48.7531575],[2.560809,48.7530996],[2.5652476,48.7521191],[2.5661343,48.7517968],[2.5702401,48.7511864],[2.5706976,48.7517709],[2.575472,48.7522174],[2.5771116,48.7549956],[2.5720364,48.7572677],[2.5728902,48.7581256],[2.5699054,48.7607574],[2.5700892,48.7610224],[2.5706693,48.7610012],[2.57127,48.7608428],[2.5716601,48.760822],[2.5719129,48.760856],[2.5724051,48.760857],[2.5731328,48.7608228],[2.5736781,48.7607002],[2.5750275,48.7602707],[2.5762213,48.7599288],[2.5768217,48.7608032],[2.5807536,48.7649606],[2.5794791,48.7654136],[2.5783336,48.7656613],[2.5767926,48.7661012],[2.5773683,48.7667224],[2.5775296,48.7677746],[2.5773425,48.7677878],[2.5771251,48.7678609],[2.5760663,48.7685031],[2.5754742,48.7682708],[2.5750276,48.7681447],[2.574176,48.7680454],[2.5737195,48.7679249],[2.5697421,48.7663393],[2.5680633,48.7672779],[2.5631274,48.7635243],[2.5629373,48.7635963],[2.561925,48.7634586],[2.5618005,48.7635018],[2.5613421,48.7640367],[2.5612305,48.7642262],[2.5608306,48.7645139],[2.5600038,48.7657028],[2.5591862,48.7661422],[2.5587007,48.7658137],[2.5581551,48.7653747],[2.5581279,48.7653922],[2.5578837,48.7651082],[2.5576304,48.7649279],[2.5575881,48.7648313],[2.5574315,48.7647167],[2.557645,48.7646189],[2.5576545,48.7645198]]]]},"properties":{"code_section":"940710000D","code_commune":"94071","section_courte":"D"}},{"type":"Feature","geometry":{"type":"MultiPolygon","coordinates":[[[[2.5103782,48.7813618],[2.5097372,48.7811376],[2.5094239,48.7810819],[2.5082219,48.7805955],[2.5076113,48.780502],[2.5075738,48.7804236],[2.507976,48.7802265],[2.508222,48.7799585],[2.5083162,48.779901],[2.5083313,48.7799201],[2.508788,48.779815],[2.5117277,48.778381],[2.5122122,48.7807897],[2.5123827,48.781125],[2.5151579,48.7833035],[2.51527,48.7836836],[2.5153872,48.783806],[2.5161644,48.7840922],[2.518182,48.7856504],[2.5168689,48.7864061],[2.5159366,48.7862701],[2.5144051,48.7859322],[2.5139609,48.7857993],[2.5134994,48.7856062],[2.5127431,48.7849925],[2.5125191,48.7848723],[2.5122712,48.7841463],[2.5123039,48.7840659],[2.5121688,48.7839053],[2.5123969,48.7838484],[2.512565,48.7837006],[2.5126708,48.7836644],[2.5135285,48.7839099],[2.5136315,48.7839064],[2.5138239,48.7838388],[2.5142101,48.7839336],[2.5143062,48.7839327],[2.5143717,48.7838907],[2.5143697,48.7838014],[2.5143354,48.7837548],[2.5141141,48.783646],[2.513827,48.783171],[2.5136726,48.7829969],[2.5126749,48.7823368],[2.5126148,48.7822481],[2.5124987,48.7822014],[2.512457,48.7821507],[2.5119275,48.781862],[2.5112116,48.7816205],[2.5107292,48.7814982],[2.5105579,48.7814068],[2.5103782,48.7813618]]]]},"properties":{"code_section":"94071000AB","code_commune":"94071","section_courte":"AB"}},{"type":"Feature","geometry":{"type":"MultiPolygon","coordinates":[[[[2.5197336,48.7768315],[2.5202527,48.7767718],[2.5206131,48.7771022],[2.5210416,48.7778314],[2.5217943,48.7786729],[2.5221461,48.7790135],[2.5225989,48.7795805],[2.5196044,48.7808724],[2.5122789,48.7809225],[2.5122122,48.7807897],[2.5117641,48.7785628],[2.5155465,48.7768751],[2.5163151,48.7773341],[2.5166936,48.7775197],[2.5170776,48.7776208],[2.5175072,48.7775164],[2.5177805,48.7775179],[2.5179897,48.777485],[2.5184496,48.7771063],[2.5186692,48.7773219],[2.5197336,48.7768315]]]]},"properties":{"code_section":"94071000AC","code_commune":"94071","section_courte":"AC"}},{"type":"Feature","geometry":{"type":"MultiPolygon","coordinates":[[[[2.5073126,48.7739808],[2.5152676,48.7753428],[2.5149826,48.775555],[2.5150433,48.7761397],[2.5151085,48.7763319],[2.5152505,48.7765567],[2.5155465,48.7768751],[2.5117641,48.7785628],[2.5117277,48.778381],[2.508788,48.779815],[2.5083313,48.7799201],[2.5083162,48.779901],[2.508222,48.7799585],[2.507976,48.7802265],[2.5075738,48.7804236],[2.5073248,48.7802135],[2.5070473,48.7801887],[2.5063491,48.7800101],[2.5062689,48.779821],[2.5058668,48.7794182],[2.5057343,48.7793277],[2.5043981,48.778793],[2.5042476,48.7787185],[2.504051,48.7785119],[2.5054474,48.777949],[2.5057895,48.7777669],[2.5063539,48.7773873],[2.5068334,48.776945],[2.5070844,48.7759048],[2.507139,48.7739513],[2.5073126,48.7739808]]]]},"properties":{"code_section":"94071000AD","code_commune":"94071","section_courte":"AD"}},{"type":"Feature","geometry":{"type":"MultiPolygon","coordinates":[[[[2.5078772,48.7722194],[2.5079096,48.7717155],[2.5082385,48.7717237],[2.5083463,48.770438],[2.508218,48.7702258],[2.5120444,48.7691672],[2.5126142,48.7691456],[2.5136763,48.7691851],[2.5148295,48.7693586],[2.5152194,48.7694469],[2.5161699,48.7697569],[2.5174436,48.7699347],[2.5182942,48.7701918],[2.5195779,48.7703881],[2.5196496,48.7713986],[2.519548,48.7718068],[2.5193933,48.7721413],[2.5189469,48.7725789],[2.5169475,48.7739876],[2.5152676,48.7753428],[2.5081465,48.7741216],[2.507831,48.7728308],[2.5078772,48.7722194]]]]},"properties":{"code_section":"94071000AE","code_commune":"94071","section_courte":"AE"}},{"type":"Feature","geometry":{"type":"MultiPolygon","coordinates":[[[[2.5224268,48.7756423],[2.5227259,48.7756738],[2.5226235,48.776113],[2.5219002,48.7760457],[2.5216592,48.7768724],[2.5203467,48.7767546],[2.5197336,48.7768315],[2.5186692,48.7773219],[2.5184496,48.7771063],[2.5179897,48.777485],[2.5177805,48.7775179],[2.5175072,48.7775164],[2.5170776,48.7776208],[2.5166936,48.7775197],[2.5163151,48.7773341],[2.5155465,48.7768751],[2.5152505,48.7765567],[2.5151085,48.7763319],[2.5149805,48.7757926],[2.5149826,48.775555],[2.5169475,48.7739876],[2.5189469,48.7725789],[2.5193933,48.7721413],[2.519548,48.7718068],[2.5196496,48.7713986],[2.519597,48.7704923],[2.5216746,48.77083],[2.522478,48.7709155],[2.5226104,48.7712589],[2.5227017,48.77139],[2.5233796,48.7716561],[2.524827,48.7717141],[2.5248872,48.7717651],[2.5249505,48.7717653],[2.5249439,48.7726418],[2.5251518,48.7732965],[2.5254241,48.7749861],[2.5253515,48.7751894],[2.5251716,48.7753375],[2.5250341,48.7753896],[2.5243272,48.7754748],[2.5235592,48.7753436],[2.5224154,48.7750367],[2.5222795,48.7756269],[2.5224268,48.7756423]]]]},"properties":{"code_section":"94071000AH","code_commune":"94071","section_courte":"AH"}},{"type":"Feature","geometry":{"type":"MultiPolygon","coordinates":[[[[2.5343059,48.775465],[2.5352102,48.7757151],[2.5346857,48.7766841],[2.5356169,48.7768307],[2.5355168,48.7770317],[2.5351584,48.7770009],[2.534892,48.7769061],[2.5347201,48.7769482],[2.5345814,48.7770675],[2.5340167,48.7769982],[2.5332528,48.7769819],[2.5325824,48.7769092],[2.5323608,48.7767842],[2.5322958,48.7768203],[2.5322808,48.776925],[2.5322241,48.7769255],[2.5321586,48.7769125],[2.5320991,48.7768081],[2.5318662,48.7766702],[2.5317165,48.7766559],[2.5313425,48.7767347],[2.5312659,48.7766906],[2.5313331,48.7765662],[2.5313039,48.7765508],[2.5311823,48.7765442],[2.5310783,48.7766438],[2.5309774,48.7766252],[2.5310165,48.7764657],[2.5309654,48.7764366],[2.530515,48.7764719],[2.5305324,48.7766257],[2.5304488,48.7766971],[2.5305885,48.776809],[2.5305296,48.7768499],[2.5302907,48.776888],[2.5302858,48.7769208],[2.5304219,48.7769745],[2.5304018,48.7770173],[2.5301946,48.7770559],[2.52986,48.7772069],[2.5298433,48.7772265],[2.5301086,48.7772981],[2.5300183,48.7774161],[2.5299674,48.7774454],[2.5297563,48.777353],[2.5296424,48.7773674],[2.5296892,48.7775545],[2.5295906,48.7775946],[2.5293962,48.7776029],[2.5294032,48.7776575],[2.5294813,48.7777167],[2.5294558,48.7778203],[2.5297105,48.7779076],[2.5297124,48.7779393],[2.5297029,48.7779761],[2.5292265,48.778263],[2.5289726,48.7782847],[2.5289049,48.7781431],[2.5287082,48.7781332],[2.528523,48.7780746],[2.5284193,48.7780865],[2.5283089,48.7782284],[2.5279011,48.7780912],[2.5275666,48.7781183],[2.5275168,48.7779423],[2.5273082,48.7777589],[2.5272723,48.7775872],[2.527189,48.7774779],[2.5272113,48.7773856],[2.5273108,48.777303],[2.5272957,48.7772457],[2.5270985,48.7772168],[2.5267491,48.7770577],[2.5262827,48.7770351],[2.5256383,48.776921],[2.5240275,48.7768073],[2.5236302,48.7767319],[2.5223698,48.7769214],[2.5221962,48.7769289],[2.5216592,48.7768724],[2.5219002,48.7760457],[2.5226235,48.776113],[2.5227259,48.7756738],[2.5222795,48.7756269],[2.5224154,48.7750367],[2.5235592,48.7753436],[2.5243272,48.7754748],[2.5250341,48.7753896],[2.5251716,48.7753375],[2.5253515,48.7751894],[2.5254241,48.7749861],[2.5251518,48.7732965],[2.5249439,48.7726418],[2.5249499,48.7714742],[2.5273625,48.7718513],[2.5280486,48.7721317],[2.528618,48.7722552],[2.5302318,48.7724097],[2.530815,48.7725147],[2.5317094,48.7727427],[2.5323503,48.7729536],[2.5342193,48.7737472],[2.5338195,48.7742499],[2.5347443,48.7745666],[2.5343059,48.775465]]]]},"properties":{"code_section":"94071000AI","code_commune":"94071","section_courte":"AI"}},{"type":"Feature","geometry":{"type":"MultiPolygon","coordinates":[[[[2.5339204,48.7705407],[2.5322988,48.7714333],[2.5330416,48.7718963],[2.5340836,48.7727512],[2.5334501,48.7734347],[2.5323503,48.7729536],[2.5317094,48.7727427],[2.530815,48.7725147],[2.5302318,48.7724097],[2.528618,48.7722552],[2.5280486,48.7721317],[2.5273625,48.7718513],[2.5276881,48.7715221],[2.528082,48.7707404],[2.5281737,48.7706477],[2.5288831,48.7702395],[2.5289654,48.7701725],[2.5290153,48.7700548],[2.5287444,48.7694666],[2.5284622,48.7683134],[2.5287566,48.7680719],[2.532063,48.7665988],[2.5325373,48.7671902],[2.5334789,48.7677963],[2.5338489,48.7681326],[2.5342033,48.7687321],[2.5344429,48.7693054],[2.5345073,48.7695861],[2.5344748,48.7698243],[2.5342057,48.7703228],[2.5339204,48.7705407]]]]},"properties":{"code_section":"94071000AK","code_commune":"94071","section_courte":"AK"}},{"type":"Feature","geometry":{"type":"MultiPolygon","coordinates":[[[[2.5576545,48.7645198],[2.557645,48.7646189],[2.5574315,48.7647167],[2.5570007,48.7644185],[2.5568211,48.7644036],[2.5558479,48.7644686],[2.551585,48.7652862],[2.5498246,48.7656507],[2.5499609,48.76553],[2.544068,48.765221],[2.54331,48.7652058],[2.5419766,48.7653991],[2.5401944,48.7659557],[2.5361633,48.7634758],[2.5391467,48.7623271],[2.5444221,48.761623],[2.544963,48.7595596],[2.5490204,48.7611729],[2.5505299,48.7610084],[2.5523987,48.7605586],[2.5558917,48.7598664],[2.5574877,48.7591618],[2.5575146,48.7600036],[2.5574733,48.7600041],[2.5576545,48.7645198]]]]},"properties":{"code_section":"94071000AL","code_commune":"94071","section_courte":"AL"}},{"type":"Feature","geometry":{"type":"MultiPolygon","coordinates":[[[[2.5449737,48.7595166],[2.5455744,48.7572256],[2.5431838,48.7568388],[2.5448362,48.7559699],[2.5457558,48.7551428],[2.5568936,48.7546577],[2.5573081,48.7545635],[2.5574877,48.7591618],[2.5561018,48.759792],[2.5558917,48.7598664],[2.5523987,48.7605586],[2.5505299,48.7610084],[2.5490204,48.7611729],[2.544963,48.7595596],[2.5449737,48.7595166]]]]},"properties":{"code_section":"94071000AM","code_commune":"94071","section_courte":"AM"}},{"type":"Feature","geometry":{"type":"MultiPolygon","coordinates":[[[[2.5335299,48.7550859],[2.5372614,48.7544892],[2.5389515,48.7554373],[2.5457558,48.7551428],[2.5448362,48.7559699],[2.5431838,48.7568388],[2.5455744,48.7572256],[2.544963,48.7595596],[2.5409999,48.7579869],[2.5383842,48.7593335],[2.5369825,48.7599583],[2.5338825,48.7573956],[2.53353,48.7576135],[2.5329458,48.757183],[2.5340971,48.7562791],[2.5352164,48.7557203],[2.5351512,48.7555367],[2.5329387,48.7551773],[2.5335299,48.7550859]]]]},"properties":{"code_section":"94071000AN","code_commune":"94071","section_courte":"AN"}},{"type":"Feature","geometry":{"type":"MultiPolygon","coordinates":[[[[2.5444221,48.761623],[2.5391467,48.7623271],[2.5361633,48.7634758],[2.5333924,48.761551],[2.5342824,48.7610431],[2.5357231,48.7604889],[2.5383842,48.7593335],[2.5409999,48.7579869],[2.544963,48.7595596],[2.5444221,48.761623]]]]},"properties":{"code_section":"94071000AO","code_commune":"94071","section_courte":"AO"}},{"type":"Feature","geometry":{"type":"MultiPolygon","coordinates":[[[[2.5329387,48.7551773],[2.5351512,48.7555367],[2.5352164,48.7557203],[2.5340971,48.7562791],[2.5329458,48.757183],[2.53353,48.7576135],[2.5338825,48.7573956],[2.5369825,48.7599583],[2.5357231,48.7604889],[2.5342824,48.7610431],[2.5333924,48.761551],[2.5301204,48.7589832],[2.5292335,48.7582364],[2.5274043,48.7565307],[2.5268459,48.756113],[2.5329387,48.7551773]]]]},"properties":{"code_section":"94071000AP","code_commune":"94071","section_courte":"AP"}},{"type":"Feature","geometry":{"type":"MultiPolygon","coordinates":[[[[2.5166856,48.7613483],[2.5213632,48.7584005],[2.5228856,48.7575194],[2.5264067,48.7561739],[2.5268459,48.756113],[2.5274043,48.7565307],[2.5276357,48.7567705],[2.5271909,48.7573682],[2.5271095,48.757379],[2.5271467,48.7575763],[2.5269193,48.7601447],[2.5264446,48.7601974],[2.5258403,48.7604151],[2.5256667,48.7604482],[2.5246955,48.7604958],[2.5243854,48.7611292],[2.5232629,48.7608466],[2.5231669,48.7609699],[2.5229888,48.7609262],[2.52292,48.7611097],[2.523106,48.7611706],[2.5230201,48.7613278],[2.5225182,48.7619036],[2.5218633,48.7625495],[2.5222568,48.7627431],[2.5222283,48.7628239],[2.5214764,48.7626668],[2.5201839,48.7624608],[2.5186112,48.7635267],[2.5180691,48.7638272],[2.5176753,48.7639889],[2.5172512,48.7618004],[2.5172441,48.7614644],[2.5166856,48.7613483]]]]},"properties":{"code_section":"94071000AR","code_commune":"94071","section_courte":"AR"}},{"type":"Feature","geometry":{"type":"MultiPolygon","coordinates":[[[[2.5237886,48.7609789],[2.5243854,48.7611292],[2.5246955,48.7604958],[2.5256667,48.7604482],[2.5258403,48.7604151],[2.5264446,48.7601974],[2.5269193,48.7601447],[2.5271467,48.7575763],[2.5271095,48.757379],[2.5271909,48.7573682],[2.5276357,48.7567705],[2.5292335,48.7582364],[2.5301204,48.7589832],[2.5333924,48.761551],[2.5266838,48.7625263],[2.5255694,48.764104],[2.5236873,48.7634687],[2.5222283,48.7628239],[2.5222568,48.7627431],[2.5218633,48.7625495],[2.5225182,48.7619036],[2.5230201,48.7613278],[2.523106,48.7611706],[2.52292,48.7611097],[2.5229888,48.7609262],[2.5231669,48.7609699],[2.5232629,48.7608466],[2.5237886,48.7609789]]]]},"properties":{"code_section":"94071000AS","code_commune":"94071","section_courte":"AS"}},{"type":"Feature","geometry":{"type":"MultiPolygon","coordinates":[[[[2.5308327,48.7661845],[2.5308592,48.7665369],[2.5318731,48.7665018],[2.5320654,48.7665296],[2.5321207,48.7665727],[2.5287566,48.7680719],[2.5284622,48.7683134],[2.5284293,48.7681538],[2.5279363,48.7673108],[2.5279004,48.767165],[2.527873,48.76695],[2.5280709,48.7660258],[2.526903,48.7664647],[2.5258708,48.7654839],[2.5256218,48.7651875],[2.5250517,48.7647343],[2.5252758,48.7645273],[2.5266838,48.7625263],[2.5333924,48.761551],[2.5361633,48.7634758],[2.5354908,48.7639437],[2.534179,48.7653645],[2.5336631,48.7657071],[2.532971,48.7656634],[2.5330335,48.7650923],[2.5322416,48.7650742],[2.5322161,48.7648712],[2.5310228,48.7648031],[2.5310814,48.765593],[2.530788,48.7656185],[2.5308327,48.7661845]]]]},"properties":{"code_section":"94071000AT","code_commune":"94071","section_courte":"AT"}},{"type":"Feature","geometry":{"type":"MultiPolygon","coordinates":[[[[2.5246432,48.7717073],[2.5233796,48.7716561],[2.523266,48.7716267],[2.5227017,48.77139],[2.5226104,48.7712589],[2.522478,48.7709155],[2.5216746,48.77083],[2.519597,48.7704923],[2.520182,48.7699713],[2.5208124,48.7692958],[2.5207417,48.7687742],[2.5207701,48.7686571],[2.5210027,48.7686403],[2.5216863,48.7686732],[2.5223347,48.7677797],[2.5232258,48.7668462],[2.5235352,48.7660752],[2.5238232,48.7656849],[2.5250517,48.7647343],[2.5256218,48.7651875],[2.5258708,48.7654839],[2.526903,48.7664647],[2.5280709,48.7660258],[2.527873,48.76695],[2.5279004,48.767165],[2.5279363,48.7673108],[2.5284293,48.7681538],[2.5284944,48.7685416],[2.5287444,48.7694666],[2.5290153,48.7700548],[2.5289654,48.7701725],[2.5288831,48.7702395],[2.5281737,48.7706477],[2.528082,48.7707404],[2.5276881,48.7715221],[2.5273625,48.7718513],[2.5249499,48.7714742],[2.5249505,48.7717653],[2.5248872,48.7717651],[2.524827,48.7717141],[2.5246432,48.7717073]]]]},"properties":{"code_section":"94071000AV","code_commune":"94071","section_courte":"AV"}},{"type":"Feature","geometry":{"type":"MultiPolygon","coordinates":[[[[2.5169895,48.7674968],[2.5157013,48.7671649],[2.5176753,48.7639889],[2.5180691,48.7638272],[2.5186112,48.7635267],[2.5201839,48.7624608],[2.5214764,48.7626668],[2.5222688,48.7628337],[2.5236873,48.7634687],[2.5255694,48.764104],[2.5252758,48.7645273],[2.5250517,48.7647343],[2.5238232,48.7656849],[2.5235352,48.7660752],[2.5232258,48.7668462],[2.5223347,48.7677797],[2.5216863,48.7686732],[2.5210027,48.7686403],[2.5207701,48.7686571],[2.5207417,48.7687742],[2.5208124,48.7692958],[2.520182,48.7699713],[2.519597,48.7704923],[2.5195779,48.7703881],[2.5188662,48.7702806],[2.5192641,48.7689185],[2.5179872,48.7686652],[2.5175436,48.7685042],[2.5170843,48.7682075],[2.5169989,48.7680789],[2.5169895,48.7674968]],[[2.5190553,48.7659886],[2.5183508,48.7655965],[2.518212,48.7657254],[2.518696,48.7660029],[2.518634,48.766055],[2.5187588,48.7661268],[2.5182672,48.7663826],[2.5178455,48.7667514],[2.5183523,48.7670545],[2.5179426,48.7673895],[2.5191786,48.7681671],[2.5197331,48.7676958],[2.5199641,48.7674525],[2.5193585,48.7671336],[2.5195481,48.7669438],[2.5193881,48.7668695],[2.5194552,48.7667781],[2.5196446,48.7666515],[2.5194433,48.7665207],[2.5196322,48.7663851],[2.5195494,48.7663526],[2.5193648,48.76648],[2.5191228,48.7662706],[2.5193447,48.7661471],[2.5190553,48.7659886]]]]},"properties":{"code_section":"94071000AW","code_commune":"94071","section_courte":"AW"}},{"type":"Feature","geometry":{"type":"MultiPolygon","coordinates":[[[[2.5079621,48.7695863],[2.5079915,48.7691203],[2.5079426,48.7691202],[2.5080907,48.7668206],[2.5081792,48.7661689],[2.5085787,48.7661939],[2.5085909,48.7662632],[2.5090354,48.7663785],[2.5107877,48.7666729],[2.5112125,48.7667754],[2.5116959,48.7669374],[2.5118487,48.7669557],[2.5126066,48.7667354],[2.5129358,48.766693],[2.5135896,48.7666855],[2.5139722,48.7667409],[2.5157013,48.7671649],[2.5169895,48.7674968],[2.5169989,48.7680789],[2.5170843,48.7682075],[2.5175436,48.7685042],[2.5179872,48.7686652],[2.5192641,48.7689185],[2.5188662,48.7702806],[2.5182942,48.7701918],[2.5174436,48.7699347],[2.5161699,48.7697569],[2.5152194,48.7694469],[2.5148295,48.7693586],[2.5136763,48.7691851],[2.5126142,48.7691456],[2.5120444,48.7691672],[2.5079004,48.7703113],[2.5079621,48.7695863]]]]},"properties":{"code_section":"94071000AX","code_commune":"94071","section_courte":"AX"}},{"type":"Feature","geometry":{"type":"MultiPolygon","coordinates":[[[[2.5082184,48.7627228],[2.5081598,48.761599],[2.5105451,48.7611164],[2.5136443,48.760916],[2.5166856,48.7613483],[2.5172441,48.7614644],[2.5172512,48.7618004],[2.5176753,48.7639889],[2.5157013,48.7671649],[2.5139722,48.7667409],[2.5135896,48.7666855],[2.5129358,48.766693],[2.5126066,48.7667354],[2.5118487,48.7669557],[2.5116959,48.7669374],[2.5112125,48.7667754],[2.5107877,48.7666729],[2.5090354,48.7663785],[2.5085909,48.7662632],[2.5085787,48.7661939],[2.5081792,48.7661689],[2.5082481,48.7655201],[2.5082748,48.764594],[2.5082184,48.7627228]]]]},"properties":{"code_section":"94071000AY","code_commune":"94071","section_courte":"AY"}},{"type":"Feature","geometry":{"type":"MultiPolygon","coordinates":[[[[2.5079552,48.7696663],[2.5079004,48.7703113],[2.508218,48.7702258],[2.5083463,48.770438],[2.5082385,48.7717237],[2.5079096,48.7717155],[2.507831,48.7728308],[2.5081465,48.7741216],[2.507139,48.7739513],[2.5070844,48.7759048],[2.5068334,48.776945],[2.5063539,48.7773873],[2.5057895,48.7777669],[2.5054474,48.777949],[2.504051,48.7785119],[2.5039721,48.7784896],[2.5034127,48.778528],[2.5027856,48.7786027],[2.5023301,48.7785217],[2.5024153,48.7771051],[2.5023386,48.7769603],[2.5007996,48.776588],[2.4981809,48.7757187],[2.4980357,48.7756659],[2.4979391,48.7754931],[2.4980545,48.7753653],[2.4980779,48.7752568],[2.4974724,48.7731527],[2.4979683,48.7726707],[2.4975631,48.7690615],[2.4953582,48.7692064],[2.495167,48.767882],[2.4941044,48.7679522],[2.4939151,48.7666531],[2.4947323,48.7642748],[2.494709,48.7642302],[2.4969018,48.7645632],[2.4995301,48.7630058],[2.499681,48.7631506],[2.505475,48.7611605],[2.5058682,48.7615888],[2.5068008,48.761418],[2.5072951,48.7617734],[2.5081599,48.7615991],[2.5082657,48.7636885],[2.5082702,48.7647844],[2.5082481,48.7655201],[2.5080907,48.7668206],[2.5079426,48.7691202],[2.5079915,48.7691203],[2.5079552,48.7696663]]]]},"properties":{"code_section":"94071000AZ","code_commune":"94071","section_courte":"AZ"}},{"type":"Feature","geometry":{"type":"MultiPolygon","coordinates":[[[[2.5308327,48.7661845],[2.530788,48.7656185],[2.5310814,48.765593],[2.5310228,48.7648031],[2.5322161,48.7648712],[2.5322416,48.7650742],[2.5330335,48.7650923],[2.532971,48.7656634],[2.5336631,48.7657071],[2.534179,48.7653645],[2.5354908,48.7639437],[2.5361633,48.7634758],[2.5401944,48.7659557],[2.5402666,48.7660329],[2.5400826,48.7661422],[2.5399903,48.7662498],[2.5394651,48.7672943],[2.5394992,48.7677182],[2.5396596,48.7679951],[2.5397545,48.7680324],[2.5398007,48.7681187],[2.5392053,48.7681105],[2.5392063,48.7682841],[2.5392836,48.7683929],[2.5392002,48.7683933],[2.5392037,48.7690295],[2.5386532,48.7690301],[2.5386641,48.7695953],[2.5388591,48.7700581],[2.5381548,48.7701803],[2.5377601,48.7702044],[2.5371051,48.7701881],[2.5368499,48.7701422],[2.5366015,48.7700558],[2.5363324,48.7699164],[2.5360897,48.7697377],[2.5355068,48.7700827],[2.5352571,48.7701834],[2.5349653,48.7702608],[2.5342057,48.7703228],[2.5344748,48.7698243],[2.5345073,48.7695861],[2.5344429,48.7693054],[2.5342033,48.7687321],[2.5338489,48.7681326],[2.5334789,48.7677963],[2.5325373,48.7671902],[2.532063,48.7665988],[2.5321207,48.7665727],[2.532095,48.7665405],[2.5318731,48.7665018],[2.5308592,48.7665369],[2.5308327,48.7661845]]]]},"properties":{"code_section":"94071000BC","code_commune":"94071","section_courte":"BC"}},{"type":"Feature","geometry":{"type":"MultiPolygon","coordinates":[[[[2.540667,48.7697433],[2.5406449,48.770228],[2.5405511,48.7704233],[2.5406709,48.7705201],[2.5406345,48.7706339],[2.5399236,48.7713076],[2.5395646,48.7715527],[2.5391202,48.7720582],[2.539097,48.7721255],[2.5389835,48.7721422],[2.5387116,48.7722974],[2.53795,48.7725908],[2.5377572,48.7727188],[2.5372181,48.7729509],[2.536819,48.7732354],[2.5366623,48.7738436],[2.5366955,48.7740267],[2.5366147,48.7741477],[2.5364765,48.7746461],[2.5363614,48.7748458],[2.5361678,48.7750641],[2.5360527,48.7752938],[2.5358017,48.7760888],[2.5356816,48.7762115],[2.5356169,48.7768307],[2.5346857,48.7766841],[2.5352102,48.7757151],[2.5342877,48.7754608],[2.5347443,48.7745666],[2.5338195,48.7742499],[2.5342193,48.7737472],[2.5334501,48.7734347],[2.5340836,48.7727512],[2.5330416,48.7718963],[2.5322988,48.7714333],[2.5339204,48.7705407],[2.5342057,48.7703228],[2.5349653,48.7702608],[2.5352571,48.7701834],[2.5355068,48.7700827],[2.5360897,48.7697377],[2.5363324,48.7699164],[2.5366015,48.7700558],[2.5368499,48.7701422],[2.5371051,48.7701881],[2.5377601,48.7702044],[2.5381548,48.7701803],[2.5388591,48.7700581],[2.5386641,48.7695953],[2.5386532,48.7690301],[2.5392037,48.7690295],[2.5392002,48.7683933],[2.5392836,48.7683929],[2.5392063,48.7682841],[2.5392053,48.7681105],[2.5398007,48.7681187],[2.5399399,48.7682629],[2.5401211,48.7685052],[2.5401862,48.7687015],[2.5404528,48.7690782],[2.5405964,48.7693551],[2.5407212,48.7693801],[2.5407459,48.7694545],[2.5406912,48.769497],[2.5407379,48.769699],[2.540667,48.7697433]]]]},"properties":{"code_section":"94071000BD","code_commune":"94071","section_courte":"BD"}},{"type":"Feature","geometry":{"type":"MultiPolygon","coordinates":[[[[2.5188198,48.7658591],[2.5193447,48.7661471],[2.5191228,48.7662706],[2.5193648,48.76648],[2.5195494,48.7663526],[2.5196322,48.7663851],[2.5194433,48.7665207],[2.5196446,48.7666515],[2.5194552,48.7667781],[2.5193881,48.7668695],[2.5195481,48.7669438],[2.5193585,48.7671336],[2.5199641,48.7674525],[2.5197331,48.7676958],[2.5191786,48.7681671],[2.5179426,48.7673895],[2.5183523,48.7670545],[2.5178455,48.7667514],[2.5182672,48.7663826],[2.5187588,48.7661268],[2.518634,48.766055],[2.518696,48.7660029],[2.518212,48.7657254],[2.5183508,48.7655965],[2.5188198,48.7658591]]]]},"properties":{"code_section":"94071000ZA","code_commune":"94071","section_courte":"ZA"}}]}