{"type":"FeatureCollection","features":[{"type":"Feature","geometry":{"type":"MultiPolygon","coordinates":[[[[2.3671156,48.8037263],[2.3704006,48.8050349],[2.3699138,48.805299],[2.3685125,48.8067215],[2.3679387,48.8073784],[2.367189,48.8080876],[2.3653922,48.8075816],[2.3645254,48.8073785],[2.3650499,48.806449],[2.3671156,48.8037263]]]]},"properties":{"code_section":"940760000A","code_commune":"94076","section_courte":"A"}},{"type":"Feature","geometry":{"type":"MultiPolygon","coordinates":[[[[2.3625932,48.8054686],[2.3626172,48.8054183],[2.3619651,48.805186],[2.3623906,48.8044621],[2.3629378,48.803871],[2.3630569,48.8035957],[2.3634215,48.8024069],[2.3646556,48.8027513],[2.3671156,48.8037263],[2.3650499,48.806449],[2.3645254,48.8073785],[2.363198,48.807085],[2.3631637,48.8071823],[2.3628233,48.8071192],[2.3620775,48.8068165],[2.3625932,48.8054686]]]]},"properties":{"code_section":"940760000B","code_commune":"94076","section_courte":"B"}},{"type":"Feature","geometry":{"type":"MultiPolygon","coordinates":[[[[2.3625932,48.8054686],[2.3620775,48.8068165],[2.3621398,48.8068379],[2.3613856,48.8074162],[2.3589603,48.8064338],[2.3580824,48.8060376],[2.3583844,48.805473],[2.3587055,48.8040848],[2.3588906,48.8038513],[2.3590329,48.8037574],[2.3605364,48.8044081],[2.3604496,48.8045191],[2.3618283,48.8051309],[2.3626172,48.8054183],[2.3625932,48.8054686]]]]},"properties":{"code_section":"940760000C","code_commune":"94076","section_courte":"C"}},{"type":"Feature","geometry":{"type":"MultiPolygon","coordinates":[[[[2.3617358,48.8019543],[2.3634215,48.8024069],[2.3630569,48.8035957],[2.3629378,48.803871],[2.3623906,48.8044621],[2.3619651,48.805186],[2.3604496,48.8045191],[2.3605364,48.8044081],[2.3590329,48.8037574],[2.3596373,48.8030144],[2.3599379,48.8021409],[2.3602741,48.8016633],[2.3617358,48.8019543]]]]},"properties":{"code_section":"940760000D","code_commune":"94076","section_courte":"D"}},{"type":"Feature","geometry":{"type":"MultiPolygon","coordinates":[[[[2.3556013,48.8031521],[2.3554714,48.803172],[2.3548228,48.8027996],[2.3550615,48.8020239],[2.3554352,48.8004988],[2.3553603,48.8003086],[2.356235,48.8005963],[2.3571687,48.8009642],[2.3578877,48.8011724],[2.3585742,48.801214],[2.3602741,48.8016633],[2.3599379,48.8021409],[2.3596373,48.8030144],[2.3567306,48.8034201],[2.3564038,48.8030299],[2.3556013,48.8031521]]]]},"properties":{"code_section":"940760000E","code_commune":"94076","section_courte":"E"}},{"type":"Feature","geometry":{"type":"MultiPolygon","coordinates":[[[[2.3530267,48.8031656],[2.3528685,48.8031772],[2.3523095,48.802931],[2.3523265,48.8029131],[2.3508162,48.8022635],[2.3533464,48.7996119],[2.3536073,48.7994582],[2.355057,48.7999799],[2.3552449,48.8000208],[2.3554352,48.8004988],[2.3550615,48.8020239],[2.3548228,48.8027996],[2.3540883,48.8023778],[2.3530267,48.8031656]]]]},"properties":{"code_section":"940760000F","code_commune":"94076","section_courte":"F"}},{"type":"Feature","geometry":{"type":"MultiPolygon","coordinates":[[[[2.3470668,48.8007567],[2.3478082,48.8003359],[2.3479084,48.8004267],[2.3484127,48.8001414],[2.3488635,48.7997551],[2.3497748,48.7997599],[2.3503473,48.7996628],[2.3522716,48.7990741],[2.3535209,48.7995095],[2.3533464,48.7996119],[2.3531477,48.7998125],[2.3511193,48.8019345],[2.3500625,48.8015294],[2.3491932,48.8012426],[2.348482,48.8010677],[2.3477801,48.8015316],[2.3470668,48.8007567]]]]},"properties":{"code_section":"940760000G","code_commune":"94076","section_courte":"G"}},{"type":"Feature","geometry":{"type":"MultiPolygon","coordinates":[[[[2.3511719,48.7982153],[2.3527806,48.7986548],[2.3522454,48.7990852],[2.3503473,48.7996628],[2.3497748,48.7997599],[2.3488635,48.7997551],[2.3484127,48.8001414],[2.3479084,48.8004267],[2.3478082,48.8003359],[2.3470668,48.8007567],[2.3460168,48.7996235],[2.347707,48.7990093],[2.3474068,48.79884],[2.3476503,48.7986597],[2.3470628,48.798314],[2.3468502,48.7982518],[2.3490322,48.7973258],[2.3494202,48.7975209],[2.3505118,48.7979756],[2.3506606,48.7977259],[2.3509065,48.7978279],[2.3509562,48.7978486],[2.3509304,48.7981501],[2.3511719,48.7982153]]]]},"properties":{"code_section":"940760000H","code_commune":"94076","section_courte":"H"}},{"type":"Feature","geometry":{"type":"MultiPolygon","coordinates":[[[[2.3511719,48.7982153],[2.3509304,48.7981501],[2.3509562,48.7978486],[2.3509065,48.7978279],[2.3506606,48.7977259],[2.3505118,48.7979756],[2.3494202,48.7975209],[2.3490322,48.7973258],[2.3543785,48.7949588],[2.3549827,48.7981566],[2.3533119,48.7982868],[2.3530821,48.7984075],[2.3527806,48.7986548],[2.3511719,48.7982153]]]]},"properties":{"code_section":"940760000I","code_commune":"94076","section_courte":"I"}},{"type":"Feature","geometry":{"type":"MultiPolygon","coordinates":[[[[2.3550816,48.7967458],[2.354686,48.796651],[2.3543785,48.7949588],[2.3558392,48.7945461],[2.357061,48.7944271],[2.3597559,48.7945656],[2.3586919,48.7961705],[2.3582522,48.7971303],[2.3567177,48.7967674],[2.3567409,48.7967336],[2.3562924,48.7966243],[2.3557972,48.79696],[2.3550816,48.7967458]]]]},"properties":{"code_section":"940760000J","code_commune":"94076","section_courte":"J"}},{"type":"Feature","geometry":{"type":"MultiPolygon","coordinates":[[[[2.3549143,48.7966979],[2.3557972,48.79696],[2.3562924,48.7966243],[2.3567409,48.7967336],[2.3567177,48.7967674],[2.3582522,48.7971303],[2.3580267,48.7976361],[2.356235,48.8005963],[2.3553603,48.8003086],[2.3552449,48.8000208],[2.355057,48.7999799],[2.3536073,48.7994582],[2.3535209,48.7995095],[2.3522716,48.7990741],[2.3530821,48.7984075],[2.3533119,48.7982868],[2.3549827,48.7981566],[2.354686,48.796651],[2.3549143,48.7966979]]]]},"properties":{"code_section":"940760000K","code_commune":"94076","section_courte":"K"}},{"type":"Feature","geometry":{"type":"MultiPolygon","coordinates":[[[[2.3594129,48.8010123],[2.359188,48.8013771],[2.3585417,48.8012088],[2.3578877,48.8011724],[2.3571687,48.8009642],[2.356235,48.8005963],[2.3580267,48.7976361],[2.3586919,48.7961705],[2.3597559,48.7945656],[2.3647075,48.7948268],[2.3641801,48.7959426],[2.3633967,48.7973075],[2.3630295,48.7975696],[2.3621111,48.7987143],[2.3620274,48.7988069],[2.3618693,48.7988978],[2.3616098,48.799176],[2.3613699,48.7995098],[2.3610793,48.7994265],[2.360693,48.8001332],[2.3606338,48.8001155],[2.360445,48.8003969],[2.3603976,48.8005386],[2.3597928,48.8003776],[2.3594129,48.8010123]]]]},"properties":{"code_section":"940760000L","code_commune":"94076","section_courte":"L"}},{"type":"Feature","geometry":{"type":"MultiPolygon","coordinates":[[[[2.3638354,48.7984977],[2.3625761,48.7981099],[2.3630295,48.7975696],[2.3633967,48.7973075],[2.3641801,48.7959426],[2.3647075,48.7948268],[2.3663904,48.7949174],[2.3663149,48.7963064],[2.3656228,48.7962029],[2.3653,48.7971711],[2.3653834,48.7971977],[2.3650813,48.7978327],[2.364596,48.7987027],[2.3638354,48.7984977]]]]},"properties":{"code_section":"940760000M","code_commune":"94076","section_courte":"M"}},{"type":"Feature","geometry":{"type":"MultiPolygon","coordinates":[[[[2.3594129,48.8010123],[2.3597928,48.8003776],[2.3603976,48.8005386],[2.360445,48.8003969],[2.3606338,48.8001155],[2.360693,48.8001332],[2.3610793,48.7994265],[2.3613699,48.7995098],[2.3616098,48.799176],[2.3618693,48.7988978],[2.3620274,48.7988069],[2.3621111,48.7987143],[2.3625761,48.7981099],[2.3635038,48.7984089],[2.364596,48.7987027],[2.3638923,48.7999373],[2.3635434,48.8005024],[2.3634047,48.8006578],[2.362574,48.802173],[2.3617358,48.8019543],[2.3602741,48.8016633],[2.359188,48.8013771],[2.3594129,48.8010123]]]]},"properties":{"code_section":"940760000N","code_commune":"94076","section_courte":"N"}},{"type":"Feature","geometry":{"type":"MultiPolygon","coordinates":[[[[2.3668212,48.8006925],[2.3669215,48.8007164],[2.3669398,48.8006796],[2.3676353,48.8008754],[2.3675115,48.801214],[2.3676455,48.8012446],[2.3678623,48.8009294],[2.3685483,48.8012111],[2.3686266,48.801214],[2.3686417,48.8011076],[2.3687137,48.8011279],[2.3695317,48.801464],[2.3694093,48.8015831],[2.3691113,48.8017499],[2.3696303,48.8021593],[2.3684419,48.8035],[2.3681149,48.8041265],[2.3646556,48.8027513],[2.362574,48.802173],[2.3634437,48.8006102],[2.364281,48.8007959],[2.3651144,48.8009287],[2.3651738,48.8007822],[2.3662933,48.8010536],[2.3664123,48.8007257],[2.3665801,48.8006572],[2.3668212,48.8006925]]]]},"properties":{"code_section":"940760000O","code_commune":"94076","section_courte":"O"}},{"type":"Feature","geometry":{"type":"MultiPolygon","coordinates":[[[[2.3707623,48.8012489],[2.3730619,48.8025225],[2.3715296,48.8036902],[2.3702727,48.8049844],[2.3681149,48.8041265],[2.3684419,48.8035],[2.3696303,48.8021593],[2.3691113,48.8017499],[2.3694093,48.8015831],[2.3695317,48.801464],[2.3693009,48.8013637],[2.3693628,48.801296],[2.3699236,48.8007825],[2.3707623,48.8012489]]]]},"properties":{"code_section":"940760000P","code_commune":"94076","section_courte":"P"}},{"type":"Feature","geometry":{"type":"MultiPolygon","coordinates":[[[[2.3656289,48.7983099],[2.3659185,48.7983872],[2.3659469,48.7983005],[2.3661919,48.7983406],[2.3666417,48.7984653],[2.3666216,48.7985025],[2.3670047,48.798609],[2.3679893,48.7988254],[2.3679411,48.7989003],[2.369464,48.7995924],[2.3698492,48.7991464],[2.3709,48.7997246],[2.369994,48.8007114],[2.3692878,48.801378],[2.3687137,48.8011279],[2.3686417,48.8011076],[2.3686266,48.801214],[2.3685483,48.8012111],[2.3678623,48.8009294],[2.3676455,48.8012446],[2.3675115,48.801214],[2.3676353,48.8008754],[2.3669398,48.8006796],[2.3669215,48.8007164],[2.3665801,48.8006572],[2.3664123,48.8007257],[2.3662933,48.8010536],[2.3651738,48.8007822],[2.3651144,48.8009287],[2.364281,48.8007959],[2.3634437,48.8006102],[2.3638923,48.7999373],[2.3649656,48.7980424],[2.3650406,48.7980644],[2.3650528,48.7980402],[2.3655041,48.7981619],[2.3654472,48.7982604],[2.3656289,48.7983099]]]]},"properties":{"code_section":"940760000Q","code_commune":"94076","section_courte":"Q"}},{"type":"Feature","geometry":{"type":"MultiPolygon","coordinates":[[[[2.3656289,48.7983099],[2.3654472,48.7982604],[2.3655041,48.7981619],[2.3650528,48.7980402],[2.3650406,48.7980644],[2.3649656,48.7980424],[2.3653834,48.7971977],[2.3653,48.7971711],[2.3656228,48.7962029],[2.3663149,48.7963064],[2.3663563,48.7955661],[2.367807,48.7958036],[2.3687357,48.7960413],[2.371685,48.7970191],[2.3719538,48.7971509],[2.3700178,48.7989676],[2.369464,48.7995924],[2.3679411,48.7989003],[2.3679893,48.7988254],[2.3670047,48.798609],[2.3666216,48.7985025],[2.3666417,48.7984653],[2.3661919,48.7983406],[2.3659469,48.7983005],[2.3659185,48.7983872],[2.3656289,48.7983099]]]]},"properties":{"code_section":"940760000R","code_commune":"94076","section_courte":"R"}},{"type":"Feature","geometry":{"type":"MultiPolygon","coordinates":[[[[2.3713431,48.7950747],[2.3708018,48.7959084],[2.3702663,48.7965471],[2.3687357,48.7960413],[2.367807,48.7958036],[2.3663563,48.7955661],[2.3665197,48.7929501],[2.368538,48.7932601],[2.3684574,48.7934754],[2.3708026,48.7940274],[2.3707889,48.7940998],[2.3717445,48.7944198],[2.3713431,48.7950747]]]]},"properties":{"code_section":"940760000S","code_commune":"94076","section_courte":"S"}},{"type":"Feature","geometry":{"type":"MultiPolygon","coordinates":[[[[2.3735829,48.7918014],[2.3725831,48.7927979],[2.3720692,48.7936278],[2.3719663,48.7940538],[2.3717445,48.7944198],[2.3707889,48.7940998],[2.3708026,48.7940274],[2.3691358,48.7936273],[2.3695622,48.7916017],[2.3694518,48.7911563],[2.3700832,48.7910945],[2.3720759,48.7905546],[2.3734421,48.7911987],[2.3739139,48.7914704],[2.3735829,48.7918014]]]]},"properties":{"code_section":"940760000T","code_commune":"94076","section_courte":"T"}},{"type":"Feature","geometry":{"type":"MultiPolygon","coordinates":[[[[2.3743943,48.790533],[2.373702,48.7913333],[2.3720515,48.7905522],[2.3700832,48.7910945],[2.3694518,48.7911563],[2.3690581,48.7901561],[2.3696009,48.7886337],[2.36969,48.7885498],[2.3721161,48.7885907],[2.3718816,48.7889276],[2.3732028,48.7894931],[2.3741938,48.7900152],[2.374344,48.7900205],[2.3747497,48.7901179],[2.3743943,48.790533]]]]},"properties":{"code_section":"940760000U","code_commune":"94076","section_courte":"U"}},{"type":"Feature","geometry":{"type":"MultiPolygon","coordinates":[[[[2.3645989,48.7906333],[2.3644528,48.7906311],[2.3644452,48.7905073],[2.3642734,48.7903616],[2.3644171,48.7885169],[2.36969,48.7885498],[2.3696009,48.7886337],[2.3690581,48.7901561],[2.3694518,48.7911563],[2.3666492,48.7908918],[2.3666543,48.790657],[2.3661227,48.7906371],[2.3661242,48.7905549],[2.3652242,48.7905756],[2.3652185,48.7906443],[2.3645989,48.7906333]]]]},"properties":{"code_section":"940760000V","code_commune":"94076","section_courte":"V"}},{"type":"Feature","geometry":{"type":"MultiPolygon","coordinates":[[[[2.3645989,48.7906333],[2.3652185,48.7906443],[2.3652242,48.7905756],[2.3661242,48.7905549],[2.3661227,48.7906371],[2.3666543,48.790657],[2.3666492,48.7908918],[2.3694518,48.7911563],[2.3695622,48.7916017],[2.3691358,48.7936273],[2.3684574,48.7934754],[2.368538,48.7932601],[2.3665197,48.7929501],[2.366475,48.7927154],[2.3656662,48.7926278],[2.3647908,48.7926246],[2.3640395,48.7924689],[2.3642768,48.791916],[2.3644528,48.7906311],[2.3645989,48.7906333]]]]},"properties":{"code_section":"940760000X","code_commune":"94076","section_courte":"X"}},{"type":"Feature","geometry":{"type":"MultiPolygon","coordinates":[[[[2.3616974,48.7884908],[2.3644171,48.7885169],[2.3642734,48.7903616],[2.3644452,48.7905073],[2.3644528,48.7906311],[2.3642768,48.791916],[2.3640395,48.7924689],[2.3634604,48.7923585],[2.3621672,48.792039],[2.3621973,48.7918816],[2.3620533,48.791579],[2.3616822,48.7914526],[2.3614019,48.7912728],[2.3611729,48.7908737],[2.3616974,48.7884908]]]]},"properties":{"code_section":"940760000Y","code_commune":"94076","section_courte":"Y"}},{"type":"Feature","geometry":{"type":"MultiPolygon","coordinates":[[[[2.3621267,48.7920771],[2.3621672,48.792039],[2.3634604,48.7923585],[2.3647908,48.7926246],[2.3656662,48.7926278],[2.366475,48.7927154],[2.3665197,48.7929501],[2.3663904,48.7949174],[2.3602224,48.7945874],[2.360512,48.7933273],[2.3605822,48.7932325],[2.3615751,48.7926098],[2.3617845,48.7924526],[2.3621267,48.7920771]]]]},"properties":{"code_section":"940760000Z","code_commune":"94076","section_courte":"Z"}},{"type":"Feature","geometry":{"type":"MultiPolygon","coordinates":[[[[2.3578454,48.7924515],[2.3587025,48.7913835],[2.3603868,48.7918414],[2.3605093,48.7918045],[2.3607104,48.7915093],[2.3609897,48.7912515],[2.3613216,48.7911251],[2.3614019,48.7912728],[2.3616822,48.7914526],[2.3620533,48.791579],[2.3621973,48.7918816],[2.3621672,48.792039],[2.3617845,48.7924526],[2.3610095,48.7929849],[2.3605822,48.7932325],[2.3605147,48.7933226],[2.3602224,48.7945874],[2.3583162,48.7944746],[2.3586678,48.7939475],[2.3591375,48.7933535],[2.3594104,48.7932425],[2.359549,48.7930469],[2.35782,48.7924827],[2.3578454,48.7924515]]]]},"properties":{"code_section":"94076000AB","code_commune":"94076","section_courte":"AB"}},{"type":"Feature","geometry":{"type":"MultiPolygon","coordinates":[[[[2.3578454,48.7924515],[2.35782,48.7924827],[2.359549,48.7930469],[2.3594104,48.7932425],[2.3591375,48.7933535],[2.3582625,48.7930974],[2.3572517,48.7928707],[2.3565358,48.7928916],[2.3559812,48.7929779],[2.3536714,48.7921883],[2.3536024,48.7919617],[2.3536617,48.7912175],[2.3539966,48.7886853],[2.3542231,48.7873879],[2.3587316,48.7884584],[2.3616974,48.7884908],[2.3611729,48.7908737],[2.3613216,48.7911251],[2.3609897,48.7912515],[2.3607104,48.7915093],[2.3605093,48.7918045],[2.3603868,48.7918414],[2.3587025,48.7913835],[2.3578454,48.7924515]]]]},"properties":{"code_section":"94076000AC","code_commune":"94076","section_courte":"AC"}},{"type":"Feature","geometry":{"type":"MultiPolygon","coordinates":[[[[2.3553512,48.7927597],[2.3559812,48.7929779],[2.3565358,48.7928916],[2.3572517,48.7928707],[2.3582625,48.7930974],[2.3591375,48.7933535],[2.3586678,48.7939475],[2.3583162,48.7944746],[2.3571203,48.7944254],[2.3562923,48.79449],[2.3558392,48.7945461],[2.3543785,48.7949588],[2.3542069,48.7939499],[2.3539744,48.7932867],[2.3536714,48.7921883],[2.3553512,48.7927597]]]]},"properties":{"code_section":"94076000AD","code_commune":"94076","section_courte":"AD"}},{"type":"Feature","geometry":{"type":"MultiPolygon","coordinates":[[[[2.3495272,48.7960743],[2.3476986,48.7952406],[2.3487173,48.7944971],[2.3495839,48.7937544],[2.3495687,48.7937091],[2.3496498,48.7937483],[2.3496892,48.7937191],[2.3508301,48.7934687],[2.3539744,48.7932867],[2.3542069,48.7939499],[2.3543785,48.7949588],[2.3507391,48.7965665],[2.3495272,48.7960743]]]]},"properties":{"code_section":"94076000AE","code_commune":"94076","section_courte":"AE"}},{"type":"Feature","geometry":{"type":"MultiPolygon","coordinates":[[[[2.3453133,48.7977253],[2.3460172,48.7971461],[2.3452512,48.7968893],[2.3464229,48.7963055],[2.3469916,48.7957797],[2.3477505,48.7952653],[2.3486986,48.7957154],[2.3507391,48.7965665],[2.3468502,48.7982518],[2.3452276,48.7977955],[2.3453133,48.7977253]]]]},"properties":{"code_section":"94076000AF","code_commune":"94076","section_courte":"AF"}},{"type":"Feature","geometry":{"type":"MultiPolygon","coordinates":[[[[2.3449745,48.7947848],[2.3449773,48.7944294],[2.3453922,48.7944962],[2.3476681,48.7952623],[2.3476986,48.7952406],[2.3477505,48.7952653],[2.3469916,48.7957797],[2.3464229,48.7963055],[2.3452512,48.7968893],[2.3437805,48.7976919],[2.3443388,48.7969023],[2.3446805,48.796209],[2.3448784,48.7955586],[2.3449745,48.7947848]]]]},"properties":{"code_section":"94076000AG","code_commune":"94076","section_courte":"AG"}},{"type":"Feature","geometry":{"type":"MultiPolygon","coordinates":[[[[2.3447733,48.7932845],[2.3443123,48.7914051],[2.3442187,48.7907317],[2.3450361,48.7902466],[2.346237,48.7896114],[2.3462168,48.7895846],[2.3473448,48.7889373],[2.3483398,48.7882644],[2.348532,48.7889307],[2.3498162,48.7899926],[2.3502734,48.7902514],[2.3509507,48.7908119],[2.3511943,48.7906819],[2.3512976,48.7907364],[2.35132,48.7907129],[2.3524533,48.7909535],[2.3524608,48.7909359],[2.3526099,48.7909636],[2.3526187,48.7909447],[2.3534516,48.791112],[2.3534352,48.7911632],[2.3536617,48.7912175],[2.3536024,48.7919617],[2.3539744,48.7932867],[2.3508301,48.7934687],[2.3496892,48.7937191],[2.3496498,48.7937483],[2.3495687,48.7937091],[2.3495839,48.7937544],[2.3487173,48.7944971],[2.3476681,48.7952623],[2.3453922,48.7944962],[2.3449773,48.7944294],[2.3448986,48.7937994],[2.3447733,48.7932845]]]]},"properties":{"code_section":"94076000AH","code_commune":"94076","section_courte":"AH"}},{"type":"Feature","geometry":{"type":"MultiPolygon","coordinates":[[[[2.3520703,48.7870833],[2.3521069,48.7868989],[2.3542231,48.7873879],[2.3539966,48.7886853],[2.3536617,48.7912175],[2.3534352,48.7911632],[2.3534516,48.791112],[2.3526187,48.7909447],[2.3526099,48.7909636],[2.3524608,48.7909359],[2.3524533,48.7909535],[2.35132,48.7907129],[2.3512976,48.7907364],[2.3511943,48.7906819],[2.3509507,48.7908119],[2.3502734,48.7902514],[2.3498162,48.7899926],[2.3495748,48.7897886],[2.3496421,48.7897255],[2.3491875,48.7893485],[2.3492275,48.7893266],[2.3491735,48.7892795],[2.3493774,48.7891722],[2.3498332,48.789548],[2.3498709,48.7895129],[2.3503126,48.7898776],[2.3507608,48.7896433],[2.3503665,48.7893123],[2.3502882,48.789124],[2.3504462,48.788975],[2.3504677,48.7890485],[2.3506549,48.7890241],[2.3509671,48.7891633],[2.3518787,48.7880218],[2.3518378,48.7880131],[2.3520703,48.7870833]]]]},"properties":{"code_section":"94076000AI","code_commune":"94076","section_courte":"AI"}},{"type":"Feature","geometry":{"type":"MultiPolygon","coordinates":[[[[2.3480578,48.7868456],[2.3485476,48.7867686],[2.3483684,48.7863345],[2.3509904,48.7859887],[2.3511847,48.7865937],[2.3511383,48.7866814],[2.3521069,48.7868989],[2.3518378,48.7880131],[2.3518787,48.7880218],[2.3509682,48.789162],[2.3506549,48.7890241],[2.3504677,48.7890485],[2.3504462,48.788975],[2.3502882,48.789124],[2.3503665,48.7893123],[2.3507608,48.7896433],[2.3503126,48.7898776],[2.3498709,48.7895129],[2.3498332,48.789548],[2.3493774,48.7891722],[2.3491735,48.7892795],[2.3492275,48.7893266],[2.3491875,48.7893485],[2.3496421,48.7897255],[2.3495748,48.7897886],[2.348532,48.7889307],[2.3481476,48.7876153],[2.3478786,48.7868736],[2.3480578,48.7868456]]]]},"properties":{"code_section":"94076000AJ","code_commune":"94076","section_courte":"AJ"}},{"type":"Feature","geometry":{"type":"MultiPolygon","coordinates":[[[[2.3488582,48.7856525],[2.3481194,48.7857335],[2.3485476,48.7867686],[2.3478786,48.7868736],[2.3483398,48.7882644],[2.3473448,48.7889373],[2.3462168,48.7895846],[2.3460442,48.7893339],[2.3454221,48.7879373],[2.3448623,48.7863641],[2.3449516,48.786353],[2.3446446,48.7854686],[2.347816,48.784992],[2.3478226,48.7850297],[2.3478742,48.785026],[2.3478483,48.7850451],[2.3479461,48.7851088],[2.3479471,48.7853173],[2.3480289,48.7853713],[2.3481221,48.7854302],[2.3484362,48.7854196],[2.3485319,48.7854805],[2.3485573,48.7854622],[2.3488582,48.7856525]]]]},"properties":{"code_section":"94076000AK","code_commune":"94076","section_courte":"AK"}},{"type":"Feature","geometry":{"type":"MultiPolygon","coordinates":[[[[2.3508231,48.7837871],[2.3509364,48.7839636],[2.3510599,48.784359],[2.350525,48.7844135],[2.3509904,48.7859887],[2.3483684,48.7863345],[2.3481194,48.7857335],[2.3488582,48.7856525],[2.3485573,48.7854622],[2.3485319,48.7854805],[2.3484362,48.7854196],[2.3481221,48.7854302],[2.3479471,48.7853173],[2.3479461,48.7851088],[2.3478483,48.7850451],[2.3478742,48.785026],[2.3478226,48.7850297],[2.3475809,48.7840451],[2.3481857,48.7839828],[2.3473917,48.7822135],[2.3493608,48.7818801],[2.3508231,48.7837871]]]]},"properties":{"code_section":"94076000AL","code_commune":"94076","section_courte":"AL"}},{"type":"Feature","geometry":{"type":"MultiPolygon","coordinates":[[[[2.3518055,48.7839015],[2.3519983,48.7838357],[2.3522073,48.7844114],[2.3529387,48.7842716],[2.3530055,48.7843096],[2.3546336,48.7840227],[2.35456,48.7851202],[2.3544319,48.7857866],[2.3542231,48.7873879],[2.3511383,48.7866814],[2.3511847,48.7865937],[2.350525,48.7844135],[2.3510599,48.784359],[2.3509964,48.7841624],[2.3518055,48.7839015]]]]},"properties":{"code_section":"94076000AM","code_commune":"94076","section_courte":"AM"}},{"type":"Feature","geometry":{"type":"MultiPolygon","coordinates":[[[[2.3531669,48.7833224],[2.353227,48.783416],[2.3509964,48.7841624],[2.3509364,48.7839636],[2.3508231,48.7837871],[2.3493608,48.7818801],[2.3496635,48.781827],[2.3505794,48.7809646],[2.3526541,48.7809613],[2.3535059,48.7805022],[2.3536913,48.7805954],[2.3536879,48.7809492],[2.3540352,48.780948],[2.3540934,48.7809184],[2.354654,48.7815131],[2.3545746,48.7815521],[2.354869,48.7818241],[2.3527375,48.7826922],[2.3531669,48.7833224]]]]},"properties":{"code_section":"94076000AN","code_commune":"94076","section_courte":"AN"}},{"type":"Feature","geometry":{"type":"MultiPolygon","coordinates":[[[[2.3568777,48.7825399],[2.355296,48.7823572],[2.3554181,48.7820068],[2.3551211,48.7821052],[2.3548256,48.7817653],[2.3545746,48.7815521],[2.354654,48.7815131],[2.3540934,48.7809184],[2.3540352,48.780948],[2.3536879,48.7809492],[2.3536913,48.7805954],[2.3530435,48.7802903],[2.3547621,48.7788745],[2.3548578,48.7787447],[2.3578652,48.779208],[2.3575691,48.7799723],[2.3577232,48.7800136],[2.3572111,48.7810016],[2.3576083,48.7810875],[2.3570761,48.7825634],[2.3568777,48.7825399]]]]},"properties":{"code_section":"94076000AO","code_commune":"94076","section_courte":"AO"}},{"type":"Feature","geometry":{"type":"MultiPolygon","coordinates":[[[[2.3574532,48.7825901],[2.3575776,48.7825989],[2.3582244,48.783509],[2.3560261,48.7835954],[2.3561344,48.7832031],[2.3549699,48.7831944],[2.3546336,48.7840227],[2.3530055,48.7843096],[2.3529387,48.7842716],[2.3522073,48.7844114],[2.3519983,48.7838357],[2.353227,48.783416],[2.3527375,48.7826922],[2.354869,48.7818241],[2.3551211,48.7821052],[2.3554181,48.7820068],[2.355296,48.7823572],[2.3574532,48.7825901]]]]},"properties":{"code_section":"94076000AP","code_commune":"94076","section_courte":"AP"}},{"type":"Feature","geometry":{"type":"MultiPolygon","coordinates":[[[[2.3569533,48.7856055],[2.3544319,48.7857866],[2.35456,48.7851202],[2.3546336,48.7840227],[2.3549699,48.7831944],[2.3561344,48.7832031],[2.3560261,48.7835954],[2.3581967,48.7835149],[2.3583713,48.7837862],[2.3592368,48.7847654],[2.3589442,48.7848851],[2.3598251,48.7858163],[2.3596231,48.7858185],[2.359767,48.7859727],[2.3597228,48.7859928],[2.3598066,48.7860831],[2.3597006,48.7861286],[2.3594174,48.7858219],[2.3577214,48.7858419],[2.357721,48.7858224],[2.3574834,48.7858242],[2.3574911,48.7860435],[2.357129,48.7860699],[2.3570868,48.7855955],[2.3569533,48.7856055]]]]},"properties":{"code_section":"94076000AQ","code_commune":"94076","section_courte":"AQ"}},{"type":"Feature","geometry":{"type":"MultiPolygon","coordinates":[[[[2.3588438,48.7868718],[2.3588339,48.7870508],[2.3582748,48.7870413],[2.35809,48.788306],[2.3542231,48.7873879],[2.3544319,48.7857866],[2.3570868,48.7855955],[2.357129,48.7860699],[2.3574911,48.7860435],[2.3574834,48.7858242],[2.357721,48.7858224],[2.3577214,48.7858419],[2.3594174,48.7858219],[2.3597006,48.7861286],[2.3598066,48.7860831],[2.3597228,48.7859928],[2.359767,48.7859727],[2.3596231,48.7858185],[2.3597617,48.7858173],[2.3600489,48.7861137],[2.3608332,48.7866374],[2.3605793,48.7868075],[2.3604672,48.7868448],[2.3595631,48.7868302],[2.3595595,48.7868875],[2.3588438,48.7868718]]]]},"properties":{"code_section":"94076000AR","code_commune":"94076","section_courte":"AR"}},{"type":"Feature","geometry":{"type":"MultiPolygon","coordinates":[[[[2.3609541,48.7859193],[2.3609564,48.785944],[2.3620392,48.7859925],[2.3621414,48.785259],[2.363061,48.7852569],[2.363157,48.7865116],[2.363064,48.7865114],[2.3630693,48.7865832],[2.3629601,48.7865821],[2.3630091,48.7872774],[2.3627546,48.7872787],[2.3627563,48.7876232],[2.3630376,48.7878435],[2.3628248,48.7878348],[2.3628389,48.7880614],[2.3625436,48.7880648],[2.3625832,48.7882131],[2.3627472,48.7882156],[2.362743,48.7885044],[2.3587316,48.7884584],[2.35809,48.788306],[2.3582748,48.7870413],[2.3588339,48.7870508],[2.3588438,48.7868718],[2.3595595,48.7868875],[2.3595631,48.7868302],[2.3604672,48.7868448],[2.3605793,48.7868075],[2.3608332,48.7866374],[2.3600109,48.7860836],[2.3597617,48.7858173],[2.3598251,48.7858163],[2.3589442,48.7848851],[2.3592368,48.7847654],[2.3603049,48.7857748],[2.3605423,48.785946],[2.3609541,48.7859193]]]]},"properties":{"code_section":"94076000AS","code_commune":"94076","section_courte":"AS"}},{"type":"Feature","geometry":{"type":"MultiPolygon","coordinates":[[[[2.3609541,48.7859193],[2.3605423,48.785946],[2.3603049,48.7857748],[2.3593387,48.78488],[2.3583713,48.7837862],[2.357908,48.7830537],[2.3592209,48.7825734],[2.3593994,48.7825806],[2.3602953,48.7827468],[2.3604245,48.7827482],[2.3606767,48.78258],[2.3621199,48.7825528],[2.3621886,48.7832674],[2.3621885,48.7849691],[2.3620392,48.7859925],[2.3609564,48.785944],[2.3609541,48.7859193]]]]},"properties":{"code_section":"94076000AT","code_commune":"94076","section_courte":"AT"}},{"type":"Feature","geometry":{"type":"MultiPolygon","coordinates":[[[[2.3614265,48.7809548],[2.3611997,48.7808972],[2.3614514,48.7813211],[2.3612273,48.7825699],[2.3606767,48.78258],[2.3604245,48.7827482],[2.3602953,48.7827468],[2.3593994,48.7825806],[2.3592209,48.7825734],[2.357908,48.7830537],[2.3575776,48.7825989],[2.3570761,48.7825634],[2.3576083,48.7810875],[2.3572111,48.7810016],[2.3577232,48.7800136],[2.3575691,48.7799723],[2.3580762,48.7786876],[2.3592653,48.7789669],[2.3592247,48.7790592],[2.3612116,48.7794722],[2.3622485,48.7797398],[2.3617576,48.7810383],[2.3614265,48.7809548]]]]},"properties":{"code_section":"94076000AU","code_commune":"94076","section_courte":"AU"}},{"type":"Feature","geometry":{"type":"MultiPolygon","coordinates":[[[[2.362516,48.7798082],[2.3649359,48.780444],[2.3666837,48.7807778],[2.3672608,48.7808562],[2.3671357,48.7827678],[2.3621439,48.7827149],[2.3621199,48.7825528],[2.3612273,48.7825699],[2.3614514,48.7813211],[2.3611997,48.7808972],[2.3617576,48.7810383],[2.3622485,48.7797398],[2.362516,48.7798082]]]]},"properties":{"code_section":"94076000AV","code_commune":"94076","section_courte":"AV"}},{"type":"Feature","geometry":{"type":"MultiPolygon","coordinates":[[[[2.3636199,48.7852524],[2.3621414,48.785259],[2.3621885,48.7849691],[2.3622018,48.7839621],[2.3621439,48.7827149],[2.3671357,48.7827678],[2.3669774,48.7852295],[2.3636199,48.7852524]]]]},"properties":{"code_section":"94076000AX","code_commune":"94076","section_courte":"AX"}},{"type":"Feature","geometry":{"type":"MultiPolygon","coordinates":[[[[2.3636199,48.7852524],[2.3669774,48.7852295],[2.3667865,48.788529],[2.362743,48.7885044],[2.3627472,48.7882156],[2.3625832,48.7882131],[2.3625436,48.7880648],[2.3628389,48.7880614],[2.3628248,48.7878348],[2.3630376,48.7878435],[2.3627563,48.7876232],[2.3627546,48.7872787],[2.3630091,48.7872774],[2.3629601,48.7865821],[2.3630693,48.7865832],[2.363064,48.7865114],[2.363157,48.7865116],[2.363061,48.7852569],[2.3636199,48.7852524]]]]},"properties":{"code_section":"94076000AY","code_commune":"94076","section_courte":"AY"}},{"type":"Feature","geometry":{"type":"MultiPolygon","coordinates":[[[[2.3702538,48.7861808],[2.3702883,48.7861862],[2.3702528,48.7862549],[2.3729775,48.7869245],[2.3719276,48.788464],[2.3719077,48.7885798],[2.3667865,48.788529],[2.3669589,48.7857565],[2.3702538,48.7861808]]]]},"properties":{"code_section":"94076000AZ","code_commune":"94076","section_courte":"AZ"}},{"type":"Feature","geometry":{"type":"MultiPolygon","coordinates":[[[[2.3752355,48.7866692],[2.3756441,48.7861043],[2.3768641,48.786668],[2.3741938,48.7900152],[2.3732028,48.7894931],[2.3718816,48.7889276],[2.3721161,48.7885907],[2.3719077,48.7885798],[2.3719008,48.7885056],[2.3729775,48.7869245],[2.3741883,48.7872718],[2.3747133,48.7874598],[2.3752355,48.7866692]]]]},"properties":{"code_section":"94076000BC","code_commune":"94076","section_courte":"BC"}},{"type":"Feature","geometry":{"type":"MultiPolygon","coordinates":[[[[2.3752355,48.7866692],[2.3747133,48.7874598],[2.3741883,48.7872718],[2.3729775,48.7869245],[2.3702528,48.7862549],[2.3711789,48.7845552],[2.3717328,48.7834444],[2.3746068,48.7856206],[2.3756441,48.7861043],[2.3752355,48.7866692]]]]},"properties":{"code_section":"94076000BD","code_commune":"94076","section_courte":"BD"}},{"type":"Feature","geometry":{"type":"MultiPolygon","coordinates":[[[[2.3711099,48.783149],[2.3717328,48.7834444],[2.3711789,48.7845552],[2.3702883,48.7861862],[2.3669589,48.7857565],[2.3670739,48.7834683],[2.3690104,48.7836883],[2.3694545,48.782347],[2.3711099,48.783149]]]]},"properties":{"code_section":"94076000BE","code_commune":"94076","section_courte":"BE"}},{"type":"Feature","geometry":{"type":"MultiPolygon","coordinates":[[[[2.3691011,48.7834261],[2.3690104,48.7836883],[2.3670739,48.7834683],[2.3673447,48.7794395],[2.3708946,48.7806854],[2.3694523,48.7823502],[2.3691011,48.7834261]]]]},"properties":{"code_section":"94076000BF","code_commune":"94076","section_courte":"BF"}}]}