{"type":"FeatureCollection","features":[{"type":"Feature","geometry":{"type":"MultiPolygon","coordinates":[[[[2.5492641,48.7130662],[2.5498545,48.7139213],[2.5504693,48.7146373],[2.5500842,48.7150498],[2.5516407,48.7158745],[2.5518642,48.7156961],[2.5532393,48.7164419],[2.55364,48.7161702],[2.5532186,48.715808],[2.5540759,48.7153683],[2.5556762,48.7165828],[2.5570554,48.7181222],[2.5559252,48.7185485],[2.5534694,48.7193737],[2.5533088,48.7191919],[2.5521642,48.7194954],[2.5536201,48.7223078],[2.5519357,48.7235828],[2.5516802,48.7238481],[2.5500143,48.7252917],[2.549279,48.7258383],[2.5488292,48.7253999],[2.5457091,48.7253702],[2.5442694,48.7254237],[2.5442794,48.7252635],[2.5439859,48.7252932],[2.5438344,48.7252625],[2.5436402,48.725271],[2.5433675,48.7249941],[2.5434464,48.7248986],[2.5438699,48.7246096],[2.544077,48.7244221],[2.5441464,48.7241012],[2.5442612,48.7239372],[2.5444808,48.7238106],[2.5444259,48.7236194],[2.5446541,48.7234474],[2.5446622,48.72327],[2.5448695,48.7230526],[2.5448969,48.7229665],[2.5448187,48.7228475],[2.5446985,48.7228587],[2.5446702,48.7228379],[2.5445046,48.7224477],[2.5442606,48.7224272],[2.5441428,48.7223112],[2.5440898,48.722316],[2.5439292,48.7224454],[2.5436985,48.7224558],[2.543581,48.7223897],[2.5433996,48.7219171],[2.5432951,48.7218418],[2.5432648,48.7217396],[2.543174,48.720791],[2.54301,48.7204033],[2.5436288,48.7201974],[2.5445623,48.71979],[2.5449165,48.7195425],[2.5452855,48.7191946],[2.5452773,48.7191068],[2.5450043,48.7188621],[2.544999,48.7187633],[2.5453224,48.7180822],[2.5454132,48.7176896],[2.5457456,48.7169303],[2.5456737,48.7160346],[2.5457385,48.7159854],[2.5457527,48.714864],[2.5455848,48.7130869],[2.5454194,48.7123353],[2.5454575,48.7123498],[2.5473508,48.7121377],[2.5484805,48.7118684],[2.5492641,48.7130662]]]]},"properties":{"code_section":"940750000C","code_commune":"94075","section_courte":"C"}},{"type":"Feature","geometry":{"type":"MultiPolygon","coordinates":[[[[2.5249388,48.7299746],[2.5254661,48.7302307],[2.5255749,48.7303133],[2.5224197,48.7321063],[2.5169006,48.7385825],[2.5161947,48.7382536],[2.5149527,48.7388309],[2.5121738,48.7379315],[2.5116004,48.7377813],[2.5115809,48.7377323],[2.5086145,48.7369518],[2.5085417,48.7362444],[2.508605,48.7361054],[2.5121789,48.7325706],[2.5129765,48.7327376],[2.5130744,48.7327271],[2.5131249,48.7326764],[2.5134782,48.732749],[2.5132072,48.7327887],[2.5203655,48.7342717],[2.5215057,48.732923],[2.5153394,48.7294595],[2.5155651,48.7292481],[2.5166794,48.7220931],[2.5170009,48.722099],[2.5171912,48.7223599],[2.5232445,48.7291504],[2.5249388,48.7299746]]]]},"properties":{"code_section":"94075000AB","code_commune":"94075","section_courte":"AB"}},{"type":"Feature","geometry":{"type":"MultiPolygon","coordinates":[[[[2.5168871,48.7303262],[2.5215057,48.732923],[2.5203655,48.7342717],[2.5132072,48.7327887],[2.5134782,48.732749],[2.5131249,48.7326764],[2.5130744,48.7327271],[2.5129765,48.7327376],[2.5121789,48.7325706],[2.5153394,48.7294595],[2.5168871,48.7303262]]]]},"properties":{"code_section":"94075000AC","code_commune":"94075","section_courte":"AC"}},{"type":"Feature","geometry":{"type":"MultiPolygon","coordinates":[[[[2.5171912,48.7223599],[2.5170009,48.722099],[2.5228615,48.7220964],[2.5238919,48.7220595],[2.5266275,48.7221958],[2.5274185,48.7222088],[2.5290801,48.7221417],[2.5290702,48.7224006],[2.5289613,48.722863],[2.5288328,48.7230835],[2.527948,48.7240396],[2.527403,48.7250845],[2.5272899,48.7254457],[2.5266831,48.7253682],[2.5263477,48.7253957],[2.5257391,48.7255147],[2.5249903,48.725732],[2.5238837,48.7258765],[2.5231086,48.7260525],[2.5221341,48.7262136],[2.5215517,48.7264926],[2.5211542,48.7266284],[2.5209956,48.7266359],[2.5171912,48.7223599]]]]},"properties":{"code_section":"94075000AD","code_commune":"94075","section_courte":"AD"}},{"type":"Feature","geometry":{"type":"MultiPolygon","coordinates":[[[[2.5249388,48.7299746],[2.5232445,48.7291504],[2.5209956,48.7266359],[2.5211542,48.7266284],[2.5215517,48.7264926],[2.5221341,48.7262136],[2.5231086,48.7260525],[2.5238837,48.7258765],[2.5249903,48.725732],[2.5257391,48.7255147],[2.5263477,48.7253957],[2.5266831,48.7253682],[2.5272899,48.7254457],[2.5287012,48.725949],[2.5299706,48.726243],[2.5312572,48.7260763],[2.5312354,48.7261945],[2.5311946,48.72619],[2.531148,48.7264208],[2.5311936,48.7264236],[2.5309751,48.727302],[2.5255749,48.7303133],[2.5254661,48.7302307],[2.5249388,48.7299746]]]]},"properties":{"code_section":"94075000AE","code_commune":"94075","section_courte":"AE"}},{"type":"Feature","geometry":{"type":"MultiPolygon","coordinates":[[[[2.5328893,48.7276742],[2.5307843,48.7273906],[2.5309751,48.727302],[2.5311936,48.7264236],[2.531148,48.7264208],[2.5311946,48.72619],[2.5312354,48.7261945],[2.5312572,48.7260763],[2.5299706,48.726243],[2.5287012,48.725949],[2.5272899,48.7254457],[2.527403,48.7250845],[2.527948,48.7240396],[2.5288328,48.7230835],[2.5289613,48.722863],[2.5290702,48.7224006],[2.5290801,48.7221417],[2.5303226,48.7220536],[2.5308961,48.7220556],[2.5313855,48.722098],[2.5319778,48.7221908],[2.5325891,48.7221904],[2.5332456,48.7221297],[2.5335869,48.722128],[2.5335087,48.722366],[2.5333699,48.7225619],[2.5329688,48.7229299],[2.5328815,48.7234726],[2.5329534,48.723745],[2.5333901,48.7240281],[2.5336853,48.7242676],[2.5341262,48.7247057],[2.5346023,48.7255393],[2.5352611,48.7261496],[2.5352332,48.7261603],[2.5354034,48.7263404],[2.53535,48.7263429],[2.5357911,48.7268865],[2.5359721,48.7273616],[2.5376693,48.7274441],[2.5364974,48.7281832],[2.5362538,48.728117],[2.5328893,48.7276742]]]]},"properties":{"code_section":"94075000AH","code_commune":"94075","section_courte":"AH"}},{"type":"Feature","geometry":{"type":"MultiPolygon","coordinates":[[[[2.5368152,48.7263525],[2.5370907,48.7274255],[2.5359721,48.7273616],[2.5357911,48.7268865],[2.53535,48.7263429],[2.5354034,48.7263404],[2.5352332,48.7261603],[2.5352611,48.7261496],[2.5346023,48.7255393],[2.5341262,48.7247057],[2.5336853,48.7242676],[2.5333901,48.7240281],[2.5329534,48.723745],[2.5328815,48.7234726],[2.5329688,48.7229299],[2.5333699,48.7225619],[2.5335087,48.722366],[2.5335869,48.722128],[2.5353451,48.7219041],[2.5371135,48.7220851],[2.537955,48.7220012],[2.5385828,48.7218574],[2.5393176,48.7216395],[2.5409671,48.7210165],[2.5429269,48.7204071],[2.54301,48.7204033],[2.543174,48.720791],[2.5432648,48.7217396],[2.5432951,48.7218418],[2.5433996,48.7219171],[2.543581,48.7223897],[2.5436985,48.7224558],[2.5439292,48.7224454],[2.5440898,48.722316],[2.5441428,48.7223112],[2.5442606,48.7224272],[2.5445046,48.7224477],[2.5446702,48.7228379],[2.5446985,48.7228587],[2.5448187,48.7228475],[2.5448969,48.7229665],[2.5448695,48.7230526],[2.5446622,48.72327],[2.5446541,48.7234474],[2.5444259,48.7236194],[2.5444808,48.7238106],[2.5442612,48.7239372],[2.5441464,48.7241012],[2.544077,48.7244221],[2.5438699,48.7246096],[2.5433935,48.7249468],[2.543334,48.7250573],[2.5435672,48.7252886],[2.543436,48.7252919],[2.5404524,48.7258864],[2.5377013,48.7262923],[2.5376345,48.7262682],[2.5367953,48.7262806],[2.5368152,48.7263525]]]]},"properties":{"code_section":"94075000AI","code_commune":"94075","section_courte":"AI"}},{"type":"Feature","geometry":{"type":"MultiPolygon","coordinates":[[[[2.5357245,48.7175776],[2.5365071,48.7172219],[2.5367342,48.7170813],[2.536846,48.7170972],[2.5370068,48.7170184],[2.5370776,48.7170148],[2.537723,48.7170892],[2.5382765,48.7173423],[2.5384967,48.7175832],[2.5386646,48.7176693],[2.5385856,48.7178729],[2.5386104,48.7179132],[2.5388879,48.7180437],[2.538806,48.7181346],[2.5388281,48.7181738],[2.5390469,48.7181708],[2.5395651,48.7184659],[2.5396719,48.7184673],[2.5397997,48.7184244],[2.5399284,48.7184553],[2.5400933,48.71862],[2.5406485,48.7189387],[2.5406568,48.718984],[2.540555,48.7191405],[2.5406485,48.7191518],[2.5407095,48.7192254],[2.5409973,48.719215],[2.5411097,48.7192468],[2.5413545,48.7194848],[2.5415461,48.7195687],[2.5417742,48.7196023],[2.5419396,48.7197429],[2.5420409,48.7196806],[2.5421543,48.7196902],[2.5423301,48.7199209],[2.5424989,48.7199223],[2.5426331,48.7199802],[2.5427257,48.7201738],[2.5429639,48.7202958],[2.5430235,48.7203999],[2.5429269,48.7204071],[2.5409671,48.7210165],[2.5393176,48.7216395],[2.5385828,48.7218574],[2.537955,48.7220012],[2.5371135,48.7220851],[2.5353451,48.7219041],[2.5335869,48.722128],[2.5332958,48.7205992],[2.5327821,48.7201923],[2.5332747,48.7199785],[2.5340599,48.7194996],[2.5341216,48.7193979],[2.5340229,48.7190432],[2.5340549,48.71892],[2.5355506,48.7176874],[2.5357245,48.7175776]]]]},"properties":{"code_section":"94075000AK","code_commune":"94075","section_courte":"AK"}},{"type":"Feature","geometry":{"type":"MultiPolygon","coordinates":[[[[2.5425941,48.7199525],[2.5424989,48.7199223],[2.5423301,48.7199209],[2.5421543,48.7196902],[2.5420409,48.7196806],[2.5419396,48.7197429],[2.5417742,48.7196023],[2.5414538,48.7195377],[2.5413545,48.7194848],[2.5411097,48.7192468],[2.5409973,48.719215],[2.5407095,48.7192254],[2.5406485,48.7191518],[2.5405723,48.7191503],[2.5405485,48.7191237],[2.5406568,48.718984],[2.5406485,48.7189387],[2.5400933,48.71862],[2.5399284,48.7184553],[2.5397997,48.7184244],[2.5396719,48.7184673],[2.5395651,48.7184659],[2.5390469,48.7181708],[2.5388281,48.7181738],[2.538806,48.7181346],[2.5388879,48.7180437],[2.5386104,48.7179132],[2.5385856,48.7178729],[2.5386646,48.7176693],[2.5384967,48.7175832],[2.5382765,48.7173423],[2.5376502,48.7170684],[2.5370776,48.7170148],[2.5370068,48.7170184],[2.536846,48.7170972],[2.5367342,48.7170813],[2.5373574,48.7163175],[2.537408,48.7162122],[2.5374165,48.7159861],[2.5372462,48.7147897],[2.5373405,48.7145014],[2.5377152,48.7137613],[2.5410469,48.7147802],[2.5419259,48.7149276],[2.5427074,48.7152],[2.5434935,48.7155849],[2.5438185,48.7156923],[2.5444442,48.7158377],[2.5457385,48.7159854],[2.5456737,48.7160346],[2.5457456,48.7169303],[2.5454132,48.7176896],[2.5453224,48.7180822],[2.544999,48.7187633],[2.5450043,48.7188621],[2.5452773,48.7191068],[2.5452855,48.7191946],[2.5449165,48.7195425],[2.5445623,48.71979],[2.5436288,48.7201974],[2.5430235,48.7203999],[2.5429639,48.7202958],[2.5427257,48.7201738],[2.5425941,48.7199525]]]]},"properties":{"code_section":"94075000AL","code_commune":"94075","section_courte":"AL"}},{"type":"Feature","geometry":{"type":"MultiPolygon","coordinates":[[[[2.5417018,48.7118573],[2.5432146,48.7119086],[2.5452828,48.7118354],[2.5455848,48.7130869],[2.5457527,48.714864],[2.5457385,48.7159854],[2.5444442,48.7158377],[2.5438185,48.7156923],[2.5434935,48.7155849],[2.5427074,48.7152],[2.5419259,48.7149276],[2.5410469,48.7147802],[2.5377152,48.7137613],[2.5386434,48.7121796],[2.5390352,48.7112151],[2.5391642,48.7110074],[2.5415548,48.7118518],[2.5417018,48.7118573]]]]},"properties":{"code_section":"94075000AM","code_commune":"94075","section_courte":"AM"}},{"type":"Feature","geometry":{"type":"MultiPolygon","coordinates":[[[[2.5325244,48.7096249],[2.5326078,48.7096635],[2.5345409,48.7098643],[2.5344067,48.7097093],[2.5365227,48.7095602],[2.5371759,48.7100505],[2.5372558,48.7099448],[2.5380682,48.7105976],[2.5390352,48.7112151],[2.5386434,48.7121796],[2.5380323,48.7131813],[2.5373405,48.7145014],[2.5372549,48.7148508],[2.535959,48.7145416],[2.5342288,48.7138877],[2.5317096,48.7135728],[2.5295051,48.7127978],[2.5289579,48.7127033],[2.5282547,48.7124788],[2.5287453,48.7117127],[2.5292776,48.7110843],[2.5293619,48.71068],[2.5287196,48.7105246],[2.528637,48.7104465],[2.5287543,48.7099465],[2.5289634,48.709363],[2.5323466,48.7097407],[2.53238,48.7096338],[2.5325244,48.7096249]]]]},"properties":{"code_section":"94075000AN","code_commune":"94075","section_courte":"AN"}},{"type":"Feature","geometry":{"type":"MultiPolygon","coordinates":[[[[2.5271274,48.7144247],[2.5273083,48.7137879],[2.5274189,48.7135952],[2.5278626,48.7131004],[2.5281192,48.7126352],[2.5282547,48.7124788],[2.5289579,48.7127033],[2.5295051,48.7127978],[2.5317096,48.7135728],[2.5342288,48.7138877],[2.535959,48.7145416],[2.5372549,48.7148508],[2.5374165,48.7159861],[2.537408,48.7162122],[2.5367702,48.7170568],[2.5365071,48.7172219],[2.5357245,48.7175776],[2.5355506,48.7176874],[2.5340897,48.7188915],[2.5315092,48.7175038],[2.5310045,48.7182329],[2.5306924,48.7180782],[2.5302054,48.7179081],[2.5284767,48.7174198],[2.5269823,48.7170611],[2.5273649,48.7165869],[2.5278385,48.7155442],[2.5272546,48.7149244],[2.5271283,48.7146556],[2.5271274,48.7144247]]]]},"properties":{"code_section":"94075000AO","code_commune":"94075","section_courte":"AO"}},{"type":"Feature","geometry":{"type":"MultiPolygon","coordinates":[[[[2.5256374,48.7186531],[2.5263551,48.718038],[2.5269823,48.7170611],[2.5284767,48.7174198],[2.5302054,48.7179081],[2.5306924,48.7180782],[2.5310045,48.7182329],[2.5315092,48.7175038],[2.5340897,48.7188915],[2.5340229,48.7190432],[2.5341216,48.7193979],[2.5340599,48.7194996],[2.5332747,48.7199785],[2.5327821,48.7201923],[2.5332958,48.7205992],[2.5335869,48.722128],[2.5332456,48.7221297],[2.5325891,48.7221904],[2.5319778,48.7221908],[2.5313855,48.722098],[2.5308961,48.7220556],[2.5303226,48.7220536],[2.5290801,48.7221417],[2.5274185,48.7222088],[2.5266275,48.7221958],[2.5238919,48.7220595],[2.5240073,48.7215671],[2.5244286,48.7208069],[2.5248235,48.7199327],[2.5249939,48.7192217],[2.5250879,48.7190547],[2.5256374,48.7186531]]]]},"properties":{"code_section":"94075000AP","code_commune":"94075","section_courte":"AP"}},{"type":"Feature","geometry":{"type":"MultiPolygon","coordinates":[[[[2.5192629,48.7173466],[2.5199793,48.7174234],[2.5211798,48.7176588],[2.5217414,48.7176525],[2.5234274,48.7178897],[2.5236834,48.7179642],[2.5240269,48.7181142],[2.5250308,48.7186663],[2.5253049,48.7188776],[2.5250879,48.7190547],[2.5249939,48.7192217],[2.5248235,48.7199327],[2.5244286,48.7208069],[2.5240073,48.7215671],[2.5238919,48.7220595],[2.5228615,48.7220964],[2.5166794,48.7220931],[2.5174561,48.7173599],[2.5175437,48.7170579],[2.5177003,48.7169217],[2.5192629,48.7173466]]]]},"properties":{"code_section":"94075000AR","code_commune":"94075","section_courte":"AR"}},{"type":"Feature","geometry":{"type":"MultiPolygon","coordinates":[[[[2.5229877,48.713668],[2.5236048,48.7134952],[2.5241251,48.7131994],[2.5247509,48.7132158],[2.5250006,48.7132823],[2.5250809,48.7132605],[2.5250903,48.7131855],[2.5251621,48.7131742],[2.5252879,48.7132401],[2.5254135,48.7135147],[2.5256023,48.713598],[2.5257567,48.7137392],[2.5260348,48.7137662],[2.5261734,48.7140038],[2.526233,48.7140423],[2.526528,48.7141131],[2.5268669,48.7140649],[2.5272111,48.7141296],[2.5271274,48.7144247],[2.5271283,48.7146556],[2.5272546,48.7149244],[2.5278385,48.7155442],[2.5273649,48.7165869],[2.5269823,48.7170611],[2.5263551,48.718038],[2.5259574,48.7184014],[2.5253049,48.7188776],[2.5250308,48.7186663],[2.5240269,48.7181142],[2.5236834,48.7179642],[2.5234274,48.7178897],[2.5217414,48.7176525],[2.5211798,48.7176588],[2.5199793,48.7174234],[2.5192629,48.7173466],[2.5177003,48.7169217],[2.5177565,48.7168803],[2.5178785,48.7165105],[2.5182729,48.715918],[2.5172649,48.715757],[2.5174711,48.7155305],[2.5180467,48.715094],[2.5187278,48.7148132],[2.5189445,48.7146894],[2.5194717,48.7142069],[2.519921,48.7136609],[2.5206246,48.7130173],[2.5206982,48.7132204],[2.5208141,48.7133459],[2.520477,48.7136295],[2.5205607,48.7137875],[2.5204261,48.7139297],[2.5204793,48.713999],[2.5207214,48.7140794],[2.52089,48.7141765],[2.5213976,48.7142911],[2.5214852,48.7142787],[2.5220541,48.7140511],[2.5221004,48.713979],[2.5223372,48.7138571],[2.5228464,48.7137925],[2.5229877,48.713668]]]]},"properties":{"code_section":"94075000AS","code_commune":"94075","section_courte":"AS"}},{"type":"Feature","geometry":{"type":"MultiPolygon","coordinates":[[[[2.5229217,48.7137086],[2.5228464,48.7137925],[2.5223372,48.7138571],[2.5221004,48.713979],[2.5220541,48.7140511],[2.5214852,48.7142787],[2.5213976,48.7142911],[2.52089,48.7141765],[2.5207214,48.7140794],[2.5204793,48.713999],[2.5204261,48.7139297],[2.5205607,48.7137875],[2.520477,48.7136295],[2.5208141,48.7133459],[2.5206982,48.7132204],[2.5206246,48.7130173],[2.5209718,48.712785],[2.5201945,48.7126587],[2.5197647,48.712613],[2.5190881,48.71259],[2.5184832,48.7125039],[2.5179311,48.7123347],[2.5185513,48.7120743],[2.5191229,48.7120498],[2.5197412,48.7120684],[2.520591,48.7121571],[2.5214714,48.7123023],[2.5220245,48.711239],[2.5219571,48.7112335],[2.5225434,48.7098853],[2.5243342,48.7099504],[2.5243334,48.709908],[2.5263979,48.7096199],[2.5264178,48.7096539],[2.5269881,48.7096402],[2.5275169,48.7096858],[2.5287543,48.7099465],[2.528637,48.7104465],[2.5287196,48.7105246],[2.5293619,48.71068],[2.5292776,48.7110843],[2.5287453,48.7117127],[2.5283402,48.7123705],[2.5281192,48.7126352],[2.5278626,48.7131004],[2.5274189,48.7135952],[2.5273083,48.7137879],[2.5272111,48.7141296],[2.5268669,48.7140649],[2.526528,48.7141131],[2.526233,48.7140423],[2.5261734,48.7140038],[2.5260348,48.7137662],[2.5257567,48.7137392],[2.5256023,48.713598],[2.5254135,48.7135147],[2.5252879,48.7132401],[2.5251621,48.7131742],[2.5250903,48.7131855],[2.5250809,48.7132605],[2.5250006,48.7132823],[2.5247509,48.7132158],[2.5241251,48.7131994],[2.5236048,48.7134952],[2.5229877,48.713668],[2.5229217,48.7137086]]]]},"properties":{"code_section":"94075000AT","code_commune":"94075","section_courte":"AT"}},{"type":"Feature","geometry":{"type":"MultiPolygon","coordinates":[[[[2.5325244,48.7096249],[2.53238,48.7096338],[2.5323466,48.7097407],[2.5289634,48.709363],[2.5287543,48.7099465],[2.5275169,48.7096858],[2.5269881,48.7096402],[2.5264178,48.7096539],[2.5264938,48.7080179],[2.5270436,48.707961],[2.5282427,48.7079517],[2.529299,48.7079863],[2.5290299,48.7062979],[2.5312317,48.7057879],[2.532655,48.705404],[2.5334553,48.707042],[2.5338286,48.7082549],[2.5339336,48.7089906],[2.5340224,48.7092534],[2.5345409,48.7098643],[2.5326078,48.7096635],[2.5325244,48.7096249]]]]},"properties":{"code_section":"94075000AV","code_commune":"94075","section_courte":"AV"}}]}