{"type":"FeatureCollection","features":[{"type":"Feature","geometry":{"type":"MultiPolygon","coordinates":[[[[2.4085254,48.8058799],[2.4092111,48.8060295],[2.4090211,48.8065942],[2.4088464,48.8074535],[2.408818,48.8078985],[2.4088529,48.8085116],[2.4041516,48.8081102],[2.4044653,48.8071061],[2.4078013,48.8057611],[2.4080401,48.8057751],[2.4085254,48.8058799]]]]},"properties":{"code_section":"940810000A","code_commune":"94081","section_courte":"A"}},{"type":"Feature","geometry":{"type":"MultiPolygon","coordinates":[[[[2.408915,48.8050987],[2.4096232,48.8052118],[2.4092111,48.8060295],[2.4080401,48.8057751],[2.4078013,48.8057611],[2.4044653,48.8071061],[2.4052493,48.8046114],[2.4084105,48.8050398],[2.4087747,48.8051137],[2.4087953,48.8050746],[2.408915,48.8050987]]]]},"properties":{"code_section":"940810000B","code_commune":"94081","section_courte":"B"}},{"type":"Feature","geometry":{"type":"MultiPolygon","coordinates":[[[[2.4105257,48.8028421],[2.4117215,48.8031271],[2.410123,48.8044965],[2.409838,48.804848],[2.4096232,48.8052118],[2.4089072,48.8051143],[2.4087953,48.8050746],[2.4087747,48.8051137],[2.4084105,48.8050398],[2.4052493,48.8046114],[2.4056158,48.8025942],[2.4105257,48.8028421]]]]},"properties":{"code_section":"940810000C","code_commune":"94081","section_courte":"C"}},{"type":"Feature","geometry":{"type":"MultiPolygon","coordinates":[[[[2.4032007,48.8043881],[2.4022699,48.8042852],[2.4022461,48.804042],[2.4006448,48.804029],[2.4008257,48.8036774],[2.4017941,48.8022498],[2.4022046,48.8016915],[2.4024698,48.8013954],[2.4028698,48.8017653],[2.4034634,48.8024746],[2.4056158,48.8025942],[2.4052493,48.8046114],[2.4049641,48.8042803],[2.4043363,48.8045127],[2.4032007,48.8043881]]]]},"properties":{"code_section":"940810000D","code_commune":"94081","section_courte":"D"}},{"type":"Feature","geometry":{"type":"MultiPolygon","coordinates":[[[[2.4055703,48.7997202],[2.4066342,48.799567],[2.4071316,48.801832],[2.4070951,48.8026693],[2.4034634,48.8024746],[2.4028698,48.8017653],[2.4024698,48.8013954],[2.4022046,48.8016915],[2.4021366,48.8016698],[2.4017441,48.8016695],[2.4017077,48.8009862],[2.4017607,48.800575],[2.4019983,48.8005901],[2.4021969,48.8008418],[2.4021613,48.8009062],[2.402348,48.8011286],[2.4024334,48.8011805],[2.4029945,48.8002744],[2.4054346,48.7998973],[2.4054138,48.7997418],[2.4055703,48.7997202]]]]},"properties":{"code_section":"940810000E","code_commune":"94081","section_courte":"E"}},{"type":"Feature","geometry":{"type":"MultiPolygon","coordinates":[[[[2.4069722,48.7996015],[2.4088544,48.7998772],[2.4086384,48.8004546],[2.4105799,48.8007916],[2.4095419,48.8027957],[2.4070951,48.8026693],[2.4071316,48.801832],[2.4066342,48.799567],[2.4069722,48.7996015]]]]},"properties":{"code_section":"940810000F","code_commune":"94081","section_courte":"F"}},{"type":"Feature","geometry":{"type":"MultiPolygon","coordinates":[[[[2.4181897,48.7968926],[2.4181488,48.7969222],[2.4188514,48.7973456],[2.415946,48.7995502],[2.4117215,48.8031271],[2.4105257,48.8028421],[2.4095419,48.8027957],[2.4114792,48.7990693],[2.411608,48.7986468],[2.4126677,48.7959796],[2.4166664,48.7962638],[2.4175733,48.7966138],[2.418087,48.7968933],[2.4181321,48.7968591],[2.4181897,48.7968926]]]]},"properties":{"code_section":"940810000G","code_commune":"94081","section_courte":"G"}},{"type":"Feature","geometry":{"type":"MultiPolygon","coordinates":[[[[2.4025374,48.7998392],[2.4026997,48.7997851],[2.40345,48.7984957],[2.4035806,48.7981262],[2.4050839,48.7951778],[2.4053648,48.7952489],[2.4067111,48.7954632],[2.4126677,48.7959796],[2.411608,48.7986468],[2.4114792,48.7990693],[2.4105799,48.8007916],[2.4086384,48.8004546],[2.4088544,48.7998772],[2.4066934,48.7995611],[2.4054138,48.7997418],[2.4054346,48.7998973],[2.4029945,48.8002744],[2.4024334,48.8011805],[2.402348,48.8011286],[2.4021613,48.8009062],[2.4021969,48.8008418],[2.4019983,48.8005901],[2.4024348,48.7998727],[2.4025374,48.7998392]]]]},"properties":{"code_section":"940810000H","code_commune":"94081","section_courte":"H"}},{"type":"Feature","geometry":{"type":"MultiPolygon","coordinates":[[[[2.4002454,48.7948498],[2.4005943,48.794116],[2.4050839,48.7951778],[2.4044915,48.7963813],[2.4000932,48.7954891],[2.4002454,48.7948498]]]]},"properties":{"code_section":"940810000I","code_commune":"94081","section_courte":"I"}},{"type":"Feature","geometry":{"type":"MultiPolygon","coordinates":[[[[2.4004144,48.7976574],[2.3995293,48.7976316],[2.4000932,48.7954891],[2.4044915,48.7963813],[2.4036662,48.7979621],[2.4033749,48.7978958],[2.4018375,48.7978421],[2.4018229,48.797774],[2.401658,48.797838],[2.4015942,48.797835],[2.4015908,48.7977808],[2.4011349,48.7978184],[2.4009686,48.7978758],[2.400795,48.7976669],[2.4004144,48.7976574]]]]},"properties":{"code_section":"940810000J","code_commune":"94081","section_courte":"J"}},{"type":"Feature","geometry":{"type":"MultiPolygon","coordinates":[[[[2.4004144,48.7976574],[2.400795,48.7976669],[2.4009686,48.7978758],[2.4011349,48.7978184],[2.4015908,48.7977808],[2.4015942,48.797835],[2.401658,48.797838],[2.4018229,48.797774],[2.4018375,48.7978421],[2.4033749,48.7978958],[2.4036662,48.7979621],[2.40345,48.7984957],[2.4026997,48.7997851],[2.4024348,48.7998727],[2.4019983,48.8005901],[2.4017607,48.800575],[2.4017134,48.8012273],[2.3988941,48.8012109],[2.3986634,48.801375],[2.3995293,48.7976316],[2.4004144,48.7976574]]]]},"properties":{"code_section":"940810000K","code_commune":"94081","section_courte":"K"}},{"type":"Feature","geometry":{"type":"MultiPolygon","coordinates":[[[[2.4001744,48.8044701],[2.3996664,48.8043155],[2.3996091,48.804272],[2.3994418,48.8036774],[2.3983675,48.8016591],[2.3986634,48.801375],[2.3988941,48.8012109],[2.4017134,48.8012273],[2.4017441,48.8016695],[2.4021366,48.8016698],[2.4022046,48.8016915],[2.4008257,48.8036774],[2.4003941,48.8045316],[2.4001744,48.8044701]]]]},"properties":{"code_section":"940810000L","code_commune":"94081","section_courte":"L"}},{"type":"Feature","geometry":{"type":"MultiPolygon","coordinates":[[[[2.3949399,48.7996305],[2.3954035,48.7996416],[2.3954018,48.7995973],[2.3963001,48.7996168],[2.3963489,48.8000366],[2.3989018,48.8002551],[2.3986634,48.801375],[2.3973778,48.802481],[2.3969915,48.8021589],[2.3963789,48.8013959],[2.3960931,48.8011144],[2.3955958,48.8006822],[2.3947707,48.8000468],[2.394701,48.7998618],[2.3947135,48.799631],[2.3949399,48.7996305]]]]},"properties":{"code_section":"940810000M","code_commune":"94081","section_courte":"M"}},{"type":"Feature","geometry":{"type":"MultiPolygon","coordinates":[[[[2.3963124,48.799841],[2.3961999,48.7983165],[2.3963233,48.7967429],[2.3994994,48.7977192],[2.3989018,48.8002551],[2.3963489,48.8000366],[2.3963124,48.799841]]]]},"properties":{"code_section":"940810000N","code_commune":"94081","section_courte":"N"}},{"type":"Feature","geometry":{"type":"MultiPolygon","coordinates":[[[[2.3990393,48.7938043],[2.4005943,48.794116],[2.4002454,48.7948498],[2.3996199,48.7973674],[2.3994994,48.7977192],[2.3963233,48.7967429],[2.3968825,48.7959208],[2.3981143,48.7960494],[2.3972734,48.7950598],[2.3987813,48.7937483],[2.3990393,48.7938043]]]]},"properties":{"code_section":"940810000O","code_commune":"94081","section_courte":"O"}},{"type":"Feature","geometry":{"type":"MultiPolygon","coordinates":[[[[2.3957016,48.7931284],[2.3987813,48.7937483],[2.3972734,48.7950598],[2.3981143,48.7960494],[2.3968825,48.7959208],[2.3963233,48.7967429],[2.3935123,48.7958557],[2.3955569,48.7931167],[2.3957016,48.7931284]]]]},"properties":{"code_section":"940810000P","code_commune":"94081","section_courte":"P"}},{"type":"Feature","geometry":{"type":"MultiPolygon","coordinates":[[[[2.3949399,48.7996305],[2.3947135,48.799631],[2.3946614,48.7993284],[2.394337,48.7983792],[2.3936263,48.7971316],[2.3935133,48.7968714],[2.3934286,48.7962265],[2.39346,48.7959287],[2.3935123,48.7958557],[2.3963233,48.7967429],[2.3961999,48.7983165],[2.3963001,48.7996168],[2.3954018,48.7995973],[2.3954035,48.7996416],[2.3949399,48.7996305]]]]},"properties":{"code_section":"940810000Q","code_commune":"94081","section_courte":"Q"}},{"type":"Feature","geometry":{"type":"MultiPolygon","coordinates":[[[[2.3930059,48.7970965],[2.3936019,48.7970752],[2.394337,48.7983792],[2.3946614,48.7993284],[2.3947135,48.799631],[2.394701,48.7998618],[2.3945441,48.7999286],[2.3938795,48.8004043],[2.3936786,48.8006088],[2.3935408,48.8006587],[2.3930906,48.8004299],[2.3927575,48.8005038],[2.3917551,48.7993383],[2.3918224,48.7991962],[2.3923662,48.7991169],[2.3922404,48.798356],[2.3921099,48.7971354],[2.3930059,48.7970965]]]]},"properties":{"code_section":"940810000R","code_commune":"94081","section_courte":"R"}},{"type":"Feature","geometry":{"type":"MultiPolygon","coordinates":[[[[2.3879763,48.8004054],[2.3869362,48.8003542],[2.3871381,48.8001253],[2.3867337,48.7999874],[2.3877619,48.7986185],[2.3880184,48.7976769],[2.3887507,48.7977818],[2.3894541,48.7980962],[2.3901,48.7980887],[2.390099,48.7979805],[2.3921979,48.7979485],[2.3923662,48.7991169],[2.3918224,48.7991962],[2.3917551,48.7993383],[2.3907669,48.799866],[2.3903621,48.7999259],[2.3900573,48.8000776],[2.3900239,48.8001487],[2.3896329,48.8001885],[2.3891472,48.8000599],[2.3888981,48.8003069],[2.3886325,48.8004377],[2.3879763,48.8004054]]]]},"properties":{"code_section":"940810000S","code_commune":"94081","section_courte":"S"}},{"type":"Feature","geometry":{"type":"MultiPolygon","coordinates":[[[[2.3930059,48.7970965],[2.3921099,48.7971354],[2.3921979,48.7979485],[2.390099,48.7979805],[2.3901,48.7980887],[2.3894541,48.7980962],[2.3887507,48.7977818],[2.3880184,48.7976769],[2.3881653,48.7968007],[2.388549,48.7961231],[2.3888929,48.7951467],[2.3915467,48.7955076],[2.3935123,48.7958557],[2.39346,48.7959287],[2.3934386,48.7964913],[2.3935133,48.7968714],[2.3936019,48.7970752],[2.3930059,48.7970965]]]]},"properties":{"code_section":"940810000T","code_commune":"94081","section_courte":"T"}},{"type":"Feature","geometry":{"type":"MultiPolygon","coordinates":[[[[2.3933437,48.7927755],[2.3934223,48.7927808],[2.3940467,48.7922042],[2.3952026,48.7924614],[2.3955569,48.7931167],[2.3935123,48.7958557],[2.3916426,48.7955227],[2.3903421,48.7953395],[2.3905879,48.7944814],[2.391757,48.7917318],[2.3934204,48.7921113],[2.3931694,48.7926129],[2.393151,48.7927568],[2.3933437,48.7927755]]]]},"properties":{"code_section":"940810000U","code_commune":"94081","section_courte":"U"}},{"type":"Feature","geometry":{"type":"MultiPolygon","coordinates":[[[[2.3880866,48.7944649],[2.3887981,48.7927902],[2.3888282,48.7922578],[2.3887996,48.7918191],[2.3896878,48.7916327],[2.3901943,48.7915766],[2.3906632,48.7914864],[2.3909464,48.7913629],[2.3917699,48.7915616],[2.391757,48.7917318],[2.3916659,48.7919686],[2.3905879,48.7944814],[2.3903421,48.7953395],[2.3877957,48.7950054],[2.3880866,48.7944649]]]]},"properties":{"code_section":"940810000V","code_commune":"94081","section_courte":"V"}},{"type":"Feature","geometry":{"type":"MultiPolygon","coordinates":[[[[2.3892235,48.7896211],[2.3893375,48.7894844],[2.3919217,48.7903836],[2.3919207,48.7907251],[2.3913378,48.7910548],[2.3909464,48.7913629],[2.3906632,48.7914864],[2.3901943,48.7915766],[2.3896878,48.7916327],[2.3887996,48.7918191],[2.3867745,48.7921043],[2.3879827,48.7907269],[2.3885987,48.7898374],[2.3889707,48.7899349],[2.3892235,48.7896211]]]]},"properties":{"code_section":"940810000X","code_commune":"94081","section_courte":"X"}},{"type":"Feature","geometry":{"type":"MultiPolygon","coordinates":[[[[2.3846216,48.7947114],[2.3864367,48.7924097],[2.3867745,48.7921043],[2.3887996,48.7918191],[2.3888282,48.7922578],[2.3887981,48.7927902],[2.3880866,48.7944649],[2.3877957,48.7950054],[2.3873286,48.7954048],[2.3846216,48.7947114]]]]},"properties":{"code_section":"940810000Y","code_commune":"94081","section_courte":"Y"}},{"type":"Feature","geometry":{"type":"MultiPolygon","coordinates":[[[[2.3839937,48.7955233],[2.3846216,48.7947114],[2.3873286,48.7954048],[2.3877957,48.7950054],[2.3888929,48.7951467],[2.388549,48.7961231],[2.3881653,48.7968007],[2.3881142,48.7971565],[2.3869936,48.7971256],[2.3865902,48.7964771],[2.3861635,48.7968809],[2.383532,48.7960966],[2.3839937,48.7955233]]]]},"properties":{"code_section":"940810000Z","code_commune":"94081","section_courte":"Z"}},{"type":"Feature","geometry":{"type":"MultiPolygon","coordinates":[[[[2.383348,48.797863],[2.3827454,48.7976684],[2.3828409,48.7975476],[2.3824784,48.7974236],[2.383532,48.7960966],[2.3861635,48.7968809],[2.3865902,48.7964771],[2.3869936,48.7971256],[2.3881142,48.7971565],[2.3880184,48.7976769],[2.3877619,48.7986185],[2.3873297,48.7991817],[2.3862042,48.7987643],[2.3846411,48.7982762],[2.3845061,48.7982725],[2.3834638,48.7978558],[2.3834182,48.7978849],[2.383348,48.797863]]]]},"properties":{"code_section":"94081000AB","code_commune":"94081","section_courte":"AB"}},{"type":"Feature","geometry":{"type":"MultiPolygon","coordinates":[[[[2.3833944,48.8000632],[2.3809407,48.7993934],[2.3824784,48.7974236],[2.3828409,48.7975476],[2.3827454,48.7976684],[2.3827919,48.7976893],[2.3834182,48.7978849],[2.3834638,48.7978558],[2.3845061,48.7982725],[2.3846411,48.7982762],[2.3862042,48.7987643],[2.3873297,48.7991817],[2.3867337,48.7999874],[2.3871381,48.8001253],[2.3867467,48.8005617],[2.3866621,48.8007352],[2.3862329,48.8006181],[2.3857624,48.8008845],[2.3844768,48.8004621],[2.3845296,48.8003689],[2.3833944,48.8000632]]]]},"properties":{"code_section":"94081000AC","code_commune":"94081","section_courte":"AC"}},{"type":"Feature","geometry":{"type":"MultiPolygon","coordinates":[[[[2.3855968,48.8008291],[2.3857624,48.8008845],[2.3862329,48.8006181],[2.3866621,48.8007352],[2.3863339,48.801985],[2.3856434,48.8043075],[2.3828652,48.8034123],[2.3842618,48.8016529],[2.3849346,48.8006154],[2.3855968,48.8008291]]]]},"properties":{"code_section":"94081000AD","code_commune":"94081","section_courte":"AD"}},{"type":"Feature","geometry":{"type":"MultiPolygon","coordinates":[[[[2.3833944,48.8000632],[2.3845296,48.8003689],[2.3844768,48.8004621],[2.3849346,48.8006154],[2.3842618,48.8016529],[2.3828652,48.8034123],[2.3821836,48.8030367],[2.3814181,48.8025019],[2.3793531,48.8014091],[2.3809407,48.7993934],[2.3833944,48.8000632]]]]},"properties":{"code_section":"94081000AE","code_commune":"94081","section_courte":"AE"}},{"type":"Feature","geometry":{"type":"MultiPolygon","coordinates":[[[[2.3733004,48.8023917],[2.3733473,48.8023263],[2.3742491,48.802805],[2.3744304,48.8026384],[2.3775409,48.8037096],[2.3757577,48.805985],[2.3711993,48.8040274],[2.3715649,48.8036593],[2.3730619,48.8025225],[2.3731034,48.8025465],[2.3733004,48.8023917]]]]},"properties":{"code_section":"94081000AG","code_commune":"94081","section_courte":"AG"}},{"type":"Feature","geometry":{"type":"MultiPolygon","coordinates":[[[[2.3760497,48.8032001],[2.3744304,48.8026384],[2.3742491,48.802805],[2.3733473,48.8023263],[2.3737139,48.8019631],[2.3767341,48.7994119],[2.3799216,48.8006923],[2.3775409,48.8037096],[2.3760497,48.8032001]]]]},"properties":{"code_section":"94081000AH","code_commune":"94081","section_courte":"AH"}},{"type":"Feature","geometry":{"type":"MultiPolygon","coordinates":[[[[2.3733573,48.8023497],[2.3731034,48.8025465],[2.3722721,48.8020618],[2.3699236,48.8007825],[2.3709,48.7997246],[2.3698492,48.7991464],[2.3702534,48.7987484],[2.3713859,48.7994068],[2.3717402,48.7995719],[2.3717558,48.7996165],[2.3747201,48.8011251],[2.3737139,48.8019631],[2.373374,48.8022849],[2.3733573,48.8023497]]]]},"properties":{"code_section":"94081000AI","code_commune":"94081","section_courte":"AI"}},{"type":"Feature","geometry":{"type":"MultiPolygon","coordinates":[[[[2.3719113,48.7971883],[2.3719538,48.7971509],[2.375524,48.798904],[2.3767341,48.7994119],[2.3747201,48.8011251],[2.3717558,48.7996165],[2.3717402,48.7995719],[2.3713859,48.7994068],[2.3702534,48.7987484],[2.3719113,48.7971883]]]]},"properties":{"code_section":"94081000AJ","code_commune":"94081","section_courte":"AJ"}},{"type":"Feature","geometry":{"type":"MultiPolygon","coordinates":[[[[2.3733752,48.7955414],[2.3752421,48.7961799],[2.3764715,48.79664],[2.3767952,48.7968113],[2.3769168,48.7970161],[2.3770763,48.7971662],[2.3753663,48.7988237],[2.371685,48.7970191],[2.3702663,48.7965471],[2.3708018,48.7959084],[2.3714096,48.794967],[2.3733752,48.7955414]]]]},"properties":{"code_section":"94081000AK","code_commune":"94081","section_courte":"AK"}},{"type":"Feature","geometry":{"type":"MultiPolygon","coordinates":[[[[2.3805435,48.7982459],[2.3815194,48.7986548],[2.3799216,48.8006923],[2.3767341,48.7994119],[2.3753663,48.7988237],[2.3770763,48.7971662],[2.3790902,48.7980589],[2.3794704,48.7977787],[2.3805435,48.7982459]]]]},"properties":{"code_section":"94081000AL","code_commune":"94081","section_courte":"AL"}},{"type":"Feature","geometry":{"type":"MultiPolygon","coordinates":[[[[2.3789367,48.7952889],[2.3803166,48.7957709],[2.3802722,48.7958182],[2.3817072,48.7963935],[2.3814751,48.7965401],[2.3828802,48.7969303],[2.3815194,48.7986548],[2.3794704,48.7977787],[2.3790902,48.7980589],[2.3770763,48.7971662],[2.3769168,48.7970161],[2.3767952,48.7968113],[2.3764715,48.79664],[2.3768393,48.7961332],[2.3773103,48.7958344],[2.3774818,48.7956598],[2.3777308,48.7952468],[2.377727,48.7951258],[2.3776374,48.795042],[2.377807,48.7949027],[2.3785821,48.795202],[2.3786071,48.7951672],[2.3789367,48.7952889]]]]},"properties":{"code_section":"94081000AM","code_commune":"94081","section_courte":"AM"}},{"type":"Feature","geometry":{"type":"MultiPolygon","coordinates":[[[[2.3789367,48.7952889],[2.3786071,48.7951672],[2.3785821,48.795202],[2.377807,48.7949027],[2.3785159,48.7942562],[2.3785926,48.794254],[2.3785957,48.794221],[2.3779605,48.7940573],[2.3779756,48.7940351],[2.3779388,48.7940568],[2.3779753,48.7939917],[2.3779404,48.793979],[2.3790244,48.7933377],[2.3796402,48.7934845],[2.3802532,48.7935734],[2.3817506,48.7940872],[2.3824419,48.7943659],[2.3844321,48.7949538],[2.3828802,48.7969303],[2.3814751,48.7965401],[2.3817072,48.7963935],[2.3802722,48.7958182],[2.3803166,48.7957709],[2.3789367,48.7952889]]]]},"properties":{"code_section":"94081000AN","code_commune":"94081","section_courte":"AN"}},{"type":"Feature","geometry":{"type":"MultiPolygon","coordinates":[[[[2.3766968,48.7927336],[2.3767845,48.7927676],[2.3769214,48.7927792],[2.3769445,48.7927582],[2.3788065,48.7934715],[2.3779404,48.793979],[2.3779753,48.7939917],[2.3779388,48.7940568],[2.3779756,48.7940351],[2.3779605,48.7940573],[2.3785957,48.794221],[2.3785926,48.794254],[2.3785159,48.7942562],[2.3776374,48.795042],[2.377727,48.7951258],[2.3777308,48.7952468],[2.3774818,48.7956598],[2.3773103,48.7958344],[2.3768393,48.7961332],[2.3764715,48.79664],[2.3752421,48.7961799],[2.373082,48.7954411],[2.3734928,48.7949303],[2.3743204,48.7952076],[2.3747554,48.7947948],[2.3751432,48.7938789],[2.3755961,48.7933449],[2.376157,48.7929675],[2.3764545,48.7927194],[2.3765227,48.7925917],[2.3765832,48.7926148],[2.3765463,48.7926751],[2.3766968,48.7927336]]]]},"properties":{"code_section":"94081000AO","code_commune":"94081","section_courte":"AO"}},{"type":"Feature","geometry":{"type":"MultiPolygon","coordinates":[[[[2.3754077,48.7922221],[2.376495,48.7926448],[2.3764545,48.7927194],[2.376157,48.7929675],[2.3755961,48.7933449],[2.3751432,48.7938789],[2.3747554,48.7947948],[2.3743204,48.7952076],[2.3734928,48.7949303],[2.373082,48.7954411],[2.3714096,48.794967],[2.371943,48.7941018],[2.3720692,48.7936278],[2.3725831,48.7927979],[2.3738322,48.7915528],[2.3754332,48.792179],[2.3754077,48.7922221]]]]},"properties":{"code_section":"94081000AP","code_commune":"94081","section_courte":"AP"}},{"type":"Feature","geometry":{"type":"MultiPolygon","coordinates":[[[[2.3743943,48.790533],[2.3747497,48.7901179],[2.374344,48.7900205],[2.3741938,48.7900152],[2.3753252,48.7885926],[2.3771121,48.7886176],[2.3775866,48.7886485],[2.3777221,48.7887009],[2.378486,48.7891837],[2.3783201,48.7894651],[2.3778984,48.7900154],[2.377798,48.7900481],[2.3774307,48.7908364],[2.3769136,48.7916192],[2.376495,48.7926448],[2.3753994,48.7922295],[2.3754332,48.792179],[2.3738322,48.7915528],[2.3739139,48.7914704],[2.373702,48.7913333],[2.3743943,48.790533]]]]},"properties":{"code_section":"94081000AQ","code_commune":"94081","section_courte":"AQ"}},{"type":"Feature","geometry":{"type":"MultiPolygon","coordinates":[[[[2.3814938,48.7909468],[2.3814274,48.791108],[2.381221,48.7912456],[2.3810523,48.7914224],[2.3808026,48.7917916],[2.3805942,48.7918786],[2.3805136,48.7918509],[2.379378,48.7930972],[2.3788065,48.7934715],[2.3769445,48.7927582],[2.3769214,48.7927792],[2.3767845,48.7927676],[2.3765463,48.7926751],[2.3765832,48.7926148],[2.3765227,48.7925917],[2.3769136,48.7916192],[2.3774307,48.7908364],[2.377798,48.7900481],[2.3778984,48.7900154],[2.3783201,48.7894651],[2.378486,48.7891837],[2.3794737,48.789824],[2.3797651,48.7896535],[2.3815003,48.7903616],[2.3814765,48.7903778],[2.3815715,48.7904426],[2.3818122,48.7905306],[2.3814938,48.7909468]]]]},"properties":{"code_section":"94081000AR","code_commune":"94081","section_courte":"AR"}},{"type":"Feature","geometry":{"type":"MultiPolygon","coordinates":[[[[2.3814938,48.7909468],[2.3818064,48.7905372],[2.3829392,48.7909178],[2.3834347,48.7910456],[2.3838056,48.791186],[2.3835578,48.7914583],[2.3831173,48.7920932],[2.3824315,48.7927764],[2.3826675,48.7928876],[2.3821828,48.7933339],[2.3817822,48.7937674],[2.3815365,48.7939347],[2.3814863,48.7940114],[2.3802532,48.7935734],[2.3796402,48.7934845],[2.3790244,48.7933377],[2.379378,48.7930972],[2.3805136,48.7918509],[2.3805942,48.7918786],[2.3808026,48.7917916],[2.3810523,48.7914224],[2.381221,48.7912456],[2.3814274,48.791108],[2.3814938,48.7909468]]]]},"properties":{"code_section":"94081000AS","code_commune":"94081","section_courte":"AS"}},{"type":"Feature","geometry":{"type":"MultiPolygon","coordinates":[[[[2.3824315,48.7927764],[2.3831173,48.7920932],[2.383389,48.7916823],[2.3847092,48.7920014],[2.3860209,48.7922603],[2.3864367,48.7924097],[2.3844321,48.7949538],[2.3824419,48.7943659],[2.3817506,48.7940872],[2.3814863,48.7940114],[2.3815365,48.7939347],[2.3817822,48.7937674],[2.3821828,48.7933339],[2.3826675,48.7928876],[2.3824315,48.7927764]]]]},"properties":{"code_section":"94081000AT","code_commune":"94081","section_courte":"AT"}},{"type":"Feature","geometry":{"type":"MultiPolygon","coordinates":[[[[2.3844818,48.7899207],[2.3846586,48.7896683],[2.3846204,48.7894536],[2.3844298,48.7891051],[2.3845844,48.7887898],[2.3847168,48.7887008],[2.3850435,48.7883564],[2.3876063,48.7894886],[2.3883422,48.7901927],[2.3879827,48.7907269],[2.3867745,48.7921043],[2.3864367,48.7924097],[2.3860209,48.7922603],[2.3847092,48.7920014],[2.383389,48.7916823],[2.3842975,48.7906038],[2.3842523,48.7905884],[2.3844818,48.7899207]]]]},"properties":{"code_section":"94081000AU","code_commune":"94081","section_courte":"AU"}},{"type":"Feature","geometry":{"type":"MultiPolygon","coordinates":[[[[2.3813029,48.7902962],[2.3797651,48.7896535],[2.3809891,48.7889387],[2.3822178,48.7875957],[2.3822871,48.7874442],[2.3831158,48.7877159],[2.3838735,48.7880727],[2.3850435,48.7883564],[2.3845186,48.7888872],[2.3844298,48.7891051],[2.3846204,48.7894536],[2.3846586,48.7896683],[2.3844818,48.7899207],[2.3842523,48.7905884],[2.3842975,48.7906038],[2.3838056,48.791186],[2.3834347,48.7910456],[2.3829392,48.7909178],[2.3818064,48.7905372],[2.3815715,48.7904426],[2.3814765,48.7903778],[2.3815003,48.7903616],[2.3813029,48.7902962]]]]},"properties":{"code_section":"94081000AV","code_commune":"94081","section_courte":"AV"}},{"type":"Feature","geometry":{"type":"MultiPolygon","coordinates":[[[[2.3817485,48.7873013],[2.3822871,48.7874442],[2.3822178,48.7875957],[2.3816603,48.7882264],[2.3809891,48.7889387],[2.3794737,48.789824],[2.3777221,48.7887009],[2.3775866,48.7886485],[2.3771121,48.7886176],[2.3753252,48.7885926],[2.3773906,48.7859913],[2.3779209,48.7862984],[2.3785235,48.7865813],[2.378935,48.786763],[2.3793522,48.786898],[2.3802127,48.787102],[2.3817485,48.7873013]]]]},"properties":{"code_section":"94081000AX","code_commune":"94081","section_courte":"AX"}},{"type":"Feature","geometry":{"type":"MultiPolygon","coordinates":[[[[2.3750044,48.7834203],[2.3758154,48.7840861],[2.3764131,48.7847416],[2.3773906,48.7859913],[2.3768641,48.786668],[2.3746068,48.7856206],[2.3730335,48.7844167],[2.3746903,48.7831684],[2.3750044,48.7834203]]]]},"properties":{"code_section":"94081000AY","code_commune":"94081","section_courte":"AY"}},{"type":"Feature","geometry":{"type":"MultiPolygon","coordinates":[[[[2.3711099,48.783149],[2.3694622,48.7823501],[2.3708946,48.7806854],[2.3716051,48.7810264],[2.3727089,48.7816338],[2.3738245,48.782435],[2.3746903,48.7831684],[2.3730335,48.7844167],[2.3717759,48.783466],[2.3711099,48.783149]]]]},"properties":{"code_section":"94081000AZ","code_commune":"94081","section_courte":"AZ"}},{"type":"Feature","geometry":{"type":"MultiPolygon","coordinates":[[[[2.3736693,48.774791],[2.3737415,48.7748922],[2.3742351,48.7753239],[2.3757051,48.7763171],[2.3766391,48.7769975],[2.3769089,48.77713],[2.3771469,48.7773077],[2.375531,48.7785852],[2.3739117,48.7799842],[2.3732396,48.7807379],[2.3727089,48.7816338],[2.3716051,48.7810264],[2.370684,48.780592],[2.3673447,48.7794395],[2.3676729,48.7738726],[2.3736693,48.774791]]]]},"properties":{"code_section":"94081000BC","code_commune":"94081","section_courte":"BC"}},{"type":"Feature","geometry":{"type":"MultiPolygon","coordinates":[[[[2.3694215,48.7713193],[2.3710231,48.7700673],[2.3726234,48.7708285],[2.3725168,48.7709143],[2.3741987,48.7717852],[2.3762543,48.7707899],[2.3768843,48.7713829],[2.3765583,48.7714913],[2.3776491,48.7723084],[2.3778575,48.7722129],[2.3806069,48.774133],[2.3813362,48.7745801],[2.3785808,48.7761388],[2.3771469,48.7773077],[2.3769089,48.77713],[2.3766391,48.7769975],[2.3757051,48.7763171],[2.3742351,48.7753239],[2.3737415,48.7748922],[2.3736693,48.774791],[2.3676729,48.7738726],[2.367797,48.7719261],[2.3683812,48.7721293],[2.3694215,48.7713193]]]]},"properties":{"code_section":"94081000BD","code_commune":"94081","section_courte":"BD"}},{"type":"Feature","geometry":{"type":"MultiPolygon","coordinates":[[[[2.3876615,48.7731041],[2.3881023,48.7732199],[2.3886022,48.7719193],[2.3910813,48.7722131],[2.3925587,48.772335],[2.3923891,48.7729435],[2.3905854,48.7743263],[2.3894291,48.7757372],[2.3879135,48.7768634],[2.3863671,48.7775231],[2.3859302,48.777268],[2.3859466,48.7772518],[2.3851735,48.7768468],[2.3852085,48.7768033],[2.381398,48.7748982],[2.3813637,48.7746065],[2.381262,48.7745134],[2.3806069,48.774133],[2.3791306,48.7731051],[2.3808762,48.7720569],[2.381885,48.7717731],[2.3836486,48.7722738],[2.3862202,48.7727271],[2.3876615,48.7731041]]]]},"properties":{"code_section":"94081000BE","code_commune":"94081","section_courte":"BE"}},{"type":"Feature","geometry":{"type":"MultiPolygon","coordinates":[[[[2.3814425,48.7773538],[2.3797644,48.778799],[2.3780986,48.7779015],[2.3771469,48.7773077],[2.3785808,48.7761388],[2.3813362,48.7745801],[2.381398,48.7748982],[2.3830483,48.7757298],[2.3815215,48.777034],[2.3817083,48.7771251],[2.3814425,48.7773538]]]]},"properties":{"code_section":"94081000BF","code_commune":"94081","section_courte":"BF"}},{"type":"Feature","geometry":{"type":"MultiPolygon","coordinates":[[[[2.3814425,48.7773538],[2.3817083,48.7771251],[2.3815215,48.777034],[2.3830483,48.7757298],[2.3852085,48.7768033],[2.3851735,48.7768468],[2.3859466,48.7772518],[2.3859302,48.777268],[2.3863671,48.7775231],[2.3861875,48.7776312],[2.385398,48.7782857],[2.3827643,48.7807342],[2.3813419,48.7798129],[2.3802723,48.779071],[2.3797644,48.778799],[2.3814425,48.7773538]]]]},"properties":{"code_section":"94081000BG","code_commune":"94081","section_courte":"BG"}},{"type":"Feature","geometry":{"type":"MultiPolygon","coordinates":[[[[2.3774755,48.7812516],[2.3802723,48.779071],[2.3813419,48.7798129],[2.3827643,48.7807342],[2.3811571,48.7823109],[2.380821,48.7825833],[2.3800888,48.7822728],[2.3791367,48.7819455],[2.3777594,48.7814916],[2.3773061,48.7813828],[2.3774755,48.7812516]]]]},"properties":{"code_section":"94081000BH","code_commune":"94081","section_courte":"BH"}},{"type":"Feature","geometry":{"type":"MultiPolygon","coordinates":[[[[2.3774755,48.7812516],[2.3773061,48.7813828],[2.377106,48.7813234],[2.3739117,48.7799842],[2.375531,48.7785852],[2.3771469,48.7773077],[2.3780986,48.7779015],[2.3802723,48.779071],[2.3774755,48.7812516]]]]},"properties":{"code_section":"94081000BI","code_commune":"94081","section_courte":"BI"}},{"type":"Feature","geometry":{"type":"MultiPolygon","coordinates":[[[[2.3764029,48.7822294],[2.3768546,48.7825068],[2.3752522,48.7836037],[2.3738245,48.782435],[2.3727089,48.7816338],[2.3732396,48.7807379],[2.3739117,48.7799842],[2.377106,48.7813234],[2.3773061,48.7813828],[2.3767301,48.7818354],[2.3762611,48.7821427],[2.3764029,48.7822294]]]]},"properties":{"code_section":"94081000BJ","code_commune":"94081","section_courte":"BJ"}},{"type":"Feature","geometry":{"type":"MultiPolygon","coordinates":[[[[2.3764029,48.7822294],[2.3762611,48.7821427],[2.3767301,48.7818354],[2.3773061,48.7813828],[2.3777594,48.7814916],[2.3791367,48.7819455],[2.3800888,48.7822728],[2.380821,48.7825833],[2.3773906,48.7859913],[2.3764131,48.7847416],[2.3758154,48.7840861],[2.3752522,48.7836037],[2.3768546,48.7825068],[2.3764029,48.7822294]]]]},"properties":{"code_section":"94081000BK","code_commune":"94081","section_courte":"BK"}},{"type":"Feature","geometry":{"type":"MultiPolygon","coordinates":[[[[2.3819585,48.7873197],[2.3819437,48.7873498],[2.3817485,48.7873013],[2.3802127,48.787102],[2.3793522,48.786898],[2.378935,48.786763],[2.3785235,48.7865813],[2.3779209,48.7862984],[2.3773906,48.7859913],[2.3790466,48.7843698],[2.3809061,48.78514],[2.3809474,48.7850853],[2.3812749,48.7852027],[2.3813125,48.7851588],[2.3821826,48.7855119],[2.3831665,48.7858575],[2.3827139,48.7863978],[2.3822187,48.7871709],[2.3820316,48.7871334],[2.3819585,48.7873197]]]]},"properties":{"code_section":"94081000BL","code_commune":"94081","section_courte":"BL"}},{"type":"Feature","geometry":{"type":"MultiPolygon","coordinates":[[[[2.3875186,48.7875658],[2.3873578,48.7877464],[2.3868455,48.788145],[2.3867035,48.7883271],[2.3867575,48.7883839],[2.3866903,48.7885354],[2.3862928,48.7889053],[2.3850435,48.7883564],[2.3838735,48.7880727],[2.3831158,48.7877159],[2.3819437,48.7873498],[2.3820316,48.7871334],[2.3822187,48.7871709],[2.3827139,48.7863978],[2.3831757,48.785846],[2.3842485,48.7862333],[2.3851021,48.7858631],[2.3850866,48.786539],[2.3863896,48.7870327],[2.3865764,48.78682],[2.3874949,48.7871548],[2.3875479,48.7873941],[2.3875186,48.7875658]]]]},"properties":{"code_section":"94081000BM","code_commune":"94081","section_courte":"BM"}},{"type":"Feature","geometry":{"type":"MultiPolygon","coordinates":[[[[2.3847099,48.7841408],[2.3844202,48.7844468],[2.3844147,48.7844967],[2.3837256,48.7853316],[2.3833943,48.7855861],[2.3831665,48.7858575],[2.3821826,48.7855119],[2.3813125,48.7851588],[2.3812749,48.7852027],[2.3809474,48.7850853],[2.3809061,48.78514],[2.3790466,48.7843698],[2.3808974,48.7825301],[2.3827269,48.7833075],[2.382683,48.7833502],[2.3848249,48.7840168],[2.3847099,48.7841408]]]]},"properties":{"code_section":"94081000BN","code_commune":"94081","section_courte":"BN"}},{"type":"Feature","geometry":{"type":"MultiPolygon","coordinates":[[[[2.3875121,48.7871348],[2.3874949,48.7871548],[2.3865764,48.78682],[2.3863896,48.7870327],[2.3851101,48.7865521],[2.3851021,48.7858631],[2.3842485,48.7862333],[2.3831757,48.785846],[2.3833943,48.7855861],[2.3837256,48.7853316],[2.3844147,48.7844967],[2.3844202,48.7844468],[2.3848334,48.7840077],[2.3855061,48.7842382],[2.3856305,48.7839874],[2.3856761,48.7839981],[2.3859564,48.7841107],[2.3868067,48.7845494],[2.3882889,48.7849735],[2.3890355,48.7852512],[2.3882913,48.7861824],[2.3881143,48.7861189],[2.3878901,48.7863951],[2.3878042,48.7865081],[2.3879948,48.7865486],[2.3875121,48.7871348]]]]},"properties":{"code_section":"94081000BO","code_commune":"94081","section_courte":"BO"}},{"type":"Feature","geometry":{"type":"MultiPolygon","coordinates":[[[[2.3875121,48.7871348],[2.3879948,48.7865486],[2.3878042,48.7865081],[2.3878901,48.7863951],[2.3881143,48.7861189],[2.3882913,48.7861824],[2.3890355,48.7852512],[2.3895479,48.785489],[2.3916978,48.7860132],[2.3889563,48.7893735],[2.3883422,48.7901927],[2.3876063,48.7894886],[2.3862928,48.7889053],[2.3866903,48.7885354],[2.3867575,48.7883839],[2.3867035,48.7883271],[2.3868455,48.788145],[2.3873578,48.7877464],[2.3875186,48.7875658],[2.3875479,48.7873941],[2.3875121,48.7871348]]]]},"properties":{"code_section":"94081000BP","code_commune":"94081","section_courte":"BP"}},{"type":"Feature","geometry":{"type":"MultiPolygon","coordinates":[[[[2.3928059,48.7840668],[2.3929218,48.7838997],[2.3932095,48.7840252],[2.3916978,48.7860132],[2.3895479,48.785489],[2.3888826,48.7851743],[2.3876449,48.7847768],[2.3868067,48.7845494],[2.3859564,48.7841107],[2.3856761,48.7839981],[2.3856812,48.7839641],[2.3858547,48.7839177],[2.3865721,48.7831765],[2.3870166,48.7823909],[2.3874331,48.7825275],[2.3874065,48.7825583],[2.3887856,48.7831545],[2.3890943,48.7832569],[2.3895756,48.7832941],[2.3899528,48.7832282],[2.3903103,48.7833434],[2.3904421,48.7833228],[2.3907905,48.7830417],[2.3909756,48.7830624],[2.3910696,48.783102],[2.3906854,48.783413],[2.3907125,48.7834989],[2.3926179,48.7841814],[2.3927443,48.7841557],[2.3928059,48.7840668]]]]},"properties":{"code_section":"94081000BQ","code_commune":"94081","section_courte":"BQ"}},{"type":"Feature","geometry":{"type":"MultiPolygon","coordinates":[[[[2.3856173,48.7840692],[2.3855061,48.7842382],[2.382683,48.7833502],[2.3827269,48.7833075],[2.3808974,48.7825301],[2.3827643,48.7807342],[2.3837257,48.7814173],[2.3842159,48.781653],[2.3858793,48.7821366],[2.3870166,48.7823909],[2.3865721,48.7831765],[2.3858547,48.7839177],[2.3856812,48.7839641],[2.3856761,48.7839981],[2.3856305,48.7839874],[2.3856173,48.7840692]]]]},"properties":{"code_section":"94081000BR","code_commune":"94081","section_courte":"BR"}},{"type":"Feature","geometry":{"type":"MultiPolygon","coordinates":[[[[2.3861364,48.7795161],[2.3861711,48.7794883],[2.3865803,48.7797391],[2.3882147,48.7805051],[2.3883464,48.7807981],[2.3888519,48.7810842],[2.3881298,48.7816819],[2.3874225,48.7825241],[2.3868124,48.7823349],[2.3858793,48.7821366],[2.3842159,48.781653],[2.3837257,48.7814173],[2.3827643,48.7807342],[2.3850137,48.7786406],[2.3853584,48.7788016],[2.3851006,48.7790487],[2.3861364,48.7795161]]]]},"properties":{"code_section":"94081000BS","code_commune":"94081","section_courte":"BS"}},{"type":"Feature","geometry":{"type":"MultiPolygon","coordinates":[[[[2.3904338,48.7808882],[2.3924047,48.7817529],[2.3924307,48.7817161],[2.3933363,48.782088],[2.3934038,48.7821819],[2.3932423,48.7823792],[2.3933082,48.7823792],[2.3940176,48.7826216],[2.3940405,48.7826585],[2.3942016,48.7826789],[2.3932095,48.7840252],[2.3929218,48.7838997],[2.3927443,48.7841557],[2.3926179,48.7841814],[2.3907125,48.7834989],[2.3906854,48.783413],[2.3910696,48.783102],[2.3909756,48.7830624],[2.3907905,48.7830417],[2.3904421,48.7833228],[2.3903103,48.7833434],[2.3899528,48.7832282],[2.3895756,48.7832941],[2.3890943,48.7832569],[2.3887856,48.7831545],[2.3874065,48.7825583],[2.388259,48.7815609],[2.3888519,48.7810842],[2.3889823,48.7811687],[2.3896633,48.7805156],[2.3904503,48.7808721],[2.3904338,48.7808882]]]]},"properties":{"code_section":"94081000BT","code_commune":"94081","section_courte":"BT"}},{"type":"Feature","geometry":{"type":"MultiPolygon","coordinates":[[[[2.3904338,48.7808882],[2.3904503,48.7808721],[2.3896633,48.7805156],[2.3907113,48.7795194],[2.3911986,48.7789197],[2.3917374,48.778438],[2.3947061,48.7797662],[2.3953725,48.7800559],[2.3955227,48.7800933],[2.3953361,48.7804848],[2.39591,48.780669],[2.394844,48.7819708],[2.3943114,48.7824889],[2.3942016,48.7826789],[2.3940405,48.7826585],[2.3940176,48.7826216],[2.3933082,48.7823792],[2.3932423,48.7823792],[2.3934038,48.7821819],[2.3933363,48.782088],[2.3924307,48.7817161],[2.3924047,48.7817529],[2.3904338,48.7808882]]]]},"properties":{"code_section":"94081000BU","code_commune":"94081","section_courte":"BU"}},{"type":"Feature","geometry":{"type":"MultiPolygon","coordinates":[[[[2.3861364,48.7795161],[2.3851006,48.7790487],[2.3853584,48.7788016],[2.3850137,48.7786406],[2.3861875,48.7776312],[2.3864113,48.7774978],[2.3870663,48.7772305],[2.389076,48.7781405],[2.390102,48.7785597],[2.3910406,48.7791147],[2.3907113,48.7795194],[2.3889823,48.7811687],[2.3883464,48.7807981],[2.3882147,48.7805051],[2.3865803,48.7797391],[2.3861711,48.7794883],[2.3861364,48.7795161]]]]},"properties":{"code_section":"94081000BV","code_commune":"94081","section_courte":"BV"}},{"type":"Feature","geometry":{"type":"MultiPolygon","coordinates":[[[[2.3881596,48.7777069],[2.3870663,48.7772305],[2.3879135,48.7768634],[2.3881413,48.7767049],[2.3894291,48.7757372],[2.3898347,48.775239],[2.3934143,48.7767351],[2.3939288,48.7769145],[2.3928157,48.7778823],[2.3922821,48.7786643],[2.3917374,48.778438],[2.3911986,48.7789197],[2.3910406,48.7791147],[2.390102,48.7785597],[2.389076,48.7781405],[2.3881596,48.7777069]]]]},"properties":{"code_section":"94081000BX","code_commune":"94081","section_courte":"BX"}},{"type":"Feature","geometry":{"type":"MultiPolygon","coordinates":[[[[2.3953361,48.7804848],[2.3955227,48.7800933],[2.3953725,48.7800559],[2.3947061,48.7797662],[2.3922821,48.7786643],[2.3928157,48.7778823],[2.3939288,48.7769145],[2.3941009,48.7769912],[2.3946321,48.7773619],[2.3975379,48.7786041],[2.3969363,48.7792444],[2.39591,48.780669],[2.3953361,48.7804848]]]]},"properties":{"code_section":"94081000BY","code_commune":"94081","section_courte":"BY"}},{"type":"Feature","geometry":{"type":"MultiPolygon","coordinates":[[[[2.3938093,48.7737663],[2.3951781,48.7740571],[2.3949544,48.7752218],[2.3947854,48.7756394],[2.3945031,48.7760959],[2.3942693,48.7760206],[2.3936257,48.7768115],[2.3898347,48.775239],[2.3905854,48.7743263],[2.3923891,48.7729435],[2.3924199,48.77298],[2.3923479,48.7733492],[2.3937622,48.7737],[2.3937349,48.7737504],[2.3938093,48.7737663]]]]},"properties":{"code_section":"94081000BZ","code_commune":"94081","section_courte":"BZ"}},{"type":"Feature","geometry":{"type":"MultiPolygon","coordinates":[[[[2.3985351,48.7747593],[2.3987174,48.7747932],[2.3965349,48.7781885],[2.3946321,48.7773619],[2.3941009,48.7769912],[2.3936257,48.7768115],[2.3942693,48.7760206],[2.3945031,48.7760959],[2.3947854,48.7756394],[2.3949544,48.7752218],[2.3951781,48.7740571],[2.396825,48.7743709],[2.3968086,48.7744025],[2.3985351,48.7747593]]]]},"properties":{"code_section":"94081000CD","code_commune":"94081","section_courte":"CD"}},{"type":"Feature","geometry":{"type":"MultiPolygon","coordinates":[[[[2.3996862,48.7762835],[2.3994256,48.7762028],[2.3992246,48.7764698],[2.397959,48.7759522],[2.3987174,48.7747932],[2.4003241,48.7750762],[2.4020108,48.7729646],[2.4027949,48.7730949],[2.4025956,48.7739649],[2.4022998,48.7749841],[2.4018606,48.7756093],[2.4012978,48.7768033],[2.3996862,48.7762835]]]]},"properties":{"code_section":"94081000CE","code_commune":"94081","section_courte":"CE"}},{"type":"Feature","geometry":{"type":"MultiPolygon","coordinates":[[[[2.3996862,48.7762835],[2.4012978,48.7768033],[2.4009166,48.7775958],[2.400887,48.7780138],[2.4008124,48.7782048],[2.400407,48.7787687],[2.4002708,48.7788664],[2.3996163,48.7795825],[2.3975379,48.7786041],[2.3965349,48.7781885],[2.397959,48.7759522],[2.3992246,48.7764698],[2.3994256,48.7762028],[2.3996862,48.7762835]]]]},"properties":{"code_section":"94081000CF","code_commune":"94081","section_courte":"CF"}},{"type":"Feature","geometry":{"type":"MultiPolygon","coordinates":[[[[2.4059124,48.781052],[2.4056132,48.7810072],[2.403527,48.7804535],[2.4030324,48.7810942],[2.3996163,48.7795825],[2.4002708,48.7788664],[2.400407,48.7787687],[2.4008124,48.7782048],[2.400887,48.7780138],[2.4009166,48.7775958],[2.4015123,48.7762941],[2.4018606,48.7756093],[2.4022998,48.7749841],[2.4025956,48.7739649],[2.4027949,48.7730949],[2.4057394,48.7735691],[2.4057022,48.7738377],[2.4094856,48.774113],[2.4092018,48.7756722],[2.4086507,48.7775597],[2.4082525,48.7794111],[2.4077684,48.7813239],[2.4059124,48.781052]]]]},"properties":{"code_section":"94081000CG","code_commune":"94081","section_courte":"CG"}},{"type":"Feature","geometry":{"type":"MultiPolygon","coordinates":[[[[2.3993413,48.782011],[2.39591,48.780669],[2.3969363,48.7792444],[2.3975379,48.7786041],[2.4008788,48.7801603],[2.4024454,48.7808204],[2.4013375,48.7820631],[2.401242,48.7823811],[2.4009573,48.7822964],[2.399843,48.7821862],[2.3993413,48.782011]]]]},"properties":{"code_section":"94081000CH","code_commune":"94081","section_courte":"CH"}},{"type":"Feature","geometry":{"type":"MultiPolygon","coordinates":[[[[2.4059124,48.781052],[2.4077684,48.7813239],[2.4072016,48.7831496],[2.4069617,48.7836603],[2.4021733,48.782752],[2.401892,48.782719],[2.401242,48.7823811],[2.4013375,48.7820631],[2.4024454,48.7808204],[2.4030324,48.7810942],[2.403527,48.7804535],[2.4056132,48.7810072],[2.4059124,48.781052]]]]},"properties":{"code_section":"94081000CI","code_commune":"94081","section_courte":"CI"}},{"type":"Feature","geometry":{"type":"MultiPolygon","coordinates":[[[[2.4089123,48.784705],[2.4083305,48.7871438],[2.408365,48.7871746],[2.4083437,48.7873088],[2.4076507,48.7873356],[2.4070782,48.787485],[2.4047795,48.7869611],[2.4069617,48.7836603],[2.4078451,48.7838351],[2.408946,48.7838953],[2.4089303,48.7839837],[2.4090652,48.7840046],[2.4089123,48.784705]]]]},"properties":{"code_section":"94081000CJ","code_commune":"94081","section_courte":"CJ"}},{"type":"Feature","geometry":{"type":"MultiPolygon","coordinates":[[[[2.4035481,48.7866673],[2.4023565,48.7863005],[2.4044644,48.7831931],[2.4069617,48.7836603],[2.4047514,48.7870155],[2.4035481,48.7866673]]]]},"properties":{"code_section":"94081000CK","code_commune":"94081","section_courte":"CK"}},{"type":"Feature","geometry":{"type":"MultiPolygon","coordinates":[[[[2.399766,48.7855403],[2.401892,48.782719],[2.4021733,48.782752],[2.4044644,48.7831931],[2.4023565,48.7863005],[2.399766,48.7855403]]]]},"properties":{"code_section":"94081000CL","code_commune":"94081","section_courte":"CL"}},{"type":"Feature","geometry":{"type":"MultiPolygon","coordinates":[[[[2.397795,48.7849461],[2.3979188,48.7847033],[2.3978549,48.7846246],[2.3970568,48.7844697],[2.3962064,48.7842375],[2.3960707,48.7842679],[2.3958617,48.7845166],[2.3956165,48.7844537],[2.3964169,48.7834975],[2.3964952,48.7834801],[2.3968015,48.7830398],[2.3980846,48.7815161],[2.399843,48.7821862],[2.4009573,48.7822964],[2.401242,48.7823811],[2.401892,48.782719],[2.4001237,48.785056],[2.3980817,48.7845342],[2.3977979,48.7850119],[2.3977542,48.7849996],[2.397795,48.7849461]]]]},"properties":{"code_section":"94081000CM","code_commune":"94081","section_courte":"CM"}},{"type":"Feature","geometry":{"type":"MultiPolygon","coordinates":[[[[2.3935366,48.7838734],[2.393369,48.7838152],[2.3938848,48.7831441],[2.3943114,48.7824889],[2.394844,48.7819708],[2.39591,48.780669],[2.3980846,48.7815161],[2.3968015,48.7830398],[2.3964952,48.7834801],[2.3964169,48.7834975],[2.3954965,48.7845964],[2.3935366,48.7838734]]]]},"properties":{"code_section":"94081000CN","code_commune":"94081","section_courte":"CN"}},{"type":"Feature","geometry":{"type":"MultiPolygon","coordinates":[[[[2.397795,48.7849461],[2.3977542,48.7849996],[2.3977979,48.7850119],[2.3970583,48.7860008],[2.3962875,48.7872036],[2.3929359,48.7864064],[2.3916978,48.7860132],[2.393369,48.7838152],[2.3954965,48.7845964],[2.3956165,48.7844537],[2.3958617,48.7845166],[2.3960707,48.7842679],[2.3962064,48.7842375],[2.3970568,48.7844697],[2.3978549,48.7846246],[2.3979188,48.7847033],[2.397795,48.7849461]]]]},"properties":{"code_section":"94081000CO","code_commune":"94081","section_courte":"CO"}},{"type":"Feature","geometry":{"type":"MultiPolygon","coordinates":[[[[2.3985904,48.7846592],[2.4001237,48.785056],[2.399766,48.7855403],[2.4010137,48.7858933],[2.3997314,48.7885891],[2.398124,48.787777],[2.3981414,48.7877159],[2.3962875,48.7872036],[2.3970583,48.7860008],[2.3978781,48.7849033],[2.3980817,48.7845342],[2.3985904,48.7846592]]]]},"properties":{"code_section":"94081000CP","code_commune":"94081","section_courte":"CP"}},{"type":"Feature","geometry":{"type":"MultiPolygon","coordinates":[[[[2.402759,48.7900089],[2.3997314,48.7885891],[2.4010137,48.7858933],[2.4047514,48.7870155],[2.402759,48.7900089]]]]},"properties":{"code_section":"94081000CQ","code_commune":"94081","section_courte":"CQ"}},{"type":"Feature","geometry":{"type":"MultiPolygon","coordinates":[[[[2.4017101,48.7919189],[2.4014685,48.7923938],[2.398235,48.7917295],[2.3997314,48.7885891],[2.402759,48.7900089],[2.4023384,48.7906663],[2.4017101,48.7919189]]]]},"properties":{"code_section":"94081000CR","code_commune":"94081","section_courte":"CR"}},{"type":"Feature","geometry":{"type":"MultiPolygon","coordinates":[[[[2.3967574,48.7911454],[2.3969344,48.7906811],[2.3952593,48.7903962],[2.3965398,48.7881023],[2.3972373,48.7882869],[2.3976806,48.7875794],[2.3981414,48.7877159],[2.398124,48.787777],[2.3997314,48.7885891],[2.398235,48.7917295],[2.3966529,48.7914016],[2.3967574,48.7911454]]]]},"properties":{"code_section":"94081000CS","code_commune":"94081","section_courte":"CS"}},{"type":"Feature","geometry":{"type":"MultiPolygon","coordinates":[[[[2.3925253,48.789884],[2.3925564,48.7898336],[2.3918768,48.789693],[2.3925873,48.7885626],[2.3932266,48.7878933],[2.3941178,48.7872784],[2.3945379,48.7867973],[2.3962875,48.7872036],[2.3976806,48.7875794],[2.3972373,48.7882869],[2.3965398,48.7881023],[2.3950963,48.7906963],[2.3941522,48.7904377],[2.3942292,48.7903109],[2.3925253,48.789884]]]]},"properties":{"code_section":"94081000CT","code_commune":"94081","section_courte":"CT"}},{"type":"Feature","geometry":{"type":"MultiPolygon","coordinates":[[[[2.3892235,48.7896211],[2.3889707,48.7899349],[2.3885987,48.7898374],[2.3916978,48.7860132],[2.3929359,48.7864064],[2.3945379,48.7867973],[2.3941178,48.7872784],[2.3932266,48.7878933],[2.3925873,48.7885626],[2.391529,48.7902324],[2.3893375,48.7894844],[2.3892235,48.7896211]]]]},"properties":{"code_section":"94081000CU","code_commune":"94081","section_courte":"CU"}},{"type":"Feature","geometry":{"type":"MultiPolygon","coordinates":[[[[2.3925253,48.789884],[2.3942292,48.7903109],[2.3941522,48.7904377],[2.3950963,48.7906963],[2.3952593,48.7903962],[2.3969344,48.7906811],[2.3959695,48.793167],[2.3955569,48.7931167],[2.3952026,48.7924614],[2.3940467,48.7922042],[2.3934223,48.7927808],[2.393151,48.7927568],[2.3931694,48.7926129],[2.3934204,48.7921113],[2.391757,48.7917318],[2.3917699,48.7915616],[2.3909464,48.7913629],[2.3913378,48.7910548],[2.3919207,48.7907251],[2.3919217,48.7903836],[2.391529,48.7902324],[2.3918768,48.789693],[2.3925564,48.7898336],[2.3925253,48.789884]]]]},"properties":{"code_section":"94081000CV","code_commune":"94081","section_courte":"CV"}},{"type":"Feature","geometry":{"type":"MultiPolygon","coordinates":[[[[2.401365,48.7925992],[2.4005943,48.794116],[2.3959695,48.793167],[2.3966529,48.7914016],[2.4014685,48.7923938],[2.401365,48.7925992]]]]},"properties":{"code_section":"94081000CX","code_commune":"94081","section_courte":"CX"}},{"type":"Feature","geometry":{"type":"MultiPolygon","coordinates":[[[[2.405742,48.794339],[2.4054022,48.7950749],[2.4054341,48.7951069],[2.4053648,48.7952489],[2.4005943,48.794116],[2.4017753,48.7917887],[2.4032275,48.7920768],[2.4035585,48.7920017],[2.4036495,48.7919031],[2.4043831,48.7921044],[2.4064052,48.7927482],[2.405742,48.794339]]]]},"properties":{"code_section":"94081000CY","code_commune":"94081","section_courte":"CY"}},{"type":"Feature","geometry":{"type":"MultiPolygon","coordinates":[[[[2.4067944,48.7917975],[2.4064052,48.7927482],[2.4043831,48.7921044],[2.4036495,48.7919031],[2.4035585,48.7920017],[2.4032275,48.7920768],[2.4017753,48.7917887],[2.4023384,48.7906663],[2.4031728,48.7894201],[2.405067,48.7898216],[2.4044611,48.7906716],[2.4069467,48.7913783],[2.4067944,48.7917975]]]]},"properties":{"code_section":"94081000CZ","code_commune":"94081","section_courte":"CZ"}},{"type":"Feature","geometry":{"type":"MultiPolygon","coordinates":[[[[2.4073283,48.7903269],[2.4069467,48.7913783],[2.4044611,48.7906716],[2.405067,48.7898216],[2.4031728,48.7894201],[2.4047795,48.7869611],[2.4070782,48.787485],[2.4076507,48.7873356],[2.4083437,48.7873088],[2.4082947,48.7874163],[2.4082452,48.7874259],[2.4078309,48.7888249],[2.4073283,48.7903269]]]]},"properties":{"code_section":"94081000DE","code_commune":"94081","section_courte":"DE"}},{"type":"Feature","geometry":{"type":"MultiPolygon","coordinates":[[[[2.4067944,48.7917975],[2.4075245,48.7897714],[2.4082452,48.7874259],[2.4082947,48.7874163],[2.4083437,48.7873088],[2.4090793,48.7873921],[2.4099957,48.7874291],[2.4141047,48.7874747],[2.4157626,48.7875603],[2.4154559,48.7884173],[2.4155402,48.7887894],[2.4153371,48.7893461],[2.4141782,48.7924187],[2.4141303,48.7924124],[2.4139202,48.7930036],[2.4138524,48.7929901],[2.4135938,48.7936865],[2.4136303,48.7936924],[2.4132299,48.7946849],[2.4131035,48.7948501],[2.4126677,48.7959796],[2.4067111,48.7954632],[2.4053648,48.7952489],[2.4054341,48.7951069],[2.4054022,48.7950749],[2.4058422,48.7941238],[2.4067944,48.7917975]]]]},"properties":{"code_section":"94081000DF","code_commune":"94081","section_courte":"DF"}},{"type":"Feature","geometry":{"type":"MultiPolygon","coordinates":[[[[2.4205832,48.7916998],[2.4217199,48.7918122],[2.4217142,48.7919033],[2.4226962,48.7919985],[2.4225956,48.792377],[2.4223154,48.7931676],[2.4219696,48.7938919],[2.4213825,48.7949079],[2.4208941,48.7955998],[2.4206741,48.7958676],[2.4202274,48.7963047],[2.4188514,48.7973456],[2.4181488,48.7969222],[2.4181897,48.7968926],[2.4181321,48.7968591],[2.418087,48.7968933],[2.4175733,48.7966138],[2.4166664,48.7962638],[2.4126677,48.7959796],[2.4131035,48.7948501],[2.4132299,48.7946849],[2.4136303,48.7936924],[2.4135938,48.7936865],[2.4138524,48.7929901],[2.4139202,48.7930036],[2.4141303,48.7924124],[2.4141782,48.7924187],[2.4146668,48.7911117],[2.4205832,48.7916998]]]]},"properties":{"code_section":"94081000DG","code_commune":"94081","section_courte":"DG"}},{"type":"Feature","geometry":{"type":"MultiPolygon","coordinates":[[[[2.4205832,48.7916998],[2.4146668,48.7911117],[2.4155402,48.7887894],[2.4154559,48.7884173],[2.4157626,48.7875603],[2.4195923,48.7880501],[2.4207743,48.7880639],[2.4205359,48.7875796],[2.421834,48.7875743],[2.4224331,48.7890118],[2.4227606,48.790113],[2.4228372,48.7908674],[2.4226962,48.7919985],[2.4217142,48.7919033],[2.4217199,48.7918122],[2.4205832,48.7916998]]]]},"properties":{"code_section":"94081000DH","code_commune":"94081","section_courte":"DH"}},{"type":"Feature","geometry":{"type":"MultiPolygon","coordinates":[[[[2.4142592,48.7821435],[2.4138861,48.7815247],[2.4140672,48.7814776],[2.4141004,48.781528],[2.417266,48.7805597],[2.420718,48.7856182],[2.4211379,48.7862931],[2.421834,48.7875743],[2.4205359,48.7875796],[2.4207743,48.7880639],[2.4195923,48.7880501],[2.4157626,48.7875603],[2.4151366,48.7839975],[2.415354,48.7839448],[2.4142592,48.7821435]]]]},"properties":{"code_section":"94081000DI","code_commune":"94081","section_courte":"DI"}},{"type":"Feature","geometry":{"type":"MultiPolygon","coordinates":[[[[2.4103621,48.7796596],[2.4105215,48.779913],[2.4105533,48.7801188],[2.4106229,48.7802135],[2.4110371,48.7805545],[2.4115507,48.7807955],[2.4124104,48.7810793],[2.4136419,48.7818193],[2.4137975,48.7817768],[2.4140032,48.7819032],[2.4140889,48.7818602],[2.415354,48.7839448],[2.4151366,48.7839975],[2.4157626,48.7875603],[2.4141047,48.7874747],[2.4099957,48.7874291],[2.4090793,48.7873921],[2.4083437,48.7873088],[2.408365,48.7871746],[2.4083305,48.7871438],[2.4090652,48.7840046],[2.4089303,48.7839837],[2.408946,48.7838953],[2.4078451,48.7838351],[2.4069617,48.7836603],[2.4072016,48.7831496],[2.4077684,48.7813239],[2.4082525,48.7794111],[2.40977,48.7794658],[2.4097764,48.7793558],[2.410425,48.7793892],[2.4104639,48.7795023],[2.410339,48.7796203],[2.4103621,48.7796596]]]]},"properties":{"code_section":"94081000DJ","code_commune":"94081","section_courte":"DJ"}},{"type":"Feature","geometry":{"type":"MultiPolygon","coordinates":[[[[2.4103621,48.7796596],[2.410339,48.7796203],[2.4104639,48.7795023],[2.410425,48.7793892],[2.4097764,48.7793558],[2.40977,48.7794658],[2.4082525,48.7794111],[2.4086507,48.7775597],[2.4092018,48.7756722],[2.4094856,48.774113],[2.4119453,48.7742918],[2.4123838,48.775036],[2.4129325,48.7757092],[2.4136733,48.7764328],[2.4147334,48.7773219],[2.4153259,48.7779564],[2.4162703,48.7791579],[2.417266,48.7805597],[2.4141004,48.781528],[2.4140672,48.7814776],[2.4138861,48.7815247],[2.4140889,48.7818602],[2.4140032,48.7819032],[2.4137975,48.7817768],[2.4136419,48.7818193],[2.4124104,48.7810793],[2.4115507,48.7807955],[2.4110371,48.7805545],[2.4106229,48.7802135],[2.4105533,48.7801188],[2.4105215,48.779913],[2.4103621,48.7796596]]]]},"properties":{"code_section":"94081000DK","code_commune":"94081","section_courte":"DK"}}]}