{"type":"FeatureCollection","features":[{"type":"Feature","geometry":{"type":"MultiPolygon","coordinates":[[[[2.0431662,48.9737106],[2.0421932,48.9743764],[2.0412449,48.9720518],[2.0415741,48.9721733],[2.0428941,48.9729495],[2.0436135,48.9734257],[2.0431662,48.9737106]]],[[[2.0410659,48.9699464],[2.0405721,48.9701106],[2.0402982,48.9692026],[2.0401787,48.9680243],[2.0420964,48.9691227],[2.0410659,48.9699464]]]]},"properties":{"code_section":"780150000A","code_commune":"78015","section_courte":"A"}},{"type":"Feature","geometry":{"type":"MultiPolygon","coordinates":[[[[2.0250748,48.9956518],[2.0248774,48.9956146],[2.0260711,48.9921592],[2.0271961,48.9887322],[2.0276594,48.9884662],[2.0283861,48.988125],[2.0343254,48.9858667],[2.0344029,48.9865298],[2.0343758,48.9869863],[2.0340987,48.9872808],[2.0340796,48.9874044],[2.0353902,48.9900863],[2.036201,48.991985],[2.0363711,48.9931779],[2.0362765,48.9946574],[2.0360651,48.9957459],[2.034835,48.9953995],[2.0344225,48.9953546],[2.0330483,48.9955604],[2.0312717,48.9956075],[2.0295893,48.9957226],[2.0271462,48.9957261],[2.025728,48.9956443],[2.0250748,48.9956518]]]]},"properties":{"code_section":"78015000AB","code_commune":"78015","section_courte":"AB"}},{"type":"Feature","geometry":{"type":"MultiPolygon","coordinates":[[[[2.0342689,48.9854182],[2.0341294,48.9839694],[2.0386372,48.9843074],[2.040464,48.9843383],[2.0416766,48.9842631],[2.0428287,48.984394],[2.04318,48.9844758],[2.0436768,48.984344],[2.0441568,48.9841573],[2.0447816,48.9838614],[2.045882,48.9834466],[2.0462423,48.983385],[2.047489,48.9833072],[2.047641,48.9834407],[2.0480438,48.9848561],[2.047693,48.98491],[2.0476237,48.9861048],[2.0474335,48.9868559],[2.0480012,48.9868874],[2.0479675,48.9871778],[2.0486868,48.9872275],[2.048446,48.9879859],[2.0479474,48.9888192],[2.0470984,48.9904843],[2.0464777,48.9903658],[2.0460888,48.9917277],[2.0459726,48.992318],[2.0459268,48.9928593],[2.045853,48.9930791],[2.0456714,48.9932632],[2.0452991,48.9935206],[2.0450723,48.9937616],[2.0447299,48.9944389],[2.0447011,48.9946635],[2.0447973,48.9949159],[2.0450935,48.9952704],[2.04521,48.9954907],[2.0450901,48.9966717],[2.0426431,48.9968961],[2.0419818,48.9968575],[2.0404243,48.9966735],[2.0386997,48.9963706],[2.0372281,48.996053],[2.0360651,48.9957459],[2.0362765,48.9946574],[2.0363711,48.9931779],[2.036201,48.991985],[2.0353902,48.9900863],[2.0340796,48.9874044],[2.0340987,48.9872808],[2.0343758,48.9869863],[2.0344029,48.9865298],[2.0342689,48.9854182]]]]},"properties":{"code_section":"78015000AC","code_commune":"78015","section_courte":"AC"}},{"type":"Feature","geometry":{"type":"MultiPolygon","coordinates":[[[[2.0555381,48.9889377],[2.0554626,48.989219],[2.055528,48.9892788],[2.0554144,48.9893909],[2.0555583,48.9895485],[2.0554105,48.9896329],[2.0556584,48.9898286],[2.0552493,48.9900596],[2.0552354,48.9901473],[2.0551967,48.9901131],[2.0547288,48.9903202],[2.054884,48.9904844],[2.055342,48.9908239],[2.0556806,48.991022],[2.0555519,48.9918978],[2.0555622,48.9925861],[2.055612,48.9926286],[2.0549327,48.9926131],[2.0536882,48.9924939],[2.0532233,48.9923956],[2.0525219,48.9921756],[2.0499387,48.9912575],[2.0483325,48.9908556],[2.0475045,48.9906918],[2.047231,48.9905898],[2.0470984,48.9904843],[2.0479474,48.9888192],[2.048446,48.9879859],[2.0491341,48.9874574],[2.0499454,48.9869588],[2.050732,48.9863097],[2.0517307,48.985702],[2.0522931,48.9852823],[2.0528595,48.9853185],[2.0531604,48.9852999],[2.053832,48.9851301],[2.054039,48.9850509],[2.0540996,48.9854835],[2.0540399,48.9864385],[2.0562056,48.9867398],[2.0560299,48.9874251],[2.0557862,48.9874501],[2.0557613,48.9874889],[2.0556255,48.9882239],[2.0556762,48.9882256],[2.0556592,48.9883559],[2.0555764,48.9885078],[2.0555381,48.9889377]]]]},"properties":{"code_section":"78015000AD","code_commune":"78015","section_courte":"AD"}},{"type":"Feature","geometry":{"type":"MultiPolygon","coordinates":[[[[2.0664482,48.9903868],[2.0663725,48.9904357],[2.0653794,48.9905421],[2.0654795,48.9910458],[2.063205,48.9913558],[2.0624556,48.9914091],[2.062805,48.9925589],[2.062742,48.9928108],[2.0621845,48.9925396],[2.0617013,48.9924732],[2.0580765,48.9924007],[2.057846,48.9924209],[2.0575191,48.9925136],[2.0567771,48.9926066],[2.055612,48.9926286],[2.0555622,48.9925861],[2.0555519,48.9918978],[2.0556806,48.991022],[2.055342,48.9908239],[2.054884,48.9904844],[2.0547288,48.9903202],[2.0551967,48.9901131],[2.0552354,48.9901473],[2.0552493,48.9900596],[2.0556584,48.9898286],[2.0554105,48.9896329],[2.0555583,48.9895485],[2.0554144,48.9893909],[2.055528,48.9892788],[2.0554626,48.989219],[2.0555466,48.9888907],[2.0555764,48.9885078],[2.0556592,48.9883559],[2.0556762,48.9882256],[2.0556255,48.9882239],[2.0557613,48.9874889],[2.0557862,48.9874501],[2.0560299,48.9874251],[2.0562056,48.9867398],[2.0579914,48.9871041],[2.0580076,48.9870473],[2.0594839,48.987128],[2.05955,48.9871223],[2.0594786,48.9869494],[2.0595086,48.9868422],[2.0612485,48.9868867],[2.0611748,48.9865799],[2.0634761,48.9861162],[2.0664482,48.9903868]]]]},"properties":{"code_section":"78015000AE","code_commune":"78015","section_courte":"AE"}},{"type":"Feature","geometry":{"type":"MultiPolygon","coordinates":[[[[2.0701085,48.9933157],[2.0676232,48.9932351],[2.0665344,48.9931617],[2.0666139,48.9915214],[2.0678463,48.9914195],[2.0675202,48.9905238],[2.0666073,48.990701],[2.0665292,48.9904226],[2.0664482,48.9903868],[2.0634761,48.9861162],[2.0636337,48.9862637],[2.0664672,48.9853853],[2.0666204,48.9852728],[2.0667451,48.9846138],[2.069708,48.985915],[2.0707791,48.9866027],[2.0709836,48.9867936],[2.0711868,48.9870681],[2.0721063,48.9897969],[2.0723054,48.9906045],[2.0723402,48.9913272],[2.0722983,48.9919309],[2.0721709,48.9926286],[2.0718686,48.9933884],[2.0701085,48.9933157]]]]},"properties":{"code_section":"78015000AH","code_commune":"78015","section_courte":"AH"}},{"type":"Feature","geometry":{"type":"MultiPolygon","coordinates":[[[[2.0585007,48.9783189],[2.0583853,48.9782166],[2.0604798,48.9772715],[2.0599157,48.9766821],[2.0607783,48.9763054],[2.0612299,48.9767355],[2.0627966,48.9760663],[2.0630488,48.9761687],[2.0637064,48.9765244],[2.0644125,48.9770222],[2.0646602,48.9774684],[2.065136,48.9781853],[2.0660283,48.9790576],[2.0663316,48.9792708],[2.0669944,48.9795544],[2.0682012,48.9802252],[2.0690319,48.9809536],[2.0694582,48.9811583],[2.0695323,48.9812255],[2.0696826,48.9814123],[2.0697411,48.9815624],[2.0696818,48.9822309],[2.0697076,48.9823231],[2.0699175,48.9825646],[2.0704799,48.9830669],[2.0714419,48.9834869],[2.0721175,48.9840351],[2.0727357,48.9843435],[2.0737059,48.9847042],[2.0741784,48.9848115],[2.0740146,48.985045],[2.0738509,48.9850067],[2.0728387,48.9864015],[2.0725863,48.9863574],[2.0723218,48.9863676],[2.07208,48.9864156],[2.0718437,48.9865094],[2.071612,48.9866399],[2.0714289,48.9867896],[2.0713015,48.9869628],[2.0712211,48.9871652],[2.0710406,48.9868587],[2.0707791,48.9866027],[2.069708,48.985915],[2.0667451,48.9846138],[2.0649165,48.9840189],[2.0638615,48.9834185],[2.0632454,48.9828645],[2.0611982,48.9806114],[2.0585007,48.9783189]]]]},"properties":{"code_section":"78015000AI","code_commune":"78015","section_courte":"AI"}},{"type":"Feature","geometry":{"type":"MultiPolygon","coordinates":[[[[2.0559824,48.9698799],[2.0560989,48.9698795],[2.0564434,48.9702714],[2.0567403,48.9704768],[2.0593753,48.9729373],[2.0596176,48.973265],[2.0597906,48.973602],[2.0602063,48.9746937],[2.0606287,48.9752093],[2.0609956,48.975473],[2.0614569,48.975551],[2.0627966,48.9760663],[2.0612299,48.9767355],[2.0607783,48.9763054],[2.0599157,48.9766821],[2.0604798,48.9772715],[2.0583853,48.9782166],[2.0575731,48.9774919],[2.0547489,48.9745628],[2.0532988,48.9732287],[2.0526747,48.972527],[2.0518224,48.9714661],[2.0544334,48.9703374],[2.0543437,48.969857],[2.0559824,48.9698799]]]]},"properties":{"code_section":"78015000AK","code_commune":"78015","section_courte":"AK"}},{"type":"Feature","geometry":{"type":"MultiPolygon","coordinates":[[[[2.0466896,48.9626983],[2.0466875,48.9622384],[2.0469044,48.9615607],[2.0470694,48.9612883],[2.0483369,48.9597697],[2.0487031,48.959451],[2.0487764,48.959459],[2.0491191,48.959951],[2.0500591,48.9619055],[2.0508716,48.96337],[2.0512987,48.9639979],[2.053742,48.9670614],[2.0541027,48.9677328],[2.0541676,48.9679558],[2.0542612,48.9685658],[2.0543437,48.969857],[2.0544334,48.9703374],[2.0518224,48.9714661],[2.049706,48.9686537],[2.0482091,48.9670274],[2.0477737,48.9664122],[2.0472383,48.9655302],[2.0471043,48.9650605],[2.046524,48.9635319],[2.0466896,48.9626983]]]]},"properties":{"code_section":"78015000AL","code_commune":"78015","section_courte":"AL"}},{"type":"Feature","geometry":{"type":"MultiPolygon","coordinates":[[[[2.0449916,48.9702448],[2.0447812,48.970344],[2.0448358,48.9703986],[2.0448989,48.9703706],[2.0451914,48.9706346],[2.044912,48.9707652],[2.0448845,48.9707406],[2.0448313,48.9707629],[2.0442785,48.9710397],[2.0442787,48.9708334],[2.0440291,48.9704705],[2.0435102,48.969919],[2.0434845,48.9699315],[2.0432846,48.9697251],[2.0432422,48.9697358],[2.0424067,48.9689123],[2.0423697,48.9686347],[2.0426207,48.9676979],[2.0428898,48.9663515],[2.0427371,48.9656532],[2.0427309,48.9653672],[2.042749,48.9649685],[2.0428972,48.9643396],[2.0429697,48.96317],[2.042962,48.9629428],[2.0424096,48.9619885],[2.0435067,48.9618132],[2.0435493,48.9618873],[2.0447331,48.9617017],[2.0451797,48.9616663],[2.0456131,48.9636019],[2.046524,48.9635319],[2.0471043,48.9650605],[2.0472383,48.9655302],[2.0477737,48.9664122],[2.0482091,48.9670274],[2.049706,48.9686537],[2.0476675,48.9691151],[2.0476204,48.9691718],[2.0472237,48.9692671],[2.0472488,48.9693723],[2.0456925,48.9700072],[2.0455034,48.9700059],[2.0449916,48.9702448]]]]},"properties":{"code_section":"78015000AM","code_commune":"78015","section_courte":"AM"}},{"type":"Feature","geometry":{"type":"MultiPolygon","coordinates":[[[[2.0338486,48.965824],[2.033527,48.9657701],[2.0352879,48.9615214],[2.0370608,48.961578],[2.0370013,48.9619622],[2.0370627,48.9620133],[2.0394673,48.9621405],[2.0395901,48.9621795],[2.0397101,48.962307],[2.0399649,48.9623533],[2.0408872,48.9622879],[2.0423801,48.9619331],[2.042962,48.9629428],[2.0429556,48.9638022],[2.0428972,48.9643396],[2.042749,48.9649685],[2.0427309,48.9653672],[2.0427371,48.9656532],[2.0428898,48.9663515],[2.0426207,48.9676979],[2.0423697,48.9686347],[2.0424067,48.9689123],[2.0420964,48.9691227],[2.0401787,48.9680243],[2.0398252,48.9678587],[2.0395877,48.9676583],[2.0389332,48.9673323],[2.0386938,48.9668869],[2.0387573,48.966628],[2.0387321,48.9665677],[2.0376254,48.9663623],[2.036437,48.9662162],[2.0347028,48.9660514],[2.0338486,48.965824]]]]},"properties":{"code_section":"78015000AN","code_commune":"78015","section_courte":"AN"}},{"type":"Feature","geometry":{"type":"MultiPolygon","coordinates":[[[[2.0443267,48.9710192],[2.0448313,48.9707629],[2.0448845,48.9707406],[2.044912,48.9707652],[2.0451914,48.9706346],[2.0448989,48.9703706],[2.0448358,48.9703986],[2.0447812,48.970344],[2.0455034,48.9700059],[2.0456925,48.9700072],[2.0472488,48.9693723],[2.0472237,48.9692671],[2.0476204,48.9691718],[2.0476675,48.9691151],[2.049706,48.9686537],[2.0518224,48.9714661],[2.0526747,48.972527],[2.0536398,48.9735732],[2.0547489,48.9745628],[2.0533808,48.9750878],[2.0533216,48.9750907],[2.0532293,48.9750404],[2.0519534,48.9756102],[2.0515768,48.9753915],[2.0513429,48.975311],[2.0504327,48.9751412],[2.049631,48.974696],[2.0495339,48.9747554],[2.0490614,48.9744794],[2.0489243,48.9745151],[2.0480175,48.9740064],[2.0479786,48.9739741],[2.048,48.9739407],[2.0474909,48.9737493],[2.0453047,48.9725585],[2.0451099,48.9723937],[2.0450216,48.9723848],[2.0445181,48.9721332],[2.0444458,48.9718198],[2.0444729,48.9718105],[2.0443156,48.9712799],[2.0442785,48.9710397],[2.0443267,48.9710192]]]]},"properties":{"code_section":"78015000AO","code_commune":"78015","section_courte":"AO"}},{"type":"Feature","geometry":{"type":"MultiPolygon","coordinates":[[[[2.0424067,48.9689123],[2.0432422,48.9697358],[2.0432846,48.9697251],[2.0434845,48.9699315],[2.0435102,48.969919],[2.0442288,48.9707232],[2.0445181,48.9721332],[2.0450216,48.9723848],[2.0451099,48.9723937],[2.0453047,48.9725585],[2.0474909,48.9737493],[2.048,48.9739407],[2.0479786,48.9739741],[2.0480175,48.9740064],[2.0489243,48.9745151],[2.0490614,48.9744794],[2.0495339,48.9747554],[2.049631,48.974696],[2.0504327,48.9751412],[2.0505629,48.9751742],[2.0506437,48.9753703],[2.0501962,48.9757245],[2.0499232,48.9758289],[2.0495929,48.975861],[2.0489446,48.9757202],[2.048747,48.975716],[2.0480723,48.9759219],[2.0476746,48.9760099],[2.0445283,48.976256],[2.0442874,48.976297],[2.0435129,48.9762187],[2.0424963,48.974908],[2.0421932,48.9743764],[2.0436159,48.9734278],[2.0428941,48.9729495],[2.0415741,48.9721733],[2.0412449,48.9720518],[2.0405721,48.9701106],[2.0410659,48.9699464],[2.0420964,48.9691227],[2.0424067,48.9689123]]]]},"properties":{"code_section":"78015000AP","code_commune":"78015","section_courte":"AP"}},{"type":"Feature","geometry":{"type":"MultiPolygon","coordinates":[[[[2.0476872,48.9830648],[2.047489,48.9833072],[2.046959,48.9833449],[2.046497,48.9829775],[2.0460199,48.9826628],[2.0448154,48.9819874],[2.0446535,48.9819414],[2.0444733,48.9819324],[2.0438026,48.9819675],[2.0426038,48.9818291],[2.0427843,48.98139],[2.0431437,48.9808037],[2.043095,48.9805592],[2.0427513,48.9804827],[2.0431118,48.9794069],[2.0429062,48.9793711],[2.0430804,48.978943],[2.0416454,48.978684],[2.0409744,48.9784359],[2.0399174,48.9780975],[2.0411938,48.9774319],[2.041654,48.9772244],[2.0424062,48.9769799],[2.0442874,48.976297],[2.0445283,48.976256],[2.0461761,48.9761186],[2.0471985,48.9760553],[2.0488277,48.9771736],[2.0485911,48.9773883],[2.0496865,48.97806],[2.0480269,48.9793945],[2.0496552,48.9803654],[2.0506493,48.9810146],[2.051097,48.9813856],[2.0514468,48.9817355],[2.0515631,48.9817329],[2.0520493,48.9818182],[2.0520017,48.9818791],[2.0503443,48.9821934],[2.0501587,48.9823564],[2.0494724,48.9826099],[2.0490389,48.9828315],[2.0476872,48.9830648]]]]},"properties":{"code_section":"78015000AR","code_commune":"78015","section_courte":"AR"}},{"type":"Feature","geometry":{"type":"MultiPolygon","coordinates":[[[[2.0499685,48.9805698],[2.0480269,48.9793945],[2.0496865,48.97806],[2.0485911,48.9773883],[2.0488277,48.9771736],[2.0471985,48.9760553],[2.0476746,48.9760099],[2.0480723,48.9759219],[2.048747,48.975716],[2.0489446,48.9757202],[2.0495929,48.975861],[2.0499232,48.9758289],[2.0501962,48.9757245],[2.0506437,48.9753703],[2.0505629,48.9751742],[2.0513429,48.975311],[2.0515768,48.9753915],[2.0519534,48.9756102],[2.0532293,48.9750404],[2.0533216,48.9750907],[2.0533808,48.9750878],[2.0547489,48.9745628],[2.0575731,48.9774919],[2.0585007,48.9783189],[2.0557435,48.9794821],[2.0552853,48.9796413],[2.0547232,48.9799038],[2.053128,48.9789074],[2.0526476,48.9792788],[2.0525755,48.9792839],[2.0520519,48.9797516],[2.0504721,48.9808989],[2.0499685,48.9805698]]]]},"properties":{"code_section":"78015000AS","code_commune":"78015","section_courte":"AS"}},{"type":"Feature","geometry":{"type":"MultiPolygon","coordinates":[[[[2.0523456,48.9834415],[2.0529412,48.9833561],[2.053034,48.9833332],[2.0531601,48.9832424],[2.0531246,48.9829109],[2.0527053,48.9818245],[2.0525472,48.9817183],[2.0520571,48.9818388],[2.0520493,48.9818182],[2.0515631,48.9817329],[2.0514468,48.9817355],[2.051097,48.9813856],[2.0504721,48.9808989],[2.0520519,48.9797516],[2.0525755,48.9792839],[2.0526476,48.9792788],[2.053128,48.9789074],[2.0547232,48.9799038],[2.0552853,48.9796413],[2.0557435,48.9794821],[2.0585007,48.9783189],[2.0611982,48.9806114],[2.0626567,48.9822191],[2.0622256,48.9827885],[2.0620011,48.9828618],[2.0616268,48.9829537],[2.0613973,48.9829778],[2.0611825,48.9829527],[2.0608363,48.9828097],[2.0605447,48.9828411],[2.060082,48.9829784],[2.0597778,48.9826593],[2.0594846,48.9824541],[2.0587297,48.9822382],[2.0585121,48.9822131],[2.0582968,48.9823035],[2.0579215,48.9825962],[2.057179,48.9827819],[2.0570812,48.9828839],[2.0568785,48.9833456],[2.0567305,48.9835158],[2.0564236,48.9836646],[2.0557986,48.9838469],[2.055427,48.984003],[2.0549695,48.9842861],[2.0544575,48.9847831],[2.054039,48.9850509],[2.053832,48.9851301],[2.0531604,48.9852999],[2.0528595,48.9853185],[2.0523456,48.9834415]]]]},"properties":{"code_section":"78015000AT","code_commune":"78015","section_courte":"AT"}},{"type":"Feature","geometry":{"type":"MultiPolygon","coordinates":[[[[2.066632,48.985211],[2.0666204,48.9852728],[2.0664672,48.9853853],[2.0636337,48.9862637],[2.0634761,48.9861162],[2.0611748,48.9865799],[2.0612485,48.9868867],[2.0595086,48.9868422],[2.0594786,48.9869494],[2.05955,48.9871223],[2.0580076,48.9870473],[2.0579914,48.9871041],[2.0563119,48.9867468],[2.0540399,48.9864385],[2.0540996,48.9854835],[2.054039,48.9850509],[2.0544575,48.9847831],[2.0549695,48.9842861],[2.055427,48.984003],[2.0557986,48.9838469],[2.0564236,48.9836646],[2.0567305,48.9835158],[2.0568785,48.9833456],[2.0570812,48.9828839],[2.057179,48.9827819],[2.0579215,48.9825962],[2.0582968,48.9823035],[2.0585121,48.9822131],[2.0587297,48.9822382],[2.0594846,48.9824541],[2.0597778,48.9826593],[2.060082,48.9829784],[2.0605447,48.9828411],[2.0608363,48.9828097],[2.0611825,48.9829527],[2.0613973,48.9829778],[2.0616268,48.9829537],[2.0620011,48.9828618],[2.0622256,48.9827885],[2.0626567,48.9822191],[2.0632454,48.9828645],[2.0638615,48.9834185],[2.0649165,48.9840189],[2.0667451,48.9846138],[2.066632,48.985211]]]]},"properties":{"code_section":"78015000AV","code_commune":"78015","section_courte":"AV"}},{"type":"Feature","geometry":{"type":"MultiPolygon","coordinates":[[[[2.0475287,48.9832806],[2.0476872,48.9830648],[2.0490389,48.9828315],[2.0494724,48.9826099],[2.0501587,48.9823564],[2.0503443,48.9821934],[2.0520017,48.9818791],[2.0520571,48.9818388],[2.0525472,48.9817183],[2.0527053,48.9818245],[2.0531246,48.9829109],[2.0531601,48.9832424],[2.053034,48.9833332],[2.0529412,48.9833561],[2.0523456,48.9834415],[2.0528595,48.9853185],[2.0522931,48.9852823],[2.0517307,48.985702],[2.050732,48.9863097],[2.0499454,48.9869588],[2.0491341,48.9874574],[2.048446,48.9879859],[2.0486868,48.9872275],[2.0479675,48.9871778],[2.0480012,48.9868874],[2.0474335,48.9868559],[2.0476237,48.9861048],[2.047693,48.98491],[2.0480438,48.9848561],[2.047641,48.9834407],[2.047489,48.9833072],[2.0475287,48.9832806]]]]},"properties":{"code_section":"78015000AW","code_commune":"78015","section_courte":"AW"}}]}