{"type":"FeatureCollection","features":[{"type":"Feature","geometry":{"type":"MultiPolygon","coordinates":[[[[1.7050992,48.9649207],[1.7050072,48.9646321],[1.7046499,48.9641121],[1.7026665,48.9644998],[1.7025658,48.9639808],[1.7023638,48.9634271],[1.7020997,48.962961],[1.7011577,48.9618641],[1.7000386,48.9608227],[1.6997264,48.9604018],[1.6995228,48.9599167],[1.6995782,48.9596372],[1.6995697,48.9594323],[1.6993654,48.9579695],[1.6997005,48.9574074],[1.6999747,48.957095],[1.7004982,48.9567241],[1.7009078,48.9565619],[1.7013088,48.9562917],[1.7018862,48.9561877],[1.7023069,48.9561806],[1.7025739,48.9560815],[1.7032135,48.9560084],[1.7036402,48.9560006],[1.7038998,48.956066],[1.7041807,48.9560848],[1.7047038,48.9560102],[1.7048113,48.9559585],[1.7048968,48.9558656],[1.705123,48.9553387],[1.7067893,48.9547934],[1.7070436,48.955224],[1.7073929,48.9568482],[1.7080929,48.9596397],[1.7082713,48.9601807],[1.7082823,48.9609225],[1.7063183,48.9610926],[1.7070106,48.9625388],[1.7075566,48.9635339],[1.7070542,48.9636971],[1.7073887,48.9643846],[1.7071137,48.9644185],[1.7071472,48.964609],[1.7050992,48.9649207]]]]},"properties":{"code_section":"780310000A","code_commune":"78031","section_courte":"A"}},{"type":"Feature","geometry":{"type":"MultiPolygon","coordinates":[[[[1.711793,48.9508304],[1.7121947,48.9511999],[1.7127696,48.9515759],[1.7133158,48.9523502],[1.7140343,48.9531838],[1.7144122,48.953095],[1.714466,48.9532778],[1.7145165,48.9532936],[1.7153328,48.953086],[1.7153605,48.9531259],[1.7154182,48.9532218],[1.7153737,48.9532441],[1.7154184,48.9538348],[1.7153023,48.9538579],[1.7153216,48.9539167],[1.7145483,48.9540792],[1.7150297,48.9545056],[1.7153583,48.9549733],[1.7155667,48.9557328],[1.7155845,48.9561979],[1.7157183,48.9565389],[1.7159875,48.9569057],[1.7160021,48.9569837],[1.7159378,48.9571486],[1.7159527,48.9576162],[1.7164686,48.9591502],[1.7186343,48.9587918],[1.7193722,48.9603421],[1.7194038,48.9606979],[1.719156,48.9616268],[1.7190815,48.9623054],[1.718911,48.9626127],[1.718575,48.9626057],[1.7185834,48.962493],[1.7184916,48.9624892],[1.7184904,48.9625205],[1.7181396,48.9625011],[1.7181395,48.9624332],[1.7168988,48.9625165],[1.716744,48.961874],[1.7140462,48.9623175],[1.7140122,48.9623611],[1.7130474,48.9625754],[1.7129297,48.9623368],[1.7115312,48.9625292],[1.7114564,48.9622434],[1.710994,48.9622951],[1.71056,48.9624692],[1.7104335,48.9624312],[1.7103192,48.962522],[1.7102048,48.962547],[1.7099968,48.9621996],[1.7101581,48.9617994],[1.7102635,48.9609452],[1.7082862,48.9610811],[1.7082713,48.9601807],[1.7080929,48.9596397],[1.7073929,48.9568482],[1.7072494,48.9560662],[1.7089683,48.9554646],[1.7090236,48.9553747],[1.7087681,48.9550662],[1.7087621,48.954996],[1.7093192,48.9546298],[1.7103376,48.9543769],[1.7102791,48.9540422],[1.7101149,48.9536032],[1.7101077,48.9534165],[1.7101999,48.9531105],[1.7105774,48.9530077],[1.710817,48.9528965],[1.710913,48.9528316],[1.7109228,48.9526818],[1.7111449,48.952582],[1.7108033,48.9520272],[1.7108081,48.9514448],[1.7109138,48.951298],[1.7111063,48.951163],[1.7110311,48.9510315],[1.7117435,48.9507691],[1.711793,48.9508304]]]]},"properties":{"code_section":"780310000B","code_commune":"78031","section_courte":"B"}},{"type":"Feature","geometry":{"type":"MultiPolygon","coordinates":[[[[1.7070436,48.955224],[1.7067893,48.9547934],[1.7066357,48.9546519],[1.7051074,48.9534854],[1.7042004,48.9528937],[1.7034035,48.9525724],[1.7012807,48.9519595],[1.7004084,48.9515106],[1.6997025,48.9510602],[1.6992289,48.9506344],[1.698717,48.9499895],[1.6991536,48.9501395],[1.699525,48.9501778],[1.6998261,48.9501348],[1.7002299,48.9500189],[1.7004732,48.9499877],[1.7007222,48.9500239],[1.7021746,48.9492339],[1.7033911,48.9489333],[1.7040228,48.9484913],[1.7053159,48.9474754],[1.7057755,48.947233],[1.7062622,48.9470253],[1.707012,48.9468125],[1.707163,48.9467438],[1.7077338,48.9473457],[1.707842,48.9473058],[1.7089325,48.9481774],[1.7095328,48.9485347],[1.7100482,48.9489261],[1.7110072,48.950139],[1.710964,48.9502455],[1.7110202,48.9505655],[1.7109659,48.9507515],[1.7109772,48.9508748],[1.7111063,48.951163],[1.7109138,48.951298],[1.7108081,48.9514448],[1.7108033,48.9520272],[1.7111449,48.952582],[1.7109228,48.9526818],[1.710913,48.9528316],[1.710817,48.9528965],[1.7105774,48.9530077],[1.7101999,48.9531105],[1.7101077,48.9534165],[1.7101149,48.9536032],[1.7102791,48.9540422],[1.7103376,48.9543769],[1.7093192,48.9546298],[1.7087621,48.954996],[1.7087681,48.9550662],[1.7090236,48.9553747],[1.7089683,48.9554646],[1.7072494,48.9560662],[1.7070436,48.955224]]]]},"properties":{"code_section":"780310000C","code_commune":"78031","section_courte":"C"}},{"type":"Feature","geometry":{"type":"MultiPolygon","coordinates":[[[[1.6979877,48.9500925],[1.697576,48.9502758],[1.6975496,48.9503614],[1.6976353,48.9507628],[1.6975682,48.9515571],[1.6974402,48.9518617],[1.6973331,48.9519443],[1.6972091,48.9519922],[1.6962183,48.9521761],[1.6959367,48.9522115],[1.695652,48.9522087],[1.694965,48.9523497],[1.6946888,48.9520658],[1.6936736,48.9506179],[1.6932489,48.9500915],[1.6919212,48.9480865],[1.6932854,48.9474503],[1.694279,48.9470782],[1.694089,48.9467965],[1.6939368,48.9462029],[1.6934507,48.9454895],[1.6941039,48.9452584],[1.6942351,48.9451867],[1.6957378,48.9446664],[1.6958345,48.9447086],[1.6959345,48.9446953],[1.6961174,48.9445574],[1.696289,48.9445184],[1.6965872,48.9442809],[1.6971375,48.9441577],[1.6971591,48.944194],[1.6976539,48.944081],[1.6976025,48.9438433],[1.6987196,48.9436306],[1.699259,48.9445525],[1.7007005,48.9463894],[1.7012414,48.9472715],[1.701923,48.9478579],[1.7028167,48.9485534],[1.7033911,48.9489333],[1.7021746,48.9492339],[1.7007222,48.9500239],[1.7004732,48.9499877],[1.7002299,48.9500189],[1.6998261,48.9501348],[1.699525,48.9501778],[1.6991536,48.9501395],[1.698717,48.9499895],[1.6985765,48.9498722],[1.6979877,48.9500925]]]]},"properties":{"code_section":"780310000D","code_commune":"78031","section_courte":"D"}},{"type":"Feature","geometry":{"type":"MultiPolygon","coordinates":[[[[1.6993983,48.9577147],[1.6991562,48.9564508],[1.6990253,48.9560282],[1.6989142,48.9558375],[1.6984793,48.9553998],[1.6982142,48.955261],[1.6978012,48.954973],[1.6964997,48.9539523],[1.6954608,48.9532471],[1.6952044,48.9529215],[1.694881,48.9523669],[1.695652,48.9522087],[1.6959367,48.9522115],[1.6962183,48.9521761],[1.6972091,48.9519922],[1.6973331,48.9519443],[1.6974402,48.9518617],[1.6975682,48.9515571],[1.6976353,48.9507628],[1.6975496,48.9503614],[1.697576,48.9502758],[1.6985765,48.9498722],[1.698717,48.9499895],[1.6992289,48.9506344],[1.6997025,48.9510602],[1.7004084,48.9515106],[1.7012807,48.9519595],[1.7034035,48.9525724],[1.7042004,48.9528937],[1.7051074,48.9534854],[1.7067893,48.9547934],[1.705123,48.9553387],[1.7048968,48.9558656],[1.7048113,48.9559585],[1.7047038,48.9560102],[1.7041807,48.9560848],[1.7038998,48.956066],[1.7036402,48.9560006],[1.7032135,48.9560084],[1.7025739,48.9560815],[1.7023069,48.9561806],[1.7018862,48.9561877],[1.7013088,48.9562917],[1.7010207,48.9565005],[1.7004982,48.9567241],[1.700113,48.9569758],[1.6997005,48.9574074],[1.6993824,48.9579299],[1.6993983,48.9577147]]]]},"properties":{"code_section":"780310000E","code_commune":"78031","section_courte":"E"}}]}