{"type":"FeatureCollection","features":[{"type":"Feature","geometry":{"type":"MultiPolygon","coordinates":[[[[2.0018467,48.7988932],[1.9996649,48.7990723],[2.0017333,48.8097698],[2.0068688,48.8090869],[2.0108442,48.8082909],[2.0113206,48.8091536],[2.0147575,48.8081671],[2.014365,48.8085881],[2.0145924,48.8086731],[2.0148747,48.8085052],[2.0149462,48.8085343],[2.0145587,48.8088264],[2.0148579,48.8091002],[2.0269001,48.8042973],[2.0295973,48.8086564],[2.0322978,48.8081755],[2.0325635,48.8085442],[2.0333405,48.8083002],[2.0333487,48.8081971],[2.0348882,48.8080224],[2.0352581,48.8079094],[2.0353799,48.8079699],[2.0355035,48.8079219],[2.0364917,48.8077599],[2.0365942,48.8079318],[2.035683,48.808126],[2.0354808,48.8082265],[2.0343631,48.8085683],[2.0335176,48.8085721],[2.0328798,48.8086162],[2.0319919,48.8087561],[2.0321235,48.80899],[2.0319398,48.8090545],[2.0307606,48.8092053],[2.0308586,48.8093929],[2.0300634,48.8095628],[2.0299482,48.809342],[2.0296093,48.8093959],[2.0293074,48.8094958],[2.0284557,48.8096113],[2.0285831,48.8099722],[2.0285018,48.8100089],[2.0285235,48.8102502],[2.0283373,48.8103151],[2.0282416,48.8101279],[2.028006,48.8101022],[2.0272714,48.8102641],[2.0272552,48.8102475],[2.0262469,48.8106681],[2.0260881,48.8113005],[2.0245888,48.8119405],[2.0242086,48.8116942],[2.0238012,48.8112831],[2.0236683,48.8112185],[2.0231844,48.8114714],[2.0229303,48.8114921],[2.0228111,48.8115559],[2.0226528,48.8118467],[2.0220172,48.8119568],[2.0215899,48.8114786],[2.0208467,48.8115595],[2.0204635,48.811762],[2.0201842,48.8120839],[2.0191353,48.8127047],[2.0191654,48.8127571],[2.0189637,48.8127698],[2.0125969,48.815361],[2.0124859,48.8151163],[2.0124274,48.815122],[2.0075446,48.8130421],[2.0024913,48.8144304],[1.9969046,48.8130277],[1.9949809,48.8067146],[1.994834,48.8066936],[1.9947639,48.8066116],[1.9947999,48.8065262],[1.9949198,48.8064773],[1.9929281,48.79992],[1.9941604,48.799251],[2.0111851,48.7979181],[2.0112138,48.798037],[2.011234,48.7981555],[2.0105652,48.7982097],[2.0106937,48.7986384],[2.010922,48.7987717],[2.011036,48.7989469],[2.0109961,48.7991103],[2.0108919,48.7992143],[2.0102951,48.7992601],[2.0100713,48.7991506],[2.0094774,48.7991094],[2.0091404,48.7989673],[2.0085151,48.7984782],[2.0079672,48.7984449],[2.0039855,48.7987634],[2.0040909,48.7990702],[2.0027112,48.7991837],[2.0019315,48.7988858],[2.0018467,48.7988932]]]]},"properties":{"code_section":"780730000A","code_commune":"78073","section_courte":"A"}},{"type":"Feature","geometry":{"type":"MultiPolygon","coordinates":[[[[2.0434693,48.8004818],[2.042856,48.7993425],[2.0427687,48.7991104],[2.0472799,48.7987146],[2.0501095,48.7983232],[2.0518142,48.8009655],[2.0473349,48.8039268],[2.0460388,48.8042467],[2.045594,48.8031781],[2.0453707,48.8032158],[2.0453789,48.8032521],[2.0442476,48.8034356],[2.0441372,48.8033903],[2.0440213,48.8024535],[2.0449085,48.8023204],[2.0439012,48.8003947],[2.0434693,48.8004818]]]]},"properties":{"code_section":"780730000C","code_commune":"78073","section_courte":"C"}},{"type":"Feature","geometry":{"type":"MultiPolygon","coordinates":[[[[2.0145833,48.8083839],[2.0147575,48.8081671],[2.0138909,48.8079418],[2.0139058,48.8074573],[2.0124131,48.8076122],[2.0121074,48.806336],[2.0122628,48.8063198],[2.0121572,48.8058751],[2.0120554,48.8058863],[2.0115574,48.8037988],[2.0115262,48.8038012],[2.0113526,48.8028164],[2.0155491,48.8016182],[2.0155851,48.8016242],[2.0154001,48.8027037],[2.015454,48.8036556],[2.0162833,48.8040144],[2.0167538,48.804647],[2.017294,48.8047771],[2.0174571,48.8052771],[2.0183118,48.8062804],[2.0192905,48.8073301],[2.0148579,48.8091002],[2.0145587,48.8088264],[2.0149462,48.8085343],[2.0148747,48.8085052],[2.0145924,48.8086731],[2.014365,48.8085881],[2.0145833,48.8083839]]]]},"properties":{"code_section":"78073000BA","code_commune":"78073","section_courte":"BA"}},{"type":"Feature","geometry":{"type":"MultiPolygon","coordinates":[[[[2.025899,48.8029873],[2.0270619,48.8042329],[2.0192905,48.8073301],[2.0183118,48.8062804],[2.0174571,48.8052771],[2.017294,48.8047771],[2.0167538,48.804647],[2.0162833,48.8040144],[2.015454,48.8036556],[2.0154001,48.8027037],[2.0155187,48.8020358],[2.0170185,48.8018727],[2.0177956,48.8022398],[2.0184541,48.8021207],[2.0188218,48.8020865],[2.018854,48.8020048],[2.0187855,48.8017009],[2.0198947,48.8010859],[2.0213562,48.8005889],[2.0219882,48.8002194],[2.0246384,48.8012276],[2.0246287,48.8016253],[2.025899,48.8029873]]]]},"properties":{"code_section":"78073000BB","code_commune":"78073","section_courte":"BB"}},{"type":"Feature","geometry":{"type":"MultiPolygon","coordinates":[[[[2.0269001,48.8042973],[2.0270619,48.8042329],[2.0246287,48.8016253],[2.0246384,48.8012276],[2.0247276,48.8012521],[2.0263938,48.8013321],[2.0276962,48.801286],[2.0318092,48.8006746],[2.0319069,48.8008533],[2.0328717,48.8019479],[2.0347704,48.8049777],[2.0350858,48.8053996],[2.0355071,48.8056113],[2.0361976,48.8058359],[2.0362781,48.8062454],[2.0355321,48.8062155],[2.0364917,48.8077599],[2.0355035,48.8079219],[2.0353799,48.8079699],[2.0352581,48.8079094],[2.0348882,48.8080224],[2.0333487,48.8081971],[2.0333405,48.8083002],[2.0325635,48.8085442],[2.0322978,48.8081755],[2.0295973,48.8086564],[2.0269001,48.8042973]]]]},"properties":{"code_section":"78073000BC","code_commune":"78073","section_courte":"BC"}},{"type":"Feature","geometry":{"type":"MultiPolygon","coordinates":[[[[2.0412306,48.804604],[2.0414162,48.8050103],[2.040885,48.8052803],[2.0404899,48.8047496],[2.036338,48.8058712],[2.0361976,48.8058359],[2.0355071,48.8056113],[2.0350858,48.8053996],[2.0347704,48.8049777],[2.0330362,48.8022176],[2.0355876,48.8011864],[2.037875,48.7998106],[2.0427911,48.7992057],[2.0434693,48.8004818],[2.0439012,48.8003947],[2.0449085,48.8023204],[2.0440213,48.8024535],[2.0441394,48.8034036],[2.0435046,48.8032635],[2.0430356,48.803355],[2.0428892,48.8034632],[2.0427118,48.8036967],[2.0421094,48.804173],[2.0412167,48.8045732],[2.0412306,48.804604]]]]},"properties":{"code_section":"78073000BD","code_commune":"78073","section_courte":"BD"}},{"type":"Feature","geometry":{"type":"MultiPolygon","coordinates":[[[[2.0419662,48.7993027],[2.037875,48.7998106],[2.0355876,48.8011864],[2.0330362,48.8022176],[2.0328717,48.8019479],[2.0319069,48.8008533],[2.0318092,48.8006746],[2.0315787,48.7997904],[2.0315811,48.7993549],[2.0317139,48.7986323],[2.0326626,48.7969458],[2.0335287,48.797131],[2.0352824,48.7975643],[2.041726,48.7989996],[2.0422901,48.7990756],[2.0419662,48.7993027]]]]},"properties":{"code_section":"78073000BE","code_commune":"78073","section_courte":"BE"}},{"type":"Feature","geometry":{"type":"MultiPolygon","coordinates":[[[[2.02355,48.7980908],[2.0232768,48.7978081],[2.023324,48.7977877],[2.023253,48.797716],[2.0232083,48.7977334],[2.0230652,48.7975883],[2.0228676,48.7976],[2.0228531,48.7975093],[2.0226477,48.7973237],[2.0223309,48.7969102],[2.0283188,48.7966621],[2.0311862,48.7967476],[2.0326626,48.7969458],[2.0317139,48.7986323],[2.0315811,48.7993549],[2.0315787,48.7997904],[2.0318092,48.8006746],[2.0276962,48.801286],[2.0263938,48.8013321],[2.0247276,48.8012521],[2.0219882,48.8002194],[2.0222875,48.799844],[2.022451,48.7993084],[2.0226581,48.7990382],[2.0227874,48.7989243],[2.023832,48.7983149],[2.0237355,48.7982794],[2.02355,48.7980908]]]]},"properties":{"code_section":"78073000BH","code_commune":"78073","section_courte":"BH"}},{"type":"Feature","geometry":{"type":"MultiPolygon","coordinates":[[[[2.0224397,48.7970492],[2.0226477,48.7973237],[2.0228531,48.7975093],[2.0228676,48.7976],[2.0230652,48.7975883],[2.0232083,48.7977334],[2.023253,48.797716],[2.023324,48.7977877],[2.0232768,48.7978081],[2.0234157,48.7979532],[2.0237355,48.7982794],[2.023832,48.7983149],[2.0227874,48.7989243],[2.0226581,48.7990382],[2.022451,48.7993084],[2.0222875,48.799844],[2.0219882,48.8002194],[2.0213562,48.8005889],[2.0198947,48.8010859],[2.0187855,48.8017009],[2.018854,48.8020048],[2.0188218,48.8020865],[2.0184541,48.8021207],[2.0178154,48.8022406],[2.0170185,48.8018727],[2.0155187,48.8020358],[2.0155851,48.8016242],[2.0155491,48.8016182],[2.015545,48.801475],[2.0155934,48.8014619],[2.0152421,48.7998109],[2.0150137,48.798076],[2.013701,48.7979539],[2.011234,48.7981555],[2.0111735,48.7978563],[2.020957,48.7969798],[2.0223309,48.7969102],[2.0224397,48.7970492]]]]},"properties":{"code_section":"78073000BI","code_commune":"78073","section_courte":"BI"}},{"type":"Feature","geometry":{"type":"MultiPolygon","coordinates":[[[[2.0155934,48.8014619],[2.015545,48.801475],[2.0155491,48.8016182],[2.0086792,48.8036047],[2.0071664,48.8016946],[2.0066123,48.7985457],[2.0079672,48.7984449],[2.0085151,48.7984782],[2.0090607,48.7989128],[2.0093291,48.7990612],[2.0095775,48.7991276],[2.0100713,48.7991506],[2.0102951,48.7992601],[2.0108919,48.7992143],[2.0109961,48.7991103],[2.0110362,48.7990071],[2.0109654,48.7988143],[2.0106937,48.7986384],[2.0105652,48.7982097],[2.013701,48.7979539],[2.0150137,48.798076],[2.0152421,48.7998109],[2.0155934,48.8014619]]]]},"properties":{"code_section":"78073000BK","code_commune":"78073","section_courte":"BK"}},{"type":"Feature","geometry":{"type":"MultiPolygon","coordinates":[[[[2.0085347,48.8034506],[2.0086792,48.8036047],[2.0009796,48.8057865],[1.9996649,48.7990723],[2.0019315,48.7988858],[2.0027112,48.7991837],[2.0040909,48.7990702],[2.0039855,48.7987634],[2.0066123,48.7985457],[2.0071664,48.8016946],[2.0085347,48.8034506]]]]},"properties":{"code_section":"78073000BL","code_commune":"78073","section_courte":"BL"}},{"type":"Feature","geometry":{"type":"MultiPolygon","coordinates":[[[[2.0130209,48.8086764],[2.0113206,48.8091536],[2.0108442,48.8082909],[2.0068688,48.8090869],[2.0017333,48.8097698],[2.0009796,48.8057865],[2.0111213,48.8029061],[2.0113526,48.8028164],[2.0115262,48.8038012],[2.0115574,48.8037988],[2.0120554,48.8058863],[2.0121572,48.8058751],[2.0122628,48.8063198],[2.0121074,48.806336],[2.0124131,48.8076122],[2.0139058,48.8074573],[2.0138909,48.8079418],[2.0147575,48.8081671],[2.0130209,48.8086764]]]]},"properties":{"code_section":"78073000BM","code_commune":"78073","section_courte":"BM"}}]}