{"type":"FeatureCollection","features":[{"type":"Feature","geometry":{"type":"MultiPolygon","coordinates":[[[[2.1233288,48.8718305],[2.1231449,48.8716484],[2.1230266,48.8716901],[2.1223107,48.8707912],[2.1231254,48.8703595],[2.1254996,48.869426],[2.1254249,48.8693865],[2.1258443,48.8692033],[2.1258961,48.8692341],[2.1261829,48.8690795],[2.1263559,48.8690301],[2.126699,48.8687534],[2.1270837,48.8685356],[2.1272497,48.8683703],[2.12806,48.8678868],[2.129477,48.8671351],[2.1298123,48.8671827],[2.1297078,48.8679308],[2.1300255,48.8688124],[2.1301459,48.868783],[2.1301714,48.8688235],[2.1309377,48.8688837],[2.1319885,48.8693459],[2.132085,48.8692973],[2.1321609,48.8692989],[2.1321617,48.8694091],[2.132554,48.8695982],[2.1330903,48.8699269],[2.1333216,48.8704305],[2.1308724,48.8709272],[2.1283762,48.8720163],[2.1281158,48.8721446],[2.1243188,48.874394],[2.12343,48.8739317],[2.1232862,48.8739202],[2.1231148,48.8739678],[2.1229398,48.8738758],[2.1228292,48.8738611],[2.1227083,48.8737483],[2.1223083,48.8735087],[2.1239489,48.872355],[2.1233288,48.8718305]]]]},"properties":{"code_section":"78092000AB","code_commune":"78092","section_courte":"AB"}},{"type":"Feature","geometry":{"type":"MultiPolygon","coordinates":[[[[2.1314538,48.8655504],[2.1318368,48.864591],[2.1322693,48.8645754],[2.1326063,48.8644795],[2.1326741,48.8644011],[2.1332779,48.8641931],[2.1333993,48.8640557],[2.1334424,48.8638],[2.1335313,48.8636114],[2.133929,48.863102],[2.1340163,48.8630721],[2.1347629,48.8634095],[2.1355219,48.8638122],[2.1362827,48.8644555],[2.1363842,48.8647079],[2.1363088,48.8648919],[2.1359705,48.8652715],[2.1358507,48.8655845],[2.1358458,48.865889],[2.136229,48.8659614],[2.1364608,48.8659733],[2.1375216,48.8659015],[2.137641,48.865914],[2.1373124,48.8663854],[2.1371479,48.8668888],[2.1371428,48.8674151],[2.137303,48.8674991],[2.1382459,48.8674274],[2.1380079,48.8684165],[2.1380414,48.868419],[2.1378992,48.8695636],[2.1379197,48.8702237],[2.1356178,48.8702146],[2.1333216,48.8704305],[2.1330903,48.8699269],[2.132554,48.8695982],[2.1321617,48.8694091],[2.1321609,48.8692989],[2.132085,48.8692973],[2.1319885,48.8693459],[2.1309377,48.8688837],[2.1301714,48.8688235],[2.1301459,48.868783],[2.1300255,48.8688124],[2.1297078,48.8679308],[2.1298123,48.8671827],[2.130524,48.8672595],[2.1312339,48.867265],[2.1314072,48.865658],[2.1314538,48.8655504]]]]},"properties":{"code_section":"78092000AC","code_commune":"78092","section_courte":"AC"}},{"type":"Feature","geometry":{"type":"MultiPolygon","coordinates":[[[[2.1382321,48.8674842],[2.1382459,48.8674274],[2.1399373,48.8674364],[2.1408017,48.867592],[2.1421375,48.8677192],[2.143977,48.8677007],[2.1443266,48.8677234],[2.1460625,48.8679755],[2.1460602,48.8681718],[2.147235,48.8685167],[2.1473456,48.8685645],[2.1473479,48.8686008],[2.1476095,48.8686513],[2.1482238,48.8689009],[2.1480189,48.8692996],[2.1486752,48.8696269],[2.1492245,48.869948],[2.1503056,48.8707716],[2.1488088,48.8716728],[2.1481659,48.8714339],[2.1468442,48.8711328],[2.145172,48.8704587],[2.1446422,48.8709397],[2.1416143,48.8702582],[2.1379197,48.8702237],[2.1378992,48.8695636],[2.1380414,48.868419],[2.1380079,48.8684165],[2.1382321,48.8674842]]]]},"properties":{"code_section":"78092000AD","code_commune":"78092","section_courte":"AD"}},{"type":"Feature","geometry":{"type":"MultiPolygon","coordinates":[[[[2.152863,48.8633549],[2.1541538,48.8649487],[2.1544188,48.8659],[2.1546984,48.8664866],[2.1554431,48.8669646],[2.1559617,48.8677501],[2.156576,48.8684452],[2.1571632,48.8687786],[2.1572521,48.8688703],[2.1573805,48.8692601],[2.1573447,48.8694517],[2.1572216,48.8696966],[2.1566521,48.8694989],[2.1552989,48.8690989],[2.1530177,48.8684477],[2.1521792,48.8682397],[2.1505089,48.8683206],[2.1511116,48.8661339],[2.149619,48.8659707],[2.1497546,48.8651105],[2.1494727,48.8651281],[2.1483771,48.8635787],[2.1501924,48.8629745],[2.1512709,48.8638333],[2.152863,48.8633549]]]]},"properties":{"code_section":"78092000AE","code_commune":"78092","section_courte":"AE"}},{"type":"Feature","geometry":{"type":"MultiPolygon","coordinates":[[[[2.1460625,48.8679755],[2.1464993,48.8671374],[2.1466834,48.8659806],[2.1467962,48.8655555],[2.146836,48.8650857],[2.1465157,48.8637296],[2.1468719,48.8636304],[2.1467015,48.8633879],[2.1471685,48.8632486],[2.147457,48.8632375],[2.1476669,48.8631759],[2.1477824,48.8633186],[2.1479345,48.8632627],[2.1481599,48.863587],[2.1483448,48.8635333],[2.1494727,48.8651281],[2.1497546,48.8651105],[2.149619,48.8659707],[2.1511116,48.8661339],[2.1505089,48.8683206],[2.1484714,48.8684388],[2.1482238,48.8689009],[2.1476095,48.8686513],[2.1473479,48.8686008],[2.1473456,48.8685645],[2.147235,48.8685167],[2.1460602,48.8681718],[2.1460625,48.8679755]]]]},"properties":{"code_section":"78092000AH","code_commune":"78092","section_courte":"AH"}},{"type":"Feature","geometry":{"type":"MultiPolygon","coordinates":[[[[2.1405834,48.8627305],[2.1405933,48.8622435],[2.1405359,48.862163],[2.141382,48.8623546],[2.1419341,48.8616354],[2.1420405,48.8615741],[2.1434845,48.8614447],[2.1437218,48.8613917],[2.1438479,48.8614033],[2.1451982,48.8610478],[2.1460819,48.8604659],[2.1468203,48.8615682],[2.1462655,48.862105],[2.1462501,48.8624285],[2.1460886,48.862574],[2.1471685,48.8632486],[2.1467015,48.8633879],[2.1468719,48.8636304],[2.1465157,48.8637296],[2.146836,48.8650857],[2.1467962,48.8655555],[2.1466834,48.8659806],[2.1464993,48.8671374],[2.1460625,48.8679755],[2.1448343,48.8677875],[2.143977,48.8677007],[2.1440031,48.8675992],[2.1434623,48.8674072],[2.1425346,48.8673007],[2.1420256,48.8671986],[2.1421441,48.866848],[2.1421775,48.8666405],[2.1421477,48.8665546],[2.1419196,48.8663472],[2.1409812,48.8659574],[2.141037,48.8652801],[2.1408802,48.8648239],[2.141066,48.8640209],[2.1409653,48.8638737],[2.1407293,48.8637729],[2.1405834,48.8627305]]]]},"properties":{"code_section":"78092000AI","code_commune":"78092","section_courte":"AI"}},{"type":"Feature","geometry":{"type":"MultiPolygon","coordinates":[[[[2.1375216,48.8659015],[2.1366826,48.8659737],[2.136229,48.8659614],[2.1359697,48.8659233],[2.1358458,48.865889],[2.1358507,48.8655845],[2.1359705,48.8652715],[2.1362366,48.8649765],[2.136783,48.8649761],[2.1372066,48.8649396],[2.1375934,48.8648352],[2.1379207,48.8646626],[2.1383447,48.8642291],[2.1387038,48.8639888],[2.138892,48.8637376],[2.1390313,48.8634269],[2.1390559,48.8631978],[2.1391454,48.8630528],[2.1391343,48.8620166],[2.1390811,48.8619199],[2.1388311,48.861885],[2.138288,48.8616342],[2.1382016,48.8615436],[2.1386974,48.8614273],[2.1393387,48.8613454],[2.1394326,48.8613702],[2.1395241,48.8614517],[2.1401813,48.8615024],[2.1402549,48.8615225],[2.1402805,48.8617726],[2.1405933,48.8622435],[2.1405834,48.8627305],[2.1407293,48.8637729],[2.1409653,48.8638737],[2.141066,48.8640209],[2.1408802,48.8648239],[2.141037,48.8652801],[2.1409812,48.8659574],[2.1419196,48.8663472],[2.1421477,48.8665546],[2.1421775,48.8666405],[2.1421441,48.866848],[2.1420256,48.8671986],[2.1425346,48.8673007],[2.1434623,48.8674072],[2.1440031,48.8675992],[2.143977,48.8677007],[2.1421375,48.8677192],[2.1408017,48.867592],[2.1399373,48.8674364],[2.1381937,48.8674234],[2.137303,48.8674991],[2.1371428,48.8674151],[2.1371479,48.8668888],[2.1373124,48.8663854],[2.137641,48.865914],[2.1375216,48.8659015]]]]},"properties":{"code_section":"78092000AK","code_commune":"78092","section_courte":"AK"}},{"type":"Feature","geometry":{"type":"MultiPolygon","coordinates":[[[[2.140804,48.8559234],[2.1416083,48.8558341],[2.1417974,48.8561246],[2.1420497,48.8568586],[2.1423982,48.8575933],[2.1426488,48.8582465],[2.1428349,48.8590062],[2.142969,48.8591672],[2.1431331,48.8596637],[2.1433409,48.8600888],[2.1438287,48.8608172],[2.1437218,48.8613917],[2.1434845,48.8614447],[2.1420405,48.8615741],[2.1419341,48.8616354],[2.141382,48.8623546],[2.1405359,48.862163],[2.1402805,48.8617726],[2.1402549,48.8615225],[2.1401813,48.8615024],[2.1395241,48.8614517],[2.1394326,48.8613702],[2.1393387,48.8613454],[2.1386974,48.8614273],[2.1382016,48.8615436],[2.1381375,48.861501],[2.1378584,48.8608393],[2.1377576,48.8608475],[2.1373642,48.8606748],[2.1363707,48.8603144],[2.1362516,48.8602351],[2.1362324,48.8598521],[2.1360931,48.8591903],[2.1362384,48.8587821],[2.1362947,48.8587175],[2.1362796,48.8586602],[2.1352149,48.8583583],[2.1350253,48.8582431],[2.1344663,48.8580417],[2.1343745,48.8579612],[2.134518,48.8563209],[2.1347326,48.856264],[2.1355362,48.8565261],[2.1358091,48.8566591],[2.1373122,48.8570302],[2.1377939,48.8572503],[2.1377269,48.8568444],[2.1372559,48.8556225],[2.1381712,48.8552061],[2.1400186,48.8546995],[2.1400919,48.8547301],[2.1403492,48.8555652],[2.140514,48.8559626],[2.140804,48.8559234]]]]},"properties":{"code_section":"78092000AL","code_commune":"78092","section_courte":"AL"}},{"type":"Feature","geometry":{"type":"MultiPolygon","coordinates":[[[[2.1330334,48.859595],[2.1331161,48.8596047],[2.1333812,48.8594396],[2.133642,48.8596504],[2.1341923,48.8597055],[2.13502,48.8596301],[2.135689,48.8593651],[2.1359605,48.8592042],[2.1360931,48.8591903],[2.1362324,48.8598521],[2.1362516,48.8602351],[2.1363707,48.8603144],[2.1373642,48.8606748],[2.1377576,48.8608475],[2.1378584,48.8608393],[2.1381375,48.861501],[2.138288,48.8616342],[2.1388311,48.861885],[2.1390811,48.8619199],[2.1391343,48.8620166],[2.1391454,48.8630528],[2.1390559,48.8631978],[2.1390313,48.8634269],[2.138892,48.8637376],[2.1387038,48.8639888],[2.1383447,48.8642291],[2.1379207,48.8646626],[2.1375934,48.8648352],[2.1372066,48.8649396],[2.136783,48.8649761],[2.1362366,48.8649765],[2.1363842,48.8647079],[2.1362827,48.8644555],[2.1359015,48.8641075],[2.1354055,48.8637452],[2.1347629,48.8634095],[2.1340163,48.8630721],[2.1331041,48.8627458],[2.1326635,48.8625296],[2.131387,48.8615226],[2.129601,48.8609396],[2.1296167,48.8609215],[2.1294282,48.8608882],[2.1284157,48.8605726],[2.1292895,48.8602104],[2.1299295,48.8598362],[2.1306612,48.8592348],[2.1309524,48.8588886],[2.1330334,48.859595]]]]},"properties":{"code_section":"78092000AM","code_commune":"78092","section_courte":"AM"}},{"type":"Feature","geometry":{"type":"MultiPolygon","coordinates":[[[[2.1283655,48.8605739],[2.128252,48.8605397],[2.1262112,48.8591505],[2.1257314,48.8585558],[2.1252887,48.8578965],[2.1251415,48.8577448],[2.1248955,48.8575808],[2.1249114,48.8573904],[2.1259753,48.8570672],[2.128591,48.8560609],[2.1300844,48.8549792],[2.1310155,48.8542594],[2.1312147,48.8542507],[2.1315197,48.8545096],[2.1319254,48.8547661],[2.1319377,48.8548088],[2.1320132,48.8548235],[2.1323442,48.8550294],[2.1324731,48.8551706],[2.1325056,48.8551169],[2.132753,48.8552341],[2.1335891,48.8554708],[2.1345378,48.8561724],[2.1343745,48.8579612],[2.1344663,48.8580417],[2.1350253,48.8582431],[2.1352149,48.8583583],[2.1362796,48.8586602],[2.1362947,48.8587175],[2.1362384,48.8587821],[2.1360931,48.8591903],[2.1359605,48.8592042],[2.135689,48.8593651],[2.13502,48.8596301],[2.1341923,48.8597055],[2.133642,48.8596504],[2.1333812,48.8594396],[2.1331161,48.8596047],[2.1330334,48.859595],[2.1309524,48.8588886],[2.1306612,48.8592348],[2.1299295,48.8598362],[2.1290381,48.8603319],[2.1283655,48.8605739]]]]},"properties":{"code_section":"78092000AN","code_commune":"78092","section_courte":"AN"}},{"type":"Feature","geometry":{"type":"MultiPolygon","coordinates":[[[[2.1301017,48.8538573],[2.1309968,48.8541384],[2.1310155,48.8542594],[2.1300844,48.8549792],[2.128591,48.8560609],[2.127321,48.8565445],[2.1271504,48.8565632],[2.1259935,48.8557525],[2.1250593,48.8553157],[2.1213486,48.8530835],[2.1214813,48.8530001],[2.1217161,48.8523707],[2.1217185,48.8519764],[2.1218286,48.8517053],[2.1223184,48.8509452],[2.1223401,48.8509262],[2.1235188,48.8512459],[2.1238065,48.8512803],[2.1250847,48.8512835],[2.125818,48.8513291],[2.1269183,48.8512397],[2.1269904,48.8512611],[2.1277674,48.8522161],[2.1282883,48.8532036],[2.1285045,48.853377],[2.1288133,48.8535394],[2.1301017,48.8538573]]]]},"properties":{"code_section":"78092000AO","code_commune":"78092","section_courte":"AO"}}]}