{"type":"FeatureCollection","features":[{"type":"Feature","geometry":{"type":"MultiPolygon","coordinates":[[[[2.1674257,48.9211009],[2.1674046,48.9211292],[2.1671736,48.9210247],[2.1666876,48.9217257],[2.1665165,48.9220368],[2.16637,48.922199],[2.1662026,48.9225372],[2.1659798,48.9227949],[2.1630899,48.921337],[2.1608862,48.9203004],[2.1594828,48.9193058],[2.1601195,48.9190003],[2.1631235,48.9171432],[2.1631396,48.9171583],[2.1665637,48.9139562],[2.1667098,48.9139425],[2.1670625,48.914043],[2.167677,48.9143016],[2.1699214,48.9150816],[2.1708236,48.9154512],[2.1704018,48.915938],[2.1703207,48.915955],[2.1701252,48.916105],[2.1699289,48.9161675],[2.1688211,48.916362],[2.1685417,48.9164773],[2.1672321,48.917528],[2.1662489,48.9184934],[2.1661085,48.9185283],[2.1665266,48.9187147],[2.1678531,48.9194463],[2.1684696,48.9197119],[2.1674257,48.9211009]]]]},"properties":{"code_section":"78124000AX","code_commune":"78124","section_courte":"AX"}},{"type":"Feature","geometry":{"type":"MultiPolygon","coordinates":[[[[2.1711884,48.9217284],[2.17198,48.9220627],[2.1720896,48.9221415],[2.1702935,48.9242051],[2.1702156,48.9243575],[2.1701452,48.9248097],[2.1699003,48.9250797],[2.1687123,48.926138],[2.1682335,48.9265176],[2.1667333,48.9256708],[2.1665657,48.9250483],[2.1666009,48.9250172],[2.165676,48.9236488],[2.1656302,48.9235231],[2.165632,48.9234033],[2.1660569,48.9228318],[2.1659798,48.9227949],[2.1662026,48.9225372],[2.16637,48.922199],[2.1665165,48.9220368],[2.1666876,48.9217257],[2.1671736,48.9210247],[2.1692067,48.9218249],[2.1695721,48.9213083],[2.1695368,48.9213901],[2.1709412,48.9219855],[2.1711884,48.9217284]]]]},"properties":{"code_section":"78124000AY","code_commune":"78124","section_courte":"AY"}},{"type":"Feature","geometry":{"type":"MultiPolygon","coordinates":[[[[2.1721162,48.9221066],[2.1720874,48.9221397],[2.17198,48.9220627],[2.1711884,48.9217284],[2.1709412,48.9219855],[2.1695368,48.9213901],[2.1695721,48.9213083],[2.1692067,48.9218249],[2.1674046,48.9211292],[2.1684696,48.9197119],[2.1678531,48.9194463],[2.1665266,48.9187147],[2.1661085,48.9185283],[2.1662489,48.9184934],[2.1672321,48.917528],[2.1685417,48.9164773],[2.1688211,48.916362],[2.1699289,48.9161675],[2.1701252,48.916105],[2.1703207,48.915955],[2.1704018,48.915938],[2.1708236,48.9154512],[2.172654,48.9163336],[2.1736867,48.9167053],[2.1757075,48.9176688],[2.1755512,48.9178126],[2.1746374,48.9189438],[2.172751,48.9210868],[2.1728792,48.921125],[2.1721162,48.9221066]]]]},"properties":{"code_section":"78124000AZ","code_commune":"78124","section_courte":"AZ"}},{"type":"Feature","geometry":{"type":"MultiPolygon","coordinates":[[[[2.1762789,48.9173194],[2.1757075,48.9176688],[2.1736867,48.9167053],[2.172654,48.9163336],[2.1708236,48.9154512],[2.1699214,48.9150816],[2.167677,48.9143016],[2.1670625,48.914043],[2.1667098,48.9139425],[2.1683904,48.9122514],[2.1714532,48.9131715],[2.1720131,48.9133712],[2.1727385,48.9136782],[2.1737115,48.9142148],[2.1766647,48.915526],[2.1778272,48.9159843],[2.1770629,48.9166973],[2.1762789,48.9173194]]]]},"properties":{"code_section":"78124000BA","code_commune":"78124","section_courte":"BA"}},{"type":"Feature","geometry":{"type":"MultiPolygon","coordinates":[[[[2.1740463,48.9122359],[2.1752564,48.9109689],[2.1768874,48.909403],[2.1768837,48.9108726],[2.1769423,48.9120588],[2.1773718,48.9142105],[2.1779017,48.916005],[2.1766647,48.915526],[2.1737115,48.9142148],[2.1725946,48.9136153],[2.1736683,48.9125394],[2.1740463,48.9122359]]]]},"properties":{"code_section":"78124000BB","code_commune":"78124","section_courte":"BB"}},{"type":"Feature","geometry":{"type":"MultiPolygon","coordinates":[[[[2.186352,48.918454],[2.18531,48.9181602],[2.1831714,48.9177415],[2.1818729,48.9174112],[2.1779017,48.916005],[2.1773718,48.9142105],[2.1771183,48.9129556],[2.1772197,48.9129474],[2.1772713,48.9129731],[2.178378,48.912877],[2.1783709,48.9128519],[2.1784518,48.9128424],[2.1783984,48.9125779],[2.178439,48.9125748],[2.1784789,48.9128393],[2.1786131,48.9128236],[2.1786203,48.9128501],[2.1807807,48.9125965],[2.1807733,48.9125699],[2.180854,48.9125604],[2.1807704,48.9123042],[2.1808385,48.9122935],[2.1811041,48.9130934],[2.1812795,48.9131621],[2.181249,48.9131939],[2.1827287,48.913731],[2.183909,48.9127277],[2.1868696,48.9185746],[2.1868478,48.9186072],[2.186352,48.918454]]]]},"properties":{"code_section":"78124000BC","code_commune":"78124","section_courte":"BC"}},{"type":"Feature","geometry":{"type":"MultiPolygon","coordinates":[[[[2.1921289,48.9179673],[2.1919823,48.9182045],[2.1889667,48.9175692],[2.1876443,48.9172101],[2.1868696,48.9185746],[2.185081,48.9150488],[2.1868369,48.9131505],[2.1872639,48.9133725],[2.1873745,48.9135782],[2.1891755,48.914265],[2.1897112,48.9136259],[2.1905017,48.9129939],[2.1929766,48.9144437],[2.1941837,48.9157965],[2.1945503,48.9161411],[2.19378,48.916496],[2.1932915,48.9162993],[2.1932174,48.916391],[2.1930583,48.916469],[2.1921289,48.9179673]]]]},"properties":{"code_section":"78124000BD","code_commune":"78124","section_courte":"BD"}},{"type":"Feature","geometry":{"type":"MultiPolygon","coordinates":[[[[2.2011552,48.9176472],[2.2008196,48.9180057],[2.2001584,48.918498],[2.1998123,48.9187155],[2.1991987,48.9189823],[2.1954992,48.9168836],[2.1952719,48.9170704],[2.19378,48.916496],[2.1961155,48.9153717],[2.1966408,48.9151567],[2.2006315,48.9132661],[2.2012436,48.9134626],[2.2038585,48.9145323],[2.2011552,48.9176472]]]]},"properties":{"code_section":"78124000BE","code_commune":"78124","section_courte":"BE"}},{"type":"Feature","geometry":{"type":"MultiPolygon","coordinates":[[[[2.2006315,48.9132661],[2.1966408,48.9151567],[2.1961155,48.9153717],[2.1945503,48.9161411],[2.1941837,48.9157965],[2.1929766,48.9144437],[2.1905512,48.9130231],[2.191612,48.9122141],[2.1919044,48.9123711],[2.1937794,48.9105009],[2.1958282,48.9111407],[2.1974723,48.9117303],[2.1982456,48.9120557],[2.1982661,48.9120227],[2.2003109,48.912916],[2.2003929,48.9130386],[2.200362,48.9130538],[2.2006315,48.9132661]]]]},"properties":{"code_section":"78124000BH","code_commune":"78124","section_courte":"BH"}},{"type":"Feature","geometry":{"type":"MultiPolygon","coordinates":[[[[2.1982456,48.9120557],[2.1974723,48.9117303],[2.1958282,48.9111407],[2.1911448,48.9096655],[2.1892204,48.9088677],[2.1897701,48.9085065],[2.1896686,48.9086327],[2.1899354,48.9084617],[2.1902927,48.9079992],[2.1903629,48.9080208],[2.190512,48.9078243],[2.1907777,48.9079199],[2.1910123,48.9077546],[2.1912292,48.9078474],[2.19206,48.9072664],[2.1931986,48.9078172],[2.1952144,48.9086837],[2.1962956,48.9090916],[2.1980255,48.9096659],[2.1994484,48.9101777],[2.1982456,48.9120557]]]]},"properties":{"code_section":"78124000BI","code_commune":"78124","section_courte":"BI"}},{"type":"Feature","geometry":{"type":"MultiPolygon","coordinates":[[[[2.1997736,48.9096552],[2.1994484,48.9101777],[2.1980255,48.9096659],[2.1962956,48.9090916],[2.1952144,48.9086837],[2.1931986,48.9078172],[2.1903844,48.9065064],[2.1892736,48.9060471],[2.1880481,48.9057002],[2.1868395,48.9054896],[2.1878424,48.9035624],[2.1902143,48.9041671],[2.1936802,48.9051049],[2.1945639,48.9056321],[2.1953508,48.906317],[2.196661,48.9070495],[2.197833,48.9076356],[2.2004545,48.9086772],[2.1997736,48.9096552]]]]},"properties":{"code_section":"78124000BK","code_commune":"78124","section_courte":"BK"}},{"type":"Feature","geometry":{"type":"MultiPolygon","coordinates":[[[[2.1886569,48.9087231],[2.1884651,48.9087489],[2.1882407,48.9088591],[2.1874891,48.9095123],[2.18719,48.9097263],[2.1870667,48.9096289],[2.185737,48.9089196],[2.1834004,48.9077393],[2.1817464,48.9069944],[2.1798897,48.9062154],[2.1807187,48.9054669],[2.1812747,48.9047733],[2.1824541,48.9049803],[2.1847312,48.9052042],[2.1860994,48.9053703],[2.1880481,48.9057002],[2.1892736,48.9060471],[2.1903844,48.9065064],[2.19206,48.9072664],[2.1912292,48.9078474],[2.1910123,48.9077546],[2.1907777,48.9079199],[2.190512,48.9078243],[2.1903629,48.9080208],[2.1902927,48.9079992],[2.1899354,48.9084617],[2.1896686,48.9086327],[2.1897701,48.9085065],[2.1892204,48.9088677],[2.1889071,48.9087579],[2.1886569,48.9087231]]]]},"properties":{"code_section":"78124000BL","code_commune":"78124","section_courte":"BL"}},{"type":"Feature","geometry":{"type":"MultiPolygon","coordinates":[[[[2.1905512,48.9130231],[2.1905017,48.9129939],[2.1897112,48.9136259],[2.1891755,48.914265],[2.1873745,48.9135782],[2.186951,48.9127632],[2.1867393,48.9122112],[2.1867595,48.9119098],[2.1868962,48.9116342],[2.187459,48.9108661],[2.1859814,48.9103252],[2.1861904,48.9103586],[2.1864347,48.9103381],[2.1874891,48.9095123],[2.1882407,48.9088591],[2.1885099,48.9087369],[2.1887676,48.9087297],[2.1890099,48.9087903],[2.1911448,48.9096655],[2.1937794,48.9105009],[2.1919044,48.9123711],[2.191612,48.9122141],[2.1905512,48.9130231]]]]},"properties":{"code_section":"78124000BM","code_commune":"78124","section_courte":"BM"}},{"type":"Feature","geometry":{"type":"MultiPolygon","coordinates":[[[[2.187459,48.9108661],[2.1867987,48.9117847],[2.1867476,48.9120451],[2.1867776,48.9123773],[2.1872639,48.9133725],[2.1868369,48.9131505],[2.185081,48.9150488],[2.1824571,48.9098613],[2.1839027,48.9096663],[2.1841903,48.9096652],[2.1846737,48.9098093],[2.187459,48.9108661]]]]},"properties":{"code_section":"78124000BN","code_commune":"78124","section_courte":"BN"}},{"type":"Feature","geometry":{"type":"MultiPolygon","coordinates":[[[[2.1824881,48.9099425],[2.1829236,48.9108013],[2.1769142,48.9090296],[2.1767855,48.9086689],[2.1764015,48.9079516],[2.1762201,48.9077071],[2.1753976,48.9072576],[2.1751647,48.9071624],[2.175208,48.9070592],[2.1757333,48.9067249],[2.1762476,48.9063416],[2.1765232,48.9061995],[2.1776414,48.9058551],[2.1779828,48.9058338],[2.1793141,48.9062456],[2.1795715,48.906273],[2.1798897,48.9062154],[2.1817464,48.9069944],[2.1834004,48.9077393],[2.185737,48.9089196],[2.1870667,48.9096289],[2.18719,48.9097263],[2.1864347,48.9103381],[2.1862604,48.9103561],[2.1859814,48.9103252],[2.1846737,48.9098093],[2.1841903,48.9096652],[2.1839027,48.9096663],[2.1824571,48.9098613],[2.1824881,48.9099425]]]]},"properties":{"code_section":"78124000BP","code_commune":"78124","section_courte":"BP"}},{"type":"Feature","geometry":{"type":"MultiPolygon","coordinates":[[[[2.1714292,48.9009193],[2.174633,48.9027093],[2.1765245,48.9034839],[2.1812747,48.9047733],[2.1807187,48.9054669],[2.1798897,48.9062154],[2.1795715,48.906273],[2.1793141,48.9062456],[2.1779828,48.9058338],[2.1776414,48.9058551],[2.1769559,48.9060481],[2.1765232,48.9061995],[2.1762997,48.9063148],[2.1759605,48.9061146],[2.1759071,48.9060525],[2.1758704,48.9055985],[2.1761548,48.9051212],[2.1760927,48.9049154],[2.176007,48.9048379],[2.1751509,48.9045053],[2.1726013,48.902976],[2.1714157,48.9021914],[2.1704728,48.9015037],[2.1714292,48.9009193]]]]},"properties":{"code_section":"78124000BR","code_commune":"78124","section_courte":"BR"}},{"type":"Feature","geometry":{"type":"MultiPolygon","coordinates":[[[[2.187071,48.9050295],[2.1868395,48.9054896],[2.1860994,48.9053703],[2.1847312,48.9052042],[2.1824541,48.9049803],[2.1812747,48.9047733],[2.1765245,48.9034839],[2.174633,48.9027093],[2.1714292,48.9009193],[2.1744428,48.8990832],[2.1758395,48.8999107],[2.176842,48.9004339],[2.1785379,48.9011464],[2.1803485,48.9017622],[2.1832607,48.9026054],[2.1852513,48.9030546],[2.1878424,48.9035624],[2.187071,48.9050295]]]]},"properties":{"code_section":"78124000BS","code_commune":"78124","section_courte":"BS"}},{"type":"Feature","geometry":{"type":"MultiPolygon","coordinates":[[[[2.1704728,48.9015037],[2.1714157,48.9021914],[2.1726013,48.902976],[2.1751509,48.9045053],[2.176007,48.9048379],[2.1760927,48.9049154],[2.1761548,48.9051212],[2.1758704,48.9055985],[2.1759071,48.9060525],[2.1759605,48.9061146],[2.1762997,48.9063148],[2.1757333,48.9067249],[2.1752704,48.9069968],[2.1751647,48.9071624],[2.1749959,48.9071404],[2.1743522,48.9071973],[2.1739443,48.9071352],[2.1731441,48.9067646],[2.1716294,48.9059204],[2.17016,48.9054677],[2.169541,48.9052475],[2.1688793,48.9049033],[2.1671795,48.9037218],[2.1704728,48.9015037]]]]},"properties":{"code_section":"78124000BT","code_commune":"78124","section_courte":"BT"}},{"type":"Feature","geometry":{"type":"MultiPolygon","coordinates":[[[[2.1682453,48.9082645],[2.1646848,48.9085099],[2.1613703,48.9090454],[2.1609015,48.9091618],[2.1606698,48.9092403],[2.1604883,48.9093436],[2.1599584,48.9091264],[2.1623676,48.9072381],[2.1634662,48.9064513],[2.1639547,48.9060553],[2.1661026,48.9045502],[2.1655913,48.9042002],[2.1668335,48.9034694],[2.1688793,48.9049033],[2.1693132,48.9051456],[2.1698243,48.9053556],[2.1716294,48.9059204],[2.1728391,48.9066009],[2.1709233,48.9081143],[2.1707315,48.9081789],[2.170504,48.9082046],[2.1682453,48.9082645]]]]},"properties":{"code_section":"78124000BV","code_commune":"78124","section_courte":"BV"}},{"type":"Feature","geometry":{"type":"MultiPolygon","coordinates":[[[[2.1752564,48.9109689],[2.1745529,48.9117275],[2.1721619,48.9107768],[2.1714843,48.9104769],[2.1709128,48.9101575],[2.1707855,48.9102527],[2.1700371,48.9098645],[2.1691586,48.9094602],[2.1713797,48.9077692],[2.1728391,48.9066009],[2.1740059,48.9071521],[2.1744861,48.9071995],[2.1750573,48.9071395],[2.1752258,48.9071827],[2.1762201,48.9077071],[2.1764015,48.9079516],[2.1768817,48.9089037],[2.1769142,48.9090296],[2.1768874,48.909403],[2.1752564,48.9109689]]]]},"properties":{"code_section":"78124000BW","code_commune":"78124","section_courte":"BW"}},{"type":"Feature","geometry":{"type":"MultiPolygon","coordinates":[[[[2.1666567,48.9113868],[2.1665338,48.911495],[2.1649079,48.9109133],[2.1635708,48.9104788],[2.1604883,48.9093436],[2.1606698,48.9092403],[2.1609015,48.9091618],[2.1613703,48.9090454],[2.1646848,48.9085099],[2.1676802,48.9082939],[2.170504,48.9082046],[2.1707315,48.9081789],[2.1709233,48.9081143],[2.1666567,48.9113868]]]]},"properties":{"code_section":"78124000BX","code_commune":"78124","section_courte":"BX"}},{"type":"Feature","geometry":{"type":"MultiPolygon","coordinates":[[[[2.1677217,48.9119934],[2.1665338,48.911495],[2.1691586,48.9094602],[2.1700371,48.9098645],[2.1707855,48.9102527],[2.1709128,48.9101575],[2.1714843,48.9104769],[2.1721619,48.9107768],[2.1745529,48.9117275],[2.1740463,48.9122359],[2.1736683,48.9125394],[2.1725946,48.9136153],[2.1716135,48.9132235],[2.1687631,48.9123761],[2.1677217,48.9119934]]]]},"properties":{"code_section":"78124000BY","code_commune":"78124","section_courte":"BY"}},{"type":"Feature","geometry":{"type":"MultiPolygon","coordinates":[[[[2.1631396,48.9171583],[2.1604867,48.9151878],[2.1585556,48.9141194],[2.1603589,48.9128607],[2.1603271,48.9128437],[2.1616905,48.9117696],[2.1616648,48.9117595],[2.162956,48.9102578],[2.1660745,48.9113263],[2.1683904,48.9122514],[2.1667005,48.9139514],[2.1665637,48.9139562],[2.1631396,48.9171583]]]]},"properties":{"code_section":"78124000BZ","code_commune":"78124","section_courte":"BZ"}},{"type":"Feature","geometry":{"type":"MultiPolygon","coordinates":[[[[2.1837472,48.9124159],[2.183909,48.9127277],[2.1827287,48.913731],[2.181249,48.9131939],[2.1812795,48.9131621],[2.1811041,48.9130934],[2.1808385,48.9122935],[2.1807704,48.9123042],[2.180854,48.9125604],[2.1807733,48.9125699],[2.1807807,48.9125965],[2.1786203,48.9128501],[2.1786131,48.9128236],[2.1784789,48.9128393],[2.178439,48.9125748],[2.1783984,48.9125779],[2.1784518,48.9128424],[2.1783709,48.9128519],[2.178378,48.912877],[2.1772713,48.9129731],[2.1772197,48.9129474],[2.1771183,48.9129556],[2.1769423,48.9120588],[2.1769062,48.9114627],[2.1769142,48.9090296],[2.1829236,48.9108013],[2.1837472,48.9124159]]]]},"properties":{"code_section":"78124000CA","code_commune":"78124","section_courte":"CA"}}]}