{"type":"FeatureCollection","features":[{"type":"Feature","geometry":{"type":"MultiPolygon","coordinates":[[[[2.0419127,48.9156527],[2.0398281,48.9170139],[2.039556,48.9164842],[2.0310465,48.9169691],[2.0307259,48.9170097],[2.0303579,48.9166894],[2.0295828,48.9159095],[2.0280299,48.9137061],[2.0270477,48.9126078],[2.0288599,48.9122007],[2.0338877,48.9109115],[2.037449,48.9101114],[2.038973,48.9097259],[2.0390553,48.9099749],[2.0392888,48.9099488],[2.0418179,48.9090772],[2.0428182,48.9088728],[2.0428313,48.9088916],[2.0428465,48.9088641],[2.0448582,48.9082648],[2.0459896,48.9076701],[2.049126,48.9065989],[2.0511301,48.9058529],[2.0528417,48.9052767],[2.0532153,48.9051168],[2.0538578,48.9071231],[2.0527787,48.9076118],[2.045213,48.9132075],[2.0450359,48.9132063],[2.0451167,48.9132987],[2.0419127,48.9156527]]]]},"properties":{"code_section":"781330000A","code_commune":"78133","section_courte":"A"}},{"type":"Feature","geometry":{"type":"MultiPolygon","coordinates":[[[[2.0302907,48.8973672],[2.0307216,48.8978434],[2.0310324,48.8984082],[2.0319369,48.8995301],[2.032089,48.9000412],[2.032428,48.9005814],[2.0325283,48.9008194],[2.0320199,48.9014486],[2.0316584,48.9026239],[2.0314587,48.9025173],[2.0311255,48.9020996],[2.030677,48.9016409],[2.0300908,48.9011926],[2.0305114,48.9011995],[2.0304776,48.9009478],[2.0303347,48.9009546],[2.0303266,48.9008697],[2.030446,48.9008691],[2.0303903,48.9005765],[2.0302341,48.9005928],[2.0295398,48.8990809],[2.029185,48.8984953],[2.0286373,48.8982397],[2.0273948,48.897806],[2.0291529,48.8970415],[2.0293284,48.8970964],[2.0299075,48.8967188],[2.0302907,48.8973672]]]]},"properties":{"code_section":"781330000B","code_commune":"78133","section_courte":"B"}},{"type":"Feature","geometry":{"type":"MultiPolygon","coordinates":[[[[2.0527441,48.8992412],[2.0523837,48.8993703],[2.0522862,48.8995744],[2.0523526,48.8997456],[2.0523424,48.899895],[2.0525156,48.9003336],[2.051661,48.9005796],[2.0504895,48.9008464],[2.0504388,48.9007978],[2.0503094,48.9003599],[2.0474436,48.8986038],[2.0469232,48.8982586],[2.0462482,48.8977111],[2.0460647,48.8976784],[2.0460673,48.8976469],[2.045527,48.8974152],[2.040977,48.8947776],[2.0409317,48.8947343],[2.0410129,48.8947249],[2.0423195,48.8940256],[2.0429686,48.8927701],[2.0454011,48.8925353],[2.0454081,48.8925762],[2.0468894,48.892135],[2.0468642,48.8920982],[2.0496998,48.8912302],[2.0499058,48.8913277],[2.0497119,48.8921621],[2.0495917,48.8929304],[2.0498368,48.8938169],[2.0496691,48.8941517],[2.0497683,48.8944003],[2.0502168,48.8949752],[2.0538051,48.8976748],[2.0542056,48.8975389],[2.0543719,48.8977941],[2.0540898,48.8981067],[2.0531572,48.8989921],[2.0530113,48.8991107],[2.0527441,48.8992412]]],[[[2.0084408,48.8929093],[2.0088704,48.8921068],[2.0091947,48.8919972],[2.0110128,48.8903522],[2.0124768,48.8914516],[2.0144725,48.8904599],[2.0155478,48.8892832],[2.0173206,48.8879564],[2.0183784,48.8870808],[2.0193053,48.8863849],[2.0215072,48.8858544],[2.0230152,48.8872238],[2.0233129,48.8873535],[2.0255149,48.8858768],[2.0280667,48.885996],[2.0296598,48.8865274],[2.0349431,48.8850652],[2.0364532,48.8871397],[2.0382655,48.8893137],[2.037616,48.8905291],[2.0383941,48.8921891],[2.0391906,48.893003],[2.0391575,48.8931687],[2.0384645,48.893739],[2.0388144,48.8939886],[2.0385076,48.8941559],[2.03777,48.8939375],[2.0368922,48.8935637],[2.0362218,48.8933485],[2.0359939,48.8933233],[2.0358808,48.8936602],[2.0358604,48.893858],[2.0359193,48.8942786],[2.035802,48.8946885],[2.0355567,48.8949276],[2.0349129,48.8953307],[2.0348363,48.8954333],[2.0345017,48.8966161],[2.0345125,48.896816],[2.0347195,48.8969375],[2.0335471,48.8986477],[2.0333372,48.8988504],[2.0331972,48.899074],[2.0327408,48.8998566],[2.0326285,48.9005065],[2.0324763,48.9007252],[2.032428,48.9005814],[2.032089,48.9000412],[2.0319369,48.8995301],[2.0310324,48.8984082],[2.0307216,48.8978434],[2.0302907,48.8973672],[2.0299075,48.8967188],[2.0293284,48.8970964],[2.0291529,48.8970415],[2.0273948,48.897806],[2.0271471,48.8977391],[2.0260936,48.8971588],[2.0272416,48.8966049],[2.0272317,48.8965003],[2.0284066,48.8953041],[2.0277025,48.8949081],[2.0264735,48.8943869],[2.0256266,48.8941327],[2.0245608,48.8939808],[2.0227507,48.8933031],[2.0222275,48.8929814],[2.0219806,48.8928696],[2.0216136,48.892815],[2.0212994,48.892834],[2.0200164,48.8930847],[2.0198049,48.8930965],[2.0185018,48.8930135],[2.0180828,48.8931151],[2.0177852,48.893276],[2.0171095,48.8938475],[2.0167523,48.8940921],[2.0157136,48.8946206],[2.0146696,48.8953087],[2.0133177,48.8961061],[2.0131387,48.8961844],[2.0127176,48.896264],[2.0125799,48.8962576],[2.011442,48.8959625],[2.0107832,48.895913],[2.0104412,48.8958328],[2.0102238,48.8956989],[2.0088954,48.8951748],[2.0078787,48.8946121],[2.0056532,48.8940928],[2.0042922,48.8939155],[2.0035819,48.8934616],[2.0030981,48.8932549],[2.0024025,48.8931841],[2.0022648,48.8932241],[2.0016458,48.8921462],[2.001692,48.8921324],[2.0037764,48.8926516],[2.0058107,48.8930786],[2.007959,48.8931134],[2.0080864,48.8929849],[2.0084408,48.8929093]]]]},"properties":{"code_section":"781330000C","code_commune":"78133","section_courte":"C"}},{"type":"Feature","geometry":{"type":"MultiPolygon","coordinates":[[[[2.0088704,48.8921068],[2.0084408,48.8929093],[2.0080864,48.8929849],[2.007959,48.8931134],[2.0058107,48.8930786],[2.0037764,48.8926516],[2.001692,48.8921324],[2.0016458,48.8921462],[1.9985197,48.8914588],[2.0097791,48.8864837],[2.0134788,48.8849836],[2.0170399,48.8836458],[2.0188437,48.8830252],[2.0232788,48.8816398],[2.0373087,48.8775622],[2.0461508,48.8923549],[2.0454081,48.8925762],[2.0454011,48.8925353],[2.0429686,48.8927701],[2.0423195,48.8940256],[2.0410129,48.8947249],[2.0409317,48.8947343],[2.0383941,48.8921891],[2.037616,48.8905291],[2.0382655,48.8893137],[2.0364532,48.8871397],[2.0349431,48.8850652],[2.0296598,48.8865274],[2.0280667,48.885996],[2.0255149,48.8858768],[2.0233129,48.8873535],[2.0230152,48.8872238],[2.0215072,48.8858544],[2.0193053,48.8863849],[2.0183784,48.8870808],[2.0173206,48.8879564],[2.0155478,48.8892832],[2.0144725,48.8904599],[2.0124768,48.8914516],[2.0110128,48.8903522],[2.0091947,48.8919972],[2.0088704,48.8921068]]]]},"properties":{"code_section":"781330000D","code_commune":"78133","section_courte":"D"}},{"type":"Feature","geometry":{"type":"MultiPolygon","coordinates":[[[[2.0273299,48.9093025],[2.0271121,48.9088893],[2.027024,48.9086216],[2.0270193,48.9083878],[2.0270975,48.9083741],[2.0270743,48.9082256],[2.0273501,48.9070278],[2.030126,48.9070759],[2.0311282,48.9070535],[2.0313497,48.9069693],[2.0340777,48.9064013],[2.0349106,48.9063476],[2.0361032,48.9062055],[2.0369438,48.9063053],[2.0373676,48.9069662],[2.0378729,48.9075431],[2.0386084,48.9089171],[2.038973,48.9097259],[2.037449,48.9101114],[2.0338877,48.9109115],[2.0316148,48.9115092],[2.0292909,48.9120799],[2.0283381,48.9103612],[2.027784,48.9092091],[2.0273299,48.9093025]]]]},"properties":{"code_section":"78133000AA","code_commune":"78133","section_courte":"AA"}},{"type":"Feature","geometry":{"type":"MultiPolygon","coordinates":[[[[2.0421295,48.9090144],[2.0418179,48.9090772],[2.0409893,48.909347],[2.0392888,48.9099488],[2.0390553,48.9099749],[2.0386084,48.9089171],[2.0378729,48.9075431],[2.0373676,48.9069662],[2.0369438,48.9063053],[2.0377424,48.9061609],[2.0384127,48.9059891],[2.0390998,48.905703],[2.0393791,48.9055221],[2.0395425,48.9053253],[2.0398535,48.9048039],[2.0399926,48.9047018],[2.0404668,48.9046304],[2.0410363,48.9046286],[2.0415436,48.9045038],[2.0418642,48.9043534],[2.0435225,48.9038474],[2.0451654,48.9034535],[2.0453944,48.9037187],[2.0457339,48.9043486],[2.0466898,48.9056789],[2.0474843,48.9066682],[2.0486752,48.906236],[2.0488624,48.9066895],[2.0459896,48.9076701],[2.0448582,48.9082648],[2.0428465,48.9088641],[2.0428313,48.9088916],[2.0428182,48.9088728],[2.0421295,48.9090144]]]]},"properties":{"code_section":"78133000AB","code_commune":"78133","section_courte":"AB"}},{"type":"Feature","geometry":{"type":"MultiPolygon","coordinates":[[[[2.0548811,48.9042455],[2.0549598,48.9043697],[2.0528417,48.9052767],[2.0515764,48.9056944],[2.0488624,48.9066895],[2.0486752,48.906236],[2.0474843,48.9066682],[2.0466898,48.9056789],[2.0457339,48.9043486],[2.0453944,48.9037187],[2.0451654,48.9034535],[2.0459204,48.9032089],[2.0467288,48.9030369],[2.0473644,48.902792],[2.0492558,48.9022547],[2.0490005,48.9021608],[2.048167,48.9013415],[2.0478961,48.9011028],[2.0476558,48.9009499],[2.0478645,48.9009326],[2.0488326,48.9010149],[2.0496542,48.9010211],[2.0513013,48.900668],[2.0525156,48.9003336],[2.0527649,48.9008009],[2.0548811,48.9042455]]]]},"properties":{"code_section":"78133000AC","code_commune":"78133","section_courte":"AC"}},{"type":"Feature","geometry":{"type":"MultiPolygon","coordinates":[[[[2.0504895,48.9008464],[2.0496182,48.9010239],[2.0488326,48.9010149],[2.0478645,48.9009326],[2.0476558,48.9009499],[2.0478961,48.9011028],[2.048167,48.9013415],[2.0490005,48.9021608],[2.0492558,48.9022547],[2.0473644,48.902792],[2.0467288,48.9030369],[2.0459204,48.9032089],[2.0451654,48.9034535],[2.0435225,48.9038474],[2.0418642,48.9043534],[2.0418002,48.9041506],[2.0417663,48.9034292],[2.0416734,48.9031949],[2.0415527,48.9030524],[2.0414762,48.9030246],[2.0410513,48.9030702],[2.0394728,48.9029692],[2.03902,48.9029702],[2.0384699,48.9030336],[2.038545,48.9028547],[2.0393839,48.9021204],[2.0401426,48.901606],[2.0410682,48.9012744],[2.0413448,48.9010539],[2.0415499,48.9007161],[2.0423526,48.9007353],[2.0435888,48.9008973],[2.043685,48.9004105],[2.043827,48.9001044],[2.0439587,48.899947],[2.0443396,48.8996762],[2.044216,48.899364],[2.0442016,48.8990707],[2.0448075,48.898996],[2.0448678,48.8989582],[2.0462482,48.8977111],[2.0469232,48.8982586],[2.0474436,48.8986038],[2.0503094,48.9003599],[2.0504388,48.9007978],[2.0504895,48.9008464]]]]},"properties":{"code_section":"78133000AD","code_commune":"78133","section_courte":"AD"}},{"type":"Feature","geometry":{"type":"MultiPolygon","coordinates":[[[[2.0408227,48.8983153],[2.0399132,48.8980408],[2.0397112,48.8980082],[2.0395125,48.8980118],[2.0386129,48.8981455],[2.0384144,48.8981274],[2.0359449,48.897358],[2.0350675,48.8970243],[2.0347195,48.8969375],[2.034531,48.8968411],[2.0345017,48.8966161],[2.0348363,48.8954333],[2.0349129,48.8953307],[2.0355567,48.8949276],[2.0357193,48.8947864],[2.0358451,48.8945888],[2.0359193,48.8942786],[2.0358744,48.8937111],[2.0359939,48.8933233],[2.0362218,48.8933485],[2.0368922,48.8935637],[2.03777,48.8939375],[2.0385076,48.8941559],[2.0388144,48.8939886],[2.0384645,48.893739],[2.0391575,48.8931687],[2.0391906,48.893003],[2.040977,48.8947776],[2.045527,48.8974152],[2.0460673,48.8976469],[2.0460647,48.8976784],[2.0462482,48.8977111],[2.0448678,48.8989582],[2.0448075,48.898996],[2.0442016,48.8990707],[2.0431126,48.8988047],[2.0408227,48.8983153]]]]},"properties":{"code_section":"78133000AE","code_commune":"78133","section_courte":"AE"}},{"type":"Feature","geometry":{"type":"MultiPolygon","coordinates":[[[[2.0376623,48.8978954],[2.0383059,48.8981008],[2.0386129,48.8981455],[2.0395125,48.8980118],[2.0398834,48.8980338],[2.0407209,48.8982916],[2.0431126,48.8988047],[2.0442016,48.8990707],[2.044216,48.899364],[2.0443396,48.8996762],[2.0439587,48.899947],[2.043827,48.9001044],[2.043685,48.9004105],[2.0435888,48.9008973],[2.0423526,48.9007353],[2.0415499,48.9007161],[2.0413448,48.9010539],[2.0410682,48.9012744],[2.0402376,48.901561],[2.039796,48.9018353],[2.0382132,48.902143],[2.0374156,48.9022677],[2.0366379,48.9022514],[2.0354702,48.9023096],[2.0337329,48.9026481],[2.0324763,48.9007252],[2.0326285,48.9005065],[2.0327408,48.8998566],[2.0331972,48.899074],[2.0333372,48.8988504],[2.0335471,48.8986477],[2.0347195,48.8969375],[2.0350211,48.8970086],[2.0359449,48.897358],[2.0376623,48.8978954]]]]},"properties":{"code_section":"78133000AH","code_commune":"78133","section_courte":"AH"}},{"type":"Feature","geometry":{"type":"MultiPolygon","coordinates":[[[[2.0344237,48.9037597],[2.0337329,48.9026481],[2.0354702,48.9023096],[2.0366379,48.9022514],[2.0374156,48.9022677],[2.0382132,48.902143],[2.039796,48.9018353],[2.0393839,48.9021204],[2.0387296,48.9026866],[2.038545,48.9028547],[2.0384699,48.9030336],[2.03902,48.9029702],[2.0394728,48.9029692],[2.0410513,48.9030702],[2.0414762,48.9030246],[2.0415527,48.9030524],[2.0416734,48.9031949],[2.0417663,48.9034292],[2.0418002,48.9041506],[2.0418642,48.9043534],[2.0415436,48.9045038],[2.0410363,48.9046286],[2.0404668,48.9046304],[2.0399926,48.9047018],[2.0398535,48.9048039],[2.0395425,48.9053253],[2.0393791,48.9055221],[2.039086,48.9057101],[2.0384577,48.9059737],[2.0372848,48.9062531],[2.0369438,48.9063053],[2.036641,48.9062869],[2.0360022,48.9062036],[2.0359002,48.9060478],[2.0357089,48.9055802],[2.0352049,48.9050346],[2.0348613,48.9045251],[2.0344237,48.9037597]]]]},"properties":{"code_section":"78133000AI","code_commune":"78133","section_courte":"AI"}},{"type":"Feature","geometry":{"type":"MultiPolygon","coordinates":[[[[2.027418,48.9065447],[2.0274876,48.9057857],[2.028403,48.9057644],[2.0282347,48.9054627],[2.0281487,48.9051696],[2.0280987,48.9039006],[2.0286741,48.9040051],[2.0287865,48.9037681],[2.029454,48.9039041],[2.0297368,48.9034508],[2.0299818,48.9026208],[2.0298736,48.9025742],[2.0299371,48.9023836],[2.030048,48.9011923],[2.0300908,48.9011926],[2.0304978,48.9014792],[2.0309291,48.901883],[2.0314587,48.9025173],[2.0316584,48.9026239],[2.0320199,48.9014486],[2.0325283,48.9008194],[2.0339837,48.9030075],[2.0351104,48.904899],[2.0353878,48.9052508],[2.0357089,48.9055802],[2.0359002,48.9060478],[2.0360022,48.9062036],[2.034972,48.9063414],[2.0340777,48.9064013],[2.0313497,48.9069693],[2.0311282,48.9070535],[2.030126,48.9070759],[2.0273505,48.9070346],[2.0273165,48.9070202],[2.027418,48.9065447]]]]},"properties":{"code_section":"78133000AK","code_commune":"78133","section_courte":"AK"}}]}