{"type":"FeatureCollection","features":[{"type":"Feature","geometry":{"type":"MultiPolygon","coordinates":[[[[2.1587932,48.9019548],[2.1589339,48.901864],[2.158972,48.9019028],[2.1590471,48.9018489],[2.1600018,48.9025112],[2.1604963,48.902471],[2.1612173,48.9021044],[2.1617591,48.9018933],[2.1628143,48.901255],[2.1635763,48.9008746],[2.1638925,48.9006406],[2.1652517,48.9018395],[2.1662651,48.9029439],[2.1668392,48.9034606],[2.1658902,48.9040488],[2.1655864,48.9041995],[2.1660974,48.9045503],[2.165101,48.9052399],[2.1643813,48.9057866],[2.1640761,48.9059629],[2.161192,48.9081368],[2.1599027,48.9073999],[2.1592136,48.9070535],[2.159265,48.9070086],[2.1587285,48.9067507],[2.1588679,48.9066183],[2.1584301,48.9064286],[2.1580665,48.9067778],[2.1565153,48.9060706],[2.156148,48.9060382],[2.1557995,48.9063565],[2.1538161,48.905435],[2.154112,48.9052672],[2.1545144,48.9048587],[2.1555239,48.9040223],[2.156827,48.9046773],[2.1569537,48.9045687],[2.1571031,48.9045169],[2.1562306,48.9028237],[2.157648,48.902738],[2.1576539,48.9026728],[2.1579412,48.902453],[2.1587932,48.9019548]]]]},"properties":{"code_section":"78146000AB","code_commune":"78146","section_courte":"AB"}},{"type":"Feature","geometry":{"type":"MultiPolygon","coordinates":[[[[2.1694269,48.8992093],[2.1708443,48.9004053],[2.1714888,48.900891],[2.1704334,48.901538],[2.1671393,48.903753],[2.1667862,48.9034932],[2.1668392,48.9034606],[2.1662651,48.9029439],[2.1652517,48.9018395],[2.1635587,48.9003422],[2.1629143,48.8999129],[2.1619698,48.8994391],[2.1619554,48.8993586],[2.162092,48.8989845],[2.1621328,48.8984901],[2.1620985,48.8984785],[2.1621902,48.8981801],[2.1619498,48.8980727],[2.1621174,48.8976587],[2.1617806,48.8975273],[2.1615415,48.8973633],[2.1607687,48.8961923],[2.1613131,48.8960425],[2.1613495,48.8960829],[2.1615914,48.8960217],[2.1616065,48.8960537],[2.1616747,48.8960395],[2.1622071,48.8958571],[2.1626023,48.8955853],[2.1633669,48.8960899],[2.1634499,48.89611],[2.1647789,48.8954454],[2.1671167,48.8973985],[2.1694269,48.8992093]]]]},"properties":{"code_section":"78146000AC","code_commune":"78146","section_courte":"AC"}},{"type":"Feature","geometry":{"type":"MultiPolygon","coordinates":[[[[2.1620037,48.8991924],[2.1619433,48.8994039],[2.1619818,48.8994491],[2.163143,48.9000483],[2.1634085,48.9002224],[2.1638925,48.9006406],[2.1635763,48.9008746],[2.1628143,48.901255],[2.1617591,48.9018933],[2.1612173,48.9021044],[2.1604963,48.902471],[2.1600018,48.9025112],[2.1590146,48.9018249],[2.1579276,48.9006146],[2.1575105,48.9005634],[2.1568832,48.9005477],[2.1560822,48.9004078],[2.1553781,48.9001809],[2.1549657,48.8999609],[2.1545101,48.8995718],[2.1541816,48.8991115],[2.1539879,48.8987413],[2.1535952,48.8989624],[2.1535088,48.8989044],[2.1525642,48.8982069],[2.1522281,48.8978391],[2.1518788,48.8972844],[2.1517546,48.8971982],[2.1524599,48.8965937],[2.1527358,48.8964244],[2.1547753,48.8953424],[2.1567737,48.8943712],[2.15709,48.8942278],[2.1572294,48.8942136],[2.1573275,48.89426],[2.1575125,48.8944385],[2.1584058,48.8953634],[2.1592748,48.8963804],[2.1605894,48.8959771],[2.1606702,48.8960317],[2.1615415,48.8973633],[2.1617806,48.8975273],[2.1621174,48.8976587],[2.1619498,48.8980727],[2.1621902,48.8981801],[2.1620985,48.8984785],[2.1621328,48.8984901],[2.162092,48.8989845],[2.1620037,48.8991924]]]]},"properties":{"code_section":"78146000AD","code_commune":"78146","section_courte":"AD"}},{"type":"Feature","geometry":{"type":"MultiPolygon","coordinates":[[[[2.1641341,48.8899721],[2.1644363,48.8899365],[2.164518,48.8900441],[2.1657165,48.8910399],[2.1662504,48.8915961],[2.1665696,48.8920656],[2.1669785,48.8927814],[2.1671437,48.8931473],[2.1674233,48.8939723],[2.1675953,48.8942963],[2.1678949,48.894669],[2.1684578,48.8951906],[2.1699684,48.8963483],[2.1708916,48.8969735],[2.1729366,48.8982172],[2.1744438,48.8990881],[2.1714888,48.900891],[2.1708443,48.9004053],[2.1694269,48.8992093],[2.1671167,48.8973985],[2.1647789,48.8954454],[2.1642949,48.895088],[2.1639671,48.8946928],[2.1636248,48.8941807],[2.1633048,48.8935504],[2.1628374,48.8927856],[2.1624867,48.8919994],[2.1620573,48.8907338],[2.1619745,48.8901946],[2.1641341,48.8899721]]]]},"properties":{"code_section":"78146000AE","code_commune":"78146","section_courte":"AE"}},{"type":"Feature","geometry":{"type":"MultiPolygon","coordinates":[[[[2.1588907,48.8851424],[2.1580539,48.8835523],[2.1576616,48.8826929],[2.1566283,48.8808834],[2.15825,48.880557],[2.1589213,48.8808921],[2.1611448,48.8815271],[2.1619972,48.8818345],[2.1627263,48.8822839],[2.16302,48.8825731],[2.1632235,48.882851],[2.1635196,48.8835429],[2.1635699,48.8838699],[2.1635751,48.8843745],[2.1634044,48.885513],[2.1629322,48.8869177],[2.1630276,48.8875861],[2.1631637,48.8880096],[2.1634219,48.8885406],[2.1638358,48.8891838],[2.1644363,48.8899365],[2.1619745,48.8901946],[2.1617524,48.8895293],[2.1612326,48.8885643],[2.1606559,48.8877079],[2.1593262,48.8859177],[2.1588907,48.8851424]]]]},"properties":{"code_section":"78146000AH","code_commune":"78146","section_courte":"AH"}},{"type":"Feature","geometry":{"type":"MultiPolygon","coordinates":[[[[2.1610171,48.8961248],[2.1607687,48.8961923],[2.1606702,48.8960317],[2.1605894,48.8959771],[2.1592748,48.8963804],[2.1584973,48.8954619],[2.1573275,48.89426],[2.1572294,48.8942136],[2.15709,48.8942278],[2.15654,48.8944846],[2.1558785,48.8937451],[2.1556143,48.8927093],[2.1555446,48.8925843],[2.154837,48.8917546],[2.1538974,48.8904368],[2.1549297,48.8902034],[2.15778,48.8894579],[2.159378,48.8890194],[2.1596025,48.8888826],[2.1612326,48.8885643],[2.1617524,48.8895293],[2.1619745,48.8901946],[2.1620573,48.8907338],[2.1623128,48.8915509],[2.1628374,48.8927856],[2.1633048,48.8935504],[2.1636248,48.8941807],[2.1639671,48.8946928],[2.1642949,48.895088],[2.1647789,48.8954454],[2.1634499,48.89611],[2.1633669,48.8960899],[2.1626023,48.8955853],[2.1622071,48.8958571],[2.1616747,48.8960395],[2.1616065,48.8960537],[2.1615914,48.8960217],[2.1613495,48.8960829],[2.1613131,48.8960425],[2.1610171,48.8961248]]]]},"properties":{"code_section":"78146000AI","code_commune":"78146","section_courte":"AI"}},{"type":"Feature","geometry":{"type":"MultiPolygon","coordinates":[[[[2.1448547,48.8932025],[2.1452271,48.8926419],[2.1486312,48.8932219],[2.1504273,48.8917227],[2.1503799,48.8915391],[2.1501611,48.8911509],[2.1538974,48.8904368],[2.154837,48.8917546],[2.1555446,48.8925843],[2.1556143,48.8927093],[2.1558785,48.8937451],[2.15654,48.8944846],[2.1544446,48.8955084],[2.1527132,48.8964373],[2.1524599,48.8965937],[2.1516172,48.8973058],[2.1504896,48.8962719],[2.1503336,48.8962488],[2.150243,48.8962695],[2.1498792,48.8964704],[2.1498441,48.8963947],[2.1491958,48.8958811],[2.1490896,48.8958569],[2.148492,48.8962808],[2.1480187,48.8966949],[2.1465384,48.8975745],[2.1465107,48.8976629],[2.1465564,48.8979976],[2.1465407,48.8980535],[2.1464634,48.8980729],[2.1447721,48.8967275],[2.1452966,48.8960078],[2.1433891,48.8954112],[2.1448547,48.8932025]]]]},"properties":{"code_section":"78146000AK","code_commune":"78146","section_courte":"AK"}},{"type":"Feature","geometry":{"type":"MultiPolygon","coordinates":[[[[2.1540362,48.8988232],[2.1541816,48.8991115],[2.1545101,48.8995718],[2.1549657,48.8999609],[2.1553781,48.9001809],[2.1560822,48.9004078],[2.1568832,48.9005477],[2.1575105,48.9005634],[2.1579276,48.9006146],[2.1590471,48.9018489],[2.158972,48.9019028],[2.1589339,48.901864],[2.1579412,48.902453],[2.1576539,48.9026728],[2.157648,48.902738],[2.1562306,48.9028237],[2.1571031,48.9045169],[2.1569537,48.9045687],[2.156827,48.9046773],[2.1555239,48.9040223],[2.1545144,48.9048587],[2.154112,48.9052672],[2.153904,48.9053923],[2.1532823,48.9051001],[2.1525923,48.9048215],[2.1523223,48.9050798],[2.1507498,48.9043891],[2.1502994,48.9057501],[2.1495976,48.9054581],[2.1499008,48.9049444],[2.1489312,48.9045548],[2.1479634,48.9042646],[2.147624,48.9041299],[2.1483579,48.9031503],[2.1487027,48.9026208],[2.1500146,48.9012583],[2.1513101,48.8994187],[2.1520082,48.8986407],[2.1525642,48.8982069],[2.1535952,48.8989624],[2.1539879,48.8987413],[2.1540362,48.8988232]]]]},"properties":{"code_section":"78146000AL","code_commune":"78146","section_courte":"AL"}},{"type":"Feature","geometry":{"type":"MultiPolygon","coordinates":[[[[2.1289972,48.9098389],[2.1260298,48.9075925],[2.1313543,48.9058661],[2.1336471,48.9096219],[2.1341544,48.9096706],[2.1343357,48.909729],[2.1359592,48.911184],[2.1319987,48.9120954],[2.1289972,48.9098389]]]]},"properties":{"code_section":"78146000AM","code_commune":"78146","section_courte":"AM"}},{"type":"Feature","geometry":{"type":"MultiPolygon","coordinates":[[[[2.1359182,48.9065863],[2.1383476,48.9029497],[2.1396147,48.9033053],[2.1426109,48.9043514],[2.1414339,48.9061183],[2.1405479,48.9075985],[2.1395408,48.9099012],[2.1403772,48.9098458],[2.1404382,48.9106001],[2.139697,48.9106951],[2.1377096,48.9110474],[2.1359592,48.911184],[2.1343357,48.909729],[2.1341544,48.9096706],[2.1338234,48.9096383],[2.1356814,48.9068387],[2.1357424,48.9068404],[2.1359182,48.9065863]]]]},"properties":{"code_section":"78146000AN","code_commune":"78146","section_courte":"AN"}},{"type":"Feature","geometry":{"type":"MultiPolygon","coordinates":[[[[2.1384395,48.9028182],[2.1433891,48.8954112],[2.1452966,48.8960078],[2.1447721,48.8967275],[2.1463898,48.8980241],[2.1464634,48.8980729],[2.1465407,48.8980535],[2.1470059,48.8994369],[2.1475268,48.9004283],[2.1474397,48.9005009],[2.1474262,48.9006405],[2.1453403,48.9015559],[2.1449041,48.9017922],[2.1437607,48.9027365],[2.1430466,48.9035238],[2.1426109,48.9043514],[2.1396147,48.9033053],[2.1383476,48.9029497],[2.1384395,48.9028182]]]]},"properties":{"code_section":"78146000AO","code_commune":"78146","section_courte":"AO"}},{"type":"Feature","geometry":{"type":"MultiPolygon","coordinates":[[[[2.1518355,48.8972307],[2.1522281,48.8978391],[2.1525642,48.8982069],[2.1519572,48.8986868],[2.151432,48.8992637],[2.1500146,48.9012583],[2.1487027,48.9026208],[2.1483579,48.9031503],[2.1474536,48.9043454],[2.1470819,48.9041946],[2.1469907,48.9046589],[2.1435462,48.9029706],[2.1439112,48.9026047],[2.1450107,48.9017171],[2.1474262,48.9006405],[2.1474397,48.9005009],[2.1475268,48.9004283],[2.1471229,48.8996922],[2.1469338,48.8992467],[2.1465407,48.8980535],[2.1465107,48.8976629],[2.1465384,48.8975745],[2.1480187,48.8966949],[2.148492,48.8962808],[2.1490896,48.8958569],[2.1491958,48.8958811],[2.1498441,48.8963947],[2.1498792,48.8964704],[2.150243,48.8962695],[2.1503336,48.8962488],[2.1504896,48.8962719],[2.1515455,48.8972693],[2.1516172,48.8973058],[2.1517546,48.8971982],[2.1518355,48.8972307]]]]},"properties":{"code_section":"78146000AP","code_commune":"78146","section_courte":"AP"}},{"type":"Feature","geometry":{"type":"MultiPolygon","coordinates":[[[[2.1435259,48.8890334],[2.1435536,48.8890016],[2.1479316,48.8882155],[2.1479053,48.8880806],[2.1468155,48.8870976],[2.1494897,48.8862562],[2.1501721,48.8871053],[2.1506044,48.8873102],[2.1508974,48.8876511],[2.151999,48.8872427],[2.152946,48.8869313],[2.1537133,48.888111],[2.1536925,48.8884028],[2.1537254,48.8885181],[2.1549297,48.8902034],[2.1538974,48.8904368],[2.1497719,48.8912196],[2.1494868,48.8912973],[2.1468344,48.8917536],[2.1439089,48.8923167],[2.1438347,48.892203],[2.1437252,48.8921312],[2.1434089,48.8920481],[2.1435259,48.8890334]]]]},"properties":{"code_section":"78146000AR","code_commune":"78146","section_courte":"AR"}},{"type":"Feature","geometry":{"type":"MultiPolygon","coordinates":[[[[2.1516687,48.8856119],[2.1518501,48.8856656],[2.1520129,48.8857791],[2.1527261,48.886594],[2.152946,48.8869313],[2.151999,48.8872427],[2.1508974,48.8876511],[2.1506044,48.8873102],[2.1501721,48.8871053],[2.1494897,48.8862562],[2.1468155,48.8870976],[2.1462908,48.8864173],[2.1462382,48.886415],[2.1459518,48.8860493],[2.1449507,48.8833874],[2.1450415,48.8833954],[2.1477369,48.8827558],[2.1495149,48.8823999],[2.1502419,48.8833501],[2.150985,48.8841943],[2.1509942,48.8842655],[2.1508637,48.8843303],[2.1516862,48.8853377],[2.1517124,48.8855577],[2.1516687,48.8856119]]]]},"properties":{"code_section":"78146000AS","code_commune":"78146","section_courte":"AS"}},{"type":"Feature","geometry":{"type":"MultiPolygon","coordinates":[[[[2.1612326,48.8885643],[2.1596025,48.8888826],[2.159378,48.8890194],[2.1549297,48.8902034],[2.1537254,48.8885181],[2.1536925,48.8884028],[2.1537133,48.888111],[2.1527484,48.886622],[2.1519672,48.8857346],[2.1516687,48.8856119],[2.1517124,48.8855577],[2.1516862,48.8853377],[2.1508637,48.8843303],[2.1509942,48.8842655],[2.150985,48.8841943],[2.1502419,48.8833501],[2.1495149,48.8823999],[2.1513982,48.8819379],[2.1566283,48.8808834],[2.1576616,48.8826929],[2.1580539,48.8835523],[2.1593262,48.8859177],[2.1606559,48.8877079],[2.1612326,48.8885643]]]]},"properties":{"code_section":"78146000AT","code_commune":"78146","section_courte":"AT"}}]}