{"type":"FeatureCollection","features":[{"type":"Feature","geometry":{"type":"MultiPolygon","coordinates":[[[[2.1274555,48.8329489],[2.1284567,48.8327765],[2.1290222,48.8337797],[2.1293922,48.8349339],[2.1293622,48.8351451],[2.1284959,48.8351188],[2.1261896,48.8351543],[2.1224549,48.8358367],[2.1205654,48.8361171],[2.1194595,48.8344241],[2.1195459,48.8344],[2.1190067,48.8339346],[2.1198057,48.8335084],[2.1198549,48.8335429],[2.1197932,48.8336448],[2.1197903,48.8338033],[2.1199112,48.8339588],[2.1201617,48.8340745],[2.1207562,48.8341933],[2.1274555,48.8329489]]]]},"properties":{"code_section":"78158000AB","code_commune":"78158","section_courte":"AB"}},{"type":"Feature","geometry":{"type":"MultiPolygon","coordinates":[[[[2.1282436,48.831231],[2.1289846,48.8298605],[2.1291587,48.8296668],[2.1294824,48.8296152],[2.1306723,48.8295612],[2.1312063,48.830645],[2.1283878,48.8312465],[2.1282436,48.831231]]]]},"properties":{"code_section":"78158000AC","code_commune":"78158","section_courte":"AC"}},{"type":"Feature","geometry":{"type":"MultiPolygon","coordinates":[[[[2.1383796,48.8279435],[2.1382252,48.8280211],[2.1353671,48.8284127],[2.1340309,48.8287185],[2.1331251,48.8290081],[2.1319344,48.8270005],[2.1288303,48.8276642],[2.1285548,48.8270916],[2.1281006,48.8254554],[2.1287994,48.825159],[2.1293484,48.8248497],[2.1320821,48.8225967],[2.1327624,48.8221487],[2.1330107,48.82295],[2.1331765,48.8232801],[2.1354077,48.8251217],[2.1356312,48.8252353],[2.1357786,48.8252623],[2.1359914,48.8252445],[2.1362752,48.8251547],[2.1365884,48.8253858],[2.1365327,48.8254643],[2.136747,48.825438],[2.1382271,48.8264632],[2.1383796,48.8279435]]]]},"properties":{"code_section":"78158000AD","code_commune":"78158","section_courte":"AD"}},{"type":"Feature","geometry":{"type":"MultiPolygon","coordinates":[[[[2.1378692,48.8208335],[2.137915,48.8210847],[2.1400864,48.824262],[2.1427477,48.8255738],[2.1428929,48.8256906],[2.1383796,48.8279435],[2.1382271,48.8264632],[2.136747,48.825438],[2.1365327,48.8254643],[2.1365884,48.8253858],[2.1362752,48.8251547],[2.1359914,48.8252445],[2.1357786,48.8252623],[2.1356312,48.8252353],[2.1354077,48.8251217],[2.1331765,48.8232801],[2.1330107,48.82295],[2.1327624,48.8221487],[2.1352439,48.8205864],[2.1378004,48.8191847],[2.1378692,48.8208335]]]]},"properties":{"code_section":"78158000AE","code_commune":"78158","section_courte":"AE"}},{"type":"Feature","geometry":{"type":"MultiPolygon","coordinates":[[[[2.1374382,48.8189144],[2.137676,48.8189992],[2.1377909,48.8191187],[2.1378004,48.8191847],[2.1352439,48.8205864],[2.1324168,48.8223661],[2.1312939,48.8232236],[2.1293484,48.8248497],[2.1287994,48.825159],[2.1281006,48.8254554],[2.1273634,48.8226974],[2.1274495,48.8216354],[2.1274161,48.8214221],[2.1269127,48.8203304],[2.1329688,48.8193314],[2.1371155,48.8188018],[2.1371804,48.8188004],[2.1374382,48.8189144]]]]},"properties":{"code_section":"78158000AH","code_commune":"78158","section_courte":"AH"}},{"type":"Feature","geometry":{"type":"MultiPolygon","coordinates":[[[[2.1293742,48.8155024],[2.1295442,48.8153081],[2.1295678,48.8151965],[2.12953,48.8150476],[2.1359455,48.8140256],[2.1359814,48.814043],[2.1367491,48.8183678],[2.1368946,48.8186075],[2.1371804,48.8188004],[2.1328301,48.8193506],[2.1269127,48.8203304],[2.1268188,48.8196193],[2.1266333,48.8192087],[2.1257063,48.8175606],[2.1254837,48.8173005],[2.1249588,48.8168463],[2.1285089,48.8155366],[2.1287554,48.815618],[2.1288825,48.8156244],[2.1290469,48.8159097],[2.1295425,48.8157832],[2.1293742,48.8155024]]]]},"properties":{"code_section":"78158000AI","code_commune":"78158","section_courte":"AI"}},{"type":"Feature","geometry":{"type":"MultiPolygon","coordinates":[[[[2.1182951,48.8193016],[2.1249588,48.8168463],[2.1254837,48.8173005],[2.1257063,48.8175606],[2.1267853,48.8195335],[2.1269127,48.8203304],[2.1274161,48.8214221],[2.1274495,48.8216354],[2.1273676,48.8225585],[2.1268838,48.8225592],[2.1264407,48.8224726],[2.1230375,48.8211214],[2.1225514,48.820994],[2.1222931,48.8209788],[2.1212038,48.8210309],[2.1204037,48.820866],[2.1195572,48.8217404],[2.1174151,48.8206178],[2.1158311,48.8209502],[2.1154838,48.820337],[2.1182951,48.8193016]]]]},"properties":{"code_section":"78158000AK","code_commune":"78158","section_courte":"AK"}},{"type":"Feature","geometry":{"type":"MultiPolygon","coordinates":[[[[2.1289205,48.8276531],[2.1319344,48.8270005],[2.1331251,48.8290081],[2.1310786,48.8295447],[2.1294824,48.8296152],[2.1291587,48.8296668],[2.1293393,48.8292486],[2.1293612,48.8285677],[2.1292452,48.828289],[2.1290238,48.8279793],[2.1289505,48.8280193],[2.1268274,48.8280557],[2.1267637,48.8280068],[2.1262891,48.8284105],[2.1258898,48.8282126],[2.1256184,48.8281246],[2.1256639,48.8273176],[2.1259822,48.8265114],[2.1260115,48.8260818],[2.125887,48.8251524],[2.1257006,48.8244261],[2.1257072,48.8241186],[2.1265685,48.8231742],[2.1240876,48.8225666],[2.1245611,48.8217466],[2.1264407,48.8224726],[2.1268838,48.8225592],[2.1273676,48.8225585],[2.1273634,48.8226974],[2.1279807,48.8251078],[2.1285548,48.8270916],[2.1288303,48.8276642],[2.1289205,48.8276531]]]]},"properties":{"code_section":"78158000AL","code_commune":"78158","section_courte":"AL"}},{"type":"Feature","geometry":{"type":"MultiPolygon","coordinates":[[[[2.1264429,48.8308183],[2.1254941,48.829995],[2.1253093,48.8299269],[2.1251867,48.8290095],[2.1254191,48.8286384],[2.1255331,48.8280826],[2.1258898,48.8282126],[2.1262891,48.8284105],[2.1267637,48.8280068],[2.1268274,48.8280557],[2.1289505,48.8280193],[2.1290238,48.8279793],[2.1292452,48.828289],[2.1293548,48.8285193],[2.1293456,48.8292111],[2.1291587,48.8296668],[2.1289846,48.8298605],[2.1282758,48.8311459],[2.1282151,48.8313391],[2.1281914,48.8318375],[2.1282482,48.8322533],[2.128321,48.8325339],[2.1284567,48.8327765],[2.1282274,48.8328064],[2.1279003,48.8323382],[2.1271342,48.8314183],[2.1264429,48.8308183]]]]},"properties":{"code_section":"78158000AM","code_commune":"78158","section_courte":"AM"}},{"type":"Feature","geometry":{"type":"MultiPolygon","coordinates":[[[[2.1196374,48.8216568],[2.1204037,48.820866],[2.1212038,48.8210309],[2.1222931,48.8209788],[2.1227389,48.8210296],[2.1230375,48.8211214],[2.1245611,48.8217466],[2.1240876,48.8225666],[2.1265685,48.8231742],[2.1257072,48.8241186],[2.1257006,48.8244261],[2.125887,48.8251524],[2.1260115,48.8260818],[2.1259822,48.8265114],[2.1257165,48.827167],[2.125635,48.8274843],[2.1252003,48.8275321],[2.1247714,48.827617],[2.1239608,48.8278448],[2.1230899,48.8280411],[2.1227707,48.8280353],[2.1222679,48.8281085],[2.1218082,48.8281041],[2.1208822,48.8282532],[2.1208711,48.8283551],[2.1203327,48.8284894],[2.1158311,48.8209502],[2.1174151,48.8206178],[2.1195572,48.8217404],[2.1196374,48.8216568]]]]},"properties":{"code_section":"78158000AN","code_commune":"78158","section_courte":"AN"}},{"type":"Feature","geometry":{"type":"MultiPolygon","coordinates":[[[[2.1156895,48.8233424],[2.1146639,48.8232343],[2.1147756,48.8227057],[2.1144307,48.8226547],[2.1144581,48.8225351],[2.1140855,48.8224974],[2.114508,48.8207831],[2.1142783,48.8207442],[2.1140891,48.8206365],[2.1145682,48.8205404],[2.1150966,48.8204837],[2.1154838,48.820337],[2.1166169,48.8223132],[2.11734,48.8234914],[2.1172297,48.8235006],[2.1156895,48.8233424]]]]},"properties":{"code_section":"78158000AO","code_commune":"78158","section_courte":"AO"}},{"type":"Feature","geometry":{"type":"MultiPolygon","coordinates":[[[[2.1130537,48.8267518],[2.1140855,48.8224974],[2.1144581,48.8225351],[2.1144307,48.8226547],[2.1147756,48.8227057],[2.1146639,48.8232343],[2.1172297,48.8235006],[2.11734,48.8234914],[2.1202413,48.8283501],[2.1181689,48.8288085],[2.1184804,48.8297585],[2.1175588,48.8303749],[2.1177201,48.8306346],[2.117087,48.8308157],[2.1168742,48.8309584],[2.1164306,48.8307999],[2.1161445,48.8304656],[2.1158879,48.8303083],[2.115182,48.8300683],[2.1150182,48.8300798],[2.1148389,48.8299895],[2.1144273,48.8302291],[2.1142329,48.8301377],[2.1140225,48.8301262],[2.1139283,48.8300664],[2.1134866,48.8287014],[2.1126153,48.8286104],[2.1130537,48.8267518]]]]},"properties":{"code_section":"78158000AP","code_commune":"78158","section_courte":"AP"}},{"type":"Feature","geometry":{"type":"MultiPolygon","coordinates":[[[[2.1230899,48.8280411],[2.1239608,48.8278448],[2.1247714,48.827617],[2.1252003,48.8275321],[2.125635,48.8274843],[2.1256171,48.8276768],[2.1256602,48.8276818],[2.1256184,48.8281246],[2.1255331,48.8280826],[2.1254191,48.8286384],[2.1251867,48.8290095],[2.1253093,48.8299269],[2.1254941,48.829995],[2.1271135,48.8313971],[2.1279003,48.8323382],[2.1282274,48.8328064],[2.1207562,48.8341933],[2.1201617,48.8340745],[2.1199112,48.8339588],[2.1197903,48.8338033],[2.1197932,48.8336448],[2.1198549,48.8335429],[2.1198057,48.8335084],[2.1190067,48.8339346],[2.1187721,48.8337738],[2.1167739,48.8326507],[2.116521,48.8324116],[2.1163858,48.8321154],[2.1163871,48.8318381],[2.1165071,48.8314169],[2.1167368,48.8309088],[2.1168742,48.8309584],[2.117087,48.8308157],[2.1177201,48.8306346],[2.1175588,48.8303749],[2.1184804,48.8297585],[2.1181689,48.8288085],[2.1202413,48.8283501],[2.1203327,48.8284894],[2.1208711,48.8283551],[2.1208822,48.8282532],[2.1218082,48.8281041],[2.1222679,48.8281085],[2.1227707,48.8280353],[2.1230899,48.8280411]]]]},"properties":{"code_section":"78158000AR","code_commune":"78158","section_courte":"AR"}},{"type":"Feature","geometry":{"type":"MultiPolygon","coordinates":[[[[2.1308107,48.8298461],[2.1306723,48.8295612],[2.1310786,48.8295447],[2.1331251,48.8290081],[2.1343056,48.8286458],[2.1353671,48.8284127],[2.1382252,48.8280211],[2.1428929,48.8256906],[2.1442479,48.8268404],[2.1457151,48.8274933],[2.1464247,48.8279198],[2.1468481,48.8281156],[2.1472561,48.8282627],[2.1484989,48.8285845],[2.1469715,48.8330347],[2.1459351,48.8358571],[2.1458369,48.8368994],[2.1442121,48.836892],[2.1338634,48.8354896],[2.1293622,48.8351451],[2.1293922,48.8349339],[2.1290222,48.8337797],[2.1283222,48.8325366],[2.1282677,48.8323519],[2.1281914,48.8318375],[2.1282391,48.8312478],[2.1283323,48.8312568],[2.128526,48.8312187],[2.1312063,48.830645],[2.1308107,48.8298461]]]]},"properties":{"code_section":"78158000AS","code_commune":"78158","section_courte":"AS"}},{"type":"Feature","geometry":{"type":"MultiPolygon","coordinates":[[[[2.0968245,48.8355359],[2.0963676,48.8354631],[2.0891328,48.826476],[2.092036,48.8232315],[2.0955191,48.825399],[2.0957416,48.8254789],[2.1025792,48.8234471],[2.103192,48.8236916],[2.1043198,48.8244035],[2.1044717,48.8245527],[2.1048741,48.8251142],[2.1055184,48.8258517],[2.1059304,48.8261784],[2.1066885,48.8266484],[2.1075088,48.827021],[2.1126043,48.8286416],[2.1112148,48.8342582],[2.1109753,48.8355905],[2.1053487,48.8364804],[2.1035757,48.8365582],[2.101494,48.8363784],[2.1015096,48.8362459],[2.1005402,48.836105],[2.1003456,48.8360995],[2.0968245,48.8355359]]]]},"properties":{"code_section":"781585240B","code_commune":"78158","section_courte":"5240B"}},{"type":"Feature","geometry":{"type":"MultiPolygon","coordinates":[[[[2.0964114,48.8355608],[2.0963676,48.8354631],[2.1003456,48.8360995],[2.1005402,48.836105],[2.1015096,48.8362459],[2.101494,48.8363784],[2.1035757,48.8365582],[2.1035866,48.8368428],[2.1070987,48.8376349],[2.107234,48.8381191],[2.1103106,48.837848],[2.110739,48.8378892],[2.1107783,48.8377193],[2.1108842,48.8377039],[2.111315,48.837945],[2.1106053,48.8409955],[2.1099472,48.8409487],[2.1098762,48.8412012],[2.1096362,48.8411923],[2.1064905,48.8415995],[2.1053888,48.8418255],[2.1051139,48.842422],[2.1029631,48.8431024],[2.1025723,48.8419361],[2.102648,48.8418441],[2.1020757,48.8401168],[2.1013319,48.8382742],[2.0990411,48.8385071],[2.0967495,48.8385732],[2.0963354,48.838262],[2.0957626,48.8376209],[2.0956066,48.8372715],[2.0954823,48.8367566],[2.0952183,48.836593],[2.0949048,48.8362275],[2.0964323,48.8355996],[2.0964114,48.8355608]]]]},"properties":{"code_section":"78158524AA","code_commune":"78158","section_courte":"524AA"}},{"type":"Feature","geometry":{"type":"MultiPolygon","coordinates":[[[[2.1101891,48.8378587],[2.107234,48.8381191],[2.1070987,48.8376349],[2.1035866,48.8368428],[2.1035757,48.8365582],[2.1053487,48.8364804],[2.1109753,48.8355905],[2.1112148,48.8342582],[2.1112539,48.8343151],[2.1118627,48.8340467],[2.1122119,48.8336671],[2.1122514,48.8338188],[2.1119913,48.8351982],[2.1115904,48.8366512],[2.111315,48.837945],[2.1108842,48.8377039],[2.1107783,48.8377193],[2.110739,48.8378892],[2.1101891,48.8378587]]]]},"properties":{"code_section":"78158524AB","code_commune":"78158","section_courte":"524AB"}},{"type":"Feature","geometry":{"type":"MultiPolygon","coordinates":[[[[2.1208164,48.8363915],[2.1190123,48.8368385],[2.1197604,48.8387587],[2.1198684,48.8387967],[2.1198246,48.8388695],[2.1197694,48.8388807],[2.119691,48.838837],[2.1183058,48.8391941],[2.1167512,48.8397558],[2.1167784,48.8397979],[2.1166231,48.83987],[2.1165744,48.8398326],[2.1155899,48.8402805],[2.1151373,48.8403579],[2.1142668,48.8404345],[2.1143004,48.8405188],[2.1120081,48.8408987],[2.1111269,48.8405303],[2.1107393,48.840416],[2.1115904,48.8366512],[2.1119282,48.8354652],[2.1132668,48.8355916],[2.1158214,48.8360143],[2.1176218,48.8362589],[2.1193688,48.8362443],[2.1204901,48.836115],[2.120645,48.8361932],[2.1208164,48.8363915]]]]},"properties":{"code_section":"78158524AC","code_commune":"78158","section_courte":"524AC"}},{"type":"Feature","geometry":{"type":"MultiPolygon","coordinates":[[[[2.1191086,48.8339749],[2.1204901,48.836115],[2.1193688,48.8362443],[2.1176218,48.8362589],[2.1158214,48.8360143],[2.1132668,48.8355916],[2.1119282,48.8354652],[2.1122514,48.8338188],[2.1122119,48.8336671],[2.1118627,48.8340467],[2.1112539,48.8343151],[2.1112148,48.8342582],[2.1126022,48.828612],[2.1135161,48.8287097],[2.1139036,48.8300343],[2.113977,48.8301041],[2.1140947,48.8301364],[2.1151838,48.8300735],[2.1158831,48.8303083],[2.1161828,48.8304898],[2.1164235,48.8307935],[2.1167133,48.8309351],[2.1165352,48.8313071],[2.1163713,48.8319104],[2.1163912,48.8321618],[2.1165503,48.83245],[2.1168756,48.8327174],[2.1191086,48.8339749]]]]},"properties":{"code_section":"78158524AD","code_commune":"78158","section_courte":"524AD"}}]}