{"type":"FeatureCollection","features":[{"type":"Feature","geometry":{"type":"MultiPolygon","coordinates":[[[[2.0181541,48.7239877],[2.0158026,48.7244045],[2.0157803,48.7243718],[2.0165528,48.7241075],[2.0160738,48.7238277],[2.0152228,48.7235209],[2.0148491,48.7226659],[2.0142851,48.7219445],[2.013971,48.7206806],[2.0138192,48.7203847],[2.0134603,48.7199788],[2.0136304,48.719759],[2.0140194,48.719534],[2.0121581,48.7181899],[2.0110262,48.718389],[2.0107215,48.7171063],[2.0106773,48.7170936],[2.0110386,48.7166138],[2.0108492,48.7162423],[2.010723,48.7158226],[2.0101585,48.7150942],[2.0089715,48.7140011],[2.0086866,48.7138291],[2.0079096,48.7134896],[2.0077498,48.713387],[2.0083941,48.712395],[2.0085459,48.7120441],[2.0086224,48.7116301],[2.008837,48.7112266],[2.0089636,48.7110697],[2.0093195,48.7107779],[2.0101036,48.7103775],[2.0117272,48.7097485],[2.0123715,48.7095894],[2.0125612,48.7096474],[2.012246,48.7093527],[2.0143859,48.7087602],[2.0144675,48.7088373],[2.0158374,48.7084763],[2.0162068,48.7083168],[2.0172238,48.7077365],[2.0177771,48.7073998],[2.0176484,48.7073636],[2.017346,48.7066697],[2.0180347,48.7065253],[2.0178897,48.7061836],[2.0186851,48.7060537],[2.0185177,48.7054377],[2.0190525,48.7054001],[2.0194061,48.7054114],[2.0202081,48.7053492],[2.021731,48.7046796],[2.0221998,48.704531],[2.0238471,48.7044522],[2.0238611,48.7039939],[2.0239052,48.7039991],[2.0239368,48.7044023],[2.0243348,48.7044597],[2.0248811,48.7044433],[2.0256029,48.7046035],[2.0254698,48.7051391],[2.0281963,48.7058201],[2.0292398,48.7063445],[2.0293222,48.7064591],[2.0295782,48.7066434],[2.0299855,48.7065143],[2.0294146,48.7079379],[2.0296428,48.7080203],[2.0296909,48.7081007],[2.029251,48.7086371],[2.0290334,48.7088194],[2.0288797,48.7088693],[2.0286264,48.7091782],[2.0284373,48.7097652],[2.0280193,48.7098759],[2.0279027,48.7099682],[2.0275506,48.7099142],[2.0271071,48.7099181],[2.0270063,48.7098263],[2.0264529,48.7098539],[2.0259654,48.7100896],[2.025614,48.7105155],[2.0248992,48.710911],[2.0251493,48.7114374],[2.0239596,48.7119806],[2.023754,48.7120266],[2.0237338,48.7121912],[2.02562,48.7124345],[2.026045,48.7124725],[2.0274437,48.7124996],[2.0285079,48.712627],[2.0285162,48.7139315],[2.0307902,48.7140925],[2.0307325,48.71419],[2.0307491,48.7144388],[2.0305142,48.7149835],[2.0324217,48.7161276],[2.0328542,48.7158253],[2.0341979,48.7180755],[2.0359513,48.7178604],[2.0393237,48.7175136],[2.0392521,48.7161647],[2.039885,48.714751],[2.0400103,48.7142366],[2.0407801,48.7138951],[2.0420275,48.7134324],[2.0420477,48.7134529],[2.0420969,48.7134309],[2.0424469,48.7132574],[2.042399,48.7132118],[2.0432569,48.7127814],[2.0433236,48.7128147],[2.0448006,48.7126332],[2.0443784,48.7122938],[2.0433299,48.7116639],[2.0463946,48.7115416],[2.0467652,48.7115764],[2.0470176,48.7116752],[2.0465901,48.7104858],[2.0469866,48.7104537],[2.0470355,48.7104744],[2.0472691,48.7101931],[2.0477186,48.7098485],[2.0484468,48.7095534],[2.0495583,48.7091734],[2.0501257,48.7090175],[2.0507945,48.7089185],[2.050918,48.7088729],[2.0516224,48.7087535],[2.0521623,48.7087382],[2.052568,48.7086347],[2.0560887,48.7080796],[2.0566324,48.708035],[2.0568157,48.7080713],[2.0572415,48.7079838],[2.0574908,48.70787],[2.0579896,48.7077773],[2.0583753,48.7077396],[2.0588621,48.7077812],[2.0592134,48.7064017],[2.0596206,48.7065474],[2.0607234,48.7071228],[2.0610213,48.7074022],[2.0615518,48.7080983],[2.0622048,48.7086194],[2.0620622,48.7086821],[2.0603847,48.7089211],[2.060348,48.7092844],[2.0607557,48.7100792],[2.0608162,48.7103922],[2.0607448,48.7105136],[2.0610963,48.7107993],[2.0611731,48.7112477],[2.0608294,48.7113269],[2.0607101,48.7113123],[2.0601545,48.7111041],[2.0600244,48.7113848],[2.0604048,48.7114975],[2.0602045,48.7118472],[2.0597925,48.7118393],[2.0599913,48.7121145],[2.0599831,48.7122815],[2.0597244,48.7123083],[2.0597319,48.7124726],[2.0596288,48.7129089],[2.0591352,48.7136355],[2.0589292,48.7142629],[2.058981,48.7144774],[2.0591486,48.7146318],[2.0591524,48.7147309],[2.0586646,48.7158327],[2.0587083,48.716688],[2.0586471,48.7166774],[2.0585861,48.7169895],[2.0588496,48.7170448],[2.0586423,48.7173814],[2.0583105,48.7181316],[2.0579779,48.7180536],[2.0572203,48.7180359],[2.0572285,48.7187453],[2.0571374,48.719299],[2.0569312,48.7192672],[2.0568049,48.7194251],[2.0600742,48.7202778],[2.060608,48.7194845],[2.0608093,48.719026],[2.0610664,48.7181606],[2.0612282,48.7177939],[2.0616078,48.7172314],[2.0621606,48.7165284],[2.0622557,48.7165548],[2.0647954,48.7165764],[2.0645511,48.7170815],[2.0669166,48.717589],[2.0664673,48.7181222],[2.0662656,48.7182435],[2.0658873,48.718355],[2.0658944,48.7184144],[2.0660178,48.7184644],[2.0658499,48.7185758],[2.0657797,48.7186953],[2.0656346,48.7187836],[2.0655632,48.7189742],[2.0652416,48.7190858],[2.0653204,48.7192152],[2.0652815,48.7193486],[2.0653297,48.7196946],[2.065314,48.7199482],[2.0651417,48.7204845],[2.0650812,48.7205669],[2.0650639,48.7207279],[2.0648958,48.7207995],[2.0646066,48.721044],[2.0642274,48.7212743],[2.0641131,48.7213894],[2.0640716,48.7213954],[2.0639733,48.7213396],[2.063867,48.7214207],[2.0636773,48.7214335],[2.0634259,48.7215714],[2.0632466,48.7216278],[2.0637626,48.7219368],[2.0632478,48.7222857],[2.0626375,48.7228555],[2.0620485,48.7234769],[2.0610151,48.7239129],[2.0607834,48.7239037],[2.0605475,48.7240443],[2.0604393,48.7240672],[2.0602091,48.7242259],[2.0598075,48.7242352],[2.0596077,48.724035],[2.0593108,48.7238438],[2.0586769,48.7236544],[2.0585226,48.7236507],[2.0583208,48.7236927],[2.0582034,48.7237636],[2.0572749,48.7245816],[2.0569045,48.7244334],[2.0557375,48.7236418],[2.0557654,48.7235077],[2.05565,48.7227561],[2.0559168,48.7223082],[2.0556436,48.7217389],[2.0553456,48.7217041],[2.0552984,48.7217506],[2.0549866,48.721851],[2.0548372,48.7219703],[2.0546181,48.7223284],[2.0542956,48.7225121],[2.0536179,48.7227735],[2.0524415,48.7233245],[2.0514979,48.7236887],[2.0514915,48.7237723],[2.0514155,48.7237952],[2.0513499,48.7240128],[2.0511793,48.7240071],[2.05057,48.7237016],[2.0498107,48.723538],[2.0497535,48.7233517],[2.0494863,48.7228771],[2.0492093,48.7224984],[2.0484471,48.7226305],[2.0484415,48.7226779],[2.0453446,48.7228401],[2.0448117,48.7222487],[2.0443951,48.7228318],[2.0443502,48.7233477],[2.0445606,48.7237457],[2.0439358,48.7238603],[2.043674,48.7235968],[2.0426338,48.7238752],[2.042635,48.7246603],[2.0422433,48.7248431],[2.0415936,48.7254052],[2.0411687,48.7253382],[2.041134,48.7261532],[2.0406468,48.7260907],[2.0401604,48.7261188],[2.0395328,48.726202],[2.0385322,48.7264499],[2.0380378,48.7259134],[2.0377459,48.7259353],[2.0378063,48.7266281],[2.0373613,48.7265168],[2.0371352,48.7264883],[2.0368093,48.7264994],[2.0358494,48.726862],[2.0353575,48.7268811],[2.035136,48.7259173],[2.0340639,48.7258323],[2.0309392,48.7242199],[2.0313289,48.7230062],[2.029194,48.7220719],[2.0181541,48.7239877]],[[2.0546373,48.7090867],[2.0545689,48.7092573],[2.0547565,48.7094421],[2.0552511,48.7095316],[2.0552497,48.7101785],[2.0547078,48.7104749],[2.0544191,48.7107462],[2.0542839,48.7112097],[2.0538813,48.7114723],[2.0537046,48.7116444],[2.0536262,48.711825],[2.0535674,48.7126839],[2.0544129,48.7127689],[2.0549115,48.7128761],[2.0547054,48.7133162],[2.0547613,48.7136495],[2.0563305,48.7140198],[2.0565974,48.7136624],[2.0573614,48.7121331],[2.0578488,48.7119321],[2.0580732,48.7114766],[2.0581711,48.7111022],[2.0582092,48.7106609],[2.0588978,48.7093297],[2.0590389,48.7086181],[2.0591367,48.7085457],[2.0591684,48.7084063],[2.0583049,48.7081858],[2.0580143,48.7086893],[2.0576763,48.7087433],[2.056467,48.7090406],[2.0552154,48.708838],[2.0547271,48.708861],[2.0546373,48.7090867]]]]},"properties":{"code_section":"781600000A","code_commune":"78160","section_courte":"A"}},{"type":"Feature","geometry":{"type":"MultiPolygon","coordinates":[[[[2.0555859,48.7038573],[2.0555629,48.7041788],[2.0548105,48.7044108],[2.0544031,48.7045974],[2.0539682,48.7047128],[2.0533926,48.7049715],[2.0526692,48.7051356],[2.0524032,48.705285],[2.0521879,48.7053116],[2.0513359,48.7052072],[2.0512053,48.7051693],[2.0506514,48.7051593],[2.0500142,48.7048628],[2.0497739,48.7048657],[2.0496085,48.704067],[2.0494804,48.7040793],[2.0494091,48.7037377],[2.0485965,48.7040997],[2.0481769,48.7042399],[2.0479382,48.7042562],[2.0477158,48.7022505],[2.0479975,48.7022098],[2.0490611,48.7022648],[2.0490569,48.7022461],[2.0495721,48.7022583],[2.0510297,48.7022088],[2.0510392,48.7022443],[2.0533569,48.7019844],[2.0537712,48.7019749],[2.0547576,48.7020705],[2.0555961,48.7021892],[2.0554523,48.7023998],[2.0554411,48.702497],[2.0554849,48.7030115],[2.0555649,48.7033898],[2.0555859,48.7038573]]],[[[2.0322466,48.7021829],[2.0323279,48.7022196],[2.031944,48.7029935],[2.0318819,48.7029849],[2.0318343,48.7030894],[2.0315476,48.7030599],[2.031234,48.7039237],[2.0310002,48.7038094],[2.0302034,48.7030317],[2.0294632,48.7024684],[2.028415,48.7020159],[2.0280046,48.7020563],[2.0274802,48.7020505],[2.0272853,48.7020226],[2.0270475,48.7018437],[2.0269584,48.7017352],[2.026825,48.7014272],[2.0264175,48.7011589],[2.0262683,48.7011453],[2.0254513,48.7012045],[2.0251452,48.7013036],[2.0249285,48.7013162],[2.0244772,48.7012315],[2.0240716,48.7010373],[2.0235245,48.7009986],[2.0233968,48.7001609],[2.0230347,48.7003298],[2.022554,48.7003354],[2.0226338,48.6997806],[2.0222544,48.6998035],[2.021519,48.6968825],[2.0207646,48.6965541],[2.0209877,48.6963065],[2.0213412,48.6960674],[2.0218353,48.6958398],[2.0221119,48.6957535],[2.0225434,48.6956832],[2.0231106,48.695515],[2.0238224,48.6951616],[2.025067,48.6946988],[2.0252832,48.6945374],[2.0257292,48.69409],[2.0264917,48.6944059],[2.0268524,48.6946681],[2.0271391,48.6950049],[2.0275228,48.6952753],[2.0277621,48.6955871],[2.0279245,48.6957071],[2.0285324,48.6959261],[2.0292472,48.6963315],[2.0299387,48.696578],[2.0303138,48.6967753],[2.0312173,48.6974209],[2.0316923,48.6978963],[2.0318204,48.6980821],[2.0319155,48.6987361],[2.0311673,48.6997148],[2.0309569,48.7013047],[2.0314938,48.7017337],[2.0322466,48.7021829]]]]},"properties":{"code_section":"781600000B","code_commune":"78160","section_courte":"B"}},{"type":"Feature","geometry":{"type":"MultiPolygon","coordinates":[[[[2.0457422,48.6875468],[2.0480165,48.6877698],[2.0491455,48.6878337],[2.0495838,48.6878264],[2.0500531,48.687804],[2.0504785,48.6877189],[2.0509738,48.6875655],[2.0526388,48.6871387],[2.0530713,48.6873758],[2.0533121,48.6871902],[2.0541425,48.687068],[2.054858,48.6868906],[2.0552977,48.6868667],[2.0554351,48.6868308],[2.0563178,48.6869723],[2.0568183,48.6869939],[2.0576881,48.6871426],[2.0578521,48.68715],[2.0581943,48.6870665],[2.0585581,48.6877776],[2.0536924,48.6964286],[2.0537082,48.696733],[2.0538799,48.6974267],[2.0546531,48.6980037],[2.0549494,48.6981157],[2.0554773,48.6984527],[2.0557035,48.6986269],[2.0557931,48.6987534],[2.0558201,48.6989318],[2.0557843,48.6994095],[2.0558714,48.6997674],[2.0561498,48.7006272],[2.0563799,48.7009151],[2.0562622,48.7012746],[2.0560351,48.7016723],[2.0559334,48.701811],[2.0555107,48.7021768],[2.0547576,48.7020705],[2.0537712,48.7019749],[2.0533569,48.7019844],[2.0510392,48.7022443],[2.0510297,48.7022088],[2.0495721,48.7022583],[2.0490569,48.7022461],[2.0490611,48.7022648],[2.0479975,48.7022098],[2.0471656,48.7023073],[2.0462532,48.7023362],[2.0459866,48.7023797],[2.0450453,48.7027317],[2.044573,48.7029257],[2.044266,48.7031466],[2.0434095,48.7032984],[2.0433122,48.7032162],[2.0432331,48.703198],[2.0394663,48.7025902],[2.037894,48.702074],[2.0367035,48.7018097],[2.0377396,48.6995139],[2.0360012,48.6990396],[2.0361855,48.698743],[2.0352357,48.69839],[2.0353273,48.6982462],[2.0339849,48.6977842],[2.0339123,48.697681],[2.0332802,48.6972539],[2.0328613,48.6968516],[2.0326232,48.6972331],[2.0319072,48.6970721],[2.0318204,48.6980821],[2.031472,48.6976494],[2.0312173,48.6974209],[2.0303138,48.6967753],[2.0299387,48.696578],[2.0292472,48.6963315],[2.0285324,48.6959261],[2.0279245,48.6957071],[2.0277621,48.6955871],[2.0275228,48.6952753],[2.0271391,48.6950049],[2.0266789,48.6945165],[2.0262278,48.6942887],[2.0257994,48.6941269],[2.0258889,48.694023],[2.0259327,48.6937783],[2.02595,48.6933765],[2.0259068,48.6930011],[2.0260619,48.6926541],[2.026445,48.6921456],[2.0265005,48.6915469],[2.0266633,48.6911333],[2.0277167,48.6900444],[2.0277907,48.6899177],[2.0279096,48.689333],[2.0279248,48.6887211],[2.0280072,48.6885489],[2.0285502,48.6878699],[2.0288059,48.6873356],[2.0288265,48.6869588],[2.0287328,48.6863061],[2.0292122,48.6842857],[2.0292128,48.6839634],[2.0292538,48.6838432],[2.029549,48.683369],[2.0296576,48.6830452],[2.030202,48.6828379],[2.0308257,48.6825065],[2.03104,48.6824272],[2.0314673,48.6823086],[2.0323044,48.6821567],[2.0335269,48.6827004],[2.0346054,48.6827278],[2.035324,48.6827887],[2.0360934,48.6827382],[2.0364665,48.6825802],[2.0377113,48.6817793],[2.0385669,48.6813765],[2.0384331,48.6810759],[2.0383056,48.6809469],[2.0381215,48.6807919],[2.0377883,48.680614],[2.0377084,48.6802935],[2.0416863,48.6801675],[2.0426608,48.6800972],[2.0434135,48.6812556],[2.0436913,48.6817394],[2.0437333,48.6818918],[2.0435396,48.6821905],[2.0432407,48.6823926],[2.0428014,48.6825175],[2.0422361,48.6826027],[2.0423915,48.6835521],[2.0430704,48.6834798],[2.0442876,48.6856281],[2.0453384,48.685795],[2.0458027,48.6865682],[2.0457429,48.6867477],[2.0456777,48.6875334],[2.0457422,48.6875468]]]]},"properties":{"code_section":"781600000C","code_commune":"78160","section_courte":"C"}},{"type":"Feature","geometry":{"type":"MultiPolygon","coordinates":[[[[2.0088344,48.721158],[2.0083233,48.7212166],[2.0082369,48.72092],[2.0076183,48.7208546],[2.0065966,48.7206612],[2.0057866,48.7205868],[2.0046067,48.7206118],[2.0040998,48.7205921],[2.0034067,48.7203328],[2.0029647,48.7200876],[2.0029985,48.7199727],[2.0029621,48.7199219],[2.0024337,48.720079],[2.0019036,48.7131081],[2.003573,48.7127606],[2.007673,48.7133206],[2.0077771,48.7134233],[2.0086866,48.7138291],[2.0089715,48.7140011],[2.0101585,48.7150942],[2.010723,48.7158226],[2.0108492,48.7162423],[2.0110386,48.7166138],[2.0106773,48.7170936],[2.0107215,48.7171063],[2.0110262,48.718389],[2.0121581,48.7181899],[2.0140194,48.719534],[2.0136304,48.719759],[2.0134299,48.7199991],[2.0130274,48.7201933],[2.0127971,48.7204412],[2.0125408,48.7205812],[2.0118532,48.7208579],[2.0089277,48.7213287],[2.0088983,48.721329],[2.0088676,48.7211544],[2.0088344,48.721158]]]]},"properties":{"code_section":"781600000S","code_commune":"78160","section_courte":"S"}},{"type":"Feature","geometry":{"type":"MultiPolygon","coordinates":[[[[2.0621606,48.7165284],[2.0616078,48.7172314],[2.0612282,48.7177939],[2.0610664,48.7181606],[2.0608093,48.719026],[2.060608,48.7194845],[2.0600742,48.7202778],[2.0568049,48.7194251],[2.0569312,48.7192672],[2.0571374,48.719299],[2.0572285,48.7187453],[2.0572203,48.7180359],[2.0579779,48.7180536],[2.0583105,48.7181316],[2.0586423,48.7173814],[2.0588496,48.7170448],[2.0585861,48.7169895],[2.0586471,48.7166774],[2.0587083,48.716688],[2.0586571,48.7160614],[2.0621606,48.7165284]]]]},"properties":{"code_section":"78160000AA","code_commune":"78160","section_courte":"AA"}},{"type":"Feature","geometry":{"type":"MultiPolygon","coordinates":[[[[2.055059,48.7088452],[2.0552154,48.708838],[2.056467,48.7090406],[2.0576763,48.7087433],[2.0580143,48.7086893],[2.0583049,48.7081858],[2.0591684,48.7084063],[2.0591367,48.7085457],[2.0590389,48.7086181],[2.0588978,48.7093297],[2.0582092,48.7106609],[2.0581711,48.7111022],[2.0580732,48.7114766],[2.0578488,48.7119321],[2.0573614,48.7121331],[2.0565974,48.7136624],[2.0563305,48.7140198],[2.0547613,48.7136495],[2.0547054,48.7133162],[2.0549115,48.7128761],[2.0544129,48.7127689],[2.0535674,48.7126839],[2.0536262,48.711825],[2.0537046,48.7116444],[2.0538813,48.7114723],[2.0542839,48.7112097],[2.0544191,48.7107462],[2.0547078,48.7104749],[2.0552497,48.7101785],[2.0552511,48.7095316],[2.0547565,48.7094421],[2.0545689,48.7092573],[2.0547271,48.708861],[2.055059,48.7088452]]]]},"properties":{"code_section":"78160000AB","code_commune":"78160","section_courte":"AB"}},{"type":"Feature","geometry":{"type":"MultiPolygon","coordinates":[[[[2.0619122,48.7123069],[2.0622884,48.7123445],[2.0633248,48.7129925],[2.0626572,48.7144876],[2.0624479,48.7156405],[2.0622579,48.7162365],[2.0621199,48.7165226],[2.058664,48.7160624],[2.0586646,48.7158327],[2.0591524,48.7147309],[2.0591486,48.7146318],[2.058981,48.7144774],[2.0589297,48.7142902],[2.0590669,48.7138134],[2.0592906,48.7133774],[2.0596288,48.7129089],[2.0597319,48.7124726],[2.0597244,48.7123083],[2.0599831,48.7122815],[2.0599913,48.7121145],[2.0597925,48.7118393],[2.0600477,48.7118487],[2.0604385,48.7121883],[2.0605643,48.7122369],[2.0619122,48.7123069]]]]},"properties":{"code_section":"78160000AC","code_commune":"78160","section_courte":"AC"}},{"type":"Feature","geometry":{"type":"MultiPolygon","coordinates":[[[[2.0620622,48.7086821],[2.0622048,48.7086194],[2.0625455,48.7088803],[2.0627031,48.7090567],[2.0632644,48.7100892],[2.0633219,48.7104415],[2.0633936,48.7125735],[2.0633248,48.7129925],[2.0622402,48.7123273],[2.0605643,48.7122369],[2.0604385,48.7121883],[2.0600477,48.7118487],[2.0602045,48.7118472],[2.0604048,48.7114975],[2.0600244,48.7113848],[2.0601545,48.7111041],[2.0607101,48.7113123],[2.0608294,48.7113269],[2.0611731,48.7112477],[2.0610963,48.7107993],[2.0607448,48.7105136],[2.0608162,48.7103922],[2.0607557,48.7100792],[2.060348,48.7092844],[2.0603847,48.7089211],[2.0620622,48.7086821]]]]},"properties":{"code_section":"78160000AD","code_commune":"78160","section_courte":"AD"}},{"type":"Feature","geometry":{"type":"MultiPolygon","coordinates":[[[[2.0557256,48.7041585],[2.0560639,48.7041299],[2.0565709,48.7042231],[2.0567914,48.7041961],[2.0573798,48.7041987],[2.0579031,48.70411],[2.0582817,48.7041129],[2.0591274,48.7042483],[2.0594007,48.7041954],[2.0599957,48.7041469],[2.0602444,48.704027],[2.0604733,48.7041805],[2.0604859,48.7043219],[2.0604123,48.7045133],[2.0604473,48.7045873],[2.0606645,48.7046396],[2.0603419,48.7063506],[2.059841,48.7062853],[2.0592885,48.7062823],[2.0592206,48.7063147],[2.0588621,48.7077812],[2.0583753,48.7077396],[2.0579896,48.7077773],[2.0574908,48.70787],[2.0572415,48.7079838],[2.0568157,48.7080713],[2.0566324,48.708035],[2.0560887,48.7080796],[2.052568,48.7086347],[2.0521623,48.7087382],[2.0516224,48.7087535],[2.050918,48.7088729],[2.0507945,48.7089185],[2.0501257,48.7090175],[2.0495583,48.7091734],[2.0491371,48.7093283],[2.0487717,48.7088022],[2.0490713,48.7084039],[2.0491085,48.7082043],[2.0490386,48.7078486],[2.0488803,48.707435],[2.0514518,48.7069525],[2.0520559,48.7065288],[2.0528515,48.7061971],[2.0536166,48.7055522],[2.0541441,48.705197],[2.0545613,48.7049913],[2.0552729,48.7047567],[2.0554445,48.7046746],[2.0555275,48.704548],[2.0555629,48.7041788],[2.0557256,48.7041585]]]]},"properties":{"code_section":"78160000AE","code_commune":"78160","section_courte":"AE"}},{"type":"Feature","geometry":{"type":"MultiPolygon","coordinates":[[[[2.0470176,48.7116752],[2.0467652,48.7115764],[2.0463946,48.7115416],[2.0433299,48.7116639],[2.0431024,48.7115769],[2.0423998,48.7115127],[2.0417103,48.7113123],[2.0414348,48.7111786],[2.0414025,48.7108517],[2.0410973,48.7104906],[2.0412155,48.7101655],[2.0402897,48.7101926],[2.0400024,48.7101245],[2.0396676,48.7099566],[2.0394105,48.7099334],[2.0391111,48.7097574],[2.0388531,48.7095271],[2.0387758,48.709171],[2.0385795,48.7088611],[2.0388503,48.7086849],[2.0398901,48.7086845],[2.0410089,48.7082548],[2.0420621,48.7081231],[2.0433788,48.7078674],[2.0445968,48.707799],[2.045527,48.7076777],[2.0466969,48.7076677],[2.0471089,48.707636],[2.0488803,48.707435],[2.0490386,48.7078486],[2.0491085,48.7082043],[2.0490713,48.7084039],[2.0487717,48.7088022],[2.0491371,48.7093283],[2.0484468,48.7095534],[2.0477186,48.7098485],[2.0472691,48.7101931],[2.0470355,48.7104744],[2.0469866,48.7104537],[2.0465901,48.7104858],[2.0470176,48.7116752]]]]},"properties":{"code_section":"78160000AH","code_commune":"78160","section_courte":"AH"}},{"type":"Feature","geometry":{"type":"MultiPolygon","coordinates":[[[[2.0348305,48.7150201],[2.035416,48.7147445],[2.0364501,48.7143348],[2.0378128,48.7134677],[2.0391771,48.7127983],[2.0394243,48.712713],[2.0400613,48.7126172],[2.0401713,48.7125701],[2.0407824,48.7121112],[2.0412849,48.7116801],[2.0414828,48.71122],[2.0423998,48.7115127],[2.0429487,48.7115553],[2.0432308,48.7116181],[2.044167,48.7121563],[2.0448006,48.7126332],[2.0433236,48.7128147],[2.0432569,48.7127814],[2.042399,48.7132118],[2.0424469,48.7132574],[2.0420969,48.7134309],[2.0420477,48.7134529],[2.0420275,48.7134324],[2.0407801,48.7138951],[2.0394636,48.7145015],[2.035733,48.7148902],[2.0348305,48.7150201]]]]},"properties":{"code_section":"78160000AI","code_commune":"78160","section_courte":"AI"}},{"type":"Feature","geometry":{"type":"MultiPolygon","coordinates":[[[[2.034965,48.7149998],[2.035733,48.7148902],[2.0394211,48.7145096],[2.0400103,48.7142366],[2.039885,48.714751],[2.0392521,48.7161647],[2.0393237,48.7175136],[2.0359513,48.7178604],[2.0341979,48.7180755],[2.0328542,48.7158253],[2.0324217,48.7161276],[2.0305142,48.7149835],[2.0307491,48.7144388],[2.0307325,48.71419],[2.0307902,48.7140925],[2.0285162,48.7139315],[2.0285079,48.712627],[2.0288756,48.7126711],[2.0295749,48.7126762],[2.0315684,48.7124964],[2.0332896,48.71214],[2.0334989,48.7120883],[2.0336759,48.712],[2.0338659,48.7120712],[2.033773,48.7124277],[2.0336826,48.7125224],[2.0334823,48.7126299],[2.0329635,48.7128228],[2.0328871,48.7128915],[2.0328807,48.7129472],[2.0329524,48.7130392],[2.0339629,48.7137088],[2.0341391,48.7137065],[2.034385,48.7135995],[2.034665,48.7135414],[2.0347465,48.7135621],[2.0350716,48.713766],[2.0352241,48.7137835],[2.0355194,48.7137498],[2.0356349,48.7137621],[2.0367373,48.7141661],[2.0364501,48.7143348],[2.035416,48.7147445],[2.0348305,48.7150201],[2.034965,48.7149998]]]]},"properties":{"code_section":"78160000AK","code_commune":"78160","section_courte":"AK"}},{"type":"Feature","geometry":{"type":"MultiPolygon","coordinates":[[[[2.0239596,48.7119806],[2.0251493,48.7114374],[2.0248992,48.710911],[2.025614,48.7105155],[2.0259654,48.7100896],[2.0264529,48.7098539],[2.0270063,48.7098263],[2.0271071,48.7099181],[2.0275506,48.7099142],[2.0279027,48.7099682],[2.0280193,48.7098759],[2.0284004,48.7097875],[2.0284577,48.7097359],[2.0286264,48.7091782],[2.0288797,48.7088693],[2.0305829,48.7097389],[2.0309864,48.7096047],[2.0317296,48.7103206],[2.0318991,48.7102333],[2.0332192,48.711097],[2.0335564,48.7113822],[2.0338679,48.7117507],[2.0338659,48.7120712],[2.0336759,48.712],[2.0334989,48.7120883],[2.0332896,48.71214],[2.0315684,48.7124964],[2.0295749,48.7126762],[2.0288756,48.7126711],[2.0274437,48.7124996],[2.026045,48.7124725],[2.0237338,48.7121912],[2.023754,48.7120266],[2.0239596,48.7119806]]]]},"properties":{"code_section":"78160000AL","code_commune":"78160","section_courte":"AL"}},{"type":"Feature","geometry":{"type":"MultiPolygon","coordinates":[[[[2.0338679,48.7117507],[2.0341125,48.7112848],[2.0342534,48.7111172],[2.0344284,48.7109493],[2.0351116,48.710464],[2.0353464,48.7103455],[2.0364077,48.7101136],[2.0371552,48.7097998],[2.0380338,48.7093678],[2.0385795,48.7088611],[2.0387758,48.709171],[2.0388531,48.7095271],[2.0391111,48.7097574],[2.0394105,48.7099334],[2.0396676,48.7099566],[2.0400024,48.7101245],[2.0402897,48.7101926],[2.0412155,48.7101655],[2.0410973,48.7104906],[2.0414025,48.7108517],[2.0414348,48.7111786],[2.0414828,48.71122],[2.0412849,48.7116801],[2.0411917,48.7117743],[2.0401713,48.7125701],[2.0400613,48.7126172],[2.0394243,48.712713],[2.0391771,48.7127983],[2.0378128,48.7134677],[2.0367373,48.7141661],[2.0356349,48.7137621],[2.0355194,48.7137498],[2.0352241,48.7137835],[2.0350716,48.713766],[2.0347465,48.7135621],[2.034665,48.7135414],[2.034385,48.7135995],[2.0341391,48.7137065],[2.0339629,48.7137088],[2.0329524,48.7130392],[2.0328807,48.7129472],[2.0328871,48.7128915],[2.0329635,48.7128228],[2.0334823,48.7126299],[2.0336826,48.7125224],[2.033773,48.7124277],[2.0338659,48.7120712],[2.0338679,48.7117507]]]]},"properties":{"code_section":"78160000AM","code_commune":"78160","section_courte":"AM"}},{"type":"Feature","geometry":{"type":"MultiPolygon","coordinates":[[[[2.0346698,48.7076678],[2.0356419,48.7080931],[2.03618,48.7081968],[2.036772,48.7085674],[2.0368206,48.708619],[2.0368355,48.7088144],[2.0369779,48.7089707],[2.0380338,48.7093678],[2.0371552,48.7097998],[2.0364077,48.7101136],[2.0353464,48.7103455],[2.0351116,48.710464],[2.0344284,48.7109493],[2.0342534,48.7111172],[2.0341125,48.7112848],[2.0338679,48.7117507],[2.0335564,48.7113822],[2.0332192,48.711097],[2.0318991,48.7102333],[2.0317296,48.7103206],[2.0309864,48.7096047],[2.0305829,48.7097389],[2.0288885,48.7088738],[2.0290334,48.7088194],[2.029251,48.7086371],[2.0296909,48.7081007],[2.0296428,48.7080203],[2.0295578,48.707987],[2.0297165,48.7079146],[2.0303684,48.7077493],[2.0308527,48.707561],[2.0316424,48.7070511],[2.031836,48.7068658],[2.0321976,48.7061431],[2.032459,48.7058092],[2.0340489,48.7063373],[2.0339486,48.7065474],[2.0334803,48.7071107],[2.0346698,48.7076678]]]]},"properties":{"code_section":"78160000AN","code_commune":"78160","section_courte":"AN"}},{"type":"Feature","geometry":{"type":"MultiPolygon","coordinates":[[[[2.024734,48.7012783],[2.0250255,48.7013177],[2.0254513,48.7012045],[2.0262683,48.7011453],[2.0264175,48.7011589],[2.026825,48.7014272],[2.0269584,48.7017352],[2.0270475,48.7018437],[2.0272853,48.7020226],[2.0274802,48.7020505],[2.0280046,48.7020563],[2.028415,48.7020159],[2.0291768,48.7023263],[2.0294632,48.7024684],[2.0300154,48.7028678],[2.0310002,48.7038094],[2.0313088,48.7039492],[2.0320458,48.7040885],[2.0330971,48.7045816],[2.0323199,48.7057637],[2.032459,48.7058092],[2.0321976,48.7061431],[2.031836,48.7068658],[2.0316424,48.7070511],[2.0311108,48.7074151],[2.0306396,48.7076517],[2.0303684,48.7077493],[2.0297165,48.7079146],[2.0295578,48.707987],[2.029445,48.7079551],[2.0294146,48.7079379],[2.0299855,48.7065143],[2.0295782,48.7066434],[2.0293222,48.7064591],[2.0292398,48.7063445],[2.0281963,48.7058201],[2.0254698,48.7051391],[2.0256029,48.7046035],[2.0248811,48.7044433],[2.0243348,48.7044597],[2.0239368,48.7044023],[2.0239052,48.7039991],[2.0238611,48.7039939],[2.0242531,48.7020359],[2.0245177,48.7020487],[2.024734,48.7012783]]]]},"properties":{"code_section":"78160000AO","code_commune":"78160","section_courte":"AO"}},{"type":"Feature","geometry":{"type":"MultiPolygon","coordinates":[[[[2.0324795,48.6971998],[2.0326232,48.6972331],[2.0328613,48.6968516],[2.0328962,48.6968631],[2.0332802,48.6972539],[2.0339123,48.697681],[2.0339849,48.6977842],[2.0353273,48.6982462],[2.0352357,48.69839],[2.0361855,48.698743],[2.0360012,48.6990396],[2.0377396,48.6995139],[2.0367035,48.7018097],[2.0362834,48.7016811],[2.0359581,48.7014974],[2.0356764,48.7012875],[2.0355506,48.701259],[2.0356304,48.7014395],[2.0358599,48.7024042],[2.0361607,48.7032408],[2.0361118,48.7034482],[2.034865,48.7029089],[2.033517,48.7026513],[2.032975,48.7024964],[2.0326474,48.702364],[2.0322466,48.7021829],[2.0314938,48.7017337],[2.0309569,48.7013047],[2.0311673,48.6997148],[2.0319155,48.6987361],[2.0318204,48.6980821],[2.0319072,48.6970721],[2.0324795,48.6971998]]]]},"properties":{"code_section":"78160000AP","code_commune":"78160","section_courte":"AP"}},{"type":"Feature","geometry":{"type":"MultiPolygon","coordinates":[[[[2.0318819,48.7029849],[2.031944,48.7029935],[2.0323279,48.7022196],[2.032975,48.7024964],[2.033517,48.7026513],[2.034865,48.7029089],[2.0361118,48.7034482],[2.0364981,48.7036596],[2.0367288,48.7038251],[2.0372849,48.7043346],[2.0375922,48.7046488],[2.0376698,48.7047861],[2.0376693,48.7057256],[2.0377148,48.7059168],[2.0378402,48.7061628],[2.0379359,48.7062651],[2.0384433,48.706584],[2.0388013,48.7068738],[2.0391025,48.7073765],[2.0379143,48.7074473],[2.0373253,48.7073449],[2.0365441,48.7067401],[2.0363197,48.7066253],[2.0357668,48.7064973],[2.0340489,48.7063373],[2.0323199,48.7057637],[2.0330971,48.7045816],[2.0320458,48.7040885],[2.031234,48.7039237],[2.0315476,48.7030599],[2.0318343,48.7030894],[2.0318819,48.7029849]]]]},"properties":{"code_section":"78160000AR","code_commune":"78160","section_courte":"AR"}},{"type":"Feature","geometry":{"type":"MultiPolygon","coordinates":[[[[2.0430764,48.7034403],[2.0426016,48.7038649],[2.0422859,48.703964],[2.0416447,48.703989],[2.0408467,48.704106],[2.0399905,48.7042454],[2.03893,48.7044845],[2.0378505,48.7045471],[2.0376581,48.7045913],[2.0375363,48.7045612],[2.0367288,48.7038251],[2.0364981,48.7036596],[2.0361118,48.7034482],[2.0361607,48.7032408],[2.0358599,48.7024042],[2.0356304,48.7014395],[2.0355506,48.701259],[2.0356764,48.7012875],[2.0361714,48.7016262],[2.0364875,48.7017507],[2.037894,48.702074],[2.0395618,48.7026156],[2.0433122,48.7032162],[2.0434095,48.7032984],[2.0430764,48.7034403]]]]},"properties":{"code_section":"78160000AS","code_commune":"78160","section_courte":"AS"}},{"type":"Feature","geometry":{"type":"MultiPolygon","coordinates":[[[[2.0479382,48.7042562],[2.0477252,48.7043431],[2.0475754,48.7045538],[2.047093,48.7050345],[2.0468124,48.7054493],[2.0465368,48.7056417],[2.0456844,48.7060252],[2.045795,48.7076688],[2.0448817,48.7077555],[2.0437622,48.7074764],[2.0428737,48.7075383],[2.0416034,48.707514],[2.0409183,48.7075478],[2.0395697,48.7075188],[2.0391025,48.7073765],[2.0388013,48.7068738],[2.0384433,48.706584],[2.0379359,48.7062651],[2.0378402,48.7061628],[2.0377148,48.7059168],[2.037658,48.7055199],[2.0376698,48.7047861],[2.0374666,48.7045186],[2.0376581,48.7045913],[2.0378505,48.7045471],[2.03893,48.7044845],[2.0402075,48.7042061],[2.0416447,48.703989],[2.0422859,48.703964],[2.0424533,48.7039229],[2.0427282,48.7037783],[2.0429475,48.7035407],[2.0432587,48.7033471],[2.044266,48.7031466],[2.044573,48.7029257],[2.0450453,48.7027317],[2.0459866,48.7023797],[2.0462532,48.7023362],[2.0470798,48.7023132],[2.0477158,48.7022505],[2.0479382,48.7042562]]]]},"properties":{"code_section":"78160000AT","code_commune":"78160","section_courte":"AT"}},{"type":"Feature","geometry":{"type":"MultiPolygon","coordinates":[[[[2.0391025,48.7073765],[2.0395697,48.7075188],[2.0397665,48.7075404],[2.0409183,48.7075478],[2.0416034,48.707514],[2.0428737,48.7075383],[2.0437622,48.7074764],[2.0448817,48.7077555],[2.0442784,48.7078269],[2.0436202,48.7078372],[2.0433788,48.7078674],[2.0420621,48.7081231],[2.0410089,48.7082548],[2.0398901,48.7086845],[2.0388503,48.7086849],[2.0385795,48.7088611],[2.0380338,48.7093678],[2.0369779,48.7089707],[2.0368355,48.7088144],[2.0368206,48.708619],[2.036772,48.7085674],[2.03618,48.7081968],[2.0356419,48.7080931],[2.0353595,48.7079865],[2.0334803,48.7071107],[2.0339486,48.7065474],[2.0340489,48.7063373],[2.0357668,48.7064973],[2.0363197,48.7066253],[2.0365441,48.7067401],[2.0373253,48.7073449],[2.0379143,48.7074473],[2.0391025,48.7073765]]]]},"properties":{"code_section":"78160000AV","code_commune":"78160","section_courte":"AV"}},{"type":"Feature","geometry":{"type":"MultiPolygon","coordinates":[[[[2.0497739,48.7048657],[2.0500142,48.7048628],[2.0506514,48.7051593],[2.0512053,48.7051693],[2.0513359,48.7052072],[2.0522596,48.7053136],[2.0524032,48.705285],[2.0526692,48.7051356],[2.0533926,48.7049715],[2.0539682,48.7047128],[2.0544031,48.7045974],[2.0548105,48.7044108],[2.0555629,48.7041788],[2.0555275,48.704548],[2.0554445,48.7046746],[2.0552729,48.7047567],[2.0545613,48.7049913],[2.0541441,48.705197],[2.0536166,48.7055522],[2.0528515,48.7061971],[2.0520559,48.7065288],[2.0514518,48.7069525],[2.0488803,48.707435],[2.0466969,48.7076677],[2.045795,48.7076688],[2.0456844,48.7060252],[2.0465368,48.7056417],[2.0468124,48.7054493],[2.047093,48.7050345],[2.0475754,48.7045538],[2.0477676,48.7043081],[2.0479382,48.7042562],[2.0481769,48.7042399],[2.0485965,48.7040997],[2.0494091,48.7037377],[2.0494804,48.7040793],[2.0496085,48.704067],[2.0497739,48.7048657]]]]},"properties":{"code_section":"78160000AW","code_commune":"78160","section_courte":"AW"}}]}