{"type":"FeatureCollection","features":[{"type":"Feature","geometry":{"type":"MultiPolygon","coordinates":[[[[2.0825422,49.0028489],[2.0821443,49.0026184],[2.0802226,49.0023485],[2.0801475,49.0025657],[2.0775228,49.0020927],[2.0775388,49.0020522],[2.0755676,49.0017205],[2.0753125,49.0021243],[2.0741988,49.0019398],[2.0735328,49.0017493],[2.0728532,49.0018184],[2.0727858,49.0018456],[2.0715836,49.0017198],[2.072033,49.000405],[2.07219,48.9988871],[2.072155,48.9981174],[2.0727542,48.998199],[2.0755651,48.9987346],[2.0762666,48.9966255],[2.0804817,48.9975368],[2.0812994,48.9988426],[2.081863,48.9993736],[2.0826919,49.0004709],[2.0836599,49.0021565],[2.0830819,49.0030904],[2.0830508,49.0030822],[2.0831043,49.0029862],[2.0825422,49.0028489]]]]},"properties":{"code_section":"78172000AB","code_commune":"78172","section_courte":"AB"}},{"type":"Feature","geometry":{"type":"MultiPolygon","coordinates":[[[[2.0909299,49.0013971],[2.0910361,49.0022912],[2.0911078,49.0037827],[2.0912475,49.0054723],[2.0896145,49.0057332],[2.0887024,49.0056771],[2.0873033,49.0057617],[2.0860751,49.0056545],[2.0858686,49.0055859],[2.0859089,49.005487],[2.0858353,49.0053635],[2.0847559,49.0050921],[2.084709,49.0051697],[2.0838753,49.0049657],[2.0845702,49.003715],[2.0838107,49.003542],[2.0839581,49.0032501],[2.0830819,49.0030904],[2.0836599,49.0021565],[2.0826767,49.0004496],[2.0832243,48.9996146],[2.0834202,48.999469],[2.0848154,48.9993862],[2.086084,48.9994024],[2.086755,48.9989408],[2.0875832,48.9989001],[2.0882952,48.9989684],[2.0882166,48.9993776],[2.0886553,48.9994219],[2.0888658,48.9992496],[2.0894535,48.998897],[2.0907038,48.9983286],[2.0909299,49.0013971]]]]},"properties":{"code_section":"78172000AC","code_commune":"78172","section_courte":"AC"}},{"type":"Feature","geometry":{"type":"MultiPolygon","coordinates":[[[[2.0861564,49.0084927],[2.0862091,49.0084456],[2.0864615,49.0077431],[2.0866493,49.0068779],[2.0881332,49.006987],[2.0881524,49.0069099],[2.0889232,49.0069709],[2.0889156,49.0070512],[2.0892141,49.0070703],[2.0892098,49.0071922],[2.0889158,49.0071808],[2.0889155,49.0072787],[2.0889711,49.007281],[2.0889076,49.0075786],[2.0891095,49.0075848],[2.089131,49.0081332],[2.0903386,49.0081844],[2.0904789,49.0089605],[2.0902989,49.0089658],[2.0903541,49.009234],[2.0905411,49.0092333],[2.0905318,49.0096488],[2.0906719,49.009651],[2.0908684,49.0107135],[2.0906468,49.010732],[2.0908213,49.0113519],[2.0906203,49.0113693],[2.0908704,49.0121214],[2.0909705,49.0121093],[2.09126,49.0129553],[2.0849578,49.0146196],[2.0827051,49.0094704],[2.0824489,49.0093867],[2.0820809,49.0091331],[2.0797954,49.0079695],[2.0786341,49.0074562],[2.0781988,49.0073239],[2.0747388,49.0065087],[2.0753531,49.0033913],[2.0753515,49.0031097],[2.0752462,49.0026571],[2.0752331,49.0023849],[2.0753125,49.0021243],[2.0755676,49.0017205],[2.0775388,49.0020522],[2.0775228,49.0020927],[2.0801475,49.0025657],[2.0802226,49.0023485],[2.0821454,49.0026186],[2.0825422,49.0028489],[2.0831043,49.0029862],[2.0830508,49.0030822],[2.0839581,49.0032501],[2.0838107,49.003542],[2.0845702,49.003715],[2.0838753,49.0049657],[2.084709,49.0051697],[2.0847559,49.0050921],[2.0858353,49.0053635],[2.0859089,49.005487],[2.0858686,49.0055859],[2.0860751,49.0056545],[2.0858914,49.005779],[2.0850533,49.0065494],[2.0846699,49.0068315],[2.0859013,49.0081102],[2.0861564,49.0084927]]]]},"properties":{"code_section":"78172000AD","code_commune":"78172","section_courte":"AD"}},{"type":"Feature","geometry":{"type":"MultiPolygon","coordinates":[[[[2.0915194,49.0047526],[2.093535,49.0050953],[2.093541,49.0055408],[2.0944812,49.0056713],[2.0941792,49.0090602],[2.093316,49.0089476],[2.0927891,49.0125471],[2.09126,49.0129553],[2.0909705,49.0121093],[2.0908704,49.0121214],[2.0906203,49.0113693],[2.0908213,49.0113519],[2.0906468,49.010732],[2.0908684,49.0107135],[2.0906719,49.009651],[2.0905318,49.0096488],[2.0905411,49.0092333],[2.0903541,49.009234],[2.0902989,49.0089658],[2.0904789,49.0089605],[2.0903386,49.0081844],[2.089131,49.0081332],[2.0891095,49.0075848],[2.0889076,49.0075786],[2.0889711,49.007281],[2.0889155,49.0072787],[2.0889158,49.0071808],[2.0892098,49.0071922],[2.0892141,49.0070703],[2.0889156,49.0070512],[2.0889232,49.0069709],[2.0881524,49.0069099],[2.0881332,49.006987],[2.0866493,49.0068779],[2.0864615,49.0077431],[2.0862091,49.0084456],[2.0861564,49.0084927],[2.0859013,49.0081102],[2.0846699,49.0068315],[2.0850533,49.0065494],[2.0858914,49.005779],[2.0860751,49.0056545],[2.0873033,49.0057617],[2.0887024,49.0056771],[2.0896145,49.0057332],[2.0912475,49.0054723],[2.0911849,49.0046999],[2.0915194,49.0047526]]]]},"properties":{"code_section":"78172000AE","code_commune":"78172","section_courte":"AE"}},{"type":"Feature","geometry":{"type":"MultiPolygon","coordinates":[[[[2.0910306,49.0022363],[2.0909299,49.0013971],[2.0907038,48.9983286],[2.09369,48.9973543],[2.0954802,48.9977668],[2.0968521,48.9981355],[2.0980707,48.998559],[2.0984045,48.9988331],[2.098878,48.9993375],[2.0992026,48.9997864],[2.0981234,49.0014062],[2.0978458,49.0021379],[2.0959444,49.0058538],[2.0953036,49.0057921],[2.093541,49.0055408],[2.093535,49.0050953],[2.0911849,49.0046999],[2.0910306,49.0022363]]]]},"properties":{"code_section":"78172000AH","code_commune":"78172","section_courte":"AH"}},{"type":"Feature","geometry":{"type":"MultiPolygon","coordinates":[[[[2.0971404,49.0035147],[2.0978458,49.0021379],[2.0981234,49.0014062],[2.0992026,48.9997864],[2.099775,49.0009463],[2.1003892,49.001685],[2.1006035,49.0018718],[2.1009795,49.0019228],[2.1016353,49.0009636],[2.1018614,49.0007467],[2.1023033,49.0011263],[2.1027315,49.0014326],[2.1046255,49.002217],[2.1064275,49.0027546],[2.106928,49.0029479],[2.1062588,49.0035531],[2.1055946,49.0044354],[2.104863,49.0052426],[2.104934,49.0054699],[2.1041931,49.006865],[2.0997519,49.0060762],[2.0993545,49.0067445],[2.0959444,49.0058538],[2.0971404,49.0035147]]]]},"properties":{"code_section":"78172000AI","code_commune":"78172","section_courte":"AI"}},{"type":"Feature","geometry":{"type":"MultiPolygon","coordinates":[[[[2.0942184,49.0086679],[2.0944812,49.0056713],[2.0959444,49.0058538],[2.099331,49.0067377],[2.1011697,49.0073332],[2.1009318,49.0087223],[2.1017088,49.0090166],[2.1017288,49.0088843],[2.101957,49.0089008],[2.1019879,49.0087225],[2.1033166,49.0089114],[2.1035469,49.0090408],[2.1040752,49.0099047],[2.1027655,49.0102626],[2.1010425,49.0106625],[2.099646,49.0108369],[2.0973821,49.0113321],[2.0957104,49.0119135],[2.0949103,49.0120573],[2.0927891,49.0125471],[2.093316,49.0089476],[2.0941792,49.0090602],[2.0942184,49.0086679]]]]},"properties":{"code_section":"78172000AK","code_commune":"78172","section_courte":"AK"}},{"type":"Feature","geometry":{"type":"MultiPolygon","coordinates":[[[[2.1048896,49.0053468],[2.104863,49.0052426],[2.1055946,49.0044354],[2.1062588,49.0035531],[2.106928,49.0029479],[2.1075797,49.0032276],[2.1085797,49.003789],[2.1109557,49.0049905],[2.1103558,49.0058052],[2.1101741,49.0063056],[2.1102583,49.007437],[2.1102356,49.0087553],[2.105716,49.009487],[2.1040752,49.0099047],[2.1035469,49.0090408],[2.1033166,49.0089114],[2.1019879,49.0087225],[2.101957,49.0089008],[2.1017288,49.0088843],[2.1017088,49.0090166],[2.1009318,49.0087223],[2.1011697,49.0073332],[2.0993545,49.0067445],[2.0997519,49.0060762],[2.1041931,49.006865],[2.104934,49.0054699],[2.1048896,49.0053468]]]]},"properties":{"code_section":"78172000AL","code_commune":"78172","section_courte":"AL"}},{"type":"Feature","geometry":{"type":"MultiPolygon","coordinates":[[[[2.1169147,49.0070507],[2.116915,49.0071145],[2.1167763,49.0073336],[2.1164925,49.0079723],[2.1166223,49.0079588],[2.1180672,49.007571],[2.1188059,49.0087051],[2.1193607,49.0093144],[2.1195106,49.0101552],[2.1193725,49.0106172],[2.119159,49.0109237],[2.1177883,49.0122001],[2.1156675,49.0140341],[2.1132698,49.0121764],[2.1127473,49.0118715],[2.111839,49.0112659],[2.1106133,49.0103498],[2.110528,49.0094885],[2.1102356,49.0087553],[2.1102583,49.007437],[2.1101741,49.0063056],[2.1103558,49.0058052],[2.1109557,49.0049905],[2.1125099,49.0056439],[2.1130827,49.0058017],[2.1142067,49.005821],[2.114783,49.005793],[2.1161449,49.0055528],[2.1160311,49.0061455],[2.115652,49.0070446],[2.1169147,49.0070507]]]]},"properties":{"code_section":"78172000AM","code_commune":"78172","section_courte":"AM"}},{"type":"Feature","geometry":{"type":"MultiPolygon","coordinates":[[[[2.1266785,49.0121868],[2.1212649,49.0183281],[2.1206656,49.0178572],[2.1200932,49.0173157],[2.1194301,49.0168578],[2.116446,49.0145601],[2.1156675,49.0140341],[2.1177883,49.0122001],[2.119159,49.0109237],[2.1193274,49.0107075],[2.1194363,49.0104319],[2.1195118,49.0101385],[2.1194705,49.0098043],[2.1196875,49.0095747],[2.1206333,49.0088306],[2.1230163,49.0103062],[2.1232989,49.0105872],[2.1239902,49.0099299],[2.1245311,49.0101461],[2.1248905,49.0097865],[2.1259522,49.0103101],[2.1256728,49.0105667],[2.1268677,49.0110958],[2.1266785,49.0121868]]]]},"properties":{"code_section":"78172000AN","code_commune":"78172","section_courte":"AN"}},{"type":"Feature","geometry":{"type":"MultiPolygon","coordinates":[[[[2.1237957,49.0101274],[2.1232989,49.0105872],[2.1230163,49.0103062],[2.1206333,49.0088306],[2.1196875,49.0095747],[2.1194705,49.0098043],[2.1193499,49.0092952],[2.1188059,49.0087051],[2.1180672,49.007571],[2.1166223,49.0079588],[2.1164925,49.0079723],[2.1167763,49.0073336],[2.116915,49.0071145],[2.1169147,49.0070507],[2.115652,49.0070446],[2.1160311,49.0061455],[2.1161449,49.0055528],[2.1167338,49.0054372],[2.1166479,49.0052311],[2.1187114,49.0049618],[2.1204509,49.004913],[2.1232986,49.0049534],[2.1236842,49.0049469],[2.1243009,49.0048755],[2.1258399,49.0073879],[2.1271302,49.009678],[2.1268677,49.0110958],[2.1256728,49.0105667],[2.1259522,49.0103101],[2.1248905,49.0097865],[2.1245311,49.0101461],[2.1239902,49.0099299],[2.1237957,49.0101274]]]]},"properties":{"code_section":"78172000AO","code_commune":"78172","section_courte":"AO"}},{"type":"Feature","geometry":{"type":"MultiPolygon","coordinates":[[[[2.1176455,48.9995651],[2.1221011,48.9988034],[2.1235509,49.0036418],[2.1243009,49.0048755],[2.1236842,49.0049469],[2.1232986,49.0049534],[2.1204509,49.004913],[2.1187114,49.0049618],[2.1166479,49.0052311],[2.1167338,49.0054372],[2.1148952,49.0057768],[2.1142067,49.005821],[2.1130624,49.0057989],[2.1125099,49.0056439],[2.1109557,49.0049905],[2.1125659,49.0029926],[2.1138077,49.0016825],[2.1144914,49.0008442],[2.1153404,49.0000262],[2.1160215,48.9998993],[2.1160061,48.9997962],[2.1176455,48.9995651]]]]},"properties":{"code_section":"78172000AP","code_commune":"78172","section_courte":"AP"}},{"type":"Feature","geometry":{"type":"MultiPolygon","coordinates":[[[[2.105594,48.9987848],[2.1056959,48.9986564],[2.1062998,48.9985303],[2.1085529,48.9973045],[2.108987,48.9976228],[2.1093507,48.9979447],[2.110809,48.9986805],[2.1116325,48.9991858],[2.1129026,48.9998967],[2.1138571,49.0005304],[2.1144914,49.0008442],[2.1138077,49.0016825],[2.1125659,49.0029926],[2.1109557,49.0049905],[2.1085797,49.003789],[2.1075691,49.0032224],[2.1064275,49.0027546],[2.1046255,49.002217],[2.1034312,49.0017324],[2.1058546,48.9991674],[2.1054471,48.9990388],[2.105594,48.9987848]]]]},"properties":{"code_section":"78172000AR","code_commune":"78172","section_courte":"AR"}},{"type":"Feature","geometry":{"type":"MultiPolygon","coordinates":[[[[2.1144189,48.9949866],[2.1151184,48.9950318],[2.1151782,48.9953007],[2.1153659,48.9953765],[2.1155485,48.9953662],[2.1160787,48.9955356],[2.1162519,48.9956401],[2.1166048,48.9955953],[2.1166643,48.9956401],[2.1166268,48.9959117],[2.1167747,48.9959349],[2.1170167,48.9960664],[2.1179713,48.9960336],[2.1192459,48.9958339],[2.1205357,48.9955412],[2.1211043,48.9954725],[2.1221011,48.9988034],[2.1182271,48.9994727],[2.1167877,48.9997043],[2.1160061,48.9997962],[2.1160215,48.9998993],[2.1153404,49.0000262],[2.1144914,49.0008442],[2.1141601,49.000693],[2.1137256,49.0004517],[2.1129026,48.9998967],[2.1116325,48.9991858],[2.110809,48.9986805],[2.1093507,48.9979447],[2.108987,48.9976228],[2.1085529,48.9973045],[2.110765,48.9956448],[2.1111802,48.9954664],[2.1112459,48.9952144],[2.1140289,48.9951232],[2.1140535,48.9949698],[2.1144189,48.9949866]]]]},"properties":{"code_section":"78172000AS","code_commune":"78172","section_courte":"AS"}},{"type":"Feature","geometry":{"type":"MultiPolygon","coordinates":[[[[2.1238653,48.9925867],[2.1240043,48.9935839],[2.1226794,48.993511],[2.1217001,48.9933758],[2.1206817,48.9932936],[2.1209522,48.9949669],[2.1211043,48.9954725],[2.1205357,48.9955412],[2.1191239,48.9958554],[2.1179713,48.9960336],[2.1170167,48.9960664],[2.1167747,48.9959349],[2.1166268,48.9959117],[2.1166558,48.9956179],[2.1166048,48.9955953],[2.1162519,48.9956401],[2.1160787,48.9955356],[2.1155485,48.9953662],[2.1153659,48.9953765],[2.1151782,48.9953007],[2.1151184,48.9950318],[2.1140535,48.9949698],[2.1140289,48.9951232],[2.1112459,48.9952144],[2.111238,48.9949871],[2.1110293,48.9948472],[2.1110597,48.9948071],[2.1109834,48.9933592],[2.1108986,48.9933543],[2.111025,48.9924586],[2.1111771,48.9924623],[2.1112024,48.9921074],[2.1112384,48.9921071],[2.1112371,48.9913829],[2.1121508,48.9914971],[2.1131871,48.9917245],[2.114825,48.9919283],[2.1162367,48.9919793],[2.1182865,48.9921771],[2.1201219,48.9923891],[2.1225619,48.992386],[2.1237747,48.9922943],[2.1238653,48.9925867]]]]},"properties":{"code_section":"78172000AT","code_commune":"78172","section_courte":"AT"}},{"type":"Feature","geometry":{"type":"MultiPolygon","coordinates":[[[[2.1043226,48.9927372],[2.1035906,48.9926866],[2.1037006,48.9925748],[2.1038743,48.9924698],[2.1042429,48.9923554],[2.10468,48.9921431],[2.1047776,48.9920251],[2.1047763,48.9918717],[2.1056419,48.9918899],[2.1086803,48.9916779],[2.1112371,48.9913829],[2.1112384,48.9921071],[2.1112024,48.9921074],[2.1111771,48.9924623],[2.111025,48.9924586],[2.1108986,48.9933543],[2.1109834,48.9933592],[2.1110597,48.9948071],[2.1110293,48.9948472],[2.111238,48.9949871],[2.1112459,48.9952144],[2.1111802,48.9954664],[2.110765,48.9956448],[2.1085529,48.9973045],[2.1062998,48.9985303],[2.1056959,48.9986564],[2.1056556,48.9986072],[2.1054966,48.998559],[2.1037957,48.9981363],[2.0998643,48.9970568],[2.1016567,48.9952285],[2.1014255,48.9950707],[2.1018057,48.9947528],[2.1018929,48.994713],[2.1023028,48.9946839],[2.1032121,48.9953444],[2.1042466,48.9947922],[2.1044412,48.9942421],[2.1042681,48.9932016],[2.1043226,48.9927372]]]]},"properties":{"code_section":"78172000AV","code_commune":"78172","section_courte":"AV"}},{"type":"Feature","geometry":{"type":"MultiPolygon","coordinates":[[[[2.0946194,48.99581],[2.0949078,48.9954826],[2.0980314,48.9964393],[2.0985796,48.9966856],[2.1016397,48.9975537],[2.1056556,48.9986072],[2.1056959,48.9986564],[2.1054471,48.9990388],[2.1058546,48.9991674],[2.1034312,49.0017324],[2.1027315,49.0014326],[2.1023033,49.0011263],[2.1018614,49.0007467],[2.1016353,49.0009636],[2.1009795,49.0019228],[2.1006035,49.0018718],[2.1003892,49.001685],[2.099775,49.0009463],[2.0991484,48.9996927],[2.098878,48.9993375],[2.0984045,48.9988331],[2.098106,48.9985776],[2.0968521,48.9981355],[2.0960814,48.9979163],[2.0938045,48.9973803],[2.0940888,48.9965509],[2.0946194,48.99581]]]]},"properties":{"code_section":"78172000AW","code_commune":"78172","section_courte":"AW"}},{"type":"Feature","geometry":{"type":"MultiPolygon","coordinates":[[[[2.1035906,48.9926866],[2.1043226,48.9927372],[2.1042681,48.9932016],[2.1044412,48.9942421],[2.1042466,48.9947922],[2.1032121,48.9953444],[2.1023028,48.9946839],[2.1018929,48.994713],[2.1018057,48.9947528],[2.1014255,48.9950707],[2.1016567,48.9952285],[2.0998643,48.9970568],[2.0985796,48.9966856],[2.0980314,48.9964393],[2.0949078,48.9954826],[2.0946929,48.9957134],[2.0945707,48.9956768],[2.0946174,48.9955756],[2.0945648,48.9955184],[2.0929592,48.9951629],[2.0929689,48.995142],[2.092233,48.9949498],[2.0925717,48.9945581],[2.0930082,48.9935834],[2.0938823,48.9941226],[2.0954596,48.9948566],[2.0960393,48.9942887],[2.095893,48.9942152],[2.0962818,48.9939013],[2.0957449,48.9936621],[2.0953607,48.9933868],[2.0955625,48.9931301],[2.0952553,48.9929884],[2.0955019,48.9927206],[2.0956242,48.9923882],[2.095794,48.9922403],[2.0965318,48.9921838],[2.0968837,48.9921853],[2.0981294,48.9923455],[2.0990581,48.9924002],[2.0997016,48.9924752],[2.0997009,48.9916476],[2.0997486,48.9916421],[2.1020385,48.991695],[2.1047763,48.9918717],[2.1047776,48.9920251],[2.10468,48.9921431],[2.1042429,48.9923554],[2.1038743,48.9924698],[2.1037006,48.9925748],[2.1035906,48.9926866]]]]},"properties":{"code_section":"78172000AX","code_commune":"78172","section_courte":"AX"}},{"type":"Feature","geometry":{"type":"MultiPolygon","coordinates":[[[[2.1267277,48.989167],[2.1269995,48.989275],[2.1261909,48.9896356],[2.125703,48.9899043],[2.1255166,48.9900622],[2.1248364,48.990806],[2.1245792,48.9910294],[2.1236364,48.9916435],[2.1237747,48.9922943],[2.1225619,48.992386],[2.1201219,48.9923891],[2.1182865,48.9921771],[2.1162367,48.9919793],[2.114825,48.9919283],[2.1131871,48.9917245],[2.1121508,48.9914971],[2.1112371,48.9913829],[2.1086803,48.9916779],[2.1056419,48.9918899],[2.1044693,48.9918671],[2.1029631,48.9917516],[2.1029449,48.9899729],[2.1029069,48.9898939],[2.1025331,48.989537],[2.1011655,48.988744],[2.1007854,48.988582],[2.1024196,48.9885229],[2.1039608,48.988553],[2.1050014,48.988661],[2.1069133,48.9889272],[2.1090348,48.9889188],[2.1099885,48.9890922],[2.1102708,48.9891106],[2.1123545,48.988622],[2.1140025,48.9887868],[2.1158621,48.9888898],[2.116249,48.9889009],[2.1165715,48.9888763],[2.1178006,48.9889166],[2.1183016,48.9890115],[2.1192742,48.989085],[2.1203064,48.9890101],[2.1214505,48.9888848],[2.1220557,48.988769],[2.1234927,48.988735],[2.1239369,48.988768],[2.1254992,48.9887495],[2.1257416,48.98878],[2.1267277,48.989167]]]]},"properties":{"code_section":"78172000AY","code_commune":"78172","section_courte":"AY"}},{"type":"Feature","geometry":{"type":"MultiPolygon","coordinates":[[[[2.0747999,48.9849563],[2.0755809,48.9851747],[2.0764081,48.9852489],[2.077168,48.9855669],[2.0776301,48.985664],[2.0781862,48.9857175],[2.0793192,48.9860951],[2.0795563,48.9860361],[2.0799712,48.9860825],[2.0804572,48.9863069],[2.0811418,48.9864413],[2.0814883,48.9864401],[2.081863,48.9863554],[2.0826175,48.9865743],[2.0834335,48.986851],[2.0835797,48.9869299],[2.0851201,48.9871143],[2.0852428,48.9871674],[2.0853407,48.9872861],[2.0852932,48.9874789],[2.0851403,48.9877372],[2.0851637,48.9879596],[2.0858918,48.9878675],[2.0877924,48.9878182],[2.0900694,48.9880394],[2.0929157,48.988115],[2.0942239,48.9882705],[2.0987001,48.9884753],[2.1006671,48.9885998],[2.1007854,48.988582],[2.1011655,48.988744],[2.1025331,48.989537],[2.1029069,48.9898939],[2.1029449,48.9899729],[2.1029631,48.9917516],[2.1020385,48.991695],[2.0997486,48.9916421],[2.0977038,48.9917175],[2.0961942,48.991654],[2.0886887,48.9909848],[2.0851144,48.990045],[2.0829882,48.9896955],[2.0750854,48.9878823],[2.0751159,48.9878261],[2.0750162,48.9878055],[2.0725569,48.9874494],[2.0713485,48.9874449],[2.0712481,48.9870777],[2.0712813,48.9869453],[2.0713939,48.9867532],[2.0716768,48.9865129],[2.0718971,48.9864141],[2.0723061,48.9863327],[2.0728663,48.9863668],[2.0738406,48.9850022],[2.0740011,48.9850295],[2.0741659,48.9847989],[2.0747999,48.9849563]]]]},"properties":{"code_section":"78172000AZ","code_commune":"78172","section_courte":"AZ"}},{"type":"Feature","geometry":{"type":"MultiPolygon","coordinates":[[[[2.0977038,48.9917175],[2.0997009,48.9916476],[2.0997016,48.9924752],[2.0990581,48.9924002],[2.0981294,48.9923455],[2.0968837,48.9921853],[2.0965318,48.9921838],[2.095794,48.9922403],[2.0956242,48.9923882],[2.0941041,48.9924448],[2.0941855,48.9922081],[2.0943164,48.9919902],[2.0942699,48.9919252],[2.0937955,48.9918478],[2.0935085,48.9917706],[2.093624,48.9914372],[2.0961942,48.991654],[2.0977038,48.9917175]]]]},"properties":{"code_section":"78172000BC","code_commune":"78172","section_courte":"BC"}},{"type":"Feature","geometry":{"type":"MultiPolygon","coordinates":[[[[2.0954104,48.9934267],[2.0957449,48.9936621],[2.0962818,48.9939013],[2.095893,48.9942152],[2.0960393,48.9942887],[2.0954596,48.9948566],[2.0938823,48.9941226],[2.0928234,48.9934559],[2.0926055,48.9933646],[2.0917989,48.9931636],[2.0915233,48.9931249],[2.090734,48.9932232],[2.0899842,48.9932098],[2.0901318,48.9927943],[2.0901609,48.992451],[2.0905684,48.9924681],[2.091365,48.9926726],[2.0915723,48.9927003],[2.0918311,48.9926934],[2.0923768,48.9925939],[2.0930255,48.9926585],[2.0932387,48.9927087],[2.0934434,48.9923925],[2.0938907,48.9924998],[2.0940246,48.992445],[2.0956242,48.9923882],[2.0955019,48.9927206],[2.0952553,48.9929884],[2.0955625,48.9931301],[2.0953607,48.9933868],[2.0954104,48.9934267]]]]},"properties":{"code_section":"78172000BD","code_commune":"78172","section_courte":"BD"}},{"type":"Feature","geometry":{"type":"MultiPolygon","coordinates":[[[[2.0902076,48.9919207],[2.0903334,48.9917859],[2.0903809,48.9915532],[2.0903779,48.9911405],[2.093624,48.9914372],[2.0935085,48.9917706],[2.0937955,48.9918478],[2.0942699,48.9919252],[2.0943164,48.9919902],[2.0941855,48.9922081],[2.0941041,48.9924448],[2.0940246,48.992445],[2.0938907,48.9924998],[2.0934434,48.9923925],[2.0932387,48.9927087],[2.0930255,48.9926585],[2.0923768,48.9925939],[2.0918311,48.9926934],[2.0915723,48.9927003],[2.091365,48.9926726],[2.0905684,48.9924681],[2.090114,48.9920307],[2.0902076,48.9919207]]]]},"properties":{"code_section":"78172000BE","code_commune":"78172","section_courte":"BE"}},{"type":"Feature","geometry":{"type":"MultiPolygon","coordinates":[[[[2.0903779,48.9911405],[2.0903809,48.9915532],[2.0903334,48.9917859],[2.090114,48.9920307],[2.0905684,48.9924681],[2.0901609,48.992451],[2.0901318,48.9927943],[2.0899744,48.993252],[2.0883764,48.992797],[2.0875911,48.9927231],[2.0883147,48.9919918],[2.0887512,48.991654],[2.0883437,48.9915048],[2.0880993,48.9915154],[2.0878988,48.9914577],[2.0876789,48.9914872],[2.0862954,48.99121],[2.0863547,48.9911141],[2.086191,48.9910623],[2.0862806,48.9909043],[2.0861034,48.9908557],[2.0864082,48.9903914],[2.0886887,48.9909848],[2.0903779,48.9911405]]]]},"properties":{"code_section":"78172000BH","code_commune":"78172","section_courte":"BH"}},{"type":"Feature","geometry":{"type":"MultiPolygon","coordinates":[[[[2.0879596,48.9927668],[2.0883764,48.992797],[2.0899744,48.993252],[2.0899842,48.9932098],[2.090734,48.9932232],[2.0915233,48.9931249],[2.0917989,48.9931636],[2.092729,48.9934055],[2.0930082,48.9935834],[2.0925717,48.9945581],[2.092233,48.9949498],[2.0903021,48.9944201],[2.0902686,48.9944483],[2.0901501,48.9944221],[2.0901109,48.9943786],[2.0891245,48.9940953],[2.0891768,48.9940656],[2.0886901,48.9939678],[2.0866587,48.9933307],[2.08406,48.9926012],[2.0828982,48.9923337],[2.0817717,48.992148],[2.0820347,48.9917056],[2.0827162,48.9918241],[2.0830133,48.9915649],[2.0816183,48.9910689],[2.0818852,48.9904681],[2.082535,48.9903892],[2.0826697,48.9903219],[2.0829882,48.9896955],[2.0851144,48.990045],[2.0864082,48.9903914],[2.0861034,48.9908557],[2.0862806,48.9909043],[2.086191,48.9910623],[2.0863547,48.9911141],[2.0862954,48.99121],[2.0876789,48.9914872],[2.0878988,48.9914577],[2.0880993,48.9915154],[2.0883437,48.9915048],[2.0887512,48.991654],[2.0883147,48.9919918],[2.0875911,48.9927231],[2.0879596,48.9927668]]]]},"properties":{"code_section":"78172000BI","code_commune":"78172","section_courte":"BI"}},{"type":"Feature","geometry":{"type":"MultiPolygon","coordinates":[[[[2.0835016,48.9958992],[2.0844462,48.995211],[2.0867496,48.9933676],[2.0886901,48.9939678],[2.0891768,48.9940656],[2.0891245,48.9940953],[2.0901109,48.9943786],[2.0901501,48.9944221],[2.0902686,48.9944483],[2.0903021,48.9944201],[2.0929689,48.995142],[2.0929592,48.9951629],[2.0945648,48.9955184],[2.0946174,48.9955756],[2.0945707,48.9956768],[2.0946929,48.9957134],[2.0940888,48.9965509],[2.0938045,48.9973803],[2.09369,48.9973543],[2.0907038,48.9983286],[2.0894535,48.998897],[2.0888658,48.9992496],[2.0886553,48.9994219],[2.0882166,48.9993776],[2.0882952,48.9989684],[2.0875832,48.9989001],[2.086755,48.9989408],[2.086084,48.9994024],[2.0848154,48.9993862],[2.0834202,48.999469],[2.0832243,48.9996146],[2.0826767,49.0004496],[2.081863,48.9993736],[2.0812994,48.9988426],[2.0804817,48.9975368],[2.0812145,48.9972709],[2.0827417,48.9963826],[2.0835016,48.9958992]]]]},"properties":{"code_section":"78172000BK","code_commune":"78172","section_courte":"BK"}},{"type":"Feature","geometry":{"type":"MultiPolygon","coordinates":[[[[2.0774742,48.9942268],[2.0771904,48.9939272],[2.0774421,48.9938404],[2.0788332,48.9922844],[2.0790751,48.9922964],[2.0791066,48.9919294],[2.0814683,48.992114],[2.0828435,48.9923233],[2.08406,48.9926012],[2.0867496,48.9933676],[2.0844462,48.995211],[2.0835016,48.9958992],[2.0827417,48.9963826],[2.0812145,48.9972709],[2.0804817,48.9975368],[2.0762666,48.9966255],[2.0760541,48.9961295],[2.0764192,48.99576],[2.0764755,48.995234],[2.0774075,48.9943584],[2.0774742,48.9942268]]]]},"properties":{"code_section":"78172000BL","code_commune":"78172","section_courte":"BL"}},{"type":"Feature","geometry":{"type":"MultiPolygon","coordinates":[[[[2.0758579,48.9880631],[2.0829882,48.9896955],[2.0826697,48.9903219],[2.082535,48.9903892],[2.0818852,48.9904681],[2.0816183,48.9910689],[2.0830133,48.9915649],[2.0827162,48.9918241],[2.0820347,48.9917056],[2.0817717,48.992148],[2.0798975,48.9919736],[2.0742657,48.9917152],[2.0740111,48.9916071],[2.0738702,48.9916021],[2.0738093,48.9918689],[2.0723302,48.991801],[2.0723432,48.9912528],[2.0722098,48.9901268],[2.0713435,48.9874557],[2.0725569,48.9874494],[2.0750162,48.9878055],[2.0751159,48.9878261],[2.0750854,48.9878823],[2.0758579,48.9880631]]]]},"properties":{"code_section":"78172000BM","code_commune":"78172","section_courte":"BM"}},{"type":"Feature","geometry":{"type":"MultiPolygon","coordinates":[[[[2.0737629,48.9918678],[2.0738093,48.9918689],[2.0738702,48.9916021],[2.0740896,48.9916217],[2.0742657,48.9917152],[2.0746361,48.9917409],[2.0791066,48.9919294],[2.0790751,48.9922964],[2.0788332,48.9922844],[2.0774421,48.9938404],[2.0771904,48.9939272],[2.0774742,48.9942268],[2.0774075,48.9943584],[2.0764755,48.995234],[2.0764192,48.99576],[2.0760541,48.9961295],[2.0762666,48.9966255],[2.0755651,48.9987346],[2.0727542,48.998199],[2.072155,48.9981174],[2.0721358,48.9978739],[2.0714678,48.9955425],[2.0714005,48.9951729],[2.0714667,48.9945697],[2.0716596,48.9938862],[2.0721312,48.9927183],[2.0723302,48.991801],[2.0737629,48.9918678]]]]},"properties":{"code_section":"78172000BN","code_commune":"78172","section_courte":"BN"}}]}