{"type":"FeatureCollection","features":[{"type":"Feature","geometry":{"type":"MultiPolygon","coordinates":[[[[2.1378464,48.8827239],[2.1363628,48.8850909],[2.1349318,48.8853649],[2.1340293,48.8836611],[2.1341478,48.8836195],[2.132125,48.8797496],[2.1329782,48.8795042],[2.1371157,48.8790774],[2.1373235,48.8805342],[2.1377931,48.8822082],[2.1377648,48.8822451],[2.1378817,48.8826023],[2.1378464,48.8827239]]]]},"properties":{"code_section":"78190000AB","code_commune":"78190","section_courte":"AB"}},{"type":"Feature","geometry":{"type":"MultiPolygon","coordinates":[[[[2.1443831,48.8834887],[2.1363628,48.8850909],[2.1378397,48.8827369],[2.1378817,48.8826023],[2.1422526,48.8814223],[2.1461239,48.8805497],[2.1469538,48.881606],[2.1477656,48.8827488],[2.1450051,48.8834129],[2.144989,48.8833759],[2.1448973,48.8833843],[2.1443831,48.8834887]]]]},"properties":{"code_section":"78190000AC","code_commune":"78190","section_courte":"AC"}},{"type":"Feature","geometry":{"type":"MultiPolygon","coordinates":[[[[2.1558764,48.8810464],[2.1514889,48.8819233],[2.1494595,48.8824153],[2.1477656,48.8827488],[2.1469538,48.881606],[2.1461239,48.8805497],[2.1495015,48.8798222],[2.1495358,48.8796918],[2.1500335,48.8789396],[2.1501832,48.8788333],[2.1526158,48.8779986],[2.1530598,48.878318],[2.1538291,48.8779808],[2.1533817,48.8774149],[2.152653,48.8768844],[2.153972,48.8765147],[2.1543681,48.8762708],[2.1549636,48.8761871],[2.1557517,48.8774133],[2.1568215,48.8787779],[2.1575733,48.8798705],[2.1579625,48.8803189],[2.1583088,48.8805804],[2.1558764,48.8810464]]]]},"properties":{"code_section":"78190000AD","code_commune":"78190","section_courte":"AD"}},{"type":"Feature","geometry":{"type":"MultiPolygon","coordinates":[[[[2.1527303,48.8768645],[2.152653,48.8768844],[2.1520644,48.8764244],[2.1498543,48.8745743],[2.1482674,48.8735562],[2.1463589,48.8724156],[2.145204,48.8718278],[2.1441356,48.8714035],[2.1451673,48.8704532],[2.146825,48.8711256],[2.1481214,48.8714213],[2.1488015,48.8716679],[2.1502979,48.8707814],[2.1503481,48.8708221],[2.1517328,48.8720405],[2.1524656,48.8727875],[2.152982,48.8734229],[2.1549636,48.8761871],[2.1543681,48.8762708],[2.153972,48.8765147],[2.1527303,48.8768645]]]]},"properties":{"code_section":"78190000AE","code_commune":"78190","section_courte":"AE"}},{"type":"Feature","geometry":{"type":"MultiPolygon","coordinates":[[[[2.1482674,48.8735562],[2.1498543,48.8745743],[2.1520309,48.8763975],[2.1533817,48.8774149],[2.1538291,48.8779808],[2.1530598,48.878318],[2.1526158,48.8779986],[2.1501832,48.8788333],[2.1500335,48.8789396],[2.1495358,48.8796918],[2.1495015,48.8798222],[2.1485857,48.880009],[2.1467149,48.8780316],[2.1462941,48.8775073],[2.1464269,48.8774493],[2.1451223,48.8761398],[2.1480324,48.8749093],[2.1469313,48.8739705],[2.1480431,48.8734166],[2.1482674,48.8735562]]]]},"properties":{"code_section":"78190000AH","code_commune":"78190","section_courte":"AH"}},{"type":"Feature","geometry":{"type":"MultiPolygon","coordinates":[[[[2.1441621,48.8713775],[2.1441356,48.8714035],[2.1452527,48.8718501],[2.1463589,48.8724156],[2.1480431,48.8734166],[2.1469313,48.8739705],[2.1480324,48.8749093],[2.1449564,48.8762047],[2.142055,48.8772467],[2.1377285,48.8721634],[2.1374705,48.8714906],[2.1372772,48.8711929],[2.1373259,48.8708257],[2.1372889,48.8702199],[2.1406499,48.8702417],[2.1415466,48.8702784],[2.1421507,48.8703535],[2.1433255,48.870591],[2.144634,48.8709362],[2.1441621,48.8713775]]]]},"properties":{"code_section":"78190000AI","code_commune":"78190","section_courte":"AI"}},{"type":"Feature","geometry":{"type":"MultiPolygon","coordinates":[[[[2.1375881,48.8777733],[2.1398106,48.8775442],[2.1404939,48.877727],[2.1419623,48.8771303],[2.142055,48.8772467],[2.1451223,48.8761398],[2.1464269,48.8774493],[2.1462941,48.8775073],[2.1467149,48.8780316],[2.1485857,48.880009],[2.1422526,48.8814223],[2.1378817,48.8826023],[2.1373235,48.8805342],[2.1371157,48.8790774],[2.1371516,48.8790751],[2.137002,48.8778313],[2.1375881,48.8777733]]]]},"properties":{"code_section":"78190000AK","code_commune":"78190","section_courte":"AK"}},{"type":"Feature","geometry":{"type":"MultiPolygon","coordinates":[[[[2.1310519,48.8749449],[2.1320908,48.8746963],[2.1322304,48.8747218],[2.1327432,48.8745658],[2.1327741,48.8745333],[2.1385639,48.8731574],[2.1419623,48.8771303],[2.1404939,48.877727],[2.1398106,48.8775442],[2.137002,48.8778313],[2.1371516,48.8790751],[2.1329782,48.8795042],[2.132125,48.8797496],[2.1301211,48.8759087],[2.1300173,48.8758989],[2.1296922,48.8753055],[2.1309218,48.8750031],[2.130944,48.8749707],[2.1310519,48.8749449]]]]},"properties":{"code_section":"78190000AL","code_commune":"78190","section_courte":"AL"}},{"type":"Feature","geometry":{"type":"MultiPolygon","coordinates":[[[[2.1280428,48.8722174],[2.128031,48.8721925],[2.1282144,48.8720878],[2.1309091,48.8709192],[2.1333747,48.8704204],[2.1357809,48.870202],[2.1372889,48.8702199],[2.1373259,48.8708257],[2.1372772,48.8711929],[2.1374705,48.8714906],[2.1377285,48.8721634],[2.1385639,48.8731574],[2.1327741,48.8745333],[2.1327432,48.8745658],[2.1322304,48.8747218],[2.1320908,48.8746963],[2.130944,48.8749707],[2.1309218,48.8750031],[2.1296922,48.8753055],[2.1280428,48.8722174]]]]},"properties":{"code_section":"78190000AM","code_commune":"78190","section_courte":"AM"}},{"type":"Feature","geometry":{"type":"MultiPolygon","coordinates":[[[[2.1283121,48.8727245],[2.1300173,48.8758989],[2.1254808,48.8800152],[2.1201958,48.8778388],[2.1207085,48.8775275],[2.1218493,48.8766527],[2.124455,48.8743216],[2.128031,48.8721925],[2.1283121,48.8727245]]]]},"properties":{"code_section":"78190000AN","code_commune":"78190","section_courte":"AN"}},{"type":"Feature","geometry":{"type":"MultiPolygon","coordinates":[[[[2.120844,48.8781036],[2.1254808,48.8800152],[2.1201104,48.8849105],[2.1199623,48.8850932],[2.1196341,48.8860816],[2.1195732,48.8860107],[2.1143453,48.8838106],[2.1155767,48.8819627],[2.1161381,48.8812919],[2.1166727,48.8807731],[2.1186191,48.8790703],[2.1199638,48.8779784],[2.1201958,48.8778388],[2.120844,48.8781036]]]]},"properties":{"code_section":"78190000AO","code_commune":"78190","section_courte":"AO"}},{"type":"Feature","geometry":{"type":"MultiPolygon","coordinates":[[[[2.1149711,48.8840733],[2.1195732,48.8860107],[2.1196341,48.8860816],[2.1181777,48.8907911],[2.1102678,48.8874429],[2.1110304,48.8871387],[2.111345,48.8869468],[2.1139271,48.8843128],[2.1143453,48.8838106],[2.1149711,48.8840733]]]]},"properties":{"code_section":"78190000AP","code_commune":"78190","section_courte":"AP"}}]}