{"type":"FeatureCollection","features":[{"type":"Feature","geometry":{"type":"MultiPolygon","coordinates":[[[[2.0614686,48.8640128],[2.0611767,48.8640421],[2.060765,48.8641384],[2.0607057,48.864256],[2.0607855,48.8643844],[2.0602305,48.8647755],[2.0591559,48.8652581],[2.0588279,48.865349],[2.0591823,48.865781],[2.059572,48.8656009],[2.059342,48.8659957],[2.0526299,48.8664313],[2.0524193,48.8665335],[2.0522972,48.8678357],[2.0512465,48.867761],[2.0512049,48.8679642],[2.0516591,48.8687757],[2.0517206,48.8687958],[2.0518573,48.869002],[2.0520189,48.8689956],[2.0521814,48.8691124],[2.052152,48.8699046],[2.0533314,48.8705457],[2.0539422,48.8708321],[2.0545473,48.8710356],[2.0554648,48.8712777],[2.0560125,48.8713653],[2.0567185,48.8714274],[2.0586139,48.8713677],[2.0594756,48.8712217],[2.0596628,48.8712818],[2.0596375,48.8713836],[2.0598102,48.8717069],[2.0601306,48.8721674],[2.0604117,48.8724639],[2.0619921,48.8728081],[2.0628141,48.8731982],[2.0628423,48.8731748],[2.063979,48.8737276],[2.0639822,48.8737943],[2.0660615,48.8757744],[2.0663208,48.8763811],[2.0669718,48.8769139],[2.0683133,48.8776561],[2.0691551,48.8779778],[2.0702898,48.8787335],[2.0691003,48.8795633],[2.0648917,48.8782969],[2.062607,48.8783907],[2.0612824,48.8792951],[2.0608517,48.8795624],[2.0601309,48.8799435],[2.0600882,48.8800791],[2.0507571,48.8771201],[2.0446619,48.8734023],[2.0400077,48.8713913],[2.0378447,48.8688195],[2.0362547,48.867825],[2.0451771,48.8631527],[2.06005,48.8548336],[2.0703962,48.8545307],[2.0721307,48.8568119],[2.0701809,48.8591831],[2.0700923,48.8595189],[2.0697284,48.8597704],[2.0697139,48.859846],[2.0695172,48.8601137],[2.0689744,48.8607566],[2.0682171,48.8607572],[2.0675893,48.8618268],[2.0674844,48.8618375],[2.0675408,48.862086],[2.0665325,48.8627469],[2.0661475,48.8627717],[2.0651625,48.8627503],[2.0645428,48.8627866],[2.064126,48.8628602],[2.0635719,48.8630087],[2.062697,48.8633989],[2.0621572,48.8637029],[2.0614686,48.8640128]]]]},"properties":{"code_section":"782240000G","code_commune":"78224","section_courte":"G"}},{"type":"Feature","geometry":{"type":"MultiPolygon","coordinates":[[[[2.0739734,48.8742091],[2.0738903,48.8741876],[2.0731809,48.8744024],[2.0731009,48.874368],[2.0721214,48.8745938],[2.0720503,48.8746239],[2.0720739,48.8746408],[2.0716527,48.8747948],[2.0716652,48.8748188],[2.0702178,48.8754678],[2.06912,48.8745964],[2.0689857,48.8743933],[2.0687162,48.8738002],[2.0685669,48.8735901],[2.0675609,48.8725055],[2.0674062,48.8722752],[2.0676946,48.8722105],[2.0681444,48.8722887],[2.0683835,48.8722912],[2.0686487,48.8721886],[2.0686874,48.8722161],[2.0688074,48.8721379],[2.0687689,48.8721097],[2.0689406,48.8719737],[2.0689831,48.8717034],[2.0690907,48.8715662],[2.0709607,48.8705913],[2.0715708,48.8709549],[2.0718467,48.8710701],[2.0719768,48.8710224],[2.0720346,48.870955],[2.0720474,48.8705962],[2.0722189,48.8703874],[2.0728932,48.8704733],[2.0732172,48.8705564],[2.0738286,48.8707928],[2.0765648,48.8721981],[2.0773235,48.8725051],[2.0776406,48.8726686],[2.0778128,48.8727928],[2.0779632,48.8729603],[2.0780636,48.8732456],[2.0780451,48.8738589],[2.0776825,48.8737706],[2.0772798,48.8734978],[2.0756796,48.8744486],[2.0749519,48.8738411],[2.074527,48.8740602],[2.0744313,48.8740264],[2.0739734,48.8742091]]]]},"properties":{"code_section":"78224000AA","code_commune":"78224","section_courte":"AA"}},{"type":"Feature","geometry":{"type":"MultiPolygon","coordinates":[[[[2.0789847,48.8721741],[2.0781938,48.8728277],[2.0779632,48.8729603],[2.0778128,48.8727928],[2.0774862,48.872583],[2.0765648,48.8721981],[2.0738286,48.8707928],[2.0730754,48.8705159],[2.0722189,48.8703874],[2.0722486,48.870262],[2.0727203,48.8699554],[2.0730417,48.8696508],[2.0733653,48.8694246],[2.0735567,48.8693399],[2.0737354,48.8693578],[2.0738025,48.8693024],[2.0742435,48.8691277],[2.0755979,48.8683538],[2.0760371,48.8682129],[2.0765255,48.8685628],[2.0769016,48.8683411],[2.0781745,48.869203],[2.0782625,48.8692873],[2.078419,48.8695827],[2.0786306,48.869409],[2.078962,48.8695082],[2.0788712,48.8695627],[2.0790401,48.8697517],[2.0789854,48.8699671],[2.0796507,48.8702915],[2.0799502,48.8703907],[2.0796534,48.8706485],[2.0797375,48.8706842],[2.0796617,48.8707654],[2.0809257,48.8710424],[2.0801107,48.8715032],[2.0801315,48.8715198],[2.0795475,48.8717877],[2.0795295,48.8717717],[2.0789847,48.8721741]]]]},"properties":{"code_section":"78224000AB","code_commune":"78224","section_courte":"AB"}},{"type":"Feature","geometry":{"type":"MultiPolygon","coordinates":[[[[2.0759387,48.8682494],[2.0755979,48.8683538],[2.0748313,48.8688079],[2.0725766,48.8677862],[2.07216,48.8674647],[2.0719578,48.8672014],[2.0718644,48.8669227],[2.0718548,48.8666699],[2.0721682,48.866062],[2.0721585,48.8659451],[2.0714267,48.8655018],[2.0713971,48.8654459],[2.0721691,48.8650262],[2.0725306,48.8647615],[2.073274,48.8643182],[2.0733047,48.8643383],[2.073538,48.8641308],[2.0737485,48.8640349],[2.0739324,48.8640505],[2.0741124,48.8641409],[2.0745339,48.8644528],[2.0749407,48.8648248],[2.0750639,48.8649683],[2.0751444,48.8654336],[2.0752705,48.8655974],[2.0755842,48.8657955],[2.076513,48.8662618],[2.0769398,48.8665233],[2.077039,48.8665362],[2.0771853,48.8665039],[2.0773021,48.866552],[2.0780519,48.867133],[2.0791023,48.8680189],[2.079164,48.8682131],[2.078973,48.8685564],[2.0789163,48.8690108],[2.0789571,48.869155],[2.0792194,48.8693517],[2.078962,48.8695082],[2.0786306,48.869409],[2.078419,48.8695827],[2.0782625,48.8692873],[2.0781745,48.869203],[2.0769016,48.8683411],[2.0765255,48.8685628],[2.0760371,48.8682129],[2.0759387,48.8682494]]]]},"properties":{"code_section":"78224000AC","code_commune":"78224","section_courte":"AC"}},{"type":"Feature","geometry":{"type":"MultiPolygon","coordinates":[[[[2.0739324,48.8640505],[2.0737485,48.8640349],[2.073538,48.8641308],[2.0733047,48.8643383],[2.073274,48.8643182],[2.0726542,48.864686],[2.0721691,48.8650262],[2.0714491,48.8653957],[2.0713972,48.8654745],[2.0714704,48.8655275],[2.070599,48.8661395],[2.0704503,48.8661906],[2.0700613,48.865914],[2.06947,48.865567],[2.0692463,48.8653241],[2.0691864,48.8651418],[2.0691985,48.8649201],[2.0693812,48.864255],[2.0691712,48.8634583],[2.0691143,48.8634021],[2.0689433,48.8633385],[2.0680236,48.8631886],[2.0678175,48.8630973],[2.0678154,48.8629775],[2.067901,48.8629897],[2.0679226,48.8628992],[2.067844,48.8628879],[2.0678515,48.862721],[2.0675408,48.862086],[2.0674844,48.8618375],[2.0675893,48.8618268],[2.0682171,48.8607572],[2.0752234,48.8607519],[2.0786897,48.8624259],[2.0784043,48.8626011],[2.0788034,48.8628435],[2.0786133,48.86291],[2.0784134,48.8630985],[2.0779536,48.8633855],[2.0775699,48.8636949],[2.0776327,48.8638409],[2.0769794,48.8643734],[2.0770116,48.8645958],[2.0768738,48.8647548],[2.076325,48.8650254],[2.0750876,48.865249],[2.0750639,48.8649683],[2.0749407,48.8648248],[2.0743772,48.8643302],[2.0739324,48.8640505]]]]},"properties":{"code_section":"78224000AD","code_commune":"78224","section_courte":"AD"}},{"type":"Feature","geometry":{"type":"MultiPolygon","coordinates":[[[[2.0694122,48.8660009],[2.0686371,48.8670868],[2.0678092,48.8667518],[2.0672246,48.8664445],[2.0665303,48.8659126],[2.0657935,48.8652823],[2.0640781,48.8644698],[2.0627735,48.8641655],[2.0615207,48.8640071],[2.0621572,48.8637029],[2.062697,48.8633989],[2.0635719,48.8630087],[2.064126,48.8628602],[2.0645428,48.8627866],[2.0651625,48.8627503],[2.0661475,48.8627717],[2.0665325,48.8627469],[2.0675408,48.862086],[2.0678515,48.862721],[2.067844,48.8628879],[2.0679226,48.8628992],[2.067901,48.8629897],[2.0678154,48.8629775],[2.0678175,48.8630973],[2.0680236,48.8631886],[2.0689433,48.8633385],[2.0691143,48.8634021],[2.0691712,48.8634583],[2.0693812,48.864255],[2.0691985,48.8649201],[2.0691864,48.8651418],[2.0693031,48.8654012],[2.0696399,48.8656847],[2.0694122,48.8660009]]]]},"properties":{"code_section":"78224000AE","code_commune":"78224","section_courte":"AE"}},{"type":"Feature","geometry":{"type":"MultiPolygon","coordinates":[[[[2.0643661,48.8678875],[2.0646524,48.8686078],[2.063223,48.8686335],[2.0629219,48.8686722],[2.0625576,48.8686105],[2.0623667,48.868513],[2.0622535,48.868376],[2.0621809,48.8680644],[2.0620625,48.8679493],[2.0619199,48.8678835],[2.0595467,48.8675748],[2.0600978,48.8660824],[2.059342,48.8659957],[2.059572,48.8656009],[2.0591823,48.865781],[2.0588279,48.865349],[2.0591559,48.8652581],[2.0602305,48.8647755],[2.0607855,48.8643844],[2.0607057,48.864256],[2.060765,48.8641384],[2.0611767,48.8640421],[2.0615207,48.8640071],[2.0627735,48.8641655],[2.0640781,48.8644698],[2.0657935,48.8652823],[2.0665303,48.8659126],[2.0672246,48.8664445],[2.0678092,48.8667518],[2.0686371,48.8670868],[2.0686997,48.8671874],[2.068939,48.8674044],[2.0683995,48.8677044],[2.0681759,48.8677778],[2.0674747,48.867911],[2.0662357,48.8679345],[2.0651548,48.8678804],[2.0643661,48.8678875]]]]},"properties":{"code_section":"78224000AH","code_commune":"78224","section_courte":"AH"}},{"type":"Feature","geometry":{"type":"MultiPolygon","coordinates":[[[[2.05946,48.871225],[2.0586139,48.8713677],[2.0567185,48.8714274],[2.0560125,48.8713653],[2.0554648,48.8712777],[2.0545473,48.8710356],[2.0539422,48.8708321],[2.0533314,48.8705457],[2.052152,48.8699046],[2.0521814,48.8691124],[2.0520189,48.8689956],[2.0518573,48.869002],[2.0517206,48.8687958],[2.0516591,48.8687757],[2.0512049,48.8679642],[2.0512465,48.867761],[2.0522972,48.8678357],[2.0524193,48.8665335],[2.0526299,48.8664313],[2.0576293,48.8661192],[2.0586028,48.8660465],[2.0586006,48.8660285],[2.0593967,48.8659959],[2.0600978,48.8660824],[2.0595467,48.8675748],[2.0619199,48.8678835],[2.0620625,48.8679493],[2.0621809,48.8680644],[2.0622535,48.868376],[2.0623667,48.868513],[2.0625576,48.8686105],[2.0629219,48.8686722],[2.0625206,48.8688303],[2.0610397,48.869037],[2.0596016,48.8694847],[2.0599109,48.8702547],[2.0601267,48.8709571],[2.0591343,48.8710782],[2.05946,48.871225]]]]},"properties":{"code_section":"78224000AI","code_commune":"78224","section_courte":"AI"}},{"type":"Feature","geometry":{"type":"MultiPolygon","coordinates":[[[[2.0669771,48.872423],[2.0651049,48.8729692],[2.0639802,48.8737504],[2.0628423,48.8731748],[2.0628141,48.8731982],[2.0619921,48.8728081],[2.0604117,48.8724639],[2.0601306,48.8721674],[2.0598102,48.8717069],[2.0596375,48.8713836],[2.0596628,48.8712818],[2.05946,48.871225],[2.0591343,48.8710782],[2.0601267,48.8709571],[2.0599109,48.8702547],[2.0596016,48.8694847],[2.0610397,48.869037],[2.0625206,48.8688303],[2.0629219,48.8686722],[2.063223,48.8686335],[2.0646524,48.8686078],[2.0655032,48.8686668],[2.0664722,48.8687975],[2.068462,48.8692051],[2.0698896,48.8698059],[2.0704022,48.8702367],[2.0709607,48.8705913],[2.0690907,48.8715662],[2.0689831,48.8717034],[2.0689406,48.8719737],[2.0687689,48.8721097],[2.0688074,48.8721379],[2.0686874,48.8722161],[2.0686487,48.8721886],[2.0684837,48.8722682],[2.0682612,48.872293],[2.0676946,48.8722105],[2.0674062,48.8722752],[2.0669771,48.872423]]]]},"properties":{"code_section":"78224000AK","code_commune":"78224","section_courte":"AK"}},{"type":"Feature","geometry":{"type":"MultiPolygon","coordinates":[[[[2.0727203,48.8699554],[2.0722486,48.870262],[2.0721823,48.8704592],[2.0720474,48.8705962],[2.0720346,48.870955],[2.0719768,48.8710224],[2.0718467,48.8710701],[2.0715708,48.8709549],[2.0704991,48.8703026],[2.0698896,48.8698059],[2.068462,48.8692051],[2.0664722,48.8687975],[2.0655032,48.8686668],[2.0646524,48.8686078],[2.0643661,48.8678875],[2.0651548,48.8678804],[2.0662357,48.8679345],[2.0674747,48.867911],[2.0681759,48.8677778],[2.0683995,48.8677044],[2.068939,48.8674044],[2.0686997,48.8671874],[2.0686371,48.8670868],[2.0696399,48.8656847],[2.0700613,48.865914],[2.0704503,48.8661906],[2.070599,48.8661395],[2.0714704,48.8655275],[2.0721585,48.8659451],[2.0721682,48.866062],[2.0718911,48.8665529],[2.0718464,48.8668083],[2.0719578,48.8672014],[2.07216,48.8674647],[2.072402,48.8676719],[2.072744,48.867878],[2.0748313,48.8688079],[2.0742435,48.8691277],[2.0738025,48.8693024],[2.0737354,48.8693578],[2.0735567,48.8693399],[2.0733653,48.8694246],[2.0730417,48.8696508],[2.0727203,48.8699554]]]]},"properties":{"code_section":"78224000AL","code_commune":"78224","section_courte":"AL"}}]}