{"type":"FeatureCollection","features":[{"type":"Feature","geometry":{"type":"MultiPolygon","coordinates":[[[[1.9024562,49.0317872],[1.9032201,49.0311485],[1.9034182,49.0309381],[1.9036624,49.0305911],[1.9066909,49.0300551],[1.9076065,49.0317787],[1.9096326,49.03605],[1.9099985,49.0367402],[1.9100225,49.0368786],[1.9102713,49.0372004],[1.9111076,49.0388276],[1.9115967,49.0399977],[1.9128124,49.042576],[1.9132023,49.0439335],[1.9140987,49.0457924],[1.9134284,49.0459523],[1.9119551,49.0464252],[1.9097896,49.0474033],[1.9083878,49.048092],[1.9057023,49.0471325],[1.9065411,49.0461161],[1.9034069,49.0447839],[1.9007988,49.0434125],[1.9017947,49.0422052],[1.8958143,49.0405221],[1.8911258,49.0393252],[1.9024562,49.0317872]]]]},"properties":{"code_section":"782610000A","code_commune":"78261","section_courte":"A"}},{"type":"Feature","geometry":{"type":"MultiPolygon","coordinates":[[[[1.9049998,49.0258098],[1.9059371,49.0285848],[1.9066417,49.0300678],[1.9036624,49.0305911],[1.9034182,49.0309381],[1.9032201,49.0311485],[1.9026442,49.0316573],[1.8941881,49.0372813],[1.8907623,49.0362647],[1.8880562,49.0357594],[1.8872119,49.0355329],[1.8833125,49.0337277],[1.8847641,49.0309915],[1.8848666,49.030692],[1.8872373,49.0277225],[1.8879347,49.0277323],[1.8886378,49.0279245],[1.8926134,49.0294053],[1.8922121,49.028696],[1.8915236,49.0279087],[1.8912109,49.0273718],[1.891156,49.0271985],[1.8921831,49.0277665],[1.8937353,49.0284285],[1.8939451,49.0285003],[1.8946052,49.0286047],[1.895224,49.0287685],[1.8965464,49.0292345],[1.8968543,49.029277],[1.8971547,49.0292377],[1.897279,49.0291938],[1.8977426,49.0288327],[1.8969147,49.0283659],[1.8965996,49.0277811],[1.8962585,49.0274994],[1.8956664,49.0269175],[1.8955078,49.0266585],[1.8954098,49.0262463],[1.8952797,49.0259221],[1.8952585,49.0254846],[1.8946741,49.0248085],[1.8941115,49.0239351],[1.8939092,49.0234637],[1.8939279,49.0234085],[1.8943405,49.0225741],[1.8948029,49.022347],[1.8957017,49.0221278],[1.8957028,49.0221062],[1.8958046,49.0221043],[1.8976845,49.0222776],[1.899159,49.0225285],[1.8996867,49.0225472],[1.8999159,49.02253],[1.9005274,49.022404],[1.9016134,49.0222882],[1.9015878,49.0222127],[1.9033264,49.0218039],[1.903299,49.0217446],[1.9059444,49.0217138],[1.9049353,49.0256512],[1.9049998,49.0258098]]]]},"properties":{"code_section":"782610000B","code_commune":"78261","section_courte":"B"}},{"type":"Feature","geometry":{"type":"MultiPolygon","coordinates":[[[[1.8949892,49.0222882],[1.8948029,49.022347],[1.8943405,49.0225741],[1.8938524,49.0235893],[1.8937334,49.0240652],[1.8934026,49.0243868],[1.8933629,49.0244013],[1.8931922,49.0242903],[1.8929712,49.0242773],[1.8928717,49.0243883],[1.8927441,49.0244523],[1.8925803,49.0242622],[1.8924959,49.0242971],[1.8923746,49.0242355],[1.8922487,49.0242562],[1.8917235,49.0224344],[1.8915621,49.0213044],[1.8917029,49.0211106],[1.8923053,49.0207344],[1.8903337,49.018972],[1.8908776,49.0187699],[1.8920385,49.0184057],[1.8924288,49.0186374],[1.8925203,49.0185798],[1.8928579,49.0188422],[1.8932985,49.0185766],[1.8937168,49.0183851],[1.8940677,49.0182878],[1.8947839,49.018175],[1.895222,49.0180083],[1.8955538,49.0178244],[1.8965299,49.0184786],[1.8966837,49.0182989],[1.8971313,49.017961],[1.8974262,49.0179247],[1.8978434,49.017648],[1.898369,49.0170933],[1.898618,49.0169531],[1.898816,49.016633],[1.8990887,49.0164111],[1.8990248,49.0162437],[1.8991295,49.0160451],[1.899073,49.0158174],[1.8991541,49.0156213],[1.8990418,49.0154972],[1.8990236,49.0153666],[1.8992323,49.014939],[1.8994574,49.0148403],[1.8991929,49.0144748],[1.8992362,49.0144197],[1.8995513,49.0142924],[1.8996143,49.0141161],[1.8997157,49.014016],[1.9010266,49.0143251],[1.9015534,49.0138365],[1.9020455,49.0133028],[1.9023309,49.0131052],[1.9028987,49.0125228],[1.9030533,49.0124183],[1.9033586,49.0123261],[1.9052745,49.0120829],[1.9054075,49.0119348],[1.9057028,49.0120774],[1.9061022,49.0117656],[1.9071596,49.0122022],[1.9066859,49.0126834],[1.9067021,49.0128],[1.9069497,49.0130799],[1.9069886,49.0132804],[1.9067195,49.0135586],[1.9063258,49.0142404],[1.9063859,49.0150546],[1.9063759,49.0157301],[1.9067828,49.0184064],[1.9059444,49.0217138],[1.903299,49.0217446],[1.9033264,49.0218039],[1.9015878,49.0222127],[1.9016134,49.0222882],[1.9005274,49.022404],[1.8999159,49.02253],[1.8996867,49.0225472],[1.899159,49.0225285],[1.8976845,49.0222776],[1.8958046,49.0221043],[1.8957028,49.0221062],[1.8957017,49.0221278],[1.8949892,49.0222882]]]]},"properties":{"code_section":"782610000C","code_commune":"78261","section_courte":"C"}},{"type":"Feature","geometry":{"type":"MultiPolygon","coordinates":[[[[1.8817089,49.023569],[1.881672,49.0195153],[1.8827626,49.0194829],[1.8830413,49.0194358],[1.8852726,49.0184817],[1.8888199,49.0181476],[1.8898312,49.0178313],[1.890225,49.0174181],[1.8908808,49.017711],[1.8914902,49.0180917],[1.8917458,49.0181944],[1.8920385,49.0184057],[1.8908776,49.0187699],[1.8903337,49.018972],[1.8923053,49.0207344],[1.8917029,49.0211106],[1.8915621,49.0213044],[1.8915624,49.0214147],[1.8917235,49.0224344],[1.8922487,49.0242562],[1.8922393,49.0243729],[1.8921524,49.024416],[1.8922415,49.0245752],[1.8923009,49.0245498],[1.8923645,49.0247092],[1.8919198,49.0249788],[1.8918491,49.0249953],[1.8917207,49.024921],[1.8914347,49.025113],[1.8914892,49.0252026],[1.8914015,49.0252445],[1.8914179,49.0253621],[1.8914819,49.02545],[1.8911577,49.0256208],[1.8912496,49.0259999],[1.8910477,49.0266126],[1.891019,49.0269963],[1.8915236,49.0279087],[1.8922121,49.028696],[1.8926134,49.0294053],[1.8886378,49.0279245],[1.8879347,49.0277323],[1.8872373,49.0277225],[1.8848666,49.030692],[1.8847641,49.0309915],[1.8845763,49.0313457],[1.8843666,49.0311289],[1.8844515,49.031098],[1.8821621,49.0283896],[1.8816237,49.0256717],[1.8817083,49.0247584],[1.8817089,49.023569]]]]},"properties":{"code_section":"782610000D","code_commune":"78261","section_courte":"D"}},{"type":"Feature","geometry":{"type":"MultiPolygon","coordinates":[[[[1.8911577,49.0256208],[1.8914819,49.02545],[1.8914179,49.0253621],[1.8914015,49.0252445],[1.8914892,49.0252026],[1.8914347,49.025113],[1.8917207,49.024921],[1.8918491,49.0249953],[1.8919198,49.0249788],[1.8923645,49.0247092],[1.8923009,49.0245498],[1.8922415,49.0245752],[1.8921524,49.024416],[1.8922393,49.0243729],[1.8922274,49.0242597],[1.8923746,49.0242355],[1.8924959,49.0242971],[1.8925803,49.0242622],[1.8927441,49.0244523],[1.8928717,49.0243883],[1.8929712,49.0242773],[1.8931922,49.0242903],[1.8933629,49.0244013],[1.8934026,49.0243868],[1.8937334,49.0240652],[1.8939092,49.0234637],[1.8941115,49.0239351],[1.8946741,49.0248085],[1.8952585,49.0254846],[1.8952797,49.0259221],[1.8954098,49.0262463],[1.8955078,49.0266585],[1.8956664,49.0269175],[1.8962585,49.0274994],[1.8965996,49.0277811],[1.8969147,49.0283659],[1.8977426,49.0288327],[1.897279,49.0291938],[1.8969652,49.0292715],[1.8967257,49.0292702],[1.8965464,49.0292345],[1.895224,49.0287685],[1.8946052,49.0286047],[1.8939451,49.0285003],[1.8931924,49.0282167],[1.8921831,49.0277665],[1.891156,49.0271985],[1.891019,49.0269963],[1.8910477,49.0266126],[1.8912496,49.0259999],[1.8911577,49.0256208]]]]},"properties":{"code_section":"782610000E","code_commune":"78261","section_courte":"E"}}]}