{"type":"FeatureCollection","features":[{"type":"Feature","geometry":{"type":"MultiPolygon","coordinates":[[[[2.0680941,48.7892756],[2.0693487,48.7899724],[2.0647624,48.7907124],[2.0637208,48.7916926],[2.0629433,48.7919558],[2.0629303,48.791989],[2.053774,48.79425],[2.0524122,48.7918419],[2.0520688,48.791378],[2.0520772,48.7910253],[2.0527066,48.7913371],[2.0531634,48.7913678],[2.0546005,48.7909918],[2.0557414,48.7896324],[2.0583182,48.7890213],[2.0587417,48.7892306],[2.0594749,48.7887369],[2.0604124,48.7885077],[2.0609276,48.7895207],[2.062851,48.7900686],[2.0637217,48.7894215],[2.0647391,48.7888978],[2.0656983,48.7882704],[2.0663389,48.7881293],[2.0665651,48.788536],[2.066826,48.788764],[2.0675014,48.7891041],[2.0680941,48.7892756]]]]},"properties":{"code_section":"782970000A","code_commune":"78297","section_courte":"A"}},{"type":"Feature","geometry":{"type":"MultiPolygon","coordinates":[[[[2.0915535,48.7746429],[2.091535,48.7748453],[2.091861,48.7753249],[2.0921141,48.7753882],[2.0929259,48.775501],[2.0933816,48.7756334],[2.0944635,48.7763862],[2.0946035,48.7765087],[2.0951126,48.7771462],[2.0956005,48.7775687],[2.0961659,48.778362],[2.0963702,48.778822],[2.0963988,48.7790254],[2.0960677,48.7815196],[2.0958868,48.7815131],[2.0916187,48.7822114],[2.0891911,48.7830852],[2.0842905,48.7846742],[2.0842325,48.7848474],[2.0841908,48.7848619],[2.082935,48.788563],[2.0777575,48.7893001],[2.0767004,48.7888478],[2.0743778,48.7886849],[2.0700078,48.7891242],[2.0699521,48.7891336],[2.0700421,48.7898754],[2.0693487,48.7899724],[2.0682807,48.789357],[2.0680941,48.7892756],[2.0675014,48.7891041],[2.0666989,48.7886789],[2.0665163,48.7884711],[2.0663389,48.7881293],[2.0666985,48.7880502],[2.0696804,48.7875966],[2.0697899,48.7878823],[2.0734677,48.7870736],[2.0787413,48.7863916],[2.076882,48.7850564],[2.0755764,48.7841772],[2.0752093,48.7839441],[2.0746609,48.7837117],[2.0738817,48.7834204],[2.0720228,48.7827964],[2.0701822,48.7825276],[2.0680237,48.7820216],[2.0683805,48.7815858],[2.0677716,48.7811671],[2.0683914,48.7807792],[2.0685512,48.7806449],[2.0691525,48.780311],[2.0677126,48.7794425],[2.0676928,48.7793593],[2.0679669,48.7791488],[2.0676222,48.7788488],[2.0670664,48.7785653],[2.0663929,48.778084],[2.0663451,48.7780119],[2.0663704,48.7778495],[2.0665606,48.7775514],[2.0667403,48.7775847],[2.0669191,48.7773553],[2.0680704,48.7776567],[2.0681988,48.7777158],[2.0692717,48.77864],[2.0700061,48.7784686],[2.0706753,48.7781461],[2.0710882,48.7780569],[2.0714833,48.7782551],[2.0717217,48.7784538],[2.0717745,48.7785947],[2.071793,48.7789169],[2.0718463,48.779004],[2.0719793,48.7790962],[2.0722847,48.7792086],[2.0731869,48.7793029],[2.073803,48.7795341],[2.0739594,48.7796258],[2.0740369,48.7798346],[2.0743232,48.7801],[2.0744118,48.7801482],[2.0746703,48.7801953],[2.0749472,48.7803839],[2.0753903,48.7805311],[2.0756429,48.7805554],[2.076669,48.7811079],[2.0770245,48.7814974],[2.0778215,48.782157],[2.0784272,48.7822357],[2.0790442,48.7822274],[2.0795142,48.7821539],[2.0803732,48.7819467],[2.0823772,48.781551],[2.0827575,48.781453],[2.0833493,48.7811563],[2.0834244,48.7810913],[2.0834526,48.7809533],[2.0835686,48.780869],[2.0836767,48.7809831],[2.0849482,48.7803022],[2.0853447,48.7800452],[2.085817,48.7796246],[2.0863957,48.7787667],[2.0867657,48.7780137],[2.0870812,48.7776153],[2.0873747,48.7774539],[2.0885191,48.777192],[2.0887509,48.7773724],[2.0899359,48.7769569],[2.0894432,48.7769129],[2.0892833,48.7765298],[2.0893551,48.7765144],[2.0893131,48.776361],[2.0895173,48.7763405],[2.0891144,48.7749638],[2.0894196,48.7749382],[2.0898782,48.7748537],[2.0904699,48.7747162],[2.0903867,48.7746965],[2.091642,48.7744668],[2.0915535,48.7746429]]]]},"properties":{"code_section":"782970000B","code_commune":"78297","section_courte":"B"}},{"type":"Feature","geometry":{"type":"MultiPolygon","coordinates":[[[[2.1033096,48.7722372],[2.1055781,48.7808189],[2.1055124,48.780867],[2.103211,48.7801107],[2.1001634,48.7809232],[2.0960677,48.7815196],[2.0963988,48.7790254],[2.096285,48.7785858],[2.0958825,48.7779354],[2.0956005,48.7775687],[2.094951,48.7769768],[2.0946035,48.7765087],[2.0934404,48.7756621],[2.0934148,48.7755833],[2.0936404,48.775691],[2.0962498,48.7757326],[2.096292,48.7756204],[2.0966173,48.7752309],[2.0966697,48.7750084],[2.0969173,48.7745128],[2.0976056,48.7740847],[2.098057,48.77375],[2.0996195,48.7728887],[2.1010452,48.7720664],[2.1011988,48.7719424],[2.10171,48.771689],[2.1018235,48.7716821],[2.101992,48.7717603],[2.1030886,48.7714841],[2.1033096,48.7722372]]]]},"properties":{"code_section":"782970000C","code_commune":"78297","section_courte":"C"}},{"type":"Feature","geometry":{"type":"MultiPolygon","coordinates":[[[[2.0666362,48.7730576],[2.0673067,48.7736429],[2.0674902,48.7736397],[2.0701928,48.776194],[2.0702194,48.7762224],[2.0701469,48.7764849],[2.0701791,48.7765798],[2.0702957,48.7766525],[2.0704721,48.7766986],[2.0706922,48.7766958],[2.0722209,48.7759066],[2.0723916,48.7760486],[2.0708331,48.7768472],[2.0707828,48.7769956],[2.0708514,48.7771305],[2.0714443,48.7776694],[2.0709344,48.7779335],[2.0710882,48.7780569],[2.0706753,48.7781461],[2.0701462,48.7784133],[2.0697426,48.7785406],[2.0692717,48.77864],[2.0681988,48.7777158],[2.0680704,48.7776567],[2.0669191,48.7773553],[2.0669251,48.7773277],[2.0655942,48.7769118],[2.065075,48.7764512],[2.0642432,48.7743648],[2.0641601,48.7743464],[2.0648732,48.7739822],[2.0648672,48.7739534],[2.0650124,48.7738681],[2.0666362,48.7730576]]]]},"properties":{"code_section":"78297000AB","code_commune":"78297","section_courte":"AB"}},{"type":"Feature","geometry":{"type":"MultiPolygon","coordinates":[[[[2.0746272,48.7801797],[2.0744118,48.7801482],[2.0743232,48.7801],[2.0740369,48.7798346],[2.0739594,48.7796258],[2.073613,48.7794531],[2.0731869,48.7793029],[2.0722847,48.7792086],[2.0718867,48.7790426],[2.071793,48.7789169],[2.0717745,48.7785947],[2.0717217,48.7784538],[2.0714833,48.7782551],[2.0710882,48.7780569],[2.0709344,48.7779335],[2.0714443,48.7776694],[2.0709826,48.7772712],[2.0707828,48.7769956],[2.0708331,48.7768472],[2.0761326,48.7741268],[2.0762116,48.7741308],[2.0762816,48.774051],[2.0764499,48.7741448],[2.0764511,48.7742173],[2.0773439,48.7747211],[2.0775281,48.775144],[2.0779436,48.7756903],[2.0782023,48.7759687],[2.0796869,48.777302],[2.0747081,48.7802287],[2.0746272,48.7801797]]]]},"properties":{"code_section":"78297000AC","code_commune":"78297","section_courte":"AC"}},{"type":"Feature","geometry":{"type":"MultiPolygon","coordinates":[[[[2.076066,48.773931],[2.0787891,48.7725218],[2.0802414,48.7716999],[2.0803947,48.7715784],[2.0804593,48.7714254],[2.0804341,48.7712667],[2.0803142,48.7711203],[2.0808265,48.7714869],[2.0809101,48.7714386],[2.0824412,48.7724957],[2.0833996,48.77305],[2.0835681,48.7730982],[2.0835371,48.7731671],[2.0840445,48.7743896],[2.0838901,48.774508],[2.0821604,48.7744658],[2.0829964,48.7752705],[2.0796869,48.777302],[2.0782023,48.7759687],[2.0779436,48.7756903],[2.0775281,48.775144],[2.0773439,48.7747211],[2.0764511,48.7742173],[2.0764499,48.7741448],[2.076066,48.773931]]]]},"properties":{"code_section":"78297000AD","code_commune":"78297","section_courte":"AD"}},{"type":"Feature","geometry":{"type":"MultiPolygon","coordinates":[[[[2.0558817,48.7709884],[2.0558685,48.7709704],[2.0601925,48.7697659],[2.0615452,48.7692894],[2.0617189,48.769441],[2.0633589,48.7697317],[2.0633735,48.7696944],[2.0639926,48.769801],[2.0643257,48.76989],[2.0646161,48.7700296],[2.065447,48.7705498],[2.0656006,48.7705489],[2.0656548,48.7705875],[2.0655592,48.7706338],[2.0655752,48.770692],[2.0656698,48.7707824],[2.068088,48.7723323],[2.0650124,48.7738681],[2.0649524,48.7738665],[2.0645022,48.7735928],[2.0619389,48.7719626],[2.0619485,48.7719149],[2.061793,48.7719668],[2.0616231,48.7718885],[2.0594974,48.772581],[2.0595361,48.7726497],[2.0576204,48.7733409],[2.0558817,48.7709884]]]]},"properties":{"code_section":"78297000AE","code_commune":"78297","section_courte":"AE"}},{"type":"Feature","geometry":{"type":"MultiPolygon","coordinates":[[[[2.0587417,48.7892306],[2.0583182,48.7890213],[2.0557414,48.7896324],[2.0546005,48.7909918],[2.0531634,48.7913678],[2.0527066,48.7913371],[2.0483891,48.7890515],[2.0502837,48.7874017],[2.0479827,48.7862631],[2.0476257,48.785659],[2.0518494,48.7877791],[2.0519319,48.7877693],[2.0519355,48.787803],[2.0536367,48.7886483],[2.0550442,48.7874125],[2.0581901,48.7889632],[2.0599935,48.7882305],[2.0601277,48.7882568],[2.0601464,48.7882858],[2.0587417,48.7892306]]]]},"properties":{"code_section":"78297000AI","code_commune":"78297","section_courte":"AI"}},{"type":"Feature","geometry":{"type":"MultiPolygon","coordinates":[[[[2.0601277,48.7882568],[2.0599935,48.7882305],[2.0581901,48.7889632],[2.0550442,48.7874125],[2.0536367,48.7886483],[2.0519355,48.787803],[2.0519319,48.7877693],[2.0518494,48.7877791],[2.0476257,48.785659],[2.0479827,48.7862631],[2.0464052,48.7854768],[2.0479594,48.7841093],[2.0522533,48.7837073],[2.0526807,48.784972],[2.0527407,48.7852847],[2.0526705,48.7853704],[2.0534445,48.7851862],[2.0539526,48.7851439],[2.0545536,48.7851606],[2.0579125,48.7855845],[2.0583756,48.7856202],[2.058495,48.7855844],[2.0587563,48.7853727],[2.0587281,48.7855872],[2.0590881,48.7862215],[2.0589697,48.7862056],[2.0592193,48.7867756],[2.0601927,48.7882506],[2.0601464,48.7882858],[2.0601277,48.7882568]]]]},"properties":{"code_section":"78297000AK","code_commune":"78297","section_courte":"AK"}},{"type":"Feature","geometry":{"type":"MultiPolygon","coordinates":[[[[2.0496574,48.7805446],[2.0511351,48.7815505],[2.0515599,48.7819152],[2.0517987,48.7823731],[2.0522533,48.7837073],[2.0479594,48.7841093],[2.0483703,48.7837583],[2.0468485,48.7830792],[2.0465692,48.7818136],[2.0432344,48.7801568],[2.0459423,48.7777956],[2.0465586,48.7772148],[2.0466189,48.7771067],[2.0466327,48.7769618],[2.0464773,48.7766142],[2.0466408,48.7765687],[2.0471703,48.7774584],[2.047133,48.7775396],[2.0471647,48.7775854],[2.0472714,48.7775556],[2.0481171,48.778735],[2.0486306,48.7794925],[2.0489723,48.7801395],[2.0490393,48.7801228],[2.0496574,48.7805446]]]]},"properties":{"code_section":"78297000AL","code_commune":"78297","section_courte":"AL"}},{"type":"Feature","geometry":{"type":"MultiPolygon","coordinates":[[[[2.0521591,48.7834475],[2.0517987,48.7823731],[2.0516411,48.7820284],[2.0513155,48.7816818],[2.0507082,48.7812556],[2.0516856,48.7810783],[2.0518623,48.7810702],[2.0521249,48.780841],[2.0527033,48.7808126],[2.0530416,48.7805156],[2.0539933,48.780997],[2.0553063,48.7809078],[2.0601489,48.7796789],[2.0621252,48.7793314],[2.062514,48.7795353],[2.0628847,48.7797975],[2.0627834,48.7799885],[2.0626762,48.779972],[2.0626443,48.7799504],[2.0627167,48.779904],[2.0621007,48.7794846],[2.061855,48.779642],[2.0607861,48.779908],[2.0607294,48.7802772],[2.0607466,48.780651],[2.0608061,48.780914],[2.0610101,48.781289],[2.0618127,48.7822636],[2.0619391,48.7822782],[2.062257,48.7821294],[2.0621245,48.7824119],[2.0610188,48.7833274],[2.06093,48.7836895],[2.0606472,48.7840958],[2.0598073,48.7848252],[2.0596312,48.7847938],[2.0594505,48.7848],[2.058449,48.785607],[2.0579125,48.7855845],[2.0545536,48.7851606],[2.0539526,48.7851439],[2.0534445,48.7851862],[2.0526705,48.7853704],[2.0527407,48.7852847],[2.0526807,48.784972],[2.0521591,48.7834475]]]]},"properties":{"code_section":"78297000AM","code_commune":"78297","section_courte":"AM"}},{"type":"Feature","geometry":{"type":"MultiPolygon","coordinates":[[[[2.0593499,48.7765441],[2.0595992,48.7765025],[2.0597512,48.7765552],[2.0599371,48.7768947],[2.0602153,48.7775871],[2.0603345,48.7780873],[2.0598656,48.778072],[2.0595965,48.778139],[2.0599315,48.7785562],[2.0600361,48.7793317],[2.060244,48.7796621],[2.0553063,48.7809078],[2.0539933,48.780997],[2.0530416,48.7805156],[2.0529646,48.7805833],[2.0501372,48.7769084],[2.0517606,48.7760396],[2.0517015,48.7759875],[2.0522608,48.7756825],[2.0523089,48.7757387],[2.0522199,48.7759108],[2.0523305,48.7760004],[2.052256,48.7760422],[2.0522752,48.7761561],[2.0536477,48.7769208],[2.0554886,48.7772643],[2.0579987,48.7770673],[2.0590131,48.7766064],[2.0593499,48.7765441]]]]},"properties":{"code_section":"78297000AN","code_commune":"78297","section_courte":"AN"}},{"type":"Feature","geometry":{"type":"MultiPolygon","coordinates":[[[[2.0517015,48.7759875],[2.0517606,48.7760396],[2.0503386,48.776802],[2.0503122,48.7767364],[2.0498833,48.7768065],[2.0489098,48.7770531],[2.0489192,48.7770935],[2.0478364,48.7773428],[2.0471703,48.7774584],[2.0466408,48.7765687],[2.0464773,48.7766142],[2.0459218,48.775769],[2.0458982,48.7755411],[2.0461324,48.774815],[2.0461389,48.7746766],[2.0460917,48.7745484],[2.0456484,48.7738609],[2.0496018,48.772747],[2.0503049,48.7738429],[2.0511914,48.7735966],[2.0513191,48.7737916],[2.0517428,48.7736719],[2.0522812,48.7744232],[2.0522292,48.7744377],[2.0522641,48.7744943],[2.0518211,48.7746169],[2.051947,48.7748104],[2.0526668,48.7750096],[2.0533254,48.7747058],[2.0536536,48.7750072],[2.052917,48.7753427],[2.0517015,48.7759875]]]]},"properties":{"code_section":"78297000AO","code_commune":"78297","section_courte":"AO"}},{"type":"Feature","geometry":{"type":"MultiPolygon","coordinates":[[[[2.0549234,48.7744143],[2.056829,48.7736342],[2.0595361,48.7726497],[2.0594974,48.772581],[2.0616231,48.7718885],[2.061793,48.7719668],[2.0619485,48.7719149],[2.0619389,48.7719626],[2.0645022,48.7735928],[2.0649524,48.7738665],[2.0650124,48.7738681],[2.0648672,48.7739534],[2.0648732,48.7739822],[2.0619636,48.7754652],[2.0617458,48.7756131],[2.0616521,48.7757755],[2.0616348,48.7759487],[2.0622204,48.7779498],[2.0614412,48.7782314],[2.060839,48.7780986],[2.0603345,48.7780873],[2.0602153,48.7775871],[2.0599371,48.7768947],[2.0597512,48.7765552],[2.0595992,48.7765025],[2.0590131,48.7766064],[2.0579987,48.7770673],[2.0554886,48.7772643],[2.0536477,48.7769208],[2.0523117,48.776185],[2.052256,48.7760422],[2.0523305,48.7760004],[2.0522199,48.7759108],[2.0523089,48.7757387],[2.0522608,48.7756825],[2.052917,48.7753427],[2.0549234,48.7744143]]]]},"properties":{"code_section":"78297000AP","code_commune":"78297","section_courte":"AP"}},{"type":"Feature","geometry":{"type":"MultiPolygon","coordinates":[[[[2.0575805,48.7732873],[2.0576204,48.7733409],[2.056829,48.7736342],[2.0549234,48.7744143],[2.0536536,48.7750072],[2.0533254,48.7747058],[2.0526668,48.7750096],[2.051947,48.7748104],[2.0518211,48.7746169],[2.0522641,48.7744943],[2.0522292,48.7744377],[2.0522812,48.7744232],[2.0517428,48.7736719],[2.0513191,48.7737916],[2.0511914,48.7735966],[2.0503049,48.7738429],[2.0496018,48.772747],[2.0558817,48.7709884],[2.0575805,48.7732873]]]]},"properties":{"code_section":"78297000AR","code_commune":"78297","section_courte":"AR"}},{"type":"Feature","geometry":{"type":"MultiPolygon","coordinates":[[[[2.0715008,48.7827027],[2.0722809,48.7828666],[2.0738817,48.7834204],[2.0752093,48.7839441],[2.076882,48.7850564],[2.0787413,48.7863916],[2.0734677,48.7870736],[2.0697899,48.7878823],[2.0696804,48.7875966],[2.0673665,48.7879478],[2.0668955,48.7877352],[2.0662879,48.7873978],[2.0658349,48.7862477],[2.0657726,48.7859949],[2.0650198,48.7857728],[2.0704848,48.7825719],[2.0715008,48.7827027]]]]},"properties":{"code_section":"78297000AT","code_commune":"78297","section_courte":"AT"}},{"type":"Feature","geometry":{"type":"MultiPolygon","coordinates":[[[[2.0569961,48.7662311],[2.0628476,48.7638024],[2.066032,48.7660677],[2.0659977,48.7660922],[2.0663743,48.7663577],[2.0641828,48.7679251],[2.0617518,48.7692024],[2.0610865,48.7694681],[2.0601925,48.7697659],[2.0558685,48.7709704],[2.0544359,48.7689557],[2.0540857,48.7682492],[2.053832,48.767548],[2.0569961,48.7662311]]]]},"properties":{"code_section":"78297000AV","code_commune":"78297","section_courte":"AV"}},{"type":"Feature","geometry":{"type":"MultiPolygon","coordinates":[[[[2.0673191,48.7879615],[2.067041,48.7878714],[2.0662609,48.7877027],[2.0649602,48.7875182],[2.0644497,48.7874185],[2.0639029,48.7872618],[2.0636785,48.7871254],[2.0635091,48.786955],[2.0633399,48.7866166],[2.0628366,48.7851439],[2.0627538,48.7844188],[2.0626026,48.7840515],[2.0626634,48.7839504],[2.062973,48.783749],[2.0630927,48.7835609],[2.0631034,48.7834105],[2.0630237,48.7833588],[2.0628342,48.7830943],[2.0624746,48.7829219],[2.062427,48.7828489],[2.0623567,48.7828411],[2.0621245,48.7824119],[2.0637665,48.78264],[2.065657,48.7827947],[2.0657396,48.782534],[2.0657386,48.7819663],[2.0664216,48.7820467],[2.0667056,48.7821627],[2.0674781,48.7820455],[2.0680237,48.7820216],[2.0701822,48.7825276],[2.0704959,48.7825654],[2.0650198,48.7857728],[2.0657726,48.7859949],[2.0658349,48.7862477],[2.0662879,48.7873978],[2.0668955,48.7877352],[2.0673665,48.7879478],[2.0673191,48.7879615]]]]},"properties":{"code_section":"78297000AW","code_commune":"78297","section_courte":"AW"}},{"type":"Feature","geometry":{"type":"MultiPolygon","coordinates":[[[[2.0618082,48.761527],[2.0632423,48.761148],[2.0635237,48.7603129],[2.0642087,48.7601356],[2.0633321,48.7575566],[2.0651446,48.7574381],[2.0662146,48.7572709],[2.0672267,48.7570132],[2.0678571,48.7581039],[2.0730912,48.7606729],[2.0727743,48.7613424],[2.0723991,48.7618597],[2.071698,48.7614922],[2.071154,48.7612676],[2.0705321,48.7611119],[2.0698435,48.7610364],[2.0691891,48.7610532],[2.0684915,48.7611624],[2.0652001,48.7621214],[2.0647479,48.7622145],[2.0642896,48.7622657],[2.0638116,48.7622711],[2.0633518,48.7622351],[2.0629419,48.7621666],[2.0625336,48.7620601],[2.0620587,48.7618821],[2.0616653,48.7616882],[2.0618082,48.761527]]]]},"properties":{"code_section":"78297000BC","code_commune":"78297","section_courte":"BC"}},{"type":"Feature","geometry":{"type":"MultiPolygon","coordinates":[[[[2.0731241,48.7606889],[2.0678571,48.7581039],[2.0672267,48.7570132],[2.071192,48.7560001],[2.0728695,48.7581817],[2.073128,48.7586631],[2.0732215,48.7589977],[2.07327,48.759658],[2.0732408,48.7600788],[2.0731241,48.7606889]]]]},"properties":{"code_section":"78297000BD","code_commune":"78297","section_courte":"BD"}},{"type":"Feature","geometry":{"type":"MultiPolygon","coordinates":[[[[2.0822171,48.7702861],[2.0803344,48.7660207],[2.0723991,48.7618597],[2.0727199,48.7614303],[2.0730912,48.7606729],[2.0731241,48.7606889],[2.0732651,48.7597963],[2.0732215,48.7589977],[2.073128,48.7586631],[2.0729318,48.7582724],[2.071192,48.7560001],[2.0727817,48.7555799],[2.07405,48.7552858],[2.0757763,48.7546753],[2.0776597,48.7540728],[2.0784843,48.753954],[2.0781992,48.7546645],[2.0766484,48.7556025],[2.079028,48.7566418],[2.0813429,48.7544114],[2.0897875,48.755401],[2.0905197,48.7556085],[2.0895966,48.7565665],[2.0884914,48.7573554],[2.0883202,48.7577044],[2.0891828,48.7596233],[2.0902152,48.7598935],[2.0921945,48.7607046],[2.092977,48.7616808],[2.0935276,48.7632949],[2.094167,48.7639601],[2.0917742,48.7653314],[2.0915849,48.7653326],[2.0912014,48.7650665],[2.0890692,48.7655118],[2.0857439,48.7660014],[2.0847472,48.7666596],[2.084875,48.7678838],[2.0856036,48.7695337],[2.0852346,48.7700328],[2.0822171,48.7702861]]]]},"properties":{"code_section":"78297000BE","code_commune":"78297","section_courte":"BE"}},{"type":"Feature","geometry":{"type":"MultiPolygon","coordinates":[[[[2.071454,48.7627203],[2.0665573,48.7662223],[2.0667469,48.7663503],[2.0665569,48.7664874],[2.0659977,48.7660922],[2.066032,48.7660677],[2.0628476,48.7638024],[2.0629872,48.7637578],[2.0610196,48.7624019],[2.0616653,48.7616882],[2.0622893,48.7619755],[2.0629419,48.7621666],[2.0636938,48.7622659],[2.0643851,48.7622584],[2.0652001,48.7621214],[2.0684915,48.7611624],[2.0691891,48.7610532],[2.0698435,48.7610364],[2.0705321,48.7611119],[2.071154,48.7612676],[2.071698,48.7614922],[2.0723991,48.7618597],[2.0719824,48.7622929],[2.071454,48.7627203]]]]},"properties":{"code_section":"78297000BH","code_commune":"78297","section_courte":"BH"}},{"type":"Feature","geometry":{"type":"MultiPolygon","coordinates":[[[[2.0781775,48.7648916],[2.0737513,48.7685784],[2.0725921,48.7682012],[2.0723171,48.7681337],[2.072055,48.7681093],[2.0693978,48.7683239],[2.0666679,48.7664072],[2.0667469,48.7663503],[2.0665573,48.7662223],[2.071454,48.7627203],[2.0719824,48.7622929],[2.0723991,48.7618597],[2.0781775,48.7648916]]]]},"properties":{"code_section":"78297000BI","code_commune":"78297","section_courte":"BI"}},{"type":"Feature","geometry":{"type":"MultiPolygon","coordinates":[[[[2.0738336,48.7685144],[2.0781775,48.7648916],[2.0803344,48.7660207],[2.0822171,48.7702861],[2.0805388,48.7704451],[2.0798479,48.7705871],[2.079957,48.7706894],[2.0799764,48.770777],[2.0798636,48.7707097],[2.0760992,48.7693425],[2.0737513,48.7685784],[2.0738336,48.7685144]]]]},"properties":{"code_section":"78297000BK","code_commune":"78297","section_courte":"BK"}},{"type":"Feature","geometry":{"type":"MultiPolygon","coordinates":[[[[2.0823772,48.781551],[2.0803732,48.7819467],[2.0795142,48.7821539],[2.0790442,48.7822274],[2.0784272,48.7822357],[2.0778966,48.7821775],[2.0778215,48.782157],[2.0770245,48.7814974],[2.076669,48.7811079],[2.0756429,48.7805554],[2.0753903,48.7805311],[2.0749472,48.7803839],[2.0747081,48.7802287],[2.0796869,48.777302],[2.0801207,48.7776904],[2.0819848,48.7795671],[2.0832445,48.7805376],[2.0835686,48.780869],[2.0834526,48.7809533],[2.0834244,48.7810913],[2.0833493,48.7811563],[2.0827575,48.781453],[2.0823772,48.781551]]]]},"properties":{"code_section":"78297000BL","code_commune":"78297","section_courte":"BL"}},{"type":"Feature","geometry":{"type":"MultiPolygon","coordinates":[[[[2.0657386,48.7819663],[2.0657396,48.782534],[2.065657,48.7827947],[2.0637665,48.78264],[2.0621245,48.7824119],[2.062257,48.7821294],[2.0619391,48.7822782],[2.0618127,48.7822636],[2.0612878,48.7816454],[2.0608846,48.781091],[2.0608061,48.780914],[2.0607331,48.780526],[2.0607861,48.779908],[2.061855,48.779642],[2.0621007,48.7794846],[2.0627167,48.779904],[2.0626443,48.7799504],[2.0626762,48.779972],[2.0627834,48.7799885],[2.0628847,48.7797975],[2.0633463,48.780146],[2.0633064,48.7801566],[2.0635247,48.7803314],[2.0641328,48.7807536],[2.0644915,48.7809621],[2.0645406,48.7806685],[2.0656195,48.7807293],[2.0662184,48.7800504],[2.0663462,48.7797121],[2.0665813,48.7797863],[2.0667402,48.7800036],[2.0672166,48.7797266],[2.0676149,48.780072],[2.0681915,48.7804349],[2.0682976,48.7806636],[2.0684212,48.7807565],[2.0677716,48.7811671],[2.0683805,48.7815858],[2.0680237,48.7820216],[2.0674781,48.7820455],[2.0667056,48.7821627],[2.0664216,48.7820467],[2.0657386,48.7819663]]]]},"properties":{"code_section":"78297000BM","code_commune":"78297","section_courte":"BM"}},{"type":"Feature","geometry":{"type":"MultiPolygon","coordinates":[[[[2.0616348,48.7759487],[2.0616889,48.7756918],[2.0618227,48.7755436],[2.0641601,48.7743464],[2.0642432,48.7743648],[2.065075,48.7764512],[2.0655942,48.7769118],[2.0669251,48.7773277],[2.0667403,48.7775847],[2.0665606,48.7775514],[2.0663704,48.7778495],[2.0663451,48.7780119],[2.0663929,48.778084],[2.0670664,48.7785653],[2.0676222,48.7788488],[2.0679669,48.7791488],[2.0676928,48.7793593],[2.0677126,48.7794425],[2.0691525,48.780311],[2.0685512,48.7806449],[2.0684212,48.7807565],[2.0682976,48.7806636],[2.0681915,48.7804349],[2.0676149,48.780072],[2.0672166,48.7797266],[2.0667402,48.7800036],[2.0665813,48.7797863],[2.0663462,48.7797121],[2.0662184,48.7800504],[2.0656195,48.7807293],[2.0645406,48.7806685],[2.0644915,48.7809621],[2.0641328,48.7807536],[2.0635247,48.7803314],[2.0631259,48.7799681],[2.062514,48.7795353],[2.0621252,48.7793314],[2.060244,48.7796621],[2.0600361,48.7793317],[2.0599315,48.7785562],[2.0595965,48.778139],[2.0598656,48.778072],[2.060839,48.7780986],[2.0614412,48.7782314],[2.0622204,48.7779498],[2.0616348,48.7759487]]]]},"properties":{"code_section":"78297000BN","code_commune":"78297","section_courte":"BN"}},{"type":"Feature","geometry":{"type":"MultiPolygon","coordinates":[[[[2.0666362,48.7730576],[2.068003,48.7723753],[2.0685256,48.7727178],[2.0687826,48.7727496],[2.0690195,48.7727037],[2.0694424,48.7725188],[2.0701036,48.7718204],[2.0707841,48.7718459],[2.0712812,48.7717626],[2.071642,48.7718261],[2.0722249,48.772016],[2.0727482,48.7721469],[2.0758928,48.7739066],[2.0760229,48.7739069],[2.0762816,48.774051],[2.0762116,48.7741308],[2.0761326,48.7741268],[2.0723916,48.7760486],[2.0722209,48.7759066],[2.0706922,48.7766958],[2.0704721,48.7766986],[2.0702957,48.7766525],[2.0701791,48.7765798],[2.0701469,48.7764849],[2.0702194,48.7762224],[2.0701928,48.776194],[2.0674902,48.7736397],[2.0673067,48.7736429],[2.0666362,48.7730576]]]]},"properties":{"code_section":"78297000BR","code_commune":"78297","section_courte":"BR"}},{"type":"Feature","geometry":{"type":"MultiPolygon","coordinates":[[[[2.0761433,48.7738913],[2.076066,48.773931],[2.0758928,48.7739066],[2.0727482,48.7721469],[2.0722249,48.772016],[2.071642,48.7718261],[2.0712812,48.7717626],[2.0707841,48.7718459],[2.0701036,48.7718204],[2.070308,48.7715714],[2.0706382,48.771296],[2.0710588,48.7707686],[2.0757218,48.7694239],[2.0760992,48.7693425],[2.0798636,48.7707097],[2.0799764,48.770777],[2.0809101,48.7714386],[2.0808265,48.7714869],[2.0803142,48.7711203],[2.0804341,48.7712667],[2.0804593,48.7714254],[2.0803947,48.7715784],[2.0802414,48.7716999],[2.0787891,48.7725218],[2.0761433,48.7738913]]]]},"properties":{"code_section":"78297000BS","code_commune":"78297","section_courte":"BS"}},{"type":"Feature","geometry":{"type":"MultiPolygon","coordinates":[[[[2.0655752,48.770692],[2.0655592,48.7706338],[2.0656548,48.7705875],[2.0656914,48.7706093],[2.0662446,48.7702637],[2.0666644,48.7697821],[2.0667649,48.7696161],[2.0673549,48.7691234],[2.0686524,48.7685275],[2.0693978,48.7683239],[2.0717968,48.7681204],[2.0723171,48.7681337],[2.0725921,48.7682012],[2.0760992,48.7693425],[2.0757218,48.7694239],[2.0710588,48.7707686],[2.0706382,48.771296],[2.070308,48.7715714],[2.0694424,48.7725188],[2.0690195,48.7727037],[2.0687826,48.7727496],[2.0685256,48.7727178],[2.0684069,48.7726493],[2.068003,48.7723753],[2.068088,48.7723323],[2.0656698,48.7707824],[2.0655752,48.770692]]]]},"properties":{"code_section":"78297000BT","code_commune":"78297","section_courte":"BT"}},{"type":"Feature","geometry":{"type":"MultiPolygon","coordinates":[[[[2.0686524,48.7685275],[2.0673549,48.7691234],[2.0667649,48.7696161],[2.0666644,48.7697821],[2.0662446,48.7702637],[2.0656914,48.7706093],[2.0656006,48.7705489],[2.065447,48.7705498],[2.0646161,48.7700296],[2.0643257,48.76989],[2.0639926,48.769801],[2.0633735,48.7696944],[2.0633589,48.7697317],[2.0617189,48.769441],[2.0615452,48.7692894],[2.0641828,48.7679251],[2.0663743,48.7663577],[2.0665569,48.7664874],[2.0666679,48.7664072],[2.0693978,48.7683239],[2.0686524,48.7685275]]]]},"properties":{"code_section":"78297000BV","code_commune":"78297","section_courte":"BV"}},{"type":"Feature","geometry":{"type":"MultiPolygon","coordinates":[[[[2.0594505,48.7848],[2.0596312,48.7847938],[2.0598073,48.7848252],[2.0606472,48.7840958],[2.06093,48.7836895],[2.0610188,48.7833274],[2.0621245,48.7824119],[2.0623567,48.7828411],[2.062427,48.7828489],[2.0624746,48.7829219],[2.0628342,48.7830943],[2.0630237,48.7833588],[2.0631034,48.7834105],[2.0630927,48.7835609],[2.062973,48.783749],[2.0626634,48.7839504],[2.0626026,48.7840515],[2.0627538,48.7844188],[2.0628366,48.7851439],[2.0633399,48.7866166],[2.0635091,48.786955],[2.0636785,48.7871254],[2.0639029,48.7872618],[2.0644497,48.7874185],[2.0649602,48.7875182],[2.0662609,48.7877027],[2.067041,48.7878714],[2.0673191,48.7879615],[2.0666985,48.7880502],[2.0656983,48.7882704],[2.0647391,48.7888978],[2.0637217,48.7894215],[2.062851,48.7900686],[2.0609276,48.7895207],[2.0604124,48.7885077],[2.0594749,48.7887369],[2.0601927,48.7882506],[2.0592193,48.7867756],[2.0589697,48.7862056],[2.0590881,48.7862215],[2.0587281,48.7855872],[2.0587252,48.7855118],[2.0587563,48.7853727],[2.0594505,48.7848]]]]},"properties":{"code_section":"78297000ZB","code_commune":"78297","section_courte":"ZB"}},{"type":"Feature","geometry":{"type":"MultiPolygon","coordinates":[[[[2.0835371,48.7731671],[2.0835681,48.7730982],[2.0843709,48.7733586],[2.0865365,48.7739023],[2.0889842,48.7744312],[2.0902002,48.7746642],[2.0902088,48.7747842],[2.0894196,48.7749382],[2.0891144,48.7749638],[2.0895173,48.7763405],[2.0893131,48.776361],[2.0893551,48.7765144],[2.0892833,48.7765298],[2.0894432,48.7769129],[2.0899359,48.7769569],[2.0887509,48.7773724],[2.0885191,48.777192],[2.0873747,48.7774539],[2.0870812,48.7776153],[2.0867657,48.7780137],[2.0863957,48.7787667],[2.085817,48.7796246],[2.0853447,48.7800452],[2.0849482,48.7803022],[2.0836767,48.7809831],[2.0832445,48.7805376],[2.0819848,48.7795671],[2.0801207,48.7776904],[2.0796869,48.777302],[2.0829964,48.7752705],[2.0821604,48.7744658],[2.0838901,48.774508],[2.0840445,48.7743896],[2.0835371,48.7731671]]]]},"properties":{"code_section":"78297000ZC","code_commune":"78297","section_courte":"ZC"}},{"type":"Feature","geometry":{"type":"MultiPolygon","coordinates":[[[[2.10096,48.7647408],[2.1027289,48.767038],[2.1053094,48.7708786],[2.1034173,48.771018],[2.1031337,48.7710603],[2.1028753,48.7711771],[2.1030886,48.7714841],[2.101992,48.7717603],[2.1018235,48.7716821],[2.1017388,48.7716788],[2.1011988,48.7719424],[2.1010452,48.7720664],[2.0996195,48.7728887],[2.098057,48.77375],[2.0976056,48.7740847],[2.0969173,48.7745128],[2.0966697,48.7750084],[2.0966173,48.7752309],[2.096292,48.7756204],[2.0962498,48.7757326],[2.0936404,48.775691],[2.0934148,48.7755833],[2.0934404,48.7756621],[2.0929259,48.775501],[2.0921141,48.7753882],[2.091861,48.7753249],[2.091535,48.7748453],[2.0915195,48.7747598],[2.091642,48.7744668],[2.0903867,48.7746965],[2.0904699,48.7747162],[2.0902088,48.7747842],[2.0902002,48.7746642],[2.0889842,48.7744312],[2.0865365,48.7739023],[2.0843709,48.7733586],[2.0833996,48.77305],[2.0824412,48.7724957],[2.0799764,48.770777],[2.079957,48.7706894],[2.0798479,48.7705871],[2.0805388,48.7704451],[2.0852346,48.7700328],[2.0856036,48.7695337],[2.084875,48.7678838],[2.0847472,48.7666596],[2.0857439,48.7660014],[2.0890692,48.7655118],[2.0895385,48.7654138],[2.0895102,48.7655647],[2.0911378,48.7652133],[2.091491,48.7654765],[2.0945848,48.7654882],[2.0954701,48.7651822],[2.0954858,48.7643792],[2.1020682,48.7633691],[2.1026074,48.7645102],[2.10096,48.7647408]]]]},"properties":{"code_section":"78297000ZD","code_commune":"78297","section_courte":"ZD"}},{"type":"Feature","geometry":{"type":"MultiPolygon","coordinates":[[[[2.092977,48.7616808],[2.0921945,48.7607046],[2.0902152,48.7598935],[2.0891828,48.7596233],[2.0883202,48.7577044],[2.0884914,48.7573554],[2.0895966,48.7565665],[2.0905197,48.7556085],[2.0907683,48.7554013],[2.0908831,48.7552191],[2.0908764,48.7548287],[2.0910359,48.7546214],[2.0912681,48.7544316],[2.091731,48.7542936],[2.0920741,48.755525],[2.0949046,48.7556012],[2.0976997,48.7563738],[2.0991066,48.7563468],[2.1004067,48.7561058],[2.1006705,48.7561912],[2.1007191,48.7561815],[2.1013391,48.7563333],[2.1021669,48.7591549],[2.1022202,48.7620058],[2.1014784,48.7620783],[2.1020682,48.7633691],[2.0954858,48.7643792],[2.0954701,48.7651822],[2.0945848,48.7654882],[2.091491,48.7654765],[2.0911378,48.7652133],[2.0895102,48.7655647],[2.0895385,48.7654138],[2.0912014,48.7650665],[2.0915849,48.7653326],[2.0917742,48.7653314],[2.094167,48.7639601],[2.0935276,48.7632949],[2.092977,48.7616808]]]]},"properties":{"code_section":"78297000ZH","code_commune":"78297","section_courte":"ZH"}},{"type":"Feature","geometry":{"type":"MultiPolygon","coordinates":[[[[2.091731,48.7542936],[2.0912681,48.7544316],[2.0910359,48.7546214],[2.0908764,48.7548287],[2.0908831,48.7552191],[2.0907683,48.7554013],[2.0905197,48.7556085],[2.0897875,48.755401],[2.0813429,48.7544114],[2.079028,48.7566418],[2.0766484,48.7556025],[2.0781992,48.7546645],[2.0784843,48.753954],[2.0819059,48.7536849],[2.0845513,48.7535819],[2.0850499,48.7535154],[2.0855956,48.7534237],[2.0863167,48.7532381],[2.0884067,48.7525785],[2.0897906,48.7542986],[2.0914742,48.7536835],[2.0916957,48.753946],[2.091834,48.7542699],[2.091802,48.7543624],[2.091731,48.7542936]]]]},"properties":{"code_section":"78297000ZI","code_commune":"78297","section_courte":"ZI"}},{"type":"Feature","geometry":{"type":"MultiPolygon","coordinates":[[[[2.0490393,48.7801228],[2.0489723,48.7801395],[2.0486306,48.7794925],[2.0483732,48.779099],[2.0472714,48.7775556],[2.0471647,48.7775854],[2.047133,48.7775396],[2.0471703,48.7774584],[2.0478364,48.7773428],[2.0489192,48.7770935],[2.0489098,48.7770531],[2.0498833,48.7768065],[2.0503122,48.7767364],[2.0503386,48.776802],[2.0501372,48.7769084],[2.0529646,48.7805833],[2.0527033,48.7808126],[2.0521249,48.780841],[2.0518623,48.7810702],[2.0516856,48.7810783],[2.0507082,48.7812556],[2.0490393,48.7801228]]]]},"properties":{"code_section":"78297000ZM","code_commune":"78297","section_courte":"ZM"}}]}