{"type":"FeatureCollection","features":[{"type":"Feature","geometry":{"type":"MultiPolygon","coordinates":[[[[1.8883247,49.0089656],[1.8881774,49.0088416],[1.8882434,49.0086981],[1.8882678,49.0084645],[1.888229,49.0083868],[1.8883057,49.0081354],[1.8885643,49.0077358],[1.8886776,49.0071684],[1.8888067,49.0067899],[1.8892312,49.0059214],[1.889591,49.0053698],[1.8900948,49.0048113],[1.8905489,49.0048497],[1.891055,49.0038063],[1.8907284,49.0037205],[1.8901713,49.0036693],[1.8904446,49.0030618],[1.8897099,49.0029939],[1.8876627,49.0023201],[1.8878355,49.0021454],[1.8879506,49.0021575],[1.8879953,49.0018179],[1.887939,49.0016317],[1.8875868,49.0013004],[1.8877838,49.0012744],[1.8878204,49.0008128],[1.8878024,49.0007784],[1.887411,49.0006815],[1.8870909,49.0005342],[1.8876761,48.9996389],[1.8873205,48.9995326],[1.8882007,48.9984185],[1.891137,48.9995187],[1.8937675,49.0007429],[1.8944175,49.0009751],[1.8957066,49.0012824],[1.8974882,49.0015764],[1.8975092,49.0015458],[1.9006197,49.0023761],[1.902037,49.0026667],[1.9045084,49.0033122],[1.904242,49.0037442],[1.9049637,49.0039386],[1.9053925,49.0040935],[1.9053868,49.0041677],[1.9051821,49.0045168],[1.9050327,49.0049426],[1.9049474,49.0053446],[1.9045783,49.0063438],[1.9035414,49.0079599],[1.9031551,49.0087245],[1.9026544,49.0095729],[1.9024428,49.0099052],[1.9017172,49.0107793],[1.9016601,49.0109393],[1.9014052,49.0112326],[1.9010234,49.0119351],[1.8998624,49.0137127],[1.8997965,49.0139466],[1.8995747,49.0140046],[1.8994446,49.0142562],[1.8990813,49.0144188],[1.8993486,49.0148198],[1.899112,49.0149288],[1.8989002,49.0153854],[1.8989119,49.0154589],[1.8990387,49.0156031],[1.8989558,49.0158579],[1.8990276,49.0160048],[1.8989104,49.0162291],[1.898975,49.0163907],[1.8987559,49.0165665],[1.8984888,49.0169565],[1.8982928,49.0170577],[1.8977379,49.0176408],[1.8973028,49.0179285],[1.8970325,49.0179597],[1.8965455,49.018318],[1.8964163,49.0185191],[1.8955174,49.0178313],[1.8953513,49.0179524],[1.8946428,49.0182083],[1.8942298,49.0182471],[1.8936903,49.0183927],[1.893418,49.0185053],[1.8928353,49.0188379],[1.8917812,49.0182972],[1.8909723,49.0177676],[1.8905858,49.0175712],[1.8900972,49.0174027],[1.8892038,49.0172262],[1.8888536,49.0171012],[1.8881496,49.0167684],[1.8881444,49.0164902],[1.8882251,49.0164108],[1.8885259,49.0162956],[1.8889014,49.016031],[1.8890872,49.0159533],[1.889209,49.0159174],[1.8895766,49.0159232],[1.890088,49.0158453],[1.8920422,49.0162756],[1.8924958,49.0166195],[1.8938582,49.0157015],[1.8952146,49.0141787],[1.8964997,49.0130687],[1.896886,49.0126837],[1.8970427,49.0127001],[1.8972415,49.0125054],[1.8973698,49.0121306],[1.8977617,49.0121954],[1.8977052,49.0112605],[1.8958487,49.0108855],[1.8957166,49.0111642],[1.8944501,49.0107485],[1.893751,49.0113955],[1.893021,49.0110489],[1.8918499,49.0112588],[1.8918127,49.011234],[1.8923714,49.0105302],[1.891256,49.0101833],[1.8913654,49.0100229],[1.889101,49.0092167],[1.8889832,49.0088145],[1.8888693,49.0087138],[1.8887946,49.0087144],[1.888449,49.0089707],[1.8883247,49.0089656]]]]},"properties":{"code_section":"782990000B","code_commune":"78299","section_courte":"B"}},{"type":"Feature","geometry":{"type":"MultiPolygon","coordinates":[[[[1.8839276,49.0109051],[1.8843187,49.0114546],[1.8863339,49.0127433],[1.8876508,49.0135044],[1.888337,49.0143273],[1.8887987,49.0145699],[1.8893575,49.0147639],[1.8901281,49.0153039],[1.8901627,49.0155074],[1.890088,49.0158453],[1.8895766,49.0159232],[1.889209,49.0159174],[1.8889014,49.016031],[1.8885259,49.0162956],[1.8882251,49.0164108],[1.8881444,49.0164902],[1.8881496,49.0167684],[1.8888536,49.0171012],[1.8892038,49.0172262],[1.8900972,49.0174027],[1.8903781,49.0174973],[1.8899308,49.0179291],[1.8897825,49.0178479],[1.8886735,49.0181645],[1.885651,49.0184376],[1.8851748,49.0185088],[1.8840453,49.0189738],[1.8832485,49.0193579],[1.8828025,49.0195186],[1.8816479,49.0195883],[1.881161,49.0196597],[1.8800713,49.019891],[1.8795404,49.0199354],[1.8786697,49.0199087],[1.877668,49.0194354],[1.8753922,49.0171573],[1.8736005,49.0179168],[1.8724914,49.018541],[1.871171,49.0192216],[1.8705498,49.0196089],[1.8698932,49.0191603],[1.8693738,49.0186338],[1.8684359,49.0174649],[1.8679773,49.0166825],[1.8676634,49.0168516],[1.8667903,49.0163362],[1.8668322,49.016308],[1.865953,49.0158848],[1.865272,49.0156008],[1.8631927,49.0146361],[1.8614659,49.0140299],[1.8627921,49.0139687],[1.8636854,49.0138764],[1.8643102,49.0137706],[1.8652298,49.0137362],[1.8659189,49.0136158],[1.866572,49.0134434],[1.8688474,49.0130569],[1.8695746,49.012969],[1.8722551,49.0128142],[1.8742881,49.0127697],[1.8795147,49.012776],[1.8798201,49.0114518],[1.8802231,49.0102531],[1.8804282,49.0097761],[1.8815373,49.0099499],[1.8834307,49.0101791],[1.883452,49.0100984],[1.8835855,49.0101081],[1.8839276,49.0109051]]]]},"properties":{"code_section":"78299000ZS","code_commune":"78299","section_courte":"ZS"}},{"type":"Feature","geometry":{"type":"MultiPolygon","coordinates":[[[[1.8934384,49.0112415],[1.893751,49.0113955],[1.8944501,49.0107485],[1.8957166,49.0111642],[1.8958487,49.0108855],[1.8977052,49.0112605],[1.8977617,49.0121954],[1.8973698,49.0121306],[1.8972415,49.0125054],[1.8970427,49.0127001],[1.896886,49.0126837],[1.8964997,49.0130687],[1.8952146,49.0141787],[1.8938582,49.0157015],[1.8924958,49.0166195],[1.8920422,49.0162756],[1.890088,49.0158453],[1.8901627,49.0155074],[1.8901281,49.0153039],[1.8893575,49.0147639],[1.8887987,49.0145699],[1.888337,49.0143273],[1.8876508,49.0135044],[1.8863339,49.0127433],[1.8843187,49.0114546],[1.8839034,49.0108709],[1.8831558,49.0091081],[1.8841236,49.0091354],[1.8843105,49.0083973],[1.8846756,49.0075027],[1.8847779,49.0070291],[1.8848091,49.0070331],[1.8849989,49.0059165],[1.8858767,49.0060255],[1.8859665,49.0056822],[1.8870743,49.0058201],[1.887059,49.0055581],[1.8871739,49.004565],[1.8872539,49.0045621],[1.8874029,49.0039559],[1.8874009,49.0033896],[1.8873282,49.003145],[1.8873468,49.0030275],[1.887398,49.00284],[1.8876627,49.0023201],[1.8897099,49.0029939],[1.8904446,49.0030618],[1.8901713,49.0036693],[1.8907284,49.0037205],[1.891055,49.0038063],[1.8905489,49.0048497],[1.8900948,49.0048113],[1.889591,49.0053698],[1.8892312,49.0059214],[1.8887539,49.0069288],[1.8885643,49.0077358],[1.8883057,49.0081354],[1.888229,49.0083868],[1.8882678,49.0084645],[1.8882434,49.0086981],[1.8881774,49.0088416],[1.8882669,49.0089421],[1.888449,49.0089707],[1.8887946,49.0087144],[1.8888693,49.0087138],[1.8889832,49.0088145],[1.889101,49.0092167],[1.8913654,49.0100229],[1.891256,49.0101833],[1.8923714,49.0105302],[1.8918127,49.011234],[1.8918499,49.0112588],[1.893021,49.0110489],[1.8934384,49.0112415]]]]},"properties":{"code_section":"78299000ZT","code_commune":"78299","section_courte":"ZT"}}]}