{"type":"FeatureCollection","features":[{"type":"Feature","geometry":{"type":"MultiPolygon","coordinates":[[[[2.1848282,48.9371652],[2.1770695,48.9349078],[2.1789752,48.9338802],[2.1829643,48.9318059],[2.1829887,48.9321683],[2.1839662,48.9326442],[2.1860503,48.9330581],[2.1861728,48.9344668],[2.1868798,48.9365834],[2.1848282,48.9371652]]]]},"properties":{"code_section":"78311000AB","code_commune":"78311","section_courte":"AB"}},{"type":"Feature","geometry":{"type":"MultiPolygon","coordinates":[[[[2.1908644,48.9330191],[2.1912629,48.9317094],[2.1926208,48.9324508],[2.1935626,48.9329165],[2.1935781,48.9330356],[2.1955714,48.9336678],[2.1952593,48.9346824],[2.195371,48.9360254],[2.1891638,48.9361361],[2.1875722,48.9364517],[2.1868742,48.9365496],[2.1861728,48.9344668],[2.186103,48.9339233],[2.1860473,48.9326841],[2.1877093,48.9329408],[2.1876831,48.9330032],[2.1884969,48.9331444],[2.1892711,48.9331363],[2.1892979,48.9328531],[2.1908644,48.9330191]]]]},"properties":{"code_section":"78311000AC","code_commune":"78311","section_courte":"AC"}},{"type":"Feature","geometry":{"type":"MultiPolygon","coordinates":[[[[2.1891045,48.9331382],[2.1884969,48.9331444],[2.1876831,48.9330032],[2.1877093,48.9329408],[2.1860473,48.9326841],[2.1860503,48.9330581],[2.1840527,48.9326713],[2.1829887,48.9321683],[2.1829609,48.9317676],[2.1829237,48.9317444],[2.1832851,48.9309574],[2.1846693,48.9288457],[2.1850312,48.9289021],[2.1853949,48.9281229],[2.1854144,48.9281749],[2.185876,48.9283106],[2.1859492,48.928273],[2.1861908,48.9283405],[2.1872368,48.928676],[2.1878169,48.9289102],[2.1880807,48.9291017],[2.1878403,48.9292138],[2.1883705,48.9294874],[2.1902014,48.9298219],[2.1901013,48.9300283],[2.1908126,48.9302436],[2.1919212,48.9306957],[2.1915935,48.931014],[2.1912629,48.9317094],[2.1908644,48.9330191],[2.1892979,48.9328531],[2.1892711,48.9331363],[2.1891045,48.9331382]]]]},"properties":{"code_section":"78311000AD","code_commune":"78311","section_courte":"AD"}},{"type":"Feature","geometry":{"type":"MultiPolygon","coordinates":[[[[2.1934604,48.9328671],[2.1926208,48.9324508],[2.1912629,48.9317094],[2.1915935,48.931014],[2.1919212,48.9306957],[2.1908126,48.9302436],[2.1901013,48.9300283],[2.1914854,48.9273109],[2.1941873,48.9258794],[2.1944808,48.9260606],[2.1958852,48.9263308],[2.1949262,48.9288761],[2.1957605,48.9294784],[2.1950884,48.9303369],[2.1945326,48.9312417],[2.1942887,48.9317976],[2.1935626,48.9329165],[2.1934604,48.9328671]]]]},"properties":{"code_section":"78311000AE","code_commune":"78311","section_courte":"AE"}},{"type":"Feature","geometry":{"type":"MultiPolygon","coordinates":[[[[2.1969069,48.9360466],[2.1963149,48.9362243],[2.196302,48.9360224],[2.195376,48.9360475],[2.1952593,48.9346824],[2.1955714,48.9336678],[2.1935781,48.9330356],[2.1935712,48.932892],[2.1942887,48.9317976],[2.1945326,48.9312417],[2.1951518,48.9302442],[2.1957605,48.9294784],[2.1959104,48.9295834],[2.1971855,48.9299776],[2.1982574,48.930447],[2.1990178,48.9306823],[2.200549,48.9309699],[2.201549,48.9312086],[2.201924,48.9313481],[2.201327,48.9320868],[2.2012686,48.9321106],[2.2001077,48.9338752],[2.199257,48.9353292],[2.1989855,48.9352035],[2.1988793,48.9353814],[2.198477,48.9354946],[2.1983908,48.9356452],[2.1982544,48.9355831],[2.1981309,48.9358102],[2.1978532,48.9357936],[2.1976733,48.9358221],[2.1969069,48.9360466]]]]},"properties":{"code_section":"78311000AH","code_commune":"78311","section_courte":"AH"}},{"type":"Feature","geometry":{"type":"MultiPolygon","coordinates":[[[[2.2035721,48.927748],[2.2024845,48.9292231],[2.2028073,48.9293202],[2.2022151,48.930221],[2.2025241,48.930326],[2.20177,48.9312891],[2.201549,48.9312086],[2.200549,48.9309699],[2.1990178,48.9306823],[2.1982574,48.930447],[2.1971855,48.9299776],[2.1959104,48.9295834],[2.1949262,48.9288761],[2.1958852,48.9263308],[2.202899,48.927595],[2.2031083,48.927381],[2.203697,48.9275794],[2.2035721,48.927748]]]]},"properties":{"code_section":"78311000AI","code_commune":"78311","section_courte":"AI"}},{"type":"Feature","geometry":{"type":"MultiPolygon","coordinates":[[[[2.2035989,48.926609],[2.2030459,48.9273787],[2.203092,48.927396],[2.202899,48.927595],[2.1952142,48.9262158],[2.1944808,48.9260606],[2.1941873,48.9258794],[2.1954638,48.9251719],[2.1962657,48.9249816],[2.1967775,48.9227704],[2.1999728,48.9233435],[2.2033058,48.9241653],[2.2043851,48.9240598],[2.204091,48.9245448],[2.2043334,48.9245073],[2.2039829,48.9250829],[2.2045752,48.9252592],[2.2035989,48.926609]]]]},"properties":{"code_section":"78311000AK","code_commune":"78311","section_courte":"AK"}},{"type":"Feature","geometry":{"type":"MultiPolygon","coordinates":[[[[2.2043851,48.9240598],[2.2033058,48.9241653],[2.1999728,48.9233435],[2.1967775,48.9227704],[2.1970594,48.9220201],[2.1974523,48.920649],[2.1977162,48.9201776],[2.1978976,48.9199499],[2.198392,48.9196906],[2.1991765,48.9189716],[2.2023855,48.920971],[2.2047617,48.9218436],[2.2051268,48.9220177],[2.2049666,48.9222475],[2.2050349,48.9222479],[2.2047359,48.9226979],[2.2048852,48.9227455],[2.2043059,48.9236115],[2.2046229,48.9237069],[2.2043851,48.9240598]]]]},"properties":{"code_section":"78311000AL","code_commune":"78311","section_courte":"AL"}},{"type":"Feature","geometry":{"type":"MultiPolygon","coordinates":[[[[2.1986604,48.9194451],[2.198392,48.9196906],[2.1978976,48.9199499],[2.1977162,48.9201776],[2.1974523,48.920649],[2.1970594,48.9220201],[2.1967646,48.9228075],[2.1939692,48.9224639],[2.1941651,48.9214886],[2.1919199,48.921107],[2.1924234,48.9199599],[2.1915773,48.9198624],[2.1920783,48.9186376],[2.1924087,48.9182942],[2.1919788,48.9182043],[2.1931747,48.9162658],[2.1952727,48.9170751],[2.1954955,48.9168856],[2.1991765,48.9189716],[2.1986604,48.9194451]]]]},"properties":{"code_section":"78311000AM","code_commune":"78311","section_courte":"AM"}},{"type":"Feature","geometry":{"type":"MultiPolygon","coordinates":[[[[2.1917671,48.9210815],[2.1941651,48.9214886],[2.1939692,48.9224639],[2.1967646,48.9228075],[2.1962657,48.9249816],[2.1954638,48.9251719],[2.1942787,48.9258118],[2.1932467,48.9255207],[2.1925031,48.9247168],[2.1880085,48.9238131],[2.1886668,48.9229302],[2.188754,48.9227625],[2.1874938,48.9225257],[2.1885172,48.9205213],[2.1917671,48.9210815]]]]},"properties":{"code_section":"78311000AN","code_commune":"78311","section_courte":"AN"}},{"type":"Feature","geometry":{"type":"MultiPolygon","coordinates":[[[[2.1893497,48.929668],[2.1883705,48.9294874],[2.1878403,48.9292138],[2.1880807,48.9291017],[2.1878169,48.9289102],[2.1874088,48.9287365],[2.1860595,48.9283022],[2.1859492,48.928273],[2.185876,48.9283106],[2.1854023,48.9281695],[2.1854261,48.9281345],[2.1842471,48.9276224],[2.1839811,48.9272605],[2.1857922,48.9257778],[2.1876534,48.924353],[2.1880085,48.9238131],[2.1925031,48.9247168],[2.1932467,48.9255207],[2.1942787,48.9258118],[2.1914854,48.9273109],[2.1902014,48.9298219],[2.1893497,48.929668]]]]},"properties":{"code_section":"78311000AO","code_commune":"78311","section_courte":"AO"}},{"type":"Feature","geometry":{"type":"MultiPolygon","coordinates":[[[[2.1794959,48.9242487],[2.1786784,48.9240234],[2.1796756,48.9234343],[2.1804038,48.9234635],[2.1806086,48.9229716],[2.18077,48.9228239],[2.1844704,48.9210118],[2.1877498,48.9219853],[2.1874938,48.9225257],[2.188754,48.9227625],[2.1876534,48.924353],[2.1857922,48.9257778],[2.1839811,48.9272605],[2.181108,48.9257579],[2.1808255,48.9261526],[2.1785735,48.925454],[2.1794959,48.9242487]]]]},"properties":{"code_section":"78311000AP","code_commune":"78311","section_courte":"AP"}},{"type":"Feature","geometry":{"type":"MultiPolygon","coordinates":[[[[2.1919788,48.9182043],[2.1924087,48.9182942],[2.1920783,48.9186376],[2.1915773,48.9198624],[2.1924234,48.9199599],[2.1919199,48.921107],[2.1885172,48.9205213],[2.1877498,48.9219853],[2.1844704,48.9210118],[2.1839544,48.9212611],[2.1835721,48.9209236],[2.183643,48.9208297],[2.1819042,48.9204848],[2.1826766,48.9191614],[2.1836624,48.9194059],[2.1837566,48.9192973],[2.1844181,48.9179915],[2.1854583,48.9181981],[2.1868375,48.9186012],[2.1876441,48.9172065],[2.1888624,48.9175463],[2.1919788,48.9182043]]]]},"properties":{"code_section":"78311000AR","code_commune":"78311","section_courte":"AR"}},{"type":"Feature","geometry":{"type":"MultiPolygon","coordinates":[[[[2.1746373,48.9189429],[2.1755449,48.9178138],[2.1768926,48.9168486],[2.1778075,48.9159864],[2.1818176,48.9174061],[2.1830575,48.9177249],[2.1844181,48.9179915],[2.1837566,48.9192973],[2.1836624,48.9194059],[2.1826766,48.9191614],[2.1819306,48.9204197],[2.1803233,48.9200475],[2.1796494,48.9198071],[2.1794517,48.9197964],[2.1799367,48.9207076],[2.1800127,48.92094],[2.1763679,48.9197551],[2.1764096,48.9195707],[2.1754078,48.9192378],[2.1754356,48.9192007],[2.1746373,48.9189429]]]]},"properties":{"code_section":"78311000AS","code_commune":"78311","section_courte":"AS"}},{"type":"Feature","geometry":{"type":"MultiPolygon","coordinates":[[[[2.1764096,48.9195707],[2.1763679,48.9197551],[2.1800127,48.92094],[2.1799367,48.9207076],[2.1794517,48.9197964],[2.1796494,48.9198071],[2.1803233,48.9200475],[2.1819306,48.9204197],[2.181914,48.9204904],[2.183643,48.9208297],[2.1835721,48.9209236],[2.1839544,48.9212611],[2.18077,48.9228239],[2.1806086,48.9229716],[2.1804038,48.9234635],[2.1796756,48.9234343],[2.1792171,48.923132],[2.1759329,48.9220134],[2.1752185,48.9217883],[2.1751933,48.9218269],[2.1728432,48.9211441],[2.1728772,48.9211009],[2.1727547,48.9210643],[2.1746174,48.9189498],[2.1754356,48.9192007],[2.1754078,48.9192378],[2.1764096,48.9195707]]]]},"properties":{"code_section":"78311000AT","code_commune":"78311","section_courte":"AT"}},{"type":"Feature","geometry":{"type":"MultiPolygon","coordinates":[[[[2.1742147,48.9262028],[2.17309,48.925791],[2.1730428,48.9258661],[2.170164,48.924781],[2.1702319,48.9242874],[2.1702811,48.9241972],[2.1720384,48.9222012],[2.1728432,48.9211441],[2.1751933,48.9218269],[2.1752185,48.9217883],[2.1760177,48.9220411],[2.1792171,48.923132],[2.1796756,48.9234343],[2.1786784,48.9240234],[2.1794959,48.9242487],[2.1787442,48.9252057],[2.1774624,48.9270973],[2.1773983,48.9272768],[2.1775826,48.9274489],[2.1774389,48.9276337],[2.1758425,48.9270421],[2.1762571,48.9265435],[2.1752986,48.9262178],[2.1749249,48.9264657],[2.1742147,48.9262028]]]]},"properties":{"code_section":"78311000AV","code_commune":"78311","section_courte":"AV"}},{"type":"Feature","geometry":{"type":"MultiPolygon","coordinates":[[[[2.1737728,48.9260409],[2.1749249,48.9264657],[2.1752986,48.9262178],[2.1762571,48.9265435],[2.1758425,48.9270421],[2.1775164,48.9276652],[2.1769043,48.9283508],[2.1760826,48.9291676],[2.1758665,48.9293485],[2.1751614,48.9297532],[2.1749819,48.9300652],[2.1735023,48.9308598],[2.1734068,48.9308471],[2.1729095,48.930342],[2.17279,48.9303498],[2.1723992,48.9305629],[2.1722512,48.930454],[2.1698782,48.9291523],[2.1705663,48.9286836],[2.1679498,48.9267285],[2.1687396,48.926122],[2.1697519,48.9252038],[2.170164,48.924781],[2.1730428,48.9258661],[2.17309,48.925791],[2.1737728,48.9260409]]]]},"properties":{"code_section":"78311000AW","code_commune":"78311","section_courte":"AW"}},{"type":"Feature","geometry":{"type":"MultiPolygon","coordinates":[[[[2.18097,48.9301385],[2.1810075,48.930099],[2.1809226,48.9300199],[2.179291,48.9292452],[2.1785595,48.9289482],[2.1769043,48.9283508],[2.1775164,48.9276652],[2.1774389,48.9276337],[2.1775826,48.9274489],[2.1773983,48.9272768],[2.1774624,48.9270973],[2.1785735,48.925454],[2.1808255,48.9261526],[2.181108,48.9257579],[2.1839811,48.9272605],[2.1842471,48.9276224],[2.1853949,48.9281229],[2.1850312,48.9289021],[2.1846693,48.9288457],[2.1832851,48.9309574],[2.1829237,48.9317444],[2.1803326,48.9305969],[2.18097,48.9301385]]]]},"properties":{"code_section":"78311000AX","code_commune":"78311","section_courte":"AX"}},{"type":"Feature","geometry":{"type":"MultiPolygon","coordinates":[[[[2.1763487,48.9334828],[2.1760123,48.9337257],[2.175675,48.9333804],[2.1755928,48.9333937],[2.1746375,48.932378],[2.1741972,48.9325649],[2.1723992,48.9305629],[2.17279,48.9303498],[2.1729095,48.930342],[2.1734068,48.9308471],[2.1735023,48.9308598],[2.1749819,48.9300652],[2.1751614,48.9297532],[2.1758839,48.9293355],[2.1769043,48.9283508],[2.1789767,48.9291137],[2.1809226,48.9300199],[2.1810075,48.930099],[2.18097,48.9301385],[2.1803326,48.9305969],[2.1828518,48.9317094],[2.1829609,48.9317676],[2.1829643,48.9318059],[2.1787373,48.9340057],[2.1777548,48.9345543],[2.1764602,48.9334024],[2.1763487,48.9334828]]]]},"properties":{"code_section":"78311000AY","code_commune":"78311","section_courte":"AY"}}]}