{"type":"FeatureCollection","features":[{"type":"Feature","geometry":{"type":"MultiPolygon","coordinates":[[[[1.8332401,49.0192767],[1.8333705,49.0195116],[1.8320954,49.0200761],[1.8315549,49.0201752],[1.8317085,49.0198123],[1.8316404,49.0193044],[1.8316983,49.0185134],[1.8316706,49.0183246],[1.8314923,49.0178328],[1.8310594,49.0171503],[1.8309619,49.0167754],[1.8307504,49.0162853],[1.8306891,49.0156468],[1.8307751,49.0151615],[1.8307473,49.0150524],[1.8305741,49.0147264],[1.8303253,49.0144342],[1.8299287,49.0141344],[1.8306317,49.013174],[1.8307846,49.0127121],[1.8314151,49.0119058],[1.8317262,49.0118448],[1.8327236,49.0115368],[1.83334,49.0112443],[1.8352614,49.0107786],[1.8385921,49.0100338],[1.8393219,49.0105875],[1.8402687,49.0112214],[1.8393764,49.0120855],[1.8392177,49.0128093],[1.8394344,49.0129588],[1.8395052,49.0130971],[1.8397871,49.014031],[1.8399391,49.0143438],[1.8408726,49.0152362],[1.8409669,49.0153883],[1.8401415,49.0156811],[1.8403678,49.0158457],[1.8405034,49.016075],[1.8400067,49.0162637],[1.8400831,49.0164785],[1.839875,49.016514],[1.8398476,49.0164392],[1.8393611,49.0165265],[1.839555,49.0179313],[1.8393463,49.0179648],[1.8399423,49.0185577],[1.8396703,49.018617],[1.8398319,49.0188097],[1.8405026,49.0192801],[1.8407317,49.0192955],[1.8408077,49.0193506],[1.8423001,49.0191495],[1.8429424,49.019748],[1.840988,49.0199009],[1.8409894,49.0200313],[1.8400936,49.01998],[1.8389095,49.0198692],[1.8361045,49.0195278],[1.8360513,49.0194946],[1.8349074,49.0192169],[1.8348612,49.0191844],[1.8344376,49.0191801],[1.834153,49.019257],[1.8339118,49.019243],[1.8335189,49.0192826],[1.8332401,49.0192767]]]]},"properties":{"code_section":"783270000A","code_commune":"78327","section_courte":"A"}},{"type":"Feature","geometry":{"type":"MultiPolygon","coordinates":[[[[1.8420762,49.0142528],[1.8416217,49.0145116],[1.841217,49.0149495],[1.8407411,49.0151131],[1.8399391,49.0143438],[1.8397871,49.014031],[1.8395052,49.0130971],[1.8394344,49.0129588],[1.8392177,49.0128093],[1.8393764,49.0120855],[1.8402687,49.0112214],[1.8393219,49.0105875],[1.8385921,49.0100338],[1.8352614,49.0107786],[1.83334,49.0112443],[1.8327236,49.0115368],[1.8316417,49.0118661],[1.8304334,49.0119813],[1.8272444,49.0126556],[1.8264061,49.0127537],[1.8260718,49.0127731],[1.825779,49.0127455],[1.825645,49.0126989],[1.8248453,49.0121745],[1.8229621,49.0119607],[1.8223878,49.0118498],[1.821904,49.0118105],[1.8205076,49.0118265],[1.8198201,49.0113385],[1.8193331,49.010799],[1.8190209,49.0101345],[1.8192423,49.0096106],[1.8192645,49.0082066],[1.8191234,49.0078206],[1.8186383,49.0070598],[1.8185831,49.0068858],[1.8217939,49.0050646],[1.8263272,49.002568],[1.8264767,49.0021634],[1.8269665,49.0020185],[1.8276468,49.0029652],[1.8282609,49.0024249],[1.8289379,49.0021303],[1.8300097,49.001842],[1.8301867,49.0022364],[1.8301943,49.0024083],[1.8308078,49.0029666],[1.8318514,49.0026492],[1.8331568,49.0023879],[1.8346228,49.002049],[1.8348244,49.0019343],[1.8347519,49.002128],[1.8363065,49.0024804],[1.8368692,49.0012704],[1.8374953,49.0008007],[1.8377507,49.0009783],[1.8382906,49.0014625],[1.8385332,49.0013892],[1.8391411,49.0010521],[1.8401029,49.0006966],[1.8403718,49.0006207],[1.8413211,49.000501],[1.8413202,49.0008249],[1.841743,49.0014228],[1.8420029,49.0019057],[1.842299,49.0027357],[1.8422748,49.0031781],[1.8421222,49.0039492],[1.8417526,49.0044954],[1.8413548,49.0053475],[1.8423477,49.0051959],[1.8431908,49.004961],[1.8438199,49.0066862],[1.8445281,49.0065659],[1.8443463,49.0060362],[1.8457543,49.0059838],[1.8476882,49.005857],[1.8490279,49.005878],[1.8490991,49.0058824],[1.8493043,49.006188],[1.8506392,49.006012],[1.8508394,49.0061993],[1.8508127,49.0062682],[1.8511848,49.006033],[1.8522512,49.0063216],[1.8521803,49.0065444],[1.8529825,49.0066662],[1.8529796,49.0068955],[1.8539374,49.0070203],[1.8537557,49.0072558],[1.8533318,49.0075912],[1.8530211,49.0079735],[1.8527981,49.0084644],[1.8527288,49.0084603],[1.8525436,49.0088178],[1.8517627,49.0097666],[1.8514193,49.0100482],[1.8512557,49.0101655],[1.8510787,49.0102386],[1.8503777,49.0104443],[1.8492799,49.0105175],[1.8490891,49.0106178],[1.8492432,49.0105385],[1.8503348,49.0104654],[1.8512301,49.0101992],[1.8510413,49.0114098],[1.8503805,49.0133888],[1.8503926,49.0142183],[1.8513156,49.0143668],[1.8513035,49.0147652],[1.8514593,49.0147998],[1.8513636,49.0155888],[1.8512914,49.0157157],[1.8511941,49.0157953],[1.8505962,49.01599],[1.8507842,49.0160517],[1.8516451,49.0166686],[1.8514577,49.0167932],[1.8508659,49.0169876],[1.8499436,49.0173639],[1.8492329,49.016434],[1.8487739,49.0165585],[1.848293,49.0156522],[1.8475979,49.0158092],[1.8475704,49.0158575],[1.8476134,49.0163837],[1.8475504,49.0165288],[1.8476859,49.0168259],[1.8471371,49.0169994],[1.8473957,49.0173538],[1.8468191,49.0176644],[1.8467233,49.0175604],[1.8466895,49.0175807],[1.846072,49.0169273],[1.8450325,49.0159276],[1.8451221,49.0158763],[1.8449071,49.0156473],[1.8443498,49.0151923],[1.8442648,49.0152294],[1.8436501,49.0145958],[1.842673,49.0148612],[1.8420762,49.0142528]]]]},"properties":{"code_section":"783270000B","code_commune":"78327","section_courte":"B"}},{"type":"Feature","geometry":{"type":"MultiPolygon","coordinates":[[[[1.8273783,48.9993035],[1.8274203,48.9991734],[1.8274598,48.9971739],[1.8278294,48.9959795],[1.8280998,48.9952994],[1.8281434,48.9948336],[1.8281039,48.9948306],[1.8279615,48.994492],[1.827743,48.9942746],[1.8278743,48.9938023],[1.8278821,48.9929831],[1.8277901,48.9919566],[1.82856,48.9916672],[1.8291356,48.9915136],[1.8301236,48.9913779],[1.8304082,48.9913655],[1.8324735,48.9909705],[1.8341165,48.9907405],[1.8344413,48.990704],[1.8353657,48.9907069],[1.835311,48.9912518],[1.8357091,48.9912806],[1.8353984,48.9921355],[1.8353267,48.9921239],[1.8353102,48.9921555],[1.835204,48.9928497],[1.8352754,48.9928171],[1.8355144,48.9928358],[1.8355924,48.9926418],[1.8357274,48.9926601],[1.8356562,48.9928494],[1.8359716,48.9928812],[1.8359858,48.9928392],[1.8362404,48.9928686],[1.8361757,48.9930174],[1.8364693,48.9930835],[1.8365551,48.9928952],[1.8367452,48.9929187],[1.8366439,48.9931673],[1.8372917,48.9933003],[1.8372815,48.993321],[1.8376454,48.9933815],[1.837689,48.9933601],[1.8379599,48.9934286],[1.8378758,48.9935534],[1.8381095,48.9936204],[1.8381535,48.9935595],[1.8386938,48.9937416],[1.838878,48.9938479],[1.8384888,48.9943028],[1.8385712,48.994339],[1.8389599,48.9939037],[1.8391578,48.9939723],[1.8391943,48.993946],[1.8404475,48.9944325],[1.8404694,48.9944542],[1.8399556,48.9953041],[1.8410106,48.9955743],[1.8421731,48.9957756],[1.8418674,48.9960649],[1.8413551,48.9964115],[1.8409173,48.9968172],[1.8408028,48.9969687],[1.8406204,48.9975492],[1.8406142,48.997716],[1.8406798,48.9979412],[1.8412529,48.9988295],[1.8414127,48.9992339],[1.8414321,48.9998387],[1.8413211,49.000501],[1.8403718,49.0006207],[1.8401029,49.0006966],[1.8391411,49.0010521],[1.8385332,49.0013892],[1.8382906,49.0014625],[1.8377507,49.0009783],[1.8374953,49.0008007],[1.8368692,49.0012704],[1.8363065,49.0024804],[1.8347519,49.002128],[1.8348244,49.0019343],[1.8346228,49.002049],[1.8331568,49.0023879],[1.8318514,49.0026492],[1.8308078,49.0029666],[1.8301943,49.0024083],[1.8301867,49.0022364],[1.8300097,49.001842],[1.8289379,49.0021303],[1.8282609,49.0024249],[1.8276468,49.0029652],[1.8269249,49.0020729],[1.8264478,49.0022314],[1.8273783,48.9993035]]]]},"properties":{"code_section":"783270000C","code_commune":"78327","section_courte":"C"}},{"type":"Feature","geometry":{"type":"MultiPolygon","coordinates":[[[[1.8508038,49.00626],[1.8506392,49.006012],[1.8493043,49.006188],[1.8490991,49.0058824],[1.8490279,49.005878],[1.8476882,49.005857],[1.8457543,49.0059838],[1.8443463,49.0060362],[1.8445281,49.0065659],[1.8438199,49.0066862],[1.8431908,49.004961],[1.8423477,49.0051959],[1.8413548,49.0053475],[1.8417526,49.0044954],[1.8421222,49.0039492],[1.8422748,49.0031781],[1.842299,49.0027357],[1.8420029,49.0019057],[1.841743,49.0014228],[1.8413202,49.0008249],[1.8413211,49.000501],[1.8414321,48.9998387],[1.8414127,48.9992339],[1.8412529,48.9988295],[1.8406798,48.9979412],[1.8406103,48.9976884],[1.8408028,48.9969687],[1.84117,48.9965663],[1.8415892,48.9962601],[1.8424913,48.9965488],[1.8424262,48.9966446],[1.8426372,48.9966863],[1.8425816,48.996771],[1.8427507,48.996824],[1.8424131,48.9973823],[1.8429048,48.9974064],[1.8433945,48.9974773],[1.8436924,48.9972799],[1.8439636,48.9972399],[1.8441616,48.9972489],[1.8446639,48.9973551],[1.8454828,48.9976168],[1.8453942,48.9977478],[1.8456275,48.9978225],[1.8464087,48.9982547],[1.8461883,48.9985216],[1.8466015,48.9986848],[1.8468003,48.9984558],[1.8471192,48.9986134],[1.8469851,48.9987798],[1.8470833,48.9988161],[1.847145,48.9987672],[1.8473784,48.9988896],[1.8473142,48.9989491],[1.847815,48.9991559],[1.8485477,48.9995712],[1.8486058,48.9995384],[1.8487513,48.9996281],[1.8494215,48.9992852],[1.849621,48.9990177],[1.8496863,48.9990715],[1.8498232,48.9992543],[1.8500091,48.9996845],[1.8502507,49.0000114],[1.8506038,49.0003361],[1.8510914,49.0006178],[1.8509675,49.0007107],[1.8505333,49.0009058],[1.8506801,49.0012912],[1.8508982,49.0016215],[1.8510574,49.0017189],[1.8513458,49.002007],[1.8517427,49.0021937],[1.8520741,49.002306],[1.8521845,49.0023892],[1.8522676,49.0025391],[1.8526642,49.0027639],[1.8526383,49.0031181],[1.8527002,49.0038363],[1.8526622,49.0043096],[1.8525095,49.004777],[1.8528096,49.0049506],[1.851484,49.0057804],[1.8511848,49.006033],[1.8508038,49.00626]]]]},"properties":{"code_section":"783270000D","code_commune":"78327","section_courte":"D"}},{"type":"Feature","geometry":{"type":"MultiPolygon","coordinates":[[[[1.8588726,49.0010576],[1.8586825,49.0018377],[1.8584163,49.002434],[1.8572118,49.0037216],[1.8566323,49.0042194],[1.8561331,49.0045473],[1.8557989,49.0048991],[1.8552611,49.0053324],[1.8539374,49.0070203],[1.8529796,49.0068955],[1.8529825,49.0066662],[1.8521803,49.0065444],[1.8522512,49.0063216],[1.8511823,49.0060411],[1.851484,49.0057804],[1.8528096,49.0049506],[1.8525095,49.004777],[1.8526622,49.0043096],[1.8527002,49.0038363],[1.8526383,49.0031181],[1.8526642,49.0027639],[1.8522676,49.0025391],[1.8521845,49.0023892],[1.8520741,49.002306],[1.8517427,49.0021937],[1.8513103,49.0019837],[1.8508217,49.0015232],[1.850549,49.0010211],[1.8505333,49.0009058],[1.8509675,49.0007107],[1.8510914,49.0006178],[1.8506038,49.0003361],[1.8501609,48.9999068],[1.8500091,48.9996845],[1.8498232,48.9992543],[1.8495576,48.9989519],[1.8495585,48.9987355],[1.8495749,48.9985797],[1.849691,48.9983997],[1.8503936,48.9975132],[1.8512963,48.996672],[1.8514808,48.9965437],[1.8516486,48.9962998],[1.8519453,48.9963203],[1.852353,48.9964008],[1.8535123,48.9967704],[1.8543761,48.996955],[1.8565803,48.9971031],[1.8580315,48.9973654],[1.8587429,48.9973731],[1.8586353,48.997688],[1.8584179,48.9979023],[1.8580721,48.9984395],[1.8593912,48.9987752],[1.859031,48.9999103],[1.8589756,49.0006008],[1.8588726,49.0010576]]]]},"properties":{"code_section":"783270000E","code_commune":"78327","section_courte":"E"}},{"type":"Feature","geometry":{"type":"MultiPolygon","coordinates":[[[[1.8279967,48.9887144],[1.8252264,48.9863144],[1.8209329,48.9805606],[1.8200445,48.9792474],[1.8199858,48.9792289],[1.819996,48.9791807],[1.8198368,48.9790799],[1.8198816,48.9790385],[1.8196657,48.9787103],[1.8194683,48.9785193],[1.8194732,48.9784159],[1.8199193,48.9779566],[1.8237454,48.9795323],[1.8247237,48.9798682],[1.8258433,48.9803299],[1.8307558,48.9824343],[1.8342816,48.984015],[1.8353976,48.9844374],[1.8365987,48.9845781],[1.8382076,48.9845597],[1.8391085,48.9847158],[1.8368072,48.9857061],[1.8367163,48.9858248],[1.836857,48.9858797],[1.8366646,48.9861052],[1.8367168,48.9861261],[1.8360137,48.9868931],[1.8362854,48.9869972],[1.8361382,48.9883801],[1.8364312,48.9884192],[1.8363211,48.9895586],[1.8363589,48.9897862],[1.8358516,48.9899404],[1.8356934,48.990721],[1.8344413,48.990704],[1.8324735,48.9909705],[1.8304082,48.9913655],[1.8301236,48.9913779],[1.8291356,48.9915136],[1.82856,48.9916672],[1.8278345,48.9919328],[1.8278431,48.9913565],[1.828007,48.9902541],[1.8280932,48.9891816],[1.8281045,48.988808],[1.8279967,48.9887144]]]]},"properties":{"code_section":"78327000AA","code_commune":"78327","section_courte":"AA"}},{"type":"Feature","geometry":{"type":"MultiPolygon","coordinates":[[[[1.8367518,48.9857773],[1.8367878,48.9857351],[1.8371139,48.9858192],[1.839325,48.9864881],[1.8417653,48.9872973],[1.843641,48.9880242],[1.8433388,48.9887167],[1.8431329,48.989646],[1.8425617,48.989704],[1.843219,48.990052],[1.8442485,48.990279],[1.8437807,48.9908367],[1.8435777,48.9911636],[1.8434684,48.9911124],[1.8431165,48.9912978],[1.8430062,48.9913658],[1.842822,48.9915906],[1.8425832,48.9922032],[1.8421718,48.9926266],[1.8417056,48.9932147],[1.8412461,48.993673],[1.8411377,48.9938598],[1.8412562,48.9939958],[1.8411044,48.9941231],[1.8407646,48.9941353],[1.8404694,48.9944542],[1.8391943,48.993946],[1.8391578,48.9939723],[1.8389599,48.9939037],[1.8385712,48.994339],[1.8384888,48.9943028],[1.838878,48.9938479],[1.8386938,48.9937416],[1.8381535,48.9935595],[1.8381095,48.9936204],[1.8378758,48.9935534],[1.8379599,48.9934286],[1.837689,48.9933601],[1.8376454,48.9933815],[1.8372815,48.993321],[1.8372917,48.9933003],[1.8366439,48.9931673],[1.8367452,48.9929187],[1.8365551,48.9928952],[1.8364693,48.9930835],[1.8361757,48.9930174],[1.8362404,48.9928686],[1.8359858,48.9928392],[1.8359716,48.9928812],[1.8356562,48.9928494],[1.8357274,48.9926601],[1.8355924,48.9926418],[1.8355144,48.9928358],[1.8352754,48.9928171],[1.835204,48.9928497],[1.8353102,48.9921555],[1.8353267,48.9921239],[1.8353984,48.9921355],[1.8357091,48.9912806],[1.835311,48.9912518],[1.8353657,48.9907069],[1.8356934,48.990721],[1.8358516,48.9899404],[1.8363589,48.9897862],[1.8363211,48.9895586],[1.8364312,48.9884192],[1.8361382,48.9883801],[1.8362854,48.9869972],[1.8360137,48.9868931],[1.8367168,48.9861261],[1.8366646,48.9861052],[1.836857,48.9858797],[1.8367163,48.9858248],[1.8367518,48.9857773]]]]},"properties":{"code_section":"78327000AB","code_commune":"78327","section_courte":"AB"}},{"type":"Feature","geometry":{"type":"MultiPolygon","coordinates":[[[[1.8491281,48.9929718],[1.8494756,48.9930061],[1.8501284,48.993],[1.8502765,48.9930272],[1.850424,48.9931118],[1.8506983,48.99338],[1.8511626,48.9935224],[1.8512142,48.9937255],[1.8511284,48.9948226],[1.8511775,48.9952813],[1.8512492,48.9955371],[1.8516486,48.9962998],[1.8514808,48.9965437],[1.8512963,48.996672],[1.8503936,48.9975132],[1.849691,48.9983997],[1.8495749,48.9985797],[1.8495506,48.9989041],[1.849621,48.9990177],[1.8494215,48.9992852],[1.8487513,48.9996281],[1.8486058,48.9995384],[1.8485477,48.9995712],[1.847815,48.9991559],[1.8473142,48.9989491],[1.8473784,48.9988896],[1.847145,48.9987672],[1.8470833,48.9988161],[1.8469851,48.9987798],[1.8471192,48.9986134],[1.8468003,48.9984558],[1.8466015,48.9986848],[1.8461883,48.9985216],[1.8464087,48.9982547],[1.8456275,48.9978225],[1.8453942,48.9977478],[1.8454828,48.9976168],[1.8446639,48.9973551],[1.8441616,48.9972489],[1.8439636,48.9972399],[1.8436924,48.9972799],[1.8433945,48.9974773],[1.8429048,48.9974064],[1.8424131,48.9973823],[1.8427507,48.996824],[1.8425816,48.996771],[1.8426372,48.9966863],[1.8424262,48.9966446],[1.8424913,48.9965488],[1.8415892,48.9962601],[1.8420796,48.9958907],[1.8421731,48.9957756],[1.8410106,48.9955743],[1.8399556,48.9953041],[1.8403898,48.994553],[1.8406304,48.9942629],[1.8407646,48.9941353],[1.8411044,48.9941231],[1.8412562,48.9939958],[1.8411377,48.9938598],[1.8412461,48.993673],[1.8417056,48.9932147],[1.8421718,48.9926266],[1.8425832,48.9922032],[1.842822,48.9915906],[1.8430062,48.9913658],[1.8434684,48.9911124],[1.8440439,48.991374],[1.8455672,48.9916761],[1.8464954,48.9919026],[1.8472106,48.9920309],[1.8472459,48.9921597],[1.8473269,48.9921491],[1.8473453,48.9922045],[1.8481176,48.9924145],[1.8485287,48.9926287],[1.8488786,48.9928706],[1.8491281,48.9929718]]]]},"properties":{"code_section":"78327000AC","code_commune":"78327","section_courte":"AC"}},{"type":"Feature","geometry":{"type":"MultiPolygon","coordinates":[[[[1.8510818,48.9898319],[1.855434,48.9904668],[1.8552347,48.9910281],[1.856127,48.9911731],[1.8557618,48.9920434],[1.8556741,48.9920673],[1.8548177,48.9919635],[1.8545198,48.9919773],[1.8541501,48.992019],[1.8531138,48.9922623],[1.8519617,48.9920968],[1.8509327,48.9921144],[1.8509148,48.9924591],[1.8509541,48.9926286],[1.8511452,48.9929778],[1.8511897,48.9932834],[1.8511463,48.9934036],[1.8511626,48.9935225],[1.8506983,48.99338],[1.850424,48.9931118],[1.8502765,48.9930272],[1.8501284,48.993],[1.8494756,48.9930061],[1.8491281,48.9929718],[1.8488786,48.9928706],[1.8485287,48.9926287],[1.8481176,48.9924145],[1.8473453,48.9922045],[1.8473269,48.9921491],[1.8472459,48.9921597],[1.8472106,48.9920309],[1.8464954,48.9919026],[1.8455672,48.9916761],[1.8440439,48.991374],[1.8437993,48.991272],[1.8435777,48.9911636],[1.8437807,48.9908367],[1.8442485,48.990279],[1.843219,48.990052],[1.8425617,48.989704],[1.8431329,48.989646],[1.8433388,48.9887167],[1.843641,48.9880243],[1.8460807,48.9886946],[1.8482592,48.9892487],[1.8504404,48.9897276],[1.8510818,48.9898319]]]]},"properties":{"code_section":"78327000AD","code_commune":"78327","section_courte":"AD"}},{"type":"Feature","geometry":{"type":"MultiPolygon","coordinates":[[[[1.8598324,48.9975977],[1.8597377,48.9976176],[1.8595896,48.9979355],[1.8593912,48.9987752],[1.8580721,48.9984395],[1.8584179,48.9979023],[1.8586353,48.997688],[1.8587429,48.9973731],[1.8580315,48.9973654],[1.8565803,48.9971031],[1.8543761,48.996955],[1.8535123,48.9967704],[1.852353,48.9964008],[1.8519453,48.9963203],[1.8516486,48.9962998],[1.8512492,48.9955371],[1.8511775,48.9952813],[1.8511284,48.9948226],[1.8512048,48.9940163],[1.8512142,48.9937255],[1.8511463,48.9934036],[1.8511897,48.9932834],[1.8511452,48.9929778],[1.8509541,48.9926286],[1.8509148,48.9924591],[1.8509327,48.9921144],[1.8519617,48.9920968],[1.8531138,48.9922623],[1.8537226,48.9921202],[1.8553339,48.9924731],[1.8565419,48.9925463],[1.8573791,48.9926445],[1.8580215,48.9927687],[1.8585437,48.9929312],[1.8596562,48.9931381],[1.8596743,48.9930714],[1.8598335,48.9929871],[1.859909,48.9932346],[1.8598202,48.9943541],[1.8599403,48.9948063],[1.8600889,48.9950188],[1.8603951,48.9951963],[1.8604375,48.9954116],[1.8605739,48.9954003],[1.8623851,48.9956628],[1.8621474,48.9960668],[1.8622208,48.9960824],[1.8620188,48.996418],[1.862134,48.9964318],[1.8620127,48.9966731],[1.8616885,48.9972317],[1.8615379,48.9972034],[1.861364,48.9975058],[1.8610175,48.9974379],[1.8607937,48.9974339],[1.8604326,48.9975156],[1.8598324,48.9975977]]]]},"properties":{"code_section":"78327000AE","code_commune":"78327","section_courte":"AE"}},{"type":"Feature","geometry":{"type":"MultiPolygon","coordinates":[[[[1.8557618,48.9920434],[1.856127,48.9911731],[1.8552347,48.9910281],[1.8555279,48.9901508],[1.8575718,48.9904502],[1.8597471,48.9909205],[1.8637069,48.9921556],[1.8630717,48.9933971],[1.8645011,48.9937187],[1.8641229,48.9943586],[1.864371,48.9944835],[1.8641687,48.9950644],[1.8651218,48.9952531],[1.8654232,48.9953518],[1.864213,48.9962394],[1.8634009,48.9960093],[1.8638479,48.9956375],[1.8635758,48.9955556],[1.863205,48.9953799],[1.8632621,48.9953004],[1.8618708,48.9950089],[1.8604122,48.9948323],[1.8603335,48.9951736],[1.8600889,48.9950188],[1.8599403,48.9948063],[1.8598202,48.9943541],[1.859909,48.9932346],[1.8598335,48.9929871],[1.8596743,48.9930714],[1.8596562,48.9931381],[1.8585437,48.9929312],[1.8580215,48.9927687],[1.8573791,48.9926445],[1.8565419,48.9925463],[1.8553339,48.9924731],[1.8537226,48.9921202],[1.8542601,48.9920016],[1.8547913,48.9919631],[1.8556741,48.9920673],[1.8557618,48.9920434]]]]},"properties":{"code_section":"78327000AH","code_commune":"78327","section_courte":"AH"}},{"type":"Feature","geometry":{"type":"MultiPolygon","coordinates":[[[[1.8649229,48.9897068],[1.8638323,48.9913941],[1.8649386,48.9916908],[1.8645203,48.9924297],[1.8597471,48.9909205],[1.8575718,48.9904502],[1.8555279,48.9901508],[1.855434,48.9904668],[1.8510818,48.9898319],[1.8514635,48.9889286],[1.8515412,48.9886508],[1.8515953,48.988655],[1.8516027,48.9884299],[1.8515124,48.988431],[1.8515121,48.9873421],[1.8531737,48.9873662],[1.8541352,48.9874682],[1.8563644,48.987881],[1.8606576,48.9887423],[1.8649229,48.9897068]]]]},"properties":{"code_section":"78327000AI","code_commune":"78327","section_courte":"AI"}},{"type":"Feature","geometry":{"type":"MultiPolygon","coordinates":[[[[1.8514635,48.9889286],[1.8510818,48.9898319],[1.8504404,48.9897276],[1.8482592,48.9892487],[1.8460807,48.9886946],[1.843641,48.9880243],[1.8417653,48.9872973],[1.839325,48.9864881],[1.8367878,48.9857351],[1.8391085,48.9847158],[1.8407717,48.98487],[1.8420629,48.9850873],[1.8430179,48.9853172],[1.8440695,48.9856296],[1.8467076,48.9866962],[1.8470793,48.9868234],[1.8479259,48.9870487],[1.8485563,48.9871747],[1.8494964,48.9872899],[1.8515121,48.9873421],[1.8515124,48.988431],[1.8516027,48.9884299],[1.8515953,48.988655],[1.8515412,48.9886508],[1.8514635,48.9889286]]]]},"properties":{"code_section":"78327000AK","code_commune":"78327","section_courte":"AK"}},{"type":"Feature","geometry":{"type":"MultiPolygon","coordinates":[[[[1.8420572,49.0142485],[1.8426922,49.0148701],[1.8436561,49.0146042],[1.8442596,49.0152364],[1.8443447,49.0152025],[1.8451189,49.0158936],[1.8450434,49.0159223],[1.8466857,49.0175677],[1.8467157,49.0175529],[1.8468107,49.0176421],[1.8473797,49.0173543],[1.8471226,49.0170005],[1.8476806,49.0168313],[1.8475506,49.0165281],[1.8476049,49.016422],[1.8475556,49.0158239],[1.8482707,49.0156476],[1.8487881,49.0165509],[1.8492377,49.0164336],[1.8499258,49.0173753],[1.8484178,49.018083],[1.8479926,49.0183294],[1.8476259,49.018589],[1.8469837,49.0188996],[1.8463757,49.0193913],[1.8459895,49.0195918],[1.8446954,49.0199834],[1.8437275,49.019001],[1.8426396,49.0194376],[1.8423001,49.0191495],[1.8408077,49.0193506],[1.8407317,49.0192955],[1.8405026,49.0192801],[1.8398319,49.0188097],[1.8396703,49.018617],[1.8399423,49.0185577],[1.8393463,49.0179648],[1.839555,49.0179313],[1.8393611,49.0165265],[1.8398476,49.0164392],[1.839875,49.016514],[1.8400831,49.0164785],[1.8400067,49.0162637],[1.8405034,49.016075],[1.8403678,49.0158457],[1.8401415,49.0156811],[1.8409669,49.0153883],[1.8407411,49.0151131],[1.841217,49.0149495],[1.8416217,49.0145116],[1.8420572,49.0142485]]]]},"properties":{"code_section":"78327000ZA","code_commune":"78327","section_courte":"ZA"}}]}