{"type":"FeatureCollection","features":[{"type":"Feature","geometry":{"type":"MultiPolygon","coordinates":[[[[1.9256114,48.7976239],[1.920577,48.7998346],[1.9146747,48.8025474],[1.9135744,48.8036767],[1.9117261,48.8042129],[1.9113332,48.8042946],[1.9110934,48.8042816],[1.9106734,48.8043701],[1.9099841,48.8043739],[1.9095009,48.8044321],[1.9088245,48.8042487],[1.9092042,48.8041525],[1.9091389,48.8039551],[1.909387,48.8035915],[1.9093309,48.8031486],[1.9094359,48.802921],[1.9101816,48.8024981],[1.9106541,48.802046],[1.9109113,48.8016965],[1.9112585,48.8014794],[1.9125416,48.8009449],[1.9127302,48.8007877],[1.9129465,48.8007069],[1.9133213,48.8006355],[1.9145858,48.8000769],[1.9147934,48.7999363],[1.9150485,48.7996927],[1.9151683,48.7993454],[1.9153131,48.7991496],[1.9158938,48.7986331],[1.9168695,48.7979771],[1.9168221,48.7978853],[1.9256262,48.7975137],[1.9256114,48.7976239]]],[[[1.9028652,48.7982042],[1.9055188,48.7981452],[1.9058383,48.7983424],[1.8997042,48.7986081],[1.8996756,48.7985545],[1.8995933,48.7985214],[1.899499,48.798543],[1.8994534,48.7983229],[1.8994881,48.7970734],[1.8999342,48.7968999],[1.9028652,48.7982042]]]]},"properties":{"code_section":"783210000A","code_commune":"78321","section_courte":"A"}},{"type":"Feature","geometry":{"type":"MultiPolygon","coordinates":[[[[1.9344953,48.7900676],[1.9348725,48.7900652],[1.9354765,48.7901348],[1.9356504,48.7901986],[1.9368123,48.7901934],[1.936755,48.7902333],[1.936851,48.7902695],[1.9373039,48.7903207],[1.9374793,48.7904503],[1.9378666,48.7905155],[1.9380352,48.7905186],[1.9389813,48.7904024],[1.9398536,48.7904856],[1.9400819,48.7905459],[1.9404061,48.7905728],[1.9405198,48.790657],[1.9410131,48.790695],[1.9410847,48.7909817],[1.9411692,48.791637],[1.9402097,48.7914522],[1.9388537,48.7916236],[1.9379989,48.7916172],[1.9374188,48.7916492],[1.9368928,48.7917611],[1.9355138,48.7919669],[1.935052,48.7919943],[1.9356368,48.7970693],[1.9177892,48.7978581],[1.9168221,48.7978853],[1.9168098,48.7978615],[1.9115985,48.7980948],[1.9120337,48.7979118],[1.912262,48.7976659],[1.912232,48.7969466],[1.9121294,48.7964123],[1.9122375,48.7963823],[1.912061,48.7962961],[1.9118527,48.7961031],[1.911559,48.7956754],[1.9113322,48.7951719],[1.911065,48.7949867],[1.9104672,48.7947376],[1.910288,48.7946221],[1.9104993,48.7943834],[1.9105702,48.79439],[1.9106762,48.7942103],[1.9106998,48.7940554],[1.9109909,48.7938867],[1.9111669,48.7935819],[1.9112908,48.7934598],[1.9114271,48.7933955],[1.9128772,48.7930313],[1.913585,48.7929453],[1.9136444,48.7928952],[1.9136769,48.7929647],[1.9148636,48.7930277],[1.9155533,48.7931508],[1.9157583,48.7939909],[1.9162151,48.7939153],[1.9165635,48.7939407],[1.9166366,48.7939036],[1.9166835,48.793824],[1.9166459,48.7938196],[1.9163717,48.7931915],[1.9172854,48.7930907],[1.9185727,48.7928328],[1.9196525,48.7926819],[1.9207687,48.7924636],[1.9209785,48.7938067],[1.9222206,48.7936475],[1.9224347,48.7936323],[1.9227719,48.7936766],[1.9229198,48.7937217],[1.9235867,48.7940465],[1.9241393,48.7941519],[1.9243398,48.7942376],[1.9246115,48.7944303],[1.9248011,48.7944865],[1.9252851,48.7942398],[1.9257825,48.7941969],[1.9266725,48.7942259],[1.9286901,48.7937876],[1.9289628,48.7937782],[1.9292303,48.7937267],[1.9295145,48.7936253],[1.9291883,48.7934304],[1.9292576,48.7932716],[1.9300116,48.7929371],[1.9304119,48.7928819],[1.931537,48.7928415],[1.9323038,48.7925988],[1.933358,48.7922059],[1.934078,48.792021],[1.9335801,48.7906328],[1.9335118,48.7905361],[1.9334821,48.790326],[1.9343828,48.7901039],[1.9345054,48.790098],[1.9344953,48.7900676]]],[[[1.936388,48.7798974],[1.9364185,48.7800518],[1.9376706,48.7812593],[1.9381516,48.7818444],[1.9388988,48.7825324],[1.938973,48.782712],[1.938871,48.7829785],[1.9385136,48.7835314],[1.9378832,48.7839773],[1.9370211,48.7842665],[1.9369511,48.7843248],[1.9367854,48.783467],[1.9354338,48.7834311],[1.9343215,48.7833602],[1.9335999,48.783279],[1.9321996,48.7832046],[1.9318628,48.7832137],[1.9321797,48.7831061],[1.9327354,48.7830076],[1.9336665,48.782449],[1.9337674,48.7820564],[1.9337324,48.7818207],[1.9338225,48.7816105],[1.933981,48.7809481],[1.934116,48.780828],[1.934333,48.7807522],[1.9351541,48.7805905],[1.9354059,48.7804483],[1.9358201,48.7800729],[1.9361084,48.7798802],[1.9364953,48.779719],[1.936388,48.7798974]]]]},"properties":{"code_section":"783210000B","code_commune":"78321","section_courte":"B"}},{"type":"Feature","geometry":{"type":"MultiPolygon","coordinates":[[[[1.8887423,48.7842242],[1.8869364,48.7846456],[1.8868772,48.7845559],[1.8867885,48.7845365],[1.8869194,48.7841807],[1.8870665,48.7840028],[1.8884339,48.7836976],[1.8887423,48.7842242]]]]},"properties":{"code_section":"783210000C","code_commune":"78321","section_courte":"C"}},{"type":"Feature","geometry":{"type":"MultiPolygon","coordinates":[[[[1.8924484,48.7681115],[1.8924697,48.7678732],[1.8924239,48.7677934],[1.8924528,48.7677149],[1.8923672,48.7674389],[1.8924736,48.767293],[1.8924761,48.7671657],[1.8925977,48.7670387],[1.8925667,48.7669481],[1.8926442,48.7669093],[1.8925695,48.7668165],[1.8926849,48.766764],[1.8925764,48.7666581],[1.8928961,48.7664436],[1.8928615,48.766371],[1.8929534,48.766329],[1.8929522,48.7662574],[1.893048,48.7661252],[1.8929945,48.7660522],[1.8931373,48.7659445],[1.8931468,48.7658444],[1.8929971,48.7658092],[1.893004,48.7657821],[1.8931187,48.7657434],[1.8931668,48.765618],[1.8930241,48.7654694],[1.8930011,48.7653558],[1.8930483,48.7653186],[1.8930919,48.7653269],[1.8931985,48.7654673],[1.8933865,48.7653244],[1.8934099,48.7652712],[1.8935099,48.7652613],[1.8933985,48.7651154],[1.8935132,48.765099],[1.8935442,48.7650639],[1.8942198,48.7653351],[1.894642,48.7656204],[1.8948182,48.7656926],[1.8951246,48.7657257],[1.8956217,48.7657158],[1.8965402,48.7658364],[1.8969895,48.7659678],[1.8975094,48.7662525],[1.8978622,48.7663046],[1.8981785,48.766236],[1.8989238,48.7662012],[1.8995162,48.7660809],[1.8999999,48.7659052],[1.900416,48.7656784],[1.9006527,48.7656054],[1.900938,48.7655551],[1.9014117,48.7655335],[1.902563,48.7652818],[1.9030028,48.7652753],[1.9036571,48.7653859],[1.9041406,48.7654103],[1.9041378,48.7654462],[1.901107,48.7662969],[1.9011724,48.766461],[1.9025134,48.7675712],[1.9020666,48.7677574],[1.9013291,48.767994],[1.9006507,48.7685543],[1.9003978,48.7688621],[1.9000683,48.7695951],[1.8996881,48.7701107],[1.8992189,48.7700293],[1.8984001,48.7698292],[1.8978893,48.7698691],[1.8977739,48.7698443],[1.8974522,48.7695786],[1.8971779,48.7694432],[1.8963271,48.769206],[1.8958002,48.7689847],[1.8954385,48.768887],[1.8946989,48.7688061],[1.8945691,48.7687993],[1.8949115,48.7695354],[1.8949979,48.7699283],[1.8922304,48.7695693],[1.8918633,48.7692489],[1.8917985,48.7691392],[1.8918621,48.7688875],[1.8919699,48.7687344],[1.892003,48.7685262],[1.8924484,48.7681115]]]]},"properties":{"code_section":"78321000AA","code_commune":"78321","section_courte":"AA"}},{"type":"Feature","geometry":{"type":"MultiPolygon","coordinates":[[[[1.8936651,48.7751889],[1.8930223,48.7753904],[1.8909311,48.775649],[1.8903792,48.7756888],[1.8899598,48.7759752],[1.8896667,48.7758065],[1.8896086,48.7757191],[1.8896075,48.7756304],[1.8895345,48.7755988],[1.8895383,48.7751926],[1.8896518,48.7748532],[1.8897359,48.7739893],[1.8898606,48.7736866],[1.8898833,48.7734872],[1.8898495,48.7732988],[1.8898954,48.7732326],[1.8898124,48.7728792],[1.8898545,48.7727959],[1.8897384,48.7725846],[1.889874,48.7721722],[1.8896679,48.7719566],[1.889688,48.7715903],[1.8896301,48.7714859],[1.8896454,48.7713666],[1.8895757,48.7712825],[1.889593,48.7711277],[1.8896799,48.7709738],[1.8896635,48.7709045],[1.889721,48.7708532],[1.8896263,48.7707944],[1.889696,48.7707231],[1.8896752,48.7705598],[1.8898516,48.7704957],[1.8902628,48.7705195],[1.8906263,48.7707573],[1.8909342,48.7708604],[1.8912133,48.7706385],[1.891735,48.7695886],[1.8918609,48.7692461],[1.8922304,48.7695693],[1.8949979,48.7699283],[1.8949115,48.7695354],[1.8945691,48.7687993],[1.8954385,48.768887],[1.8958002,48.7689847],[1.8963271,48.769206],[1.8971779,48.7694432],[1.8973624,48.7695225],[1.8977739,48.7698443],[1.8978893,48.7698691],[1.8984001,48.7698292],[1.8992189,48.7700293],[1.8996881,48.7701107],[1.8991913,48.77068],[1.8975555,48.7719487],[1.8973123,48.772287],[1.8971825,48.7726947],[1.8970821,48.7727253],[1.8969092,48.7729603],[1.8964339,48.7733845],[1.8956866,48.7739199],[1.894276,48.7746783],[1.893879,48.7750422],[1.893741,48.7751073],[1.8936651,48.7751889]]]]},"properties":{"code_section":"78321000AB","code_commune":"78321","section_courte":"AB"}},{"type":"Feature","geometry":{"type":"MultiPolygon","coordinates":[[[[1.8906455,48.7756591],[1.8909311,48.775649],[1.8930223,48.7753904],[1.8936651,48.7751889],[1.893741,48.7751073],[1.893879,48.7750422],[1.894276,48.7746783],[1.8954991,48.7740305],[1.8961863,48.7735876],[1.8969092,48.7729603],[1.8970821,48.7727253],[1.8971825,48.7726947],[1.8971695,48.7732509],[1.8976211,48.7747375],[1.8976661,48.7750808],[1.8976303,48.7753575],[1.8974225,48.775969],[1.8973109,48.7761705],[1.8964882,48.7774064],[1.8961562,48.777794],[1.8952154,48.7785417],[1.8949268,48.7787289],[1.8942045,48.7790136],[1.8932803,48.7793045],[1.890977,48.7801433],[1.8909342,48.7801781],[1.8909468,48.7802509],[1.8904388,48.7802843],[1.8891849,48.7802007],[1.8886531,48.780107],[1.8880544,48.7799159],[1.8871091,48.7795375],[1.8866039,48.7792963],[1.8866932,48.7792286],[1.8869879,48.7791936],[1.8876841,48.7783692],[1.8880215,48.7780768],[1.8882773,48.7775464],[1.8884903,48.7772554],[1.8886607,48.7768624],[1.8886672,48.7767194],[1.8889153,48.7762301],[1.8888994,48.7760775],[1.8895605,48.7761793],[1.8896512,48.7761636],[1.8897486,48.7761317],[1.8903792,48.7756888],[1.8906455,48.7756591]]]]},"properties":{"code_section":"78321000AC","code_commune":"78321","section_courte":"AC"}},{"type":"Feature","geometry":{"type":"MultiPolygon","coordinates":[[[[1.8946921,48.7836721],[1.8944748,48.7836086],[1.8934435,48.7840947],[1.8930958,48.7838802],[1.892869,48.7840016],[1.8921703,48.7833442],[1.8912126,48.7836802],[1.8906587,48.7829969],[1.8890148,48.7835622],[1.8870665,48.7840028],[1.8871722,48.7836433],[1.8872315,48.783634],[1.8872102,48.7835527],[1.8861522,48.7822583],[1.8859167,48.7818414],[1.88592,48.7817614],[1.8860838,48.7814255],[1.8864032,48.7812374],[1.8863909,48.7810976],[1.8860662,48.7801152],[1.8861374,48.779624],[1.8861963,48.7795302],[1.8866039,48.7792963],[1.8875266,48.7797115],[1.8886531,48.780107],[1.8893913,48.7802238],[1.8903251,48.7802807],[1.890685,48.7802721],[1.8909468,48.7802509],[1.8909342,48.7801781],[1.890977,48.7801433],[1.8912788,48.7800308],[1.8932803,48.7793045],[1.8942045,48.7790136],[1.894677,48.7788336],[1.8947573,48.7788372],[1.8948722,48.7788616],[1.8958426,48.7801637],[1.8975368,48.7802295],[1.899419,48.7802326],[1.8994053,48.7806952],[1.897455,48.7806862],[1.8974499,48.7814171],[1.8968216,48.781414],[1.8967866,48.781446],[1.8971905,48.7822107],[1.8957962,48.7826533],[1.896045,48.7828923],[1.8957937,48.7829766],[1.8964315,48.7835842],[1.8966487,48.7838948],[1.8954278,48.7843027],[1.8947446,48.7836482],[1.8946921,48.7836721]]]]},"properties":{"code_section":"78321000AD","code_commune":"78321","section_courte":"AD"}},{"type":"Feature","geometry":{"type":"MultiPolygon","coordinates":[[[[1.9278689,48.7826976],[1.9279451,48.7827724],[1.9284658,48.7829477],[1.9284854,48.7829273],[1.9290143,48.7831276],[1.9292664,48.7828872],[1.9302022,48.7831163],[1.930363,48.78318],[1.9301929,48.7842665],[1.930114,48.7845109],[1.929752,48.7847688],[1.9294845,48.7847764],[1.9293025,48.7848247],[1.9289812,48.7850148],[1.9286546,48.7851202],[1.928473,48.7851422],[1.9279356,48.7851355],[1.9278411,48.7849346],[1.9277681,48.7845639],[1.9269753,48.7846555],[1.9265353,48.7846601],[1.9261123,48.7845695],[1.9255799,48.7843286],[1.9248038,48.784084],[1.9250289,48.783274],[1.9239475,48.7834187],[1.9234013,48.7834291],[1.922742,48.7834252],[1.920713,48.7832973],[1.918548,48.7828326],[1.9176043,48.7825926],[1.9180607,48.7822057],[1.9184428,48.7818096],[1.9187086,48.7816075],[1.9190256,48.7814428],[1.9196407,48.7811968],[1.9200644,48.7809509],[1.9210766,48.7797211],[1.9215099,48.7790077],[1.921761,48.7786886],[1.9218027,48.7789051],[1.9225163,48.7792262],[1.9225911,48.7793198],[1.9225873,48.7796445],[1.9226335,48.7797268],[1.9227262,48.779781],[1.9232268,48.7799224],[1.9234205,48.7800463],[1.9241331,48.7807683],[1.9247643,48.781211],[1.9249936,48.7818304],[1.927261,48.7821248],[1.927957,48.7824202],[1.9277696,48.782612],[1.9278689,48.7826976]]]]},"properties":{"code_section":"78321000AE","code_commune":"78321","section_courte":"AE"}},{"type":"Feature","geometry":{"type":"MultiPolygon","coordinates":[[[[1.9328741,48.7863206],[1.9332811,48.7870146],[1.9336409,48.7878296],[1.9326766,48.7879717],[1.9304787,48.7884384],[1.9304778,48.7884959],[1.9303091,48.788533],[1.9303396,48.7886193],[1.928816,48.7885861],[1.9266817,48.7885015],[1.926583,48.7884781],[1.9246607,48.7885316],[1.9246592,48.7882953],[1.9248382,48.7881172],[1.9249162,48.7878051],[1.9248958,48.787216],[1.9249855,48.7869334],[1.9248903,48.7863645],[1.9242917,48.7864499],[1.9244329,48.7869508],[1.9240369,48.7870061],[1.9240707,48.7871321],[1.9237668,48.7871751],[1.9238788,48.7875618],[1.9234998,48.787612],[1.9232553,48.7865974],[1.9229705,48.786638],[1.9228166,48.7859685],[1.9235976,48.7853167],[1.9248038,48.784084],[1.9255799,48.7843286],[1.9261123,48.7845695],[1.9265353,48.7846601],[1.9269753,48.7846555],[1.9277681,48.7845639],[1.9278411,48.7849346],[1.9279356,48.7851355],[1.928473,48.7851422],[1.9288272,48.7850796],[1.9293025,48.7848247],[1.9294845,48.7847764],[1.929752,48.7847688],[1.930114,48.7845109],[1.9301929,48.7842665],[1.9303566,48.7832289],[1.930419,48.7832058],[1.9314046,48.7832484],[1.9321996,48.7832046],[1.9324383,48.7832183],[1.9325131,48.7853125],[1.9328741,48.7863206]]]]},"properties":{"code_section":"78321000AH","code_commune":"78321","section_courte":"AH"}},{"type":"Feature","geometry":{"type":"MultiPolygon","coordinates":[[[[1.9241393,48.7941519],[1.9235867,48.7940465],[1.9229198,48.7937217],[1.9226192,48.7936495],[1.9222206,48.7936475],[1.9209785,48.7938067],[1.920792,48.7925183],[1.9210643,48.7924823],[1.92193,48.792278],[1.9224197,48.7922237],[1.9225996,48.7922302],[1.9230396,48.7923742],[1.9233456,48.7924037],[1.9244775,48.7922863],[1.9266435,48.7923215],[1.926869,48.7922769],[1.9281348,48.7918858],[1.9285183,48.7918207],[1.9312926,48.7917732],[1.9322231,48.7915458],[1.9329163,48.7912916],[1.9334804,48.7909552],[1.9335801,48.7906328],[1.934078,48.792021],[1.933358,48.7922059],[1.9323038,48.7925988],[1.931537,48.7928415],[1.9304119,48.7928819],[1.9300116,48.7929371],[1.9292576,48.7932716],[1.9291883,48.7934304],[1.9295145,48.7936253],[1.9292303,48.7937267],[1.9289628,48.7937782],[1.9286901,48.7937876],[1.9266725,48.7942259],[1.9257825,48.7941969],[1.9252851,48.7942398],[1.9248011,48.7944865],[1.9246115,48.7944303],[1.9243398,48.7942376],[1.9241393,48.7941519]]]]},"properties":{"code_section":"78321000AI","code_commune":"78321","section_courte":"AI"}},{"type":"Feature","geometry":{"type":"MultiPolygon","coordinates":[[[[1.9088642,48.8042404],[1.9081357,48.8040879],[1.9078499,48.8040779],[1.9071689,48.8041168],[1.9073951,48.803828],[1.9077334,48.8034961],[1.9082336,48.8032064],[1.9083592,48.8030794],[1.9070642,48.8021347],[1.9063505,48.8016642],[1.9062176,48.8014641],[1.9048514,48.8008959],[1.9047699,48.8008207],[1.9040921,48.8010858],[1.9040489,48.8010149],[1.9044922,48.800242],[1.9043435,48.7997823],[1.9043733,48.7996586],[1.9058383,48.7983424],[1.9168098,48.7978615],[1.9168695,48.7979771],[1.9158938,48.7986331],[1.9153131,48.7991496],[1.9151683,48.7993454],[1.9150485,48.7996927],[1.9147036,48.8000005],[1.914487,48.8001237],[1.9133213,48.8006355],[1.9129465,48.8007069],[1.9127302,48.8007877],[1.9125416,48.8009449],[1.9112585,48.8014794],[1.9109113,48.8016965],[1.9106541,48.802046],[1.9101816,48.8024981],[1.9094359,48.802921],[1.9093309,48.8031486],[1.909387,48.8035915],[1.9091389,48.8039551],[1.9092042,48.8041525],[1.9088642,48.8042404]]]]},"properties":{"code_section":"78321000AL","code_commune":"78321","section_courte":"AL"}},{"type":"Feature","geometry":{"type":"MultiPolygon","coordinates":[[[[1.9120337,48.7979118],[1.9115985,48.7980948],[1.9058383,48.7983424],[1.9055188,48.7981452],[1.9047983,48.7981523],[1.9047817,48.7981033],[1.9031264,48.7970739],[1.905943,48.795633],[1.9054829,48.7952424],[1.906149,48.7950338],[1.9060689,48.7949469],[1.9061543,48.7949201],[1.9060584,48.7948269],[1.9068968,48.7945409],[1.9065114,48.7941912],[1.9065698,48.794164],[1.9068294,48.794238],[1.9069095,48.7942235],[1.9062427,48.7933835],[1.9074935,48.7929639],[1.9074667,48.7927988],[1.9079299,48.7926467],[1.9087597,48.7936417],[1.9089519,48.793441],[1.9093834,48.793121],[1.9095763,48.792822],[1.9096939,48.7922913],[1.9095154,48.7914385],[1.9111907,48.7913528],[1.9115929,48.7912767],[1.9117423,48.7912483],[1.9116437,48.7910223],[1.9120403,48.7909593],[1.912113,48.7911741],[1.912385,48.7911266],[1.9126687,48.7914131],[1.9129334,48.7914052],[1.9130713,48.7914838],[1.9136444,48.7928952],[1.913585,48.7929453],[1.9128772,48.7930313],[1.9113412,48.7934275],[1.9111281,48.7936314],[1.9109909,48.7938867],[1.9106998,48.7940554],[1.9106762,48.7942103],[1.9105702,48.79439],[1.9104993,48.7943834],[1.910288,48.7946221],[1.9104672,48.7947376],[1.911065,48.7949867],[1.9113322,48.7951719],[1.911559,48.7956754],[1.9118527,48.7961031],[1.912061,48.7962961],[1.9122375,48.7963823],[1.9121294,48.7964123],[1.912232,48.7969466],[1.912262,48.7976659],[1.9120337,48.7979118]]]]},"properties":{"code_section":"78321000AM","code_commune":"78321","section_courte":"AM"}},{"type":"Feature","geometry":{"type":"MultiPolygon","coordinates":[[[[1.9044552,48.8003235],[1.9040768,48.8009343],[1.9040489,48.8010149],[1.9040921,48.8010858],[1.9007211,48.8024145],[1.900504,48.8025458],[1.9005258,48.8026291],[1.9004416,48.8027156],[1.9003163,48.8027231],[1.9002053,48.8026846],[1.8999974,48.8027047],[1.8964494,48.8040948],[1.8959212,48.8030694],[1.9001797,48.8025769],[1.9003251,48.802423],[1.8994804,48.7989208],[1.8994727,48.7988271],[1.8995386,48.7986924],[1.8994635,48.7986597],[1.8994406,48.7985956],[1.899499,48.798543],[1.8995933,48.7985214],[1.8996756,48.7985545],[1.8997042,48.7986081],[1.9058383,48.7983424],[1.9043733,48.7996586],[1.9043435,48.7997823],[1.9044926,48.8001618],[1.9044552,48.8003235]]]]},"properties":{"code_section":"78321000AN","code_commune":"78321","section_courte":"AN"}},{"type":"Feature","geometry":{"type":"MultiPolygon","coordinates":[[[[1.8985127,48.8061781],[1.8984139,48.806142],[1.8977125,48.8055165],[1.8965684,48.8041648],[1.8964494,48.8040948],[1.8999974,48.8027047],[1.9002053,48.8026846],[1.9003163,48.8027231],[1.9004416,48.8027156],[1.9005258,48.8026291],[1.900504,48.8025458],[1.9007211,48.8024145],[1.9047699,48.8008207],[1.9048514,48.8008959],[1.9062176,48.8014641],[1.9063505,48.8016642],[1.9070642,48.8021347],[1.9083592,48.8030794],[1.9082336,48.8032064],[1.9077334,48.8034961],[1.9070639,48.8041658],[1.9059062,48.8048059],[1.9051995,48.8051041],[1.9035918,48.8061798],[1.9030656,48.8064166],[1.9027229,48.806809],[1.9023482,48.8071293],[1.902201,48.8073184],[1.9016452,48.8077807],[1.9011135,48.808292],[1.9007392,48.8087186],[1.9006258,48.8087032],[1.9005581,48.8084959],[1.9003771,48.8082337],[1.8999018,48.8079481],[1.8997645,48.8078174],[1.8988024,48.8060782],[1.8985127,48.8061781]]]]},"properties":{"code_section":"78321000AO","code_commune":"78321","section_courte":"AO"}},{"type":"Feature","geometry":{"type":"MultiPolygon","coordinates":[[[[1.9006155,48.8086737],[1.9006258,48.8087032],[1.9007392,48.8087186],[1.900678,48.8092066],[1.9005928,48.8093409],[1.9003893,48.8094763],[1.9001681,48.8095742],[1.8999033,48.8096369],[1.8988062,48.8097236],[1.8987443,48.8096299],[1.897993,48.8095636],[1.8963993,48.809103],[1.8957353,48.8088232],[1.8952569,48.8086791],[1.8948734,48.8086587],[1.8939661,48.8087673],[1.8938019,48.8081567],[1.8935523,48.8075522],[1.8936386,48.807118],[1.8940446,48.8058678],[1.8939631,48.8051978],[1.8938952,48.8051034],[1.8964494,48.8040948],[1.8965684,48.8041648],[1.8977125,48.8055165],[1.8984139,48.806142],[1.8985127,48.8061781],[1.8988024,48.8060782],[1.8997645,48.8078174],[1.8999018,48.8079481],[1.9003771,48.8082337],[1.9005581,48.8084959],[1.9006155,48.8086737]]]]},"properties":{"code_section":"78321000AP","code_commune":"78321","section_courte":"AP"}},{"type":"Feature","geometry":{"type":"MultiPolygon","coordinates":[[[[1.8851486,48.8051952],[1.8861128,48.8040601],[1.8854114,48.7974032],[1.8994945,48.7969121],[1.8994426,48.7982103],[1.899499,48.798543],[1.8994406,48.7985956],[1.8994635,48.7986597],[1.8995386,48.7986924],[1.8994727,48.7988271],[1.8994804,48.7989208],[1.9003251,48.802423],[1.9001797,48.8025769],[1.8959212,48.8030694],[1.8964494,48.8040948],[1.8937132,48.8051727],[1.8931635,48.8052736],[1.8927991,48.8055003],[1.8925295,48.8056216],[1.8898299,48.8066876],[1.8895241,48.8059761],[1.8877876,48.805964],[1.8869164,48.8058366],[1.8863423,48.8056622],[1.8851486,48.8051952]]]]},"properties":{"code_section":"78321000AR","code_commune":"78321","section_courte":"AR"}},{"type":"Feature","geometry":{"type":"MultiPolygon","coordinates":[[[[1.9325131,48.7853124],[1.9324383,48.7832183],[1.9335999,48.783279],[1.9343215,48.7833602],[1.9354338,48.7834311],[1.9364942,48.7834654],[1.9368235,48.7848588],[1.9379078,48.7847399],[1.9384523,48.7863366],[1.9388515,48.7863763],[1.9400217,48.7892817],[1.9381712,48.7895887],[1.9372697,48.7897675],[1.9368123,48.7901934],[1.9356504,48.7901986],[1.9354765,48.7901348],[1.9348725,48.7900652],[1.9344953,48.7900676],[1.9336084,48.7877285],[1.9332811,48.7870146],[1.9328741,48.7863206],[1.9325131,48.7853124]]]]},"properties":{"code_section":"78321000AT","code_commune":"78321","section_courte":"AT"}},{"type":"Feature","geometry":{"type":"MultiPolygon","coordinates":[[[[1.9175628,48.7852885],[1.919044,48.7902627],[1.9199144,48.7926309],[1.9185727,48.7928328],[1.9172854,48.7930907],[1.9163717,48.7931915],[1.9166459,48.7938196],[1.9166835,48.793824],[1.9166366,48.7939036],[1.9165635,48.7939407],[1.9163768,48.7939098],[1.9161113,48.7939234],[1.9157583,48.7939909],[1.9155533,48.7931508],[1.9148636,48.7930277],[1.9136769,48.7929647],[1.9130713,48.7914838],[1.9129334,48.7914052],[1.9126687,48.7914131],[1.912385,48.7911266],[1.912113,48.7911741],[1.9120403,48.7909593],[1.9116437,48.7910223],[1.9117423,48.7912483],[1.9115929,48.7912767],[1.9111907,48.7913528],[1.9095154,48.7914385],[1.9096939,48.7922913],[1.9095763,48.792822],[1.9093834,48.793121],[1.9089519,48.793441],[1.9087597,48.7936417],[1.9079299,48.7926467],[1.9074667,48.7927988],[1.9073479,48.792692],[1.9042547,48.788675],[1.905497,48.7886729],[1.9071798,48.7887734],[1.9101465,48.7887686],[1.9102935,48.7881573],[1.9103442,48.787741],[1.910337,48.7872412],[1.9101646,48.7868705],[1.910067,48.786778],[1.9098833,48.7863073],[1.9096712,48.7862101],[1.9096028,48.7861022],[1.9094577,48.7856755],[1.9107313,48.7855741],[1.9117142,48.7853647],[1.9128536,48.7848472],[1.9149567,48.7840147],[1.9171577,48.7839391],[1.9175628,48.7852885]]]]},"properties":{"code_section":"78321000ZB","code_commune":"78321","section_courte":"ZB"}},{"type":"Feature","geometry":{"type":"MultiPolygon","coordinates":[[[[1.9369872,48.7900225],[1.9372697,48.7897675],[1.9381712,48.7895887],[1.9400217,48.7892817],[1.9388515,48.7863763],[1.9384523,48.7863366],[1.9379078,48.7847399],[1.9368235,48.7848588],[1.9364942,48.7834654],[1.9367854,48.783467],[1.9369511,48.7843248],[1.9370211,48.7842665],[1.9378832,48.7839773],[1.9385136,48.7835314],[1.9381595,48.7847167],[1.9395884,48.7844773],[1.9399804,48.7867297],[1.9398658,48.7867344],[1.9408375,48.7892075],[1.9400227,48.7892994],[1.9402298,48.7904943],[1.939657,48.7904777],[1.9389813,48.7904024],[1.9380352,48.7905186],[1.9376217,48.7904905],[1.9374793,48.7904503],[1.9373039,48.7903207],[1.936851,48.7902695],[1.936755,48.7902333],[1.9369872,48.7900225]]],[[[1.9179169,48.7826743],[1.920713,48.7832973],[1.922742,48.7834252],[1.9234013,48.7834291],[1.9239475,48.7834187],[1.9250289,48.783274],[1.9248038,48.784084],[1.9235976,48.7853167],[1.9228166,48.7859685],[1.9229705,48.786638],[1.9232553,48.7865974],[1.9234998,48.787612],[1.9238788,48.7875618],[1.9237668,48.7871751],[1.9240707,48.7871321],[1.9240369,48.7870061],[1.9244329,48.7869508],[1.9242917,48.7864499],[1.9248903,48.7863645],[1.9249855,48.7869334],[1.9248958,48.787216],[1.9249162,48.7878051],[1.9248382,48.7881172],[1.9246592,48.7882953],[1.9246607,48.7885316],[1.926583,48.7884781],[1.9266817,48.7885015],[1.928816,48.7885861],[1.9303396,48.7886193],[1.9303091,48.788533],[1.9304778,48.7884959],[1.9304787,48.7884384],[1.9326766,48.7879717],[1.9336409,48.7878296],[1.9345054,48.790098],[1.9343828,48.7901039],[1.9334821,48.790326],[1.9335118,48.7905361],[1.9335801,48.7906328],[1.9335534,48.7908025],[1.9334804,48.7909552],[1.9331275,48.7911833],[1.9326863,48.7913954],[1.9322231,48.7915458],[1.9312926,48.7917732],[1.9285183,48.7918207],[1.9281348,48.7918858],[1.926869,48.7922769],[1.9266435,48.7923215],[1.9244775,48.7922863],[1.9233456,48.7924037],[1.9230396,48.7923742],[1.9225996,48.7922302],[1.9221646,48.7922419],[1.9210643,48.7924823],[1.920792,48.7925183],[1.9207687,48.7924636],[1.9199144,48.7926309],[1.919044,48.7902627],[1.9171577,48.7839391],[1.917104,48.7831005],[1.9176043,48.7825926],[1.9179169,48.7826743]]]]},"properties":{"code_section":"78321000ZC","code_commune":"78321","section_courte":"ZC"}},{"type":"Feature","geometry":{"type":"MultiPolygon","coordinates":[[[[1.9042547,48.788675],[1.9073479,48.792692],[1.9074667,48.7927988],[1.9074935,48.7929639],[1.9062427,48.7933835],[1.9069095,48.7942235],[1.9068294,48.794238],[1.9065698,48.794164],[1.9065114,48.7941912],[1.9068968,48.7945409],[1.9060584,48.7948269],[1.9061543,48.7949201],[1.9060689,48.7949469],[1.906149,48.7950338],[1.9054829,48.7952424],[1.905943,48.795633],[1.9031264,48.7970739],[1.9047817,48.7981033],[1.9047983,48.7981523],[1.9028652,48.7982042],[1.8999342,48.7968999],[1.8994881,48.7970734],[1.8994945,48.7969121],[1.8876181,48.7973263],[1.8869801,48.7925284],[1.8870382,48.7924131],[1.8877231,48.7924918],[1.8881196,48.7924884],[1.8889658,48.792323],[1.8894378,48.7921012],[1.8895028,48.7921525],[1.890485,48.7917262],[1.8914752,48.791369],[1.897441,48.789592],[1.8980374,48.789465],[1.8996681,48.7890038],[1.8996435,48.7891426],[1.8997214,48.7893249],[1.9004869,48.7891971],[1.9009472,48.7890589],[1.9014785,48.7888039],[1.9018067,48.7887265],[1.9042547,48.788675]]]]},"properties":{"code_section":"78321000ZD","code_commune":"78321","section_courte":"ZD"}},{"type":"Feature","geometry":{"type":"MultiPolygon","coordinates":[[[[1.9028448,48.7803014],[1.9036044,48.7803187],[1.90369,48.7808567],[1.9094577,48.7856755],[1.9096028,48.7861022],[1.9096712,48.7862101],[1.9098833,48.7863073],[1.910067,48.786778],[1.9101646,48.7868705],[1.910337,48.7872412],[1.9103442,48.787741],[1.9102935,48.7881573],[1.9101465,48.7887686],[1.9071798,48.7887734],[1.905497,48.7886729],[1.9041035,48.7886711],[1.9018067,48.7887265],[1.9014785,48.7888039],[1.9009472,48.7890589],[1.9004869,48.7891971],[1.8997214,48.7893249],[1.8996435,48.7891426],[1.8996681,48.7890038],[1.8980374,48.789465],[1.897441,48.789592],[1.8914752,48.791369],[1.890485,48.7917262],[1.8895028,48.7921525],[1.8894378,48.7921012],[1.8897339,48.7916591],[1.8896189,48.7913159],[1.8881437,48.7878278],[1.8877581,48.7870311],[1.8870197,48.7856736],[1.8868859,48.7846482],[1.8887423,48.7842242],[1.8884339,48.7836976],[1.8890148,48.7835622],[1.8906587,48.7829969],[1.8912126,48.7836802],[1.8921703,48.7833442],[1.892869,48.7840016],[1.8930958,48.7838802],[1.8934435,48.7840947],[1.8944748,48.7836086],[1.8946921,48.7836721],[1.8947446,48.7836482],[1.8954278,48.7843027],[1.8966487,48.7838948],[1.8964315,48.7835842],[1.8957937,48.7829766],[1.896045,48.7828923],[1.8957962,48.7826533],[1.8971905,48.7822107],[1.8967866,48.781446],[1.8968216,48.781414],[1.8974499,48.7814171],[1.897455,48.7806862],[1.8994053,48.7806952],[1.899419,48.7802326],[1.9028448,48.7803014]]]]},"properties":{"code_section":"78321000ZE","code_commune":"78321","section_courte":"ZE"}}]}