{"type":"FeatureCollection","features":[{"type":"Feature","geometry":{"type":"MultiPolygon","coordinates":[[[[2.1485842,48.7860659],[2.14873,48.7855026],[2.1478275,48.7831595],[2.1471105,48.7814374],[2.1471659,48.7814257],[2.1470288,48.7811189],[2.1472846,48.7793514],[2.1474945,48.7774461],[2.1471154,48.7737389],[2.1470486,48.7722485],[2.1472108,48.7726626],[2.1473011,48.772766],[2.1482,48.7724363],[2.1559623,48.779814],[2.1563791,48.780512],[2.1564573,48.7805651],[2.1614643,48.7821944],[2.1616712,48.7822906],[2.1593358,48.7832441],[2.1579878,48.7838496],[2.1519008,48.7866527],[2.1512271,48.7869923],[2.1489806,48.7873822],[2.1484276,48.7874611],[2.1482296,48.7874418],[2.1485842,48.7860659]]]]},"properties":{"code_section":"783220000A","code_commune":"78322","section_courte":"A"}},{"type":"Feature","geometry":{"type":"MultiPolygon","coordinates":[[[[2.1771172,48.7713029],[2.1777438,48.7719559],[2.1828228,48.7749893],[2.1761584,48.7802063],[2.1754986,48.7807662],[2.1655828,48.7814278],[2.1638269,48.7815823],[2.1635283,48.7816185],[2.1630426,48.781778],[2.1616712,48.7822906],[2.1614643,48.7821944],[2.1564573,48.7805651],[2.1563791,48.780512],[2.1559623,48.779814],[2.1482,48.7724363],[2.1483185,48.7724909],[2.1480052,48.7721355],[2.1491211,48.7716696],[2.1489114,48.7712448],[2.1478132,48.771274],[2.1479002,48.7714956],[2.1478655,48.7715568],[2.1478162,48.7715348],[2.1477145,48.77123],[2.1478027,48.7710486],[2.1479398,48.7709306],[2.1490527,48.7703562],[2.1498807,48.7700635],[2.1504993,48.7699336],[2.1510998,48.7699211],[2.1517404,48.7700887],[2.1527953,48.7701265],[2.1532098,48.7702644],[2.1543064,48.7703045],[2.1556693,48.7700931],[2.1564057,48.7698361],[2.1575378,48.7698748],[2.1587008,48.7701133],[2.1588875,48.7701737],[2.1590693,48.7702776],[2.1594279,48.7708589],[2.1602249,48.7708359],[2.1603156,48.7709025],[2.1605895,48.7727434],[2.1606807,48.7727542],[2.1606976,48.7727951],[2.1633871,48.7726924],[2.1633286,48.7728209],[2.1624066,48.7738326],[2.1615214,48.7746585],[2.161158,48.7753339],[2.1613759,48.7768962],[2.1614338,48.7768523],[2.1676062,48.7763565],[2.1674525,48.7747337],[2.1684817,48.7747313],[2.1685128,48.7742637],[2.1687736,48.7742797],[2.1688512,48.7737805],[2.1690355,48.7737777],[2.1690266,48.7736471],[2.1699907,48.7736782],[2.1698637,48.7733505],[2.1728887,48.7732289],[2.1726217,48.7722983],[2.1729113,48.7719437],[2.1735348,48.7716513],[2.1743254,48.7721501],[2.1751253,48.7716554],[2.174703,48.7712291],[2.1746516,48.770987],[2.1744291,48.7704517],[2.1744151,48.7697577],[2.1741861,48.7692123],[2.1748032,48.7690893],[2.1763762,48.7705374],[2.1771172,48.7713029]]]]},"properties":{"code_section":"783220000B","code_commune":"78322","section_courte":"B"}},{"type":"Feature","geometry":{"type":"MultiPolygon","coordinates":[[[[2.1930026,48.7635471],[2.1919754,48.7637226],[2.1916515,48.763929],[2.1924628,48.7643796],[2.1926384,48.76441],[2.1928981,48.7646125],[2.191653,48.7665375],[2.1916426,48.7683363],[2.1915809,48.7685563],[2.1912739,48.7691324],[2.1903637,48.771128],[2.1892628,48.7717955],[2.1866831,48.7723218],[2.1861049,48.772625],[2.1878496,48.7734045],[2.1890998,48.7740666],[2.1895068,48.774319],[2.189899,48.7746282],[2.1902626,48.77496],[2.1904538,48.775219],[2.1861099,48.7750463],[2.1852565,48.7749714],[2.1832779,48.7747042],[2.1828711,48.7750046],[2.1828228,48.7749893],[2.1777438,48.7719559],[2.1763762,48.7705374],[2.1748032,48.7690893],[2.1747291,48.7690919],[2.1743425,48.7687561],[2.1741758,48.7683419],[2.1741231,48.7680677],[2.1741031,48.767594],[2.1741613,48.7672611],[2.1741985,48.7672074],[2.1743992,48.7671284],[2.1750211,48.767014],[2.1755289,48.7670094],[2.1755206,48.7659674],[2.1754233,48.7658693],[2.1787304,48.7664055],[2.1792445,48.7663796],[2.1815279,48.7666508],[2.1820893,48.7665731],[2.1819971,48.7667641],[2.1824949,48.7673674],[2.1861937,48.7669644],[2.1868802,48.7673937],[2.1882745,48.7666419],[2.188784,48.7652351],[2.1884692,48.7631778],[2.189076,48.7629147],[2.1895302,48.7628757],[2.1907839,48.762839],[2.1922751,48.7625744],[2.1930026,48.7635471]]]]},"properties":{"code_section":"783220000C","code_commune":"78322","section_courte":"C"}},{"type":"Feature","geometry":{"type":"MultiPolygon","coordinates":[[[[2.1722124,48.7618613],[2.1719361,48.7613188],[2.1718367,48.7612514],[2.171162,48.7615948],[2.1698961,48.7620309],[2.1676423,48.7627638],[2.1676093,48.762693],[2.1674374,48.7628255],[2.1673486,48.7631187],[2.1673404,48.7633195],[2.1673016,48.7634057],[2.1671766,48.7635062],[2.1666931,48.7635717],[2.1667071,48.7636298],[2.1620057,48.7640677],[2.1620288,48.7633603],[2.1558418,48.7632572],[2.1557147,48.7633078],[2.155285,48.7631864],[2.1538064,48.7633345],[2.1535828,48.7621259],[2.1534679,48.7611317],[2.1535778,48.7610967],[2.1535484,48.7606785],[2.1532734,48.76022],[2.1529754,48.7599061],[2.1527555,48.7594575],[2.1521824,48.7586774],[2.1517134,48.758488],[2.1527475,48.7572746],[2.153218,48.7568751],[2.1532189,48.7567046],[2.1530312,48.7563723],[2.1529992,48.7561074],[2.1530549,48.7561038],[2.1530571,48.7559452],[2.1543445,48.7556875],[2.1543789,48.7556083],[2.1556936,48.7557132],[2.1561819,48.7557042],[2.1559973,48.7554887],[2.1561811,48.7554375],[2.1560849,48.7553205],[2.1561213,48.755317],[2.1560487,48.7548932],[2.1560123,48.754874],[2.1561507,48.7545363],[2.1544788,48.7539593],[2.1537632,48.7533289],[2.1535498,48.7532337],[2.1568798,48.7523456],[2.1563561,48.7517569],[2.1612106,48.7501417],[2.1623595,48.7511796],[2.1633404,48.7522858],[2.1655439,48.7545479],[2.1655735,48.7545828],[2.1655385,48.7545966],[2.1667429,48.7557805],[2.1667887,48.7557609],[2.1669182,48.7558761],[2.1668636,48.7559037],[2.1672223,48.7561794],[2.1680528,48.7566742],[2.1723858,48.7567547],[2.173269,48.7577692],[2.1743574,48.7573673],[2.1770432,48.7578911],[2.1770574,48.7578645],[2.1807675,48.7587772],[2.1829177,48.7569224],[2.1831392,48.7568503],[2.1835958,48.7568038],[2.1836639,48.7566871],[2.1840821,48.7566539],[2.1840812,48.7568003],[2.1838669,48.7572127],[2.1842208,48.758086],[2.1835039,48.7581011],[2.1832649,48.7587401],[2.183065,48.7589573],[2.1820305,48.759663],[2.1819452,48.7596587],[2.1811585,48.7600199],[2.180628,48.7603777],[2.1807362,48.7609804],[2.180308,48.7609782],[2.17933,48.7609042],[2.1792161,48.7615668],[2.1781235,48.7620374],[2.1750892,48.7631497],[2.1751187,48.7630491],[2.1749092,48.7629459],[2.1740491,48.7627537],[2.173913,48.7627714],[2.1735167,48.7626929],[2.1735309,48.76265],[2.173058,48.7616807],[2.1722124,48.7618613]]]]},"properties":{"code_section":"783220000F","code_commune":"78322","section_courte":"F"}},{"type":"Feature","geometry":{"type":"MultiPolygon","coordinates":[[[[2.1340438,48.7524064],[2.1356912,48.7508542],[2.135156,48.7502475],[2.1346103,48.749784],[2.1329911,48.7487494],[2.1326451,48.7484598],[2.1320957,48.7478052],[2.1344166,48.7469724],[2.1368741,48.7459891],[2.1371799,48.7463306],[2.1378717,48.7461039],[2.1380956,48.7463343],[2.1390202,48.7460089],[2.1412173,48.7460707],[2.1415527,48.745891],[2.1415331,48.7464545],[2.1411495,48.7467583],[2.1412493,48.7471795],[2.1414602,48.7475999],[2.1417224,48.7479178],[2.1421697,48.7482761],[2.1421949,48.7482646],[2.1424451,48.7485401],[2.1430131,48.7490077],[2.1442715,48.7496288],[2.1448547,48.7501769],[2.1456704,48.7507135],[2.1464597,48.7511285],[2.1467753,48.7509214],[2.1481491,48.7515551],[2.1495652,48.7524703],[2.1502763,48.7529881],[2.1503668,48.7531226],[2.1503893,48.7533279],[2.15052,48.7534039],[2.1506535,48.7536823],[2.1508716,48.7537849],[2.1509868,48.7539765],[2.1512072,48.7540618],[2.1517146,48.7546936],[2.1525029,48.7544701],[2.1526731,48.7543557],[2.1533031,48.7538264],[2.1535498,48.7532337],[2.1537632,48.7533289],[2.1544788,48.7539593],[2.1561507,48.7545363],[2.1560123,48.754874],[2.1560487,48.7548932],[2.1561213,48.755317],[2.1560849,48.7553205],[2.1561811,48.7554375],[2.1559973,48.7554887],[2.1561819,48.7557042],[2.1556936,48.7557132],[2.1543789,48.7556083],[2.1543445,48.7556875],[2.1530571,48.7559452],[2.1530549,48.7561038],[2.1529992,48.7561074],[2.1530312,48.7563723],[2.1532189,48.7567046],[2.153218,48.7568751],[2.1527475,48.7572746],[2.1517134,48.758488],[2.1521824,48.7586774],[2.1527555,48.7594575],[2.1529754,48.7599061],[2.1532734,48.76022],[2.1535484,48.7606785],[2.1535778,48.7610967],[2.1534679,48.7611317],[2.1533595,48.7609951],[2.1524732,48.7605076],[2.1517642,48.7602736],[2.1511949,48.7601969],[2.1509053,48.7601052],[2.1502817,48.7598138],[2.1468935,48.7592582],[2.1434109,48.7587486],[2.1429619,48.7585223],[2.1419962,48.7581047],[2.1411388,48.7577729],[2.1390062,48.7564862],[2.1378588,48.7556031],[2.1377555,48.7555615],[2.1368831,48.7554332],[2.1354176,48.7551011],[2.1348465,48.7551767],[2.1334511,48.7551305],[2.1324874,48.7550544],[2.1302906,48.7540916],[2.1298795,48.7538485],[2.1287316,48.7533054],[2.1286512,48.7532364],[2.1286895,48.7530753],[2.129129,48.7527084],[2.1291652,48.7527303],[2.1292107,48.7526948],[2.1306723,48.7514767],[2.1306223,48.7514502],[2.1309786,48.7512254],[2.1329541,48.7522478],[2.1333576,48.7523493],[2.1340468,48.7524643],[2.1340438,48.7524064]]]]},"properties":{"code_section":"783220000G","code_commune":"78322","section_courte":"G"}},{"type":"Feature","geometry":{"type":"MultiPolygon","coordinates":[[[[2.1721887,48.7732558],[2.1698637,48.7733505],[2.1699907,48.7736782],[2.1690266,48.7736471],[2.1690355,48.7737777],[2.1688512,48.7737805],[2.1687736,48.7742797],[2.1685128,48.7742637],[2.1684817,48.7747313],[2.1674525,48.7747337],[2.1676062,48.7763565],[2.1614338,48.7768523],[2.1613759,48.7768962],[2.161158,48.7753339],[2.1615052,48.7746784],[2.1624066,48.7738326],[2.1633286,48.7728209],[2.1633871,48.7726924],[2.16349,48.7726866],[2.1638851,48.7723179],[2.1675578,48.7717209],[2.1676364,48.7718092],[2.169068,48.771893],[2.1699351,48.7718267],[2.1707822,48.7716911],[2.1716676,48.7716497],[2.1721096,48.7714953],[2.1725375,48.7710918],[2.1735348,48.7716513],[2.1729113,48.7719437],[2.1726217,48.7722983],[2.1728887,48.7732289],[2.1721887,48.7732558]]]]},"properties":{"code_section":"78322000AB","code_commune":"78322","section_courte":"AB"}},{"type":"Feature","geometry":{"type":"MultiPolygon","coordinates":[[[[2.1604424,48.7718087],[2.1603156,48.7709025],[2.1602761,48.770889],[2.1599606,48.7684678],[2.1599845,48.7683348],[2.1600644,48.7682819],[2.160842,48.7681571],[2.1612924,48.76818],[2.1618843,48.768394],[2.1628511,48.7686714],[2.163418,48.7685294],[2.1638288,48.7683661],[2.1640814,48.7683463],[2.1648615,48.7684804],[2.1665463,48.7688529],[2.1675257,48.7688378],[2.1682865,48.7686036],[2.1687296,48.7686264],[2.1692659,48.76875],[2.1696849,48.7689295],[2.1705486,48.7698187],[2.1714995,48.7704922],[2.1725375,48.7710918],[2.1721096,48.7714953],[2.1716676,48.7716497],[2.1707822,48.7716911],[2.1699351,48.7718267],[2.169068,48.771893],[2.1676364,48.7718092],[2.1675578,48.7717209],[2.1638851,48.7723179],[2.16349,48.7726866],[2.1606976,48.7727951],[2.1606807,48.7727542],[2.1605895,48.7727434],[2.1604424,48.7718087]]]]},"properties":{"code_section":"78322000AC","code_commune":"78322","section_courte":"AC"}},{"type":"Feature","geometry":{"type":"MultiPolygon","coordinates":[[[[2.1575378,48.7698748],[2.156322,48.7698461],[2.1556693,48.7700931],[2.1543064,48.7703045],[2.1532098,48.7702644],[2.1527953,48.7701265],[2.1517404,48.7700887],[2.1510998,48.7699211],[2.1504993,48.7699336],[2.1498807,48.7700635],[2.1490527,48.7703562],[2.1479906,48.7709],[2.1478027,48.7710486],[2.1477145,48.77123],[2.1478162,48.7715348],[2.1478655,48.7715568],[2.1479002,48.7714956],[2.1478132,48.771274],[2.1489114,48.7712448],[2.1491211,48.7716696],[2.1480052,48.7721355],[2.1483185,48.7724909],[2.1474564,48.7728679],[2.1472108,48.7726626],[2.1470486,48.7722485],[2.1470109,48.7719083],[2.146538,48.7715851],[2.1464416,48.7714667],[2.1464063,48.7713122],[2.1457128,48.7707317],[2.14604,48.770637],[2.1465336,48.770604],[2.1473211,48.771063],[2.1473986,48.7706818],[2.1474668,48.7705566],[2.1477276,48.7703096],[2.1485265,48.7698987],[2.1502329,48.7692192],[2.151436,48.7689147],[2.1531166,48.7689317],[2.1541816,48.7689044],[2.1545052,48.7688514],[2.1577794,48.7675481],[2.1581968,48.7680396],[2.1584185,48.7684967],[2.1588415,48.7689881],[2.1589396,48.7692666],[2.1589533,48.7695276],[2.1592795,48.7698235],[2.1593971,48.7700018],[2.1596168,48.770852],[2.1594279,48.7708589],[2.1590693,48.7702776],[2.1588875,48.7701737],[2.1587008,48.7701133],[2.1575378,48.7698748]]]]},"properties":{"code_section":"78322000AD","code_commune":"78322","section_courte":"AD"}},{"type":"Feature","geometry":{"type":"MultiPolygon","coordinates":[[[[2.1511248,48.7683815],[2.1497393,48.7659879],[2.1498995,48.7659265],[2.1505228,48.7658444],[2.1534498,48.76524],[2.1542683,48.7652106],[2.1546996,48.7651613],[2.1549937,48.7650764],[2.1561226,48.7646127],[2.1565703,48.7642561],[2.1568112,48.7641587],[2.1580891,48.7637901],[2.1584789,48.7637493],[2.1591255,48.7637453],[2.1591671,48.7636931],[2.1590232,48.7633268],[2.1620288,48.7633603],[2.1620057,48.7640677],[2.1615919,48.7641046],[2.1609537,48.7647166],[2.1608666,48.7648523],[2.1608892,48.7648837],[2.1604965,48.765434],[2.1609815,48.7663972],[2.1604051,48.7665608],[2.1593842,48.7669084],[2.1545052,48.7688514],[2.1541816,48.7689044],[2.1531166,48.7689317],[2.151436,48.7689147],[2.1511248,48.7683815]]]]},"properties":{"code_section":"78322000AE","code_commune":"78322","section_courte":"AE"}},{"type":"Feature","geometry":{"type":"MultiPolygon","coordinates":[[[[2.1597722,48.770848],[2.1596168,48.770852],[2.1593971,48.7700018],[2.1592795,48.7698235],[2.1589533,48.7695276],[2.1589396,48.7692666],[2.1588415,48.7689881],[2.1584185,48.7684967],[2.1581968,48.7680396],[2.1577794,48.7675481],[2.1593842,48.7669084],[2.1604051,48.7665608],[2.1617626,48.7661837],[2.162199,48.7661152],[2.1628912,48.7660738],[2.1635922,48.7661488],[2.1646904,48.7664685],[2.1655338,48.766642],[2.1672622,48.7667956],[2.1677305,48.7667714],[2.168039,48.7667154],[2.1688885,48.7664152],[2.1693828,48.7661863],[2.1700247,48.7662467],[2.1700175,48.7664104],[2.1703441,48.7666525],[2.170295,48.766807],[2.1704705,48.7670221],[2.1703288,48.7673651],[2.1698033,48.7680171],[2.1695688,48.7680893],[2.169416,48.7681954],[2.1690081,48.7683007],[2.1688277,48.7686657],[2.1687296,48.7686264],[2.1682865,48.7686036],[2.1675257,48.7688378],[2.1665463,48.7688529],[2.1648615,48.7684804],[2.1640814,48.7683463],[2.1638288,48.7683661],[2.163418,48.7685294],[2.1628511,48.7686714],[2.1619146,48.7684034],[2.1612144,48.7681663],[2.1607754,48.7681617],[2.1600644,48.7682819],[2.1599845,48.7683348],[2.1599606,48.7684678],[2.1602761,48.770889],[2.1602249,48.7708359],[2.1597722,48.770848]]]]},"properties":{"code_section":"78322000AH","code_commune":"78322","section_courte":"AH"}},{"type":"Feature","geometry":{"type":"MultiPolygon","coordinates":[[[[2.1742644,48.7694004],[2.1744151,48.7697577],[2.1744291,48.7704517],[2.1746516,48.770987],[2.174703,48.7712291],[2.1751253,48.7716554],[2.1743254,48.7721501],[2.1735348,48.7716513],[2.1714995,48.7704922],[2.1705486,48.7698187],[2.1696591,48.7689117],[2.1692659,48.76875],[2.1688277,48.7686657],[2.1690081,48.7683007],[2.169416,48.7681954],[2.1695688,48.7680893],[2.1698033,48.7680171],[2.1702238,48.7675292],[2.1704288,48.7671435],[2.1704705,48.7670221],[2.170295,48.766807],[2.1703441,48.7666525],[2.1700175,48.7664104],[2.1700247,48.7662467],[2.1700704,48.7662354],[2.1702996,48.7654949],[2.1701712,48.7652739],[2.1701606,48.7650679],[2.1702556,48.7649763],[2.171518,48.7649892],[2.1724532,48.7653998],[2.1732615,48.7654575],[2.1741334,48.7654417],[2.1745725,48.7655092],[2.1754875,48.7659176],[2.1755206,48.7659674],[2.1755289,48.7670094],[2.1750211,48.767014],[2.1743992,48.7671284],[2.1741985,48.7672074],[2.1741613,48.7672611],[2.1741031,48.767594],[2.1741758,48.7683419],[2.1743425,48.7687561],[2.1747291,48.7690919],[2.1741861,48.7692123],[2.1742644,48.7694004]]]]},"properties":{"code_section":"78322000AI","code_commune":"78322","section_courte":"AI"}},{"type":"Feature","geometry":{"type":"MultiPolygon","coordinates":[[[[2.171216,48.7641433],[2.1708908,48.7645937],[2.1710027,48.7649879],[2.1702556,48.7649763],[2.1701606,48.7650679],[2.1701712,48.7652739],[2.1702996,48.7654949],[2.1700704,48.7662354],[2.1694642,48.7661883],[2.1693115,48.7662005],[2.1688885,48.7664152],[2.1680932,48.7666992],[2.1677305,48.7667714],[2.1672622,48.7667956],[2.165798,48.7666814],[2.1648643,48.7665113],[2.1635922,48.7661488],[2.1628912,48.7660738],[2.162199,48.7661152],[2.1617977,48.7661761],[2.1609815,48.7663972],[2.1604965,48.765434],[2.1608892,48.7648837],[2.1608666,48.7648523],[2.1609537,48.7647166],[2.1615919,48.7641046],[2.1667071,48.7636298],[2.1666931,48.7635717],[2.1671766,48.7635062],[2.1673016,48.7634057],[2.1673404,48.7633195],[2.1673486,48.7631187],[2.1674374,48.7628255],[2.1676093,48.762693],[2.1676423,48.7627638],[2.1698961,48.7620309],[2.171162,48.7615948],[2.1718367,48.7612514],[2.1719361,48.7613188],[2.1722124,48.7618613],[2.173058,48.7616807],[2.1735309,48.76265],[2.1735167,48.7626929],[2.173913,48.7627714],[2.1740491,48.7627537],[2.1746558,48.7628775],[2.1749092,48.7629459],[2.1751187,48.7630491],[2.1750892,48.7631497],[2.1744898,48.7633712],[2.1713598,48.7639376],[2.171216,48.7641433]]]]},"properties":{"code_section":"78322000AK","code_commune":"78322","section_courte":"AK"}},{"type":"Feature","geometry":{"type":"MultiPolygon","coordinates":[[[[2.1792161,48.7615668],[2.17933,48.7609042],[2.180308,48.7609782],[2.1807362,48.7609804],[2.180628,48.7603777],[2.1811585,48.7600199],[2.1819452,48.7596587],[2.1820305,48.759663],[2.183065,48.7589573],[2.1832649,48.7587401],[2.1835039,48.7581011],[2.1842208,48.758086],[2.1838669,48.7572127],[2.1840812,48.7568003],[2.1840821,48.7566539],[2.1836639,48.7566871],[2.1835958,48.7568038],[2.1831392,48.7568503],[2.1829177,48.7569224],[2.1838527,48.756068],[2.1839044,48.7559827],[2.1846139,48.7553931],[2.1846739,48.7553885],[2.184708,48.755253],[2.1847635,48.7552541],[2.1862162,48.7539533],[2.1866718,48.7545708],[2.1857752,48.755259],[2.1850721,48.7556864],[2.1845059,48.7560874],[2.1851779,48.7572101],[2.1857729,48.7580309],[2.1851189,48.758204],[2.1848492,48.7585139],[2.1845919,48.7591187],[2.184891,48.7600854],[2.1848983,48.7602545],[2.1847265,48.7604885],[2.1827063,48.7612301],[2.1815614,48.7614684],[2.1792161,48.7615668]]]]},"properties":{"code_section":"78322000AL","code_commune":"78322","section_courte":"AL"}},{"type":"Feature","geometry":{"type":"MultiPolygon","coordinates":[[[[2.1845059,48.7560874],[2.1850721,48.7556864],[2.1857752,48.755259],[2.1866718,48.7545708],[2.1862162,48.7539533],[2.1881018,48.7539204],[2.1893628,48.7542603],[2.189521,48.7541595],[2.1897455,48.7545005],[2.1898857,48.7546085],[2.1907382,48.7550714],[2.1908679,48.7551688],[2.190919,48.7553288],[2.1901233,48.7567013],[2.1901857,48.7568338],[2.1903448,48.7570733],[2.1907351,48.7574596],[2.1912112,48.7577241],[2.1915541,48.75783],[2.1917763,48.7579805],[2.1919272,48.7581552],[2.192477,48.7595705],[2.1927116,48.7599325],[2.1932062,48.760373],[2.1930829,48.7604372],[2.1930403,48.7604306],[2.1925727,48.7602737],[2.1908683,48.7605539],[2.1912568,48.7614559],[2.1916216,48.7613294],[2.1920066,48.7622],[2.1922751,48.7625744],[2.1907839,48.762839],[2.1895302,48.7628757],[2.189076,48.7629147],[2.1884692,48.7631778],[2.188784,48.7652351],[2.1882745,48.7666419],[2.1868802,48.7673937],[2.1861937,48.7669644],[2.1824949,48.7673674],[2.1819971,48.7667641],[2.1820893,48.7665731],[2.1815279,48.7666508],[2.1792445,48.7663796],[2.1787304,48.7664055],[2.1754233,48.7658693],[2.1750868,48.7657495],[2.1745725,48.7655092],[2.1741334,48.7654417],[2.1732615,48.7654575],[2.1724532,48.7653998],[2.171518,48.7649892],[2.1710027,48.7649879],[2.1708908,48.7645937],[2.1713598,48.7639376],[2.1744898,48.7633712],[2.1781235,48.7620374],[2.1792161,48.7615668],[2.1815614,48.7614684],[2.1827063,48.7612301],[2.1847265,48.7604885],[2.1848983,48.7602545],[2.184891,48.7600854],[2.1845919,48.7591187],[2.1848492,48.7585139],[2.1851189,48.758204],[2.1857729,48.7580309],[2.1851779,48.7572101],[2.1845059,48.7560874]]]]},"properties":{"code_section":"78322000AM","code_commune":"78322","section_courte":"AM"}},{"type":"Feature","geometry":{"type":"MultiPolygon","coordinates":[[[[2.1354491,48.7505643],[2.1356912,48.7508542],[2.1340438,48.7524064],[2.1340468,48.7524643],[2.1333576,48.7523493],[2.1329541,48.7522478],[2.1309786,48.7512254],[2.1309439,48.7512416],[2.1300035,48.7507979],[2.1291928,48.7505635],[2.1324212,48.7482161],[2.1326451,48.7484598],[2.1329911,48.7487494],[2.1346103,48.749784],[2.135156,48.7502475],[2.1354491,48.7505643]]],[[[2.1379979,48.7441198],[2.1366084,48.7455826],[2.1367881,48.7460408],[2.134299,48.7470169],[2.1320957,48.7478052],[2.130202,48.7456004],[2.1325684,48.7448553],[2.1373804,48.743578],[2.1387873,48.7432342],[2.1388083,48.7432675],[2.1379979,48.7441198]]]]},"properties":{"code_section":"78322000ZA","code_commune":"78322","section_courte":"ZA"}}]}