{"type":"FeatureCollection","features":[{"type":"Feature","geometry":{"type":"MultiPolygon","coordinates":[[[[2.1326659,48.7658863],[2.1325893,48.7659428],[2.1327482,48.7651411],[2.1332547,48.7640524],[2.132703,48.7634228],[2.1327309,48.7633587],[2.1342148,48.7628605],[2.1342536,48.7627731],[2.1350175,48.7625291],[2.1350729,48.7624001],[2.1352857,48.7624523],[2.1381384,48.7620274],[2.1387088,48.7619553],[2.1390309,48.7619505],[2.141172,48.7624236],[2.1417278,48.7624901],[2.1429288,48.7625617],[2.1428618,48.7633679],[2.1429649,48.7638385],[2.1428365,48.7644114],[2.1420572,48.7644938],[2.1421265,48.764773],[2.1426366,48.7651175],[2.1431558,48.7660107],[2.1431611,48.7661846],[2.1430788,48.7662925],[2.142986,48.7663332],[2.1426961,48.7663843],[2.1421658,48.7663421],[2.1418746,48.76636],[2.1416771,48.76642],[2.1415171,48.7665383],[2.1414097,48.7667198],[2.1412767,48.7667442],[2.140977,48.7664602],[2.139655,48.7655998],[2.1396303,48.7656288],[2.139556,48.7655958],[2.1391791,48.7650914],[2.138616,48.7653028],[2.138322,48.7655575],[2.1379224,48.7658192],[2.1373618,48.7659873],[2.1362681,48.7662512],[2.1343656,48.7668679],[2.1343574,48.7668365],[2.1334452,48.7664106],[2.1326659,48.7658863]]]]},"properties":{"code_section":"78343000AA","code_commune":"78343","section_courte":"AA"}},{"type":"Feature","geometry":{"type":"MultiPolygon","coordinates":[[[[2.1455388,48.7707029],[2.1442676,48.7708159],[2.1411768,48.7716601],[2.1410154,48.7718274],[2.1409163,48.7717806],[2.141038,48.7716464],[2.1409889,48.771558],[2.1411564,48.7709793],[2.1411334,48.7708515],[2.1410572,48.7707352],[2.1403402,48.7701566],[2.1400499,48.7700449],[2.1392832,48.769554],[2.1389175,48.7695665],[2.1385565,48.7695333],[2.1378874,48.7696207],[2.1376717,48.7695752],[2.1372069,48.7693988],[2.1359932,48.7682821],[2.1343656,48.7668679],[2.1362681,48.7662512],[2.1373618,48.7659873],[2.1379224,48.7658192],[2.138322,48.7655575],[2.1386159,48.7653028],[2.1391791,48.7650914],[2.139556,48.7655958],[2.1396303,48.7656288],[2.139655,48.7655998],[2.140977,48.7664602],[2.1414339,48.7668841],[2.141456,48.7668033],[2.1418698,48.7671695],[2.1422436,48.7674035],[2.1436682,48.7686146],[2.1443527,48.7691177],[2.1453242,48.7699604],[2.1465602,48.7706418],[2.1455388,48.7707029]]]]},"properties":{"code_section":"78343000AB","code_commune":"78343","section_courte":"AB"}},{"type":"Feature","geometry":{"type":"MultiPolygon","coordinates":[[[[2.151436,48.7689147],[2.1502329,48.7692192],[2.1485265,48.7698987],[2.1477276,48.7703096],[2.1474668,48.7705566],[2.1473986,48.7706818],[2.1473211,48.771063],[2.1453242,48.7699604],[2.1443527,48.7691177],[2.1436682,48.7686146],[2.1467783,48.7677761],[2.1472078,48.7676355],[2.1476107,48.7674456],[2.1481281,48.7671076],[2.1486719,48.7666721],[2.1490527,48.7662973],[2.1493145,48.7661551],[2.1497393,48.7659879],[2.151436,48.7689147]]]]},"properties":{"code_section":"78343000AC","code_commune":"78343","section_courte":"AC"}},{"type":"Feature","geometry":{"type":"MultiPolygon","coordinates":[[[[2.1481653,48.7638597],[2.1489311,48.764401],[2.1493108,48.7647397],[2.1495764,48.7651896],[2.1497705,48.7653335],[2.1499675,48.7653784],[2.1502426,48.765388],[2.1509082,48.7652276],[2.1534498,48.76524],[2.1505228,48.7658444],[2.1498995,48.7659265],[2.1493145,48.7661551],[2.1490527,48.7662973],[2.1486719,48.7666721],[2.1481281,48.7671076],[2.1476107,48.7674456],[2.1472078,48.7676355],[2.1467783,48.7677761],[2.1436682,48.7686146],[2.1422436,48.7674035],[2.1418698,48.7671695],[2.141456,48.7668033],[2.1414339,48.7668841],[2.1412767,48.7667442],[2.1414097,48.7667198],[2.1415171,48.7665383],[2.1416771,48.76642],[2.1418746,48.76636],[2.142125,48.7663412],[2.1425864,48.7663811],[2.1428608,48.7663675],[2.1430788,48.7662925],[2.1431611,48.7661846],[2.1431558,48.7660107],[2.1426366,48.7651175],[2.142143,48.7647944],[2.1420572,48.7644938],[2.1428365,48.7644114],[2.1429649,48.7638385],[2.1428618,48.7633679],[2.1429288,48.7625617],[2.1482724,48.7632221],[2.1484786,48.76329],[2.1484543,48.7633476],[2.1476605,48.7635775],[2.1481653,48.7638597]]]]},"properties":{"code_section":"78343000AD","code_commune":"78343","section_courte":"AD"}},{"type":"Feature","geometry":{"type":"MultiPolygon","coordinates":[[[[2.1591255,48.7637453],[2.1584789,48.7637493],[2.1580891,48.7637901],[2.1568112,48.7641587],[2.1565703,48.7642561],[2.1561292,48.7646094],[2.1549937,48.7650764],[2.1546996,48.7651613],[2.1542683,48.7652106],[2.1534498,48.76524],[2.1509082,48.7652276],[2.1502426,48.765388],[2.150038,48.7653858],[2.1497705,48.7653335],[2.1496011,48.7652181],[2.1493364,48.7647707],[2.1489819,48.7644428],[2.1481653,48.7638597],[2.1476605,48.7635775],[2.1484543,48.7633476],[2.1484786,48.76329],[2.1482724,48.7632221],[2.1429288,48.7625617],[2.1417278,48.7624901],[2.141172,48.7624236],[2.1390309,48.7619505],[2.1387088,48.7619553],[2.1381384,48.7620274],[2.1370821,48.7603261],[2.1371036,48.7597975],[2.1371596,48.7594263],[2.1372637,48.7592311],[2.1381307,48.7582055],[2.1382744,48.7576012],[2.1389208,48.7565084],[2.1397821,48.7569498],[2.1403281,48.7573438],[2.1408176,48.7576412],[2.1417183,48.7579731],[2.1433197,48.7586694],[2.1442717,48.7588259],[2.1461706,48.7590728],[2.1501323,48.7597624],[2.1511997,48.7601514],[2.151757,48.7602084],[2.1523622,48.7604465],[2.1533595,48.7609951],[2.1534679,48.7611317],[2.1535828,48.7621259],[2.1538064,48.7633345],[2.155285,48.7631864],[2.1557147,48.7633078],[2.1590232,48.7633268],[2.1591255,48.7637453]]]]},"properties":{"code_section":"78343000AE","code_commune":"78343","section_courte":"AE"}},{"type":"Feature","geometry":{"type":"MultiPolygon","coordinates":[[[[2.1350175,48.7625291],[2.1342536,48.7627731],[2.1342148,48.7628605],[2.1327309,48.7633587],[2.132703,48.7634228],[2.1332547,48.7640524],[2.1327482,48.7651411],[2.1325893,48.7659428],[2.1306468,48.7633371],[2.1297408,48.7623467],[2.1286483,48.7614254],[2.1280359,48.7608582],[2.1276152,48.7603518],[2.1268843,48.7591563],[2.1262126,48.7583101],[2.1241453,48.7553618],[2.1238895,48.7549016],[2.1236401,48.7541922],[2.1233606,48.7542267],[2.1232186,48.7543062],[2.1231749,48.7536166],[2.1232971,48.7532226],[2.1237452,48.7528407],[2.1243076,48.7524688],[2.1244555,48.7522962],[2.1245136,48.7520449],[2.1240159,48.7515897],[2.1240555,48.7513044],[2.1247128,48.7514336],[2.1255648,48.7515099],[2.1267369,48.7517763],[2.126959,48.7518707],[2.1275219,48.7522152],[2.1282266,48.7525514],[2.1284705,48.7527176],[2.1286473,48.7529166],[2.1286825,48.7532795],[2.1298795,48.7538485],[2.1302906,48.7540916],[2.1324874,48.7550544],[2.1334511,48.7551305],[2.1348465,48.7551767],[2.1357498,48.7551078],[2.1362414,48.7551889],[2.1371634,48.7554698],[2.1377555,48.7555615],[2.1378588,48.7556031],[2.1390062,48.7564862],[2.1389208,48.7565084],[2.1382744,48.7576012],[2.1381149,48.7582311],[2.1378655,48.7585557],[2.1374615,48.7589671],[2.1371596,48.7594263],[2.1370821,48.7603261],[2.1381384,48.7620274],[2.1352857,48.7624523],[2.1350729,48.7624001],[2.1350175,48.7625291]]]]},"properties":{"code_section":"78343000ZA","code_commune":"78343","section_courte":"ZA"}}]}