{"type":"FeatureCollection","features":[{"type":"Feature","geometry":{"type":"MultiPolygon","coordinates":[[[[2.1440496,48.9610771],[2.1489091,48.9584621],[2.1493194,48.9589671],[2.1503266,48.9592432],[2.149742,48.9607741],[2.1507051,48.9606833],[2.1533795,48.9640076],[2.1545457,48.9644986],[2.1547758,48.9644875],[2.1548182,48.9648967],[2.1464599,48.9652772],[2.143995,48.9611065],[2.1440496,48.9610771]]]]},"properties":{"code_section":"78358000AB","code_commune":"78358","section_courte":"AB"}},{"type":"Feature","geometry":{"type":"MultiPolygon","coordinates":[[[[2.1504706,48.9575505],[2.1549265,48.957579],[2.1590683,48.9595509],[2.157912,48.9632051],[2.1556282,48.964403],[2.1554754,48.9644259],[2.1555217,48.964864],[2.1548182,48.9648967],[2.1547758,48.9644875],[2.1545457,48.9644986],[2.1533795,48.9640076],[2.1507051,48.9606833],[2.149742,48.9607741],[2.1503266,48.9592432],[2.1493194,48.9589671],[2.1489091,48.9584621],[2.1505121,48.9575825],[2.1504706,48.9575505]]]]},"properties":{"code_section":"78358000AC","code_commune":"78358","section_courte":"AC"}},{"type":"Feature","geometry":{"type":"MultiPolygon","coordinates":[[[[2.155504,48.9646941],[2.1554754,48.9644259],[2.1556282,48.964403],[2.157912,48.9632051],[2.1590683,48.9595509],[2.1596542,48.9598294],[2.1605193,48.9597484],[2.1611605,48.9588587],[2.1674868,48.9640225],[2.1677651,48.9641346],[2.1679644,48.9641233],[2.1679754,48.9643007],[2.1555217,48.964864],[2.155504,48.9646941]]]]},"properties":{"code_section":"78358000AD","code_commune":"78358","section_courte":"AD"}},{"type":"Feature","geometry":{"type":"MultiPolygon","coordinates":[[[[2.1606838,48.9581353],[2.1633238,48.9559253],[2.1634955,48.9559703],[2.1637324,48.9559792],[2.1639865,48.9559211],[2.1641736,48.9558388],[2.1643553,48.9556438],[2.1643741,48.9554333],[2.1662161,48.954471],[2.1672603,48.9552126],[2.1686731,48.9563101],[2.1703063,48.9576289],[2.1707806,48.958146],[2.1710252,48.9588226],[2.1710788,48.9593259],[2.1709949,48.9599653],[2.1707606,48.9605515],[2.1705043,48.9609581],[2.1701026,48.9614656],[2.1696201,48.961934],[2.1692778,48.9621942],[2.1687529,48.9625214],[2.1680622,48.9628683],[2.1667236,48.9634064],[2.1604808,48.9583026],[2.1606838,48.9581353]]]]},"properties":{"code_section":"78358000AE","code_commune":"78358","section_courte":"AE"}},{"type":"Feature","geometry":{"type":"MultiPolygon","coordinates":[[[[2.156822,48.9459646],[2.1565743,48.9457309],[2.1576223,48.9452681],[2.1575016,48.9451634],[2.1582973,48.944742],[2.1595599,48.9455661],[2.1617584,48.9468106],[2.1635735,48.9477098],[2.1652342,48.9486109],[2.1663884,48.949176],[2.1686462,48.9504256],[2.169936,48.9512799],[2.1717676,48.9526565],[2.1726718,48.9532828],[2.1738847,48.9539717],[2.1745433,48.9544836],[2.1753846,48.9553785],[2.1773802,48.9578727],[2.1779915,48.9589269],[2.1781596,48.9595132],[2.1781824,48.9608121],[2.1778875,48.962262],[2.1777711,48.9630722],[2.1778645,48.9633579],[2.1781442,48.9638304],[2.1742665,48.9640063],[2.1742062,48.9639484],[2.1740369,48.964019],[2.1679754,48.9643007],[2.1679644,48.9641233],[2.1677651,48.9641346],[2.1674868,48.9640225],[2.1667236,48.9634064],[2.1680622,48.9628683],[2.1689093,48.9624304],[2.1696201,48.961934],[2.1699725,48.9616028],[2.1703081,48.9612192],[2.1708204,48.9604391],[2.1709564,48.9601047],[2.1710488,48.959724],[2.1710788,48.9593259],[2.1710496,48.9589549],[2.1709496,48.9585462],[2.1707806,48.958146],[2.1703063,48.9576289],[2.1672603,48.9552126],[2.1648667,48.9535435],[2.1627848,48.952173],[2.1607986,48.9508003],[2.1602498,48.9494936],[2.1588918,48.9479208],[2.156822,48.9459646]]]]},"properties":{"code_section":"78358000AH","code_commune":"78358","section_courte":"AH"}},{"type":"Feature","geometry":{"type":"MultiPolygon","coordinates":[[[[2.1450048,48.9456752],[2.1447598,48.9454748],[2.1462612,48.9444791],[2.1462907,48.9444948],[2.1473338,48.9438399],[2.1474386,48.9438372],[2.14752,48.9437817],[2.1474305,48.943737],[2.1477353,48.9435927],[2.1480996,48.9431832],[2.148056,48.9431529],[2.1481295,48.9430739],[2.1486474,48.9426766],[2.1487105,48.9426321],[2.148952,48.9427242],[2.1493174,48.9424467],[2.1491267,48.942338],[2.1520148,48.9404122],[2.1566733,48.943576],[2.1582973,48.944742],[2.1575016,48.9451634],[2.1576223,48.9452681],[2.1565743,48.9457309],[2.1559554,48.9456906],[2.1525203,48.9457921],[2.1526077,48.9458641],[2.1526771,48.9458281],[2.1529872,48.9460846],[2.1525611,48.946313],[2.1526678,48.9463889],[2.1525106,48.9465128],[2.1523059,48.9466194],[2.1522572,48.9465787],[2.1519113,48.9467346],[2.1530728,48.947618],[2.149814,48.9493118],[2.1479944,48.947829],[2.147959,48.947848],[2.1479024,48.9477999],[2.1475792,48.9479601],[2.1450048,48.9456752]]]]},"properties":{"code_section":"78358000AI","code_commune":"78358","section_courte":"AI"}},{"type":"Feature","geometry":{"type":"MultiPolygon","coordinates":[[[[2.1377554,48.9384125],[2.1399494,48.9368231],[2.1426033,48.9351916],[2.1432884,48.9358247],[2.1439449,48.936356],[2.1461071,48.9378807],[2.1467249,48.9382744],[2.1480152,48.9388294],[2.1506052,48.9397938],[2.1520148,48.9404122],[2.1491267,48.942338],[2.1493174,48.9424467],[2.148952,48.9427242],[2.1487105,48.9426321],[2.1486474,48.9426766],[2.1481295,48.9430739],[2.148056,48.9431529],[2.1480996,48.9431832],[2.1477353,48.9435927],[2.1474305,48.943737],[2.14752,48.9437817],[2.147481,48.9438083],[2.1403893,48.9403979],[2.1397482,48.9398175],[2.1373526,48.9387272],[2.1377554,48.9384125]]]]},"properties":{"code_section":"78358000AK","code_commune":"78358","section_courte":"AK"}},{"type":"Feature","geometry":{"type":"MultiPolygon","coordinates":[[[[2.1341765,48.9407966],[2.1368401,48.9391526],[2.1373526,48.9387272],[2.1397482,48.9398175],[2.1403893,48.9403979],[2.147481,48.9438083],[2.1474386,48.9438372],[2.1473338,48.9438399],[2.1462907,48.9444948],[2.1462612,48.9444791],[2.1447598,48.9454748],[2.1445996,48.9454196],[2.1429505,48.9440667],[2.1398757,48.9444623],[2.137568,48.94409],[2.1367915,48.9439919],[2.1362892,48.9428057],[2.1354339,48.9428924],[2.1334343,48.9413336],[2.1334525,48.9412791],[2.1341765,48.9407966]]]]},"properties":{"code_section":"78358000AL","code_commune":"78358","section_courte":"AL"}},{"type":"Feature","geometry":{"type":"MultiPolygon","coordinates":[[[[2.1398757,48.9444623],[2.1429505,48.9440667],[2.1445996,48.9454196],[2.1447598,48.9454748],[2.1450096,48.945679],[2.1475792,48.9479601],[2.1474063,48.9480624],[2.1471695,48.9481155],[2.1428254,48.9504117],[2.1423108,48.9506264],[2.1411403,48.9490957],[2.1416039,48.9489556],[2.1411456,48.9483172],[2.1411439,48.9481559],[2.1408685,48.9479903],[2.1407568,48.9480002],[2.1403654,48.9472636],[2.1391929,48.9475365],[2.138467,48.9462602],[2.137568,48.94409],[2.1398757,48.9444623]]]]},"properties":{"code_section":"78358000AM","code_commune":"78358","section_courte":"AM"}},{"type":"Feature","geometry":{"type":"MultiPolygon","coordinates":[[[[2.1423108,48.9506264],[2.1428254,48.9504117],[2.1471695,48.9481155],[2.1474063,48.9480624],[2.1478527,48.9478159],[2.1479024,48.9477999],[2.147959,48.947848],[2.1479944,48.947829],[2.1514773,48.9506775],[2.1514971,48.9507453],[2.152845,48.9518479],[2.153061,48.9518601],[2.1532684,48.9519185],[2.1533616,48.9519685],[2.1535049,48.9521575],[2.1535002,48.9523412],[2.1533853,48.9524875],[2.1531568,48.9525997],[2.1528692,48.9526338],[2.151395,48.9564765],[2.1507122,48.9567273],[2.1499124,48.9571189],[2.1417573,48.9508543],[2.1423108,48.9506264]]]]},"properties":{"code_section":"78358000AN","code_commune":"78358","section_courte":"AN"}},{"type":"Feature","geometry":{"type":"MultiPolygon","coordinates":[[[[2.1521565,48.9466181],[2.1522572,48.9465787],[2.1523059,48.9466194],[2.1525106,48.9465128],[2.1526678,48.9463889],[2.1525611,48.946313],[2.1529872,48.9460846],[2.1526771,48.9458281],[2.1526077,48.9458641],[2.1525203,48.9457921],[2.1559554,48.9456906],[2.1565743,48.9457309],[2.1588918,48.9479208],[2.1602498,48.9494936],[2.159355,48.9498963],[2.1592963,48.9499885],[2.1574386,48.9509577],[2.1573416,48.9509712],[2.1569441,48.950882],[2.156755,48.9515587],[2.1555503,48.952209],[2.1535111,48.9521797],[2.1534487,48.9520578],[2.1532684,48.9519185],[2.153061,48.9518601],[2.152845,48.9518479],[2.149814,48.9493118],[2.1530728,48.947618],[2.1519113,48.9467346],[2.1521565,48.9466181]]]]},"properties":{"code_section":"78358000AO","code_commune":"78358","section_courte":"AO"}},{"type":"Feature","geometry":{"type":"MultiPolygon","coordinates":[[[[2.1537231,48.9527632],[2.1533853,48.9524875],[2.1535002,48.9523412],[2.1535111,48.9521797],[2.1555503,48.952209],[2.156755,48.9515587],[2.1569441,48.950882],[2.1573416,48.9509712],[2.1574386,48.9509577],[2.1592963,48.9499885],[2.159355,48.9498963],[2.1602498,48.9494936],[2.1607986,48.9508003],[2.1627848,48.952173],[2.1662161,48.954471],[2.1643741,48.9554333],[2.1643553,48.9556438],[2.1641736,48.9558388],[2.1639865,48.9559211],[2.1637324,48.9559792],[2.1634955,48.9559703],[2.1633238,48.9559253],[2.1604808,48.9583026],[2.1599551,48.9578715],[2.1600382,48.9577609],[2.1600566,48.9576518],[2.1599471,48.9574715],[2.15969,48.9573631],[2.159352,48.9573762],[2.1537231,48.9527632]]]]},"properties":{"code_section":"78358000AP","code_commune":"78358","section_courte":"AP"}},{"type":"Feature","geometry":{"type":"MultiPolygon","coordinates":[[[[2.1500774,48.9570272],[2.1507122,48.9567273],[2.151395,48.9564765],[2.1528692,48.9526338],[2.1531568,48.9525997],[2.1533853,48.9524875],[2.159352,48.9573762],[2.15969,48.9573631],[2.1599471,48.9574715],[2.1600566,48.9576518],[2.1600382,48.9577609],[2.1599551,48.9578715],[2.1611605,48.9588587],[2.1605193,48.9597484],[2.1596542,48.9598294],[2.1549265,48.957579],[2.1504706,48.9575505],[2.1499124,48.9571189],[2.1500774,48.9570272]]]]},"properties":{"code_section":"78358000AR","code_commune":"78358","section_courte":"AR"}},{"type":"Feature","geometry":{"type":"MultiPolygon","coordinates":[[[[2.1408385,48.9577595],[2.1409433,48.9576607],[2.1466507,48.9546094],[2.1505121,48.9575825],[2.143995,48.9611065],[2.1429268,48.9592987],[2.1407964,48.957799],[2.1408385,48.9577595]]]]},"properties":{"code_section":"78358000AS","code_commune":"78358","section_courte":"AS"}},{"type":"Feature","geometry":{"type":"MultiPolygon","coordinates":[[[[2.1337309,48.9552409],[2.1350889,48.9543941],[2.13525,48.9540066],[2.1351834,48.9539217],[2.1376497,48.9525193],[2.1417573,48.9508543],[2.1466507,48.9546094],[2.1409433,48.9576607],[2.1407964,48.957799],[2.138498,48.9589989],[2.1365599,48.9574613],[2.1361165,48.9576814],[2.1355406,48.9571991],[2.1347665,48.9575908],[2.1343811,48.9574245],[2.1342604,48.9571148],[2.1349639,48.9567412],[2.1344479,48.9563411],[2.1344129,48.956125],[2.1347483,48.9560341],[2.1337309,48.9552409]]]]},"properties":{"code_section":"78358000AT","code_commune":"78358","section_courte":"AT"}},{"type":"Feature","geometry":{"type":"MultiPolygon","coordinates":[[[[2.1315638,48.9496024],[2.1322034,48.9494047],[2.132352,48.9493135],[2.1338056,48.9488675],[2.1403654,48.9472636],[2.1407568,48.9480002],[2.1408685,48.9479903],[2.1411439,48.9481559],[2.1411456,48.9483172],[2.1416039,48.9489556],[2.1411403,48.9490957],[2.1423108,48.9506264],[2.1376497,48.9525193],[2.1351834,48.9539217],[2.1328666,48.9516043],[2.13135,48.9496685],[2.1315638,48.9496024]]]]},"properties":{"code_section":"78358000AV","code_commune":"78358","section_courte":"AV"}},{"type":"Feature","geometry":{"type":"MultiPolygon","coordinates":[[[[2.1283755,48.9433993],[2.13106,48.943701],[2.130598,48.9429498],[2.1314548,48.9426736],[2.1333897,48.9413949],[2.1334343,48.9413336],[2.1354339,48.9428924],[2.1362892,48.9428057],[2.1367915,48.9439919],[2.137568,48.94409],[2.138467,48.9462602],[2.1391929,48.9475365],[2.1338056,48.9488675],[2.132352,48.9493135],[2.1322441,48.9493802],[2.1321022,48.9487351],[2.1319583,48.9476951],[2.1317371,48.9475162],[2.1304733,48.9467738],[2.1303791,48.9466296],[2.1299356,48.9455012],[2.1283398,48.9438799],[2.1283755,48.9433993]]]]},"properties":{"code_section":"78358000AW","code_commune":"78358","section_courte":"AW"}}]}