{"type":"FeatureCollection","features":[{"type":"Feature","geometry":{"type":"MultiPolygon","coordinates":[[[[2.021825,48.7574712],[2.0214451,48.7583175],[2.0212237,48.7586288],[2.0208899,48.758835],[2.0203547,48.7591047],[2.0196873,48.7593244],[2.0190958,48.7594187],[2.0187307,48.7596056],[2.0186249,48.7596241],[2.0179856,48.7593931],[2.0176561,48.7594069],[2.0169906,48.7597022],[2.0167606,48.7597329],[2.0164029,48.7599186],[2.0159136,48.7599662],[2.0153535,48.7601596],[2.0145861,48.7603164],[2.014197,48.7604696],[2.0137002,48.7606005],[2.0133715,48.7606243],[2.013023,48.7605553],[2.0127122,48.7605936],[2.0124465,48.7608083],[2.0125283,48.7609223],[2.0122039,48.7610421],[2.0121563,48.761143],[2.0119268,48.7612201],[2.0117219,48.7613485],[2.0116087,48.7615165],[2.0116321,48.761616],[2.0115042,48.7616741],[2.0114184,48.7618635],[2.0112267,48.7619968],[2.0108551,48.7617807],[2.0103465,48.7618247],[1.9970713,48.7528513],[1.9935059,48.749167],[1.9930215,48.748944],[1.992463,48.7487458],[1.9922669,48.7483639],[1.992229,48.7480574],[1.9938274,48.7481597],[1.9949228,48.7480965],[1.9954942,48.7479298],[1.996331,48.7475526],[1.9966031,48.7474704],[1.9971637,48.7473956],[1.9975843,48.7474018],[1.9987957,48.7473051],[2.0024956,48.7467857],[2.0029239,48.7467475],[2.0045536,48.7471101],[2.0048026,48.7471006],[2.0055065,48.7469548],[2.005714,48.7468961],[2.0071928,48.7459246],[2.0078082,48.7456981],[2.0088641,48.745647],[2.0088042,48.7455925],[2.009285,48.7454984],[2.0097652,48.7456062],[2.0099074,48.7456102],[2.0100529,48.7455931],[2.0103343,48.7454902],[2.0108985,48.7452097],[2.0112831,48.744973],[2.0114872,48.7447923],[2.0115654,48.7446817],[2.0116554,48.7444112],[2.0118455,48.744178],[2.0123325,48.7440553],[2.0139443,48.7433477],[2.0141193,48.7435595],[2.017389,48.7424228],[2.0183111,48.7407677],[2.0184386,48.7406973],[2.0195992,48.7418284],[2.0201965,48.7413551],[2.0205163,48.7411571],[2.0210208,48.7409955],[2.0214142,48.7407762],[2.022161,48.7406185],[2.0223507,48.7405345],[2.022619,48.7403224],[2.0228278,48.740013],[2.0229494,48.7400927],[2.0230018,48.7402483],[2.0229129,48.7404152],[2.0226092,48.7406258],[2.0217194,48.7410827],[2.0215212,48.7412522],[2.0209935,48.7419508],[2.0202305,48.7423057],[2.0199926,48.7428379],[2.0192054,48.7436799],[2.0189901,48.7439677],[2.0188101,48.7443779],[2.0188213,48.7444973],[2.0189851,48.7447483],[2.0192124,48.7449479],[2.019446,48.7450918],[2.021705,48.7461201],[2.0229454,48.7464409],[2.02318,48.746556],[2.0253103,48.7476159],[2.037519,48.7538536],[2.0373638,48.7539442],[2.0367072,48.7540882],[2.0367683,48.7542021],[2.0345753,48.7546727],[2.0333528,48.7547764],[2.0331057,48.7548238],[2.0319356,48.7555324],[2.0305778,48.7560406],[2.030394,48.7560524],[2.0291426,48.755965],[2.0288319,48.7559716],[2.027851,48.7558041],[2.0268875,48.7557653],[2.0260921,48.7557799],[2.0259172,48.7558038],[2.0250641,48.7560593],[2.0237982,48.756208],[2.0235271,48.7562796],[2.0232808,48.7563943],[2.0230285,48.7565653],[2.0222572,48.7572274],[2.021957,48.7573613],[2.021825,48.7574712]]]]},"properties":{"code_section":"783560000A","code_commune":"78356","section_courte":"A"}},{"type":"Feature","geometry":{"type":"MultiPolygon","coordinates":[[[[2.0384662,48.754262],[2.0382362,48.7542165],[2.037519,48.7538536],[2.0375748,48.7537902],[2.0382206,48.7534164],[2.0395035,48.7523891],[2.0397762,48.7525521],[2.0398035,48.7525344],[2.0403162,48.7509104],[2.0411503,48.7496482],[2.0416543,48.7487309],[2.0419289,48.7484138],[2.0419786,48.7484213],[2.042026,48.7482874],[2.0421563,48.7481174],[2.042585,48.7478193],[2.0426737,48.7477235],[2.0428746,48.7473732],[2.0428755,48.7472214],[2.0427925,48.747125],[2.0426,48.7470075],[2.0423356,48.7469005],[2.0420375,48.7465031],[2.0418769,48.7462032],[2.0417521,48.745819],[2.0461841,48.7456451],[2.0461926,48.7457177],[2.0477581,48.7458538],[2.0480336,48.7458125],[2.0484982,48.7455368],[2.0486106,48.7453492],[2.0488764,48.7451212],[2.0490357,48.7451123],[2.0507574,48.7463485],[2.0509243,48.7464806],[2.0510151,48.7466331],[2.0509659,48.7472864],[2.0508729,48.7476424],[2.0505758,48.7478402],[2.0491061,48.7485466],[2.0490798,48.7486275],[2.0491424,48.748801],[2.0492792,48.74897],[2.0500734,48.7495464],[2.0508461,48.7497742],[2.0509235,48.7498252],[2.0516181,48.7505921],[2.0515604,48.7506519],[2.0505687,48.7507866],[2.0504776,48.7508384],[2.0504496,48.750901],[2.0507467,48.752198],[2.0505963,48.752201],[2.0505773,48.7520397],[2.0496668,48.7521661],[2.0490446,48.7511232],[2.0489483,48.751079],[2.0482207,48.751128],[2.0468172,48.7512894],[2.0450282,48.7515391],[2.0446362,48.7503004],[2.0429361,48.7503834],[2.0419104,48.7505218],[2.0418144,48.7510498],[2.0416233,48.7515174],[2.0412699,48.7518119],[2.0413956,48.753294],[2.0405626,48.7535666],[2.0410431,48.7541243],[2.0411588,48.7541782],[2.0410925,48.7542133],[2.040533,48.7540438],[2.0400604,48.7540202],[2.0396604,48.7540578],[2.0387038,48.7542439],[2.0384662,48.754262]]],[[[2.0241286,48.747028],[2.0229454,48.7464409],[2.021705,48.7461201],[2.019446,48.7450918],[2.0192124,48.7449479],[2.0189851,48.7447483],[2.0188213,48.7444973],[2.0188101,48.7443779],[2.0189901,48.7439677],[2.0192054,48.7436799],[2.0199926,48.7428379],[2.0202305,48.7423057],[2.0209935,48.7419508],[2.0215212,48.7412522],[2.0217194,48.7410827],[2.0226092,48.7406258],[2.0229129,48.7404152],[2.0230018,48.7402483],[2.0229494,48.7400927],[2.0228278,48.740013],[2.0246657,48.7384417],[2.0259562,48.7388602],[2.0267307,48.7392237],[2.0270153,48.7394811],[2.0271405,48.7396445],[2.0272854,48.7399493],[2.0273203,48.7401125],[2.0273056,48.7406504],[2.0274966,48.7411335],[2.0276104,48.7412707],[2.0286655,48.7420798],[2.0290968,48.7423124],[2.0304542,48.7414658],[2.0329917,48.7406816],[2.0334863,48.7405602],[2.0330466,48.7402077],[2.0351201,48.7389728],[2.0356612,48.7392847],[2.0359428,48.7391744],[2.035912,48.7391514],[2.0356926,48.7392414],[2.0335063,48.7379825],[2.0349254,48.7371077],[2.0357845,48.7377103],[2.0364096,48.73806],[2.0367689,48.7384306],[2.0373295,48.7379081],[2.0384392,48.7383489],[2.0394751,48.7389079],[2.0389341,48.7394265],[2.037904,48.7391134],[2.0374279,48.7395822],[2.0377204,48.7398362],[2.0373273,48.7400745],[2.0384411,48.7408766],[2.0377636,48.7411813],[2.0369715,48.7417972],[2.0363298,48.7422048],[2.0351322,48.7427404],[2.0335207,48.7435365],[2.0301816,48.7452922],[2.0295094,48.7449355],[2.0292844,48.7449396],[2.0276033,48.7458943],[2.0253103,48.7476159],[2.0241286,48.747028]]]]},"properties":{"code_section":"783560000B","code_commune":"78356","section_courte":"B"}},{"type":"Feature","geometry":{"type":"MultiPolygon","coordinates":[[[[2.0657444,48.7404971],[2.0659878,48.7403315],[2.0664236,48.7403236],[2.0669578,48.7404365],[2.06723,48.7405257],[2.067538,48.7405731],[2.0677405,48.7406934],[2.0682244,48.7408523],[2.0687972,48.7409061],[2.069659,48.7408608],[2.0700283,48.7408059],[2.0707239,48.7406203],[2.0710793,48.7409637],[2.0710835,48.7410767],[2.0719641,48.7410418],[2.071718,48.7404842],[2.0726038,48.7403069],[2.0728346,48.7408474],[2.0734487,48.7412328],[2.0735964,48.7411422],[2.0737476,48.7409473],[2.0739596,48.7405545],[2.0741174,48.7404056],[2.0742857,48.7403153],[2.0745501,48.7402634],[2.0760217,48.7401074],[2.076124,48.7400746],[2.0764531,48.7397098],[2.0770506,48.7397644],[2.0776061,48.7398639],[2.0801838,48.7394986],[2.0809804,48.7389422],[2.081455,48.7388896],[2.0815617,48.7389033],[2.0818438,48.7391739],[2.0819718,48.7392288],[2.0835315,48.7395147],[2.083681,48.7400761],[2.0854284,48.7403957],[2.0855851,48.7405935],[2.0856575,48.7407737],[2.0856446,48.7409773],[2.0855678,48.7411625],[2.0866709,48.7412322],[2.0816756,48.7454788],[2.0811193,48.7457708],[2.077271,48.7471473],[2.0780249,48.7478321],[2.0775237,48.7480483],[2.0776758,48.7482013],[2.0774544,48.7482935],[2.0779075,48.7487439],[2.0787043,48.748404],[2.0786972,48.7486065],[2.0781241,48.7508645],[2.0783419,48.7521191],[2.0786372,48.7533149],[2.078641,48.7535483],[2.0785038,48.7539536],[2.0785353,48.7539787],[2.07796,48.7539831],[2.0768302,48.7543272],[2.0738101,48.7553347],[2.0732757,48.7554691],[2.0713983,48.7558505],[2.0675764,48.750874],[2.0714046,48.749306],[2.0699065,48.7479843],[2.0695867,48.747568],[2.0668731,48.7480563],[2.066071,48.7485124],[2.0654531,48.7489735],[2.0649482,48.7492184],[2.0629031,48.7500787],[2.061052,48.7511081],[2.0609493,48.7513701],[2.0607621,48.7511349],[2.0608255,48.7511555],[2.0621228,48.7503547],[2.0608164,48.7497236],[2.0602196,48.75],[2.0595539,48.7498506],[2.0591307,48.7494141],[2.0586924,48.7495984],[2.0593703,48.7502938],[2.060045,48.7511414],[2.05941,48.7513979],[2.0581548,48.7515635],[2.0577401,48.751705],[2.0575927,48.7517767],[2.0577092,48.7519257],[2.0577478,48.7521494],[2.0557605,48.7523083],[2.054032,48.7525106],[2.0508444,48.7522195],[2.0507613,48.7522591],[2.0504496,48.750901],[2.0504776,48.7508384],[2.0505687,48.7507866],[2.0515604,48.7506519],[2.0516181,48.7505921],[2.0509235,48.7498252],[2.0508461,48.7497742],[2.0500734,48.7495464],[2.0492792,48.74897],[2.0491424,48.748801],[2.0490798,48.7486275],[2.0491061,48.7485466],[2.0505758,48.7478402],[2.0508729,48.7476424],[2.0509659,48.7472864],[2.0510151,48.7466331],[2.0509243,48.7464806],[2.0511593,48.746347],[2.051782,48.7468405],[2.0521098,48.7468998],[2.0534034,48.7464715],[2.0533544,48.7463565],[2.0525833,48.7456311],[2.0550019,48.7447837],[2.0548992,48.7443841],[2.0549519,48.7443057],[2.0559304,48.744231],[2.0566341,48.7439663],[2.0571332,48.7438369],[2.0579081,48.7447545],[2.0593147,48.7443995],[2.0586646,48.7435206],[2.0587536,48.743505],[2.0579955,48.7424916],[2.0585485,48.7425255],[2.0585351,48.742164],[2.0587191,48.7422885],[2.0589421,48.7422138],[2.0589222,48.7417795],[2.0593038,48.7417942],[2.0592018,48.7422536],[2.0596707,48.74217],[2.0606019,48.7421134],[2.0610014,48.7427578],[2.0609751,48.7428131],[2.0612798,48.7434399],[2.0619937,48.7432044],[2.0630061,48.7429811],[2.0632844,48.7428871],[2.0624188,48.7420593],[2.062772,48.7415509],[2.0629997,48.7413011],[2.0651681,48.7400863],[2.0651755,48.7402351],[2.0655376,48.7406374],[2.0657444,48.7404971]]]]},"properties":{"code_section":"783560000C","code_commune":"78356","section_courte":"C"}},{"type":"Feature","geometry":{"type":"MultiPolygon","coordinates":[[[[2.0701006,48.7354504],[2.0695539,48.7355179],[2.0689822,48.7346931],[2.0684132,48.7347962],[2.0681932,48.7344825],[2.0681057,48.7344973],[2.0679712,48.7345883],[2.0679716,48.7349609],[2.0678468,48.7347764],[2.0674837,48.7348981],[2.0669303,48.7352388],[2.066416,48.7347232],[2.0669107,48.7346043],[2.0663034,48.7336245],[2.0666677,48.7334712],[2.0671716,48.7333715],[2.0679537,48.7333102],[2.0679888,48.7331351],[2.0684558,48.7339088],[2.0693547,48.7337205],[2.0695994,48.7341903],[2.0698189,48.7341667],[2.069835,48.7342234],[2.0706653,48.7341122],[2.0707914,48.7341356],[2.0711848,48.7344431],[2.071146,48.7349411],[2.0710967,48.7350585],[2.0705792,48.7353723],[2.0701006,48.7354504]]],[[[2.0510193,48.7352315],[2.049515,48.7339566],[2.0492652,48.7338469],[2.0491019,48.733854],[2.0485835,48.7337565],[2.0479394,48.7337712],[2.045962,48.733588],[2.0450365,48.7330528],[2.0452391,48.7328239],[2.0453091,48.7328249],[2.0456691,48.7324092],[2.0467838,48.7310087],[2.0469023,48.7314241],[2.0477127,48.7313032],[2.0490338,48.7318655],[2.0527407,48.7319558],[2.0529808,48.7320611],[2.0531143,48.7320789],[2.0536554,48.7320047],[2.053769,48.7320171],[2.0544788,48.7324273],[2.0560444,48.7329276],[2.0582189,48.732631],[2.0580819,48.7319355],[2.0581004,48.7318803],[2.0582023,48.7318254],[2.0595119,48.7316679],[2.0603505,48.7317133],[2.06163,48.7309663],[2.0622963,48.7313315],[2.0620437,48.7316265],[2.061352,48.7321438],[2.0606537,48.7325831],[2.0603598,48.7328607],[2.0592644,48.7332739],[2.0588624,48.7334896],[2.057077,48.733978],[2.0560973,48.7341424],[2.0553422,48.7343647],[2.0548421,48.7345625],[2.0533833,48.7350388],[2.0531009,48.7350721],[2.0527918,48.7350279],[2.0525537,48.7349936],[2.0520528,48.7348472],[2.0510193,48.7352315]]],[[[2.0733689,48.7312248],[2.0730808,48.7315068],[2.0725089,48.7323099],[2.0702139,48.7302037],[2.0708889,48.7297447],[2.0718574,48.7293229],[2.070716,48.7278997],[2.0721898,48.7274616],[2.0706578,48.7253921],[2.0705921,48.7253943],[2.0704836,48.7252348],[2.0718822,48.7246215],[2.0719004,48.7246484],[2.0727302,48.7242955],[2.0726438,48.7242203],[2.0730559,48.7239768],[2.0736269,48.7237651],[2.0747815,48.7251419],[2.0778937,48.7286445],[2.0781535,48.7290295],[2.0782104,48.7290669],[2.0785185,48.7291418],[2.078884,48.7291789],[2.0791923,48.7291769],[2.0792118,48.7292763],[2.0797451,48.7297247],[2.0764985,48.731979],[2.0749133,48.7304784],[2.0739275,48.7308534],[2.0733689,48.7312248]]]]},"properties":{"code_section":"783560000D","code_commune":"78356","section_courte":"D"}},{"type":"Feature","geometry":{"type":"MultiPolygon","coordinates":[[[[2.0710736,48.7283457],[2.0718574,48.7293229],[2.0708889,48.7297447],[2.0702139,48.7302037],[2.0725089,48.7323099],[2.0730808,48.7315068],[2.0735364,48.7310966],[2.0739275,48.7308534],[2.0749133,48.7304784],[2.0764985,48.731979],[2.0797451,48.7297247],[2.0815889,48.7315165],[2.0823224,48.732378],[2.0830288,48.7328559],[2.0845063,48.7336721],[2.0865906,48.7343909],[2.0863653,48.7345922],[2.0861658,48.7346638],[2.0858474,48.7348736],[2.0857263,48.7348979],[2.0855587,48.7349944],[2.0854808,48.7351531],[2.085305,48.7352115],[2.0852654,48.7352652],[2.0851599,48.7353051],[2.0851204,48.7354108],[2.0850377,48.7354831],[2.0847296,48.7357294],[2.0845839,48.7357849],[2.0845645,48.7358768],[2.0844766,48.7359036],[2.084343,48.7358674],[2.0842744,48.7358854],[2.0842568,48.7359373],[2.084372,48.7360109],[2.0842504,48.7360707],[2.0842223,48.736211],[2.0843691,48.7362234],[2.0844352,48.7363951],[2.0842811,48.7364322],[2.0842374,48.7365293],[2.0842824,48.7367388],[2.0843942,48.7368227],[2.0843345,48.7370015],[2.0844405,48.7370382],[2.0844009,48.7371018],[2.0844717,48.7371844],[2.0843277,48.7373083],[2.0842168,48.737308],[2.0840135,48.737374],[2.0840665,48.7374676],[2.0840429,48.7375498],[2.0837946,48.7377599],[2.0836293,48.7378031],[2.0823333,48.7383445],[2.082158,48.7386212],[2.0817784,48.7390839],[2.0817459,48.7390902],[2.0815617,48.7389033],[2.081455,48.7388896],[2.0809804,48.7389422],[2.0801838,48.7394986],[2.0776061,48.7398639],[2.0770506,48.7397644],[2.0762365,48.7396767],[2.0756616,48.7396878],[2.0746787,48.7398213],[2.0701043,48.7354641],[2.0705792,48.7353723],[2.0710967,48.7350585],[2.071146,48.7349411],[2.0711848,48.7344431],[2.0707914,48.7341356],[2.0706653,48.7341122],[2.069835,48.7342234],[2.0698189,48.7341667],[2.0695994,48.7341903],[2.0693547,48.7337205],[2.0684558,48.7339088],[2.0679888,48.7331351],[2.0681266,48.732541],[2.0678866,48.731989],[2.067675,48.7316493],[2.0664956,48.730019],[2.0650275,48.7285863],[2.0659984,48.7278663],[2.0664736,48.7275934],[2.0682605,48.7268781],[2.0692022,48.7263344],[2.0700438,48.7257953],[2.0705921,48.7253943],[2.0706578,48.7253921],[2.0721898,48.7274616],[2.070716,48.7278997],[2.0710736,48.7283457]]]]},"properties":{"code_section":"783560000V","code_commune":"78356","section_courte":"V"}},{"type":"Feature","geometry":{"type":"MultiPolygon","coordinates":[[[[2.0646393,48.7282834],[2.0650275,48.7285863],[2.0664956,48.730019],[2.067675,48.7316493],[2.0680772,48.7323733],[2.0681266,48.732541],[2.0681089,48.732703],[2.0679537,48.7333102],[2.0671716,48.7333715],[2.0666677,48.7334712],[2.0663034,48.7336245],[2.0669107,48.7346043],[2.066416,48.7347232],[2.0669303,48.7352388],[2.0674837,48.7348981],[2.0678468,48.7347764],[2.0679716,48.7349609],[2.0679712,48.7345883],[2.0681057,48.7344973],[2.0681932,48.7344825],[2.0684132,48.7347962],[2.0689822,48.7346931],[2.0695539,48.7355179],[2.0701006,48.7354504],[2.0746787,48.7398213],[2.0756616,48.7396878],[2.0762365,48.7396767],[2.0764531,48.7397098],[2.076124,48.7400746],[2.0760217,48.7401074],[2.0745501,48.7402634],[2.0742857,48.7403153],[2.0741174,48.7404056],[2.0739596,48.7405545],[2.0737476,48.7409473],[2.0735964,48.7411422],[2.0734487,48.7412328],[2.0728346,48.7408474],[2.0726038,48.7403069],[2.071718,48.7404842],[2.0719641,48.7410418],[2.0710835,48.7410767],[2.0710793,48.7409637],[2.0707239,48.7406203],[2.0700283,48.7408059],[2.069659,48.7408608],[2.0687972,48.7409061],[2.0682244,48.7408523],[2.0677405,48.7406934],[2.067538,48.7405731],[2.06723,48.7405257],[2.0669578,48.7404365],[2.0664236,48.7403236],[2.0659878,48.7403315],[2.0655376,48.7406374],[2.0651755,48.7402351],[2.0651681,48.7400863],[2.0629997,48.7413011],[2.062772,48.7415509],[2.0624188,48.7420593],[2.0632844,48.7428871],[2.0630061,48.7429811],[2.0619937,48.7432044],[2.0612798,48.7434399],[2.0609751,48.7428131],[2.0610014,48.7427578],[2.0606019,48.7421134],[2.0596707,48.74217],[2.0592018,48.7422536],[2.0593038,48.7417942],[2.0589222,48.7417795],[2.0589421,48.7422138],[2.0587191,48.7422885],[2.0574803,48.7413637],[2.0569034,48.7407226],[2.05584,48.7391561],[2.0554132,48.7388082],[2.0544401,48.7381352],[2.053658,48.7373429],[2.0526463,48.7364963],[2.052497,48.7364125],[2.0510193,48.7352315],[2.0520528,48.7348472],[2.0525537,48.7349936],[2.0527918,48.7350279],[2.0531009,48.7350721],[2.0533833,48.7350388],[2.0548421,48.7345625],[2.0553422,48.7343647],[2.0560973,48.7341424],[2.057077,48.733978],[2.0588624,48.7334896],[2.0592644,48.7332739],[2.0603598,48.7328607],[2.0606537,48.7325831],[2.061352,48.7321438],[2.0620437,48.7316265],[2.0622963,48.7313315],[2.06163,48.7309663],[2.0616099,48.7308803],[2.0617398,48.730667],[2.0617686,48.7304954],[2.06176,48.7302209],[2.0615943,48.7295157],[2.0620008,48.7293425],[2.0615867,48.7290331],[2.0616128,48.7289427],[2.0618648,48.7288918],[2.0627025,48.7288399],[2.0632067,48.7285706],[2.0632267,48.7285037],[2.0640206,48.727983],[2.0646393,48.7282834]]]]},"properties":{"code_section":"783560000W","code_commune":"78356","section_courte":"W"}},{"type":"Feature","geometry":{"type":"MultiPolygon","coordinates":[[[[2.0521955,48.7468714],[2.0521098,48.7468998],[2.051782,48.7468405],[2.0511593,48.746347],[2.0509243,48.7464806],[2.0486968,48.7448894],[2.0468843,48.7441813],[2.0451823,48.7434327],[2.0448927,48.7433533],[2.0445739,48.7431976],[2.044371,48.7430285],[2.0428688,48.7412422],[2.0426712,48.7409475],[2.0425755,48.7405919],[2.0425991,48.7404278],[2.042957,48.739932],[2.0430845,48.7395945],[2.0433216,48.7383705],[2.043578,48.7373544],[2.0438163,48.7360348],[2.0441225,48.7351461],[2.0449398,48.7331672],[2.0450365,48.7330528],[2.045962,48.733588],[2.0479394,48.7337712],[2.0485835,48.7337565],[2.0491019,48.733854],[2.0492652,48.7338469],[2.049515,48.7339566],[2.0510193,48.7352315],[2.052497,48.7364125],[2.0526463,48.7364963],[2.053658,48.7373429],[2.0544401,48.7381352],[2.0554132,48.7388082],[2.05584,48.7391561],[2.0569034,48.7407226],[2.0573283,48.7412193],[2.0585351,48.742164],[2.0585485,48.7425255],[2.0579955,48.7424916],[2.0587536,48.743505],[2.0586646,48.7435206],[2.0593147,48.7443995],[2.0579081,48.7447545],[2.0571332,48.7438369],[2.0566341,48.7439663],[2.0559304,48.744231],[2.0549519,48.7443057],[2.0548992,48.7443841],[2.0550019,48.7447837],[2.0525833,48.7456311],[2.0533544,48.7463565],[2.0534034,48.7464715],[2.0521955,48.7468714]]]]},"properties":{"code_section":"783560000X","code_commune":"78356","section_courte":"X"}},{"type":"Feature","geometry":{"type":"MultiPolygon","coordinates":[[[[2.0294402,48.742093],[2.0290968,48.7423124],[2.0286655,48.7420798],[2.0276104,48.7412707],[2.0274183,48.7409757],[2.0273056,48.7406504],[2.0273203,48.7401125],[2.0272854,48.7399493],[2.0271405,48.7396445],[2.0270153,48.7394811],[2.0267307,48.7392237],[2.0259562,48.7388602],[2.0246657,48.7384417],[2.025446,48.7378388],[2.0262901,48.7382692],[2.027801,48.7366503],[2.0280829,48.7367837],[2.0294062,48.7353639],[2.0321992,48.7338157],[2.034943,48.7319989],[2.0358035,48.7314814],[2.0362457,48.7313017],[2.0365503,48.7312325],[2.0371786,48.7311743],[2.0375544,48.7311701],[2.0383814,48.7312307],[2.0391029,48.7313472],[2.0398485,48.7312801],[2.0403138,48.7313321],[2.041444,48.7316013],[2.0421451,48.731812],[2.0452391,48.7328239],[2.0449398,48.7331672],[2.0441225,48.7351461],[2.0438163,48.7360348],[2.043578,48.7373544],[2.0433216,48.7383705],[2.0430845,48.7395945],[2.042957,48.739932],[2.0425991,48.7404278],[2.0395982,48.7406261],[2.0388607,48.7407476],[2.0384411,48.7408766],[2.0373273,48.7400745],[2.0377204,48.7398362],[2.0374279,48.7395822],[2.037904,48.7391134],[2.0389341,48.7394265],[2.0394751,48.7389079],[2.0384392,48.7383489],[2.0373295,48.7379081],[2.0367689,48.7384306],[2.0364096,48.73806],[2.0357845,48.7377103],[2.0349254,48.7371077],[2.0335063,48.7379825],[2.0356926,48.7392414],[2.035912,48.7391514],[2.0359428,48.7391744],[2.0356612,48.7392847],[2.0351201,48.7389728],[2.0330466,48.7402077],[2.0334863,48.7405602],[2.0329917,48.7406816],[2.030527,48.7414382],[2.0294402,48.742093]]]]},"properties":{"code_section":"783560000Y","code_commune":"78356","section_courte":"Y"}},{"type":"Feature","geometry":{"type":"MultiPolygon","coordinates":[[[[2.0445739,48.7431976],[2.0448927,48.7433533],[2.0451823,48.7434327],[2.047077,48.7442603],[2.0486005,48.7448442],[2.0490357,48.7451123],[2.0488764,48.7451212],[2.0486106,48.7453492],[2.0484982,48.7455368],[2.0480336,48.7458125],[2.0477581,48.7458538],[2.0461927,48.7457177],[2.0461841,48.7456451],[2.0417521,48.745819],[2.0418769,48.7462032],[2.0420375,48.7465031],[2.0423356,48.7469005],[2.0426,48.7470075],[2.0427925,48.747125],[2.0428755,48.7472214],[2.0428746,48.7473732],[2.0426737,48.7477235],[2.042585,48.7478193],[2.0421563,48.7481174],[2.042026,48.7482874],[2.0419786,48.7484213],[2.0419289,48.7484138],[2.0416543,48.7487309],[2.0411503,48.7496482],[2.0403162,48.7509104],[2.0398035,48.7525344],[2.0397762,48.7525521],[2.0395035,48.7523891],[2.0382206,48.7534164],[2.0375748,48.7537902],[2.037519,48.7538536],[2.0253103,48.7476159],[2.0276033,48.7458943],[2.0292844,48.7449396],[2.0295094,48.7449355],[2.0301816,48.7452922],[2.0335207,48.7435365],[2.0351322,48.7427404],[2.0363298,48.7422048],[2.0369715,48.7417972],[2.0377636,48.7411813],[2.0382582,48.7409483],[2.0388607,48.7407476],[2.0395982,48.7406261],[2.0425991,48.7404278],[2.0426057,48.7407474],[2.0427299,48.7410524],[2.044371,48.7430285],[2.0445739,48.7431976]]]]},"properties":{"code_section":"783560000Z","code_commune":"78356","section_courte":"Z"}},{"type":"Feature","geometry":{"type":"MultiPolygon","coordinates":[[[[2.0686289,48.7566568],[2.0684362,48.7567051],[2.0659172,48.7534308],[2.0646167,48.7538685],[2.0636737,48.752436],[2.0652523,48.7519688],[2.067634,48.7509699],[2.0714624,48.7559343],[2.0686289,48.7566568]]]]},"properties":{"code_section":"78356000AH","code_commune":"78356","section_courte":"AH"}},{"type":"Feature","geometry":{"type":"MultiPolygon","coordinates":[[[[2.0612209,48.7509115],[2.0608255,48.7511555],[2.0607621,48.7511349],[2.0606017,48.7509453],[2.0603224,48.7510165],[2.060045,48.7511414],[2.0593703,48.7502938],[2.0586924,48.7495984],[2.0591307,48.7494141],[2.0595539,48.7498506],[2.0602196,48.75],[2.0608164,48.7497236],[2.0621228,48.7503547],[2.0612209,48.7509115]]],[[[2.0675967,48.7479268],[2.0695867,48.747568],[2.0699065,48.7479843],[2.0714046,48.749306],[2.0675764,48.750874],[2.067634,48.7509699],[2.0652523,48.7519688],[2.0636737,48.752436],[2.0636496,48.7523821],[2.0620757,48.7528095],[2.0609493,48.7513701],[2.061052,48.7511081],[2.0629031,48.7500787],[2.0649482,48.7492184],[2.0654531,48.7489735],[2.066071,48.7485124],[2.0668731,48.7480563],[2.0675967,48.7479268]]]]},"properties":{"code_section":"78356000AI","code_commune":"78356","section_courte":"AI"}},{"type":"Feature","geometry":{"type":"MultiPolygon","coordinates":[[[[2.0814066,48.731335],[2.0800213,48.7299629],[2.0799987,48.7299781],[2.0792118,48.7292763],[2.0791923,48.7291769],[2.0797686,48.7290482],[2.0797451,48.7290152],[2.0809874,48.7284396],[2.0812125,48.728284],[2.0816762,48.7270478],[2.0822035,48.7267617],[2.0821292,48.72696],[2.0821987,48.7270362],[2.0825547,48.7270948],[2.0826371,48.727062],[2.0829806,48.726146],[2.0836051,48.7257875],[2.0835607,48.7259014],[2.084481,48.7253903],[2.0873748,48.7279661],[2.0867624,48.7281747],[2.0856284,48.7280719],[2.0844584,48.7282058],[2.0812427,48.7301817],[2.0821924,48.7311848],[2.0819021,48.731273],[2.0815889,48.7315165],[2.0814066,48.731335]]]]},"properties":{"code_section":"78356000AK","code_commune":"78356","section_courte":"AK"}},{"type":"Feature","geometry":{"type":"MultiPolygon","coordinates":[[[[2.0914688,48.724183],[2.093949,48.7246099],[2.0943631,48.7247735],[2.0939826,48.7251017],[2.093821,48.72533],[2.0933819,48.7258063],[2.0931169,48.7259964],[2.0940618,48.7265632],[2.0934806,48.7269422],[2.0933826,48.7269751],[2.0931807,48.7271648],[2.0929124,48.7272725],[2.0923297,48.727322],[2.0922621,48.7272364],[2.0915691,48.72747],[2.0909878,48.7275303],[2.0905053,48.7275277],[2.0897311,48.727619],[2.0897877,48.727827],[2.0897559,48.727889],[2.0891866,48.7280926],[2.0885131,48.7281509],[2.0877859,48.728358],[2.0876218,48.7282076],[2.0872594,48.7282251],[2.0867624,48.7281747],[2.0873748,48.7279661],[2.084481,48.7253903],[2.0858942,48.7248542],[2.0875,48.7241519],[2.088474,48.7237977],[2.0896411,48.7232014],[2.0901417,48.723665],[2.0905002,48.723918],[2.09084,48.7240559],[2.0914688,48.724183]]]]},"properties":{"code_section":"78356000AL","code_commune":"78356","section_courte":"AL"}},{"type":"Feature","geometry":{"type":"MultiPolygon","coordinates":[[[[2.0916199,48.7241676],[2.0918433,48.7235838],[2.0919139,48.723531],[2.099681,48.7200344],[2.1020399,48.7223281],[2.1020796,48.7223101],[2.1021132,48.7223402],[2.10293,48.7231325],[2.1011824,48.7236188],[2.0994395,48.7242431],[2.098617,48.7244125],[2.0980347,48.7244889],[2.0975566,48.7244826],[2.0963674,48.7243434],[2.0960207,48.7242493],[2.0958234,48.7243142],[2.0956114,48.7243199],[2.0953413,48.7243872],[2.0943631,48.7247735],[2.093949,48.7246099],[2.09176,48.7242389],[2.0916066,48.7242029],[2.0916199,48.7241676]]]]},"properties":{"code_section":"78356000AM","code_commune":"78356","section_courte":"AM"}},{"type":"Feature","geometry":{"type":"MultiPolygon","coordinates":[[[[2.1029179,48.7231208],[2.1021132,48.7223402],[2.1020796,48.7223101],[2.1020399,48.7223281],[2.099681,48.7200344],[2.1021373,48.7189273],[2.1032203,48.7199776],[2.1042181,48.7195177],[2.1046112,48.7192717],[2.104884,48.7188626],[2.1049453,48.7185586],[2.1050586,48.7185155],[2.1055428,48.7184511],[2.1056384,48.7184845],[2.1057498,48.7184693],[2.1057601,48.718504],[2.1061201,48.7184569],[2.1062496,48.7188844],[2.1060713,48.7193626],[2.1055372,48.7196956],[2.1051186,48.720085],[2.1050294,48.7204296],[2.1050279,48.7205944],[2.1051691,48.7207876],[2.1051622,48.7209449],[2.1044121,48.7218969],[2.1044652,48.7220979],[2.1043839,48.7223469],[2.1041277,48.7226946],[2.1039288,48.7228445],[2.1037044,48.7229313],[2.1029179,48.7231208]]]]},"properties":{"code_section":"78356000AN","code_commune":"78356","section_courte":"AN"}},{"type":"Feature","geometry":{"type":"MultiPolygon","coordinates":[[[[2.0999107,48.7199291],[2.099681,48.7200344],[2.0971719,48.71759],[2.0972386,48.7175291],[2.0965931,48.7171552],[2.0991182,48.7157885],[2.1000954,48.715366],[2.1005249,48.7152283],[2.1013398,48.7150294],[2.1034024,48.7146861],[2.1036304,48.7147008],[2.1037186,48.7147432],[2.1037838,48.7148251],[2.103803,48.7151529],[2.1038763,48.7151542],[2.1038739,48.7154571],[2.1041107,48.7157519],[2.1055288,48.7165582],[2.1061201,48.7184569],[2.1057601,48.718504],[2.1057498,48.7184693],[2.1056384,48.7184845],[2.1055428,48.7184511],[2.1050586,48.7185155],[2.1049453,48.7185586],[2.104884,48.7188626],[2.1046112,48.7192717],[2.1042181,48.7195177],[2.1032203,48.7199776],[2.1021373,48.7189273],[2.0999107,48.7199291]]]]},"properties":{"code_section":"78356000AO","code_commune":"78356","section_courte":"AO"}},{"type":"Feature","geometry":{"type":"MultiPolygon","coordinates":[[[[2.090738,48.7212602],[2.0906122,48.7211199],[2.090349,48.7203958],[2.0907677,48.7197878],[2.0906463,48.7196938],[2.0904841,48.7194124],[2.0955865,48.7175954],[2.0965931,48.7171552],[2.0972386,48.7175291],[2.0971719,48.71759],[2.099681,48.7200344],[2.0934672,48.7228363],[2.092093,48.721498],[2.0918886,48.7215986],[2.0914466,48.7218975],[2.090738,48.7212602]]]]},"properties":{"code_section":"78356000AP","code_commune":"78356","section_courte":"AP"}},{"type":"Feature","geometry":{"type":"MultiPolygon","coordinates":[[[[2.0916199,48.7241676],[2.0916066,48.7242029],[2.0910143,48.7241004],[2.0905961,48.7239658],[2.0902648,48.7237668],[2.0896411,48.7232014],[2.0887274,48.7236889],[2.0875959,48.7241177],[2.0867667,48.7236549],[2.0847984,48.7222614],[2.083248,48.7212454],[2.0853737,48.7207833],[2.0859907,48.7204685],[2.0866009,48.7202748],[2.0880983,48.7199035],[2.0885304,48.7198508],[2.0900873,48.7195223],[2.0904841,48.7194124],[2.0906463,48.7196938],[2.0907677,48.7197878],[2.0903464,48.7203728],[2.0906122,48.7211199],[2.0914466,48.7218975],[2.0918886,48.7215986],[2.092093,48.721498],[2.0934672,48.7228363],[2.0919139,48.723531],[2.0918433,48.7235838],[2.0916199,48.7241676]]]]},"properties":{"code_section":"78356000AR","code_commune":"78356","section_courte":"AR"}},{"type":"Feature","geometry":{"type":"MultiPolygon","coordinates":[[[[2.0768231,48.7241472],[2.076741,48.7240518],[2.0773382,48.7236951],[2.0800368,48.7222027],[2.0800698,48.7222298],[2.0827109,48.7208168],[2.083248,48.7212454],[2.0847984,48.7222614],[2.0867667,48.7236549],[2.0875959,48.7241177],[2.0858942,48.7248542],[2.0847002,48.725292],[2.0841709,48.7255508],[2.0835607,48.7259014],[2.0838842,48.7250429],[2.0825123,48.7248177],[2.0822472,48.7255248],[2.0761466,48.7245233],[2.0768231,48.7241472]]]]},"properties":{"code_section":"78356000AS","code_commune":"78356","section_courte":"AS"}},{"type":"Feature","geometry":{"type":"MultiPolygon","coordinates":[[[[2.0795909,48.7224418],[2.0795535,48.7224617],[2.0753962,48.7190647],[2.0753359,48.7190556],[2.0754627,48.7186873],[2.0757157,48.7187145],[2.0758783,48.7186676],[2.0783372,48.7173622],[2.0795121,48.7182034],[2.0827109,48.7208168],[2.0800698,48.7222298],[2.0800368,48.7222027],[2.0795909,48.7224418]]]]},"properties":{"code_section":"78356000AT","code_commune":"78356","section_courte":"AT"}},{"type":"Feature","geometry":{"type":"MultiPolygon","coordinates":[[[[2.0751107,48.7190218],[2.0725613,48.7186386],[2.0727086,48.7183111],[2.0727168,48.7180395],[2.0725737,48.7177922],[2.0724001,48.717636],[2.0723501,48.7174242],[2.0728671,48.7161061],[2.0728863,48.7159205],[2.0728105,48.7153524],[2.0729743,48.7148431],[2.0732003,48.71376],[2.0741177,48.7143755],[2.0750809,48.7148078],[2.0756618,48.7151194],[2.0769095,48.7163501],[2.0783372,48.7173622],[2.0758783,48.7186676],[2.0757157,48.7187145],[2.0754627,48.7186873],[2.0753359,48.7190556],[2.0751107,48.7190218]]]]},"properties":{"code_section":"78356000AV","code_commune":"78356","section_courte":"AV"}},{"type":"Feature","geometry":{"type":"MultiPolygon","coordinates":[[[[2.0736269,48.7237651],[2.0730559,48.7239768],[2.0726839,48.7237599],[2.0724356,48.7235374],[2.0718044,48.7227143],[2.0713479,48.7210938],[2.0713668,48.7208352],[2.0719886,48.7198462],[2.0725613,48.7186386],[2.0753962,48.7190647],[2.0795535,48.7224617],[2.076741,48.7240518],[2.0768231,48.7241472],[2.0761466,48.7245233],[2.0759937,48.7244981],[2.0747815,48.7251419],[2.0736269,48.7237651]]]]},"properties":{"code_section":"78356000AW","code_commune":"78356","section_courte":"AW"}},{"type":"Feature","geometry":{"type":"MultiPolygon","coordinates":[[[[2.0812125,48.728284],[2.0809874,48.7284396],[2.0797451,48.7290152],[2.0797686,48.7290482],[2.0795326,48.729117],[2.0791923,48.7291769],[2.078884,48.7291789],[2.0785185,48.7291418],[2.0781868,48.7290563],[2.0780487,48.7289121],[2.0778937,48.7286445],[2.0747815,48.7251419],[2.0759937,48.7244981],[2.0822472,48.7255248],[2.0825123,48.7248177],[2.0838842,48.7250429],[2.0836051,48.7257875],[2.0829806,48.726146],[2.0826371,48.727062],[2.0825547,48.7270948],[2.0821987,48.7270362],[2.0821292,48.72696],[2.0822035,48.7267617],[2.0816762,48.7270478],[2.0812125,48.728284]]]]},"properties":{"code_section":"78356000AX","code_commune":"78356","section_courte":"AX"}},{"type":"Feature","geometry":{"type":"MultiPolygon","coordinates":[[[[2.0866484,48.7433042],[2.0867321,48.7434949],[2.0871521,48.7440794],[2.0866626,48.7442873],[2.0880464,48.7454579],[2.0855141,48.746554],[2.0859676,48.7471277],[2.0865104,48.7475236],[2.084859,48.7488213],[2.0828669,48.7499309],[2.0829064,48.7499499],[2.0828592,48.7499894],[2.0829192,48.7500172],[2.081164,48.7511635],[2.0801889,48.7519873],[2.0787714,48.7534489],[2.0786421,48.7534848],[2.0786372,48.7533149],[2.0782784,48.7518051],[2.0781241,48.7508645],[2.0786972,48.7486065],[2.0787043,48.748404],[2.0779075,48.7487439],[2.0774544,48.7482935],[2.0776758,48.7482013],[2.0775237,48.7480483],[2.0780249,48.7478321],[2.077271,48.7471473],[2.0811193,48.7457708],[2.0816756,48.7454788],[2.0866709,48.7412322],[2.0869613,48.740909],[2.0870076,48.7409524],[2.0868843,48.7413546],[2.0866222,48.742785],[2.0866001,48.7430585],[2.0866484,48.7433042]]]]},"properties":{"code_section":"78356000ZA","code_commune":"78356","section_courte":"ZA"}}]}