{"type":"FeatureCollection","features":[{"type":"Feature","geometry":{"type":"MultiPolygon","coordinates":[[[[1.6801615,48.9734999],[1.6810882,48.9740294],[1.6828793,48.9748888],[1.6838581,48.9754665],[1.6841531,48.9756996],[1.6851476,48.9767398],[1.6856156,48.9772955],[1.6858228,48.9779881],[1.6859571,48.97862],[1.6844072,48.9785882],[1.6835127,48.9786705],[1.6817728,48.9782875],[1.6805098,48.978281],[1.6797159,48.9781812],[1.6784006,48.9773299],[1.6770948,48.9769629],[1.6756146,48.9760564],[1.6751046,48.9757782],[1.6744851,48.9754865],[1.6726114,48.9747895],[1.6725753,48.9747242],[1.6725263,48.9747171],[1.672741,48.9744799],[1.6732379,48.974041],[1.6736948,48.9734846],[1.6751621,48.9720916],[1.6755018,48.9721523],[1.6755271,48.9721129],[1.6760134,48.9722047],[1.675975,48.9722644],[1.6762388,48.9723324],[1.676752,48.9725444],[1.6770388,48.9724674],[1.6798896,48.9733792],[1.6801615,48.9734999]]]]},"properties":{"code_section":"783540000A","code_commune":"78354","section_courte":"A"}},{"type":"Feature","geometry":{"type":"MultiPolygon","coordinates":[[[[1.6714141,48.9750806],[1.6713652,48.9750864],[1.6711542,48.9747826],[1.670465,48.9740362],[1.6694163,48.9733872],[1.6692608,48.9732017],[1.6677456,48.9708301],[1.6677889,48.9707989],[1.6668378,48.9706402],[1.6671302,48.9706541],[1.6751621,48.9720916],[1.6736948,48.9734846],[1.6732379,48.974041],[1.672741,48.9744799],[1.6725263,48.9747171],[1.6722708,48.9746773],[1.6714141,48.9750806]]]]},"properties":{"code_section":"783540000D","code_commune":"78354","section_courte":"D"}},{"type":"Feature","geometry":{"type":"MultiPolygon","coordinates":[[[[1.688992,48.9787307],[1.6859571,48.97862],[1.6858228,48.9779881],[1.6856156,48.9772955],[1.6848867,48.9764697],[1.6857299,48.9761362],[1.6859715,48.9760696],[1.687014,48.9759889],[1.6879562,48.9757969],[1.6883891,48.9758004],[1.6894043,48.9759746],[1.6899449,48.9759888],[1.6902226,48.9759587],[1.690907,48.9757931],[1.6922356,48.9752141],[1.6926493,48.9756586],[1.6931174,48.9764526],[1.6933187,48.9772588],[1.6934392,48.978292],[1.6935011,48.9784426],[1.6937438,48.9787764],[1.688992,48.9787307]]]]},"properties":{"code_section":"78354000AA","code_commune":"78354","section_courte":"AA"}},{"type":"Feature","geometry":{"type":"MultiPolygon","coordinates":[[[[1.6971056,48.9790044],[1.695573,48.9788896],[1.6938264,48.9788362],[1.693571,48.978553],[1.6934392,48.978292],[1.6933187,48.9772588],[1.6948883,48.9772572],[1.6954983,48.977209],[1.6961608,48.9771095],[1.6972616,48.9768255],[1.6983921,48.9764353],[1.6983413,48.9763447],[1.698526,48.9763009],[1.6987411,48.9767467],[1.6993262,48.9776568],[1.7000644,48.979327],[1.6993378,48.979322],[1.6971056,48.9790044]]]]},"properties":{"code_section":"78354000AB","code_commune":"78354","section_courte":"AB"}},{"type":"Feature","geometry":{"type":"MultiPolygon","coordinates":[[[[1.698351,48.9763619],[1.6983921,48.9764353],[1.6972616,48.9768255],[1.6967552,48.9769727],[1.6958686,48.9771628],[1.6948883,48.9772572],[1.6933187,48.9772588],[1.6932366,48.9768233],[1.6930346,48.9762818],[1.6926493,48.9756586],[1.6922356,48.9752141],[1.6933367,48.9747431],[1.6947765,48.9739937],[1.6963256,48.973245],[1.6959591,48.9728651],[1.6984894,48.9722191],[1.6988693,48.9722986],[1.6989398,48.9723855],[1.7002632,48.9733542],[1.7004603,48.9735627],[1.7005532,48.9737809],[1.7004786,48.9739701],[1.7003766,48.9740597],[1.6997936,48.9743057],[1.6994208,48.9743223],[1.6981583,48.9742406],[1.6976171,48.9743036],[1.6981437,48.9757949],[1.6982246,48.9758245],[1.6983125,48.9759153],[1.698526,48.9763009],[1.6983413,48.9763447],[1.698351,48.9763619]]]]},"properties":{"code_section":"78354000AC","code_commune":"78354","section_courte":"AC"}},{"type":"Feature","geometry":{"type":"MultiPolygon","coordinates":[[[[1.6984402,48.9716358],[1.6988693,48.9722986],[1.6984894,48.9722191],[1.6959591,48.9728651],[1.6963256,48.973245],[1.6947765,48.9739937],[1.6933367,48.9747431],[1.6922356,48.9752141],[1.6914121,48.9746658],[1.6877944,48.9726711],[1.6898807,48.9721491],[1.6912163,48.9728814],[1.6915836,48.9725995],[1.6920472,48.9723905],[1.6925744,48.9722551],[1.6928484,48.9721466],[1.6938265,48.971852],[1.6941348,48.9715945],[1.6953452,48.9712393],[1.6952503,48.9710805],[1.6979427,48.9718553],[1.6984402,48.9716358]]]]},"properties":{"code_section":"78354000AD","code_commune":"78354","section_courte":"AD"}},{"type":"Feature","geometry":{"type":"MultiPolygon","coordinates":[[[[1.6883686,48.9737366],[1.688392,48.9736545],[1.6902167,48.9740042],[1.6914121,48.9746658],[1.6922356,48.9752141],[1.690907,48.9757931],[1.6902226,48.9759587],[1.6899449,48.9759888],[1.6894043,48.9759746],[1.6883891,48.9758004],[1.6879562,48.9757969],[1.687014,48.9759889],[1.6859715,48.9760696],[1.6857299,48.9761362],[1.6848867,48.9764697],[1.6841531,48.9756996],[1.6838581,48.9754665],[1.6828793,48.9748888],[1.6816297,48.9742896],[1.6817742,48.9741276],[1.6819012,48.974051],[1.682053,48.974023],[1.6825444,48.9741115],[1.6828738,48.9742284],[1.6832483,48.9744204],[1.6856493,48.974062],[1.6878482,48.9740029],[1.6882872,48.9740227],[1.6883686,48.9737366]]]]},"properties":{"code_section":"78354000AE","code_commune":"78354","section_courte":"AE"}},{"type":"Feature","geometry":{"type":"MultiPolygon","coordinates":[[[[1.6880188,48.9740053],[1.6856493,48.974062],[1.6832483,48.9744204],[1.6828738,48.9742284],[1.6825444,48.9741115],[1.682053,48.974023],[1.6819012,48.974051],[1.6817742,48.9741276],[1.6816297,48.9742896],[1.6810882,48.9740294],[1.6801615,48.9734999],[1.6798896,48.9733792],[1.6805608,48.9727885],[1.6826375,48.9712515],[1.683955,48.9706147],[1.6852542,48.970255],[1.6861402,48.9698101],[1.6864581,48.969544],[1.6866922,48.9694496],[1.6867977,48.9694478],[1.6875502,48.9697319],[1.6877833,48.9697034],[1.6882668,48.9697038],[1.6888602,48.9697885],[1.6893346,48.9699252],[1.6899499,48.970181],[1.6905018,48.9707631],[1.6912898,48.9719433],[1.6918206,48.9724811],[1.6915836,48.9725995],[1.6912163,48.9728814],[1.6898807,48.9721491],[1.6877944,48.9726711],[1.6902167,48.9740042],[1.688392,48.9736545],[1.6882872,48.9740227],[1.6880188,48.9740053]]]]},"properties":{"code_section":"78354000AH","code_commune":"78354","section_courte":"AH"}},{"type":"Feature","geometry":{"type":"MultiPolygon","coordinates":[[[[1.6979132,48.9718483],[1.6952503,48.9710805],[1.6953452,48.9712393],[1.6941348,48.9715945],[1.6938265,48.971852],[1.6918206,48.9724811],[1.6912898,48.9719433],[1.6905018,48.9707631],[1.6899499,48.970181],[1.6901581,48.9701594],[1.6922088,48.9696482],[1.6916545,48.9692236],[1.6920432,48.9689744],[1.6924372,48.9692823],[1.6930654,48.9689982],[1.6929574,48.9688848],[1.6929306,48.9687966],[1.6929727,48.968605],[1.693043,48.9684996],[1.6943775,48.9678655],[1.6944665,48.9677723],[1.6945432,48.9674965],[1.6944315,48.9672949],[1.6955012,48.9667893],[1.6955965,48.9669136],[1.6959203,48.9676096],[1.6966773,48.968567],[1.6984404,48.9716357],[1.6979132,48.9718483]]]]},"properties":{"code_section":"78354000AI","code_commune":"78354","section_courte":"AI"}},{"type":"Feature","geometry":{"type":"MultiPolygon","coordinates":[[[[1.6901581,48.9701594],[1.6899499,48.970181],[1.6890813,48.9698424],[1.6885682,48.9697354],[1.6879724,48.9696972],[1.6875502,48.9697319],[1.6868883,48.9694616],[1.6866922,48.9694496],[1.6864581,48.969544],[1.6861402,48.9698101],[1.6852542,48.970255],[1.6851406,48.9701446],[1.6836619,48.9678217],[1.6832707,48.9674907],[1.6827962,48.9672388],[1.6830094,48.9671201],[1.6832722,48.9670378],[1.6844513,48.9664986],[1.6853907,48.9661955],[1.6865325,48.9658709],[1.6907837,48.9647258],[1.6931012,48.9638988],[1.6933824,48.9645609],[1.6934674,48.9646785],[1.6942278,48.9652729],[1.6952075,48.9663851],[1.6955012,48.9667893],[1.6944315,48.9672949],[1.6945432,48.9674965],[1.6944665,48.9677723],[1.6943775,48.9678655],[1.693043,48.9684996],[1.6929727,48.968605],[1.6929306,48.9687966],[1.6929574,48.9688848],[1.6930654,48.9689982],[1.6924372,48.9692823],[1.6920432,48.9689744],[1.6916545,48.9692236],[1.6922088,48.9696482],[1.6901581,48.9701594]]]]},"properties":{"code_section":"78354000AK","code_commune":"78354","section_courte":"AK"}},{"type":"Feature","geometry":{"type":"MultiPolygon","coordinates":[[[[1.6866873,48.9654048],[1.6870117,48.9657456],[1.6853907,48.9661955],[1.6844513,48.9664986],[1.6832722,48.9670378],[1.6830094,48.9671201],[1.6827962,48.9672388],[1.6816596,48.9669056],[1.6799816,48.9665443],[1.6797467,48.9664325],[1.678696,48.965021],[1.6784985,48.9646265],[1.6784551,48.9642123],[1.6785915,48.9633654],[1.6786306,48.9626017],[1.6785046,48.9615718],[1.6781968,48.9607146],[1.6795908,48.9609618],[1.680144,48.961117],[1.6805514,48.9612715],[1.682214,48.9600884],[1.6837689,48.9624958],[1.6866873,48.9654048]]]]},"properties":{"code_section":"78354000AL","code_commune":"78354","section_courte":"AL"}},{"type":"Feature","geometry":{"type":"MultiPolygon","coordinates":[[[[1.681476,48.9680386],[1.6813747,48.9681085],[1.680695,48.9676741],[1.6805258,48.9677289],[1.6803225,48.9674663],[1.680199,48.9675093],[1.6801319,48.9674256],[1.6787249,48.9677484],[1.6773554,48.9653946],[1.6767047,48.9641901],[1.6764882,48.9640696],[1.6786306,48.9626017],[1.6785915,48.9633654],[1.6784551,48.9642123],[1.6784985,48.9646265],[1.6785935,48.9648724],[1.6796693,48.966363],[1.6797467,48.9664325],[1.6799816,48.9665443],[1.6821263,48.9670281],[1.6827962,48.9672388],[1.6831063,48.9674033],[1.6822984,48.9680245],[1.682173,48.9680593],[1.6817763,48.9678325],[1.681476,48.9680386]]]]},"properties":{"code_section":"78354000AM","code_commune":"78354","section_courte":"AM"}},{"type":"Feature","geometry":{"type":"MultiPolygon","coordinates":[[[[1.6767047,48.9641901],[1.6773554,48.9653946],[1.6787249,48.9677484],[1.6801319,48.9674256],[1.680199,48.9675093],[1.6803225,48.9674663],[1.6805258,48.9677289],[1.680695,48.9676741],[1.6813747,48.9681085],[1.6817763,48.9678325],[1.682173,48.9680593],[1.6822984,48.9680245],[1.6831063,48.9674033],[1.683401,48.9675835],[1.6837393,48.9679216],[1.6849119,48.9697942],[1.6851406,48.9701446],[1.6852542,48.970255],[1.683955,48.9706147],[1.6826375,48.9712515],[1.6805608,48.9727885],[1.6798896,48.9733792],[1.6770388,48.9724674],[1.676752,48.9725444],[1.6762388,48.9723324],[1.675975,48.9722644],[1.6760134,48.9722047],[1.6755271,48.9721129],[1.6755018,48.9721523],[1.6671302,48.9706541],[1.6667793,48.9706305],[1.666655,48.9706925],[1.6669259,48.9705008],[1.6669879,48.9705319],[1.6758359,48.9644352],[1.6764882,48.9640696],[1.6767047,48.9641901]]]]},"properties":{"code_section":"78354000AN","code_commune":"78354","section_courte":"AN"}},{"type":"Feature","geometry":{"type":"MultiPolygon","coordinates":[[[[1.682214,48.9600884],[1.6820061,48.9598152],[1.6820329,48.9597468],[1.6839793,48.9588416],[1.6856883,48.958147],[1.6916525,48.9577288],[1.6979803,48.957657],[1.6994285,48.957918],[1.6996597,48.9601392],[1.6999454,48.9606239],[1.701783,48.9624881],[1.7024228,48.9634619],[1.7024885,48.9636441],[1.7006725,48.9640436],[1.7006125,48.9638956],[1.6973506,48.9646836],[1.697181,48.9644749],[1.6942278,48.9652729],[1.6934674,48.9646785],[1.6933824,48.9645609],[1.6931012,48.9638988],[1.6907837,48.9647258],[1.6870117,48.9657456],[1.6861676,48.9648621],[1.6837689,48.9624958],[1.682214,48.9600884]]]]},"properties":{"code_section":"78354000ZC","code_commune":"78354","section_courte":"ZC"}},{"type":"Feature","geometry":{"type":"MultiPolygon","coordinates":[[[[1.6783746,48.9611699],[1.6785046,48.9615718],[1.6786306,48.9626017],[1.6764303,48.96411],[1.6758359,48.9644352],[1.6739315,48.9657296],[1.6669879,48.9705319],[1.6669259,48.9705008],[1.666655,48.9706925],[1.6666883,48.9706939],[1.6666463,48.9711648],[1.6661649,48.9706015],[1.6658937,48.9701904],[1.6659115,48.9701443],[1.6670838,48.9687478],[1.6706372,48.966396],[1.6721269,48.9653666],[1.6734165,48.9641048],[1.6737422,48.9633347],[1.6740754,48.9626747],[1.674452,48.9614633],[1.6754184,48.9618613],[1.6769119,48.9605327],[1.6775444,48.9606882],[1.6782514,48.9607913],[1.6783746,48.9611699]]]]},"properties":{"code_section":"78354000ZE","code_commune":"78354","section_courte":"ZE"}}]}