{"type":"FeatureCollection","features":[{"type":"Feature","geometry":{"type":"MultiPolygon","coordinates":[[[[1.6961368,48.9861091],[1.6962796,48.9859748],[1.6963863,48.9859293],[1.6968152,48.9855387],[1.6988697,48.9846472],[1.6999171,48.9837403],[1.7007415,48.9839771],[1.702974,48.9829945],[1.7037995,48.9823575],[1.7046385,48.9813299],[1.7050677,48.9809074],[1.7063455,48.9821873],[1.7084361,48.9845599],[1.7083422,48.9847181],[1.7096746,48.9861072],[1.7099983,48.9860174],[1.7101384,48.9861164],[1.7075168,48.9876049],[1.7061592,48.9883296],[1.7034745,48.9895138],[1.7018459,48.9893243],[1.7006103,48.9877226],[1.6974477,48.9859997],[1.6958778,48.9873799],[1.6956776,48.98701],[1.6957252,48.9869938],[1.6952861,48.9865328],[1.6961368,48.9861091]]]]},"properties":{"code_section":"78362000AB","code_commune":"78362","section_courte":"AB"}},{"type":"Feature","geometry":{"type":"MultiPolygon","coordinates":[[[[1.7158755,48.9833331],[1.714331,48.9839604],[1.7129967,48.9845456],[1.7124125,48.9848403],[1.7101384,48.9861164],[1.7099983,48.9860174],[1.7096746,48.9861072],[1.7083422,48.9847181],[1.7084361,48.9845599],[1.7063455,48.9821873],[1.7057819,48.9816026],[1.708701,48.9805085],[1.7119531,48.9797592],[1.7120797,48.9799026],[1.7125372,48.9799639],[1.7143001,48.9779602],[1.7154063,48.9800834],[1.715675,48.980715],[1.7162723,48.9824166],[1.7164183,48.9831276],[1.7158755,48.9833331]]]]},"properties":{"code_section":"78362000AC","code_commune":"78362","section_courte":"AC"}},{"type":"Feature","geometry":{"type":"MultiPolygon","coordinates":[[[[1.7212934,48.9784788],[1.7214363,48.978424],[1.7215584,48.9784258],[1.7218435,48.9785369],[1.7222644,48.9787797],[1.7228405,48.9791821],[1.7231041,48.9794289],[1.7232525,48.9796233],[1.7236901,48.9803259],[1.723437,48.9804177],[1.7233026,48.9803491],[1.723162,48.980356],[1.722091,48.980736],[1.7205709,48.9814035],[1.7207131,48.9817162],[1.7208737,48.9819039],[1.7209539,48.9821212],[1.7190906,48.9824318],[1.7184573,48.9825736],[1.7164183,48.9831276],[1.716278,48.9824384],[1.7160775,48.9818042],[1.7154063,48.9800834],[1.7138101,48.9770467],[1.7134015,48.97659],[1.715001,48.9762168],[1.7179209,48.9756512],[1.7190704,48.9761505],[1.7193989,48.9764508],[1.7206207,48.9771301],[1.7211663,48.9784092],[1.7213275,48.9784059],[1.7212645,48.9785091],[1.7212934,48.9784788]]]]},"properties":{"code_section":"78362000AD","code_commune":"78362","section_courte":"AD"}},{"type":"Feature","geometry":{"type":"MultiPolygon","coordinates":[[[[1.7291851,48.9800918],[1.7296325,48.9804795],[1.7291759,48.9810336],[1.7284711,48.9821468],[1.7282117,48.9827408],[1.7279186,48.9835972],[1.7271733,48.9848274],[1.7259944,48.9845066],[1.7259788,48.9841847],[1.7248219,48.9846209],[1.7248098,48.9845133],[1.7246682,48.9845244],[1.7245118,48.984284],[1.7242357,48.984061],[1.7229101,48.9835349],[1.7220985,48.9829533],[1.7214911,48.9823573],[1.72106,48.9822715],[1.7209778,48.9821986],[1.7208737,48.9819039],[1.7207131,48.9817162],[1.7205709,48.9814035],[1.722091,48.980736],[1.723162,48.980356],[1.7233026,48.9803491],[1.723437,48.9804177],[1.7236901,48.9803259],[1.7231041,48.9794289],[1.7227265,48.9790953],[1.7218435,48.9785369],[1.7215026,48.978422],[1.721344,48.9784499],[1.7212645,48.9785091],[1.7213275,48.9784059],[1.7211663,48.9784092],[1.7206207,48.9771301],[1.723349,48.9777473],[1.7248553,48.9780331],[1.7254379,48.9780818],[1.7272383,48.978108],[1.7274009,48.9782026],[1.7279374,48.9788007],[1.7279095,48.9788137],[1.7279767,48.9789323],[1.7291851,48.9800918]]]]},"properties":{"code_section":"78362000AE","code_commune":"78362","section_courte":"AE"}},{"type":"Feature","geometry":{"type":"MultiPolygon","coordinates":[[[[1.7339816,48.9749556],[1.7343806,48.9749356],[1.7339524,48.9755261],[1.7328521,48.9778027],[1.7299067,48.9801058],[1.7296325,48.9804795],[1.7291471,48.980067],[1.7279767,48.9789323],[1.7279095,48.9788137],[1.7279374,48.9788007],[1.7274009,48.9782026],[1.7272383,48.978108],[1.7254379,48.9780818],[1.7248762,48.9780359],[1.723349,48.9777473],[1.7206207,48.9771301],[1.7193989,48.9764508],[1.721565,48.9760715],[1.7214232,48.97552],[1.7230778,48.9751902],[1.7237929,48.9749334],[1.7245771,48.9744826],[1.7263054,48.9737409],[1.7277656,48.9728897],[1.7284331,48.9723582],[1.7290132,48.9725336],[1.7303818,48.9730875],[1.730795,48.9730479],[1.7310582,48.9730753],[1.7313594,48.9725496],[1.7316961,48.9724508],[1.731795,48.9727901],[1.7317719,48.9731836],[1.7318522,48.9736815],[1.7334876,48.9737116],[1.7337301,48.9747612],[1.7338527,48.9746458],[1.7339816,48.9749556]]]]},"properties":{"code_section":"78362000AH","code_commune":"78362","section_courte":"AH"}},{"type":"Feature","geometry":{"type":"MultiPolygon","coordinates":[[[[1.731458,48.9723463],[1.7310582,48.9730753],[1.730795,48.9730479],[1.7303818,48.9730875],[1.7290132,48.9725336],[1.7284331,48.9723582],[1.7285854,48.9721642],[1.7286498,48.9719748],[1.7286193,48.9718153],[1.7284805,48.971725],[1.7280358,48.9716458],[1.7272774,48.97138],[1.7271605,48.9714574],[1.7265944,48.9716005],[1.7263824,48.9713097],[1.7263395,48.9711267],[1.7261274,48.9708648],[1.7259255,48.9705305],[1.7254282,48.9699183],[1.7252875,48.9695173],[1.7248689,48.9689687],[1.7245924,48.9677891],[1.7244096,48.967506],[1.7241686,48.9672974],[1.7239362,48.9669967],[1.7239446,48.966591],[1.7240896,48.9662447],[1.7240922,48.9661535],[1.7240682,48.9659842],[1.7237055,48.965082],[1.725244,48.9650461],[1.7264651,48.965114],[1.7263338,48.9652321],[1.7263625,48.9661628],[1.7272545,48.9661573],[1.727255,48.96621],[1.7282793,48.9662669],[1.7292473,48.9663712],[1.7304058,48.9664327],[1.7303501,48.9667609],[1.730772,48.9667945],[1.7300916,48.9684786],[1.73003,48.9688694],[1.7300442,48.9690382],[1.7303498,48.9693898],[1.7308977,48.9704138],[1.7311281,48.9713513],[1.731458,48.9723463]]]]},"properties":{"code_section":"78362000AI","code_commune":"78362","section_courte":"AI"}},{"type":"Feature","geometry":{"type":"MultiPolygon","coordinates":[[[[1.7194893,48.963867],[1.7225248,48.963061],[1.7225384,48.9630873],[1.7235996,48.9629709],[1.7235781,48.9645203],[1.7237055,48.965082],[1.7240682,48.9659842],[1.7240922,48.9661535],[1.7240896,48.9662447],[1.7239446,48.966591],[1.7239362,48.9669967],[1.7241686,48.9672974],[1.7244096,48.967506],[1.7245924,48.9677891],[1.7248084,48.9687441],[1.7246461,48.9688417],[1.7238533,48.9690575],[1.7231323,48.9693071],[1.7224109,48.9694793],[1.72132,48.9694982],[1.7213204,48.9695175],[1.7210929,48.9695256],[1.7202354,48.9694686],[1.7192047,48.9694749],[1.7187103,48.9695098],[1.7184251,48.9698752],[1.7181687,48.9700227],[1.7172589,48.9695423],[1.7169412,48.9695754],[1.7171225,48.9668983],[1.7173509,48.9646305],[1.7169003,48.9625355],[1.7181479,48.9624292],[1.7181447,48.9625007],[1.7184887,48.9625222],[1.7184925,48.962486],[1.7185558,48.9624897],[1.7185516,48.9625972],[1.7189601,48.9625996],[1.7191726,48.962083],[1.7191468,48.9617335],[1.7192389,48.9614113],[1.7195667,48.962021],[1.719692,48.9623905],[1.7196542,48.963053],[1.7194893,48.963867]]]]},"properties":{"code_section":"78362000AK","code_commune":"78362","section_courte":"AK"}},{"type":"Feature","geometry":{"type":"MultiPolygon","coordinates":[[[[1.720181,48.9700685],[1.7207793,48.9695091],[1.7212285,48.9695225],[1.7213204,48.9695175],[1.7213201,48.9694982],[1.7225248,48.9694629],[1.7229846,48.9693518],[1.7238533,48.9690575],[1.7246461,48.9688417],[1.7248084,48.9687441],[1.7248689,48.9689687],[1.7252875,48.9695173],[1.7254282,48.9699183],[1.7259255,48.9705305],[1.7261274,48.9708648],[1.7263395,48.9711267],[1.7263824,48.9713097],[1.7265944,48.9716005],[1.7271605,48.9714574],[1.7272774,48.97138],[1.7280358,48.9716458],[1.7284805,48.971725],[1.7286193,48.9718153],[1.7286498,48.9719748],[1.7285854,48.9721642],[1.7284331,48.9723582],[1.7277656,48.9728897],[1.7263054,48.9737409],[1.7245771,48.9744826],[1.7237929,48.9749334],[1.7233798,48.975098],[1.7230778,48.9751902],[1.7214232,48.97552],[1.721565,48.9760715],[1.7193989,48.9764508],[1.7190704,48.9761505],[1.7179209,48.9756512],[1.7176845,48.9750334],[1.7174544,48.9746065],[1.7175767,48.9746099],[1.717607,48.974188],[1.7179382,48.9736823],[1.7178522,48.9734329],[1.7181602,48.9731049],[1.7181621,48.9729182],[1.7182042,48.972904],[1.7183828,48.9725588],[1.7183937,48.9723532],[1.7185413,48.972266],[1.7187777,48.9718353],[1.7188258,48.9718346],[1.7189502,48.9716207],[1.7189643,48.9714541],[1.7190774,48.9714034],[1.7191206,48.9712481],[1.7191865,48.9712166],[1.719442,48.9707697],[1.7194925,48.9707435],[1.7194879,48.970553],[1.7195606,48.9704686],[1.720181,48.9700685]]]]},"properties":{"code_section":"78362000AL","code_commune":"78362","section_courte":"AL"}},{"type":"Feature","geometry":{"type":"MultiPolygon","coordinates":[[[[1.7187103,48.9695098],[1.7192047,48.9694749],[1.7202354,48.9694686],[1.7207793,48.9695091],[1.7201466,48.9701153],[1.7195606,48.9704686],[1.7194879,48.970553],[1.7194925,48.9707435],[1.719442,48.9707697],[1.7191865,48.9712166],[1.7191206,48.9712481],[1.7190774,48.9714034],[1.7189643,48.9714541],[1.7189502,48.9716207],[1.7188258,48.9718346],[1.7187777,48.9718353],[1.7185413,48.972266],[1.7183833,48.9723724],[1.7183828,48.9725588],[1.7182042,48.972904],[1.7181621,48.9729182],[1.7181602,48.9731049],[1.7178522,48.9734329],[1.7179382,48.9736823],[1.717607,48.974188],[1.7175767,48.9746099],[1.7174544,48.9746065],[1.7176845,48.9750334],[1.7179209,48.9756512],[1.715001,48.9762168],[1.7147533,48.9758378],[1.7144832,48.9755817],[1.7143948,48.9752515],[1.7148256,48.9751168],[1.7149274,48.9749062],[1.7149129,48.9746473],[1.7147188,48.9739986],[1.7146053,48.9731532],[1.7146343,48.9723465],[1.7134119,48.9724245],[1.7134037,48.9722038],[1.7136174,48.9712553],[1.7135092,48.9703066],[1.7145652,48.9701282],[1.714517,48.9698898],[1.7150431,48.9697855],[1.7171208,48.9695434],[1.7172589,48.9695423],[1.7181687,48.9700227],[1.7184251,48.9698752],[1.7187103,48.9695098]]]]},"properties":{"code_section":"78362000AM","code_commune":"78362","section_courte":"AM"}},{"type":"Feature","geometry":{"type":"MultiPolygon","coordinates":[[[[1.7104549,48.9624498],[1.7106154,48.9624627],[1.7110611,48.9623137],[1.7114936,48.9622214],[1.711571,48.9625049],[1.7129787,48.9623422],[1.7130866,48.9625717],[1.7140881,48.9623855],[1.7140764,48.9623547],[1.7167414,48.9618959],[1.7173509,48.9646305],[1.7171225,48.9668983],[1.7169412,48.9695754],[1.7150431,48.9697855],[1.714517,48.9698898],[1.7145652,48.9701282],[1.7135092,48.9703066],[1.7135287,48.9700426],[1.7133426,48.9698216],[1.7133008,48.9696858],[1.7135063,48.9689445],[1.7134827,48.9687963],[1.7133958,48.9686647],[1.7132542,48.9685942],[1.7129896,48.9685358],[1.7125623,48.9683715],[1.7125466,48.9683912],[1.7124711,48.968378],[1.7122152,48.9682144],[1.7121867,48.9682357],[1.7122646,48.9682893],[1.7118302,48.968522],[1.711649,48.9683372],[1.7110052,48.9679661],[1.7099295,48.9672753],[1.7093602,48.9668583],[1.7089074,48.9662988],[1.7087279,48.9658871],[1.7086489,48.9651012],[1.7087676,48.9631312],[1.708741,48.9626696],[1.7083558,48.9616381],[1.7083253,48.9610889],[1.7102456,48.9609848],[1.7101596,48.9617507],[1.7100073,48.9622178],[1.710214,48.9625513],[1.7102692,48.9625515],[1.7104549,48.9624498]]]]},"properties":{"code_section":"78362000AN","code_commune":"78362","section_courte":"AN"}},{"type":"Feature","geometry":{"type":"MultiPolygon","coordinates":[[[[1.7074246,48.963285],[1.7070705,48.9626305],[1.7066304,48.9616797],[1.7063974,48.9610684],[1.70831,48.9609376],[1.7083558,48.9616381],[1.708741,48.9626696],[1.7087676,48.9631312],[1.7086489,48.9651012],[1.7087279,48.9658871],[1.7089074,48.9662988],[1.7093602,48.9668583],[1.7099295,48.9672753],[1.7108625,48.9678767],[1.7108089,48.9679135],[1.7094726,48.9683133],[1.7094252,48.9682981],[1.7083446,48.96862],[1.7085477,48.9689017],[1.7087216,48.9692906],[1.7087398,48.9694816],[1.7085129,48.9694834],[1.7083115,48.9706874],[1.7077397,48.9706642],[1.7069979,48.9707152],[1.7061923,48.9698678],[1.7054904,48.9688029],[1.7039423,48.9668588],[1.7035583,48.9660609],[1.702876,48.9649767],[1.7027504,48.964728],[1.7026869,48.9644764],[1.7046409,48.9641244],[1.7049174,48.9644992],[1.7050968,48.9649352],[1.7071404,48.9646274],[1.7070963,48.9644349],[1.7073676,48.9643811],[1.7070567,48.9636941],[1.7075743,48.9635313],[1.7074246,48.963285]]]]},"properties":{"code_section":"78362000AO","code_commune":"78362","section_courte":"AO"}},{"type":"Feature","geometry":{"type":"MultiPolygon","coordinates":[[[[1.7070704,48.9707873],[1.7074445,48.9713557],[1.7076341,48.9717308],[1.7075425,48.9717625],[1.7061374,48.9721214],[1.7058358,48.9717446],[1.7055434,48.9716107],[1.7039485,48.9723349],[1.7032475,48.972527],[1.7032199,48.9724182],[1.7031501,48.9723567],[1.702178,48.9721616],[1.7013554,48.9718395],[1.7012045,48.9719335],[1.7011664,48.9721129],[1.7006639,48.9719837],[1.7006147,48.9720829],[1.7006298,48.972383],[1.7001741,48.9723875],[1.6998371,48.9725945],[1.6999185,48.9726519],[1.6995897,48.9728579],[1.698885,48.9723527],[1.6987945,48.972252],[1.6967006,48.9685981],[1.6958778,48.9675345],[1.6956055,48.9669787],[1.6952282,48.9664189],[1.694225,48.9652717],[1.6972324,48.9644519],[1.6974312,48.9646828],[1.7005976,48.9639003],[1.7006686,48.9640683],[1.7024971,48.9636754],[1.7027504,48.964728],[1.7035583,48.9660609],[1.7039423,48.9668588],[1.7054904,48.9688029],[1.7061923,48.9698678],[1.7070704,48.9707873]]]]},"properties":{"code_section":"78362000AP","code_commune":"78362","section_courte":"AP"}},{"type":"Feature","geometry":{"type":"MultiPolygon","coordinates":[[[[1.711649,48.9683372],[1.7118302,48.968522],[1.7122646,48.9682893],[1.7121867,48.9682357],[1.7122152,48.9682144],[1.7124711,48.968378],[1.7125466,48.9683912],[1.7125623,48.9683715],[1.7129896,48.9685358],[1.7132542,48.9685942],[1.7134397,48.9687059],[1.7134955,48.9688451],[1.7134953,48.9690411],[1.7134093,48.9692239],[1.7133008,48.9696858],[1.7133426,48.9698216],[1.7135364,48.9700735],[1.7135092,48.9703066],[1.7136205,48.9711775],[1.7134037,48.9722038],[1.7134119,48.9724245],[1.7146343,48.9723465],[1.7146053,48.9731532],[1.7147188,48.9739986],[1.7149129,48.9746473],[1.7149274,48.9749062],[1.7148256,48.9751168],[1.7143948,48.9752515],[1.7144832,48.9755817],[1.7147533,48.9758378],[1.715001,48.9762168],[1.7134015,48.97659],[1.7132383,48.9764117],[1.7129408,48.9759619],[1.7122912,48.9762649],[1.7116013,48.9764102],[1.7103544,48.9764707],[1.709571,48.9764069],[1.7094158,48.9753556],[1.7080882,48.9745888],[1.7063898,48.9734895],[1.7062058,48.9721937],[1.7061374,48.9721214],[1.7076341,48.9717308],[1.7072613,48.9710569],[1.7069979,48.9707152],[1.7077397,48.9706642],[1.7083115,48.9706874],[1.7085129,48.9694834],[1.7087398,48.9694816],[1.7087216,48.9692906],[1.7085477,48.9689017],[1.7083446,48.96862],[1.7094252,48.9682981],[1.7094726,48.9683133],[1.7108089,48.9679135],[1.7108625,48.9678767],[1.711649,48.9683372]]]]},"properties":{"code_section":"78362000AR","code_commune":"78362","section_courte":"AR"}},{"type":"Feature","geometry":{"type":"MultiPolygon","coordinates":[[[[1.7094158,48.9753556],[1.709346,48.9754072],[1.709489,48.9763525],[1.709571,48.9764069],[1.70811,48.9762887],[1.70765,48.9763104],[1.7065048,48.9766956],[1.7034838,48.9773706],[1.6997533,48.9786614],[1.6991954,48.9774461],[1.6988204,48.9768604],[1.6983471,48.9759887],[1.6982507,48.9758602],[1.6981383,48.9757834],[1.6976193,48.9743203],[1.6982127,48.9742488],[1.6995868,48.9743348],[1.6999732,48.974259],[1.7004743,48.9740042],[1.7005769,48.9737312],[1.7004309,48.9734787],[1.6995897,48.9728579],[1.6999185,48.9726519],[1.6998371,48.9725945],[1.7001741,48.9723875],[1.7006298,48.972383],[1.7006147,48.9720829],[1.7006639,48.9719837],[1.7011664,48.9721129],[1.7012045,48.9719335],[1.7013554,48.9718395],[1.702178,48.9721616],[1.7031501,48.9723567],[1.7032199,48.9724182],[1.7032598,48.9725267],[1.7039485,48.9723349],[1.7055434,48.9716107],[1.7058358,48.9717446],[1.7062058,48.9721937],[1.7063898,48.9734895],[1.7080882,48.9745888],[1.7094158,48.9753556]]]]},"properties":{"code_section":"78362000AS","code_commune":"78362","section_courte":"AS"}},{"type":"Feature","geometry":{"type":"MultiPolygon","coordinates":[[[[1.6997533,48.9786614],[1.7034838,48.9773706],[1.7065048,48.9766956],[1.70765,48.9763104],[1.70811,48.9762887],[1.7103544,48.9764707],[1.7115775,48.9764131],[1.7122912,48.9762649],[1.7129408,48.9759619],[1.7132383,48.9764117],[1.7138101,48.9770467],[1.7143001,48.9779602],[1.7125372,48.9799639],[1.7120797,48.9799026],[1.7119531,48.9797592],[1.708701,48.9805085],[1.7057819,48.9816026],[1.7050677,48.9809074],[1.7046385,48.9813299],[1.7037995,48.9823575],[1.7032118,48.9828339],[1.7022608,48.981866],[1.700968,48.9807601],[1.7000103,48.9793314],[1.7000841,48.9793253],[1.6997533,48.9786614]]]]},"properties":{"code_section":"78362000AT","code_commune":"78362","section_courte":"AT"}},{"type":"Feature","geometry":{"type":"MultiPolygon","coordinates":[[[[1.6911391,48.9817101],[1.6961061,48.9806525],[1.7003315,48.9798091],[1.7009789,48.9807721],[1.7022608,48.981866],[1.7032118,48.9828339],[1.702974,48.9829945],[1.7007415,48.9839771],[1.6999171,48.9837403],[1.6988697,48.9846472],[1.6968152,48.9855387],[1.6962985,48.9855779],[1.6948337,48.9842761],[1.6939447,48.9835701],[1.6935754,48.9834622],[1.6933856,48.983375],[1.6927252,48.9829134],[1.6923725,48.9830758],[1.6918088,48.9825361],[1.6911391,48.9817101]]]]},"properties":{"code_section":"78362000AV","code_commune":"78362","section_courte":"AV"}},{"type":"Feature","geometry":{"type":"MultiPolygon","coordinates":[[[[1.6939899,48.9788193],[1.6964957,48.9789314],[1.6992086,48.9793041],[1.7000103,48.9793314],[1.7003315,48.9798091],[1.6961061,48.9806525],[1.6911391,48.9817101],[1.6903852,48.9818434],[1.6896476,48.9807612],[1.6865544,48.9805494],[1.6859066,48.9786021],[1.6899252,48.9787433],[1.6933509,48.9787689],[1.6939899,48.9788193]]]]},"properties":{"code_section":"78362000AW","code_commune":"78362","section_courte":"AW"}}]}