{"type":"FeatureCollection","features":[{"type":"Feature","geometry":{"type":"MultiPolygon","coordinates":[[[[1.9215314,48.7786359],[1.9216001,48.7788507],[1.9215296,48.7790279],[1.9209527,48.7798363],[1.9202155,48.7807344],[1.9196938,48.7811588],[1.918773,48.7815671],[1.9182349,48.7807286],[1.9167704,48.7808602],[1.9166837,48.7810003],[1.9155614,48.780442],[1.9152875,48.7805516],[1.9146253,48.7802068],[1.9142246,48.7799538],[1.9139924,48.7798884],[1.9139525,48.779907],[1.9139461,48.7799751],[1.9138449,48.779891],[1.913543,48.7799114],[1.9139733,48.7794013],[1.9140311,48.779155],[1.9139713,48.7789872],[1.9130667,48.7778394],[1.9131409,48.7776691],[1.9128398,48.7769022],[1.912072,48.7765456],[1.9118358,48.7764056],[1.9116954,48.7762484],[1.9113318,48.7755336],[1.9098718,48.7755478],[1.9089773,48.7756333],[1.9082786,48.7741572],[1.9081494,48.7741805],[1.9082038,48.7743017],[1.9081299,48.7743162],[1.9076752,48.773323],[1.9070537,48.7734138],[1.9070628,48.7734484],[1.9064122,48.7738434],[1.9064897,48.774678],[1.9058963,48.7749265],[1.9047131,48.7752976],[1.9042866,48.7746852],[1.9036519,48.7748725],[1.903521,48.7747968],[1.9033737,48.7748458],[1.9033158,48.7748172],[1.9032499,48.7743541],[1.9033199,48.7742258],[1.9032407,48.7741108],[1.902786,48.7741201],[1.900167,48.7744529],[1.899318,48.7746268],[1.8991553,48.7747209],[1.8989287,48.774167],[1.8987789,48.7740191],[1.8990323,48.7734535],[1.8992764,48.773058],[1.8996368,48.772276],[1.9006503,48.7710752],[1.9007435,48.7708877],[1.900965,48.7701515],[1.9013377,48.7700174],[1.9000152,48.7696077],[1.9004726,48.7687366],[1.9012726,48.7679762],[1.9021035,48.7677091],[1.9042519,48.7666982],[1.9047949,48.7665254],[1.9045998,48.7667658],[1.904596,48.766938],[1.9044837,48.7673044],[1.9043489,48.7674895],[1.9042145,48.7677845],[1.9044808,48.7690031],[1.9044082,48.7699106],[1.9063209,48.7699735],[1.9073197,48.7698338],[1.90865,48.7697367],[1.9097513,48.7694293],[1.910933,48.7697481],[1.913004,48.7693512],[1.9137803,48.7697172],[1.9157655,48.7696135],[1.9157073,48.7698966],[1.917867,48.7699488],[1.9187381,48.7701158],[1.9190476,48.7701391],[1.9191167,48.7701768],[1.9188099,48.7708469],[1.9185478,48.7718629],[1.9190398,48.7718468],[1.9195746,48.7726579],[1.9194399,48.7727395],[1.9196386,48.7728724],[1.9192758,48.7729559],[1.9191094,48.7732036],[1.9191114,48.7733843],[1.9192263,48.7735665],[1.9194048,48.7736938],[1.9199945,48.7739925],[1.9200709,48.7739929],[1.9203476,48.7744969],[1.9204439,48.7748664],[1.9204628,48.7761189],[1.9207697,48.7769323],[1.9207893,48.7775373],[1.9208753,48.7777023],[1.9214077,48.7782311],[1.9215314,48.7786359]]]]},"properties":{"code_section":"783830000A","code_commune":"78383","section_courte":"A"}},{"type":"Feature","geometry":{"type":"MultiPolygon","coordinates":[[[[1.9370847,48.775455],[1.9373427,48.7751856],[1.9376669,48.7752861],[1.9385793,48.7767929],[1.93865,48.7771019],[1.9391375,48.7771187],[1.9392913,48.77715],[1.9388943,48.7777228],[1.938703,48.7781691],[1.9383222,48.7784799],[1.9367006,48.7795798],[1.9359924,48.779961],[1.9353473,48.7804726],[1.9351829,48.7805561],[1.9341883,48.7807834],[1.9340719,48.7808453],[1.9337476,48.7817826],[1.9337621,48.7820865],[1.9336574,48.7823863],[1.9326451,48.782938],[1.9318427,48.7830592],[1.931773,48.783102],[1.9305605,48.7830877],[1.9302402,48.7830354],[1.9293444,48.7826932],[1.9290566,48.7829322],[1.9285914,48.7827095],[1.9285583,48.7827267],[1.9280651,48.7825397],[1.927902,48.7823617],[1.9280427,48.7822013],[1.927351,48.7819255],[1.9259658,48.7816121],[1.9251871,48.781489],[1.9250011,48.7810214],[1.9248786,48.780869],[1.9243995,48.7806979],[1.9240169,48.7804627],[1.9234706,48.77991],[1.9225153,48.779552],[1.9224438,48.7791316],[1.9216001,48.7788507],[1.921434,48.7782728],[1.9208753,48.7777023],[1.9207893,48.7775373],[1.9207697,48.7769323],[1.9205526,48.776407],[1.920448,48.7760092],[1.92043,48.7747548],[1.9203476,48.7744969],[1.9200709,48.7739929],[1.9209076,48.7734485],[1.921221,48.7732901],[1.9236521,48.7723618],[1.9238011,48.7722786],[1.9241125,48.772228],[1.9246167,48.772027],[1.9249194,48.7718348],[1.9251996,48.7711801],[1.9253843,48.7710119],[1.9256395,48.7709432],[1.926201,48.7710326],[1.926387,48.7709951],[1.9270381,48.7703732],[1.9278086,48.7693885],[1.9279972,48.7692212],[1.9287975,48.7686589],[1.92953,48.7684347],[1.9297635,48.7684187],[1.9297617,48.7683362],[1.9295282,48.7679388],[1.9305026,48.7678177],[1.9307682,48.7678533],[1.9344234,48.767287],[1.9376667,48.7671645],[1.9377696,48.7672068],[1.938887,48.7672154],[1.9392943,48.767126],[1.9403629,48.7666425],[1.9407676,48.7665191],[1.9411552,48.7669002],[1.940387,48.7675715],[1.939948,48.7677147],[1.9393593,48.7684497],[1.9390834,48.7691446],[1.9388236,48.768885],[1.9384918,48.7690358],[1.9384255,48.7689672],[1.9378985,48.7690019],[1.9377559,48.7690639],[1.9377445,48.7692089],[1.9373377,48.769391],[1.9357553,48.769723],[1.9357835,48.7697904],[1.9350257,48.7699499],[1.9347943,48.7702345],[1.9348667,48.770392],[1.9349119,48.7704717],[1.9353359,48.7706159],[1.9357993,48.7705225],[1.9358257,48.7705683],[1.9362938,48.7704691],[1.9362816,48.770437],[1.9364627,48.7703971],[1.9364198,48.7703116],[1.936645,48.7702625],[1.9367072,48.7703981],[1.9372827,48.7703068],[1.936941,48.7707495],[1.9368446,48.7707276],[1.9367466,48.7707984],[1.9365992,48.770708],[1.9360897,48.7708115],[1.9359503,48.7709057],[1.9360087,48.7709466],[1.9358704,48.7710424],[1.9356357,48.770897],[1.9352024,48.7709874],[1.9350839,48.7710669],[1.935067,48.7713656],[1.9352094,48.7714599],[1.9351057,48.7715306],[1.9350874,48.7716812],[1.9348033,48.7716751],[1.9347763,48.7718645],[1.9345814,48.7718557],[1.9341154,48.7721882],[1.9340074,48.7725428],[1.9342304,48.7726621],[1.9344311,48.7726732],[1.9341932,48.7731773],[1.9340416,48.7731076],[1.9336392,48.7732211],[1.9331171,48.7736534],[1.933088,48.773847],[1.9334427,48.7739004],[1.9334493,48.7738693],[1.9335112,48.773871],[1.9335066,48.7739109],[1.9338368,48.7739625],[1.9342577,48.7742532],[1.9342785,48.7743278],[1.9340603,48.7746806],[1.93376,48.7746055],[1.9336032,48.774484],[1.9336502,48.7743937],[1.933616,48.7742531],[1.9333758,48.774203],[1.9329289,48.7743517],[1.9328454,48.7745605],[1.9324751,48.7747739],[1.9324881,48.7749034],[1.9326353,48.774962],[1.932763,48.7748914],[1.9328597,48.7749621],[1.9327677,48.7750158],[1.9339989,48.7755061],[1.9342302,48.7751942],[1.9345594,48.7750472],[1.9349015,48.774757],[1.9352668,48.7748615],[1.9354476,48.7745553],[1.9356753,48.7745237],[1.9356643,48.7744604],[1.935795,48.7744529],[1.9358055,48.7745051],[1.9362457,48.7744284],[1.9365505,48.7747338],[1.9361402,48.7746592],[1.9357307,48.7747532],[1.9356638,48.7748951],[1.9352957,48.775],[1.9350326,48.7751821],[1.9347746,48.7752265],[1.9344113,48.7753896],[1.934227,48.7756471],[1.9341357,48.7758973],[1.9341727,48.7759001],[1.9340386,48.7765149],[1.9344166,48.7765499],[1.9344242,48.7765175],[1.934555,48.7765303],[1.9345454,48.7765793],[1.93484,48.7766072],[1.934923,48.7763847],[1.9350095,48.7763391],[1.9354245,48.7764027],[1.9354367,48.7763439],[1.9355795,48.7763558],[1.9355742,48.7764122],[1.9359095,48.7764433],[1.9359714,48.7761782],[1.9358821,48.7761732],[1.9359107,48.7760314],[1.9357887,48.7756672],[1.9358077,48.7756132],[1.9359186,48.7756332],[1.9359005,48.7756771],[1.9362849,48.7757623],[1.9367241,48.7757852],[1.9367384,48.776194],[1.9363681,48.7761862],[1.9363551,48.7764176],[1.9355928,48.7767371],[1.9355646,48.776722],[1.935451,48.7768121],[1.935164,48.7771789],[1.9351291,48.7773751],[1.9354507,48.7773984],[1.9354586,48.7773587],[1.9355929,48.777368],[1.9355884,48.7774094],[1.9363751,48.7774833],[1.9363812,48.7774462],[1.9367763,48.7774927],[1.9369559,48.7774265],[1.9370301,48.7775107],[1.9372681,48.7774216],[1.9373704,48.7775409],[1.9377043,48.7774154],[1.9375149,48.7771887],[1.9376175,48.7771524],[1.9375011,48.7770079],[1.937628,48.7769622],[1.9376566,48.776996],[1.9379429,48.7768746],[1.9378104,48.7767279],[1.9378151,48.7764547],[1.9380349,48.7764603],[1.9380438,48.7762037],[1.9377491,48.7761942],[1.9377541,48.7760834],[1.9374928,48.776079],[1.9374914,48.7761668],[1.9368625,48.7761387],[1.936835,48.7757918],[1.936779,48.7756583],[1.93706,48.7756726],[1.9370847,48.775455]]]]},"properties":{"code_section":"783830000B","code_commune":"78383","section_courte":"B"}},{"type":"Feature","geometry":{"type":"MultiPolygon","coordinates":[[[[1.9183609,48.7576907],[1.9219106,48.7574573],[1.9292006,48.7567862],[1.9327941,48.760488],[1.930681,48.7610575],[1.9301709,48.7612306],[1.9254101,48.7625677],[1.9245525,48.7627438],[1.9220229,48.7631789],[1.9097862,48.7649518],[1.9085413,48.7652058],[1.9072401,48.7656244],[1.9072204,48.7655624],[1.9105067,48.7628144],[1.9113602,48.7619494],[1.913669,48.7599638],[1.9159821,48.7578592],[1.9183609,48.7576907]]]]},"properties":{"code_section":"783830000W","code_commune":"78383","section_courte":"W"}},{"type":"Feature","geometry":{"type":"MultiPolygon","coordinates":[[[[1.9439768,48.7707302],[1.9442469,48.7707244],[1.9439381,48.7711766],[1.9436976,48.7713781],[1.9428951,48.7717859],[1.9428735,48.7717597],[1.942646,48.771852],[1.9426984,48.7719118],[1.9426756,48.7719891],[1.9411868,48.7727233],[1.9415198,48.7730115],[1.9419902,48.7731343],[1.941903,48.7731732],[1.9421421,48.773267],[1.9417566,48.7734704],[1.9417837,48.7734889],[1.9416042,48.7735878],[1.9406366,48.7740883],[1.9405005,48.774203],[1.9404128,48.7743407],[1.9401995,48.7748758],[1.9399816,48.7748228],[1.9398507,48.7746699],[1.9393924,48.774769],[1.9393102,48.7749554],[1.9390743,48.7751109],[1.9391126,48.7752889],[1.9383336,48.7753597],[1.9378024,48.775314],[1.9375091,48.775243],[1.9371421,48.7751068],[1.9366988,48.7748517],[1.9362457,48.7744284],[1.9358055,48.7745051],[1.935795,48.7744529],[1.9356643,48.7744604],[1.9356753,48.7745237],[1.9354476,48.7745553],[1.9352668,48.7748615],[1.9349015,48.774757],[1.9345594,48.7750472],[1.9342302,48.7751942],[1.9339989,48.7755061],[1.9327677,48.7750158],[1.9328597,48.7749621],[1.932763,48.7748914],[1.9326353,48.774962],[1.9324881,48.7749034],[1.9324751,48.7747739],[1.9328454,48.7745605],[1.9329289,48.7743517],[1.9333758,48.774203],[1.933616,48.7742531],[1.9336502,48.7743937],[1.9336032,48.774484],[1.93376,48.7746055],[1.9340603,48.7746806],[1.9342785,48.7743278],[1.9342577,48.7742532],[1.9338368,48.7739625],[1.9335066,48.7739109],[1.9335112,48.773871],[1.9334493,48.7738693],[1.9334427,48.7739004],[1.933088,48.773847],[1.9331171,48.7736534],[1.9336392,48.7732211],[1.9340416,48.7731076],[1.9341932,48.7731773],[1.9344311,48.7726732],[1.9342304,48.7726621],[1.9340074,48.7725428],[1.9341154,48.7721882],[1.9345814,48.7718557],[1.9347763,48.7718645],[1.9348033,48.7716751],[1.9350874,48.7716812],[1.9351057,48.7715306],[1.9352094,48.7714599],[1.935067,48.7713656],[1.9350839,48.7710669],[1.9352024,48.7709874],[1.9356357,48.770897],[1.9358704,48.7710424],[1.9360087,48.7709466],[1.9359503,48.7709057],[1.9360897,48.7708115],[1.9365992,48.770708],[1.9367466,48.7707984],[1.9368446,48.7707276],[1.936941,48.7707495],[1.9370611,48.7705546],[1.9377553,48.7698063],[1.9381337,48.769579],[1.938444,48.7695098],[1.9389504,48.7694792],[1.9389519,48.7695792],[1.9383417,48.7696899],[1.9381262,48.7697746],[1.9377635,48.7701038],[1.93779,48.7701672],[1.9380396,48.770271],[1.9385946,48.77042],[1.9386728,48.7704],[1.9387074,48.770342],[1.9388432,48.7703743],[1.9387547,48.7705211],[1.9396106,48.7707492],[1.9403258,48.7708542],[1.9406914,48.7702745],[1.9412312,48.7704069],[1.9415921,48.7703091],[1.9419697,48.7703401],[1.9431181,48.7706361],[1.9439768,48.7707302]]]]},"properties":{"code_section":"78383000AB","code_commune":"78383","section_courte":"AB"}},{"type":"Feature","geometry":{"type":"MultiPolygon","coordinates":[[[[1.9444715,48.7707084],[1.9439768,48.7707302],[1.9433978,48.7706823],[1.9428529,48.7705772],[1.9419697,48.7703401],[1.9415921,48.7703091],[1.9412312,48.7704069],[1.9406914,48.7702745],[1.9403258,48.7708542],[1.9396106,48.7707492],[1.9387547,48.7705211],[1.9388432,48.7703743],[1.9387074,48.770342],[1.9386728,48.7704],[1.9385946,48.77042],[1.9380396,48.770271],[1.93779,48.7701672],[1.9377635,48.7701038],[1.9381262,48.7697746],[1.9383417,48.7696899],[1.9389519,48.7695792],[1.9389504,48.7694792],[1.938444,48.7695098],[1.9380183,48.7696278],[1.9377553,48.7698063],[1.9372827,48.7703068],[1.9367072,48.7703981],[1.936645,48.7702625],[1.9364198,48.7703116],[1.9364627,48.7703971],[1.9362816,48.770437],[1.9362938,48.7704691],[1.9358257,48.7705683],[1.9357993,48.7705225],[1.9353359,48.7706159],[1.9349119,48.7704717],[1.9347943,48.7702345],[1.9350257,48.7699499],[1.9357835,48.7697904],[1.9357553,48.769723],[1.9373377,48.769391],[1.9377445,48.7692089],[1.9377559,48.7690639],[1.9378985,48.7690019],[1.9384255,48.7689672],[1.9384918,48.7690358],[1.9388236,48.768885],[1.9390834,48.7691446],[1.9393593,48.7684497],[1.939948,48.7677147],[1.940387,48.7675715],[1.9411552,48.7669002],[1.9407676,48.7665191],[1.9404448,48.7666093],[1.9394077,48.7670839],[1.9390444,48.7671942],[1.9386543,48.767226],[1.9377696,48.7672068],[1.9402489,48.7661336],[1.9403884,48.7655618],[1.940951,48.7656436],[1.9428147,48.7648225],[1.9426292,48.7652266],[1.9430205,48.7650519],[1.9432463,48.7652788],[1.9434902,48.7652733],[1.9437096,48.7653621],[1.9439387,48.7655848],[1.9441205,48.7655058],[1.9443853,48.7657663],[1.9438656,48.7659987],[1.9437696,48.7662222],[1.9446599,48.7661229],[1.9447254,48.76622],[1.9458609,48.7671878],[1.9460042,48.7672013],[1.9461719,48.7671383],[1.946453,48.7674207],[1.9460121,48.7676318],[1.9461034,48.7677139],[1.9461505,48.7676909],[1.9463076,48.7678851],[1.9463987,48.7678485],[1.9464657,48.7679126],[1.9465256,48.7679215],[1.9461018,48.768111],[1.9465123,48.768507],[1.9464483,48.7685358],[1.9473804,48.7694406],[1.9457198,48.7701862],[1.9458632,48.7703365],[1.9451042,48.7705953],[1.9444715,48.7707084]]]]},"properties":{"code_section":"78383000AC","code_commune":"78383","section_courte":"AC"}},{"type":"Feature","geometry":{"type":"MultiPolygon","coordinates":[[[[1.9489073,48.7650268],[1.9493583,48.7654755],[1.9490852,48.7655149],[1.9490629,48.7654954],[1.9487653,48.7656201],[1.948796,48.7656498],[1.9487144,48.7656827],[1.9486407,48.7656664],[1.9484605,48.7654913],[1.9481277,48.7656404],[1.9474342,48.7657144],[1.9474725,48.7657502],[1.9465421,48.7658847],[1.9465269,48.7658417],[1.946186,48.7658926],[1.9461823,48.7659191],[1.9458503,48.7660902],[1.945113,48.7661341],[1.9449935,48.766072],[1.9437696,48.7662222],[1.9438656,48.7659987],[1.9443853,48.7657663],[1.9441205,48.7655058],[1.9439387,48.7655848],[1.9437096,48.7653621],[1.9434902,48.7652733],[1.9432463,48.7652788],[1.9430205,48.7650519],[1.9462273,48.7636205],[1.9464093,48.763561],[1.9469827,48.7635008],[1.9475517,48.7637244],[1.9476639,48.7638102],[1.9489073,48.7650268]]]]},"properties":{"code_section":"78383000AD","code_commune":"78383","section_courte":"AD"}},{"type":"Feature","geometry":{"type":"MultiPolygon","coordinates":[[[[1.931527,48.7637737],[1.9315556,48.7638535],[1.930911,48.7640502],[1.9307196,48.7641541],[1.9296413,48.7648642],[1.9295919,48.7649488],[1.9302222,48.766733],[1.9301778,48.7670237],[1.9305026,48.7678177],[1.929645,48.7679338],[1.9279223,48.768069],[1.9269644,48.7681027],[1.926383,48.7680818],[1.9262512,48.768071],[1.9261965,48.7680243],[1.9244118,48.7679202],[1.9237666,48.767834],[1.9221535,48.7677136],[1.9212835,48.7667778],[1.9211432,48.7667913],[1.9214318,48.7660353],[1.9215389,48.7659593],[1.9220183,48.7657869],[1.9222473,48.7648912],[1.9222571,48.7647308],[1.9216979,48.7632153],[1.9233511,48.7629666],[1.9254101,48.7625677],[1.9276859,48.7619121],[1.9286142,48.7636119],[1.9309713,48.7630365],[1.931527,48.7637737]]]]},"properties":{"code_section":"78383000AE","code_commune":"78383","section_courte":"AE"}},{"type":"Feature","geometry":{"type":"MultiPolygon","coordinates":[[[[1.933079,48.7603837],[1.9336621,48.7601411],[1.9339881,48.7599378],[1.9346162,48.7607668],[1.9348374,48.7606862],[1.9372048,48.7629988],[1.9363126,48.7633861],[1.9358383,48.7629204],[1.9357161,48.7629521],[1.9356068,48.7629208],[1.9347812,48.7628875],[1.9340342,48.7630796],[1.9328286,48.7634838],[1.9315778,48.7638381],[1.9309713,48.7630365],[1.9286142,48.7636119],[1.9276859,48.7619121],[1.9301709,48.7612306],[1.930681,48.7610575],[1.9323679,48.7606148],[1.933079,48.7603837]]]]},"properties":{"code_section":"78383000AF","code_commune":"78383","section_courte":"AF"}},{"type":"Feature","geometry":{"type":"MultiPolygon","coordinates":[[[[1.9295676,48.7679659],[1.9297617,48.7683362],[1.9297635,48.7684187],[1.92953,48.7684347],[1.9287975,48.7686589],[1.9279972,48.7692212],[1.9278086,48.7693885],[1.9270381,48.7703732],[1.9264466,48.7709555],[1.9262662,48.7710333],[1.9256395,48.7709432],[1.9253843,48.7710119],[1.9251996,48.7711801],[1.9249194,48.7718348],[1.924418,48.7721239],[1.9239663,48.772268],[1.9238011,48.7722786],[1.9241778,48.7713319],[1.9241716,48.7711152],[1.9241004,48.7709216],[1.9237397,48.7705152],[1.9221809,48.7690427],[1.9219379,48.7686652],[1.9226228,48.7683976],[1.9232396,48.7683135],[1.9242915,48.7680614],[1.9243729,48.7680256],[1.9244118,48.7679202],[1.9258952,48.7679995],[1.9261965,48.7680243],[1.9262512,48.768071],[1.926383,48.7680818],[1.9271664,48.7681049],[1.9295282,48.7679388],[1.9295676,48.7679659]]]]},"properties":{"code_section":"78383000AI","code_commune":"78383","section_courte":"AI"}},{"type":"Feature","geometry":{"type":"MultiPolygon","coordinates":[[[[1.9047296,48.7666067],[1.9047949,48.7665254],[1.9072401,48.7656244],[1.9085413,48.7652058],[1.9097862,48.7649518],[1.9104605,48.7659762],[1.910725,48.7661894],[1.9109046,48.766153],[1.9116203,48.767086],[1.9115671,48.7671116],[1.9116013,48.7671411],[1.9116498,48.7671203],[1.9125793,48.7682068],[1.9133884,48.7678208],[1.9144334,48.7681342],[1.9148126,48.7685645],[1.9136457,48.769285],[1.9133606,48.7695156],[1.913004,48.7693512],[1.910933,48.7697481],[1.9097513,48.7694293],[1.90865,48.7697367],[1.9073197,48.7698338],[1.9063209,48.7699735],[1.9044082,48.7699106],[1.9044808,48.7690031],[1.9042145,48.7677845],[1.9043489,48.7674895],[1.9044837,48.7673044],[1.904596,48.766938],[1.9045998,48.7667658],[1.9047296,48.7666067]]]]},"properties":{"code_section":"78383000AK","code_commune":"78383","section_courte":"AK"}},{"type":"Feature","geometry":{"type":"MultiPolygon","coordinates":[[[[1.9344242,48.7765175],[1.9344166,48.7765499],[1.9340386,48.7765149],[1.9341727,48.7759001],[1.9341357,48.7758973],[1.934227,48.7756471],[1.9344113,48.7753896],[1.9347746,48.7752265],[1.9350326,48.7751821],[1.9352957,48.775],[1.9356638,48.7748951],[1.9357307,48.7747532],[1.9361402,48.7746592],[1.9365505,48.7747338],[1.9369369,48.7750045],[1.9373427,48.7751856],[1.9370847,48.775455],[1.93706,48.7756726],[1.936779,48.7756583],[1.936835,48.7757918],[1.9368625,48.7761387],[1.9374914,48.7761668],[1.9374928,48.776079],[1.9377541,48.7760834],[1.9377491,48.7761942],[1.9380438,48.7762037],[1.9380349,48.7764603],[1.9378151,48.7764547],[1.9378104,48.7767279],[1.9379429,48.7768746],[1.9376566,48.776996],[1.937628,48.7769622],[1.9375011,48.7770079],[1.9376175,48.7771524],[1.9375149,48.7771887],[1.9377043,48.7774154],[1.9373704,48.7775409],[1.9372681,48.7774216],[1.9370301,48.7775107],[1.9369559,48.7774265],[1.9367763,48.7774927],[1.9363812,48.7774462],[1.9363751,48.7774833],[1.9355884,48.7774094],[1.9355929,48.777368],[1.9354586,48.7773587],[1.9354507,48.7773984],[1.9351291,48.7773751],[1.935164,48.7771789],[1.935451,48.7768121],[1.9355646,48.776722],[1.9355928,48.7767371],[1.9363551,48.7764176],[1.9363681,48.7761862],[1.9367384,48.776194],[1.9367241,48.7757852],[1.9362849,48.7757623],[1.9359005,48.7756771],[1.9359186,48.7756332],[1.9358077,48.7756132],[1.9357887,48.7756672],[1.9359107,48.7760314],[1.9358821,48.7761732],[1.9359714,48.7761782],[1.9359095,48.7764433],[1.9355742,48.7764122],[1.9355795,48.7763558],[1.9354367,48.7763439],[1.9354245,48.7764027],[1.9350095,48.7763391],[1.934923,48.7763847],[1.93484,48.7766072],[1.9345454,48.7765793],[1.934555,48.7765303],[1.9344242,48.7765175]]],[[[1.9383336,48.7753597],[1.9391126,48.7752889],[1.9394227,48.7753922],[1.939597,48.7755506],[1.9397397,48.7760856],[1.939437,48.7768935],[1.9392913,48.77715],[1.9391375,48.7771187],[1.93865,48.7771019],[1.9385793,48.7767929],[1.9376669,48.7752861],[1.9383336,48.7753597]]]]},"properties":{"code_section":"78383000AL","code_commune":"78383","section_courte":"AL"}},{"type":"Feature","geometry":{"type":"MultiPolygon","coordinates":[[[[1.9211889,48.7666761],[1.9211432,48.7667913],[1.9211049,48.7667823],[1.9208058,48.766982],[1.9193699,48.7680173],[1.9187732,48.7681388],[1.9182166,48.768093],[1.9178164,48.7686887],[1.9167343,48.7694301],[1.9165578,48.7694852],[1.9157655,48.7696135],[1.9137803,48.7697172],[1.9133606,48.7695156],[1.9136457,48.769285],[1.9148118,48.7685424],[1.9144334,48.7681342],[1.9133884,48.7678208],[1.9125793,48.7682068],[1.9116498,48.7671203],[1.9116013,48.7671411],[1.9115671,48.7671116],[1.9116203,48.767086],[1.9109046,48.766153],[1.910725,48.7661894],[1.9104605,48.7659762],[1.9097862,48.7649518],[1.9216979,48.7632153],[1.9222571,48.7647308],[1.9222473,48.7648912],[1.9220183,48.7657869],[1.9215389,48.7659593],[1.9214318,48.7660353],[1.9211889,48.7666761]]]]},"properties":{"code_section":"78383000AM","code_commune":"78383","section_courte":"AM"}},{"type":"Feature","geometry":{"type":"MultiPolygon","coordinates":[[[[1.9402703,48.7659899],[1.9402489,48.7661336],[1.9377696,48.7672068],[1.9376667,48.7671645],[1.9344234,48.767287],[1.9307682,48.7678533],[1.9305026,48.7678177],[1.9302937,48.7673133],[1.9301689,48.7669863],[1.9302361,48.7668077],[1.9302222,48.766733],[1.9295919,48.7649488],[1.9296413,48.7648642],[1.930911,48.7640502],[1.9328286,48.7634838],[1.9340342,48.7630796],[1.9347812,48.7628875],[1.9356068,48.7629208],[1.9357161,48.7629521],[1.9358383,48.7629204],[1.9363126,48.7633861],[1.9372048,48.7629988],[1.940152,48.7659201],[1.9402703,48.7659899]]]]},"properties":{"code_section":"78383000AN","code_commune":"78383","section_courte":"AN"}},{"type":"Feature","geometry":{"type":"MultiPolygon","coordinates":[[[[1.9391017,48.7629688],[1.9390087,48.7629499],[1.9381377,48.7633418],[1.9375914,48.7628031],[1.9372048,48.7629988],[1.9348374,48.7606862],[1.9346162,48.7607668],[1.9339881,48.7599378],[1.9349657,48.7595002],[1.9374685,48.7582427],[1.9390696,48.7573043],[1.9403619,48.7567781],[1.9414038,48.7571783],[1.941963,48.757345],[1.9434745,48.7577047],[1.9468798,48.7584267],[1.9460802,48.7601482],[1.9444585,48.7608679],[1.943581,48.7599995],[1.9410891,48.7611151],[1.9419555,48.7619754],[1.9395198,48.7630548],[1.9391017,48.7629688]]]]},"properties":{"code_section":"78383000AO","code_commune":"78383","section_courte":"AO"}},{"type":"Feature","geometry":{"type":"MultiPolygon","coordinates":[[[[1.9477998,48.7639395],[1.9481251,48.7637907],[1.9462177,48.7619091],[1.9459981,48.7614865],[1.9460004,48.7612238],[1.9460639,48.7609719],[1.9465286,48.7599519],[1.9460802,48.7601482],[1.9468798,48.7584267],[1.952174,48.759501],[1.9519606,48.7598003],[1.9525509,48.7603732],[1.9530958,48.76101],[1.9531894,48.7610535],[1.9534641,48.7610844],[1.9534393,48.7614395],[1.9547334,48.7633777],[1.954701,48.7634896],[1.9545207,48.7634895],[1.9544717,48.7635726],[1.9553381,48.7645498],[1.9538736,48.7649485],[1.9528822,48.7651145],[1.9524176,48.7651661],[1.9506577,48.7652675],[1.9499077,48.7653671],[1.9493583,48.7654755],[1.9477998,48.7639395]]]]},"properties":{"code_section":"78383000AP","code_commune":"78383","section_courte":"AP"}},{"type":"Feature","geometry":{"type":"MultiPolygon","coordinates":[[[[1.9405345,48.7626055],[1.9419555,48.7619754],[1.9410891,48.7611151],[1.9435365,48.7600192],[1.943581,48.7599995],[1.9444585,48.7608679],[1.9465286,48.7599519],[1.9460546,48.7609992],[1.9459897,48.7613412],[1.9460256,48.7615681],[1.9462177,48.7619091],[1.9481251,48.7637907],[1.9477998,48.7639395],[1.9475517,48.7637244],[1.9469827,48.7635008],[1.9464093,48.763561],[1.9426292,48.7652266],[1.9428147,48.7648225],[1.940951,48.7656436],[1.9403884,48.7655618],[1.9402703,48.7659899],[1.940152,48.7659201],[1.9372048,48.7629988],[1.9375914,48.7628031],[1.9381377,48.7633418],[1.9390087,48.7629499],[1.9395198,48.7630548],[1.9405345,48.7626055]]]]},"properties":{"code_section":"78383000AS","code_commune":"78383","section_courte":"AS"}},{"type":"Feature","geometry":{"type":"MultiPolygon","coordinates":[[[[1.9191058,48.7702035],[1.9191167,48.7701768],[1.9190476,48.7701391],[1.9187381,48.7701158],[1.917867,48.7699488],[1.9157073,48.7698966],[1.9157655,48.7696135],[1.9165578,48.7694852],[1.9167343,48.7694301],[1.9178164,48.7686887],[1.9182166,48.768093],[1.9187732,48.7681388],[1.9193699,48.7680173],[1.9211049,48.7667823],[1.9211807,48.766799],[1.9212835,48.7667778],[1.9221535,48.7677136],[1.9237666,48.767834],[1.9244118,48.7679202],[1.9243729,48.7680256],[1.9242915,48.7680614],[1.9232396,48.7683135],[1.9226228,48.7683976],[1.9219379,48.7686652],[1.9221809,48.7690427],[1.9237397,48.7705152],[1.9241004,48.7709216],[1.9241716,48.7711152],[1.9241778,48.7713319],[1.9238011,48.7722786],[1.9236521,48.7723618],[1.921221,48.7732901],[1.9209076,48.7734485],[1.9200709,48.7739929],[1.9199945,48.7739925],[1.9194048,48.7736938],[1.9191634,48.7734966],[1.9190994,48.7732949],[1.9191484,48.7731199],[1.9192758,48.7729559],[1.9196386,48.7728724],[1.9194399,48.7727395],[1.9195746,48.7726579],[1.9190398,48.7718468],[1.9185478,48.7718629],[1.9188099,48.7708469],[1.9191058,48.7702035]]]]},"properties":{"code_section":"78383000AT","code_commune":"78383","section_courte":"AT"}},{"type":"Feature","geometry":{"type":"MultiPolygon","coordinates":[[[[1.8998168,48.7699218],[1.9000152,48.7696077],[1.9013377,48.7700174],[1.900965,48.7701515],[1.9007435,48.7708877],[1.9006503,48.7710752],[1.8996368,48.772276],[1.8992764,48.773058],[1.8990323,48.7734535],[1.8987789,48.7740191],[1.8989287,48.774167],[1.8991553,48.7747209],[1.899318,48.7746268],[1.900167,48.7744529],[1.902786,48.7741201],[1.9032407,48.7741108],[1.9033199,48.7742258],[1.9032499,48.7743541],[1.9033158,48.7748172],[1.9033737,48.7748458],[1.903521,48.7747968],[1.9036519,48.7748725],[1.9042866,48.7746852],[1.9047131,48.7752976],[1.9058963,48.7749265],[1.9064897,48.774678],[1.9064122,48.7738434],[1.9070628,48.7734484],[1.9070537,48.7734138],[1.9076752,48.773323],[1.9081299,48.7743162],[1.9082038,48.7743017],[1.9081494,48.7741805],[1.9082786,48.7741572],[1.9089773,48.7756333],[1.9098718,48.7755478],[1.9113318,48.7755336],[1.9116954,48.7762484],[1.9118358,48.7764056],[1.912072,48.7765456],[1.9128398,48.7769022],[1.9131409,48.7776691],[1.9130667,48.7778394],[1.9139713,48.7789872],[1.9140311,48.779155],[1.9139733,48.7794013],[1.913543,48.7799114],[1.9138449,48.779891],[1.9139461,48.7799751],[1.9139525,48.779907],[1.9139924,48.7798884],[1.9142246,48.7799538],[1.9146253,48.7802068],[1.9152875,48.7805516],[1.9155614,48.780442],[1.9166837,48.7810003],[1.9167704,48.7808602],[1.9182349,48.7807286],[1.918773,48.7815671],[1.9186028,48.7816306],[1.9171129,48.7831175],[1.9171572,48.7839462],[1.914993,48.7840163],[1.9129906,48.784805],[1.9116798,48.7853853],[1.9108185,48.7855744],[1.9094664,48.7856835],[1.9036773,48.7808535],[1.90357,48.7803177],[1.9009207,48.7802468],[1.8979184,48.7802372],[1.8957627,48.7801851],[1.8948199,48.7788346],[1.8958403,48.7780529],[1.896175,48.7777718],[1.8963551,48.7775695],[1.8970446,48.776595],[1.8975335,48.7756547],[1.8976157,48.7754302],[1.8976176,48.7748834],[1.8971842,48.7734777],[1.8971312,48.7731538],[1.897162,48.77267],[1.8972341,48.7724198],[1.8973725,48.772122],[1.8975091,48.7719538],[1.8992603,48.7705997],[1.8998168,48.7699218]]]]},"properties":{"code_section":"78383000ZA","code_commune":"78383","section_courte":"ZA"}}]}