{"type":"FeatureCollection","features":[{"type":"Feature","geometry":{"type":"MultiPolygon","coordinates":[[[[1.9943145,48.9667771],[1.9936297,48.9666428],[1.9938709,48.9661253],[1.9918529,48.9655368],[1.9916697,48.965685],[1.9915329,48.9655982],[1.9903855,48.9646261],[1.990069,48.9642393],[1.9898657,48.9640893],[1.9895488,48.9636678],[1.9893681,48.9635331],[1.9893135,48.9635264],[1.9880868,48.9625902],[1.9877888,48.9624758],[1.9877405,48.9623489],[1.9873629,48.9621937],[1.9872437,48.9620577],[1.9868134,48.9618886],[1.9865751,48.9617335],[1.9860683,48.9615828],[1.9844336,48.9608859],[1.9827734,48.9600298],[1.982051,48.9597043],[1.98158,48.9593906],[1.9811549,48.9592176],[1.9797285,48.9584582],[1.9797817,48.959094],[1.9787289,48.9584272],[1.9780717,48.9580867],[1.9752765,48.9564095],[1.9765393,48.9554857],[1.976436,48.9554234],[1.9772769,48.9548455],[1.9767364,48.954275],[1.97649,48.9543982],[1.9755777,48.953433],[1.975278,48.9531026],[1.975348,48.9530905],[1.9748596,48.9525549],[1.9750559,48.9524902],[1.9745059,48.9518789],[1.9739601,48.9518171],[1.9732212,48.9496536],[1.9729685,48.9496783],[1.9729768,48.9497356],[1.9725906,48.9497797],[1.9726874,48.9500573],[1.9723943,48.9500884],[1.9706063,48.948053],[1.9693856,48.9460908],[1.9696984,48.9447786],[1.9723086,48.9448612],[1.9723957,48.9451518],[1.9724732,48.9457371],[1.9734654,48.9456812],[1.973473,48.9457049],[1.9742175,48.9456754],[1.975367,48.945551],[1.9759313,48.9455303],[1.9759473,48.9455504],[1.9783018,48.9455385],[1.9782923,48.9459512],[1.9790572,48.9470798],[1.9800543,48.948395],[1.9801615,48.948775],[1.9801831,48.94963],[1.9815174,48.9494617],[1.9819955,48.9492548],[1.982947,48.9483126],[1.984234,48.948937],[1.9851521,48.9487313],[1.9853046,48.9487408],[1.9863041,48.9495085],[1.988352,48.9484399],[1.9886603,48.9483079],[1.988292,48.947517],[1.9889828,48.9474179],[1.9888341,48.947114],[1.9906168,48.9467874],[1.9913768,48.9483123],[1.992514,48.9485269],[1.9928333,48.9485214],[1.9928667,48.9479],[1.9938269,48.9479601],[1.9937989,48.9481006],[1.9939445,48.9481144],[1.9939498,48.9488752],[1.9951728,48.9488852],[1.9963111,48.9489374],[1.9972146,48.9490422],[1.997247,48.9492873],[1.9989096,48.9493948],[1.998897,48.950476],[1.9990752,48.9513348],[1.9989085,48.9539041],[1.9988415,48.9543019],[1.9987544,48.9562862],[1.999055,48.9580584],[1.9981724,48.9584566],[1.9977246,48.9587678],[1.9975986,48.9588969],[1.9974222,48.9591821],[1.9971417,48.9597181],[1.9964423,48.9607109],[1.996484,48.9609753],[1.9961928,48.9615716],[1.9960531,48.9624149],[1.9960718,48.9627521],[1.9963012,48.9637866],[1.9962958,48.9643173],[1.9964002,48.9648627],[1.9962279,48.9652345],[1.9960874,48.9662598],[1.9959771,48.9667777],[1.9958897,48.966961],[1.9958341,48.9670534],[1.9943145,48.9667771]]]]},"properties":{"code_section":"783840000A","code_commune":"78384","section_courte":"A"}},{"type":"Feature","geometry":{"type":"MultiPolygon","coordinates":[[[[2.0009401,48.9534857],[2.0009143,48.9538625],[2.0010722,48.9538761],[2.0010623,48.9541131],[2.0024716,48.9541462],[2.0023596,48.9571287],[2.0007054,48.9571212],[2.0007084,48.9571851],[2.0002749,48.9572046],[2.0003749,48.9574614],[1.9992038,48.9574859],[1.9994092,48.9579183],[1.999055,48.9580584],[1.9987544,48.9562862],[1.9988415,48.9543019],[1.9989085,48.9539041],[1.9990752,48.9513348],[2.0000352,48.9513399],[2.0000332,48.951306],[2.0010621,48.9513414],[2.0009558,48.9526767],[2.0009401,48.9534857]]]]},"properties":{"code_section":"783840000B","code_commune":"78384","section_courte":"B"}}]}