{"type":"FeatureCollection","features":[{"type":"Feature","geometry":{"type":"MultiPolygon","coordinates":[[[[1.9411295,48.7432132],[1.9391819,48.7408908],[1.9328133,48.7400895],[1.9331142,48.7398166],[1.9335501,48.7395289],[1.9342449,48.7391653],[1.9344826,48.7389022],[1.934743,48.7380713],[1.9348704,48.7378618],[1.9352289,48.73753],[1.935519,48.737352],[1.935722,48.7372869],[1.9359679,48.7372768],[1.9369007,48.7373262],[1.9385025,48.7366691],[1.9389072,48.7365533],[1.9394943,48.7362683],[1.9398164,48.7364866],[1.9402064,48.7365095],[1.9405736,48.7364267],[1.9408101,48.7366854],[1.9410635,48.7367775],[1.941339,48.7366689],[1.9415052,48.7365232],[1.9418763,48.7359728],[1.9420377,48.7353015],[1.9421566,48.7351657],[1.9424489,48.7349408],[1.9428005,48.7347892],[1.943173,48.7344032],[1.9436437,48.7343766],[1.9447704,48.734085],[1.944998,48.7342821],[1.9465979,48.7334221],[1.9467899,48.7334069],[1.948307,48.7329521],[1.9489536,48.7330179],[1.9489179,48.7329274],[1.9493576,48.7328207],[1.9504348,48.7330487],[1.9507628,48.7332118],[1.9508982,48.733403],[1.9508999,48.7336622],[1.9514431,48.7340609],[1.9513887,48.7340608],[1.9515598,48.7341986],[1.951798,48.734534],[1.9525142,48.7352925],[1.9531493,48.7357882],[1.953164,48.7357382],[1.9538162,48.7358805],[1.9550178,48.7364634],[1.9574105,48.7372611],[1.958373,48.7371149],[1.9584002,48.7370739],[1.9603513,48.738637],[1.9614877,48.7396053],[1.9634133,48.740931],[1.9616725,48.7418492],[1.9612733,48.7416797],[1.9611908,48.7417523],[1.9610286,48.7416836],[1.9611018,48.7416064],[1.9602066,48.7412243],[1.9598009,48.7412113],[1.9589051,48.741552],[1.9591185,48.7417973],[1.9590326,48.7418308],[1.9588799,48.7417309],[1.9585625,48.741839],[1.9586954,48.7419597],[1.9585588,48.7420125],[1.958398,48.7418781],[1.9581907,48.742016],[1.9583287,48.7421535],[1.9577376,48.7421701],[1.9576846,48.7423527],[1.957431,48.7424495],[1.9569887,48.7423619],[1.9568682,48.7425826],[1.9564109,48.7424709],[1.9558967,48.742665],[1.9559216,48.7427381],[1.953744,48.7423761],[1.953628,48.7423351],[1.9517472,48.7434814],[1.9512184,48.7436572],[1.9501439,48.7437289],[1.94978,48.743787],[1.9483058,48.7442456],[1.947469,48.7444486],[1.9458455,48.7447146],[1.9428788,48.7453307],[1.9428758,48.7452811],[1.9411295,48.7432132]]]]},"properties":{"code_section":"783970000A","code_commune":"78397","section_courte":"A"}},{"type":"Feature","geometry":{"type":"MultiPolygon","coordinates":[[[[1.9656686,48.7415371],[1.9667269,48.7410826],[1.9671927,48.7413867],[1.9676564,48.7411976],[1.968184,48.7408498],[1.9692968,48.7415051],[1.9698001,48.7421662],[1.9663655,48.7441042],[1.9657975,48.7437624],[1.9651976,48.7443559],[1.9644662,48.744979],[1.9638186,48.7457893],[1.9626854,48.744632],[1.9626095,48.744757],[1.9625644,48.7447445],[1.961109,48.744121],[1.9609098,48.7442786],[1.9608191,48.7442966],[1.9603391,48.7438456],[1.959387,48.7450599],[1.9570934,48.7429219],[1.9559216,48.7427381],[1.9558967,48.742665],[1.9564109,48.7424709],[1.9568682,48.7425826],[1.9569887,48.7423619],[1.957431,48.7424495],[1.9576846,48.7423527],[1.9577376,48.7421701],[1.9583287,48.7421535],[1.9581907,48.742016],[1.958398,48.7418781],[1.9585588,48.7420125],[1.9586954,48.7419597],[1.9585625,48.741839],[1.9588799,48.7417309],[1.9590326,48.7418308],[1.9591185,48.7417973],[1.9589051,48.741552],[1.9598009,48.7412113],[1.9602066,48.7412243],[1.9611018,48.7416064],[1.9610286,48.7416836],[1.9611908,48.7417523],[1.9612733,48.7416797],[1.9616725,48.7418492],[1.9634133,48.740931],[1.9636289,48.7410471],[1.9638436,48.7412775],[1.9643777,48.7410663],[1.9651954,48.7417518],[1.9656686,48.7415371]]]]},"properties":{"code_section":"783970000B","code_commune":"78397","section_courte":"B"}},{"type":"Feature","geometry":{"type":"MultiPolygon","coordinates":[[[[1.9395575,48.7413336],[1.9428758,48.7452811],[1.9428788,48.7453307],[1.9400826,48.7458191],[1.9383491,48.7463655],[1.9361921,48.7466653],[1.93601,48.7460884],[1.9356977,48.746163],[1.9354225,48.7458007],[1.9352635,48.7458525],[1.9350772,48.7456508],[1.93499,48.745681],[1.9346946,48.7454837],[1.9343896,48.745403],[1.9342041,48.7451559],[1.934967,48.7447944],[1.9344931,48.7442956],[1.9349529,48.7441062],[1.9345775,48.7438389],[1.9345643,48.7434658],[1.9346424,48.7432765],[1.9346338,48.7430592],[1.9345635,48.742936],[1.9344119,48.7428504],[1.9338367,48.7426788],[1.9331163,48.7423579],[1.9324301,48.7418445],[1.9325479,48.7417795],[1.9325793,48.7416972],[1.9325527,48.7415316],[1.9323142,48.7411334],[1.9323091,48.7410137],[1.9322702,48.740974],[1.9321877,48.7402421],[1.9319521,48.7401994],[1.932149,48.7400066],[1.9391819,48.7408908],[1.9395575,48.7413336]]]]},"properties":{"code_section":"783970000D","code_commune":"78397","section_courte":"D"}},{"type":"Feature","geometry":{"type":"MultiPolygon","coordinates":[[[[1.964918,48.7326571],[1.9649952,48.7317127],[1.9646673,48.7293331],[1.9646467,48.728857],[1.9647384,48.7273099],[1.9646458,48.7270086],[1.9635189,48.7253552],[1.9636983,48.7253086],[1.9647144,48.7255872],[1.9650314,48.7256017],[1.9653913,48.7255595],[1.9666908,48.725102],[1.9674308,48.7245568],[1.9681486,48.7247791],[1.9691,48.7252209],[1.9693572,48.7252368],[1.9715164,48.7251348],[1.9734852,48.7270273],[1.9719828,48.7270347],[1.971986,48.7276147],[1.9731211,48.7276152],[1.973284,48.729798],[1.9729913,48.7299335],[1.9728527,48.73011],[1.971909,48.7327261],[1.9718473,48.7331024],[1.9718501,48.7335625],[1.9722032,48.7354483],[1.9725127,48.7359802],[1.9732082,48.7369868],[1.9736149,48.7376966],[1.9734287,48.7379326],[1.9729696,48.7382456],[1.9723185,48.7386204],[1.9716274,48.7389378],[1.9696831,48.7396766],[1.968184,48.7408498],[1.9676564,48.7411976],[1.9671927,48.7413867],[1.9667269,48.7410826],[1.9651954,48.7417518],[1.9643777,48.7410663],[1.9638436,48.7412775],[1.9636289,48.7410471],[1.9634133,48.740931],[1.9614877,48.7396053],[1.9603513,48.738637],[1.9584002,48.7370739],[1.9579906,48.7366154],[1.9646349,48.7342007],[1.9646422,48.7339334],[1.964918,48.7326571]]]]},"properties":{"code_section":"783970000V","code_commune":"78397","section_courte":"V"}},{"type":"Feature","geometry":{"type":"MultiPolygon","coordinates":[[[[1.9729913,48.7299335],[1.973284,48.729798],[1.9731211,48.7276152],[1.971986,48.7276147],[1.9719828,48.7270347],[1.9734852,48.7270273],[1.9715164,48.7251348],[1.9693572,48.7252368],[1.9691,48.7252209],[1.9681486,48.7247791],[1.9674308,48.7245568],[1.9682073,48.7238633],[1.9687203,48.7236379],[1.9688804,48.7234803],[1.968885,48.723355],[1.9688263,48.7232408],[1.9687143,48.7231529],[1.9684582,48.723076],[1.9683812,48.722619],[1.9695475,48.7223908],[1.9698011,48.7215609],[1.9701466,48.7211663],[1.9705303,48.7210738],[1.9716362,48.7205718],[1.9717748,48.7210081],[1.9719569,48.7211317],[1.9719755,48.7212464],[1.972056,48.7213304],[1.9726689,48.7216314],[1.9730415,48.7216603],[1.9732904,48.7217298],[1.9735994,48.7219049],[1.9738326,48.7221802],[1.973986,48.7224455],[1.973958,48.7227644],[1.9742821,48.7230231],[1.9744456,48.723504],[1.9746576,48.7237127],[1.9749561,48.7238617],[1.9754305,48.7238576],[1.9757054,48.7238112],[1.9760782,48.7238316],[1.9763045,48.7238082],[1.9764708,48.7237719],[1.9769087,48.7235627],[1.9770993,48.7235505],[1.9772126,48.7235822],[1.9773372,48.7237026],[1.9774545,48.7237462],[1.9776703,48.7237839],[1.9779423,48.7237526],[1.9785963,48.723995],[1.9788882,48.7241955],[1.9790891,48.7242782],[1.9793703,48.7243072],[1.9795028,48.7243626],[1.9795297,48.7243091],[1.9796608,48.724371],[1.9796753,48.7244408],[1.9803997,48.7242585],[1.9811651,48.7244976],[1.9815722,48.7247273],[1.9817052,48.724841],[1.9818401,48.7250847],[1.9816083,48.7255715],[1.9814926,48.725682],[1.9815516,48.7259119],[1.9813478,48.7261361],[1.9813809,48.7262963],[1.9812654,48.7266799],[1.9812244,48.7270884],[1.9812973,48.727382],[1.981612,48.7277874],[1.9820386,48.7280756],[1.9828194,48.7283878],[1.9840102,48.7286702],[1.984771,48.7289022],[1.9871789,48.7290099],[1.9871841,48.7289589],[1.9885765,48.7289518],[1.9885125,48.7300678],[1.9895029,48.73147],[1.9877836,48.7320167],[1.9866464,48.732249],[1.9845507,48.732742],[1.9833616,48.7330879],[1.9813481,48.7339047],[1.9782143,48.7343639],[1.9747209,48.7370715],[1.9736149,48.7376966],[1.9732082,48.7369868],[1.9725127,48.7359802],[1.9722032,48.7354483],[1.9718501,48.7335625],[1.9718473,48.7331024],[1.971909,48.7327261],[1.9728527,48.73011],[1.9729913,48.7299335]]]]},"properties":{"code_section":"783970000W","code_commune":"78397","section_courte":"W"}},{"type":"Feature","geometry":{"type":"MultiPolygon","coordinates":[[[[1.9769253,48.7413397],[1.9761775,48.7407626],[1.974297,48.739786],[1.9741712,48.7397529],[1.9739733,48.7391175],[1.973768,48.737856],[1.9736149,48.7376966],[1.9747209,48.7370715],[1.9782143,48.7343639],[1.9813481,48.7339047],[1.9833616,48.7330879],[1.9845507,48.732742],[1.9866464,48.732249],[1.9875943,48.7338906],[1.9841566,48.734854],[1.9856326,48.736426],[1.9859245,48.7362741],[1.9878338,48.739046],[1.9879825,48.7389996],[1.9877809,48.7393038],[1.9879674,48.7396309],[1.9897283,48.7408118],[1.9905304,48.7411215],[1.9908375,48.7412699],[1.989437,48.7425108],[1.9893209,48.7425669],[1.9890031,48.7426185],[1.9880722,48.7426358],[1.9880855,48.7464217],[1.9882887,48.7464373],[1.9914109,48.7473381],[1.992053,48.747931],[1.9909812,48.7482572],[1.9883084,48.7498406],[1.9869148,48.7503163],[1.9853767,48.751496],[1.9830483,48.750578],[1.981884,48.7499214],[1.9791699,48.7485851],[1.9770859,48.7466165],[1.9758707,48.746282],[1.9760089,48.7461029],[1.9757802,48.7460222],[1.9762537,48.7458053],[1.9760364,48.7453774],[1.9758829,48.7452204],[1.9764386,48.744639],[1.9767285,48.744415],[1.9771338,48.7442031],[1.9790276,48.7435919],[1.9798256,48.7434096],[1.9786955,48.7423484],[1.977853,48.7417961],[1.9769253,48.7413397]]]]},"properties":{"code_section":"783970000X","code_commune":"78397","section_courte":"X"}},{"type":"Feature","geometry":{"type":"MultiPolygon","coordinates":[[[[1.9644662,48.744979],[1.9651976,48.7443559],[1.9657975,48.7437624],[1.9663655,48.7441042],[1.9698001,48.7421662],[1.9692968,48.7415051],[1.968184,48.7408498],[1.9696831,48.7396766],[1.9716274,48.7389378],[1.9723185,48.7386204],[1.9729696,48.7382456],[1.9734287,48.7379326],[1.9736149,48.7376966],[1.973768,48.737856],[1.9739733,48.7391175],[1.9741712,48.7397529],[1.974297,48.739786],[1.9761775,48.7407626],[1.9769253,48.7413397],[1.977853,48.7417961],[1.9786955,48.7423484],[1.9798256,48.7434096],[1.9790276,48.7435919],[1.9771338,48.7442031],[1.9767285,48.744415],[1.9764386,48.744639],[1.9758829,48.7452204],[1.9760364,48.7453774],[1.9762537,48.7458053],[1.9757802,48.7460222],[1.9760089,48.7461029],[1.9758707,48.746282],[1.9770859,48.7466165],[1.9791699,48.7485851],[1.981884,48.7499214],[1.9830483,48.750578],[1.9852954,48.7514642],[1.9843555,48.7518822],[1.9834684,48.7521602],[1.9820569,48.7523177],[1.9817259,48.7523822],[1.9803844,48.7527785],[1.9798693,48.7528482],[1.9792016,48.7528579],[1.9782779,48.7527788],[1.9778468,48.7527809],[1.9767546,48.7529948],[1.9740526,48.7533511],[1.9736361,48.7534719],[1.9734949,48.7537148],[1.9714445,48.7540766],[1.970805,48.7551384],[1.9693053,48.7553328],[1.9690735,48.7554045],[1.9680376,48.755923],[1.968778,48.7514347],[1.9686559,48.7508697],[1.9683449,48.7503549],[1.9638186,48.7457893],[1.9644662,48.744979]]]]},"properties":{"code_section":"783970000Y","code_commune":"78397","section_courte":"Y"}},{"type":"Feature","geometry":{"type":"MultiPolygon","coordinates":[[[[1.9626854,48.744632],[1.9683449,48.7503549],[1.9686559,48.7508697],[1.968778,48.7514347],[1.9680376,48.755923],[1.9678873,48.7560683],[1.9677844,48.7560016],[1.9675685,48.7566341],[1.9670805,48.7569127],[1.9667897,48.7568481],[1.9667403,48.7566128],[1.9665758,48.7566858],[1.9663958,48.7567014],[1.9662347,48.7566647],[1.9662037,48.7565688],[1.9658796,48.7566124],[1.9658188,48.7563222],[1.9643001,48.7567704],[1.9622744,48.7569558],[1.9617077,48.7569544],[1.9612818,48.756917],[1.960292,48.7567318],[1.9600217,48.7565935],[1.9591905,48.7560506],[1.9587942,48.7558683],[1.9570611,48.7569283],[1.956957,48.7560712],[1.9561169,48.7554692],[1.9555966,48.7528907],[1.9556464,48.752863],[1.9557392,48.7529104],[1.9570188,48.7525031],[1.9579201,48.7520108],[1.9585886,48.7514707],[1.9598205,48.7505994],[1.9594318,48.7503202],[1.9596881,48.7500174],[1.9602594,48.7496957],[1.9607743,48.7491038],[1.9594084,48.7480466],[1.9579415,48.7488599],[1.9572302,48.7491838],[1.953842,48.7461258],[1.9528646,48.7465427],[1.9529208,48.7465855],[1.9516668,48.7471396],[1.9513123,48.747419],[1.9482809,48.7505801],[1.9475661,48.7509786],[1.944171,48.7468385],[1.9429428,48.7453687],[1.9428788,48.7453307],[1.9458455,48.7447146],[1.947469,48.7444486],[1.9483058,48.7442456],[1.94978,48.743787],[1.9501439,48.7437289],[1.9512184,48.7436572],[1.9517472,48.7434814],[1.953628,48.7423351],[1.953744,48.7423761],[1.9570934,48.7429219],[1.959387,48.7450599],[1.9603391,48.7438456],[1.9608191,48.7442966],[1.9609098,48.7442786],[1.961109,48.744121],[1.9625644,48.7447445],[1.9626095,48.744757],[1.9626854,48.744632]]]]},"properties":{"code_section":"783970000Z","code_commune":"78397","section_courte":"Z"}},{"type":"Feature","geometry":{"type":"MultiPolygon","coordinates":[[[[1.9383657,48.747763],[1.9370808,48.7482779],[1.9365238,48.7475833],[1.9364612,48.7475621],[1.9355345,48.7467428],[1.9383491,48.7463655],[1.9400826,48.7458191],[1.9428788,48.7453307],[1.9429428,48.7453687],[1.944171,48.7468385],[1.9403595,48.7469686],[1.9383657,48.747763]]]]},"properties":{"code_section":"78397000YA","code_commune":"78397","section_courte":"YA"}}]}