{"type":"FeatureCollection","features":[{"type":"Feature","geometry":{"type":"MultiPolygon","coordinates":[[[[2.1222081,48.941931],[2.1220473,48.9417501],[2.1219627,48.9415125],[2.1220274,48.94108],[2.1219092,48.9408991],[2.1207375,48.9403467],[2.120609,48.9396639],[2.1202168,48.9392823],[2.1203745,48.9386614],[2.1202674,48.9378521],[2.1203144,48.9371074],[2.1202335,48.9368446],[2.1226727,48.9366624],[2.1230021,48.9365406],[2.1230145,48.9365008],[2.1247694,48.936421],[2.1257973,48.9377286],[2.1302082,48.9435896],[2.1265733,48.9430859],[2.1250452,48.9428306],[2.1224286,48.9422776],[2.1224188,48.9421683],[2.1222081,48.941931]]]]},"properties":{"code_section":"78396000AB","code_commune":"78396","section_courte":"AB"}},{"type":"Feature","geometry":{"type":"MultiPolygon","coordinates":[[[[2.1310322,48.943672],[2.1302082,48.9435896],[2.1272376,48.9396387],[2.1293709,48.9388084],[2.1310027,48.9385584],[2.131789,48.9383614],[2.1326898,48.9380968],[2.1343424,48.9375469],[2.1361785,48.9386489],[2.1368813,48.9391083],[2.1343763,48.9406704],[2.1314798,48.9426075],[2.1305619,48.9429141],[2.1310322,48.943672]]]]},"properties":{"code_section":"78396000AC","code_commune":"78396","section_courte":"AC"}},{"type":"Feature","geometry":{"type":"MultiPolygon","coordinates":[[[[2.1261483,48.9355573],[2.1274254,48.9348511],[2.1290687,48.9341366],[2.1292398,48.9340006],[2.1294836,48.9335486],[2.129699,48.9328705],[2.1307297,48.9339598],[2.1321722,48.9352998],[2.1327104,48.9360175],[2.1331187,48.9366621],[2.1333968,48.9369908],[2.1343424,48.9375469],[2.1326898,48.9380968],[2.131789,48.9383614],[2.1310027,48.9385584],[2.1293709,48.9388084],[2.1272376,48.9396387],[2.1247694,48.936421],[2.1246628,48.936427],[2.1247357,48.9361355],[2.1250123,48.9358706],[2.1251503,48.935538],[2.1254095,48.9356255],[2.1257093,48.9357759],[2.1261483,48.9355573]]]]},"properties":{"code_section":"78396000AD","code_commune":"78396","section_courte":"AD"}},{"type":"Feature","geometry":{"type":"MultiPolygon","coordinates":[[[[2.1369091,48.9340276],[2.138242,48.9349174],[2.1401938,48.9366724],[2.1385451,48.9378197],[2.1377349,48.9384369],[2.1376889,48.9384119],[2.1373752,48.9387126],[2.1368704,48.9391011],[2.1361785,48.9386489],[2.1333968,48.9369908],[2.1331187,48.9366621],[2.1327104,48.9360175],[2.1321722,48.9352998],[2.1307297,48.9339598],[2.129699,48.9328705],[2.1299815,48.9326408],[2.130308,48.932433],[2.1300805,48.932195],[2.1301063,48.9321527],[2.131883,48.9310305],[2.1323669,48.9314293],[2.1326966,48.9312592],[2.1327931,48.931394],[2.1336042,48.9318739],[2.1342644,48.9321606],[2.1352671,48.9327928],[2.1369091,48.9340276]]]]},"properties":{"code_section":"78396000AE","code_commune":"78396","section_courte":"AE"}},{"type":"Feature","geometry":{"type":"MultiPolygon","coordinates":[[[[2.1401952,48.9366736],[2.138242,48.9349174],[2.1367209,48.9339022],[2.1352671,48.9327928],[2.1342644,48.9321606],[2.1336042,48.9318739],[2.1327931,48.931394],[2.1325936,48.9311152],[2.1329651,48.9301966],[2.1334416,48.9295848],[2.134292,48.9300105],[2.1352222,48.93055],[2.1378223,48.9322171],[2.1394087,48.9330719],[2.1404242,48.9337325],[2.1412652,48.9342017],[2.1420501,48.9347396],[2.1426018,48.9351875],[2.1401952,48.9366736]]]]},"properties":{"code_section":"78396000AH","code_commune":"78396","section_courte":"AH"}},{"type":"Feature","geometry":{"type":"MultiPolygon","coordinates":[[[[2.1269385,48.9309941],[2.1238044,48.9285602],[2.1229065,48.9278242],[2.1236374,48.9273721],[2.1240651,48.9277032],[2.1266033,48.9261902],[2.1274196,48.9256255],[2.131347,48.928179],[2.1331546,48.9294558],[2.1334416,48.9295848],[2.1329651,48.9301966],[2.1327842,48.9305975],[2.1325936,48.9311152],[2.1326966,48.9312592],[2.1323669,48.9314293],[2.131883,48.9310305],[2.1301063,48.9321527],[2.1300805,48.932195],[2.130308,48.932433],[2.1299815,48.9326408],[2.129699,48.9328705],[2.1291586,48.9323362],[2.1272901,48.9312381],[2.1269385,48.9309941]]]]},"properties":{"code_section":"78396000AI","code_commune":"78396","section_courte":"AI"}},{"type":"Feature","geometry":{"type":"MultiPolygon","coordinates":[[[[2.1279089,48.9346285],[2.1274254,48.9348511],[2.1257093,48.9357759],[2.1254095,48.9356255],[2.1251503,48.935538],[2.1250123,48.9358706],[2.1247357,48.9361355],[2.1246628,48.936427],[2.1230145,48.9365008],[2.1230263,48.9364628],[2.1226904,48.9364263],[2.122419,48.9363193],[2.1211815,48.9354064],[2.1195026,48.9348959],[2.119484,48.9348012],[2.1239475,48.9330298],[2.1224538,48.9314062],[2.1232749,48.9312559],[2.1241823,48.9334926],[2.1243987,48.9334318],[2.124783,48.9330403],[2.1248479,48.9330199],[2.125914,48.9321555],[2.1255518,48.9319735],[2.1264945,48.9313604],[2.1265437,48.9313935],[2.1268693,48.931189],[2.1268249,48.9311367],[2.1269711,48.9310169],[2.1272901,48.9312381],[2.1291586,48.9323362],[2.129699,48.9328705],[2.1294836,48.9335486],[2.1292398,48.9340006],[2.1290687,48.9341366],[2.1279089,48.9346285]]]]},"properties":{"code_section":"78396000AK","code_commune":"78396","section_courte":"AK"}},{"type":"Feature","geometry":{"type":"MultiPolygon","coordinates":[[[[2.1243969,48.9334167],[2.1241823,48.9334926],[2.1232749,48.9312559],[2.1224538,48.9314062],[2.120186,48.9289168],[2.118732,48.9280813],[2.1186046,48.9273938],[2.1177613,48.9274302],[2.1177575,48.9274048],[2.1177035,48.9274075],[2.1176111,48.9267034],[2.1178571,48.9267811],[2.1179678,48.9267511],[2.1180618,48.9268041],[2.1181867,48.92678],[2.1183034,48.9266972],[2.1182785,48.9266627],[2.1183957,48.9266305],[2.1184034,48.9266665],[2.1186083,48.9266964],[2.1189645,48.9266099],[2.1189412,48.9265567],[2.1188541,48.9265141],[2.1186539,48.9260529],[2.1187882,48.9260262],[2.1188969,48.9263978],[2.118966,48.9264427],[2.1190981,48.926455],[2.1191433,48.9265365],[2.1190346,48.9265671],[2.1190525,48.926699],[2.1192136,48.9267934],[2.1193017,48.926774],[2.1194014,48.9269496],[2.119658,48.9270252],[2.1196981,48.9270113],[2.1196334,48.9269264],[2.1203631,48.9266926],[2.1202988,48.9265015],[2.1203641,48.9263201],[2.1206522,48.9261724],[2.1207848,48.9261439],[2.1220557,48.9271969],[2.1228927,48.9278129],[2.1238044,48.9285602],[2.1269711,48.9310169],[2.1268249,48.9311367],[2.1268693,48.931189],[2.1265437,48.9313935],[2.1264945,48.9313604],[2.1255518,48.9319735],[2.125914,48.9321555],[2.1248479,48.9330199],[2.124783,48.9330403],[2.1243969,48.9334167]]]]},"properties":{"code_section":"78396000AL","code_commune":"78396","section_courte":"AL"}},{"type":"Feature","geometry":{"type":"MultiPolygon","coordinates":[[[[2.1120796,48.9213152],[2.1125021,48.9213884],[2.1136326,48.9217059],[2.1137495,48.9215162],[2.1140889,48.9212858],[2.1141786,48.9211704],[2.1136887,48.9206175],[2.1142267,48.9204284],[2.1142956,48.9205025],[2.1154198,48.9203095],[2.1160324,48.9212759],[2.1161421,48.9212178],[2.1164217,48.9209389],[2.1177178,48.9219577],[2.1160301,48.9228975],[2.1163856,48.9232233],[2.1168723,48.9235667],[2.1200563,48.9255468],[2.1207848,48.9261439],[2.1206522,48.9261724],[2.1203641,48.9263201],[2.1202988,48.9265015],[2.1203631,48.9266926],[2.1196334,48.9269264],[2.1196981,48.9270113],[2.119658,48.9270252],[2.1194014,48.9269496],[2.1193017,48.926774],[2.1192136,48.9267934],[2.1190525,48.926699],[2.1190346,48.9265671],[2.1191433,48.9265365],[2.1190981,48.926455],[2.118966,48.9264427],[2.1188969,48.9263978],[2.1187882,48.9260262],[2.1186539,48.9260529],[2.1188541,48.9265141],[2.1189412,48.9265567],[2.1189645,48.9266099],[2.1186083,48.9266964],[2.1184034,48.9266665],[2.1183957,48.9266305],[2.1182785,48.9266627],[2.1183034,48.9266972],[2.1181867,48.92678],[2.1180618,48.9268041],[2.1179678,48.9267511],[2.1178571,48.9267811],[2.1176111,48.9267034],[2.1177035,48.9274075],[2.1177575,48.9274048],[2.1177613,48.9274302],[2.1143721,48.9275892],[2.1143646,48.9275456],[2.1142538,48.9275536],[2.1141762,48.9275975],[2.1136008,48.9249219],[2.11408,48.9244238],[2.1142811,48.9244794],[2.1145494,48.9244357],[2.114585,48.9244524],[2.1147136,48.9243353],[2.114659,48.9243119],[2.1146565,48.924203],[2.1145841,48.9241092],[2.1142888,48.9239641],[2.1143313,48.9238477],[2.1143803,48.9238348],[2.1145714,48.9232558],[2.1142819,48.9232412],[2.1143072,48.923132],[2.1131579,48.9230248],[2.1132458,48.9227033],[2.1127291,48.9226498],[2.1112837,48.922415],[2.1112581,48.922367],[2.1107607,48.922274],[2.1096238,48.9221527],[2.1094087,48.9218868],[2.1088103,48.9217072],[2.1090171,48.9213909],[2.1088644,48.9213451],[2.1091776,48.9208397],[2.111873,48.9216503],[2.1120796,48.9213152]]]]},"properties":{"code_section":"78396000AM","code_commune":"78396","section_courte":"AM"}},{"type":"Feature","geometry":{"type":"MultiPolygon","coordinates":[[[[2.1196615,48.9252897],[2.1168723,48.9235667],[2.1163856,48.9232233],[2.1160301,48.9228975],[2.119221,48.9210934],[2.1188216,48.9207626],[2.1188197,48.9207299],[2.1206998,48.9201751],[2.1214413,48.9199196],[2.123327,48.9220095],[2.1245679,48.9232656],[2.1262734,48.9248179],[2.1274196,48.9256255],[2.1266033,48.9261902],[2.1240651,48.9277032],[2.1236374,48.9273721],[2.1229065,48.9278242],[2.1220557,48.9271969],[2.1200563,48.9255468],[2.1196615,48.9252897]]]]},"properties":{"code_section":"78396000AN","code_commune":"78396","section_courte":"AN"}},{"type":"Feature","geometry":{"type":"MultiPolygon","coordinates":[[[[2.111873,48.9216503],[2.1091776,48.9208397],[2.1104037,48.9188698],[2.110028,48.9181287],[2.1095608,48.9179198],[2.1093485,48.9179652],[2.1078297,48.9149064],[2.1079107,48.9148809],[2.1085614,48.9159627],[2.1090208,48.91613],[2.1094017,48.9165346],[2.1115369,48.9156312],[2.1118789,48.9157076],[2.1122289,48.9156715],[2.112277,48.9158247],[2.1125619,48.9162322],[2.1143934,48.9186785],[2.1154198,48.9203095],[2.1142956,48.9205025],[2.1142267,48.9204284],[2.1136887,48.9206175],[2.1141786,48.9211704],[2.1140889,48.9212858],[2.1137495,48.9215162],[2.1136326,48.9217059],[2.1125021,48.9213884],[2.1120796,48.9213152],[2.111873,48.9216503]]]]},"properties":{"code_section":"78396000AP","code_commune":"78396","section_courte":"AP"}},{"type":"Feature","geometry":{"type":"MultiPolygon","coordinates":[[[[2.1049995,48.9076437],[2.1051174,48.9077527],[2.1052406,48.9070373],[2.1058391,48.9071392],[2.1063369,48.9077216],[2.107504,48.9075107],[2.1081271,48.9074779],[2.1099468,48.9101775],[2.1088613,48.910259],[2.1076479,48.9104804],[2.1076823,48.9105983],[2.107644,48.9109338],[2.1078364,48.9116091],[2.1071421,48.9117722],[2.106897,48.9115984],[2.1066715,48.9115491],[2.1064664,48.9112969],[2.1060716,48.9113987],[2.1043078,48.9077923],[2.1049995,48.9076437]]]]},"properties":{"code_section":"78396000AS","code_commune":"78396","section_courte":"AS"}},{"type":"Feature","geometry":{"type":"MultiPolygon","coordinates":[[[[2.1099468,48.9101775],[2.1081507,48.9075123],[2.1084808,48.9074963],[2.1084599,48.9074259],[2.1124132,48.9064366],[2.1124318,48.9064106],[2.1133739,48.9061711],[2.1138907,48.9079365],[2.1145112,48.9095984],[2.1154521,48.9111604],[2.1144935,48.9113217],[2.1110943,48.9117641],[2.1110087,48.9117964],[2.1109645,48.9118614],[2.1105628,48.9120211],[2.1097887,48.9122634],[2.1085592,48.9124383],[2.1080637,48.9124027],[2.1080543,48.9121984],[2.1077519,48.9113905],[2.107644,48.9109338],[2.1076823,48.9105983],[2.1076479,48.9104804],[2.1088613,48.910259],[2.1099468,48.9101775]]]]},"properties":{"code_section":"78396000ZA","code_commune":"78396","section_courte":"ZA"}},{"type":"Feature","geometry":{"type":"MultiPolygon","coordinates":[[[[2.1080637,48.9124027],[2.1085592,48.9124383],[2.1097887,48.9122634],[2.1105628,48.9120211],[2.1109645,48.9118614],[2.1110087,48.9117964],[2.1110943,48.9117641],[2.1144935,48.9113217],[2.1154521,48.9111604],[2.1163456,48.9127136],[2.1172728,48.9140647],[2.1125599,48.9157489],[2.1124551,48.9158049],[2.1124137,48.9159134],[2.112356,48.9159378],[2.1122289,48.9156715],[2.1118789,48.9157076],[2.1115369,48.9156312],[2.1094017,48.9165346],[2.1090208,48.91613],[2.1085614,48.9159627],[2.1079303,48.9148862],[2.1078405,48.9149029],[2.1060716,48.9113987],[2.1064664,48.9112969],[2.1066715,48.9115491],[2.106897,48.9115984],[2.1071421,48.9117722],[2.1078364,48.9116091],[2.1080543,48.9121984],[2.1080637,48.9124027]]]]},"properties":{"code_section":"78396000ZB","code_commune":"78396","section_courte":"ZB"}},{"type":"Feature","geometry":{"type":"MultiPolygon","coordinates":[[[[2.1165088,48.9210176],[2.1164217,48.9209389],[2.1161421,48.9212178],[2.1160324,48.9212759],[2.1143934,48.9186785],[2.1133837,48.917367],[2.112356,48.9159378],[2.1124137,48.9159134],[2.1124551,48.9158049],[2.1125599,48.9157489],[2.1172728,48.9140647],[2.1186943,48.9158174],[2.1207993,48.9188642],[2.1216449,48.9198495],[2.1206998,48.9201751],[2.1188197,48.9207299],[2.1188216,48.9207626],[2.119221,48.9210934],[2.1177178,48.9219577],[2.1165088,48.9210176]]]]},"properties":{"code_section":"78396000ZC","code_commune":"78396","section_courte":"ZC"}}]}