{"type":"FeatureCollection","features":[{"type":"Feature","geometry":{"type":"MultiPolygon","coordinates":[[[[2.1406413,48.9338693],[2.1369955,48.9314376],[2.1357909,48.9308394],[2.1353866,48.9306008],[2.1361486,48.9301783],[2.1404072,48.9273522],[2.1453812,48.9307288],[2.1469227,48.9315618],[2.1468825,48.9317796],[2.1469783,48.931886],[2.1424161,48.9351],[2.1406413,48.9338693]]]]},"properties":{"code_section":"78418000AB","code_commune":"78418","section_courte":"AB"}},{"type":"Feature","geometry":{"type":"MultiPolygon","coordinates":[[[[2.148444,48.9308484],[2.1473192,48.9316557],[2.147125,48.9316607],[2.1453812,48.9307288],[2.1404072,48.9273522],[2.1396851,48.9268964],[2.139708,48.9267683],[2.1420977,48.9252536],[2.1422008,48.9252136],[2.1426005,48.925453],[2.1447804,48.9239682],[2.146415,48.925296],[2.1469187,48.925666],[2.1482365,48.9267757],[2.1484211,48.9268904],[2.1485326,48.9270327],[2.1482583,48.9272373],[2.1482946,48.9273048],[2.1497883,48.9283683],[2.1508309,48.9290244],[2.1508934,48.9291],[2.148444,48.9308484]]]]},"properties":{"code_section":"78418000AC","code_commune":"78418","section_courte":"AC"}},{"type":"Feature","geometry":{"type":"MultiPolygon","coordinates":[[[[2.1532308,48.9275074],[2.1527273,48.927811],[2.150962,48.9290376],[2.1508309,48.9290244],[2.1497883,48.9283683],[2.1482946,48.9273048],[2.1482583,48.9272373],[2.1485326,48.9270327],[2.1484211,48.9268904],[2.1482365,48.9267757],[2.1469187,48.925666],[2.146415,48.925296],[2.1447299,48.9239274],[2.1500955,48.9215207],[2.1504006,48.921697],[2.1542367,48.9247961],[2.1562537,48.9236971],[2.1566751,48.9244241],[2.1567612,48.9255448],[2.156673,48.9256473],[2.1532308,48.9275074]]]]},"properties":{"code_section":"78418000AD","code_commune":"78418","section_courte":"AD"}},{"type":"Feature","geometry":{"type":"MultiPolygon","coordinates":[[[[2.152396,48.9233101],[2.1504006,48.921697],[2.1502178,48.9215699],[2.1500083,48.9214789],[2.1496615,48.9212316],[2.1494762,48.9210272],[2.1494617,48.9208989],[2.1497099,48.9203792],[2.1496462,48.9201101],[2.1497976,48.919976],[2.1506104,48.919524],[2.1531877,48.9179535],[2.1540461,48.9197698],[2.1543216,48.919907],[2.1542442,48.920029],[2.1543075,48.920147],[2.1545415,48.9201807],[2.1546531,48.920072],[2.1553097,48.9203642],[2.1555676,48.9203546],[2.1561535,48.9204178],[2.1578056,48.9205135],[2.1595087,48.9204741],[2.1608632,48.9202943],[2.1608608,48.9203286],[2.1591844,48.921389],[2.1560325,48.923287],[2.156247,48.9236831],[2.1562268,48.9237057],[2.1542367,48.9247961],[2.152396,48.9233101]]]]},"properties":{"code_section":"78418000AE","code_commune":"78418","section_courte":"AE"}},{"type":"Feature","geometry":{"type":"MultiPolygon","coordinates":[[[[2.1574659,48.9204954],[2.1558489,48.9203953],[2.1555676,48.9203546],[2.1553097,48.9203642],[2.1546531,48.920072],[2.1545415,48.9201807],[2.1543075,48.920147],[2.1542442,48.920029],[2.1543216,48.919907],[2.1540461,48.9197698],[2.1532519,48.9180836],[2.1533342,48.9180929],[2.1558852,48.9170958],[2.155854,48.9170597],[2.1565978,48.9167519],[2.1568167,48.916522],[2.1567921,48.9164883],[2.1574151,48.916811],[2.1596206,48.9153932],[2.1602086,48.9150614],[2.1602664,48.9150549],[2.1618615,48.9161595],[2.1631279,48.9171253],[2.1601495,48.9189861],[2.1600922,48.9189909],[2.1594879,48.9193027],[2.1608632,48.9202943],[2.1595087,48.9204741],[2.1578056,48.9205135],[2.1574659,48.9204954]]]]},"properties":{"code_section":"78418000AH","code_commune":"78418","section_courte":"AH"}},{"type":"Feature","geometry":{"type":"MultiPolygon","coordinates":[[[[2.1606435,48.9078173],[2.1611867,48.9081403],[2.1599782,48.9091172],[2.1629417,48.9102677],[2.1616646,48.9117497],[2.1616918,48.9117665],[2.1603319,48.9128545],[2.1603608,48.9128701],[2.1585834,48.9141276],[2.1577177,48.9136468],[2.1551445,48.9119743],[2.1540073,48.9113117],[2.1534717,48.9108404],[2.1527227,48.9099667],[2.152203,48.9087606],[2.1522315,48.9080765],[2.1524016,48.9063742],[2.1526196,48.9062453],[2.152939,48.9059315],[2.1532322,48.9057117],[2.1537878,48.9054225],[2.1557939,48.9063554],[2.1561465,48.9060395],[2.1565049,48.9060714],[2.1580677,48.9067805],[2.1584283,48.9064304],[2.158858,48.9066205],[2.1587162,48.9067503],[2.1592587,48.9070139],[2.1592139,48.9070622],[2.1599115,48.9074071],[2.1606435,48.9078173]]]]},"properties":{"code_section":"78418000AI","code_commune":"78418","section_courte":"AI"}},{"type":"Feature","geometry":{"type":"MultiPolygon","coordinates":[[[[2.148741,48.9184066],[2.1463989,48.9169685],[2.1477763,48.9162162],[2.1478921,48.9161145],[2.147925,48.9161125],[2.1483029,48.9164975],[2.1485929,48.9169175],[2.1495454,48.9164707],[2.1500641,48.9169779],[2.1508475,48.9176625],[2.1514162,48.9172684],[2.1525363,48.9168166],[2.1529149,48.9174363],[2.1529929,48.9174842],[2.1531877,48.9179535],[2.1506104,48.919524],[2.148741,48.9184066]]]]},"properties":{"code_section":"78418000AL","code_commune":"78418","section_courte":"AL"}},{"type":"Feature","geometry":{"type":"MultiPolygon","coordinates":[[[[2.148741,48.9184066],[2.1502955,48.9193172],[2.1505894,48.9195292],[2.1497976,48.919976],[2.1496462,48.9201101],[2.1497099,48.9203792],[2.1494617,48.9208989],[2.1494762,48.9210272],[2.1496615,48.9212316],[2.1500955,48.9215207],[2.1447299,48.9239274],[2.1442721,48.9235506],[2.1439377,48.9233246],[2.1434865,48.9229247],[2.1419542,48.9213606],[2.1418145,48.9211884],[2.1417203,48.9209716],[2.141751,48.9208976],[2.1419641,48.9207367],[2.1419484,48.9206374],[2.1399682,48.9187971],[2.1388564,48.9177071],[2.1389659,48.9176655],[2.1392058,48.9177633],[2.1395375,48.9178478],[2.1437738,48.9185302],[2.1445896,48.9179968],[2.1463989,48.9169685],[2.148741,48.9184066]]]]},"properties":{"code_section":"78418000AM","code_commune":"78418","section_courte":"AM"}},{"type":"Feature","geometry":{"type":"MultiPolygon","coordinates":[[[[2.1430717,48.9225164],[2.1439377,48.9233246],[2.1442721,48.9235506],[2.1447804,48.9239682],[2.1426005,48.925453],[2.1422008,48.9252136],[2.1420977,48.9252536],[2.139708,48.9267683],[2.1395758,48.9268101],[2.1314259,48.9213069],[2.1316638,48.9212598],[2.1350278,48.9193124],[2.1388564,48.9177071],[2.1399682,48.9187971],[2.1419484,48.9206374],[2.1419641,48.9207367],[2.141751,48.9208976],[2.1417234,48.920953],[2.1418145,48.9211884],[2.1430717,48.9225164]]]]},"properties":{"code_section":"78418000AN","code_commune":"78418","section_courte":"AN"}},{"type":"Feature","geometry":{"type":"MultiPolygon","coordinates":[[[[2.1294766,48.9270113],[2.1262239,48.9247874],[2.1273863,48.9240381],[2.1274854,48.9239209],[2.1293468,48.9227398],[2.1294884,48.9227597],[2.1296145,48.922619],[2.1298616,48.9224569],[2.1297326,48.9223527],[2.1300928,48.9220759],[2.1312761,48.9213213],[2.1314259,48.9213069],[2.1395758,48.9268101],[2.139708,48.9267683],[2.1396851,48.9268964],[2.1404072,48.9273522],[2.1361486,48.9301783],[2.1353866,48.9306008],[2.1341024,48.9299055],[2.1320247,48.9287032],[2.1294766,48.9270113]]]]},"properties":{"code_section":"78418000AO","code_commune":"78418","section_courte":"AO"}},{"type":"Feature","geometry":{"type":"MultiPolygon","coordinates":[[[[2.1285215,48.9232643],[2.1274522,48.9239427],[2.1273863,48.9240381],[2.1262239,48.9247874],[2.1257922,48.9242802],[2.1245227,48.9231065],[2.1239188,48.9224902],[2.1247697,48.921991],[2.1271104,48.9208893],[2.12811,48.9215567],[2.1287065,48.9211721],[2.129287,48.9215486],[2.1307332,48.9206479],[2.1314259,48.9213069],[2.1312761,48.9213213],[2.1300928,48.9220759],[2.1297326,48.9223527],[2.1298616,48.9224569],[2.1296145,48.922619],[2.1294884,48.9227597],[2.1293468,48.9227398],[2.1285215,48.9232643]]]]},"properties":{"code_section":"78418000AP","code_commune":"78418","section_courte":"AP"}},{"type":"Feature","geometry":{"type":"MultiPolygon","coordinates":[[[[2.136689,48.9111336],[2.1378017,48.9110328],[2.1397553,48.9106913],[2.1404748,48.9105859],[2.1409964,48.9105487],[2.1414824,48.911868],[2.1427139,48.9119747],[2.1423859,48.9125892],[2.1434896,48.9132297],[2.1430027,48.9138601],[2.1429135,48.9137956],[2.1428504,48.9138352],[2.1429578,48.9139113],[2.1427771,48.9141379],[2.1424087,48.9143543],[2.1423556,48.9143135],[2.141891,48.9143617],[2.1416774,48.9141847],[2.1415546,48.9142262],[2.1413101,48.9140338],[2.1407088,48.9143195],[2.1403854,48.9143153],[2.1400592,48.9140624],[2.1392275,48.9144331],[2.1388544,48.9143922],[2.1387349,48.9142731],[2.1383688,48.9144391],[2.1380332,48.9144391],[2.1380254,48.914419],[2.1378433,48.9144107],[2.1377804,48.9142887],[2.13743,48.9144285],[2.1370935,48.9144379],[2.1369066,48.9141894],[2.1363753,48.9143653],[2.1362499,48.914128],[2.1358141,48.9141817],[2.1358076,48.9144007],[2.135338,48.9143911],[2.1353386,48.9138952],[2.1344193,48.9141443],[2.1340818,48.9139025],[2.1319398,48.9121087],[2.135828,48.9111966],[2.136689,48.9111336]]]]},"properties":{"code_section":"78418000AS","code_commune":"78418","section_courte":"AS"}},{"type":"Feature","geometry":{"type":"MultiPolygon","coordinates":[[[[2.1515687,48.9121252],[2.1507608,48.9123049],[2.1504108,48.9124235],[2.1488973,48.912728],[2.1471772,48.9131178],[2.1465227,48.9120663],[2.1463592,48.9121015],[2.1442357,48.9136315],[2.1441559,48.9136323],[2.1431751,48.9130265],[2.1423915,48.9125981],[2.1427139,48.9119747],[2.1414824,48.911868],[2.1409964,48.9105487],[2.1404748,48.9105859],[2.1404257,48.91056],[2.1403731,48.9098406],[2.1395442,48.9098894],[2.1402191,48.908342],[2.1403974,48.9082521],[2.1422292,48.9084156],[2.1422801,48.9082477],[2.1435925,48.9085606],[2.1438002,48.9082049],[2.1461972,48.9087758],[2.1462544,48.9087272],[2.1483265,48.9091952],[2.148111,48.9097849],[2.1501687,48.9101135],[2.1505405,48.9096163],[2.1519867,48.9104982],[2.1518069,48.9110007],[2.151634,48.9120885],[2.1515687,48.9121252]]]]},"properties":{"code_section":"78418000AT","code_commune":"78418","section_courte":"AT"}},{"type":"Feature","geometry":{"type":"MultiPolygon","coordinates":[[[[2.1453633,48.9038624],[2.1469288,48.9046324],[2.1469761,48.9046808],[2.1469575,48.9047689],[2.1470251,48.9047786],[2.1471402,48.9042167],[2.1474714,48.9043472],[2.1475927,48.9041942],[2.1477456,48.9041794],[2.1484391,48.9043877],[2.1491935,48.904657],[2.1496735,48.9048625],[2.1496682,48.9049009],[2.1496958,48.9048598],[2.1498984,48.9049413],[2.1495918,48.9054537],[2.1502873,48.9057489],[2.1507424,48.9044122],[2.1508178,48.9044138],[2.1522012,48.9050247],[2.152325,48.9050541],[2.1525749,48.9048248],[2.1532904,48.9051017],[2.1538099,48.9053522],[2.1537878,48.9054225],[2.1532322,48.9057117],[2.152939,48.9059315],[2.1526196,48.9062453],[2.1524016,48.9063742],[2.1522315,48.9080765],[2.152203,48.9087606],[2.152571,48.909653],[2.1523103,48.909824],[2.1519867,48.9104982],[2.1505405,48.9096163],[2.1501687,48.9101135],[2.148111,48.9097849],[2.1483265,48.9091952],[2.1462544,48.9087272],[2.1461972,48.9087758],[2.1438002,48.9082049],[2.1435925,48.9085606],[2.1422801,48.9082477],[2.1422292,48.9084156],[2.1403974,48.9082521],[2.1402654,48.908173],[2.1406744,48.9073874],[2.1413845,48.9062089],[2.1425885,48.9044185],[2.1426336,48.9042708],[2.1430302,48.9035662],[2.143541,48.9029817],[2.1453633,48.9038624]]]]},"properties":{"code_section":"78418000AV","code_commune":"78418","section_courte":"AV"}},{"type":"Feature","geometry":{"type":"MultiPolygon","coordinates":[[[[2.1294933,48.9102039],[2.1318365,48.911978],[2.1319425,48.9120606],[2.1319398,48.9121087],[2.1288263,48.9132146],[2.1286424,48.913321],[2.1262319,48.9142752],[2.1247045,48.9149732],[2.1245243,48.9149061],[2.1241118,48.9145567],[2.1189227,48.9098269],[2.1191151,48.909833],[2.1259988,48.907608],[2.1262452,48.9077514],[2.1294933,48.9102039]]]]},"properties":{"code_section":"78418000AX","code_commune":"78418","section_courte":"AX"}},{"type":"Feature","geometry":{"type":"MultiPolygon","coordinates":[[[[2.1169511,48.913432],[2.1160508,48.9120136],[2.1149816,48.9101859],[2.1142183,48.9086249],[2.1151795,48.9083446],[2.1151811,48.908298],[2.1167179,48.9077036],[2.1177824,48.9087908],[2.1241118,48.9145567],[2.1240243,48.9146037],[2.1197985,48.9156549],[2.1195967,48.9156662],[2.1186912,48.9159219],[2.1169511,48.913432]]]]},"properties":{"code_section":"78418000AY","code_commune":"78418","section_courte":"AY"}},{"type":"Feature","geometry":{"type":"MultiPolygon","coordinates":[[[[2.1228011,48.9052417],[2.1258287,48.9076013],[2.1257817,48.907678],[2.1191151,48.909833],[2.1189227,48.9098269],[2.1177824,48.9087908],[2.1167179,48.9077036],[2.1151811,48.908298],[2.1151483,48.9082849],[2.1141595,48.908498],[2.1134131,48.9063277],[2.1131784,48.9058054],[2.11295,48.9054253],[2.1201348,48.9030299],[2.1208055,48.9035649],[2.1208764,48.9037312],[2.1228011,48.9052417]]]]},"properties":{"code_section":"78418000AZ","code_commune":"78418","section_courte":"AZ"}},{"type":"Feature","geometry":{"type":"MultiPolygon","coordinates":[[[[2.1546939,48.9117002],[2.1569016,48.9131251],[2.156873,48.913147],[2.1560595,48.9133995],[2.1559248,48.9132109],[2.1555546,48.9133267],[2.1555251,48.9132887],[2.1552942,48.9133585],[2.1552403,48.913273],[2.1539677,48.9136526],[2.1523868,48.9135032],[2.1519051,48.9125337],[2.1516772,48.9121946],[2.1516949,48.9126747],[2.1517754,48.9129387],[2.1520455,48.9134714],[2.1509007,48.9137789],[2.1497444,48.9139535],[2.1496064,48.9137702],[2.1494228,48.9138269],[2.149526,48.9139759],[2.1493373,48.9140311],[2.1492206,48.9138621],[2.1491273,48.9138897],[2.1491655,48.9139478],[2.148991,48.9140009],[2.1489651,48.9139625],[2.1486487,48.9140438],[2.1485329,48.9139253],[2.1483373,48.9139665],[2.1483841,48.9140154],[2.1483039,48.9140517],[2.1466554,48.9141498],[2.1463246,48.9138323],[2.1456743,48.914222],[2.1439774,48.9143141],[2.1436691,48.9140928],[2.1436889,48.9140185],[2.1463592,48.9121015],[2.1465227,48.9120663],[2.1471772,48.9131178],[2.1488973,48.912728],[2.1504108,48.9124235],[2.1507608,48.9123049],[2.1515687,48.9121252],[2.151634,48.9120885],[2.1518069,48.9110007],[2.1519867,48.9104982],[2.1523103,48.909824],[2.152571,48.909653],[2.1527227,48.9099667],[2.1534717,48.9108404],[2.1540073,48.9113117],[2.1543329,48.9115224],[2.1546939,48.9117002]]]]},"properties":{"code_section":"78418000BA","code_commune":"78418","section_courte":"BA"}},{"type":"Feature","geometry":{"type":"MultiPolygon","coordinates":[[[[2.1233992,48.9217947],[2.1207016,48.9187368],[2.1197242,48.9173412],[2.1188475,48.9160054],[2.1186912,48.9159219],[2.1195967,48.9156662],[2.1197985,48.9156549],[2.1240243,48.9146037],[2.1241118,48.9145567],[2.1245243,48.9149061],[2.1247045,48.9149732],[2.1253637,48.9156056],[2.1252163,48.9156677],[2.1275954,48.917885],[2.1277102,48.917872],[2.1307332,48.9206479],[2.129287,48.9215486],[2.1287065,48.9211721],[2.12811,48.9215567],[2.1271104,48.9208893],[2.1247697,48.921991],[2.1239188,48.9224902],[2.1233992,48.9217947]]]]},"properties":{"code_section":"78418000ZA","code_commune":"78418","section_courte":"ZA"}},{"type":"Feature","geometry":{"type":"MultiPolygon","coordinates":[[[[2.1339191,48.9182623],[2.1350083,48.9192194],[2.1350278,48.9193124],[2.1316638,48.9212598],[2.1314259,48.9213069],[2.1277102,48.917872],[2.1275954,48.917885],[2.1252163,48.9156677],[2.1253637,48.9156056],[2.1247045,48.9149732],[2.1270732,48.9139212],[2.1286424,48.913321],[2.1287931,48.9133613],[2.1301065,48.9147493],[2.1300914,48.9147832],[2.1315374,48.9165309],[2.1317946,48.9164527],[2.1339191,48.9182623]]]]},"properties":{"code_section":"78418000ZB","code_commune":"78418","section_courte":"ZB"}},{"type":"Feature","geometry":{"type":"MultiPolygon","coordinates":[[[[2.1335973,48.9179818],[2.1317946,48.9164527],[2.1315374,48.9165309],[2.1300914,48.9147832],[2.1301065,48.9147493],[2.1287931,48.9133613],[2.1286424,48.913321],[2.1288263,48.9132146],[2.1319398,48.9121087],[2.1340818,48.9139025],[2.1344724,48.9141663],[2.1358445,48.9158301],[2.1369925,48.9169324],[2.1381329,48.9179334],[2.1382703,48.9179573],[2.1350278,48.9193124],[2.1350083,48.9192194],[2.1335973,48.9179818]]]]},"properties":{"code_section":"78418000ZC","code_commune":"78418","section_courte":"ZC"}},{"type":"Feature","geometry":{"type":"MultiPolygon","coordinates":[[[[2.1362698,48.9162233],[2.1358445,48.9158301],[2.1344356,48.9141507],[2.1353386,48.9138952],[2.135338,48.9143911],[2.1358076,48.9144007],[2.1358141,48.9141817],[2.1362499,48.914128],[2.1363753,48.9143653],[2.1369066,48.9141894],[2.1370935,48.9144379],[2.13743,48.9144285],[2.1377804,48.9142887],[2.1378433,48.9144107],[2.1380254,48.914419],[2.1380332,48.9144391],[2.1383688,48.9144391],[2.1387349,48.9142731],[2.1388544,48.9143922],[2.1392275,48.9144331],[2.1400592,48.9140624],[2.1403854,48.9143153],[2.1407088,48.9143195],[2.1413101,48.9140338],[2.1415546,48.9142262],[2.1416774,48.9141847],[2.141891,48.9143617],[2.1423556,48.9143135],[2.1424087,48.9143543],[2.1427771,48.9141379],[2.1429578,48.9139113],[2.1428504,48.9138352],[2.1429135,48.9137956],[2.1430027,48.9138601],[2.1434896,48.9132297],[2.1441559,48.9136323],[2.1442357,48.9136315],[2.1436889,48.9140185],[2.1435279,48.9148138],[2.1453152,48.9162189],[2.1460949,48.9167917],[2.1463989,48.9169685],[2.1445896,48.9179968],[2.1437738,48.9185302],[2.1395375,48.9178478],[2.1392058,48.9177633],[2.1389659,48.9176655],[2.1382703,48.9179573],[2.1381329,48.9179334],[2.1369925,48.9169324],[2.1362698,48.9162233]]]]},"properties":{"code_section":"78418000ZD","code_commune":"78418","section_courte":"ZD"}},{"type":"Feature","geometry":{"type":"MultiPolygon","coordinates":[[[[2.1525947,48.9157247],[2.1527264,48.9167731],[2.1529149,48.9174363],[2.1525245,48.91681],[2.1514162,48.9172684],[2.1508475,48.9176625],[2.1500641,48.9169779],[2.1495454,48.9164707],[2.1485929,48.9169175],[2.1483029,48.9164975],[2.147925,48.9161125],[2.1463989,48.9169685],[2.1460949,48.9167917],[2.1453152,48.9162189],[2.1435279,48.9148138],[2.1436691,48.9140928],[2.1439774,48.9143141],[2.1456743,48.914222],[2.1463246,48.9138323],[2.1466554,48.9141498],[2.1483039,48.9140517],[2.1483841,48.9140154],[2.1483373,48.9139665],[2.1485329,48.9139253],[2.1486487,48.9140438],[2.1489651,48.9139625],[2.148991,48.9140009],[2.1491655,48.9139478],[2.1491273,48.9138897],[2.1492206,48.9138621],[2.1493373,48.9140311],[2.149526,48.9139759],[2.1494228,48.9138269],[2.1495999,48.9137712],[2.1497444,48.9139535],[2.1509007,48.9137789],[2.1519744,48.9134989],[2.1521922,48.9147083],[2.1522759,48.9147633],[2.1525947,48.9157247]]]]},"properties":{"code_section":"78418000ZE","code_commune":"78418","section_courte":"ZE"}},{"type":"Feature","geometry":{"type":"MultiPolygon","coordinates":[[[[2.1595586,48.9146605],[2.1600667,48.9149525],[2.1600715,48.915049],[2.1601689,48.9150846],[2.1596206,48.9153932],[2.1574151,48.916811],[2.1567921,48.9164883],[2.1568167,48.916522],[2.1565978,48.9167519],[2.155854,48.9170597],[2.1558852,48.9170958],[2.1533342,48.9180929],[2.1532519,48.9180836],[2.1529929,48.9174842],[2.1529241,48.9174331],[2.1527264,48.9167731],[2.1525947,48.9157247],[2.1522759,48.9147633],[2.1521922,48.9147083],[2.1519744,48.9134989],[2.1520455,48.9134714],[2.1517754,48.9129387],[2.1516949,48.9126747],[2.1516772,48.9121946],[2.1519051,48.9125337],[2.1523868,48.9135032],[2.1539677,48.9136526],[2.1552403,48.913273],[2.1552942,48.9133585],[2.1555251,48.9132887],[2.1555546,48.9133267],[2.1559248,48.9132109],[2.1560595,48.9133995],[2.1569016,48.9131251],[2.1577177,48.9136468],[2.1595586,48.9146605]]]]},"properties":{"code_section":"78418000ZH","code_commune":"78418","section_courte":"ZH"}}]}