{"type":"FeatureCollection","features":[{"type":"Feature","geometry":{"type":"MultiPolygon","coordinates":[[[[2.0222755,48.7653512],[2.0212537,48.7656102],[2.021096,48.765609],[2.0198626,48.7658427],[2.0192004,48.7650539],[2.0194224,48.7649255],[2.0186497,48.7642048],[2.0175596,48.7640935],[2.0173786,48.7639869],[2.0167399,48.7633858],[2.0157539,48.7634932],[2.0156923,48.7635364],[2.0149347,48.7636079],[2.0142615,48.7641569],[2.014096,48.7642433],[2.01236,48.7646946],[2.0116088,48.7649361],[2.0111628,48.7649541],[2.0109745,48.7649298],[2.0106376,48.7648174],[2.0102661,48.7649467],[2.009956,48.7650975],[2.0090369,48.7653717],[2.0084614,48.7655041],[2.0081139,48.7647823],[2.0078469,48.7645854],[2.0072578,48.7636537],[2.0073468,48.7635824],[2.0082769,48.7633151],[2.0086249,48.7631862],[2.0098728,48.7627005],[2.0100067,48.7626002],[2.0113551,48.7621063],[2.0110601,48.7618778],[2.0110927,48.761859],[2.011244,48.7619371],[2.0113341,48.7619134],[2.0114035,48.7617126],[2.0114749,48.7616263],[2.0115711,48.7615834],[2.0115506,48.761529],[2.0117534,48.7612726],[2.0119625,48.7611675],[2.0121113,48.7611416],[2.012174,48.7610103],[2.0123821,48.7609427],[2.0124542,48.7608558],[2.0123281,48.7608391],[2.0123124,48.760813],[2.0124004,48.7607956],[2.0123869,48.7607315],[2.0124814,48.7607194],[2.0124327,48.7606771],[2.0124586,48.7606535],[2.0125689,48.760638],[2.012642,48.760588],[2.012887,48.760532],[2.0133431,48.7606058],[2.013702,48.760563],[2.0142176,48.7604551],[2.0146801,48.7602926],[2.0160513,48.7599653],[2.0163411,48.7599485],[2.0164478,48.7598599],[2.0167864,48.7597108],[2.0171408,48.7596991],[2.0172649,48.7596582],[2.017481,48.7594236],[2.0179459,48.7593686],[2.0186528,48.7596133],[2.0190707,48.7593992],[2.0196378,48.759301],[2.0200448,48.7591901],[2.0209172,48.7587931],[2.0211454,48.75866],[2.0215593,48.7580371],[2.0216923,48.7576309],[2.0219885,48.7573777],[2.022193,48.7572839],[2.0232785,48.7563634],[2.0236933,48.7561878],[2.0256176,48.7558419],[2.0260331,48.7576703],[2.0270147,48.7590909],[2.0272262,48.7594952],[2.0271952,48.7602082],[2.0272898,48.76093],[2.0273483,48.7621835],[2.0276898,48.7635653],[2.0272116,48.76363],[2.0267126,48.7637999],[2.0262489,48.764067],[2.0260595,48.7642179],[2.0257286,48.7643153],[2.0251336,48.7643886],[2.0245362,48.7645108],[2.0222755,48.7653512]]]]},"properties":{"code_section":"784230000C","code_commune":"78423","section_courte":"C"}},{"type":"Feature","geometry":{"type":"MultiPolygon","coordinates":[[[[2.0442721,48.7907131],[2.0432463,48.7903422],[2.0429705,48.7904016],[2.042853,48.7902136],[2.0424756,48.7903165],[2.0421803,48.7898439],[2.0423979,48.7897844],[2.0424153,48.7897117],[2.0420523,48.7897612],[2.0440431,48.7880134],[2.0473783,48.7894493],[2.0491133,48.7879337],[2.0489826,48.7879283],[2.0480083,48.7862624],[2.0502883,48.7874006],[2.0483828,48.7890527],[2.0522339,48.7911145],[2.0522393,48.7914028],[2.0520706,48.7913216],[2.0519017,48.7917992],[2.0518439,48.7917965],[2.0525024,48.7926475],[2.0530003,48.7936053],[2.051278,48.7929926],[2.0504592,48.7925838],[2.0503413,48.7926867],[2.0501305,48.7926189],[2.0500468,48.7926915],[2.049877,48.7926853],[2.0497001,48.7924805],[2.0493337,48.7923626],[2.0491777,48.7921323],[2.0489385,48.791975],[2.0486411,48.7919387],[2.0485858,48.7918089],[2.0478715,48.7918894],[2.0474382,48.791744],[2.0465999,48.7918631],[2.0463885,48.7918223],[2.0461918,48.791636],[2.0459539,48.7912734],[2.0442721,48.7907131]]]]},"properties":{"code_section":"78423000AB","code_commune":"78423","section_courte":"AB"}},{"type":"Feature","geometry":{"type":"MultiPolygon","coordinates":[[[[2.0402394,48.785689],[2.0404772,48.785813],[2.0411246,48.7852463],[2.0425676,48.7859621],[2.0430634,48.7855257],[2.0437096,48.7858436],[2.044668,48.7849961],[2.0447308,48.7850263],[2.0448571,48.7849173],[2.0450255,48.7849018],[2.0452047,48.7849259],[2.0452343,48.7848984],[2.0460605,48.7853052],[2.0469388,48.7845309],[2.0471254,48.7848404],[2.0464061,48.785474],[2.0480083,48.7862624],[2.0489826,48.7879283],[2.0491133,48.7879337],[2.0473783,48.7894493],[2.0440431,48.7880134],[2.0420523,48.7897612],[2.0421767,48.7899566],[2.0394782,48.7890313],[2.0389709,48.7888731],[2.0387893,48.7888608],[2.0387165,48.7887916],[2.038603,48.7887562],[2.0384631,48.7885531],[2.0383801,48.7884973],[2.0382769,48.7884941],[2.038069,48.7885633],[2.0380893,48.7885889],[2.0371453,48.7881906],[2.0359605,48.7865132],[2.0369197,48.7861135],[2.0381192,48.7854553],[2.038577,48.7856544],[2.0390376,48.7851333],[2.0393801,48.7852597],[2.0402394,48.785689]]]]},"properties":{"code_section":"78423000AC","code_commune":"78423","section_courte":"AC"}},{"type":"Feature","geometry":{"type":"MultiPolygon","coordinates":[[[[2.0387375,48.7827398],[2.038708,48.7828137],[2.0389054,48.7828467],[2.0390727,48.782931],[2.0396214,48.7826291],[2.0403256,48.7824012],[2.0409596,48.7822589],[2.040171,48.7810168],[2.0432602,48.7801568],[2.0465753,48.7818065],[2.0468624,48.7830776],[2.0483634,48.7837474],[2.0471254,48.7848404],[2.0469388,48.7845309],[2.0460605,48.7853052],[2.0452343,48.7848984],[2.0452047,48.7849259],[2.0450255,48.7849018],[2.0448571,48.7849173],[2.0447308,48.7850263],[2.044668,48.7849961],[2.0437096,48.7858436],[2.0430634,48.7855257],[2.0425676,48.7859621],[2.0411246,48.7852463],[2.0404772,48.785813],[2.0393801,48.7852597],[2.0386113,48.7849513],[2.0363678,48.7838534],[2.0370508,48.783564],[2.0375758,48.7834035],[2.0368487,48.7830774],[2.0372243,48.782671],[2.0372377,48.7825156],[2.0372935,48.7824328],[2.0372359,48.7822509],[2.0373129,48.7821762],[2.0375753,48.7821864],[2.0375781,48.7821377],[2.037874,48.7821526],[2.0380026,48.7821107],[2.0380574,48.7821505],[2.0381965,48.7821755],[2.0381655,48.7822513],[2.038318,48.7822764],[2.0382377,48.7824756],[2.0384272,48.7825094],[2.0383962,48.7825802],[2.038545,48.7826113],[2.0385111,48.7826995],[2.0387375,48.7827398]]]]},"properties":{"code_section":"78423000AD","code_commune":"78423","section_courte":"AD"}},{"type":"Feature","geometry":{"type":"MultiPolygon","coordinates":[[[[2.0354049,48.7824845],[2.0351554,48.7823842],[2.0350984,48.7822366],[2.0326727,48.781493],[2.0317499,48.7802935],[2.0316171,48.7803379],[2.0311298,48.7797972],[2.0302224,48.778984],[2.0302671,48.7789446],[2.0301961,48.7789076],[2.0304803,48.7786207],[2.0311755,48.7782443],[2.031478,48.7781609],[2.0314297,48.7780774],[2.0343449,48.7772653],[2.0351589,48.7771231],[2.0370909,48.7765867],[2.0373789,48.7766229],[2.0391278,48.7793738],[2.0388659,48.7794464],[2.0388278,48.7795518],[2.0381336,48.7797426],[2.0378753,48.7799977],[2.037605,48.780072],[2.0374011,48.7800762],[2.0370246,48.7799364],[2.0368299,48.7799262],[2.0368039,48.7801506],[2.0368783,48.7802626],[2.0368217,48.7806671],[2.0367766,48.780679],[2.0367556,48.7808492],[2.0369183,48.7808594],[2.0370262,48.7810147],[2.0372224,48.7810866],[2.0369604,48.7812249],[2.0367827,48.7809728],[2.036694,48.7809655],[2.0365985,48.7808287],[2.036058,48.7805931],[2.0357643,48.780596],[2.0354981,48.7806775],[2.035446,48.7807262],[2.0356117,48.7808393],[2.0359983,48.7813659],[2.0359653,48.7815766],[2.0356713,48.7819363],[2.0359024,48.7820352],[2.0359279,48.7821361],[2.0356267,48.7824378],[2.0354049,48.7824845]]]]},"properties":{"code_section":"78423000AH","code_commune":"78423","section_courte":"AH"}},{"type":"Feature","geometry":{"type":"MultiPolygon","coordinates":[[[[2.0404895,48.7823623],[2.0396214,48.7826291],[2.0390727,48.782931],[2.0389054,48.7828467],[2.038708,48.7828137],[2.0387375,48.7827398],[2.0385111,48.7826995],[2.038545,48.7826113],[2.0383962,48.7825802],[2.0384272,48.7825094],[2.0382377,48.7824756],[2.038318,48.7822764],[2.0381655,48.7822513],[2.0381965,48.7821755],[2.0380574,48.7821505],[2.0380026,48.7821107],[2.037874,48.7821526],[2.0375781,48.7821377],[2.0375753,48.7821864],[2.0373129,48.7821762],[2.0372359,48.7822509],[2.0372935,48.7824328],[2.0372377,48.7825156],[2.0372243,48.782671],[2.0368487,48.7830774],[2.0354337,48.7824961],[2.0356267,48.7824378],[2.0359305,48.7821311],[2.035897,48.7820311],[2.0356713,48.7819363],[2.0359653,48.7815766],[2.0359983,48.7813659],[2.0356117,48.7808393],[2.035446,48.7807262],[2.0354981,48.7806775],[2.0357643,48.780596],[2.036058,48.7805931],[2.0365985,48.7808287],[2.036694,48.7809655],[2.0367827,48.7809728],[2.0369604,48.7812249],[2.0372224,48.7810866],[2.0370262,48.7810147],[2.0369183,48.7808594],[2.0367556,48.7808492],[2.0367766,48.780679],[2.0368217,48.7806671],[2.0368783,48.7802626],[2.0368039,48.7801506],[2.0368299,48.7799262],[2.0370246,48.7799364],[2.0374011,48.7800762],[2.037605,48.780072],[2.0378753,48.7799977],[2.0381336,48.7797426],[2.0388278,48.7795518],[2.0388659,48.7794464],[2.0391278,48.7793738],[2.0409596,48.7822589],[2.0404895,48.7823623]]]]},"properties":{"code_section":"78423000AI","code_commune":"78423","section_courte":"AI"}},{"type":"Feature","geometry":{"type":"MultiPolygon","coordinates":[[[[2.0403526,48.7809622],[2.040171,48.7810168],[2.0373789,48.7766229],[2.0370909,48.7765867],[2.0367491,48.775953],[2.0369503,48.7758004],[2.0372141,48.7757809],[2.0373968,48.7758214],[2.0382572,48.7755763],[2.0387225,48.7754955],[2.0391003,48.7753912],[2.03912,48.7754221],[2.0411706,48.7748258],[2.0413937,48.7746497],[2.0418446,48.7745547],[2.0438945,48.7740007],[2.0439659,48.7743352],[2.0456649,48.7738595],[2.0461088,48.7745432],[2.0461574,48.7746836],[2.0459029,48.7755572],[2.0459012,48.7757079],[2.0466359,48.7769023],[2.0466598,48.7770609],[2.0465958,48.7772144],[2.0432602,48.7801568],[2.0403526,48.7809622]]]]},"properties":{"code_section":"78423000AK","code_commune":"78423","section_courte":"AK"}},{"type":"Feature","geometry":{"type":"MultiPolygon","coordinates":[[[[2.0271913,48.7777814],[2.0274953,48.7783606],[2.0272976,48.7784295],[2.0274097,48.778789],[2.0268285,48.7787559],[2.0264626,48.7788185],[2.0254814,48.7798116],[2.0233918,48.7792794],[2.0217765,48.7787802],[2.0210261,48.7786036],[2.0206896,48.7785644],[2.0174928,48.7776091],[2.0174065,48.7775134],[2.0174196,48.7771276],[2.0158613,48.7754891],[2.0162077,48.7753452],[2.0162372,48.7752504],[2.0175777,48.7746845],[2.0193285,48.7758258],[2.0197174,48.7760457],[2.0208315,48.7765893],[2.0217878,48.7769745],[2.0228057,48.7756154],[2.0263752,48.7772507],[2.0264211,48.7771858],[2.0266134,48.7772927],[2.0271913,48.7777814]]]]},"properties":{"code_section":"78423000AL","code_commune":"78423","section_courte":"AL"}},{"type":"Feature","geometry":{"type":"MultiPolygon","coordinates":[[[[2.0143709,48.7716178],[2.0161997,48.7725646],[2.0199189,48.7743353],[2.0228057,48.7756154],[2.0217878,48.7769745],[2.0208315,48.7765893],[2.0197174,48.7760457],[2.0193285,48.7758258],[2.0175777,48.7746845],[2.0162372,48.7752504],[2.0162077,48.7753452],[2.0158613,48.7754891],[2.0174196,48.7771276],[2.0174065,48.7775134],[2.0174599,48.7775927],[2.0170124,48.7774505],[2.0169785,48.7773924],[2.0165271,48.7772132],[2.0143772,48.7764803],[2.0110259,48.7755812],[2.0136442,48.7734525],[2.0135247,48.7733354],[2.0136955,48.7732543],[2.0125339,48.7720841],[2.0143091,48.7715856],[2.0143709,48.7716178]]]]},"properties":{"code_section":"78423000AM","code_commune":"78423","section_courte":"AM"}},{"type":"Feature","geometry":{"type":"MultiPolygon","coordinates":[[[[2.0302874,48.7761277],[2.0311669,48.7775491],[2.0305895,48.7777583],[2.0302493,48.7778288],[2.0298646,48.7778684],[2.0294307,48.7778621],[2.0287256,48.7776423],[2.0279549,48.7773154],[2.0272955,48.7779801],[2.0271913,48.7777814],[2.0266134,48.7772927],[2.0264211,48.7771858],[2.0263752,48.7772507],[2.0226039,48.7755231],[2.0206398,48.7746667],[2.0252895,48.7736209],[2.0251231,48.7732921],[2.026274,48.7730039],[2.0262065,48.7728888],[2.0265204,48.7728069],[2.0266155,48.7729141],[2.0267901,48.7732614],[2.0268436,48.7732535],[2.0269977,48.7735932],[2.0273469,48.7735075],[2.027391,48.7735865],[2.0279394,48.773493],[2.0279634,48.7738077],[2.0303081,48.7733923],[2.0308189,48.773329],[2.0310228,48.7733334],[2.0316,48.7732508],[2.0321604,48.7730649],[2.0321505,48.7731273],[2.0324848,48.7735745],[2.0324923,48.7736659],[2.0328662,48.7741541],[2.0334581,48.7745236],[2.0335911,48.7746551],[2.0302692,48.7760144],[2.0302874,48.7761277]]]]},"properties":{"code_section":"78423000AN","code_commune":"78423","section_courte":"AN"}},{"type":"Feature","geometry":{"type":"MultiPolygon","coordinates":[[[[2.0405854,48.7732072],[2.0414411,48.7744942],[2.0413138,48.7745318],[2.0413937,48.7746497],[2.0411706,48.7748258],[2.03912,48.7754221],[2.0391003,48.7753912],[2.0387225,48.7754955],[2.0382572,48.7755763],[2.0373968,48.7758214],[2.0372141,48.7757809],[2.0369503,48.7758004],[2.0367491,48.775953],[2.0370909,48.7765867],[2.0351589,48.7771231],[2.0343449,48.7772653],[2.0314297,48.7780774],[2.0311669,48.7775491],[2.0303299,48.7762322],[2.0302692,48.7760144],[2.0361636,48.7736129],[2.0363148,48.7736983],[2.0364868,48.7736715],[2.040238,48.7726218],[2.0405854,48.7732072]]]]},"properties":{"code_section":"78423000AO","code_commune":"78423","section_courte":"AO"}},{"type":"Feature","geometry":{"type":"MultiPolygon","coordinates":[[[[2.0404657,48.7700217],[2.041773,48.7694759],[2.0419515,48.7694906],[2.0425407,48.7700996],[2.0423738,48.7700746],[2.0438131,48.7715997],[2.043286,48.771764],[2.0433176,48.7718482],[2.0439235,48.7716832],[2.0474497,48.7702108],[2.0489992,48.7718424],[2.0496032,48.7727596],[2.0439659,48.7743352],[2.0438945,48.7740007],[2.0418446,48.7745547],[2.0413937,48.7746497],[2.0413138,48.7745318],[2.0414411,48.7744942],[2.0388348,48.7704963],[2.0404657,48.7700217]]]]},"properties":{"code_section":"78423000AP","code_commune":"78423","section_courte":"AP"}},{"type":"Feature","geometry":{"type":"MultiPolygon","coordinates":[[[[2.040671,48.7683223],[2.0401258,48.7677144],[2.0423649,48.7667723],[2.0423134,48.7667237],[2.042621,48.7665744],[2.0427455,48.7665634],[2.0428458,48.766716],[2.0457665,48.7655065],[2.0495043,48.7694171],[2.0492849,48.7694476],[2.0439235,48.7716832],[2.0433176,48.7718482],[2.043286,48.771764],[2.0438131,48.7715997],[2.0423738,48.7700746],[2.0425407,48.7700996],[2.0419515,48.7694906],[2.041773,48.7694759],[2.0405079,48.7700069],[2.0401865,48.7701065],[2.0400188,48.7700959],[2.0399185,48.7700286],[2.0391824,48.7689061],[2.0394441,48.7688313],[2.040671,48.7683223]]]]},"properties":{"code_section":"78423000AR","code_commune":"78423","section_courte":"AR"}},{"type":"Feature","geometry":{"type":"MultiPolygon","coordinates":[[[[2.0404667,48.7684054],[2.0394441,48.7688313],[2.0381441,48.769203],[2.0367057,48.7670325],[2.0366454,48.7668381],[2.03652,48.7668684],[2.0356519,48.7655262],[2.0354675,48.765357],[2.0351864,48.765248],[2.034953,48.765213],[2.0349718,48.7651775],[2.0348452,48.7651439],[2.0347731,48.7650672],[2.034821,48.7649384],[2.0364067,48.7638119],[2.0386762,48.7662105],[2.0387952,48.7662991],[2.0390383,48.7662054],[2.0403888,48.7653812],[2.0404857,48.7653336],[2.0405366,48.7653792],[2.0408771,48.7652106],[2.0419616,48.7663492],[2.0420372,48.7663287],[2.042062,48.766356],[2.0423713,48.7662414],[2.0426745,48.7665623],[2.0423134,48.7667237],[2.0423649,48.7667723],[2.0401258,48.7677144],[2.040671,48.7683223],[2.0404667,48.7684054]]]]},"properties":{"code_section":"78423000AS","code_commune":"78423","section_courte":"AS"}},{"type":"Feature","geometry":{"type":"MultiPolygon","coordinates":[[[[2.0390383,48.7662054],[2.0387952,48.7662991],[2.0386762,48.7662105],[2.0364067,48.7638119],[2.0348023,48.7649547],[2.0347672,48.7650267],[2.0347921,48.7651005],[2.0348616,48.7651522],[2.0349718,48.7651775],[2.0349268,48.7652635],[2.0346451,48.7652979],[2.0342478,48.7654958],[2.0339138,48.7651668],[2.0336129,48.7653436],[2.0329874,48.7656219],[2.0323186,48.7658396],[2.0316031,48.7659896],[2.0308729,48.7660754],[2.0301108,48.7660861],[2.029358,48.7660376],[2.0291853,48.7659154],[2.0290651,48.7659213],[2.0288727,48.7644074],[2.0292481,48.7641268],[2.0292455,48.7640493],[2.0291806,48.764039],[2.0288887,48.7638504],[2.0285608,48.7615001],[2.0299281,48.7614161],[2.0293696,48.7607623],[2.0326513,48.7605588],[2.0327505,48.7612676],[2.0349028,48.7611291],[2.0349405,48.7614533],[2.0348925,48.7614532],[2.0348993,48.7618482],[2.0373347,48.7616988],[2.0373345,48.7617305],[2.0374292,48.7617248],[2.0374736,48.7617991],[2.0377066,48.7617433],[2.0390249,48.763952],[2.0391741,48.7640922],[2.0397649,48.7639712],[2.0403568,48.764566],[2.0398759,48.764752],[2.0404857,48.7653336],[2.0390383,48.7662054]]]]},"properties":{"code_section":"78423000AT","code_commune":"78423","section_courte":"AT"}},{"type":"Feature","geometry":{"type":"MultiPolygon","coordinates":[[[[2.0286993,48.7659736],[2.0266548,48.7657913],[2.0262447,48.765773],[2.0255848,48.7658077],[2.0253043,48.765846],[2.02462,48.7660125],[2.0232287,48.7664563],[2.0231476,48.7663369],[2.0219698,48.7667437],[2.021725,48.7665137],[2.0214609,48.7661356],[2.0212537,48.7656102],[2.0222755,48.7653512],[2.0245362,48.7645108],[2.0251336,48.7643886],[2.0257286,48.7643153],[2.0260595,48.7642179],[2.0262489,48.764067],[2.0267126,48.7637999],[2.0272116,48.76363],[2.0276898,48.7635653],[2.0273483,48.7621835],[2.0272898,48.76093],[2.0271952,48.7602082],[2.0283833,48.7601597],[2.0284414,48.7600029],[2.0285349,48.7599024],[2.0290185,48.7604463],[2.0292884,48.7606671],[2.0299281,48.7614161],[2.0285608,48.7615001],[2.0288887,48.7638504],[2.0291806,48.764039],[2.0292455,48.7640493],[2.0292481,48.7641268],[2.0288727,48.7644074],[2.0290651,48.7659213],[2.0286993,48.7659736]]]]},"properties":{"code_section":"78423000AV","code_commune":"78423","section_courte":"AV"}},{"type":"Feature","geometry":{"type":"MultiPolygon","coordinates":[[[[2.0167089,48.7666777],[2.0157838,48.766223],[2.0152618,48.7660148],[2.0146268,48.7658586],[2.0139078,48.7657736],[2.0131753,48.7657844],[2.0123284,48.7659217],[2.0114751,48.7662008],[2.0095702,48.7669046],[2.0093165,48.7669235],[2.0090537,48.7668535],[2.0087322,48.7664878],[2.0080064,48.7664286],[2.0076823,48.7666334],[2.0072899,48.7662438],[2.0086078,48.7657654],[2.0084614,48.7655041],[2.0090369,48.7653717],[2.009956,48.7650975],[2.0102661,48.7649467],[2.0106376,48.7648174],[2.0109745,48.7649298],[2.0111628,48.7649541],[2.0116088,48.7649361],[2.01236,48.7646946],[2.014096,48.7642433],[2.0142615,48.7641569],[2.0149347,48.7636079],[2.0156923,48.7635364],[2.0157539,48.7634932],[2.0167399,48.7633858],[2.0173786,48.7639869],[2.0175596,48.7640935],[2.0186497,48.7642048],[2.0194224,48.7649255],[2.0192004,48.7650539],[2.0198626,48.7658427],[2.0199553,48.7658245],[2.0198044,48.766188],[2.0192226,48.766082],[2.01801,48.7658007],[2.0177223,48.7663949],[2.0177213,48.7665478],[2.0174654,48.767019],[2.0175394,48.7670481],[2.0174778,48.767183],[2.0165696,48.7667756],[2.0167089,48.7666777]]]]},"properties":{"code_section":"78423000AW","code_commune":"78423","section_courte":"AW"}},{"type":"Feature","geometry":{"type":"MultiPolygon","coordinates":[[[[2.0167089,48.7666777],[2.0165696,48.7667756],[2.0174778,48.767183],[2.0157814,48.7705706],[2.0158038,48.7707265],[2.0161783,48.7711804],[2.0143709,48.7716178],[2.0112724,48.7698675],[2.0101838,48.7691815],[2.0086203,48.7685944],[2.0070445,48.7671659],[2.0076823,48.7666334],[2.0080064,48.7664286],[2.0087322,48.7664878],[2.0090537,48.7668535],[2.0093165,48.7669235],[2.0095702,48.7669046],[2.0121057,48.7659887],[2.0126477,48.7658561],[2.0133023,48.7657749],[2.014194,48.765794],[2.0150332,48.7659492],[2.0157838,48.766223],[2.0167089,48.7666777]]]]},"properties":{"code_section":"78423000AX","code_commune":"78423","section_courte":"AX"}},{"type":"Feature","geometry":{"type":"MultiPolygon","coordinates":[[[[2.016334,48.7711397],[2.0161783,48.7711804],[2.0158038,48.7707265],[2.0157814,48.7705706],[2.0174778,48.767183],[2.0175394,48.7670481],[2.0174654,48.767019],[2.0177213,48.7665478],[2.0177223,48.7663949],[2.01801,48.7658007],[2.0192226,48.766082],[2.0198044,48.766188],[2.0199553,48.7658245],[2.021096,48.765609],[2.0212537,48.7656102],[2.0214609,48.7661356],[2.021725,48.7665137],[2.0219698,48.7667437],[2.0231476,48.7663369],[2.0232287,48.7664563],[2.0245321,48.7660398],[2.0247786,48.7663771],[2.025235,48.7662437],[2.0258487,48.7661372],[2.0265637,48.7661338],[2.0268139,48.7661859],[2.026973,48.7662349],[2.0276814,48.7669959],[2.0270172,48.7672997],[2.0275687,48.7679103],[2.027711,48.7680652],[2.0283191,48.7678459],[2.0287579,48.7683228],[2.0283308,48.7684972],[2.027729,48.7689585],[2.0272563,48.7692623],[2.0266249,48.7695873],[2.0257077,48.7699119],[2.0240636,48.7703561],[2.0182236,48.7708867],[2.0174204,48.7709739],[2.016334,48.7711397]]]]},"properties":{"code_section":"78423000AY","code_commune":"78423","section_courte":"AY"}},{"type":"Feature","geometry":{"type":"MultiPolygon","coordinates":[[[[2.026973,48.7662349],[2.0265637,48.7661338],[2.0258487,48.7661372],[2.025235,48.7662437],[2.0247786,48.7663771],[2.0245321,48.7660398],[2.0253043,48.765846],[2.0259209,48.7657794],[2.0262447,48.765773],[2.0286993,48.7659736],[2.0291853,48.7659154],[2.029358,48.7660376],[2.0297217,48.7660684],[2.0308729,48.7660754],[2.0316031,48.7659896],[2.0323186,48.7658396],[2.0333025,48.7654913],[2.0339138,48.7651668],[2.0342478,48.7654958],[2.0346451,48.7652979],[2.0349268,48.7652635],[2.034953,48.765213],[2.0351864,48.765248],[2.0354675,48.765357],[2.0355729,48.76544],[2.03652,48.7668684],[2.0366454,48.7668381],[2.0367057,48.7670325],[2.0383974,48.769601],[2.038545,48.769704],[2.0368716,48.7701779],[2.0350842,48.7695259],[2.0347136,48.7694872],[2.0336788,48.7696377],[2.0334165,48.7697307],[2.0317379,48.7700751],[2.0317466,48.7701123],[2.0303685,48.7702584],[2.0298002,48.7704396],[2.0296332,48.7701839],[2.0293649,48.7702605],[2.0290086,48.7696712],[2.0282071,48.7699808],[2.0280668,48.7699242],[2.0278749,48.7697449],[2.027505,48.7691026],[2.0283308,48.7684972],[2.0287579,48.7683228],[2.0283191,48.7678459],[2.027711,48.7680652],[2.0270172,48.7672997],[2.0276814,48.7669959],[2.026973,48.7662349]]]]},"properties":{"code_section":"78423000AZ","code_commune":"78423","section_courte":"AZ"}},{"type":"Feature","geometry":{"type":"MultiPolygon","coordinates":[[[[2.0210833,48.7745671],[2.0206398,48.7746667],[2.0161997,48.7725646],[2.0143709,48.7716178],[2.016334,48.7711397],[2.0174204,48.7709739],[2.0194511,48.770779],[2.0215922,48.774453],[2.0210833,48.7745671]]]]},"properties":{"code_section":"78423000BC","code_commune":"78423","section_courte":"BC"}},{"type":"Feature","geometry":{"type":"MultiPolygon","coordinates":[[[[2.0378904,48.7732746],[2.0364868,48.7736715],[2.0363148,48.7736983],[2.0361636,48.7736129],[2.0335911,48.7746551],[2.0334581,48.7745236],[2.0328662,48.7741541],[2.0324923,48.7736659],[2.0324848,48.7735745],[2.0322195,48.7732367],[2.0321201,48.7729801],[2.0319826,48.772792],[2.0313989,48.7725096],[2.0303418,48.7718495],[2.0301694,48.7716945],[2.0298441,48.7710456],[2.029634,48.77087],[2.0292573,48.7706898],[2.0294842,48.7705691],[2.0301848,48.7702974],[2.0317466,48.7701123],[2.0317379,48.7700751],[2.0334165,48.7697307],[2.0336788,48.7696377],[2.0347328,48.7694857],[2.0350842,48.7695259],[2.0368716,48.7701779],[2.038545,48.769704],[2.0383974,48.769601],[2.0381441,48.769203],[2.0391824,48.7689061],[2.0399229,48.7700343],[2.0400357,48.7701008],[2.0401865,48.7701065],[2.0388348,48.7704963],[2.040238,48.7726218],[2.0378904,48.7732746]]]]},"properties":{"code_section":"78423000BD","code_commune":"78423","section_courte":"BD"}},{"type":"Feature","geometry":{"type":"MultiPolygon","coordinates":[[[[2.0194628,48.7899628],[2.0235695,48.7845364],[2.0239889,48.7838277],[2.033393,48.7870317],[2.0335125,48.7872513],[2.033469,48.7873834],[2.0310427,48.7880424],[2.0308994,48.7881504],[2.0308828,48.7882521],[2.0309223,48.7883335],[2.0312815,48.7884806],[2.0315148,48.7886562],[2.0319392,48.7888986],[2.0323941,48.7892884],[2.0324747,48.7894271],[2.0322516,48.7895961],[2.0325343,48.7897661],[2.0327636,48.7897212],[2.032967,48.7898195],[2.0330447,48.7900645],[2.0325292,48.7901025],[2.0322869,48.7899449],[2.0315301,48.7905463],[2.031682,48.7907688],[2.0322766,48.7908622],[2.0333995,48.7905842],[2.0339373,48.7914575],[2.035293,48.7917861],[2.0357687,48.7926109],[2.0338574,48.7932675],[2.0339601,48.7934619],[2.0339261,48.7935661],[2.0338502,48.7936398],[2.0337161,48.7936989],[2.0330458,48.7938373],[2.0328454,48.7939328],[2.0327299,48.7941022],[2.0325707,48.7950746],[2.0323613,48.7953744],[2.0326101,48.7955523],[2.033138,48.7952978],[2.0333193,48.7956091],[2.0337324,48.7953035],[2.034104,48.7947932],[2.0344971,48.7944074],[2.0349376,48.7940883],[2.0354705,48.7938001],[2.0350712,48.7940973],[2.0348707,48.7943373],[2.0348158,48.7945858],[2.0352806,48.7951105],[2.0359669,48.7955945],[2.0355226,48.7959164],[2.0355633,48.7959457],[2.0350544,48.7962443],[2.0347748,48.7963715],[2.0339853,48.7965423],[2.03355,48.7965995],[2.033268,48.796592],[2.0329312,48.7966517],[2.0327809,48.7967971],[2.0327389,48.7969868],[2.0322432,48.7969842],[2.0310824,48.7967839],[2.0303568,48.7967045],[2.029581,48.7966655],[2.0248814,48.7968332],[2.0234837,48.7968718],[2.0223072,48.7968702],[2.0190564,48.7932682],[2.0188502,48.7932762],[2.0188289,48.7923578],[2.0189056,48.7923551],[2.0195642,48.7905136],[2.0190009,48.7905859],[2.0194628,48.7899628]]]]},"properties":{"code_section":"78423000BE","code_commune":"78423","section_courte":"BE"}},{"type":"Feature","geometry":{"type":"MultiPolygon","coordinates":[[[[2.0069493,48.7935701],[2.0071312,48.7933942],[2.0089142,48.7929825],[2.0094148,48.7939914],[2.009384,48.7939978],[2.010031,48.7969525],[2.0105691,48.7968878],[2.0108573,48.7980117],[2.0106439,48.7980075],[1.9947543,48.7993177],[1.9943911,48.7993135],[1.995528,48.7986977],[1.9955913,48.7987423],[1.9981894,48.7973467],[1.9994651,48.7974729],[1.9988845,48.7943907],[2.0066499,48.7938597],[2.0069493,48.7935701]]]]},"properties":{"code_section":"78423000BH","code_commune":"78423","section_courte":"BH"}},{"type":"Feature","geometry":{"type":"MultiPolygon","coordinates":[[[[2.0108263,48.7978908],[2.0105691,48.7968878],[2.010031,48.7969525],[2.009384,48.7939978],[2.0094148,48.7939914],[2.0089142,48.7929825],[2.0071312,48.7933942],[2.0102507,48.7903812],[2.0121715,48.7901525],[2.0136954,48.7905885],[2.0172441,48.7908095],[2.0195642,48.7905136],[2.0189056,48.7923551],[2.0188289,48.7923578],[2.0188502,48.7932762],[2.0190564,48.7932682],[2.0223072,48.7968702],[2.0108573,48.7980117],[2.0108263,48.7978908]]]]},"properties":{"code_section":"78423000BI","code_commune":"78423","section_courte":"BI"}},{"type":"Feature","geometry":{"type":"MultiPolygon","coordinates":[[[[2.0358364,48.7976923],[2.0327389,48.7969868],[2.0327809,48.7967971],[2.0329312,48.7966517],[2.033268,48.796592],[2.03355,48.7965995],[2.0339853,48.7965423],[2.0347748,48.7963715],[2.0350544,48.7962443],[2.0355633,48.7959457],[2.0355226,48.7959164],[2.0359669,48.7955945],[2.0363115,48.7959116],[2.0365086,48.7960008],[2.0373005,48.7959371],[2.0381664,48.7958024],[2.0380789,48.7956386],[2.0391975,48.7954327],[2.0395878,48.7952214],[2.037939,48.7955299],[2.0373555,48.7945361],[2.037304,48.7943882],[2.0377853,48.7942898],[2.0392551,48.7940871],[2.0405787,48.7937575],[2.0406986,48.7937161],[2.0405459,48.793445],[2.0407662,48.7933821],[2.0408797,48.7936614],[2.0430797,48.7928964],[2.0444733,48.7935889],[2.0438074,48.7941739],[2.0445052,48.7944286],[2.0442609,48.794467],[2.0448339,48.7952691],[2.0480889,48.7945976],[2.0494909,48.794146],[2.0516052,48.7933572],[2.0511968,48.7933601],[2.051278,48.7929926],[2.0530003,48.7936053],[2.0530637,48.7937049],[2.0524803,48.7936556],[2.0521523,48.7937882],[2.0520713,48.7938558],[2.0509456,48.7943048],[2.0503695,48.7944896],[2.049808,48.7947186],[2.0470763,48.795593],[2.0467894,48.7957256],[2.0456782,48.7965092],[2.0453095,48.7968463],[2.0448974,48.7976496],[2.0448826,48.7977043],[2.0450043,48.7976881],[2.0448762,48.7979063],[2.0502739,48.797196],[2.0505878,48.7962647],[2.0509133,48.7957269],[2.0512334,48.79543],[2.0519208,48.7949957],[2.0520235,48.7951891],[2.052598,48.7949953],[2.0532391,48.7948873],[2.0526074,48.7966593],[2.0531639,48.7979622],[2.0486767,48.798485],[2.0473733,48.798671],[2.0462746,48.7988685],[2.0451681,48.7989739],[2.0440616,48.7991191],[2.0430538,48.7991742],[2.0420451,48.799114],[2.0358364,48.7976923]]]]},"properties":{"code_section":"78423000BK","code_commune":"78423","section_courte":"BK"}},{"type":"Feature","geometry":{"type":"MultiPolygon","coordinates":[[[[2.0491777,48.7921323],[2.0493337,48.7923626],[2.0497001,48.7924805],[2.049877,48.7926853],[2.0500468,48.7926915],[2.0501305,48.7926189],[2.0503413,48.7926867],[2.0504592,48.7925838],[2.051278,48.7929926],[2.0511968,48.7933601],[2.0516052,48.7933572],[2.0494909,48.794146],[2.0480889,48.7945976],[2.0448339,48.7952691],[2.0442609,48.794467],[2.0445052,48.7944286],[2.0438074,48.7941739],[2.0444733,48.7935889],[2.0430797,48.7928964],[2.0408797,48.7936614],[2.0407662,48.7933821],[2.0405459,48.793445],[2.0395089,48.7919164],[2.0421131,48.7913331],[2.0430251,48.7913114],[2.0448518,48.7909169],[2.0459539,48.7912734],[2.0461918,48.791636],[2.0463885,48.7918223],[2.0465999,48.7918631],[2.0474382,48.791744],[2.0478715,48.7918894],[2.0485858,48.7918089],[2.0486411,48.7919387],[2.0489385,48.791975],[2.0491777,48.7921323]]]]},"properties":{"code_section":"78423000BL","code_commune":"78423","section_courte":"BL"}},{"type":"Feature","geometry":{"type":"MultiPolygon","coordinates":[[[[2.0415875,48.7897552],[2.0421767,48.7899566],[2.0420523,48.7897612],[2.0424153,48.7897117],[2.0423979,48.7897844],[2.0421803,48.7898439],[2.0424756,48.7903165],[2.042853,48.7902136],[2.0429705,48.7904016],[2.0432463,48.7903422],[2.0448518,48.7909169],[2.0430251,48.7913114],[2.0421131,48.7913331],[2.0397207,48.7918508],[2.0395089,48.7919164],[2.039846,48.7924132],[2.036466,48.7934342],[2.035914,48.792561],[2.0357687,48.7926109],[2.0352928,48.791786],[2.0339373,48.7914575],[2.0333995,48.7905842],[2.0322766,48.7908622],[2.031682,48.7907688],[2.0315301,48.7905463],[2.0322869,48.7899449],[2.0325292,48.7901025],[2.0330447,48.7900645],[2.032967,48.7898195],[2.0327636,48.7897212],[2.0325343,48.7897661],[2.0322516,48.7895961],[2.0324747,48.7894271],[2.0323941,48.7892884],[2.0319392,48.7888986],[2.0315148,48.7886562],[2.0312815,48.7884806],[2.0309299,48.7883392],[2.0308869,48.7882823],[2.03089,48.7881726],[2.030942,48.7880979],[2.0310427,48.7880424],[2.0334604,48.7873868],[2.0335157,48.7872849],[2.033877,48.7871817],[2.0338744,48.7870957],[2.0359605,48.7865132],[2.0371453,48.7881906],[2.0380893,48.7885889],[2.038069,48.7885633],[2.0382769,48.7884941],[2.0383801,48.7884973],[2.0384631,48.7885531],[2.038603,48.7887562],[2.0387165,48.7887916],[2.0387893,48.7888608],[2.0389709,48.7888731],[2.0394782,48.7890313],[2.0415875,48.7897552]]]]},"properties":{"code_section":"78423000BM","code_commune":"78423","section_courte":"BM"}},{"type":"Feature","geometry":{"type":"MultiPolygon","coordinates":[[[[2.0405459,48.793445],[2.0406986,48.7937161],[2.0405787,48.7937575],[2.0392551,48.7940871],[2.0377853,48.7942898],[2.037304,48.7943882],[2.0373555,48.7945361],[2.037939,48.7955299],[2.0395878,48.7952214],[2.0391975,48.7954327],[2.0380789,48.7956386],[2.0381664,48.7958024],[2.0373005,48.7959371],[2.0365086,48.7960008],[2.0363115,48.7959116],[2.0359391,48.795569],[2.0352806,48.7951105],[2.0348158,48.7945858],[2.0348707,48.7943373],[2.0350712,48.7940973],[2.0354705,48.7938001],[2.0349376,48.7940883],[2.0344971,48.7944074],[2.034104,48.7947932],[2.0337324,48.7953035],[2.0333193,48.7956091],[2.033138,48.7952978],[2.0326101,48.7955523],[2.0323613,48.7953744],[2.0325707,48.7950746],[2.0327299,48.7941022],[2.0328454,48.7939328],[2.0330107,48.7938466],[2.0337161,48.7936989],[2.0338502,48.7936398],[2.0339261,48.7935661],[2.0339601,48.7934619],[2.0338574,48.7932675],[2.035914,48.792561],[2.036466,48.7934342],[2.039846,48.7924132],[2.0405459,48.793445]]]]},"properties":{"code_section":"78423000BN","code_commune":"78423","section_courte":"BN"}},{"type":"Feature","geometry":{"type":"MultiPolygon","coordinates":[[[[2.0519072,48.7946962],[2.0519208,48.7949957],[2.0512334,48.79543],[2.0509133,48.7957269],[2.050829,48.7958491],[2.0505878,48.7962647],[2.0502739,48.797196],[2.0448762,48.7979063],[2.0450043,48.7976881],[2.0448826,48.7977043],[2.0448974,48.7976496],[2.0453095,48.7968463],[2.0456782,48.7965092],[2.0461223,48.7961861],[2.0467894,48.7957256],[2.0470763,48.795593],[2.049808,48.7947186],[2.0520713,48.7938558],[2.0518747,48.7941597],[2.05182,48.7943984],[2.0519359,48.794592],[2.0519072,48.7946962]]]]},"properties":{"code_section":"78423000BP","code_commune":"78423","section_courte":"BP"}},{"type":"Feature","geometry":{"type":"MultiPolygon","coordinates":[[[[2.0494971,48.7694164],[2.0498171,48.7694304],[2.0503423,48.7692195],[2.0504475,48.7691434],[2.0505172,48.7689736],[2.0506171,48.768893],[2.0538329,48.7675566],[2.0540896,48.7682664],[2.0545071,48.769075],[2.0558843,48.7709878],[2.0496032,48.7727596],[2.0489992,48.7718424],[2.0474497,48.7702108],[2.0492849,48.7694476],[2.0494971,48.7694164]]]]},"properties":{"code_section":"78423000BV","code_commune":"78423","section_courte":"BV"}},{"type":"Feature","geometry":{"type":"MultiPolygon","coordinates":[[[[2.0216057,48.77445],[2.0194511,48.770779],[2.0240636,48.7703561],[2.0249779,48.7701137],[2.0266028,48.7727883],[2.0262065,48.7728888],[2.026274,48.7730039],[2.0251231,48.7732921],[2.0252895,48.7736209],[2.0216057,48.77445]]]]},"properties":{"code_section":"78423000BW","code_commune":"78423","section_courte":"BW"}},{"type":"Feature","geometry":{"type":"MultiPolygon","coordinates":[[[[2.0305288,48.7719643],[2.0313989,48.7725096],[2.0319826,48.772792],[2.0321604,48.7730649],[2.0316,48.7732508],[2.0310228,48.7733334],[2.0308189,48.773329],[2.0303081,48.7733923],[2.0279634,48.7738077],[2.0279394,48.773493],[2.027391,48.7735865],[2.0273469,48.7735075],[2.0269977,48.7735932],[2.0268436,48.7732535],[2.0267901,48.7732614],[2.0266155,48.7729141],[2.0265204,48.7728069],[2.0266028,48.7727883],[2.0256311,48.7712073],[2.0269168,48.7708954],[2.0274002,48.7715243],[2.0281103,48.7723538],[2.0286771,48.7721591],[2.0303418,48.7718495],[2.0305288,48.7719643]]]]},"properties":{"code_section":"78423000BX","code_commune":"78423","section_courte":"BX"}},{"type":"Feature","geometry":{"type":"MultiPolygon","coordinates":[[[[2.0249956,48.7701459],[2.0249779,48.7701137],[2.0257077,48.7699119],[2.0266249,48.7695873],[2.0268897,48.7694674],[2.027505,48.7691026],[2.0278749,48.7697449],[2.0280668,48.7699242],[2.0282071,48.7699808],[2.0290086,48.7696712],[2.0293649,48.7702605],[2.0296332,48.7701839],[2.0298002,48.7704396],[2.0293131,48.7706421],[2.0292573,48.7706898],[2.029634,48.77087],[2.0298441,48.7710456],[2.0301694,48.7716945],[2.0303418,48.7718495],[2.0286771,48.7721591],[2.0281103,48.7723538],[2.0274002,48.7715243],[2.0269168,48.7708954],[2.0256311,48.7712073],[2.0249956,48.7701459]]]]},"properties":{"code_section":"78423000BY","code_commune":"78423","section_courte":"BY"}},{"type":"Feature","geometry":{"type":"MultiPolygon","coordinates":[[[[2.033393,48.7870317],[2.0239889,48.7838277],[2.0240304,48.7836328],[2.0220556,48.7829755],[2.023823,48.7793892],[2.0254814,48.7798116],[2.0264626,48.7788185],[2.0268285,48.7787559],[2.0274097,48.778789],[2.0272976,48.7784295],[2.0274953,48.7783606],[2.0272955,48.7779801],[2.0279549,48.7773154],[2.0287256,48.7776423],[2.0294307,48.7778621],[2.0298646,48.7778684],[2.0302493,48.7778288],[2.0305895,48.7777583],[2.0311669,48.7775491],[2.031478,48.7781609],[2.0311755,48.7782443],[2.0304803,48.7786207],[2.0301961,48.7789076],[2.0302671,48.7789446],[2.0302224,48.778984],[2.0311298,48.7797972],[2.0316171,48.7803379],[2.0317499,48.7802935],[2.0326727,48.781493],[2.0350984,48.7822366],[2.0351554,48.7823842],[2.036624,48.7829769],[2.0375758,48.7834035],[2.0370508,48.783564],[2.0363678,48.7838534],[2.038251,48.7847788],[2.0390376,48.7851333],[2.038577,48.7856544],[2.0381192,48.7854553],[2.0369197,48.7861135],[2.0359605,48.7865132],[2.0338744,48.7870957],[2.033877,48.7871817],[2.0335157,48.7872849],[2.033393,48.7870317]]]]},"properties":{"code_section":"78423000ZB","code_commune":"78423","section_courte":"ZB"}}]}