{"type":"FeatureCollection","features":[{"type":"Feature","geometry":{"type":"MultiPolygon","coordinates":[[[[2.1121383,48.8806238],[2.1114586,48.8812077],[2.111317,48.8814457],[2.1109822,48.88246],[2.1109929,48.8826227],[2.1108893,48.8829838],[2.1105936,48.8836665],[2.1104865,48.8843216],[2.1092494,48.8842804],[2.1088677,48.884344],[2.108589,48.8841324],[2.1087439,48.8839587],[2.1086727,48.8839282],[2.1088815,48.883695],[2.1070521,48.8829576],[2.107099,48.8829045],[2.1068647,48.8828409],[2.1068902,48.8828503],[2.1066694,48.8830653],[2.1066117,48.8830412],[2.1064834,48.8831829],[2.1065438,48.8831987],[2.1035387,48.8864565],[2.1030144,48.8866408],[2.1028818,48.8864875],[2.1024776,48.8865923],[2.1017665,48.886666],[2.1010688,48.8854776],[2.1013821,48.885433],[2.1013996,48.8853646],[2.1022067,48.8854585],[2.1023153,48.8854489],[2.1024032,48.8854029],[2.102551,48.8851823],[2.1027447,48.8850079],[2.1029913,48.8846261],[2.1029978,48.8842929],[2.1031018,48.8840153],[2.1030654,48.8837996],[2.1041242,48.8823319],[2.1045153,48.8814485],[2.1046318,48.8812738],[2.1048651,48.8810443],[2.1051223,48.8808524],[2.1055173,48.8806391],[2.1057546,48.88042],[2.1065408,48.8800281],[2.1066768,48.8798912],[2.1082867,48.8798179],[2.1082931,48.8797831],[2.1084512,48.8796854],[2.1084227,48.8796292],[2.1086391,48.8795791],[2.1090634,48.8796072],[2.1109526,48.8803115],[2.1111975,48.880299],[2.1112343,48.8802344],[2.111874,48.8803899],[2.1122564,48.880547],[2.1121383,48.8806238]]]]},"properties":{"code_section":"78502000AB","code_commune":"78502","section_courte":"AB"}},{"type":"Feature","geometry":{"type":"MultiPolygon","coordinates":[[[[2.1025066,48.8882181],[2.1019805,48.8869222],[2.1017665,48.886666],[2.1024776,48.8865923],[2.1028818,48.8864875],[2.1030144,48.8866408],[2.1035387,48.8864565],[2.1065438,48.8831987],[2.1064834,48.8831829],[2.1066117,48.8830412],[2.1066694,48.8830653],[2.1068902,48.8828503],[2.1068647,48.8828409],[2.107099,48.8829045],[2.1070521,48.8829576],[2.1088815,48.883695],[2.1086727,48.8839282],[2.1087439,48.8839587],[2.108589,48.8841324],[2.1088677,48.884344],[2.1092494,48.8842804],[2.1104865,48.8843216],[2.1105411,48.8846685],[2.1104767,48.8851887],[2.1102236,48.886038],[2.1099584,48.8865737],[2.1105393,48.8867493],[2.1102617,48.8874358],[2.1082179,48.8896637],[2.1029677,48.8882561],[2.1025066,48.8882181]]]]},"properties":{"code_section":"78502000AC","code_commune":"78502","section_courte":"AC"}},{"type":"Feature","geometry":{"type":"MultiPolygon","coordinates":[[[[2.1142067,48.882687],[2.1149126,48.8828796],[2.1146652,48.8832741],[2.114291,48.8838119],[2.1139241,48.8842574],[2.1122457,48.8859206],[2.1112885,48.8869757],[2.1099584,48.8865737],[2.1102236,48.886038],[2.1104767,48.8851887],[2.1105411,48.8846685],[2.1104865,48.8843216],[2.1105936,48.8836665],[2.1109323,48.8828503],[2.1109929,48.8826227],[2.1109822,48.88246],[2.1111738,48.881843],[2.1116294,48.8819418],[2.1142067,48.882687]]]]},"properties":{"code_section":"78502000AD","code_commune":"78502","section_courte":"AD"}},{"type":"Feature","geometry":{"type":"MultiPolygon","coordinates":[[[[2.1174863,48.8768819],[2.1178748,48.8770643],[2.1190061,48.8777251],[2.1190578,48.8776854],[2.1198557,48.8781361],[2.1181556,48.8793476],[2.1169828,48.8803443],[2.1157977,48.8815526],[2.115161,48.8824497],[2.1149126,48.8828796],[2.1116294,48.8819418],[2.1111738,48.881843],[2.111317,48.8814457],[2.1114586,48.8812077],[2.1121383,48.8806238],[2.1128692,48.8800861],[2.1138186,48.8795524],[2.1149579,48.8787891],[2.1166388,48.8775919],[2.1167957,48.8774334],[2.1171135,48.8772259],[2.1174863,48.8768819]]]]},"properties":{"code_section":"78502000AE","code_commune":"78502","section_courte":"AE"}},{"type":"Feature","geometry":{"type":"MultiPolygon","coordinates":[[[[2.1063514,48.8795831],[2.1059209,48.8792509],[2.105592,48.8788547],[2.1056122,48.8787085],[2.1055694,48.8785957],[2.1050514,48.8782425],[2.1043616,48.8779355],[2.1039222,48.8776162],[2.1039528,48.8775495],[2.1045448,48.8771398],[2.1049471,48.8769156],[2.1051856,48.8768397],[2.1052923,48.8767666],[2.1061804,48.8773049],[2.1063235,48.8772353],[2.1064622,48.8772132],[2.1064952,48.8771412],[2.1066846,48.8769974],[2.107307,48.8765751],[2.1075122,48.8766807],[2.1079249,48.876324],[2.1091489,48.8769184],[2.1096236,48.8770935],[2.1098647,48.8767711],[2.1105286,48.8769149],[2.1106966,48.8770169],[2.112366,48.8753338],[2.112919,48.876014],[2.1132518,48.8758275],[2.1141513,48.8752225],[2.1144012,48.875464],[2.1144642,48.8754261],[2.1149771,48.8759179],[2.115556,48.8763821],[2.1156008,48.8764452],[2.1155473,48.8764788],[2.116215,48.8769598],[2.11733,48.8770298],[2.1171135,48.8772259],[2.1167081,48.8775029],[2.1166388,48.8775919],[2.1147742,48.8789174],[2.1138186,48.8795524],[2.1128692,48.8800861],[2.1122564,48.880547],[2.111874,48.8803899],[2.1112343,48.8802344],[2.1111975,48.880299],[2.1109526,48.8803115],[2.1090634,48.8796072],[2.1086391,48.8795791],[2.1084227,48.8796292],[2.1084512,48.8796854],[2.1082931,48.8797831],[2.1082867,48.8798179],[2.106679,48.879891],[2.1067511,48.879787],[2.1063758,48.8795678],[2.1063514,48.8795831]]]]},"properties":{"code_section":"78502000AH","code_commune":"78502","section_courte":"AH"}},{"type":"Feature","geometry":{"type":"MultiPolygon","coordinates":[[[[2.1139264,48.875374],[2.112919,48.876014],[2.112366,48.8753338],[2.1106966,48.8770169],[2.1105286,48.8769149],[2.1098647,48.8767711],[2.1096236,48.8770935],[2.1091489,48.8769184],[2.1079249,48.876324],[2.1075122,48.8766807],[2.107307,48.8765751],[2.1066846,48.8769974],[2.1064952,48.8771412],[2.1064622,48.8772132],[2.1063235,48.8772353],[2.1061804,48.8773049],[2.1026306,48.8751599],[2.1021568,48.8748225],[2.1017835,48.874376],[2.1016586,48.874094],[2.1015826,48.8736874],[2.1016559,48.8732917],[2.1018869,48.8728777],[2.1021126,48.8726256],[2.1025833,48.8723046],[2.1029593,48.8721287],[2.1035483,48.871926],[2.1040237,48.8718391],[2.1045239,48.8718052],[2.1051345,48.8718585],[2.1053889,48.871959],[2.1057568,48.8721697],[2.1062939,48.8726534],[2.1066439,48.8729001],[2.1071362,48.8730798],[2.1074925,48.8731353],[2.1080299,48.8731158],[2.1086749,48.8729821],[2.1093654,48.8727362],[2.1119356,48.8747249],[2.1127283,48.8742846],[2.1129456,48.8746155],[2.1131428,48.8747426],[2.1132425,48.8747463],[2.1141455,48.8752172],[2.1139264,48.875374]]]]},"properties":{"code_section":"78502000AI","code_commune":"78502","section_courte":"AI"}}]}