{"type":"FeatureCollection","features":[{"type":"Feature","geometry":{"type":"MultiPolygon","coordinates":[[[[1.8859018,48.8422211],[1.8854177,48.8414302],[1.884996,48.8405548],[1.8849631,48.8405656],[1.8844528,48.8397375],[1.8830088,48.8367014],[1.8827518,48.8359262],[1.8832743,48.8363904],[1.8843714,48.8370381],[1.8847094,48.8372249],[1.8858376,48.837692],[1.8873257,48.8381151],[1.8885438,48.8384097],[1.8897766,48.8385833],[1.8912459,48.8387144],[1.8914965,48.8385843],[1.8914402,48.8385777],[1.8950115,48.8367654],[1.8975911,48.835504],[1.8972549,48.8354812],[1.8971076,48.8351207],[1.8974534,48.8350237],[1.8974979,48.8345193],[1.8974776,48.8342332],[1.8971502,48.8335859],[1.8982388,48.8335649],[1.8982226,48.8333309],[1.8989609,48.8332998],[1.8993207,48.8325604],[1.8996524,48.8320827],[1.9000156,48.8314605],[1.9009769,48.832035],[1.9011522,48.8322061],[1.9020866,48.8337456],[1.90311,48.8345515],[1.9036769,48.8350711],[1.9043877,48.8359411],[1.9044194,48.8359301],[1.904459,48.8360288],[1.9053994,48.8370728],[1.9054568,48.8372721],[1.9054104,48.8372855],[1.905558,48.8374103],[1.9063663,48.8377168],[1.9067448,48.8379266],[1.9071326,48.8392227],[1.9070804,48.8396102],[1.9069883,48.839836],[1.9066617,48.8402433],[1.9060633,48.840658],[1.9056356,48.840826],[1.9048785,48.8410548],[1.904711,48.8410572],[1.9042372,48.8409682],[1.9035169,48.8407079],[1.9021357,48.839983],[1.9020236,48.8399527],[1.9015455,48.8399396],[1.9012286,48.8402398],[1.9010076,48.8408493],[1.9008095,48.8411106],[1.9003133,48.841594],[1.8997965,48.8419755],[1.8995131,48.8422459],[1.8990837,48.84314],[1.8989023,48.8433639],[1.8986123,48.8435401],[1.898327,48.8436296],[1.8978832,48.8436624],[1.8968534,48.8435449],[1.8965176,48.8436311],[1.8963105,48.8438021],[1.8961402,48.8440349],[1.8960819,48.8449274],[1.8960325,48.8451427],[1.8958539,48.8454882],[1.8955697,48.8457418],[1.8949626,48.8461004],[1.8947775,48.8461619],[1.8939966,48.8463087],[1.8937634,48.8464166],[1.8934069,48.8472096],[1.892985,48.847905],[1.8930102,48.848171],[1.8931441,48.8484267],[1.8932954,48.8489113],[1.8933273,48.8494457],[1.893296,48.8496553],[1.8931765,48.849848],[1.8928992,48.8500169],[1.8903788,48.850154],[1.8894391,48.8483604],[1.8859018,48.8422211]]]]},"properties":{"code_section":"785500000A","code_commune":"78550","section_courte":"A"}},{"type":"Feature","geometry":{"type":"MultiPolygon","coordinates":[[[[1.8891071,48.8334024],[1.8896303,48.8326397],[1.890068,48.8310464],[1.8903186,48.8303938],[1.8906395,48.8300001],[1.8915118,48.8286246],[1.8917818,48.8282864],[1.8923271,48.8279336],[1.8934484,48.8274075],[1.8935775,48.8274112],[1.8947824,48.8250853],[1.8952391,48.8243755],[1.8953726,48.8242405],[1.8956952,48.8239839],[1.8967421,48.8234016],[1.8979876,48.8226335],[1.8985669,48.8224187],[1.8986106,48.8224912],[1.898925,48.8248401],[1.9031681,48.8249405],[1.9026428,48.8256948],[1.9023266,48.8263337],[1.9020406,48.8276215],[1.9007521,48.8302466],[1.8996524,48.8320827],[1.8993207,48.8325604],[1.8989609,48.8332998],[1.8982226,48.8333309],[1.8982388,48.8335649],[1.8971502,48.8335859],[1.8974776,48.8342332],[1.8974979,48.8345193],[1.8974534,48.8350237],[1.8971076,48.8351207],[1.8972549,48.8354812],[1.8975911,48.835504],[1.8950115,48.8367654],[1.8914402,48.8385777],[1.8914965,48.8385843],[1.8912459,48.8387144],[1.8897766,48.8385833],[1.8885438,48.8384097],[1.8864543,48.8378788],[1.8856606,48.8376278],[1.8847094,48.8372249],[1.8832743,48.8363904],[1.8831163,48.83628],[1.8827787,48.8359228],[1.8822173,48.8346319],[1.8815206,48.8311099],[1.8842076,48.8320143],[1.8849869,48.832307],[1.8856526,48.8327053],[1.8862067,48.8329528],[1.8872741,48.8332251],[1.8885779,48.8333258],[1.8891071,48.8334024]]]]},"properties":{"code_section":"785500000B","code_commune":"78550","section_courte":"B"}},{"type":"Feature","geometry":{"type":"MultiPolygon","coordinates":[[[[1.9158232,48.8365241],[1.9158047,48.8371789],[1.915637,48.8372676],[1.9149704,48.8372895],[1.9144645,48.8371383],[1.9139497,48.8368629],[1.9138166,48.8364995],[1.9134797,48.8364742],[1.912933,48.836346],[1.912529,48.8363188],[1.9122849,48.8363548],[1.9122128,48.8364028],[1.9122439,48.8364873],[1.9120315,48.8365718],[1.9112049,48.8373976],[1.9110776,48.8374714],[1.9108891,48.8375091],[1.9105252,48.8378236],[1.9103233,48.8379212],[1.909852,48.8379611],[1.9093688,48.837956],[1.9089331,48.8377488],[1.9082581,48.8374955],[1.9076282,48.8374544],[1.9072848,48.8375527],[1.9068857,48.8377809],[1.9068278,48.8378946],[1.9067448,48.8379266],[1.9063663,48.8377168],[1.905558,48.8374103],[1.9054104,48.8372855],[1.9054568,48.8372721],[1.9053994,48.8370728],[1.904459,48.8360288],[1.9044194,48.8359301],[1.9043877,48.8359411],[1.9036769,48.8350711],[1.90311,48.8345515],[1.9020866,48.8337456],[1.9011522,48.8322061],[1.9009769,48.832035],[1.9000156,48.8314605],[1.9007521,48.8302466],[1.9012245,48.8292724],[1.907796,48.8299438],[1.9157932,48.8275698],[1.9215726,48.8262247],[1.9218254,48.8260358],[1.9225024,48.8275266],[1.9204788,48.8291457],[1.9199754,48.8302584],[1.9197401,48.8314222],[1.9204611,48.8320463],[1.9209394,48.8319016],[1.9212867,48.8323285],[1.9197962,48.8327525],[1.9213573,48.8340364],[1.9219389,48.8344394],[1.9218534,48.8346592],[1.9216219,48.8349413],[1.9213845,48.8350817],[1.9200348,48.8356372],[1.9194038,48.8358104],[1.9188902,48.8358407],[1.9184585,48.8358308],[1.9181805,48.8358647],[1.918016,48.8359791],[1.9176774,48.8359854],[1.9169965,48.8358567],[1.9166337,48.8358822],[1.9159995,48.836113],[1.9158279,48.8363631],[1.9158232,48.8365241]]]]},"properties":{"code_section":"785500000C","code_commune":"78550","section_courte":"C"}},{"type":"Feature","geometry":{"type":"MultiPolygon","coordinates":[[[[1.9033142,48.8243073],[1.9048971,48.8240689],[1.9054348,48.8240343],[1.9058875,48.8239713],[1.9071277,48.8237863],[1.9074793,48.8237061],[1.9067926,48.8230987],[1.9064597,48.822997],[1.907401,48.8229359],[1.9078287,48.8228402],[1.9085029,48.8226487],[1.9093702,48.8223491],[1.9097838,48.8222535],[1.9102366,48.8221064],[1.9109223,48.8217746],[1.911427,48.8216103],[1.9118129,48.8215251],[1.9136004,48.8212962],[1.9134612,48.8209884],[1.9155233,48.8204748],[1.9157115,48.8209948],[1.91674,48.8210741],[1.9168118,48.8209543],[1.9177966,48.8209923],[1.9179304,48.821819],[1.9181774,48.8216688],[1.918385,48.8215855],[1.918621,48.8215354],[1.919795,48.8215746],[1.921775,48.8260735],[1.9215726,48.8262247],[1.9157932,48.8275698],[1.907796,48.8299438],[1.9012245,48.8292724],[1.9020406,48.8276215],[1.9023266,48.8263337],[1.9026428,48.8256948],[1.902989,48.8252379],[1.9032376,48.8248046],[1.9033302,48.8244621],[1.9033142,48.8243073]]]]},"properties":{"code_section":"785500000D","code_commune":"78550","section_courte":"D"}},{"type":"Feature","geometry":{"type":"MultiPolygon","coordinates":[[[[1.9135844,48.8212979],[1.9118129,48.8215251],[1.911427,48.8216103],[1.9109223,48.8217746],[1.9102366,48.8221064],[1.9097838,48.8222535],[1.9093702,48.8223491],[1.9085298,48.8226401],[1.9067774,48.8209447],[1.9175909,48.8192263],[1.9177047,48.8199588],[1.9177966,48.8209923],[1.9168118,48.8209543],[1.91674,48.8210741],[1.9157115,48.8209948],[1.9155233,48.8204748],[1.9134612,48.8209884],[1.9135844,48.8212979]]]]},"properties":{"code_section":"785500000E","code_commune":"78550","section_courte":"E"}},{"type":"Feature","geometry":{"type":"MultiPolygon","coordinates":[[[[1.9071277,48.8237863],[1.9054348,48.8240343],[1.9048971,48.8240689],[1.9033142,48.8243073],[1.9033302,48.8244621],[1.9031681,48.8249405],[1.898925,48.8248401],[1.8986106,48.8224912],[1.8985669,48.8224187],[1.8989157,48.8222587],[1.8992485,48.8221539],[1.9001864,48.8219775],[1.9017657,48.8218249],[1.9023085,48.8218333],[1.9032367,48.8216606],[1.9042464,48.8215668],[1.9049478,48.8214198],[1.9056397,48.8211798],[1.9060762,48.8210719],[1.9067774,48.8209447],[1.9085298,48.8226401],[1.907401,48.8229359],[1.9064597,48.822997],[1.9067926,48.8230987],[1.9074793,48.8237061],[1.9071277,48.8237863]]]]},"properties":{"code_section":"785500000F","code_commune":"78550","section_courte":"F"}}]}