{"type":"FeatureCollection","features":[{"type":"Feature","geometry":{"type":"MultiPolygon","coordinates":[[[[2.0764978,48.9531225],[2.0719155,48.9475726],[2.0709272,48.9467475],[2.0680729,48.9442204],[2.0658711,48.9434243],[2.0653842,48.9430916],[2.0636983,48.9416754],[2.0629285,48.9410036],[2.0623112,48.94038],[2.061676,48.9394886],[2.0606383,48.937509],[2.0616115,48.9365758],[2.0624333,48.9353695],[2.0628806,48.9348257],[2.0632394,48.9344663],[2.0636009,48.9342471],[2.0626718,48.933561],[2.0625442,48.9335491],[2.0623395,48.933406],[2.0608819,48.9318779],[2.0599193,48.9306325],[2.0590062,48.9298809],[2.0579267,48.9292394],[2.057338,48.9290208],[2.0570867,48.9288361],[2.0568063,48.9278897],[2.0562575,48.9270907],[2.055989,48.9268614],[2.0556917,48.9269501],[2.054981,48.9263157],[2.055032,48.926049],[2.0547413,48.9257847],[2.0554635,48.9253596],[2.0536199,48.9242972],[2.0533754,48.9240225],[2.0528761,48.9236739],[2.0530906,48.9231606],[2.0528117,48.9230424],[2.0522187,48.9227201],[2.0515356,48.9229192],[2.0510306,48.9230126],[2.0502443,48.923467],[2.0498917,48.9233536],[2.0496689,48.9236293],[2.0488705,48.9241718],[2.0487197,48.9240565],[2.0485223,48.9239704],[2.0479892,48.9238822],[2.0473918,48.9238361],[2.0470288,48.9238429],[2.0467081,48.9239532],[2.0462544,48.9238895],[2.046146,48.9238355],[2.0457872,48.9238066],[2.0454565,48.9239438],[2.0447857,48.9231331],[2.0436043,48.9227544],[2.042534,48.9225376],[2.0426431,48.9221922],[2.0430126,48.9213648],[2.0428974,48.9208073],[2.0429179,48.9206016],[2.0428143,48.920053],[2.0421012,48.9202162],[2.0418257,48.9198602],[2.0419913,48.9194374],[2.0420182,48.9188994],[2.0411646,48.9187465],[2.0409657,48.918567],[2.0407823,48.9177447],[2.0404346,48.9171149],[2.0397538,48.9170619],[2.041014,48.9162114],[2.0526664,48.9075694],[2.053807,48.9070741],[2.0538275,48.9071399],[2.0578514,48.9053713],[2.0636983,48.9037981],[2.0638929,48.9037541],[2.0639583,48.9038223],[2.0643496,48.903847],[2.0649179,48.9034928],[2.0681734,48.9026005],[2.0681825,48.9025444],[2.0716839,48.9035153],[2.0717062,48.9058735],[2.071793,48.9062911],[2.0719786,48.9067484],[2.0721916,48.9071815],[2.0724189,48.9074439],[2.0726102,48.9079747],[2.0726932,48.9080762],[2.0729093,48.9081453],[2.0729107,48.9082125],[2.0733012,48.9082072],[2.0740019,48.9086599],[2.0741729,48.9086607],[2.0739825,48.9040706],[2.080091,48.9043469],[2.0812071,48.9051909],[2.081478,48.9053275],[2.082297,48.9047548],[2.0825548,48.9049147],[2.0824469,48.9049915],[2.0825818,48.9050638],[2.0826481,48.9050109],[2.0829199,48.905133],[2.0833632,48.9054699],[2.083389,48.9055228],[2.0833583,48.905583],[2.0834979,48.905705],[2.0844838,48.9057555],[2.0846097,48.9057147],[2.0878391,48.9058699],[2.087911,48.9056011],[2.0879573,48.9055718],[2.0880345,48.905583],[2.0884213,48.9053779],[2.0892255,48.905646],[2.0932473,48.9034016],[2.0936368,48.9034465],[2.0944375,48.9017482],[2.094683,48.9021518],[2.0962928,48.9030045],[2.0966464,48.9029702],[2.0968137,48.902828],[2.0989581,48.9033587],[2.1000897,48.9035278],[2.1001234,48.903424],[2.1007622,48.9034601],[2.1007547,48.9046096],[2.1027584,48.904633],[2.1092182,48.9179995],[2.1094278,48.9179603],[2.1098887,48.9181682],[2.1102965,48.9189212],[2.1087787,48.9213566],[2.1089267,48.9214003],[2.1087263,48.9217162],[2.1093207,48.9218891],[2.1095375,48.9221585],[2.1106501,48.9222737],[2.1117211,48.9224657],[2.111685,48.9225337],[2.1131511,48.9227585],[2.1130541,48.9230371],[2.1142206,48.9231507],[2.1141895,48.9232582],[2.114465,48.9232753],[2.1141912,48.9239761],[2.1144951,48.9241339],[2.1145803,48.9243432],[2.1144728,48.9244597],[2.114282,48.9245024],[2.1141335,48.9245019],[2.113971,48.9244452],[2.1135066,48.9249377],[2.1139964,48.9275861],[2.1140214,48.927609],[2.1143285,48.9273806],[2.1143708,48.927433],[2.1140893,48.9276263],[2.1184949,48.9274595],[2.1186683,48.9281645],[2.1201366,48.9290237],[2.1238239,48.9330986],[2.1194441,48.9348414],[2.1194341,48.9349361],[2.1211117,48.9354671],[2.1223382,48.9363573],[2.122618,48.9364664],[2.1231209,48.9364984],[2.12357,48.9364653],[2.1235926,48.9365393],[2.1229166,48.936574],[2.1225762,48.9366847],[2.1202185,48.9368743],[2.1202951,48.9371411],[2.1202384,48.9378315],[2.1203608,48.9383518],[2.1203017,48.9388077],[2.1201224,48.939304],[2.1205203,48.9397052],[2.1206937,48.9403976],[2.1216868,48.9408833],[2.1218966,48.9410482],[2.121929,48.9411311],[2.1219051,48.9415387],[2.1220515,48.9419304],[2.1220994,48.9419905],[2.1224062,48.942125],[2.1225722,48.9423182],[2.1247239,48.9428139],[2.1279507,48.9433385],[2.1281824,48.9433252],[2.1284032,48.9433602],[2.1283104,48.9438738],[2.1299522,48.9455583],[2.1304004,48.946802],[2.1315998,48.9474148],[2.1319905,48.9476963],[2.1321466,48.9488132],[2.1323028,48.9493906],[2.1313512,48.9496836],[2.1329196,48.9516362],[2.1352942,48.954078],[2.133877,48.9549197],[2.1336598,48.9551399],[2.1348211,48.9560698],[2.134571,48.9561307],[2.1345118,48.9563488],[2.1350894,48.9566717],[2.1350676,48.9567832],[2.1345169,48.9569782],[2.1344381,48.9570701],[2.1343789,48.9573229],[2.1344796,48.9574632],[2.1347852,48.9575795],[2.1350026,48.9575708],[2.1355971,48.9572651],[2.1356823,48.9572825],[2.1360216,48.9575601],[2.136401,48.9576053],[2.1364592,48.9575777],[2.1365007,48.9574907],[2.1365687,48.9574709],[2.1385293,48.9590244],[2.140792,48.9578537],[2.1430321,48.9593474],[2.1465221,48.9652577],[2.1613007,48.9646022],[2.1615551,48.9689406],[2.1597354,48.971712],[2.1565453,48.9736561],[2.1473706,48.9776063],[2.1400003,48.9808506],[2.1260293,48.9813695],[2.1231822,48.9809691],[2.1154658,48.9771035],[2.1081844,48.9762024],[2.0871303,48.9797129],[2.0882322,48.9775358],[2.0895203,48.9748307],[2.0846229,48.9723659],[2.0769361,48.9679231],[2.076243,48.9673221],[2.0752464,48.966018],[2.0737639,48.9645898],[2.0741898,48.961015],[2.0752364,48.9583814],[2.0756818,48.9563041],[2.0764978,48.9531225]]]]},"properties":{"code_section":"785510000A","code_commune":"78551","section_courte":"A"}},{"type":"Feature","geometry":{"type":"MultiPolygon","coordinates":[[[[2.0738527,48.8994643],[2.0787345,48.8995738],[2.0781498,48.9036624],[2.0782028,48.9037183],[2.0781169,48.9042658],[2.0739825,48.9040706],[2.0741729,48.9086607],[2.0740019,48.9086599],[2.0733012,48.9082072],[2.0729107,48.9082125],[2.0729093,48.9081453],[2.0727424,48.9081064],[2.0726491,48.9080377],[2.0724189,48.9074439],[2.0721916,48.9071815],[2.0719272,48.9066331],[2.0717481,48.9061459],[2.0717062,48.9058735],[2.0716839,48.9035153],[2.071463,48.9034543],[2.0716227,48.9024192],[2.0713732,48.9023498],[2.0717972,48.899448],[2.0738527,48.8994643]]]]},"properties":{"code_section":"78551000AB","code_commune":"78551","section_courte":"AB"}},{"type":"Feature","geometry":{"type":"MultiPolygon","coordinates":[[[[2.0787494,48.8994523],[2.08061,48.8987488],[2.0819378,48.8982832],[2.0826834,48.8978731],[2.0834124,48.8975803],[2.0849099,48.8970562],[2.0850335,48.8970499],[2.0863866,48.8982509],[2.0870207,48.898715],[2.0884914,48.8996505],[2.0880669,48.9003904],[2.0877658,48.9007996],[2.0872867,48.9011796],[2.0841313,48.9034633],[2.081478,48.9053275],[2.0812071,48.9051909],[2.080091,48.9043469],[2.0781169,48.9042658],[2.0782028,48.9037183],[2.0781498,48.9036624],[2.0787494,48.8994523]]]]},"properties":{"code_section":"78551000AC","code_commune":"78551","section_courte":"AC"}},{"type":"Feature","geometry":{"type":"MultiPolygon","coordinates":[[[[2.0843068,48.9033351],[2.0872867,48.9011796],[2.0877658,48.9007996],[2.0880669,48.9003904],[2.0883869,48.8998313],[2.0884468,48.8998875],[2.0886628,48.8999533],[2.0888743,48.9000658],[2.089622,48.9005768],[2.0893106,48.9007272],[2.0896858,48.9013393],[2.0912061,48.9009012],[2.0935369,48.9003503],[2.0944375,48.9017482],[2.0936368,48.9034465],[2.0932473,48.9034016],[2.0892255,48.905646],[2.0884213,48.9053779],[2.0880345,48.905583],[2.0879573,48.9055718],[2.087911,48.9056011],[2.0878391,48.9058699],[2.0846097,48.9057147],[2.0844838,48.9057555],[2.0834979,48.905705],[2.0833583,48.905583],[2.0833756,48.9054803],[2.0829199,48.905133],[2.0826481,48.9050109],[2.0825818,48.9050638],[2.0824469,48.9049915],[2.0825548,48.9049147],[2.082297,48.9047548],[2.0843068,48.9033351]]]]},"properties":{"code_section":"78551000AD","code_commune":"78551","section_courte":"AD"}},{"type":"Feature","geometry":{"type":"MultiPolygon","coordinates":[[[[2.0945973,48.8996505],[2.0947137,48.8996411],[2.0945509,48.899239],[2.0945974,48.8987657],[2.094442,48.8987616],[2.0944754,48.8980078],[2.0946161,48.8979867],[2.0946744,48.8980975],[2.0950839,48.898357],[2.0953212,48.8981868],[2.0954701,48.8982529],[2.0957282,48.8982441],[2.0968219,48.8984753],[2.0984877,48.8984864],[2.0985215,48.8984966],[2.0985184,48.8985499],[2.0986681,48.8985666],[2.1010305,48.8986159],[2.1009905,48.9005233],[2.1013745,48.9006902],[2.1013553,48.9007058],[2.1014991,48.9008681],[2.1016277,48.9008699],[2.101613,48.9012717],[2.101483,48.9012687],[2.1012121,48.9015075],[2.1027584,48.904633],[2.1007547,48.9046096],[2.1007622,48.9034601],[2.1001234,48.903424],[2.1000897,48.9035278],[2.0989581,48.9033587],[2.0968137,48.902828],[2.0966464,48.9029702],[2.0962928,48.9030045],[2.094683,48.9021518],[2.0935369,48.9003503],[2.0936831,48.9004121],[2.0938468,48.9003754],[2.0939315,48.9004263],[2.0940009,48.9004057],[2.0939827,48.9003785],[2.0943807,48.9002541],[2.0944035,48.9000558],[2.0945973,48.8996505]]]]},"properties":{"code_section":"78551000AE","code_commune":"78551","section_courte":"AE"}},{"type":"Feature","geometry":{"type":"MultiPolygon","coordinates":[[[[2.0933736,48.8954609],[2.0937452,48.8953216],[2.0921032,48.89354],[2.0921977,48.8935115],[2.093013,48.893461],[2.0936292,48.8935464],[2.0960147,48.8935254],[2.0960628,48.893569],[2.0990171,48.8936303],[2.0986633,48.8943685],[2.0987642,48.8944108],[2.0988892,48.8945437],[2.1000974,48.894363],[2.1003025,48.8943691],[2.1006828,48.8945273],[2.1007709,48.8946536],[2.101732,48.8965518],[2.1018089,48.8985728],[2.1019337,48.8987096],[2.1019441,48.899201],[2.1020297,48.8993379],[2.1017491,48.8993445],[2.1015662,48.899398],[2.1013984,48.8994007],[2.1013257,48.8993339],[2.101019,48.8993312],[2.1010305,48.8986159],[2.0986681,48.8985666],[2.0985184,48.8985499],[2.0985215,48.8984966],[2.0984877,48.8984864],[2.0968219,48.8984753],[2.0957282,48.8982441],[2.0954701,48.8982529],[2.0953212,48.8981868],[2.0950839,48.898357],[2.0946744,48.8980975],[2.0946161,48.8979867],[2.0944754,48.8980078],[2.0944861,48.8979426],[2.0949049,48.8979098],[2.0949606,48.8975454],[2.0951553,48.8973624],[2.095423,48.8972262],[2.0955734,48.8970622],[2.0955685,48.8968787],[2.0954164,48.8966101],[2.0950876,48.8962955],[2.0946401,48.896117],[2.09388,48.895883],[2.0933736,48.8954609]]]]},"properties":{"code_section":"78551000AH","code_commune":"78551","section_courte":"AH"}},{"type":"Feature","geometry":{"type":"MultiPolygon","coordinates":[[[[2.0852603,48.8972495],[2.0848063,48.8968288],[2.0857302,48.8962278],[2.0875141,48.8955341],[2.0896559,48.8945064],[2.0898756,48.8946499],[2.089997,48.8946358],[2.0904438,48.8947114],[2.0911726,48.8940918],[2.0916618,48.8937464],[2.0921032,48.89354],[2.0937452,48.8953216],[2.0933736,48.8954609],[2.093446,48.8955366],[2.09388,48.895883],[2.0946401,48.896117],[2.0950876,48.8962955],[2.0954164,48.8966101],[2.0955685,48.8968787],[2.0955734,48.8970622],[2.095423,48.8972262],[2.0951553,48.8973624],[2.0949606,48.8975454],[2.0949049,48.8979098],[2.0944861,48.8979426],[2.094442,48.8987616],[2.0945974,48.8987657],[2.0945509,48.899239],[2.0947137,48.8996411],[2.0945973,48.8996505],[2.0944035,48.9000558],[2.0943807,48.9002541],[2.0939827,48.9003785],[2.0940009,48.9004057],[2.0939315,48.9004263],[2.0938468,48.9003754],[2.0936831,48.9004121],[2.0935369,48.9003503],[2.0918971,48.9007291],[2.0904856,48.9010955],[2.0896858,48.9013393],[2.0893106,48.9007272],[2.089622,48.9005768],[2.0888743,48.9000658],[2.0886628,48.8999533],[2.0884468,48.8998875],[2.0883869,48.8998313],[2.0884914,48.8996505],[2.0870207,48.898715],[2.0863866,48.8982509],[2.0852603,48.8972495]]]]},"properties":{"code_section":"78551000AI","code_commune":"78551","section_courte":"AI"}},{"type":"Feature","geometry":{"type":"MultiPolygon","coordinates":[[[[2.0923479,48.8905098],[2.0932482,48.8902475],[2.0965372,48.8899843],[2.0970942,48.8899888],[2.0972005,48.8897191],[2.0980072,48.8896154],[2.0988633,48.8897003],[2.0991222,48.88941],[2.0996258,48.8896153],[2.0999922,48.8899138],[2.100253,48.8903125],[2.1003379,48.8906646],[2.1002465,48.8911179],[2.0990171,48.8936303],[2.0960628,48.893569],[2.0960147,48.8935254],[2.0936292,48.8935464],[2.093013,48.893461],[2.0921977,48.8935115],[2.0921032,48.89354],[2.0899573,48.8912063],[2.0923479,48.8905098]]]]},"properties":{"code_section":"78551000AK","code_commune":"78551","section_courte":"AK"}},{"type":"Feature","geometry":{"type":"MultiPolygon","coordinates":[[[[2.0841731,48.8899033],[2.084866,48.8893343],[2.085473,48.8889404],[2.0857623,48.8890683],[2.0870681,48.8893552],[2.088456,48.8898272],[2.0880774,48.8905017],[2.0884754,48.8907058],[2.0886828,48.8905208],[2.0894634,48.8908882],[2.0899918,48.8905772],[2.0902164,48.8903678],[2.0907186,48.8900292],[2.0907845,48.8900605],[2.0898832,48.8910494],[2.0900327,48.8913079],[2.0921032,48.89354],[2.0916618,48.8937464],[2.0911726,48.8940918],[2.0904438,48.8947114],[2.089997,48.8946358],[2.0898756,48.8946499],[2.0878908,48.8931899],[2.0867946,48.8931262],[2.0860155,48.8934302],[2.0845665,48.8936019],[2.0835838,48.8931937],[2.0824283,48.8933511],[2.0829408,48.8927475],[2.0823359,48.8925553],[2.0825989,48.8921679],[2.0833703,48.8912778],[2.0837443,48.8905484],[2.0841731,48.8899033]]]]},"properties":{"code_section":"78551000AL","code_commune":"78551","section_courte":"AL"}},{"type":"Feature","geometry":{"type":"MultiPolygon","coordinates":[[[[2.0898843,48.8871222],[2.0906218,48.8869269],[2.0912175,48.8868232],[2.0928971,48.8866],[2.0936972,48.8865279],[2.0942902,48.8865096],[2.0947718,48.8865485],[2.0953918,48.8866705],[2.0955565,48.8866032],[2.0958379,48.8867313],[2.0961481,48.8870259],[2.0975267,48.8869741],[2.0975463,48.8872196],[2.0973088,48.8872824],[2.0971739,48.8873843],[2.0969816,48.8875976],[2.0969172,48.8877468],[2.0968921,48.8879361],[2.0970234,48.8883398],[2.0973,48.8886611],[2.097609,48.8888658],[2.0991222,48.88941],[2.0988633,48.8897003],[2.0980072,48.8896154],[2.0972005,48.8897191],[2.0970942,48.8899888],[2.0965372,48.8899843],[2.0932482,48.8902475],[2.0899573,48.8912063],[2.0898832,48.8910494],[2.0907845,48.8900605],[2.0907186,48.8900292],[2.0902164,48.8903678],[2.0899918,48.8905772],[2.0894634,48.8908882],[2.0886828,48.8905208],[2.0884754,48.8907058],[2.0880774,48.8905017],[2.088456,48.8898272],[2.0870681,48.8893552],[2.0857623,48.8890683],[2.085473,48.8889404],[2.0872321,48.8880912],[2.088472,48.8875705],[2.0898843,48.8871222]]]]},"properties":{"code_section":"78551000AM","code_commune":"78551","section_courte":"AM"}},{"type":"Feature","geometry":{"type":"MultiPolygon","coordinates":[[[[2.0807638,48.8864686],[2.0809723,48.8863729],[2.0826308,48.8858046],[2.0831205,48.8855913],[2.0834715,48.8853972],[2.0844704,48.8846447],[2.0848279,48.884412],[2.0853836,48.8841322],[2.0859478,48.8839116],[2.0877408,48.8844078],[2.0883805,48.8846238],[2.0899902,48.8854533],[2.0910996,48.8857806],[2.0918051,48.8860756],[2.0921475,48.8861279],[2.0930971,48.8860943],[2.0941343,48.8861073],[2.094564,48.8862003],[2.0955565,48.8866032],[2.0953918,48.8866705],[2.0947718,48.8865485],[2.0942902,48.8865096],[2.0936972,48.8865279],[2.0928971,48.8866],[2.0906218,48.8869269],[2.0898843,48.8871222],[2.088472,48.8875705],[2.0872321,48.8880912],[2.085473,48.8889404],[2.0843889,48.8886665],[2.0827441,48.8879017],[2.0817648,48.8873701],[2.0815595,48.8872177],[2.0811594,48.8867509],[2.0807638,48.8864686]]]]},"properties":{"code_section":"78551000AN","code_commune":"78551","section_courte":"AN"}},{"type":"Feature","geometry":{"type":"MultiPolygon","coordinates":[[[[2.0755941,48.8879602],[2.0756313,48.8873394],[2.0786158,48.8877099],[2.0786436,48.8876419],[2.078463,48.8874421],[2.0790654,48.8871318],[2.0803941,48.8866881],[2.0807638,48.8864686],[2.0811594,48.8867509],[2.0815595,48.8872177],[2.0817648,48.8873701],[2.0827441,48.8879017],[2.0843889,48.8886665],[2.085473,48.8889404],[2.084866,48.8893343],[2.0841731,48.8899033],[2.0837443,48.8905484],[2.0833703,48.8912778],[2.0825989,48.8921679],[2.0823359,48.8925553],[2.0829408,48.8927475],[2.0824283,48.8933511],[2.0816614,48.8933941],[2.0815213,48.8932562],[2.0810463,48.8933628],[2.0806988,48.8933822],[2.0804517,48.8933633],[2.0801099,48.8932499],[2.0795115,48.8928701],[2.0780889,48.8907168],[2.0778566,48.8907475],[2.077839,48.890701],[2.0778854,48.8906735],[2.0777622,48.8904958],[2.0774694,48.8897334],[2.0772792,48.8894467],[2.0766665,48.8889025],[2.0760226,48.8882074],[2.0755738,48.8883249],[2.0755941,48.8879602]]]]},"properties":{"code_section":"78551000AO","code_commune":"78551","section_courte":"AO"}},{"type":"Feature","geometry":{"type":"MultiPolygon","coordinates":[[[[2.0824283,48.8933511],[2.0835838,48.8931937],[2.0845665,48.8936019],[2.0860155,48.8934302],[2.0867946,48.8931262],[2.0878908,48.8931899],[2.0896559,48.8945064],[2.0875141,48.8955341],[2.0857302,48.8962278],[2.0848063,48.8968288],[2.0850335,48.8970499],[2.0849099,48.8970562],[2.0834124,48.8975803],[2.0826834,48.8978731],[2.0819378,48.8982832],[2.08061,48.8987488],[2.0803624,48.8976254],[2.0803074,48.8975788],[2.081865,48.8968982],[2.081277,48.8960845],[2.0812805,48.8960096],[2.0814792,48.895674],[2.0815468,48.8954108],[2.0828783,48.8947283],[2.0822017,48.8942741],[2.0821142,48.8943298],[2.081873,48.894192],[2.0822975,48.8933625],[2.0824283,48.8933511]]]]},"properties":{"code_section":"78551000AP","code_commune":"78551","section_courte":"AP"}},{"type":"Feature","geometry":{"type":"MultiPolygon","coordinates":[[[[2.0721227,48.8980991],[2.0727553,48.8975274],[2.0730631,48.8974902],[2.0735649,48.8973741],[2.0733421,48.8972134],[2.0730046,48.8965443],[2.0726908,48.896116],[2.0725476,48.8957242],[2.0743591,48.8952114],[2.0745402,48.8950714],[2.0763129,48.8945029],[2.0763357,48.8945475],[2.078019,48.893942],[2.0799461,48.8931391],[2.0801099,48.8932499],[2.0804517,48.8933633],[2.0806988,48.8933822],[2.0810463,48.8933628],[2.0815213,48.8932562],[2.0816614,48.8933941],[2.0822975,48.8933625],[2.081873,48.894192],[2.0821142,48.8943298],[2.0822017,48.8942741],[2.0828783,48.8947283],[2.0815468,48.8954108],[2.0814792,48.895674],[2.0812805,48.8960096],[2.081277,48.8960845],[2.081865,48.8968982],[2.0803074,48.8975788],[2.0803624,48.8976254],[2.08061,48.8987488],[2.0787494,48.8994523],[2.0787345,48.8995738],[2.0748805,48.8994814],[2.0713104,48.8994432],[2.0712408,48.8993845],[2.0715989,48.8990925],[2.071863,48.8985795],[2.0718249,48.8981603],[2.071917,48.8981284],[2.0719576,48.8982017],[2.0721227,48.8980991]]]]},"properties":{"code_section":"78551000AR","code_commune":"78551","section_courte":"AR"}},{"type":"Feature","geometry":{"type":"MultiPolygon","coordinates":[[[[2.0703946,48.8916965],[2.0705516,48.8916346],[2.0726338,48.8893493],[2.0733777,48.8885905],[2.0737965,48.8882401],[2.0751397,48.8872763],[2.0756313,48.8873394],[2.0755738,48.8883249],[2.0760226,48.8882074],[2.0766665,48.8889025],[2.0772792,48.8894467],[2.0774694,48.8897334],[2.0777622,48.8904958],[2.0778854,48.8906735],[2.077839,48.890701],[2.0778566,48.8907475],[2.0780889,48.8907168],[2.0795115,48.8928701],[2.0799461,48.8931391],[2.078019,48.893942],[2.0763357,48.8945475],[2.0763129,48.8945029],[2.0745402,48.8950714],[2.0743591,48.8952114],[2.0725476,48.8957242],[2.072389,48.895438],[2.0717773,48.8950032],[2.0715119,48.8945779],[2.0712287,48.8940389],[2.0705439,48.8924399],[2.0705487,48.8923511],[2.0706933,48.8921218],[2.0706177,48.8920488],[2.0706534,48.8920129],[2.0706163,48.8919668],[2.0703394,48.891876],[2.0702972,48.8917654],[2.0703946,48.8916965]]]]},"properties":{"code_section":"78551000AS","code_commune":"78551","section_courte":"AS"}},{"type":"Feature","geometry":{"type":"MultiPolygon","coordinates":[[[[2.0619364,48.8925948],[2.0619764,48.892229],[2.0624836,48.8919082],[2.0635603,48.8913661],[2.0642036,48.8909672],[2.0651585,48.8904452],[2.0668056,48.8897895],[2.0672332,48.8895549],[2.0674434,48.8889706],[2.0675258,48.8889146],[2.0684237,48.8886961],[2.0692111,48.8895852],[2.0695102,48.8899819],[2.0696307,48.8901741],[2.0700266,48.8910768],[2.0703394,48.891876],[2.0706163,48.8919668],[2.0706534,48.8920129],[2.0706177,48.8920488],[2.07068,48.8920981],[2.0706922,48.8921664],[2.0705487,48.8923511],[2.0705439,48.8924399],[2.0712287,48.8940389],[2.0716503,48.8948323],[2.0717773,48.8950032],[2.072389,48.895438],[2.0725476,48.8957242],[2.0726908,48.896116],[2.0730046,48.8965443],[2.0733421,48.8972134],[2.0735649,48.8973741],[2.0730631,48.8974902],[2.071911,48.8976176],[2.0714165,48.8977801],[2.0707144,48.8979229],[2.0702339,48.8979132],[2.0692324,48.897656],[2.0686083,48.8973445],[2.067939,48.8969408],[2.0672314,48.8964126],[2.0664748,48.8956469],[2.0662202,48.8954542],[2.0659338,48.8953088],[2.0649273,48.8950277],[2.0628147,48.8946422],[2.0623368,48.8940911],[2.0619922,48.8935709],[2.061902,48.8930904],[2.0619364,48.8925948]]]]},"properties":{"code_section":"78551000AT","code_commune":"78551","section_courte":"AT"}},{"type":"Feature","geometry":{"type":"MultiPolygon","coordinates":[[[[2.0647249,48.8959025],[2.0642239,48.8954395],[2.063972,48.8953892],[2.06379,48.8952036],[2.0631511,48.8948638],[2.0628147,48.8946422],[2.0649273,48.8950277],[2.0659338,48.8953088],[2.0662202,48.8954542],[2.0664748,48.8956469],[2.0672314,48.8964126],[2.067939,48.8969408],[2.0686083,48.8973445],[2.0692324,48.897656],[2.0702339,48.8979132],[2.0707144,48.8979229],[2.0714165,48.8977801],[2.071911,48.8976176],[2.0724573,48.8975393],[2.0727553,48.8975274],[2.0721806,48.898063],[2.0719576,48.8982017],[2.071917,48.8981284],[2.0718249,48.8981603],[2.071863,48.8985795],[2.0715989,48.8990925],[2.0712408,48.8993845],[2.0705806,48.89937],[2.0705715,48.8992258],[2.0701878,48.8991515],[2.067177,48.8987845],[2.0667321,48.898173],[2.0664298,48.8978535],[2.0659877,48.8972392],[2.0655095,48.8966746],[2.0652101,48.8964156],[2.0647249,48.8959025]]]]},"properties":{"code_section":"78551000AV","code_commune":"78551","section_courte":"AV"}},{"type":"Feature","geometry":{"type":"MultiPolygon","coordinates":[[[[2.06273,48.8985312],[2.0636267,48.8984786],[2.0644958,48.8984788],[2.0701878,48.8991515],[2.0705715,48.8992258],[2.0705806,48.89937],[2.0712408,48.8993845],[2.0713104,48.8994432],[2.0717972,48.899448],[2.0713732,48.9023498],[2.0716227,48.9024192],[2.071463,48.9034543],[2.0681825,48.9025444],[2.0681734,48.9026005],[2.0660766,48.9031782],[2.0634162,48.9024415],[2.0631097,48.9011362],[2.0623307,48.8985302],[2.06273,48.8985312]]]]},"properties":{"code_section":"78551000AW","code_commune":"78551","section_courte":"AW"}},{"type":"Feature","geometry":{"type":"MultiPolygon","coordinates":[[[[2.0596699,48.896307],[2.0598749,48.8958064],[2.0602894,48.8951963],[2.0610998,48.8942717],[2.0612866,48.8941522],[2.0614517,48.8941058],[2.0615838,48.8941002],[2.0618822,48.8941747],[2.0620611,48.8941231],[2.0623368,48.8940911],[2.0628147,48.8946422],[2.0631511,48.8948638],[2.06379,48.8952036],[2.063972,48.8953892],[2.0642239,48.8954395],[2.0647249,48.8959025],[2.0652101,48.8964156],[2.0655095,48.8966746],[2.0659877,48.8972392],[2.0664298,48.8978535],[2.0667321,48.898173],[2.067177,48.8987845],[2.0644958,48.8984788],[2.0636267,48.8984786],[2.0623307,48.8985302],[2.0630658,48.9010778],[2.0628976,48.9011377],[2.062404,48.9009132],[2.0624185,48.9008175],[2.0596155,48.8998562],[2.0574234,48.8993565],[2.0573111,48.8993705],[2.0568938,48.8981892],[2.0548967,48.8976468],[2.0558641,48.897348],[2.0576151,48.8969046],[2.0580191,48.8968308],[2.0585899,48.8967972],[2.0586191,48.8967892],[2.0585905,48.896762],[2.059184,48.8966609],[2.0593829,48.8965613],[2.0596699,48.896307]]]]},"properties":{"code_section":"78551000AX","code_commune":"78551","section_courte":"AX"}},{"type":"Feature","geometry":{"type":"MultiPolygon","coordinates":[[[[2.0541469,48.8976022],[2.054492,48.8976712],[2.0548474,48.8976338],[2.0568938,48.8981892],[2.0573111,48.8993705],[2.0574234,48.8993565],[2.0596155,48.8998562],[2.0624185,48.9008175],[2.062404,48.9009132],[2.0628976,48.9011377],[2.0547452,48.9040315],[2.0525081,48.900341],[2.0524461,48.9000587],[2.0523498,48.8998625],[2.052375,48.8997196],[2.0523153,48.8995483],[2.052424,48.899355],[2.0529463,48.8991462],[2.0532027,48.8989515],[2.0542384,48.8977593],[2.0541469,48.8976022]]]]},"properties":{"code_section":"78551000AY","code_commune":"78551","section_courte":"AY"}},{"type":"Feature","geometry":{"type":"MultiPolygon","coordinates":[[[[2.0628976,48.9011377],[2.0630658,48.9010778],[2.0631097,48.9011362],[2.0634162,48.9024415],[2.0660766,48.9031782],[2.0649179,48.9034928],[2.0643496,48.903847],[2.0639583,48.9038223],[2.0638929,48.9037541],[2.0636983,48.9037981],[2.0578514,48.9053713],[2.0538275,48.9071399],[2.0531996,48.9051234],[2.0549709,48.9043678],[2.0547452,48.9040315],[2.0628976,48.9011377]]]]},"properties":{"code_section":"78551000AZ","code_commune":"78551","section_courte":"AZ"}},{"type":"Feature","geometry":{"type":"MultiPolygon","coordinates":[[[[2.087255,48.9796989],[2.1081844,48.9762024],[2.1082693,48.9762117],[2.1095094,48.9816682],[2.0856878,48.9853433],[2.0846582,48.9851675],[2.0853309,48.9834816],[2.0861848,48.9816371],[2.0871303,48.9797129],[2.087255,48.9796989]]]]},"properties":{"code_section":"78551000BC","code_commune":"78551","section_courte":"BC"}},{"type":"Feature","geometry":{"type":"MultiPolygon","coordinates":[[[[2.1082818,48.9762667],[2.1082693,48.9762117],[2.1154658,48.9771035],[2.1231822,48.9809691],[2.1248312,48.9811989],[2.1248157,48.9812523],[2.1259347,48.9824095],[2.1260695,48.9826518],[2.126128,48.9830551],[2.1262552,48.983436],[2.1262282,48.9839871],[2.1265361,48.9871053],[2.1221556,48.9872923],[2.1216147,48.9872754],[2.1143627,48.9861445],[2.1141347,48.98278],[2.1095094,48.9816682],[2.1082818,48.9762667]]]]},"properties":{"code_section":"78551000BD","code_commune":"78551","section_courte":"BD"}},{"type":"Feature","geometry":{"type":"MultiPolygon","coordinates":[[[[2.1260505,48.9825956],[2.1258735,48.9823396],[2.1248157,48.9812523],[2.1248312,48.9811989],[2.1260293,48.9813695],[2.1400003,48.9808506],[2.142127,48.9799119],[2.1429091,48.9801736],[2.1447587,48.9835719],[2.1447997,48.9835585],[2.1449185,48.9837217],[2.1456049,48.9852008],[2.1429231,48.985929],[2.141202,48.9862033],[2.140726,48.986255],[2.1317741,48.9868932],[2.1265361,48.9871053],[2.1262282,48.9839871],[2.1262552,48.983436],[2.126128,48.9830551],[2.1260505,48.9825956]]]]},"properties":{"code_section":"78551000BE","code_commune":"78551","section_courte":"BE"}},{"type":"Feature","geometry":{"type":"MultiPolygon","coordinates":[[[[2.1489735,48.9769118],[2.1562685,48.9737766],[2.1608961,48.9775183],[2.1612571,48.9773251],[2.1632247,48.9760556],[2.1652438,48.9774006],[2.1642846,48.9780142],[2.1616802,48.9794098],[2.1584339,48.9810186],[2.155818,48.9819812],[2.1558339,48.9820032],[2.1509002,48.9836904],[2.1456049,48.9852008],[2.1449185,48.9837217],[2.1447997,48.9835585],[2.1447587,48.9835719],[2.1429091,48.9801736],[2.142127,48.9799119],[2.1489735,48.9769118]]]]},"properties":{"code_section":"78551000BH","code_commune":"78551","section_courte":"BH"}},{"type":"Feature","geometry":{"type":"MultiPolygon","coordinates":[[[[2.1613007,48.9646022],[2.1731397,48.9640522],[2.1714693,48.9704132],[2.1701697,48.9736423],[2.1697987,48.9741073],[2.1681959,48.9754517],[2.1652438,48.9774006],[2.1632247,48.9760556],[2.1612571,48.9773251],[2.1608961,48.9775183],[2.1562685,48.9737766],[2.1565453,48.9736561],[2.1597354,48.971712],[2.1615551,48.9689406],[2.1613007,48.9646022]]]]},"properties":{"code_section":"78551000BI","code_commune":"78551","section_courte":"BI"}},{"type":"Feature","geometry":{"type":"MultiPolygon","coordinates":[[[[2.049806,48.8943623],[2.0497261,48.8940389],[2.0498848,48.8938242],[2.0496186,48.8929259],[2.0497336,48.8921539],[2.0499353,48.8917004],[2.0499879,48.8914056],[2.0498075,48.891292],[2.0500813,48.8900591],[2.0502609,48.8899637],[2.052469,48.8891415],[2.0524342,48.8890891],[2.0529925,48.8889336],[2.0534544,48.889564],[2.055222,48.8886919],[2.0562118,48.8894674],[2.0560305,48.8895685],[2.056711,48.8901509],[2.0559586,48.8905424],[2.0563173,48.8908366],[2.0563626,48.8908116],[2.0572825,48.8916062],[2.0572464,48.8916253],[2.0573196,48.8916843],[2.0572779,48.8917049],[2.058356,48.8927047],[2.0585515,48.8926049],[2.0582548,48.8923582],[2.0585324,48.892212],[2.0588337,48.8924486],[2.0589341,48.8923936],[2.0586237,48.892164],[2.0606886,48.8910726],[2.0604083,48.890681],[2.0615451,48.8899785],[2.0632952,48.8886324],[2.0633255,48.8886864],[2.0636333,48.8885579],[2.0637083,48.8886059],[2.0641118,48.8883969],[2.0660431,48.8901051],[2.064977,48.8905495],[2.0640757,48.8910307],[2.0633466,48.8914924],[2.0620089,48.8921955],[2.0618898,48.8928807],[2.0619705,48.8936316],[2.0622967,48.8941429],[2.0618387,48.8942165],[2.0614382,48.8941443],[2.0611709,48.8942422],[2.0607424,48.8946751],[2.0601418,48.8953935],[2.0598716,48.8958463],[2.0597741,48.8961645],[2.0596444,48.8963767],[2.0594695,48.8965332],[2.0592247,48.8966579],[2.058586,48.89677],[2.0586349,48.8967951],[2.058092,48.8968143],[2.0574958,48.8969173],[2.0547144,48.8976503],[2.0544895,48.8976726],[2.054263,48.8976527],[2.0542114,48.8976397],[2.0541486,48.8975587],[2.0537789,48.8976772],[2.050183,48.8949097],[2.049806,48.8943623]]]]},"properties":{"code_section":"785512510A","code_commune":"78551","section_courte":"2510A"}},{"type":"Feature","geometry":{"type":"MultiPolygon","coordinates":[[[[2.0702412,48.8842102],[2.0708058,48.8845435],[2.0725473,48.8853832],[2.0703438,48.8866804],[2.0696868,48.8873863],[2.0683895,48.8886635],[2.0681683,48.8887471],[2.0674893,48.8889037],[2.067425,48.8889469],[2.0673199,48.8893984],[2.0672288,48.8895335],[2.0669248,48.8897343],[2.0660431,48.8901051],[2.0641118,48.8883969],[2.0637083,48.8886059],[2.0636333,48.8885579],[2.0633255,48.8886864],[2.0632336,48.8878136],[2.063272,48.8876958],[2.0632076,48.8876983],[2.0631807,48.8877301],[2.0631785,48.8876996],[2.0631432,48.887701],[2.0630337,48.8865049],[2.0631089,48.8862417],[2.0624499,48.8861957],[2.062407,48.8861487],[2.0622466,48.8861761],[2.0622048,48.8860671],[2.0622229,48.8859476],[2.0622805,48.8859534],[2.0622858,48.8858749],[2.0623514,48.885881],[2.0623681,48.8857044],[2.0619693,48.8856535],[2.0619498,48.8855756],[2.0615568,48.8852099],[2.0614453,48.8851846],[2.0611683,48.8853275],[2.0608887,48.8851079],[2.0608541,48.8851002],[2.0607268,48.8851735],[2.060555,48.8850539],[2.0605201,48.8849822],[2.0602466,48.885117],[2.0600564,48.8849492],[2.0600273,48.8849647],[2.0594439,48.8844376],[2.0599841,48.8842689],[2.0601705,48.8842993],[2.0605387,48.8845269],[2.0607917,48.8844192],[2.0605515,48.8839768],[2.0604772,48.8837273],[2.0603234,48.8835447],[2.0601772,48.8834477],[2.0582654,48.8824285],[2.0566708,48.8808707],[2.0598099,48.8810295],[2.0602738,48.8799201],[2.061209,48.8794038],[2.0627167,48.8783907],[2.0642135,48.8792285],[2.0658455,48.88022],[2.0675691,48.8811585],[2.0685543,48.8818649],[2.0691434,48.8824613],[2.0704643,48.8840312],[2.0702412,48.8842102]]]]},"properties":{"code_section":"785512510B","code_commune":"78551","section_courte":"2510B"}},{"type":"Feature","geometry":{"type":"MultiPolygon","coordinates":[[[[2.0575172,48.8880654],[2.0570865,48.8877625],[2.0534544,48.889564],[2.0529925,48.8889336],[2.0524517,48.889084],[2.0505634,48.8863544],[2.050051,48.8852241],[2.0479897,48.8828623],[2.0480092,48.8828257],[2.0490128,48.882479],[2.0510282,48.8815762],[2.0523609,48.8813632],[2.0537831,48.8819996],[2.0544567,48.8822342],[2.0563935,48.8808675],[2.0566708,48.8808707],[2.0582654,48.8824285],[2.0601772,48.8834477],[2.0603234,48.8835447],[2.0604772,48.8837273],[2.0605515,48.8839768],[2.0607917,48.8844192],[2.0605387,48.8845269],[2.0601705,48.8842993],[2.0599841,48.8842689],[2.0594439,48.8844376],[2.0600273,48.8849647],[2.0600564,48.8849492],[2.0602466,48.885117],[2.0605201,48.8849822],[2.060555,48.8850539],[2.0607268,48.8851735],[2.0608541,48.8851002],[2.0608887,48.8851079],[2.0611683,48.8853275],[2.0614453,48.8851846],[2.0615568,48.8852099],[2.0619498,48.8855756],[2.0619693,48.8856535],[2.0623681,48.8857044],[2.0623514,48.885881],[2.0622858,48.8858749],[2.0622805,48.8859534],[2.0622229,48.8859476],[2.0622048,48.8860671],[2.0622466,48.8861761],[2.062407,48.8861487],[2.0624499,48.8861957],[2.0631089,48.8862417],[2.0630337,48.8865049],[2.0631432,48.887701],[2.0631785,48.8876996],[2.0631807,48.8877301],[2.0632076,48.8876983],[2.063272,48.8876958],[2.0632336,48.8878136],[2.0632952,48.8886324],[2.0615451,48.8899785],[2.0604083,48.890681],[2.0595376,48.8896292],[2.0575172,48.8880654]]]]},"properties":{"code_section":"785512510C","code_commune":"78551","section_courte":"2510C"}},{"type":"Feature","geometry":{"type":"MultiPolygon","coordinates":[[[[2.0468943,48.874657],[2.0508607,48.8770889],[2.0545142,48.8782701],[2.0546016,48.8783295],[2.0547394,48.8783427],[2.0602185,48.8800558],[2.0598099,48.8810295],[2.0563935,48.8808675],[2.0544567,48.8822342],[2.0537831,48.8819996],[2.0523609,48.8813632],[2.0510282,48.8815762],[2.0490128,48.882479],[2.0480092,48.8828257],[2.0479897,48.8828623],[2.050051,48.8852241],[2.0505634,48.8863544],[2.052469,48.8891415],[2.0502609,48.8899637],[2.0500813,48.8900591],[2.0498075,48.891292],[2.0497619,48.8913173],[2.0461661,48.8923885],[2.0372192,48.8775258],[2.0468943,48.874657]]]]},"properties":{"code_section":"785512510D","code_commune":"78551","section_courte":"2510D"}},{"type":"Feature","geometry":{"type":"MultiPolygon","coordinates":[[[[2.0720511,48.8900188],[2.0705836,48.8916214],[2.070309,48.8917535],[2.0696034,48.8901097],[2.0692736,48.889629],[2.0683895,48.8886635],[2.0696868,48.8873863],[2.0703438,48.8866804],[2.0751187,48.8872647],[2.0743366,48.8878023],[2.0735583,48.8883997],[2.0725542,48.8893843],[2.072019,48.8899816],[2.0720511,48.8900188]]]]},"properties":{"code_section":"785512510E","code_commune":"78551","section_courte":"2510E"}},{"type":"Feature","geometry":{"type":"MultiPolygon","coordinates":[[[[2.056711,48.8901509],[2.0560305,48.8895685],[2.0562118,48.8894674],[2.055222,48.8886919],[2.0570865,48.8877625],[2.0584377,48.8887628],[2.0595376,48.8896292],[2.0604083,48.890681],[2.0606886,48.8910726],[2.0586237,48.892164],[2.0589341,48.8923936],[2.0588337,48.8924486],[2.0585324,48.892212],[2.0582548,48.8923582],[2.0585515,48.8926049],[2.058356,48.8927047],[2.0572779,48.8917049],[2.0573196,48.8916843],[2.0572464,48.8916253],[2.0572825,48.8916062],[2.0563626,48.8908116],[2.0563173,48.8908366],[2.0559586,48.8905424],[2.056711,48.8901509]]]]},"properties":{"code_section":"78551251AA","code_commune":"78551","section_courte":"251AA"}}]}