{"type":"FeatureCollection","features":[{"type":"Feature","geometry":{"type":"MultiPolygon","coordinates":[[[[1.9731399,49.0163632],[1.9732116,49.016494],[1.9735854,49.0168273],[1.9743761,49.0171055],[1.9756327,49.0174124],[1.9738833,49.017934],[1.9747969,49.0189417],[1.9739433,49.0194907],[1.9738065,49.0195369],[1.9737743,49.0195619],[1.9738151,49.019613],[1.9736228,49.0196907],[1.9723327,49.0206163],[1.9693126,49.0215609],[1.9682089,49.0220726],[1.9670318,49.0224963],[1.9667967,49.0226252],[1.9665385,49.0227975],[1.9640925,49.0253508],[1.9640061,49.0253692],[1.9633544,49.0246905],[1.9631281,49.0245213],[1.9622261,49.0240844],[1.9616902,49.023755],[1.961358,49.0232732],[1.9612718,49.0232076],[1.9610787,49.0231481],[1.9605146,49.0231471],[1.9600211,49.0230562],[1.9597418,49.0229177],[1.9595504,49.02278],[1.9593628,49.022575],[1.9590942,49.0224133],[1.9576913,49.0220463],[1.9567607,49.0218838],[1.9568059,49.02181],[1.9573522,49.0214731],[1.9582462,49.0207649],[1.9588321,49.0202502],[1.9591228,49.0198085],[1.9569468,49.019593],[1.9559476,49.0194375],[1.9549565,49.0192717],[1.9543946,49.0191255],[1.9525564,49.0187636],[1.9525736,49.018486],[1.9531415,49.0184157],[1.9531426,49.0181305],[1.9550768,49.0177984],[1.9564103,49.017533],[1.956193,49.0167025],[1.9585492,49.0167605],[1.9590625,49.0168313],[1.9612729,49.0167269],[1.9624165,49.0167598],[1.962963,49.0168184],[1.9634138,49.0168185],[1.9640015,49.0167478],[1.9644581,49.016756],[1.9648076,49.0168267],[1.9649777,49.0167945],[1.9657716,49.0164844],[1.9663872,49.0160818],[1.9669145,49.0158917],[1.9672737,49.0157059],[1.9674365,49.0153809],[1.9676012,49.0152484],[1.9678869,49.0148893],[1.9682553,49.0147565],[1.9695162,49.0144535],[1.9698888,49.0142804],[1.9702991,49.0141564],[1.9708285,49.0138974],[1.9711298,49.0138236],[1.9719957,49.014336],[1.9727661,49.0151099],[1.9729583,49.0154424],[1.9731399,49.0163632]]]]},"properties":{"code_section":"786380000A","code_commune":"78638","section_courte":"A"}},{"type":"Feature","geometry":{"type":"MultiPolygon","coordinates":[[[[1.9807645,49.0084582],[1.9810347,49.0081381],[1.9802472,49.0075783],[1.9800017,49.0076723],[1.9794769,49.0074568],[1.979368,49.0073626],[1.9798466,49.0068627],[1.9807495,49.0063644],[1.9805092,49.0061429],[1.9805531,49.0060438],[1.9800872,49.0054664],[1.9808072,49.0050333],[1.9803117,49.0046169],[1.9807172,49.0043616],[1.9802979,49.0039586],[1.9805236,49.0038699],[1.9808387,49.003575],[1.9813014,49.0032667],[1.9813896,49.0032381],[1.981576,49.0030863],[1.9816758,49.0031539],[1.9821842,49.0024927],[1.9824633,49.0020334],[1.9826741,49.0018689],[1.9831746,49.0013359],[1.9834572,49.0011008],[1.9836941,49.0009776],[1.9845996,49.0002951],[1.9848685,49.000039],[1.9848231,48.9998645],[1.9849396,48.9997358],[1.9856975,48.9993146],[1.9864874,48.9990029],[1.9867219,48.9989824],[1.9869446,48.9988505],[1.9870956,48.9988203],[1.987478,48.9985288],[1.9875995,48.9983926],[1.9877396,48.9981016],[1.9878874,48.9979692],[1.9885938,48.9977186],[1.9887982,48.9980522],[1.9890958,48.9983648],[1.9891486,48.9983399],[1.9894516,48.9988319],[1.9897442,48.9989761],[1.9895243,48.9991647],[1.989794,48.9993036],[1.9900701,48.9995833],[1.9903947,48.9998109],[1.9903546,49.0000219],[1.9902327,49.0000621],[1.9903822,49.0003394],[1.9896099,49.0002991],[1.9888427,49.0003703],[1.9894239,49.000777],[1.9907878,49.0018759],[1.9913278,49.0023715],[1.9918356,49.0027365],[1.9920356,49.0028366],[1.9958397,49.0043624],[1.9983837,49.0053355],[1.9972661,49.0079544],[1.9987096,49.0082279],[1.998745,49.0082568],[2.0002262,49.0085185],[2.0035033,49.010505],[2.0041961,49.010344],[1.9943625,49.0190787],[1.9922813,49.0209374],[1.9922569,49.0210017],[1.9901297,49.0206951],[1.9887658,49.0204673],[1.9864313,49.0198392],[1.9854535,49.0196993],[1.9826118,49.0191571],[1.981458,49.0190231],[1.9805854,49.0189906],[1.9798429,49.0189074],[1.9793594,49.0189205],[1.9740928,49.0194585],[1.9738225,49.0195222],[1.9739433,49.0194907],[1.9747969,49.0189417],[1.9738833,49.017934],[1.9756327,49.0174124],[1.9743761,49.0171055],[1.9735854,49.0168273],[1.9732116,49.016494],[1.9731399,49.0163632],[1.9729583,49.0154424],[1.9727661,49.0151099],[1.9719957,49.014336],[1.9711298,49.0138236],[1.9723636,49.0133469],[1.9727233,49.013464],[1.9733991,49.0139448],[1.9745237,49.014262],[1.9746732,49.0142523],[1.9760557,49.013716],[1.9764195,49.0135371],[1.9766975,49.0132976],[1.9767773,49.0130861],[1.9768331,49.0123909],[1.9779649,49.0134464],[1.9790582,49.0140762],[1.9801867,49.0136688],[1.9802587,49.0135887],[1.9802596,49.013232],[1.980645,49.0128732],[1.9810701,49.0120532],[1.9806383,49.0117104],[1.9807813,49.0116122],[1.9809636,49.0115399],[1.9811428,49.0110479],[1.9813627,49.0106632],[1.9813794,49.0102895],[1.9812016,49.0100419],[1.9813287,49.0100758],[1.9813635,49.0099964],[1.9817485,49.0096791],[1.9818485,49.0096103],[1.9820714,49.0095468],[1.9824964,49.009239],[1.981817,49.0088426],[1.9817219,49.0089158],[1.9807645,49.0084582]]]]},"properties":{"code_section":"786380000B","code_commune":"78638","section_courte":"B"}},{"type":"Feature","geometry":{"type":"MultiPolygon","coordinates":[[[[1.9552425,49.0114445],[1.9553228,49.0113988],[1.95595,49.011361],[1.9566948,49.011403],[1.9568473,49.0113823],[1.9571802,49.011319],[1.9581245,49.0110451],[1.9589553,49.0109158],[1.9602246,49.0112193],[1.960853,49.0113399],[1.9622945,49.0115435],[1.9627458,49.0116546],[1.9631086,49.011773],[1.9633754,49.0118977],[1.9637379,49.0121187],[1.9637343,49.0124101],[1.9636635,49.0126032],[1.9632161,49.0132755],[1.9631384,49.0134948],[1.9630581,49.0141305],[1.9628996,49.0146062],[1.9626875,49.0149384],[1.9612729,49.0167269],[1.9590625,49.0168313],[1.9585492,49.0167605],[1.9558676,49.0166929],[1.9543817,49.0168011],[1.9539572,49.0167725],[1.9541011,49.0165016],[1.9549477,49.0155028],[1.9549333,49.0151575],[1.9547639,49.0143662],[1.9542268,49.0146606],[1.953745,49.0146634],[1.9532618,49.0132888],[1.9527334,49.0133575],[1.9527317,49.013129],[1.9525442,49.0121872],[1.952435,49.0119527],[1.9546783,49.0116573],[1.9546447,49.0115519],[1.9552425,49.0114445]]]]},"properties":{"code_section":"78638000AA","code_commune":"78638","section_courte":"AA"}},{"type":"Feature","geometry":{"type":"MultiPolygon","coordinates":[[[[1.9711298,49.0138236],[1.9695836,49.0144665],[1.9683641,49.0147737],[1.9681293,49.0148789],[1.9679551,49.0150074],[1.9673675,49.0156744],[1.9669145,49.0158917],[1.9663872,49.0160818],[1.9657716,49.0164844],[1.9649777,49.0167945],[1.9648076,49.0168267],[1.9644581,49.016756],[1.9640015,49.0167478],[1.9634138,49.0168185],[1.962963,49.0168184],[1.9624165,49.0167598],[1.9612729,49.0167269],[1.9626875,49.0149384],[1.9628996,49.0146062],[1.9630581,49.0141305],[1.9631384,49.0134948],[1.9632161,49.0132755],[1.9636635,49.0126032],[1.9637343,49.0124101],[1.9637379,49.0121187],[1.9643949,49.0124228],[1.9646435,49.0124833],[1.9657521,49.0123643],[1.9660749,49.0125195],[1.9665163,49.0126246],[1.9669911,49.0126665],[1.9681067,49.0125118],[1.9685319,49.0125298],[1.9684962,49.0122038],[1.9685804,49.0120305],[1.9690318,49.0117141],[1.9694514,49.011514],[1.9698502,49.0112307],[1.9705603,49.0117913],[1.97107,49.012271],[1.9723636,49.0133469],[1.9711298,49.0138236]]]]},"properties":{"code_section":"78638000AC","code_commune":"78638","section_courte":"AC"}},{"type":"Feature","geometry":{"type":"MultiPolygon","coordinates":[[[[1.9619518,49.0114923],[1.960853,49.0113399],[1.9602246,49.0112193],[1.9589553,49.0109158],[1.9588036,49.0109267],[1.9588322,49.0107725],[1.9590081,49.0105278],[1.9592268,49.0104035],[1.9603157,49.0101526],[1.9605103,49.0100739],[1.9605848,49.0099988],[1.9605946,49.0097575],[1.9602468,49.0097317],[1.9601057,49.0096159],[1.9600703,49.0095042],[1.9601481,49.0093889],[1.9608488,49.0089844],[1.9613,49.0087648],[1.9619635,49.008581],[1.9640078,49.0083378],[1.965771,49.0079543],[1.9660778,49.0079198],[1.9669389,49.0078876],[1.9681388,49.0081443],[1.9693438,49.009239],[1.9696028,49.0096876],[1.9700873,49.0103245],[1.9705509,49.0106731],[1.9706138,49.0108023],[1.9705009,49.0109053],[1.9700876,49.0110187],[1.9696191,49.0114053],[1.9690318,49.0117141],[1.9685804,49.0120305],[1.9684962,49.0122038],[1.9685319,49.0125298],[1.9681067,49.0125118],[1.9669911,49.0126665],[1.9665163,49.0126246],[1.9660749,49.0125195],[1.9657521,49.0123643],[1.9646435,49.0124833],[1.9643949,49.0124228],[1.9640998,49.0122895],[1.9631086,49.011773],[1.9622945,49.0115435],[1.9619518,49.0114923]]]]},"properties":{"code_section":"78638000AD","code_commune":"78638","section_courte":"AD"}},{"type":"Feature","geometry":{"type":"MultiPolygon","coordinates":[[[[1.9751687,49.0095403],[1.9750694,49.0095483],[1.9752552,49.0097637],[1.9745796,49.0100321],[1.9745203,49.0099639],[1.9731357,49.0105399],[1.9705603,49.0117913],[1.9698502,49.0112307],[1.9700876,49.0110187],[1.9705009,49.0109053],[1.9705913,49.0108467],[1.9705979,49.0107545],[1.9705509,49.0106731],[1.9700873,49.0103245],[1.9696028,49.0096876],[1.9693834,49.0092832],[1.9692605,49.009158],[1.9681388,49.0081443],[1.9669389,49.0078876],[1.9660778,49.0079198],[1.9659295,49.0076004],[1.965888,49.0076101],[1.9654382,49.0069039],[1.9659624,49.0067519],[1.9667771,49.0065793],[1.9673332,49.0065375],[1.967722,49.0064671],[1.9678853,49.0064556],[1.9691386,49.0066099],[1.9693483,49.0065828],[1.9697151,49.0065021],[1.9707622,49.0061306],[1.9712907,49.0059926],[1.9714414,49.0059693],[1.9717437,49.0059829],[1.9718695,49.0059186],[1.9720278,49.0059874],[1.9736719,49.0054122],[1.9739855,49.0057974],[1.9743959,49.0064177],[1.9745552,49.0065888],[1.97525,49.0069686],[1.9761047,49.007305],[1.9765691,49.007451],[1.9777479,49.0080147],[1.9777146,49.0083819],[1.9775688,49.0088843],[1.9756392,49.009539],[1.9755197,49.0093918],[1.9751687,49.0095403]]]]},"properties":{"code_section":"78638000AE","code_commune":"78638","section_courte":"AE"}},{"type":"Feature","geometry":{"type":"MultiPolygon","coordinates":[[[[1.9808623,49.0080149],[1.9810347,49.0081381],[1.9807645,49.0084582],[1.9817219,49.0089158],[1.981817,49.0088426],[1.9824964,49.009239],[1.9820714,49.0095468],[1.9818485,49.0096103],[1.9817485,49.0096791],[1.9813635,49.0099964],[1.9813287,49.0100758],[1.9812016,49.0100419],[1.9813794,49.0102895],[1.9813627,49.0106632],[1.9811428,49.0110479],[1.9809636,49.0115399],[1.9807813,49.0116122],[1.9806383,49.0117104],[1.9810701,49.0120532],[1.9805902,49.0128644],[1.9802181,49.0132009],[1.9801961,49.0135676],[1.9800842,49.0136672],[1.9789874,49.0140465],[1.9779649,49.0134464],[1.9768331,49.0123909],[1.9767773,49.0130861],[1.9766975,49.0132976],[1.9764195,49.0135371],[1.9760557,49.013716],[1.9750504,49.0141151],[1.9746732,49.0142523],[1.9745237,49.014262],[1.9733991,49.0139448],[1.9727233,49.013464],[1.9723636,49.0133469],[1.97107,49.012271],[1.9705717,49.0118107],[1.9718761,49.0111832],[1.9725268,49.0108201],[1.9729896,49.0106032],[1.9745203,49.0099639],[1.9745796,49.0100321],[1.9752552,49.0097637],[1.9750694,49.0095483],[1.9751687,49.0095403],[1.9755197,49.0093918],[1.9756392,49.009539],[1.9775688,49.0088843],[1.9777146,49.0083819],[1.9777479,49.0080147],[1.9781052,49.0081226],[1.9783483,49.0081482],[1.9785381,49.0081134],[1.9788877,49.0079653],[1.9790836,49.0078399],[1.9792698,49.0076847],[1.9794489,49.0074424],[1.9800017,49.0076723],[1.9802472,49.0075783],[1.9808623,49.0080149]]]]},"properties":{"code_section":"78638000AH","code_commune":"78638","section_courte":"AH"}},{"type":"Feature","geometry":{"type":"MultiPolygon","coordinates":[[[[1.9776196,49.0079364],[1.9765691,49.007451],[1.9761047,49.007305],[1.97525,49.0069686],[1.9745552,49.0065888],[1.9743959,49.0064177],[1.9739855,49.0057974],[1.9733737,49.0049873],[1.9732436,49.0043764],[1.9729422,49.0035745],[1.9730053,49.0035514],[1.9733071,49.0035656],[1.97347,49.003531],[1.9737829,49.0033521],[1.9739335,49.0031932],[1.9750309,49.0027908],[1.9752799,49.0027232],[1.9756352,49.0026739],[1.9766861,49.0025814],[1.9772894,49.0024429],[1.9777911,49.0022692],[1.9784298,49.0020967],[1.9795152,49.0019439],[1.9802596,49.0015506],[1.980976,49.0013318],[1.9811091,49.0013558],[1.9814159,49.0015952],[1.9817645,49.0018061],[1.9824633,49.0020334],[1.9821842,49.0024927],[1.9816758,49.0031539],[1.981576,49.0030863],[1.9813896,49.0032381],[1.9813014,49.0032667],[1.9808387,49.003575],[1.9805236,49.0038699],[1.9802908,49.003975],[1.9805637,49.004185],[1.9807172,49.0043616],[1.9803117,49.0046169],[1.9808072,49.0050333],[1.9800872,49.0054664],[1.9805531,49.0060438],[1.9805092,49.0061429],[1.9807628,49.0063737],[1.9797929,49.0069782],[1.9792698,49.0076847],[1.9788877,49.0079653],[1.9785381,49.0081134],[1.9783483,49.0081482],[1.9781052,49.0081226],[1.9777479,49.0080147],[1.9776196,49.0079364]]]]},"properties":{"code_section":"78638000AI","code_commune":"78638","section_courte":"AI"}},{"type":"Feature","geometry":{"type":"MultiPolygon","coordinates":[[[[1.9856589,48.9993388],[1.9853834,48.9995449],[1.9849051,48.999768],[1.9848231,48.9998645],[1.9848685,49.000039],[1.9845996,49.0002951],[1.983266,49.0013043],[1.9826933,49.0019045],[1.9824948,49.0020312],[1.9817645,49.0018061],[1.9814159,49.0015952],[1.9811091,49.0013558],[1.980976,49.0013318],[1.9813683,49.0009045],[1.9815184,49.0007987],[1.982094,49.0005881],[1.9813506,49.0000452],[1.9812972,49.0000791],[1.9810032,48.9998681],[1.9819215,48.9993067],[1.9824325,48.9989077],[1.9828816,48.9986165],[1.9835437,48.9979855],[1.9844206,48.9974087],[1.9851061,48.9968549],[1.9852079,48.9967132],[1.985714,48.9963899],[1.986046,48.9960167],[1.9865271,48.9956426],[1.986993,48.9953571],[1.9871181,48.9954507],[1.9871662,48.9954367],[1.9875805,48.9956785],[1.9875511,48.9957013],[1.9881686,48.9960731],[1.9879591,48.9962732],[1.9886256,48.9968092],[1.9883588,48.9969222],[1.9888561,48.9976324],[1.9880813,48.997881],[1.9878874,48.9979692],[1.9877476,48.9981151],[1.9875995,48.9983926],[1.987478,48.9985288],[1.9870956,48.9988203],[1.9869446,48.9988505],[1.9867138,48.9989997],[1.9864244,48.9990511],[1.9856589,48.9993388]]]]},"properties":{"code_section":"78638000AK","code_commune":"78638","section_courte":"AK"}},{"type":"Feature","geometry":{"type":"MultiPolygon","coordinates":[[[[1.9786139,48.9983721],[1.9781753,48.9980794],[1.9782142,48.9980539],[1.9777037,48.9976759],[1.9771322,48.997339],[1.9770084,48.9973184],[1.9764782,48.9969627],[1.9755883,48.9961573],[1.9787266,48.9945764],[1.9798383,48.9939483],[1.9816065,48.9931275],[1.9828795,48.9924434],[1.9840775,48.9932698],[1.9848438,48.9935884],[1.9852057,48.993978],[1.9852351,48.9940315],[1.9851682,48.994071],[1.9852983,48.9941645],[1.985216,48.9942229],[1.9858493,48.9946146],[1.9860193,48.9946852],[1.986758,48.9951801],[1.9869758,48.9953678],[1.9865271,48.9956426],[1.986046,48.9960167],[1.985714,48.9963899],[1.9852079,48.9967132],[1.9851061,48.9968549],[1.9844206,48.9974087],[1.9835437,48.9979855],[1.9828816,48.9986165],[1.9824325,48.9989077],[1.9819215,48.9993067],[1.9810032,48.9998681],[1.9795737,48.998988],[1.9792907,48.9987663],[1.9786139,48.9983721]]]]},"properties":{"code_section":"78638000AL","code_commune":"78638","section_courte":"AL"}},{"type":"Feature","geometry":{"type":"MultiPolygon","coordinates":[[[[1.9723721,49.0026229],[1.9721084,49.0027207],[1.970915,49.0016703],[1.9703921,49.0010157],[1.9697078,49.0004181],[1.9726549,48.9990467],[1.9761584,48.9966778],[1.9764782,48.9969627],[1.9770084,48.9973184],[1.9771322,48.997339],[1.9777037,48.9976759],[1.9782142,48.9980539],[1.9781753,48.9980794],[1.9786139,48.9983721],[1.9792907,48.9987663],[1.9795737,48.998988],[1.9810135,48.9998736],[1.9812972,49.0000791],[1.9813506,49.0000452],[1.982094,49.0005881],[1.9815184,49.0007987],[1.9813683,49.0009045],[1.980976,49.0013318],[1.9802596,49.0015506],[1.9795152,49.0019439],[1.9784298,49.0020967],[1.9777911,49.0022692],[1.9772894,49.0024429],[1.9766861,49.0025814],[1.9752799,49.0027232],[1.9739335,49.0031932],[1.9737829,49.0033521],[1.97347,49.003531],[1.9733071,49.0035656],[1.9730053,49.0035514],[1.9728816,49.0035869],[1.9726047,49.0037413],[1.9725285,49.0036713],[1.9727973,49.0035213],[1.9728591,49.0034461],[1.9723721,49.0026229]]]]},"properties":{"code_section":"78638000AM","code_commune":"78638","section_courte":"AM"}},{"type":"Feature","geometry":{"type":"MultiPolygon","coordinates":[[[[1.9718695,49.0059186],[1.9717437,49.0059829],[1.9714414,49.0059693],[1.9707622,49.0061306],[1.9697151,49.0065021],[1.9693483,49.0065828],[1.9691386,49.0066099],[1.9678853,49.0064556],[1.967722,49.0064671],[1.9673332,49.0065375],[1.9667771,49.0065793],[1.9659624,49.0067519],[1.9654382,49.0069039],[1.9650362,49.0062752],[1.9643865,49.0055548],[1.9640871,49.005664],[1.9634397,49.0050013],[1.9631677,49.0046426],[1.9640409,49.0043277],[1.9647994,49.0039338],[1.9659957,49.0031272],[1.9679766,49.001562],[1.968924,49.0008599],[1.9697078,49.0004181],[1.9703921,49.0010157],[1.970915,49.0016703],[1.9721084,49.0027207],[1.9723721,49.0026229],[1.9728591,49.0034461],[1.9727973,49.0035213],[1.9725285,49.0036713],[1.9726047,49.0037413],[1.9729422,49.0035745],[1.9732436,49.0043764],[1.9733737,49.0049873],[1.9736719,49.0054122],[1.9720278,49.0059874],[1.9718695,49.0059186]]]]},"properties":{"code_section":"78638000AN","code_commune":"78638","section_courte":"AN"}},{"type":"Feature","geometry":{"type":"MultiPolygon","coordinates":[[[[1.9613,49.0087648],[1.9608488,49.0089844],[1.9601481,49.0093889],[1.9600703,49.0095042],[1.9601057,49.0096159],[1.9602468,49.0097317],[1.9605946,49.0097575],[1.9605848,49.0099988],[1.9605103,49.0100739],[1.9603157,49.0101526],[1.9592268,49.0104035],[1.9590081,49.0105278],[1.9588322,49.0107725],[1.9585327,49.010488],[1.9586733,49.0102107],[1.9587502,49.010163],[1.959134,49.009555],[1.9588443,49.0092582],[1.9587809,49.0091158],[1.9585414,49.0089893],[1.9584741,49.0088841],[1.9585139,49.0088517],[1.9584677,49.0087642],[1.9582393,49.0086492],[1.9578182,49.0085261],[1.9575428,49.0083497],[1.95746,49.0083733],[1.9558742,49.0061227],[1.9570627,49.0059325],[1.9593845,49.0056209],[1.961147,49.0052674],[1.9631677,49.0046426],[1.9634397,49.0050013],[1.9640871,49.005664],[1.9643865,49.0055548],[1.9649366,49.0061493],[1.965888,49.0076101],[1.9659295,49.0076004],[1.9660778,49.0079198],[1.965771,49.0079543],[1.9640078,49.0083378],[1.9619635,49.008581],[1.9613,49.0087648]]]]},"properties":{"code_section":"78638000AO","code_commune":"78638","section_courte":"AO"}},{"type":"Feature","geometry":{"type":"MultiPolygon","coordinates":[[[[1.9502102,49.0099808],[1.9501612,49.009419],[1.9471826,49.0096544],[1.9453913,49.0095352],[1.9452352,49.00846],[1.9451557,49.0074114],[1.9463228,49.0076679],[1.9486131,49.0077737],[1.9494206,49.007785],[1.9510264,49.0074557],[1.9542646,49.0064988],[1.9558742,49.0061227],[1.95746,49.0083733],[1.9575428,49.0083497],[1.9578182,49.0085261],[1.9582393,49.0086492],[1.9584677,49.0087642],[1.9585139,49.0088517],[1.9584741,49.0088841],[1.9585414,49.0089893],[1.9587809,49.0091158],[1.9588443,49.0092582],[1.959134,49.009555],[1.9587502,49.010163],[1.9586733,49.0102107],[1.9585327,49.010488],[1.9588322,49.0107725],[1.9588036,49.0109267],[1.9579903,49.0110765],[1.9571802,49.011319],[1.9568997,49.0113745],[1.9566948,49.011403],[1.95595,49.011361],[1.9553228,49.0113988],[1.9552425,49.0114445],[1.9546447,49.0115519],[1.9546783,49.0116573],[1.9508474,49.012154],[1.9504825,49.0105653],[1.9503478,49.0107562],[1.9501369,49.0101149],[1.9502343,49.0101079],[1.9502102,49.0099808]]]]},"properties":{"code_section":"78638000AP","code_commune":"78638","section_courte":"AP"}},{"type":"Feature","geometry":{"type":"MultiPolygon","coordinates":[[[[1.9454152,49.011264],[1.9448719,49.0111416],[1.9443372,49.0111462],[1.9435365,49.0110633],[1.9429678,49.0110911],[1.9426219,49.0110312],[1.9425954,49.0109513],[1.9427523,49.0103753],[1.9428905,49.0103707],[1.942899,49.0098363],[1.9422552,49.009809],[1.9423208,49.0093292],[1.9471826,49.0096544],[1.9501612,49.009419],[1.9502343,49.0101079],[1.9501369,49.0101149],[1.9503478,49.0107562],[1.9504825,49.0105653],[1.9508482,49.0121622],[1.9497108,49.0123254],[1.9490024,49.0123444],[1.9490701,49.0122012],[1.9493029,49.0120079],[1.9493882,49.011618],[1.9494193,49.0111443],[1.9490702,49.0112221],[1.9489283,49.0112838],[1.9487456,49.0114738],[1.9475098,49.0117748],[1.9466903,49.0119157],[1.9455579,49.0120258],[1.945661,49.0112698],[1.9454152,49.011264]]]]},"properties":{"code_section":"78638000AR","code_commune":"78638","section_courte":"AR"}},{"type":"Feature","geometry":{"type":"MultiPolygon","coordinates":[[[[1.9453913,49.0095352],[1.9423208,49.0093292],[1.9422552,49.009809],[1.942899,49.0098363],[1.9428905,49.0103707],[1.9422664,49.0103372],[1.9417849,49.010344],[1.9411016,49.0104699],[1.9409083,49.0104769],[1.939778,49.0103911],[1.9391779,49.0102735],[1.9365519,49.0102149],[1.9362927,49.0102332],[1.9364622,49.008938],[1.9366245,49.0089501],[1.9371546,49.0062573],[1.9384762,49.006406],[1.9397782,49.0065953],[1.9403011,49.0066057],[1.943292,49.0063833],[1.9440055,49.006306],[1.9449807,49.0062823],[1.9451557,49.0074114],[1.9452352,49.00846],[1.9453913,49.0095352]]]]},"properties":{"code_section":"78638000AS","code_commune":"78638","section_courte":"AS"}},{"type":"Feature","geometry":{"type":"MultiPolygon","coordinates":[[[[1.9542646,49.0064988],[1.9510264,49.0074557],[1.9494206,49.007785],[1.9486131,49.0077737],[1.9463228,49.0076679],[1.9451557,49.0074114],[1.9449807,49.0062823],[1.946928,49.0063334],[1.9476256,49.0062652],[1.9481367,49.006183],[1.9503419,49.0057651],[1.9517144,49.0054279],[1.9524849,49.0052723],[1.954561,49.0048918],[1.9554697,49.0046614],[1.9571447,49.0041425],[1.9577523,49.0053042],[1.9576177,49.0053335],[1.9579644,49.0058064],[1.9558742,49.0061227],[1.9542646,49.0064988]]]]},"properties":{"code_section":"78638000AT","code_commune":"78638","section_courte":"AT"}},{"type":"Feature","geometry":{"type":"MultiPolygon","coordinates":[[[[1.9659957,49.0031272],[1.9647994,49.0039338],[1.9640409,49.0043277],[1.9631677,49.0046426],[1.961147,49.0052674],[1.9593845,49.0056209],[1.9579644,49.0058064],[1.9576177,49.0053335],[1.9577523,49.0053042],[1.9571447,49.0041425],[1.9582374,49.003846],[1.9597031,49.0033621],[1.960705,49.0029718],[1.964618,49.0013396],[1.9658491,49.0022585],[1.9656477,49.0023739],[1.9663179,49.0028719],[1.9659957,49.0031272]]]]},"properties":{"code_section":"78638000AV","code_commune":"78638","section_courte":"AV"}},{"type":"Feature","geometry":{"type":"MultiPolygon","coordinates":[[[[1.964618,49.0013396],[1.9662915,49.0006234],[1.9668246,49.0003354],[1.969087,48.9992929],[1.9706768,48.9984353],[1.9722305,48.9974865],[1.973837,48.9967069],[1.9742815,48.9964171],[1.9752431,48.9973143],[1.9726549,48.9990467],[1.9697078,49.0004181],[1.968924,49.0008599],[1.9679766,49.001562],[1.9663179,49.0028719],[1.9656477,49.0023739],[1.9658491,49.0022585],[1.964618,49.0013396]]]]},"properties":{"code_section":"78638000AW","code_commune":"78638","section_courte":"AW"}}]}