{"type":"FeatureCollection","features":[{"type":"Feature","geometry":{"type":"MultiPolygon","coordinates":[[[[1.9591916,48.7605328],[1.9588721,48.7604943],[1.9587475,48.7598309],[1.9584082,48.7595532],[1.9584866,48.7594892],[1.9583099,48.7590325],[1.9579993,48.7584945],[1.9580719,48.7585133],[1.9583346,48.758424],[1.9597569,48.7585444],[1.9604767,48.7585651],[1.9612245,48.7584982],[1.9637316,48.7580514],[1.9649135,48.7577345],[1.9649519,48.7576916],[1.9650297,48.7577124],[1.9653048,48.7576715],[1.9654288,48.7575919],[1.9654293,48.7575481],[1.9653664,48.7575042],[1.9654173,48.7574591],[1.9654671,48.7574498],[1.965681,48.7572651],[1.9657091,48.7572771],[1.965878,48.7571246],[1.9660033,48.7571133],[1.9660962,48.757071],[1.9661732,48.7569502],[1.9662787,48.7569336],[1.9663469,48.7573337],[1.9668995,48.7570539],[1.9668622,48.7576939],[1.9674032,48.7584264],[1.9675855,48.7584401],[1.9671225,48.7611413],[1.9666953,48.7630458],[1.9616095,48.7610753],[1.9604765,48.7607491],[1.9591916,48.7605328]]]]},"properties":{"code_section":"78644000AA","code_commune":"78644","section_courte":"AA"}},{"type":"Feature","geometry":{"type":"MultiPolygon","coordinates":[[[[1.9580271,48.7583204],[1.9579805,48.7582766],[1.9575524,48.7581017],[1.9572411,48.7575894],[1.9570751,48.7569361],[1.9588059,48.7558848],[1.9591708,48.7560608],[1.960115,48.7566453],[1.9605035,48.7567911],[1.9613592,48.7569381],[1.9621074,48.7569859],[1.964152,48.7568711],[1.9658152,48.7564717],[1.9659469,48.7566348],[1.9662237,48.7566188],[1.96622,48.7565912],[1.9662702,48.7565886],[1.9662912,48.7566647],[1.9664362,48.7567017],[1.9666191,48.7566947],[1.9667893,48.756635],[1.9668212,48.7568595],[1.9671253,48.7569496],[1.9676099,48.7566665],[1.9677983,48.7559917],[1.9679985,48.7560046],[1.9675855,48.7584401],[1.9674032,48.7584264],[1.9668622,48.7576939],[1.9668995,48.7570539],[1.9663469,48.7573337],[1.9662787,48.7569336],[1.9661732,48.7569502],[1.9660654,48.7570883],[1.965878,48.7571246],[1.9657091,48.7572771],[1.965681,48.7572651],[1.9654671,48.7574498],[1.9654173,48.7574591],[1.9653664,48.7575042],[1.9654293,48.7575481],[1.9654288,48.7575919],[1.9653048,48.7576715],[1.9650297,48.7577124],[1.9649519,48.7576916],[1.9649135,48.7577345],[1.9637316,48.7580514],[1.9612245,48.7584982],[1.9604767,48.7585651],[1.9597569,48.7585444],[1.9583962,48.7584259],[1.9582544,48.7584513],[1.9580271,48.7583204]]]]},"properties":{"code_section":"78644000AB","code_commune":"78644","section_courte":"AB"}},{"type":"Feature","geometry":{"type":"MultiPolygon","coordinates":[[[[1.955116,48.7550561],[1.9553152,48.7549087],[1.9567873,48.7559536],[1.9568935,48.7560679],[1.9569806,48.7562782],[1.9571132,48.7571317],[1.9572411,48.7575894],[1.9575524,48.7581017],[1.9579805,48.7582766],[1.9582544,48.7584513],[1.9580719,48.7585133],[1.9579993,48.7584945],[1.9583099,48.7590325],[1.9584866,48.7594892],[1.9584082,48.7595532],[1.9587475,48.7598309],[1.9588721,48.7604943],[1.955298,48.7600447],[1.9537601,48.7598096],[1.9488742,48.758833],[1.9519825,48.7574604],[1.9520666,48.7568958],[1.9538897,48.7559399],[1.955116,48.7550561]]]]},"properties":{"code_section":"78644000AC","code_commune":"78644","section_courte":"AC"}},{"type":"Feature","geometry":{"type":"MultiPolygon","coordinates":[[[[1.9427243,48.7551824],[1.9428915,48.7550875],[1.9423524,48.7549347],[1.9424714,48.7548709],[1.9430035,48.7550144],[1.9432573,48.7547531],[1.943534,48.7545976],[1.9445064,48.7543074],[1.9459989,48.7535411],[1.9460529,48.7535847],[1.9467907,48.7532009],[1.9499724,48.756323],[1.949807,48.7564088],[1.9502942,48.756489],[1.9520666,48.7568958],[1.9519825,48.7574604],[1.9488742,48.758833],[1.946542,48.7583594],[1.9424321,48.75746],[1.9414784,48.7571939],[1.9403558,48.7567724],[1.9420476,48.7555835],[1.9414044,48.7551932],[1.9415976,48.7549229],[1.9427243,48.7551824]]]]},"properties":{"code_section":"78644000AD","code_commune":"78644","section_courte":"AD"}},{"type":"Feature","geometry":{"type":"MultiPolygon","coordinates":[[[[1.9409433,48.7544133],[1.9391093,48.7537888],[1.936861,48.7529271],[1.9354127,48.7522906],[1.9329529,48.7511081],[1.9336079,48.7508342],[1.9342309,48.7504319],[1.9358698,48.7491886],[1.9366723,48.7487217],[1.9372668,48.7484732],[1.9370533,48.7481831],[1.9375817,48.7479745],[1.9395996,48.7506582],[1.9393433,48.7507774],[1.9400443,48.7514377],[1.940142,48.7514458],[1.940278,48.7511275],[1.9398675,48.7509168],[1.9400777,48.7505614],[1.9406204,48.7500265],[1.9411663,48.7502522],[1.9413303,48.7501745],[1.9414807,48.7501428],[1.9429128,48.7500815],[1.9428449,48.7501193],[1.9428988,48.7501545],[1.9429905,48.7501469],[1.9434999,48.7502717],[1.9441092,48.7505673],[1.9446886,48.7510059],[1.9452019,48.7515018],[1.9453521,48.751607],[1.9456189,48.7517085],[1.9456854,48.7520664],[1.9461854,48.7526924],[1.9462979,48.7529626],[1.9463001,48.753104],[1.946269,48.7532425],[1.9460494,48.7535063],[1.9445064,48.7543074],[1.9436833,48.754541],[1.9434028,48.7546614],[1.9431787,48.7548181],[1.9430035,48.7550144],[1.9409433,48.7544133]]]]},"properties":{"code_section":"78644000AE","code_commune":"78644","section_courte":"AE"}},{"type":"Feature","geometry":{"type":"MultiPolygon","coordinates":[[[[1.9402694,48.7469051],[1.9440103,48.7467995],[1.947477,48.7509912],[1.9462918,48.7514787],[1.9456189,48.7517085],[1.9453521,48.751607],[1.9452019,48.7515018],[1.9446886,48.7510059],[1.9441092,48.7505673],[1.9434999,48.7502717],[1.9429905,48.7501469],[1.9428988,48.7501545],[1.9428449,48.7501193],[1.9429128,48.7500815],[1.9414807,48.7501428],[1.9413303,48.7501745],[1.9411663,48.7502522],[1.9406204,48.7500265],[1.9400777,48.7505614],[1.9398675,48.7509168],[1.940278,48.7511275],[1.940142,48.7514458],[1.9400443,48.7514377],[1.9393433,48.7507774],[1.9395996,48.7506582],[1.9375817,48.7479745],[1.9402694,48.7469051]]]]},"properties":{"code_section":"78644000AH","code_commune":"78644","section_courte":"AH"}},{"type":"Feature","geometry":{"type":"MultiPolygon","coordinates":[[[[1.955116,48.7550561],[1.9538897,48.7559399],[1.9520666,48.7568958],[1.9502942,48.756489],[1.949807,48.7564088],[1.9499724,48.756323],[1.9467907,48.7532009],[1.9460529,48.7535847],[1.9459989,48.7535411],[1.946269,48.7532425],[1.9462979,48.7529626],[1.9461854,48.7526924],[1.9456854,48.7520664],[1.9456189,48.7517085],[1.9462918,48.7514787],[1.947695,48.7509066],[1.9482157,48.7506043],[1.9485222,48.7503233],[1.9487427,48.7505732],[1.9502845,48.7500011],[1.9504956,48.750304],[1.9507345,48.7502443],[1.9508353,48.7502766],[1.9515706,48.7520181],[1.9516829,48.7521846],[1.9520069,48.7524048],[1.9522352,48.7524764],[1.9525491,48.7525165],[1.9533478,48.7535453],[1.9539121,48.7539454],[1.9539535,48.7539171],[1.9553152,48.7549087],[1.955116,48.7550561]]]]},"properties":{"code_section":"78644000AI","code_commune":"78644","section_courte":"AI"}},{"type":"Feature","geometry":{"type":"MultiPolygon","coordinates":[[[[1.9561722,48.7555194],[1.9539535,48.7539171],[1.9539121,48.7539454],[1.9533478,48.7535453],[1.9525491,48.7525165],[1.9522352,48.7524764],[1.9520515,48.7524216],[1.951717,48.752219],[1.9515706,48.7520181],[1.9508353,48.7502766],[1.9507345,48.7502443],[1.9504956,48.750304],[1.9502845,48.7500011],[1.9487427,48.7505732],[1.9485222,48.7503233],[1.9509164,48.747761],[1.9552392,48.7490655],[1.9555821,48.7496862],[1.9552741,48.7497611],[1.9574289,48.7519101],[1.9574054,48.7519225],[1.9576731,48.7521414],[1.9570543,48.7524794],[1.9556564,48.7529342],[1.9561722,48.7555194]]]]},"properties":{"code_section":"78644000AK","code_commune":"78644","section_courte":"AK"}},{"type":"Feature","geometry":{"type":"MultiPolygon","coordinates":[[[[1.957856,48.7520348],[1.9576731,48.7521414],[1.9574054,48.7519225],[1.9574289,48.7519101],[1.9552741,48.7497611],[1.9555821,48.7496862],[1.9552392,48.7490655],[1.9509164,48.747761],[1.9514574,48.7472585],[1.9516756,48.7471037],[1.9538444,48.746134],[1.9572207,48.7491687],[1.9578088,48.7489044],[1.9593759,48.7480191],[1.9607815,48.7491056],[1.9603352,48.7496455],[1.9595927,48.7501086],[1.9594258,48.75036],[1.9597836,48.7505966],[1.957856,48.7520348]]]]},"properties":{"code_section":"78644000AL","code_commune":"78644","section_courte":"AL"}}]}