{"type":"FeatureCollection","features":[{"type":"Feature","geometry":{"type":"MultiPolygon","coordinates":[[[[2.1841283,48.7972405],[2.1829409,48.7972166],[2.1812339,48.795784],[2.1822602,48.7955974],[2.1822564,48.7957346],[2.184763,48.796345],[2.1859246,48.7962332],[2.1859261,48.7962079],[2.186833,48.7961697],[2.1869377,48.7946485],[2.1883948,48.794387],[2.1883047,48.7962859],[2.1899706,48.7963907],[2.1899413,48.7973609],[2.1841283,48.7972405]]]]},"properties":{"code_section":"78640000AB","code_commune":"78640","section_courte":"AB"}},{"type":"Feature","geometry":{"type":"MultiPolygon","coordinates":[[[[2.1985739,48.7984816],[2.1984385,48.7986566],[2.1964575,48.7975329],[2.1928329,48.7974329],[2.1926669,48.7963066],[2.1948796,48.7963871],[2.1951012,48.7957846],[2.1951823,48.7956402],[2.1952761,48.7955682],[2.1959803,48.7952971],[2.1967154,48.7950854],[2.1970917,48.7949807],[2.1971341,48.7950434],[2.1972503,48.794968],[2.1984386,48.7945527],[2.1990814,48.794164],[2.2012725,48.7949734],[2.1985166,48.7984809],[2.1985739,48.7984816]]]]},"properties":{"code_section":"78640000AC","code_commune":"78640","section_courte":"AC"}},{"type":"Feature","geometry":{"type":"MultiPolygon","coordinates":[[[[2.1984386,48.7945527],[2.1972503,48.794968],[2.1971341,48.7950434],[2.1970917,48.7949807],[2.1967154,48.7950854],[2.1959803,48.7952971],[2.1952761,48.7955682],[2.1951823,48.7956402],[2.1951012,48.7957846],[2.1948796,48.7963871],[2.1926669,48.7963066],[2.1928329,48.7974329],[2.1899413,48.7973609],[2.1899706,48.7963907],[2.1883047,48.7962859],[2.1883948,48.794387],[2.1869377,48.7946485],[2.186833,48.7961697],[2.1859261,48.7962079],[2.1859246,48.7962332],[2.184763,48.796345],[2.1822564,48.7957346],[2.1822602,48.7955974],[2.1812339,48.795784],[2.1809003,48.7955768],[2.1798974,48.7946747],[2.1796526,48.7944044],[2.1783967,48.7933738],[2.1728286,48.7920843],[2.1734247,48.79149],[2.1721563,48.7897956],[2.1713687,48.7896176],[2.1704922,48.7893268],[2.1701655,48.7888388],[2.1701371,48.7884985],[2.1699524,48.7881497],[2.1692208,48.7875443],[2.1692454,48.7875145],[2.1693949,48.7875195],[2.1703862,48.787158],[2.1706468,48.7871031],[2.1706761,48.787069],[2.1733843,48.7867458],[2.1752927,48.789485],[2.1789837,48.7881773],[2.1803591,48.7880502],[2.1855083,48.7872604],[2.1863917,48.7871145],[2.1867464,48.7869015],[2.1874226,48.7868265],[2.1900988,48.7864353],[2.1905539,48.7861951],[2.1910149,48.7855107],[2.1910044,48.7854492],[2.1909466,48.7854343],[2.191121,48.7851331],[2.1912128,48.7850633],[2.1940116,48.783742],[2.1940552,48.7836827],[2.1940877,48.7837113],[2.1961346,48.7826715],[2.1965891,48.7824797],[2.1963976,48.7824542],[2.1964931,48.7823776],[2.1973132,48.7823247],[2.1995988,48.7824045],[2.201381,48.782668],[2.2013369,48.7827519],[2.20385,48.7834373],[2.205881,48.7839349],[2.2065319,48.7847332],[2.2062701,48.7848979],[2.2115755,48.7912179],[2.2099275,48.7938504],[2.2072868,48.7948223],[2.2069437,48.7949132],[2.2059646,48.7949647],[2.2055478,48.795125],[2.2053571,48.795233],[2.2049554,48.7955619],[2.2045696,48.7957428],[2.2044097,48.7958566],[2.2046084,48.796193],[2.2047187,48.7965461],[2.2046205,48.7968472],[2.2043437,48.7972905],[2.203776,48.797553],[2.2032301,48.7979091],[2.2026029,48.7984827],[2.1985166,48.7984809],[2.2012725,48.7949734],[2.1990814,48.794164],[2.1984386,48.7945527]]]]},"properties":{"code_section":"78640000AD","code_commune":"78640","section_courte":"AD"}},{"type":"Feature","geometry":{"type":"MultiPolygon","coordinates":[[[[2.2114796,48.7881149],[2.2113894,48.7880961],[2.2113234,48.7881227],[2.2092807,48.7877119],[2.2089628,48.78759],[2.2071188,48.7852193],[2.2070351,48.7853521],[2.205881,48.7839349],[2.20385,48.7834373],[2.2013369,48.7827519],[2.201381,48.782668],[2.1995988,48.7824045],[2.1985231,48.7823774],[2.1987302,48.7815547],[2.1988718,48.7813528],[2.1988441,48.7811494],[2.1991253,48.7800021],[2.1994179,48.7799827],[2.1995037,48.7799109],[2.1995663,48.7797825],[2.1995588,48.7796592],[2.1993337,48.7794688],[2.1993058,48.7793577],[2.1993371,48.7791833],[2.2203286,48.7776259],[2.2217065,48.7774578],[2.2246884,48.7772525],[2.2245267,48.7774426],[2.2241324,48.777729],[2.2239926,48.777972],[2.2239721,48.7782905],[2.2240296,48.7785271],[2.2241931,48.7788502],[2.2242246,48.7791165],[2.2239918,48.7797619],[2.2239924,48.7801354],[2.2236922,48.7804144],[2.2235855,48.7806169],[2.224743,48.7808194],[2.2266223,48.7815889],[2.2250781,48.7835316],[2.2244222,48.7846227],[2.2233176,48.7859246],[2.221365,48.7858981],[2.2198795,48.7854675],[2.2192576,48.7853517],[2.2114796,48.7881149]]]]},"properties":{"code_section":"78640000AE","code_commune":"78640","section_courte":"AE"}},{"type":"Feature","geometry":{"type":"MultiPolygon","coordinates":[[[[2.2165635,48.7725588],[2.2157106,48.7714852],[2.2158014,48.7715213],[2.2172958,48.7714533],[2.2181351,48.7713625],[2.2208546,48.7709118],[2.2225788,48.7710415],[2.2238738,48.7712454],[2.2243082,48.7701946],[2.2261297,48.77019],[2.2292249,48.7704913],[2.2283926,48.7711754],[2.228059,48.7716122],[2.2276507,48.7722981],[2.2275446,48.7727061],[2.2273363,48.7740815],[2.226832,48.7748763],[2.2265673,48.7754515],[2.2264271,48.7756273],[2.2265725,48.7761024],[2.2262448,48.7761486],[2.2253607,48.7764228],[2.2249313,48.7767084],[2.2247995,48.7770876],[2.2246884,48.7772525],[2.2217065,48.7774578],[2.2203286,48.7776259],[2.2203294,48.7773678],[2.2202494,48.7768554],[2.220207,48.7766929],[2.2200792,48.7765021],[2.2193156,48.7758432],[2.2165635,48.7725588]]]]},"properties":{"code_section":"78640000AH","code_commune":"78640","section_courte":"AH"}},{"type":"Feature","geometry":{"type":"MultiPolygon","coordinates":[[[[2.1993558,48.7790664],[2.1987864,48.7791224],[2.1987166,48.7786287],[2.1988438,48.7786189],[2.1987699,48.7781672],[2.1913149,48.7786903],[2.1913646,48.7791069],[2.1912107,48.77953],[2.1910725,48.7797562],[2.1812938,48.7803561],[2.1810234,48.778509],[2.1807113,48.7785237],[2.1802639,48.7784335],[2.1791661,48.7778789],[2.1832942,48.7746989],[2.184378,48.7747775],[2.1864928,48.7750312],[2.1885427,48.7750725],[2.1904535,48.7751601],[2.1920454,48.7751715],[2.1947294,48.7755116],[2.1968069,48.7755261],[2.1985215,48.7756393],[2.2011134,48.7757229],[2.2006599,48.7720957],[2.2030536,48.7712651],[2.2033941,48.7711037],[2.2038389,48.7708111],[2.2052602,48.7696531],[2.206235,48.7699672],[2.2099201,48.7691698],[2.2115475,48.7709147],[2.2122628,48.7717467],[2.2157106,48.7714852],[2.2162986,48.7722427],[2.2193156,48.7758432],[2.2200792,48.7765021],[2.220207,48.7766929],[2.2202494,48.7768554],[2.2203294,48.7773678],[2.2203286,48.7776259],[2.1993371,48.7791833],[2.1993558,48.7790664]]]]},"properties":{"code_section":"78640000AI","code_commune":"78640","section_courte":"AI"}},{"type":"Feature","geometry":{"type":"MultiPolygon","coordinates":[[[[2.1940929,48.7827348],[2.19307,48.7829203],[2.19338,48.7819916],[2.1933407,48.7816301],[2.1926138,48.7816565],[2.1925875,48.7817373],[2.1922017,48.7816831],[2.1919482,48.7824499],[2.1901945,48.7823009],[2.1904397,48.781676],[2.1909686,48.7799546],[2.1912107,48.77953],[2.1913646,48.7791069],[2.1913149,48.7786903],[2.1987699,48.7781672],[2.1988438,48.7786189],[2.1987166,48.7786287],[2.1987864,48.7791224],[2.1993558,48.7790664],[2.1993058,48.7793577],[2.1993337,48.7794688],[2.1995588,48.7796592],[2.1995663,48.7797825],[2.1995037,48.7799109],[2.1994179,48.7799827],[2.1991253,48.7800021],[2.1988441,48.7811494],[2.1988718,48.7813528],[2.1987302,48.7815547],[2.1985231,48.7823774],[2.1973132,48.7823247],[2.1962218,48.782378],[2.1961458,48.7824367],[2.1952272,48.7825133],[2.1940929,48.7827348]]]]},"properties":{"code_section":"78640000AK","code_commune":"78640","section_courte":"AK"}},{"type":"Feature","geometry":{"type":"MultiPolygon","coordinates":[[[[2.1885602,48.7848265],[2.1884871,48.7847744],[2.188558,48.7847294],[2.1886224,48.784772],[2.188704,48.7846845],[2.1884635,48.784431],[2.1887686,48.7839132],[2.1881025,48.7833341],[2.1879115,48.7830603],[2.1879288,48.783032],[2.1882231,48.7830211],[2.1885502,48.7820198],[2.1902054,48.7822598],[2.1901945,48.7823009],[2.1919482,48.7824499],[2.1922017,48.7816831],[2.1925875,48.7817373],[2.1926138,48.7816565],[2.1932775,48.7816255],[2.1933407,48.7816301],[2.19338,48.7819916],[2.19307,48.7829203],[2.1952272,48.7825133],[2.1961458,48.7824367],[2.1962218,48.782378],[2.1964931,48.7823776],[2.1963976,48.7824542],[2.1965891,48.7824797],[2.1961346,48.7826715],[2.1940877,48.7837113],[2.1940552,48.7836827],[2.1940116,48.783742],[2.1912128,48.7850633],[2.191121,48.7851331],[2.1909466,48.7854343],[2.1910044,48.7854492],[2.1910149,48.7855107],[2.1905539,48.7861951],[2.1900988,48.7864353],[2.1874226,48.7868265],[2.1867464,48.7869015],[2.1892596,48.785324],[2.1885602,48.7848265]]]]},"properties":{"code_section":"78640000AL","code_commune":"78640","section_courte":"AL"}},{"type":"Feature","geometry":{"type":"MultiPolygon","coordinates":[[[[2.1765271,48.7840601],[2.1763458,48.7841259],[2.1694643,48.7852361],[2.1692431,48.7851959],[2.1691525,48.7847274],[2.1667098,48.7847708],[2.1666767,48.7848916],[2.165315,48.7851941],[2.1654016,48.7861873],[2.1667969,48.7869072],[2.1686206,48.7877683],[2.1681691,48.7879679],[2.167798,48.7877832],[2.1668386,48.7875186],[2.1667522,48.7874613],[2.1665398,48.7871567],[2.1663702,48.7870681],[2.1660596,48.7870085],[2.1657096,48.7868704],[2.1650414,48.786711],[2.1647884,48.7865446],[2.1645845,48.7861555],[2.1643063,48.7859248],[2.1644457,48.7853965],[2.1635751,48.7839264],[2.1617985,48.7822423],[2.1634162,48.7816551],[2.1638412,48.7815511],[2.1739521,48.7808407],[2.1757657,48.780671],[2.1910725,48.7797562],[2.1909686,48.7799546],[2.1904397,48.781676],[2.1902054,48.7822598],[2.1885502,48.7820198],[2.1882231,48.7830211],[2.1879288,48.783032],[2.1879115,48.7830603],[2.1881025,48.7833341],[2.1887686,48.7839132],[2.1884635,48.784431],[2.188704,48.7846845],[2.1886224,48.784772],[2.188558,48.7847294],[2.1884871,48.7847744],[2.1892596,48.785324],[2.1863917,48.7871145],[2.1803591,48.7880502],[2.179038,48.7881754],[2.1793842,48.785844],[2.1792631,48.7855785],[2.1791187,48.7854086],[2.1767483,48.7840384],[2.1765271,48.7840601]]]]},"properties":{"code_section":"78640000AM","code_commune":"78640","section_courte":"AM"}},{"type":"Feature","geometry":{"type":"MultiPolygon","coordinates":[[[[2.173045,48.7867858],[2.1706761,48.787069],[2.1706468,48.7871031],[2.1703862,48.787158],[2.1693949,48.7875195],[2.1692454,48.7875145],[2.1686206,48.7877683],[2.1667969,48.7869072],[2.1654016,48.7861873],[2.165315,48.7851941],[2.1666767,48.7848916],[2.1667098,48.7847708],[2.1691525,48.7847274],[2.1692431,48.7851959],[2.1694643,48.7852361],[2.1763458,48.7841259],[2.1765271,48.7840601],[2.1767483,48.7840384],[2.1791187,48.7854086],[2.1792631,48.7855785],[2.1793842,48.785844],[2.179038,48.7881754],[2.1752927,48.789485],[2.1733843,48.7867458],[2.173045,48.7867858]]]]},"properties":{"code_section":"78640000AN","code_commune":"78640","section_courte":"AN"}},{"type":"Feature","geometry":{"type":"MultiPolygon","coordinates":[[[[2.1760349,48.7804556],[2.179267,48.7779242],[2.1802639,48.7784335],[2.1807113,48.7785237],[2.1810234,48.778509],[2.1812938,48.7803561],[2.1757657,48.780671],[2.1760349,48.7804556]]]]},"properties":{"code_section":"78640000AO","code_commune":"78640","section_courte":"AO"}}]}