{"type":"FeatureCollection","features":[{"type":"Feature","geometry":{"type":"MultiPolygon","coordinates":[[[[1.9698236,48.9556361],[1.9693186,48.955938],[1.9680621,48.9565542],[1.9670364,48.9571221],[1.9657484,48.9580187],[1.9650255,48.9587002],[1.9645984,48.9589768],[1.9640667,48.9592587],[1.9637201,48.9587953],[1.9621209,48.9591466],[1.9616076,48.9584616],[1.9615903,48.9583404],[1.9614543,48.958111],[1.9612831,48.9579101],[1.9611907,48.957911],[1.9602115,48.95827],[1.9601385,48.9582372],[1.9600507,48.9580871],[1.9597929,48.9581458],[1.9598704,48.9583024],[1.9597983,48.9583267],[1.9597496,48.9582509],[1.9597016,48.9582619],[1.9596844,48.9582403],[1.9595038,48.9583037],[1.9597056,48.9586354],[1.9574245,48.9591943],[1.9574698,48.9595097],[1.9566174,48.9596053],[1.9556817,48.9596313],[1.9556112,48.9599451],[1.9554959,48.9599438],[1.9555096,48.959861],[1.9552242,48.9598572],[1.9551627,48.960222],[1.954992,48.9602151],[1.9549875,48.9602494],[1.9547422,48.9602495],[1.9532314,48.9600952],[1.9541187,48.9589271],[1.9542919,48.9588394],[1.9548342,48.9587242],[1.9550319,48.9586017],[1.9554832,48.9580667],[1.9557453,48.957456],[1.9557116,48.957054],[1.9557894,48.9564913],[1.9558079,48.9555348],[1.9559156,48.9552288],[1.9560673,48.9548286],[1.9563054,48.9544129],[1.9568133,48.9537372],[1.9572114,48.9533406],[1.9576711,48.9530198],[1.9582503,48.9526684],[1.9591233,48.9522009],[1.959491,48.9519539],[1.9599315,48.9518207],[1.9614394,48.9504808],[1.9617731,48.9502701],[1.9624142,48.9496999],[1.9631189,48.9491852],[1.9639242,48.9485185],[1.9645228,48.9481246],[1.9647372,48.9479041],[1.9649322,48.9477653],[1.9652569,48.9476126],[1.965889,48.9473926],[1.9663314,48.9471282],[1.9667596,48.9471445],[1.967167,48.9471116],[1.9677872,48.9469493],[1.9688152,48.9464815],[1.9693584,48.9460623],[1.9705781,48.9480569],[1.9723431,48.9500965],[1.9726597,48.9500726],[1.9725975,48.9497841],[1.9730132,48.9497467],[1.9730013,48.9496856],[1.9731929,48.9496699],[1.9739272,48.9518359],[1.9745305,48.9518737],[1.9749543,48.9524353],[1.9750833,48.952491],[1.9748637,48.952592],[1.9753515,48.9531719],[1.9754099,48.9531807],[1.9757153,48.9535327],[1.9755869,48.9535828],[1.9764884,48.9545419],[1.9767309,48.9544068],[1.9773061,48.9549752],[1.9764599,48.9555284],[1.9765608,48.955591],[1.9752894,48.956477],[1.9754338,48.9565759],[1.9753355,48.9566521],[1.9752788,48.9566176],[1.9751543,48.9567069],[1.9748472,48.9565238],[1.9747364,48.9566026],[1.9740502,48.9561399],[1.9739677,48.9561985],[1.9749322,48.9568108],[1.9748936,48.956836],[1.9746814,48.9567041],[1.9745331,48.9568018],[1.9748638,48.9570119],[1.9748127,48.957046],[1.9737417,48.9563638],[1.9736345,48.9564441],[1.9748376,48.957198],[1.9747042,48.957289],[1.9735163,48.9565296],[1.9734846,48.956549],[1.9743375,48.9570993],[1.9742654,48.95715],[1.9735421,48.9566839],[1.9735712,48.9567521],[1.9740632,48.9570722],[1.974005,48.957111],[1.9742107,48.9572455],[1.9741564,48.9572826],[1.9736586,48.9569573],[1.9732139,48.9559516],[1.9729423,48.9551777],[1.9719396,48.9544186],[1.9709531,48.9550677],[1.9702085,48.9553417],[1.9698236,48.9556361]]]]},"properties":{"code_section":"786430000D","code_commune":"78643","section_courte":"D"}},{"type":"Feature","geometry":{"type":"MultiPolygon","coordinates":[[[[1.9960647,48.9799984],[1.9959571,48.9801847],[1.9954965,48.9807163],[1.9952437,48.9807808],[1.9951346,48.9808419],[1.9946544,48.9817376],[1.9943746,48.9820898],[1.9938829,48.9825662],[1.9935028,48.9830387],[1.9931806,48.9833024],[1.9929248,48.9836447],[1.9888979,48.981386],[1.986821,48.9800255],[1.986508,48.9797888],[1.9876979,48.9789917],[1.9877049,48.9789135],[1.9873959,48.9787154],[1.9874317,48.9786863],[1.9873826,48.9786473],[1.987572,48.9785047],[1.9875055,48.9784636],[1.9878226,48.9782116],[1.9960844,48.9799663],[1.9960647,48.9799984]]]]},"properties":{"code_section":"78643000AB","code_commune":"78643","section_courte":"AB"}},{"type":"Feature","geometry":{"type":"MultiPolygon","coordinates":[[[[1.9930693,48.9768353],[1.9941344,48.9772985],[1.9960978,48.9779943],[1.9962636,48.9779624],[1.9963306,48.9783954],[1.9962877,48.9790539],[1.9961062,48.9799684],[1.9882487,48.9783075],[1.9886779,48.977562],[1.9887769,48.9774519],[1.9901337,48.9761254],[1.9906239,48.9757152],[1.9930693,48.9768353]]]]},"properties":{"code_section":"78643000AC","code_commune":"78643","section_courte":"AC"}},{"type":"Feature","geometry":{"type":"MultiPolygon","coordinates":[[[[1.9801349,48.9765133],[1.9800296,48.9763866],[1.9797186,48.9763103],[1.9794343,48.9761749],[1.9794097,48.9761925],[1.9790486,48.975958],[1.9790687,48.9759431],[1.9788602,48.9757942],[1.9788979,48.9757664],[1.9784375,48.9753583],[1.9781715,48.9757744],[1.9780581,48.975865],[1.9776107,48.9754819],[1.9776354,48.9754702],[1.9774199,48.9753139],[1.9772255,48.9752594],[1.976697,48.9747858],[1.9781049,48.9740495],[1.9783148,48.9738623],[1.9786939,48.9736071],[1.9804982,48.9725313],[1.9808268,48.9721235],[1.9808777,48.9719062],[1.9809972,48.971948],[1.9816612,48.9724026],[1.9819084,48.9722114],[1.9823495,48.9725214],[1.9824387,48.9724604],[1.9824799,48.9724834],[1.9825304,48.9724526],[1.982584,48.9725403],[1.9821539,48.9728206],[1.9825316,48.9730318],[1.9832643,48.972198],[1.9837673,48.9724326],[1.9837446,48.9724574],[1.9850072,48.9731573],[1.9871562,48.9740906],[1.9906239,48.9757152],[1.9901337,48.9761254],[1.9887769,48.9774519],[1.9886779,48.977562],[1.9882487,48.9783075],[1.9878226,48.9782116],[1.9875055,48.9784636],[1.987572,48.9785047],[1.9873826,48.9786473],[1.9874317,48.9786863],[1.9873959,48.9787154],[1.9877049,48.9789135],[1.9876741,48.9790157],[1.986508,48.9797888],[1.9849723,48.9786275],[1.9833071,48.9772719],[1.9820311,48.9778979],[1.9803738,48.9768042],[1.9801349,48.9765133]]]]},"properties":{"code_section":"78643000AD","code_commune":"78643","section_courte":"AD"}},{"type":"Feature","geometry":{"type":"MultiPolygon","coordinates":[[[[1.9871795,48.9739342],[1.9871562,48.9740906],[1.9850072,48.9731573],[1.9837446,48.9724574],[1.9837673,48.9724326],[1.9832643,48.972198],[1.9825316,48.9730318],[1.9821539,48.9728206],[1.982584,48.9725403],[1.9825853,48.9724946],[1.9825277,48.9724509],[1.9824799,48.9724834],[1.9824387,48.9724604],[1.9823495,48.9725214],[1.9819084,48.9722114],[1.9816612,48.9724026],[1.9809972,48.971948],[1.9808777,48.9719062],[1.980833,48.9718434],[1.980228,48.9716109],[1.9799365,48.9714663],[1.9797867,48.9715669],[1.979572,48.9714479],[1.9794988,48.9714974],[1.978956,48.9711885],[1.9797045,48.97059],[1.9801594,48.9708211],[1.9821773,48.9689019],[1.984965,48.9698801],[1.9851488,48.9699872],[1.9856773,48.9700196],[1.9880531,48.9707138],[1.9882786,48.9717199],[1.9877613,48.9728393],[1.9871795,48.9739342]]]]},"properties":{"code_section":"78643000AE","code_commune":"78643","section_courte":"AE"}},{"type":"Feature","geometry":{"type":"MultiPolygon","coordinates":[[[[1.9957505,48.9746981],[1.9955617,48.9751638],[1.9976469,48.9756759],[1.9974342,48.9765767],[1.9971728,48.9768182],[1.9968711,48.9769058],[1.9964396,48.9773238],[1.9962441,48.9778161],[1.9959553,48.9779355],[1.9937708,48.9771577],[1.9871562,48.9740906],[1.9871795,48.9739342],[1.9877613,48.9728393],[1.9882786,48.9717199],[1.9880531,48.9707138],[1.9924293,48.9721107],[1.9956605,48.9729706],[1.9958499,48.9730545],[1.996032,48.9732105],[1.9961505,48.9734234],[1.9961848,48.9736285],[1.9957505,48.9746981]]]]},"properties":{"code_section":"78643000AH","code_commune":"78643","section_courte":"AH"}},{"type":"Feature","geometry":{"type":"MultiPolygon","coordinates":[[[[1.9962485,48.9685412],[1.9967973,48.9698807],[1.9970398,48.9706],[1.9972191,48.9708599],[1.9975412,48.971189],[1.9981116,48.9718926],[1.9983285,48.9722874],[1.9984199,48.9725629],[1.9981824,48.9734246],[1.997961,48.973585],[1.9978812,48.9737363],[1.9978504,48.9739596],[1.9978736,48.9751854],[1.9976469,48.9756759],[1.9955617,48.9751638],[1.9961848,48.9736285],[1.9961505,48.9734234],[1.996032,48.9732105],[1.9958499,48.9730545],[1.9956605,48.9729706],[1.9926888,48.9721836],[1.992711,48.9721514],[1.9928144,48.972151],[1.9929071,48.9719937],[1.9932992,48.9710319],[1.9935963,48.9701218],[1.9942594,48.9667503],[1.9958562,48.9670538],[1.9957508,48.9672607],[1.9957508,48.9673879],[1.9958217,48.967613],[1.9959945,48.9678284],[1.9962485,48.9685412]]]]},"properties":{"code_section":"78643000AI","code_commune":"78643","section_courte":"AI"}},{"type":"Feature","geometry":{"type":"MultiPolygon","coordinates":[[[[1.9888418,48.9686855],[1.9898957,48.9678594],[1.9913784,48.9660092],[1.9916615,48.9656778],[1.9918514,48.9655206],[1.9938164,48.9660976],[1.9936366,48.9666185],[1.9942594,48.9667503],[1.9936976,48.9694961],[1.9937419,48.9695018],[1.9936246,48.9700197],[1.9932094,48.9712644],[1.9929071,48.9719937],[1.9927923,48.9721661],[1.992711,48.9721514],[1.9926888,48.9721836],[1.9924293,48.9721107],[1.9880531,48.9707138],[1.9856773,48.9700196],[1.9868826,48.9700894],[1.9871929,48.9700486],[1.987432,48.9699354],[1.9880121,48.9693527],[1.9888418,48.9686855]]]]},"properties":{"code_section":"78643000AK","code_commune":"78643","section_courte":"AK"}},{"type":"Feature","geometry":{"type":"MultiPolygon","coordinates":[[[[1.9880121,48.9693527],[1.987432,48.9699354],[1.9871929,48.9700486],[1.9868826,48.9700894],[1.9851488,48.9699872],[1.984965,48.9698801],[1.9821773,48.9689019],[1.9826464,48.9685202],[1.982968,48.9683736],[1.9834594,48.9682426],[1.9837979,48.9679805],[1.9840208,48.9677182],[1.98431,48.9675141],[1.9835572,48.9663816],[1.9848236,48.9655888],[1.9848376,48.96551],[1.9849679,48.9653285],[1.9845161,48.9650891],[1.9843595,48.9649247],[1.984726,48.9643813],[1.9854921,48.9635855],[1.9861581,48.9629801],[1.9862436,48.9629302],[1.9863404,48.962967],[1.9866304,48.9631916],[1.9876727,48.9623593],[1.9882714,48.9627462],[1.9888571,48.9631955],[1.9893795,48.9635253],[1.9903414,48.9645807],[1.9912042,48.9653434],[1.9916615,48.9656778],[1.9898957,48.9678594],[1.9886351,48.9688293],[1.9880121,48.9693527]]]]},"properties":{"code_section":"78643000AL","code_commune":"78643","section_courte":"AL"}},{"type":"Feature","geometry":{"type":"MultiPolygon","coordinates":[[[[1.9822127,48.9626406],[1.9817336,48.9624512],[1.9818694,48.9622981],[1.9812254,48.9620731],[1.9805482,48.9627513],[1.9804759,48.9627227],[1.9796024,48.9636903],[1.9795577,48.9637161],[1.9794883,48.9631184],[1.9795155,48.9626243],[1.9784418,48.9636799],[1.9776897,48.9632212],[1.9772386,48.962818],[1.9780131,48.9622025],[1.9779469,48.9621658],[1.9786499,48.9616315],[1.9780046,48.9612937],[1.9779592,48.9613301],[1.9781339,48.9614217],[1.9777806,48.9616571],[1.9773413,48.961388],[1.9777981,48.9610965],[1.9777256,48.961057],[1.9780203,48.9608282],[1.9792929,48.9615413],[1.9790713,48.9617406],[1.9794221,48.9619061],[1.9794463,48.9617088],[1.9797672,48.960788],[1.9798025,48.9604365],[1.981428,48.9613471],[1.9816442,48.9614395],[1.9828111,48.9617222],[1.9839227,48.9606443],[1.9868084,48.962019],[1.9875799,48.9624401],[1.9866304,48.9631916],[1.9863404,48.962967],[1.9862436,48.9629302],[1.9860026,48.9631041],[1.9854921,48.9635855],[1.984726,48.9643813],[1.984362,48.9649054],[1.9844441,48.9650389],[1.9849679,48.9653285],[1.9848376,48.96551],[1.9848236,48.9655888],[1.9835572,48.9663816],[1.9834971,48.9663061],[1.9831222,48.966121],[1.9825891,48.9659234],[1.9821207,48.9655962],[1.981418,48.9651807],[1.9804235,48.9646919],[1.980941,48.9640477],[1.9822127,48.9626406]]]]},"properties":{"code_section":"78643000AM","code_commune":"78643","section_courte":"AM"}},{"type":"Feature","geometry":{"type":"MultiPolygon","coordinates":[[[[1.9801594,48.9708211],[1.9777003,48.969516],[1.9770828,48.9692436],[1.9759465,48.9685959],[1.9746421,48.967972],[1.9749901,48.9677241],[1.9749096,48.9676088],[1.9759468,48.9669102],[1.9759885,48.9669358],[1.9763161,48.9667029],[1.9765295,48.966547],[1.9764408,48.9664964],[1.9770636,48.966056],[1.9771563,48.9661105],[1.9774241,48.9659698],[1.9783533,48.9653592],[1.9789468,48.9656757],[1.9791717,48.9654016],[1.979298,48.9654846],[1.9795001,48.9658354],[1.9798033,48.964424],[1.9808152,48.9648649],[1.981418,48.9651807],[1.9821207,48.9655962],[1.9825891,48.9659234],[1.9831222,48.966121],[1.9834971,48.9663061],[1.98431,48.9675141],[1.9840208,48.9677182],[1.9837979,48.9679805],[1.9834594,48.9682426],[1.982968,48.9683736],[1.9826062,48.9685509],[1.9821472,48.9689184],[1.9801594,48.9708211]]]]},"properties":{"code_section":"78643000AN","code_commune":"78643","section_courte":"AN"}},{"type":"Feature","geometry":{"type":"MultiPolygon","coordinates":[[[[1.9770828,48.9692436],[1.9777003,48.969516],[1.9797045,48.97059],[1.978956,48.9711885],[1.9794988,48.9714974],[1.979572,48.9714479],[1.9797867,48.9715669],[1.9799365,48.9714663],[1.980228,48.9716109],[1.980833,48.9718434],[1.9808777,48.9719062],[1.9808268,48.9721235],[1.9804982,48.9725313],[1.9786939,48.9736071],[1.9783148,48.9738623],[1.9781049,48.9740495],[1.976697,48.9747858],[1.9755344,48.9738807],[1.9749925,48.9741883],[1.9743354,48.9744826],[1.9737415,48.9739013],[1.9730822,48.9733653],[1.9730393,48.9733911],[1.9725051,48.9729836],[1.9717442,48.9723127],[1.9711835,48.9725829],[1.9710443,48.9724664],[1.9701593,48.9728771],[1.9690719,48.9718354],[1.9690325,48.9718498],[1.9688068,48.9716242],[1.9711089,48.9707708],[1.9702538,48.9706512],[1.973318,48.9688221],[1.9746421,48.967972],[1.9759465,48.9685959],[1.9770828,48.9692436]]]]},"properties":{"code_section":"78643000AO","code_commune":"78643","section_courte":"AO"}},{"type":"Feature","geometry":{"type":"MultiPolygon","coordinates":[[[[1.9633959,48.9626637],[1.9630983,48.9622878],[1.9621046,48.9626199],[1.9626878,48.9633045],[1.9622636,48.9631255],[1.9614233,48.9634272],[1.9625664,48.9648293],[1.960064,48.9656905],[1.9599277,48.9655288],[1.9594118,48.9657094],[1.9593132,48.9656823],[1.9588106,48.9647349],[1.9594017,48.9645716],[1.9589481,48.9636433],[1.9593229,48.963542],[1.9590968,48.9630988],[1.9598222,48.9628789],[1.9600234,48.9624718],[1.9595859,48.9624099],[1.9592805,48.9623276],[1.9588045,48.9609781],[1.9594114,48.9607703],[1.9602409,48.9606025],[1.9610093,48.961709],[1.9617238,48.9610601],[1.96231,48.9600594],[1.9634636,48.9596586],[1.9639731,48.95931],[1.9648195,48.9588418],[1.9654305,48.9595039],[1.9659264,48.9593005],[1.9664519,48.9598705],[1.9663186,48.9604318],[1.9668065,48.9609462],[1.9665453,48.9610552],[1.9666906,48.9612262],[1.9674259,48.9609289],[1.9686087,48.9623707],[1.9682481,48.9625967],[1.9681692,48.9625398],[1.9673831,48.9630113],[1.9676939,48.9632409],[1.9676582,48.963263],[1.9678312,48.9633913],[1.9675608,48.9635574],[1.966339,48.9629808],[1.9657509,48.9633705],[1.9657312,48.9626301],[1.9653775,48.9623338],[1.9636252,48.9629527],[1.9633959,48.9626637]]]]},"properties":{"code_section":"78643000AP","code_commune":"78643","section_courte":"AP"}},{"type":"Feature","geometry":{"type":"MultiPolygon","coordinates":[[[[1.9551704,48.9684234],[1.9543457,48.9683512],[1.9542647,48.9689576],[1.9541904,48.9691202],[1.9542215,48.9691221],[1.9540253,48.9695318],[1.9538793,48.9697609],[1.9538351,48.9697777],[1.953756,48.9699897],[1.9531662,48.9698662],[1.9526712,48.9698041],[1.9520198,48.9696365],[1.951219,48.9692874],[1.9514555,48.9679512],[1.9513016,48.967913],[1.9515689,48.9663756],[1.9532932,48.9664184],[1.9534221,48.9664443],[1.9535003,48.9665291],[1.9542539,48.9664506],[1.9542527,48.9664313],[1.9563579,48.9661578],[1.9561841,48.9653673],[1.9585503,48.965102],[1.9588106,48.9647349],[1.9593132,48.9656823],[1.9597711,48.9662727],[1.9602166,48.9667338],[1.9626567,48.9686893],[1.9605868,48.9693848],[1.9590979,48.968728],[1.9581312,48.9687616],[1.9557975,48.9684627],[1.9551704,48.9684234]]]]},"properties":{"code_section":"78643000YA","code_commune":"78643","section_courte":"YA"}},{"type":"Feature","geometry":{"type":"MultiPolygon","coordinates":[[[[1.9641745,48.9704022],[1.9611083,48.9700729],[1.9605868,48.9693848],[1.9626567,48.9686893],[1.9619401,48.9680929],[1.9648843,48.9669986],[1.9654791,48.9677455],[1.9671318,48.9671735],[1.9705433,48.9704649],[1.9702538,48.9706512],[1.9711089,48.9707708],[1.9690131,48.9715332],[1.9678143,48.9720463],[1.9662211,48.9702717],[1.9645165,48.9704144],[1.9641745,48.9704022]]]]},"properties":{"code_section":"78643000YB","code_commune":"78643","section_courte":"YB"}},{"type":"Feature","geometry":{"type":"MultiPolygon","coordinates":[[[[1.9705164,48.9704442],[1.9664152,48.9664845],[1.9677076,48.9660558],[1.9691823,48.9653982],[1.9698875,48.9655404],[1.9709285,48.965644],[1.9703255,48.9652678],[1.9714025,48.9645063],[1.9728138,48.9653288],[1.9733735,48.9650291],[1.9738431,48.9646744],[1.974389,48.964349],[1.9774241,48.9659698],[1.9771563,48.9661105],[1.9770636,48.966056],[1.9764408,48.9664964],[1.9765295,48.966547],[1.9759885,48.9669358],[1.9759468,48.9669102],[1.9749096,48.9676088],[1.9749901,48.9677241],[1.9740614,48.9683533],[1.9718096,48.9697264],[1.9705433,48.9704649],[1.9705164,48.9704442]]]]},"properties":{"code_section":"78643000YC","code_commune":"78643","section_courte":"YC"}},{"type":"Feature","geometry":{"type":"MultiPolygon","coordinates":[[[[1.975262,48.9610029],[1.9750594,48.9608692],[1.975004,48.9603816],[1.9746396,48.9597668],[1.974502,48.9593769],[1.9761665,48.9585417],[1.9772005,48.9591887],[1.9773959,48.9589387],[1.9776948,48.9586832],[1.9781853,48.9581256],[1.9792102,48.958681],[1.9796727,48.9590509],[1.9797783,48.9590673],[1.9797237,48.9584324],[1.980417,48.9588138],[1.9805513,48.9586963],[1.9809386,48.9590994],[1.9818477,48.9596742],[1.9839227,48.9606443],[1.9828111,48.9617222],[1.9816442,48.9614395],[1.981428,48.9613471],[1.9798025,48.9604365],[1.9797672,48.960788],[1.9794463,48.9617088],[1.9794221,48.9619061],[1.9790713,48.9617406],[1.9792929,48.9615413],[1.9780203,48.9608282],[1.9777256,48.961057],[1.9777981,48.9610965],[1.9773413,48.961388],[1.9777806,48.9616571],[1.9781339,48.9614217],[1.9779592,48.9613301],[1.9780046,48.9612937],[1.9786499,48.9616315],[1.9779469,48.9621658],[1.9780131,48.9622025],[1.9772386,48.962818],[1.975262,48.9610029]]]]},"properties":{"code_section":"78643000YH","code_commune":"78643","section_courte":"YH"}},{"type":"Feature","geometry":{"type":"MultiPolygon","coordinates":[[[[1.9747309,48.9571667],[1.9749777,48.9570022],[1.9745386,48.9567158],[1.9746804,48.9566166],[1.974948,48.9567861],[1.9751064,48.9566763],[1.9747867,48.956477],[1.9748418,48.9564377],[1.9751486,48.9566266],[1.9752704,48.9565178],[1.9753175,48.9565474],[1.9754084,48.9564864],[1.9781853,48.9581256],[1.9776948,48.9586832],[1.9773959,48.9589387],[1.9772005,48.9591887],[1.9761665,48.9585417],[1.974502,48.9593769],[1.9741896,48.958235],[1.9733906,48.9586566],[1.9735612,48.9588615],[1.9728511,48.9592584],[1.9716044,48.9581341],[1.9703783,48.9565829],[1.9697418,48.9557066],[1.9702085,48.9553417],[1.9709531,48.9550677],[1.9719396,48.9544186],[1.9729423,48.9551777],[1.9732139,48.9559516],[1.9735957,48.9568578],[1.9744152,48.9573762],[1.9747309,48.9571667]]]]},"properties":{"code_section":"78643000YI","code_commune":"78643","section_courte":"YI"}},{"type":"Feature","geometry":{"type":"MultiPolygon","coordinates":[[[[1.9691522,48.9597248],[1.9697616,48.9605555],[1.9678093,48.9614294],[1.9674259,48.9609289],[1.9666906,48.9612262],[1.9665453,48.9610552],[1.9668065,48.9609462],[1.9663186,48.9604318],[1.9664519,48.9598705],[1.9659264,48.9593005],[1.9654305,48.9595039],[1.9648195,48.9588418],[1.9652034,48.9585586],[1.9655127,48.9582116],[1.9657484,48.9580187],[1.9670364,48.9571221],[1.9680621,48.9565542],[1.9697418,48.9557066],[1.9703783,48.9565829],[1.9716044,48.9581341],[1.971805,48.9583213],[1.9712701,48.9585959],[1.9712985,48.9586214],[1.9691522,48.9597248]]]]},"properties":{"code_section":"78643000YK","code_commune":"78643","section_courte":"YK"}},{"type":"Feature","geometry":{"type":"MultiPolygon","coordinates":[[[[1.9699453,48.9593146],[1.9712985,48.9586214],[1.9712701,48.9585959],[1.971805,48.9583213],[1.9728511,48.9592584],[1.9735612,48.9588615],[1.9733906,48.9586566],[1.9741896,48.958235],[1.9743458,48.9588966],[1.9746396,48.9597668],[1.975004,48.9603816],[1.9750594,48.9608692],[1.9749503,48.9608187],[1.9731044,48.9618979],[1.9713008,48.9628479],[1.9711294,48.9628894],[1.970199,48.963703],[1.9696422,48.9631785],[1.9686087,48.9623707],[1.9678093,48.9614294],[1.9697616,48.9605555],[1.9691522,48.9597248],[1.9699453,48.9593146]]]]},"properties":{"code_section":"78643000YL","code_commune":"78643","section_courte":"YL"}},{"type":"Feature","geometry":{"type":"MultiPolygon","coordinates":[[[[1.9746982,48.9645178],[1.974389,48.964349],[1.9738431,48.9646744],[1.9733735,48.9650291],[1.9728138,48.9653288],[1.9714025,48.9645063],[1.9709379,48.9643026],[1.9707648,48.9641954],[1.970199,48.963703],[1.9711294,48.9628894],[1.9713008,48.9628479],[1.9731044,48.9618979],[1.9749503,48.9608187],[1.975262,48.9610029],[1.9756196,48.9613056],[1.9776897,48.9632212],[1.9784418,48.9636799],[1.9795155,48.9626243],[1.9794883,48.9631184],[1.9795577,48.9637161],[1.9796024,48.9636903],[1.9804759,48.9627227],[1.9805482,48.9627513],[1.9812254,48.9620731],[1.9818694,48.9622981],[1.9817336,48.9624512],[1.9822127,48.9626406],[1.980941,48.9640477],[1.9804235,48.9646919],[1.9798033,48.964424],[1.9795001,48.9658354],[1.979298,48.9654846],[1.9791717,48.9654016],[1.9789468,48.9656757],[1.9783533,48.9653592],[1.9774241,48.9659698],[1.9746982,48.9645178]]]]},"properties":{"code_section":"78643000YM","code_commune":"78643","section_courte":"YM"}},{"type":"Feature","geometry":{"type":"MultiPolygon","coordinates":[[[[1.965665,48.9676809],[1.9654791,48.9677455],[1.9648843,48.9669986],[1.9619401,48.9680929],[1.9602166,48.9667338],[1.9597711,48.9662727],[1.9593132,48.9656823],[1.9598575,48.9655044],[1.9599935,48.9656627],[1.9625175,48.9648163],[1.9613948,48.9634198],[1.9622386,48.9631253],[1.9626383,48.9632874],[1.9620802,48.9626103],[1.9630719,48.9622943],[1.9635961,48.9629461],[1.9653655,48.9623245],[1.9657312,48.9626301],[1.9657509,48.9633705],[1.966339,48.9629808],[1.9675608,48.9635574],[1.9678235,48.9633924],[1.9676517,48.9632622],[1.9676865,48.9632414],[1.967376,48.9630095],[1.9681688,48.962531],[1.9682438,48.962586],[1.9686087,48.9623707],[1.9696422,48.9631785],[1.9707648,48.9641954],[1.9709379,48.9643026],[1.9714025,48.9645063],[1.9703255,48.9652678],[1.9709285,48.965644],[1.9698875,48.9655404],[1.9691823,48.9653982],[1.9677076,48.9660558],[1.9664152,48.9664845],[1.9671318,48.9671735],[1.965665,48.9676809]]]]},"properties":{"code_section":"78643000YN","code_commune":"78643","section_courte":"YN"}},{"type":"Feature","geometry":{"type":"MultiPolygon","coordinates":[[[[1.9542539,48.9664506],[1.9535003,48.9665291],[1.9534221,48.9664443],[1.9533322,48.9664215],[1.951608,48.9663766],[1.9515652,48.9633586],[1.9516509,48.9633501],[1.9517703,48.9626774],[1.9517256,48.962455],[1.9517908,48.9621555],[1.9519196,48.9619518],[1.952632,48.9619989],[1.9550045,48.9620583],[1.9551009,48.9620812],[1.9551478,48.9621579],[1.9553484,48.9628883],[1.9578601,48.9626722],[1.9575035,48.9613493],[1.9575115,48.9612688],[1.9578868,48.9616458],[1.9587357,48.9621155],[1.9592805,48.9623276],[1.9599995,48.9624435],[1.9598021,48.9628626],[1.9590805,48.9630619],[1.9592886,48.963516],[1.9588819,48.963607],[1.9593646,48.9645411],[1.9588106,48.9647349],[1.9585503,48.965102],[1.9561841,48.9653673],[1.9563579,48.9661578],[1.9542527,48.9664313],[1.9542539,48.9664506]]]]},"properties":{"code_section":"78643000YO","code_commune":"78643","section_courte":"YO"}},{"type":"Feature","geometry":{"type":"MultiPolygon","coordinates":[[[[1.9556899,48.9596312],[1.9568934,48.9595865],[1.9574698,48.9595097],[1.9574245,48.9591943],[1.9597056,48.9586354],[1.9595038,48.9583037],[1.9596844,48.9582403],[1.9597016,48.9582619],[1.9597496,48.9582509],[1.9597983,48.9583267],[1.9598704,48.9583024],[1.9597929,48.9581458],[1.9600507,48.9580871],[1.9601385,48.9582372],[1.9602115,48.95827],[1.9611907,48.957911],[1.9612831,48.9579101],[1.9614543,48.958111],[1.9615903,48.9583404],[1.9616076,48.9584616],[1.9621209,48.9591466],[1.9637201,48.9587953],[1.9640667,48.9592587],[1.9634636,48.9596586],[1.96231,48.9600594],[1.9617238,48.9610601],[1.9610093,48.961709],[1.9602772,48.9605769],[1.9594296,48.9607435],[1.9587887,48.9609584],[1.9592805,48.9623276],[1.9587357,48.9621155],[1.9578868,48.9616458],[1.9575115,48.9612688],[1.9575035,48.9613493],[1.9578601,48.9626722],[1.9553484,48.9628883],[1.9551009,48.9620812],[1.9546428,48.9620394],[1.952632,48.9619989],[1.9519196,48.9619518],[1.9532314,48.9600952],[1.9547422,48.9602495],[1.9549875,48.9602494],[1.954992,48.9602151],[1.9551627,48.960222],[1.9552242,48.9598572],[1.9555096,48.959861],[1.9554959,48.9599438],[1.9556112,48.9599451],[1.9556899,48.9596312]]]]},"properties":{"code_section":"78643000YP","code_commune":"78643","section_courte":"YP"}}]}