{"type":"FeatureCollection","features":[{"type":"Feature","geometry":{"type":"MultiPolygon","coordinates":[[[[1.9553696,48.9779165],[1.9558061,48.978587],[1.9559298,48.9790733],[1.956952,48.9789848],[1.9569919,48.9802141],[1.9558544,48.980829],[1.9572716,48.9819838],[1.9572746,48.9829488],[1.9584974,48.9829172],[1.9594696,48.9830434],[1.9589903,48.9841693],[1.9585032,48.9840644],[1.9579396,48.9841081],[1.9567975,48.9843273],[1.9557061,48.9847566],[1.9546681,48.9850256],[1.9525353,48.9852844],[1.95253,48.9855977],[1.9515764,48.9855208],[1.9507451,48.9856128],[1.950397,48.9856076],[1.946822,48.9854967],[1.9445341,48.9853815],[1.9458389,48.9902593],[1.9459247,48.9904487],[1.9479424,48.9896718],[1.9530474,48.9880677],[1.9541158,48.9876397],[1.9552913,48.987113],[1.9553344,48.9871854],[1.9551875,48.9921826],[1.9550158,48.9922284],[1.9550301,48.9922591],[1.9549951,48.9922685],[1.9551407,48.9925185],[1.9602708,48.9911915],[1.9643273,48.9901017],[1.9658216,48.9896336],[1.9658946,48.9894693],[1.9660627,48.9893058],[1.9671458,48.9889402],[1.9675463,48.9890981],[1.969166,48.9885526],[1.970183,48.9898994],[1.9714136,48.9906538],[1.9706838,48.9911155],[1.9708421,48.9912371],[1.9698275,48.9918728],[1.9711093,48.9927241],[1.9714108,48.9925574],[1.975658,48.9957516],[1.9724259,48.997559],[1.9655441,49.0010487],[1.961319,49.0027348],[1.954183,49.0049225],[1.9464269,49.0063118],[1.9460806,49.00432],[1.9454616,49.0015036],[1.9449269,48.9999618],[1.9444556,48.9987671],[1.9440151,48.9974289],[1.9435668,48.995783],[1.9432439,48.9950963],[1.9421058,48.9918192],[1.9395411,48.9824622],[1.9394254,48.9821131],[1.9387228,48.9807166],[1.9497531,48.9796648],[1.9518607,48.976156],[1.9517081,48.973391],[1.9539091,48.9747066],[1.9548744,48.9755494],[1.9555134,48.9760561],[1.9556616,48.9762395],[1.9557386,48.9766393],[1.9553696,48.9779165]]]]},"properties":{"code_section":"786420000A","code_commune":"78642","section_courte":"A"}},{"type":"Feature","geometry":{"type":"MultiPolygon","coordinates":[[[[1.9758504,48.995895],[1.9714108,48.9925574],[1.9711093,48.9927241],[1.9698275,48.9918728],[1.9708421,48.9912371],[1.9706838,48.9911155],[1.9714136,48.9906538],[1.970183,48.9898994],[1.969166,48.9885526],[1.9732987,48.9868027],[1.9760393,48.9855491],[1.9777568,48.9846353],[1.9804192,48.9830383],[1.9858622,48.9794093],[1.9887652,48.9813178],[1.9929033,48.9835808],[1.9922232,48.9846562],[1.9919475,48.9849235],[1.9913846,48.9852082],[1.9910227,48.9854468],[1.9900692,48.9857571],[1.9893728,48.9860929],[1.9886091,48.9865841],[1.9886449,48.9866222],[1.9882214,48.9869763],[1.9892138,48.9877695],[1.9758504,48.995895]]]]},"properties":{"code_section":"786420000B","code_commune":"78642","section_courte":"B"}},{"type":"Feature","geometry":{"type":"MultiPolygon","coordinates":[[[[1.9552843,48.973889],[1.9560598,48.9743802],[1.9561136,48.9743812],[1.9566904,48.9740361],[1.9561823,48.973698],[1.9566022,48.9734415],[1.9564271,48.9733142],[1.9563792,48.9733398],[1.9562845,48.9732734],[1.9567006,48.9730133],[1.9571155,48.9732648],[1.9577284,48.9737245],[1.9565929,48.9743917],[1.9570825,48.9749284],[1.9574213,48.9754235],[1.9576588,48.9756521],[1.9580196,48.9754874],[1.95824,48.9756637],[1.9583813,48.9758645],[1.9579338,48.9761761],[1.9581108,48.9763308],[1.9583281,48.9762158],[1.9584239,48.9762824],[1.9580852,48.9764963],[1.9584674,48.9768944],[1.9583766,48.9768911],[1.9554688,48.97752],[1.9557386,48.9766393],[1.9556616,48.9762395],[1.9555134,48.9760561],[1.9548744,48.9755494],[1.9539091,48.9747066],[1.9517674,48.9734227],[1.9517622,48.9732639],[1.9523515,48.9723147],[1.9523754,48.9722986],[1.9552843,48.973889]]],[[[1.954717,48.96919],[1.95474,48.9691648],[1.9542118,48.9691228],[1.9543638,48.9683433],[1.956994,48.968595],[1.9581252,48.9687569],[1.9589804,48.9687241],[1.9592502,48.9687964],[1.9606077,48.9693765],[1.9610865,48.9700782],[1.9587944,48.9702193],[1.9579623,48.97034],[1.9571594,48.9705167],[1.9564061,48.9695885],[1.9561204,48.9694445],[1.9560467,48.9693245],[1.9546989,48.9692101],[1.954717,48.96919]]]]},"properties":{"code_section":"786420000C","code_commune":"78642","section_courte":"C"}},{"type":"Feature","geometry":{"type":"MultiPolygon","coordinates":[[[[1.9578266,48.9894475],[1.9585245,48.9891514],[1.9588646,48.9890988],[1.9614845,48.9891721],[1.9612881,48.9903759],[1.9625604,48.9901855],[1.9615636,48.990847],[1.9551407,48.9925185],[1.9549951,48.9922685],[1.9550301,48.9922591],[1.9550158,48.9922284],[1.9551875,48.9921826],[1.9552609,48.9893225],[1.9562626,48.9888032],[1.9575553,48.9894351],[1.9578266,48.9894475]]]]},"properties":{"code_section":"78642000AA","code_commune":"78642","section_courte":"AA"}},{"type":"Feature","geometry":{"type":"MultiPolygon","coordinates":[[[[1.9682117,48.9888654],[1.9675463,48.9890981],[1.9671458,48.9889402],[1.9660627,48.9893058],[1.9658946,48.9894693],[1.9658216,48.9896336],[1.9643273,48.9901017],[1.9615636,48.990847],[1.9625604,48.9901855],[1.9612881,48.9903759],[1.9616089,48.98836],[1.9617556,48.9882267],[1.964338,48.9871056],[1.9653504,48.9865345],[1.966508,48.9870541],[1.9668738,48.9870222],[1.968011,48.9862217],[1.9693572,48.9870627],[1.9694187,48.9871799],[1.9696686,48.987014],[1.9709123,48.9878212],[1.969166,48.9885526],[1.9682117,48.9888654]]]]},"properties":{"code_section":"78642000AB","code_commune":"78642","section_courte":"AB"}},{"type":"Feature","geometry":{"type":"MultiPolygon","coordinates":[[[[1.9614845,48.9891721],[1.9588646,48.9890988],[1.9585245,48.9891514],[1.9578107,48.9894629],[1.9575553,48.9894351],[1.9562626,48.9888032],[1.9552609,48.9893225],[1.9553344,48.9871854],[1.9552913,48.987113],[1.9563263,48.9866543],[1.9591962,48.9857164],[1.9617941,48.9852419],[1.9641923,48.984871],[1.9657541,48.9845404],[1.9663148,48.9850569],[1.9664836,48.9851673],[1.9666484,48.9852068],[1.9671893,48.9852308],[1.9683368,48.9859911],[1.9668738,48.9870222],[1.966508,48.9870541],[1.9653504,48.9865345],[1.964338,48.9871056],[1.9617556,48.9882267],[1.9616089,48.98836],[1.9614845,48.9891721]]]]},"properties":{"code_section":"78642000AC","code_commune":"78642","section_courte":"AC"}},{"type":"Feature","geometry":{"type":"MultiPolygon","coordinates":[[[[1.9697942,48.9870933],[1.9696686,48.987014],[1.9694187,48.9871799],[1.9693572,48.9870627],[1.968011,48.9862217],[1.9683368,48.9859911],[1.9671893,48.9852308],[1.9666484,48.9852068],[1.9664836,48.9851673],[1.9663148,48.9850569],[1.9657541,48.9845404],[1.9670523,48.9840375],[1.9697221,48.984812],[1.9702007,48.9847564],[1.9726769,48.983146],[1.9727352,48.9831387],[1.9759879,48.985562],[1.9732987,48.9868027],[1.9709123,48.9878212],[1.9697942,48.9870933]]]]},"properties":{"code_section":"78642000AD","code_commune":"78642","section_courte":"AD"}},{"type":"Feature","geometry":{"type":"MultiPolygon","coordinates":[[[[1.9727352,48.9831387],[1.9726769,48.983146],[1.9702007,48.9847564],[1.9697221,48.984812],[1.9670523,48.9840375],[1.9686587,48.9830186],[1.9696094,48.9825702],[1.9731045,48.9807949],[1.974595,48.9818328],[1.9750652,48.9813051],[1.9752786,48.9814065],[1.9753678,48.9813411],[1.9757711,48.9816247],[1.976053,48.981477],[1.976402,48.9811974],[1.9766743,48.9813858],[1.9771091,48.9811166],[1.9772215,48.9811122],[1.9773544,48.9811631],[1.9774583,48.9813124],[1.9797266,48.9830395],[1.9796727,48.9831944],[1.9799071,48.9833663],[1.9777568,48.9846353],[1.9759879,48.985562],[1.9727352,48.9831387]]]]},"properties":{"code_section":"78642000AE","code_commune":"78642","section_courte":"AE"}},{"type":"Feature","geometry":{"type":"MultiPolygon","coordinates":[[[[1.9840498,48.9806224],[1.9818231,48.9821233],[1.9799071,48.9833663],[1.9796727,48.9831944],[1.9797266,48.9830395],[1.9774583,48.9813124],[1.9773544,48.9811631],[1.9772215,48.9811122],[1.9771091,48.9811166],[1.9766743,48.9813858],[1.976402,48.9811974],[1.976053,48.981477],[1.9757711,48.9816247],[1.9753678,48.9813411],[1.9752786,48.9814065],[1.9750652,48.9813051],[1.9754305,48.9808728],[1.9756931,48.9806684],[1.9769416,48.9799301],[1.9775733,48.9796675],[1.9780321,48.9795276],[1.9797463,48.9791063],[1.9806946,48.9797847],[1.9809208,48.9798326],[1.9817359,48.9796273],[1.9824124,48.9795749],[1.984774,48.9797431],[1.985087,48.9796978],[1.9853558,48.9796141],[1.9858331,48.9792813],[1.9859391,48.9793595],[1.9840498,48.9806224]]]]},"properties":{"code_section":"78642000AH","code_commune":"78642","section_courte":"AH"}},{"type":"Feature","geometry":{"type":"MultiPolygon","coordinates":[[[[1.9802964,48.9767011],[1.980378,48.976801],[1.9820297,48.9778897],[1.9833118,48.9772698],[1.9849295,48.9785979],[1.9858331,48.9792813],[1.9853558,48.9796141],[1.985087,48.9796978],[1.984774,48.9797431],[1.9824124,48.9795749],[1.9817359,48.9796273],[1.9809208,48.9798326],[1.9806946,48.9797847],[1.9797463,48.9791063],[1.9789354,48.9793243],[1.9785574,48.9793893],[1.9775733,48.9796675],[1.9769334,48.9792001],[1.9760334,48.9787468],[1.9756536,48.9786871],[1.9753401,48.9785722],[1.9750462,48.9784147],[1.9739946,48.9781886],[1.9740699,48.9779926],[1.9746605,48.9770804],[1.9747563,48.9766081],[1.9749368,48.9760381],[1.9750796,48.9757791],[1.9766893,48.9747743],[1.9772454,48.9752624],[1.9774499,48.9753224],[1.9780732,48.9758598],[1.9781808,48.975793],[1.9784426,48.9754028],[1.9788707,48.9757682],[1.9788353,48.9757945],[1.9790508,48.9759401],[1.9790367,48.9759583],[1.9794262,48.9762043],[1.9797995,48.9763461],[1.9800394,48.9763863],[1.9802964,48.9767011]]]]},"properties":{"code_section":"78642000AI","code_commune":"78642","section_courte":"AI"}},{"type":"Feature","geometry":{"type":"MultiPolygon","coordinates":[[[[1.9711678,48.9725689],[1.9717108,48.9723211],[1.9725763,48.9730422],[1.9730342,48.9733888],[1.9730878,48.9733657],[1.9737143,48.9738742],[1.9743494,48.9744975],[1.9755527,48.9739061],[1.9766893,48.9747743],[1.9750796,48.9757791],[1.9749368,48.9760381],[1.9747563,48.9766081],[1.9746605,48.9770804],[1.9740699,48.9779926],[1.9739946,48.9781886],[1.9737658,48.9780701],[1.9729291,48.9774233],[1.9711411,48.9767472],[1.9706661,48.9764995],[1.9702311,48.9762111],[1.9697542,48.9758384],[1.9694985,48.9755213],[1.9692166,48.9746896],[1.9683028,48.9738665],[1.9702389,48.9729553],[1.9701568,48.9728762],[1.9710449,48.9724648],[1.9711678,48.9725689]]]]},"properties":{"code_section":"78642000AK","code_commune":"78642","section_courte":"AK"}},{"type":"Feature","geometry":{"type":"MultiPolygon","coordinates":[[[[1.9651524,48.9788099],[1.9650711,48.978707],[1.9644809,48.978419],[1.9643108,48.9782959],[1.9651889,48.9779159],[1.9653844,48.9778808],[1.9655519,48.9778761],[1.9658956,48.9781608],[1.9659816,48.978196],[1.9661218,48.9781899],[1.9667596,48.9780057],[1.9679982,48.9774634],[1.9676343,48.9771204],[1.9678754,48.976988],[1.9679934,48.9770934],[1.9681159,48.9770398],[1.9674857,48.9765472],[1.9677454,48.9764179],[1.965427,48.9746358],[1.9664086,48.9741942],[1.9664689,48.9742537],[1.9664275,48.9742723],[1.9671098,48.9748875],[1.9673594,48.9747698],[1.9680168,48.9752937],[1.9692598,48.974766],[1.9694117,48.9753361],[1.9694985,48.9755213],[1.9697542,48.9758384],[1.9702311,48.9762111],[1.9706661,48.9764995],[1.9711411,48.9767472],[1.9729291,48.9774233],[1.9737658,48.9780701],[1.9739946,48.9781886],[1.974,48.9783485],[1.9738974,48.9786641],[1.973559,48.9786617],[1.9710265,48.9795289],[1.9699349,48.9797785],[1.9694836,48.9798056],[1.9689972,48.9799677],[1.96942,48.9806106],[1.969434,48.980667],[1.9693837,48.9807445],[1.9679326,48.9804611],[1.9662407,48.9802508],[1.9654817,48.9793163],[1.9651524,48.9788099]]]]},"properties":{"code_section":"78642000AL","code_commune":"78642","section_courte":"AL"}},{"type":"Feature","geometry":{"type":"MultiPolygon","coordinates":[[[[1.969286,48.9822055],[1.9685165,48.9813311],[1.9681335,48.9815031],[1.9676452,48.9810216],[1.9679326,48.9804611],[1.9693837,48.9807445],[1.969434,48.980667],[1.96942,48.9806106],[1.9689972,48.9799677],[1.9694836,48.9798056],[1.9699349,48.9797785],[1.9710265,48.9795289],[1.973559,48.9786617],[1.9738974,48.9786641],[1.974,48.9783485],[1.9739946,48.9781886],[1.9750462,48.9784147],[1.9753401,48.9785722],[1.9756536,48.9786871],[1.9760334,48.9787468],[1.9769334,48.9792001],[1.9775733,48.9796675],[1.9769205,48.9799404],[1.9756931,48.9806684],[1.9754305,48.9808728],[1.974595,48.9818328],[1.9731045,48.9807949],[1.9696094,48.9825702],[1.969286,48.9822055]]]]},"properties":{"code_section":"78642000AM","code_commune":"78642","section_courte":"AM"}},{"type":"Feature","geometry":{"type":"MultiPolygon","coordinates":[[[[1.9685165,48.9813311],[1.9696094,48.9825702],[1.9685328,48.9830866],[1.9670523,48.9840375],[1.9639914,48.9830949],[1.9635949,48.9828899],[1.963474,48.9827363],[1.963505,48.982559],[1.9644963,48.9812867],[1.9623919,48.9803789],[1.9626398,48.979965],[1.9627099,48.9799956],[1.9629141,48.9798109],[1.9631255,48.9798318],[1.963151,48.9797984],[1.9636748,48.9799489],[1.9644809,48.978419],[1.9650711,48.978707],[1.9654817,48.9793163],[1.9662407,48.9802508],[1.9679326,48.9804611],[1.9676452,48.9810216],[1.9681335,48.9815031],[1.9685165,48.9813311]]]]},"properties":{"code_section":"78642000AN","code_commune":"78642","section_courte":"AN"}},{"type":"Feature","geometry":{"type":"MultiPolygon","coordinates":[[[[1.9611395,48.9812327],[1.9582062,48.980807],[1.9572723,48.9818379],[1.9572716,48.9819838],[1.9558544,48.980829],[1.9569919,48.9802141],[1.956952,48.9789848],[1.9559298,48.9790733],[1.9558061,48.978587],[1.9553696,48.9779165],[1.9554688,48.97752],[1.958491,48.9768818],[1.9586403,48.9770529],[1.9588055,48.9771753],[1.9603859,48.9781372],[1.9606622,48.9782637],[1.9612157,48.9784003],[1.9613562,48.9784704],[1.961951,48.9792171],[1.9626264,48.9796092],[1.963151,48.9797984],[1.9631255,48.9798318],[1.9628878,48.979822],[1.9627099,48.9799956],[1.9626398,48.979965],[1.9624961,48.9801657],[1.962378,48.9804145],[1.9622647,48.9808173],[1.9621912,48.981384],[1.9611395,48.9812327]]]]},"properties":{"code_section":"78642000AO","code_commune":"78642","section_courte":"AO"}},{"type":"Feature","geometry":{"type":"MultiPolygon","coordinates":[[[[1.9669257,48.9839854],[1.9670523,48.9840375],[1.9657541,48.9845404],[1.9641923,48.984871],[1.9629326,48.9850725],[1.962594,48.9847882],[1.9589903,48.9841693],[1.9594696,48.9830434],[1.9584974,48.9829172],[1.9572746,48.9829488],[1.9572722,48.9818379],[1.9582062,48.980807],[1.9621912,48.981384],[1.9622326,48.980978],[1.9623919,48.9803789],[1.9644963,48.9812867],[1.963505,48.982559],[1.963474,48.9827363],[1.9635949,48.9828899],[1.9639914,48.9830949],[1.9669257,48.9839854]]]]},"properties":{"code_section":"78642000AP","code_commune":"78642","section_courte":"AP"}},{"type":"Feature","geometry":{"type":"MultiPolygon","coordinates":[[[[1.9560837,48.9846027],[1.9567975,48.9843273],[1.9579396,48.9841081],[1.9585032,48.9840644],[1.9589903,48.9841693],[1.962594,48.9847882],[1.9629326,48.9850725],[1.9607476,48.9854225],[1.9590979,48.9857415],[1.9563263,48.9866543],[1.9541158,48.9876397],[1.9530474,48.9880677],[1.9519113,48.9884265],[1.9514341,48.9879059],[1.951798,48.9877784],[1.9514717,48.9873998],[1.9513625,48.9873601],[1.9505538,48.9873287],[1.9504892,48.9872594],[1.9504914,48.9870432],[1.9507805,48.9867059],[1.950808,48.9863379],[1.9509208,48.9862064],[1.9515445,48.9862201],[1.9518213,48.9859497],[1.9518565,48.9858535],[1.951775,48.9857253],[1.9513227,48.9855503],[1.9515764,48.9855208],[1.95253,48.9855977],[1.9525353,48.9852844],[1.9546681,48.9850256],[1.9553463,48.9848678],[1.9560837,48.9846027]]]]},"properties":{"code_section":"78642000AR","code_commune":"78642","section_courte":"AR"}},{"type":"Feature","geometry":{"type":"MultiPolygon","coordinates":[[[[1.9448536,48.9866419],[1.9445341,48.9853815],[1.946822,48.9854967],[1.950397,48.9856076],[1.9507451,48.9856128],[1.9513227,48.9855503],[1.951775,48.9857253],[1.9518565,48.9858535],[1.9518213,48.9859497],[1.9515445,48.9862201],[1.9509208,48.9862064],[1.950808,48.9863379],[1.9507805,48.9867059],[1.9504914,48.9870432],[1.9504892,48.9872594],[1.9505538,48.9873287],[1.9513625,48.9873601],[1.9514717,48.9873998],[1.951798,48.9877784],[1.9514341,48.9879059],[1.9519113,48.9884265],[1.9479424,48.9896718],[1.9459247,48.9904487],[1.9458389,48.9902593],[1.9448536,48.9866419]]]]},"properties":{"code_section":"78642000AS","code_commune":"78642","section_courte":"AS"}},{"type":"Feature","geometry":{"type":"MultiPolygon","coordinates":[[[[1.9597168,48.9761018],[1.9625004,48.9744475],[1.9640247,48.9737182],[1.9644417,48.9738572],[1.9677454,48.9764179],[1.9674857,48.9765472],[1.9681159,48.9770398],[1.9679934,48.9770934],[1.9678754,48.976988],[1.9676343,48.9771204],[1.9679982,48.9774634],[1.9670936,48.9778788],[1.966624,48.9780497],[1.9661218,48.9781899],[1.9659816,48.978196],[1.9658956,48.9781608],[1.9655519,48.9778761],[1.9653844,48.9778808],[1.9651889,48.9779159],[1.9643108,48.9782959],[1.9644809,48.978419],[1.9636748,48.9799489],[1.9629813,48.9797496],[1.9626264,48.9796092],[1.9621007,48.9793252],[1.961951,48.9792171],[1.9613562,48.9784704],[1.9612157,48.9784003],[1.9606622,48.9782637],[1.9603859,48.9781372],[1.9588357,48.9771952],[1.9586403,48.9770529],[1.958491,48.9768818],[1.9584674,48.9768944],[1.9584382,48.9768579],[1.9597168,48.9761018]]]]},"properties":{"code_section":"78642000ZA","code_commune":"78642","section_courte":"ZA"}},{"type":"Feature","geometry":{"type":"MultiPolygon","coordinates":[[[[1.9624661,48.9744677],[1.9584382,48.9768579],[1.9580852,48.9764963],[1.9584239,48.9762824],[1.9583281,48.9762158],[1.9581108,48.9763308],[1.9579338,48.9761761],[1.9583813,48.9758645],[1.95824,48.9756637],[1.9580196,48.9754874],[1.9576588,48.9756521],[1.9574213,48.9754235],[1.9570825,48.9749284],[1.9565929,48.9743917],[1.9577284,48.9737245],[1.9576501,48.9736691],[1.9598505,48.9723869],[1.960614,48.9727104],[1.9618589,48.9733324],[1.9637466,48.9736369],[1.9640247,48.9737182],[1.9624661,48.9744677]]]]},"properties":{"code_section":"78642000ZB","code_commune":"78642","section_courte":"ZB"}},{"type":"Feature","geometry":{"type":"MultiPolygon","coordinates":[[[[1.9560467,48.9693245],[1.9561204,48.9694445],[1.9564061,48.9695885],[1.9571594,48.9705167],[1.9579623,48.97034],[1.9587944,48.9702193],[1.9610865,48.9700782],[1.9611189,48.9702086],[1.9627513,48.9720511],[1.9634671,48.9729287],[1.9644417,48.9738572],[1.9637466,48.9736369],[1.9618589,48.9733324],[1.960614,48.9727104],[1.9598505,48.9723869],[1.9576501,48.9736691],[1.9571155,48.9732648],[1.9567006,48.9730133],[1.9562845,48.9732734],[1.9563792,48.9733398],[1.9564271,48.9733142],[1.9566022,48.9734415],[1.9561823,48.973698],[1.9566904,48.9740361],[1.9561136,48.9743812],[1.9560598,48.9743802],[1.9552843,48.973889],[1.9523754,48.9722986],[1.9532508,48.9707163],[1.953356,48.9706967],[1.9536623,48.9701653],[1.9538121,48.9697412],[1.953869,48.9697443],[1.9540168,48.969507],[1.9541913,48.9691207],[1.95474,48.9691648],[1.9546989,48.9692101],[1.9560467,48.9693245]]]]},"properties":{"code_section":"78642000ZC","code_commune":"78642","section_courte":"ZC"}},{"type":"Feature","geometry":{"type":"MultiPolygon","coordinates":[[[[1.9688014,48.9716278],[1.9691075,48.9719239],[1.9691639,48.9719002],[1.9702389,48.9729553],[1.9683028,48.9738665],[1.9692166,48.9746896],[1.9692598,48.974766],[1.9680168,48.9752937],[1.9673594,48.9747698],[1.9671098,48.9748875],[1.9664275,48.9742723],[1.966469,48.9742537],[1.9664086,48.9741942],[1.965427,48.9746358],[1.9644417,48.9738572],[1.963488,48.9729511],[1.9627513,48.9720511],[1.9611189,48.9702086],[1.9610865,48.9700782],[1.9618791,48.9701359],[1.9644653,48.970412],[1.9661935,48.9702718],[1.9678155,48.9720404],[1.9688014,48.9716278]]]]},"properties":{"code_section":"78642000ZD","code_commune":"78642","section_courte":"ZD"}}]}