{"type":"FeatureCollection","features":[{"type":"Feature","geometry":{"type":"MultiPolygon","coordinates":[[[[2.0000498,48.9513513],[1.9990752,48.9513348],[1.998897,48.950476],[1.9989096,48.9493948],[1.998456,48.9493557],[1.9992389,48.9468426],[2.0012001,48.9459402],[2.0021925,48.9459515],[2.0021362,48.9471353],[2.0025022,48.9495109],[2.002558,48.950418],[2.0023246,48.9527612],[2.0024013,48.9541524],[2.0010623,48.9541131],[2.0010722,48.9538761],[2.0009143,48.9538625],[2.0009558,48.9526767],[2.0010725,48.9513684],[2.0000485,48.9513264],[2.0000498,48.9513513]]]]},"properties":{"code_section":"78672000AB","code_commune":"78672","section_courte":"AB"}},{"type":"Feature","geometry":{"type":"MultiPolygon","coordinates":[[[[1.9944522,48.948935],[1.9939295,48.9489282],[1.9939136,48.9481338],[1.9937278,48.9481226],[1.9937631,48.947976],[1.9928667,48.9479],[1.9928333,48.9485214],[1.992514,48.9485269],[1.9913768,48.9483123],[1.9905885,48.9467694],[1.9913034,48.9466065],[1.991897,48.9465192],[1.9924079,48.9465526],[1.9925943,48.9460391],[1.9930414,48.9457802],[1.9931231,48.9456501],[1.9931125,48.9454166],[1.9931967,48.9451339],[1.993518,48.9447152],[1.9938581,48.9440695],[1.9941338,48.9437688],[1.9943038,48.9436471],[1.9944764,48.9435951],[1.9948687,48.9435701],[1.995591,48.9428331],[1.9962484,48.9428379],[1.9968468,48.9427883],[1.9971686,48.9428168],[1.9974077,48.9429112],[1.997274,48.9434466],[1.9974093,48.9436538],[1.9981405,48.9437129],[1.9982306,48.9437482],[1.9992942,48.9438728],[1.9990858,48.9448239],[1.9992389,48.9468426],[1.9984555,48.9493549],[1.997247,48.9492873],[1.9972338,48.9490938],[1.9962856,48.9489766],[1.9944522,48.948935]]]]},"properties":{"code_section":"78672000AC","code_commune":"78672","section_courte":"AC"}},{"type":"Feature","geometry":{"type":"MultiPolygon","coordinates":[[[[1.9923922,48.9437342],[1.9925714,48.943328],[1.993253,48.942532],[1.9935072,48.9420715],[1.9946564,48.9402816],[1.9947136,48.9402431],[1.9950948,48.9402667],[1.9951846,48.9402372],[1.9960855,48.9402313],[1.9958595,48.939852],[1.9958189,48.9396651],[1.9958151,48.9389058],[1.9956243,48.9382876],[1.9956891,48.9381574],[1.9959041,48.9379723],[1.9986484,48.9382659],[1.9988554,48.9383545],[1.9997709,48.9384457],[1.9997807,48.9384183],[1.9999179,48.9384382],[1.99991,48.9384631],[2.000333,48.9385201],[2.0007063,48.9385348],[1.9999112,48.9413347],[1.9992942,48.9438728],[1.9982306,48.9437482],[1.9981405,48.9437129],[1.9974093,48.9436538],[1.997274,48.9434466],[1.9974077,48.9429112],[1.9971686,48.9428168],[1.9968468,48.9427883],[1.9962484,48.9428379],[1.995591,48.9428331],[1.9948687,48.9435701],[1.994392,48.9436159],[1.9942707,48.9436635],[1.9940934,48.9438095],[1.9938581,48.9440695],[1.993518,48.9447152],[1.9931967,48.9451339],[1.9931125,48.9454166],[1.9924835,48.9446901],[1.9923415,48.9440244],[1.9923922,48.9437342]]]]},"properties":{"code_section":"78672000AD","code_commune":"78672","section_courte":"AD"}},{"type":"Feature","geometry":{"type":"MultiPolygon","coordinates":[[[[2.0003902,48.9395919],[2.0008225,48.9395977],[2.0008894,48.9395561],[2.0012077,48.9395693],[2.0013825,48.9393393],[2.0015077,48.9392416],[2.0017219,48.9391629],[2.0019838,48.9391383],[2.0022239,48.9391987],[2.0024229,48.9393172],[2.002515,48.9394337],[2.0025605,48.9396131],[2.0030257,48.9396287],[2.0040494,48.9398405],[2.0036779,48.9405555],[2.0035235,48.9410477],[2.0033541,48.9419025],[2.003146,48.9424736],[2.0021925,48.9459515],[2.0012001,48.9459402],[1.9992389,48.9468426],[1.9990858,48.9448239],[1.9999112,48.9413347],[2.0003902,48.9395919]]]]},"properties":{"code_section":"78672000AE","code_commune":"78672","section_courte":"AE"}},{"type":"Feature","geometry":{"type":"MultiPolygon","coordinates":[[[[2.0024229,48.9393172],[2.0021141,48.9391596],[2.0018175,48.9391475],[2.0016453,48.9391821],[2.001462,48.9392716],[2.0012077,48.9395693],[2.0008894,48.9395561],[2.0008225,48.9395977],[2.0003902,48.9395919],[2.0007412,48.9383453],[2.0007935,48.9373785],[2.0011316,48.9367394],[2.0014086,48.9363084],[2.001885,48.9357965],[2.0031041,48.9347586],[2.0047696,48.933151],[2.0054346,48.9325595],[2.0068234,48.9320605],[2.0068329,48.9323606],[2.0071149,48.9327185],[2.0071167,48.9328654],[2.0069687,48.9331195],[2.0070526,48.9334703],[2.007916,48.9342395],[2.0085412,48.9345866],[2.0076616,48.935377],[2.0068953,48.9360022],[2.0059293,48.9368925],[2.0057677,48.9370988],[2.0054778,48.9376313],[2.0045894,48.9389308],[2.0040494,48.9398405],[2.0030257,48.9396287],[2.0025605,48.9396131],[2.002515,48.9394337],[2.0024229,48.9393172]]]]},"properties":{"code_section":"78672000AH","code_commune":"78672","section_courte":"AH"}},{"type":"Feature","geometry":{"type":"MultiPolygon","coordinates":[[[[2.0108395,48.9206097],[2.0110847,48.9208104],[2.0113701,48.921146],[2.0117417,48.92144],[2.0124436,48.9214529],[2.0129719,48.921501],[2.0135453,48.9215927],[2.0143089,48.9218024],[2.0158474,48.9223869],[2.0160977,48.9225499],[2.0162582,48.922613],[2.0168994,48.9227631],[2.0169122,48.9230384],[2.0167928,48.9233692],[2.0166787,48.9241168],[2.0166296,48.9253819],[2.0166739,48.9264141],[2.0166529,48.9270236],[2.0167414,48.927684],[2.0165444,48.9277271],[2.0165708,48.9278037],[2.0162658,48.9278587],[2.0162473,48.9281285],[2.0163863,48.9285503],[2.015606,48.9287671],[2.0147656,48.9289187],[2.0109548,48.9298441],[2.0095647,48.9304072],[2.0090195,48.9307721],[2.0081364,48.9315433],[2.0068234,48.9320605],[2.0066504,48.9318106],[2.0058585,48.9317551],[2.0058251,48.931624],[2.0056606,48.9315268],[2.0049702,48.9313563],[2.0035024,48.9307088],[2.0035613,48.9305875],[2.0040105,48.9300519],[2.0049766,48.92918],[2.0046425,48.9283313],[2.0051055,48.9281481],[2.0053864,48.9279563],[2.0058091,48.9278214],[2.0063739,48.9276952],[2.0062124,48.9275538],[2.0005615,48.9270744],[2.0009746,48.9266608],[2.0013805,48.9263948],[2.0024995,48.9259731],[2.0034007,48.9253522],[2.0039357,48.9248916],[2.0045105,48.9241928],[2.0052636,48.9234654],[2.0075233,48.921827],[2.0086552,48.9208905],[2.0093125,48.9205992],[2.0104095,48.9202625],[2.0108395,48.9206097]]]]},"properties":{"code_section":"78672000AK","code_commune":"78672","section_courte":"AK"}},{"type":"Feature","geometry":{"type":"MultiPolygon","coordinates":[[[[2.0040105,48.9300519],[2.0035613,48.9305875],[2.0035024,48.9307088],[2.0049702,48.9313563],[2.0056606,48.9315268],[2.0058251,48.931624],[2.0058585,48.9317551],[2.0066504,48.9318106],[2.0068234,48.9320605],[2.0054346,48.9325595],[2.0047696,48.933151],[2.0038568,48.9340374],[2.0018729,48.9331523],[2.0009371,48.9328519],[2.0009535,48.9328005],[2.0001932,48.9325034],[2.0002131,48.9323243],[1.9996255,48.9321362],[1.999763,48.9318412],[2.0000725,48.9315461],[1.9998578,48.9308661],[1.9997945,48.9304018],[1.9990648,48.9303392],[1.9991446,48.9300921],[1.999167,48.9293028],[1.9991569,48.9288144],[1.999082,48.9283237],[1.9992895,48.9282613],[1.9997651,48.9280463],[2.0000103,48.9278797],[2.0003432,48.9272954],[2.0005797,48.9270643],[2.0062124,48.9275538],[2.0063739,48.9276952],[2.0058091,48.9278214],[2.0053864,48.9279563],[2.0051055,48.9281481],[2.0046425,48.9283313],[2.0049766,48.92918],[2.0040105,48.9300519]]]]},"properties":{"code_section":"78672000AL","code_commune":"78672","section_courte":"AL"}},{"type":"Feature","geometry":{"type":"MultiPolygon","coordinates":[[[[2.0001932,48.9325034],[2.0009535,48.9328005],[2.0009371,48.9328519],[2.0018729,48.9331523],[2.0038568,48.9340374],[2.0031041,48.9347586],[2.001885,48.9357965],[2.0014086,48.9363084],[2.0011316,48.9367394],[2.0007935,48.9373785],[2.0007063,48.9385348],[2.000333,48.9385201],[1.99991,48.9384631],[1.9999179,48.9384382],[1.9997807,48.9384183],[1.9997709,48.9384457],[1.9988554,48.9383545],[1.9986484,48.9382659],[1.9959041,48.9379723],[1.9956891,48.9381574],[1.9956243,48.9382876],[1.9952306,48.9379499],[1.9951767,48.9376455],[1.9948812,48.9371109],[1.9938562,48.9360398],[1.9949799,48.9357049],[1.9952742,48.935918],[1.995978,48.935143],[1.9965684,48.9353752],[1.9974771,48.9342753],[1.9979432,48.9337717],[1.9994641,48.9324417],[1.9996255,48.9321362],[2.0002131,48.9323243],[2.0001932,48.9325034]]]]},"properties":{"code_section":"78672000AM","code_commune":"78672","section_courte":"AM"}},{"type":"Feature","geometry":{"type":"MultiPolygon","coordinates":[[[[1.9938562,48.9360398],[1.9933398,48.9355384],[1.9919448,48.9363518],[1.9913829,48.9366059],[1.9899247,48.9371507],[1.9890115,48.9375387],[1.9876983,48.9382756],[1.9874109,48.938389],[1.9865285,48.9386017],[1.9848593,48.938893],[1.9836224,48.9389516],[1.9824178,48.9390706],[1.9809412,48.9392621],[1.9796949,48.939333],[1.9793158,48.9393853],[1.9786966,48.9395587],[1.9789327,48.9390954],[1.9792026,48.9387426],[1.9797388,48.9382082],[1.9804981,48.9375744],[1.9821084,48.9363587],[1.9828333,48.9354776],[1.982996,48.9350522],[1.9830734,48.9345835],[1.9831422,48.9344177],[1.9833747,48.9341484],[1.9836986,48.9339836],[1.9834313,48.9334399],[1.983323,48.9328092],[1.9831904,48.9324612],[1.9824755,48.9310899],[1.9822907,48.9301683],[1.9822806,48.9288548],[1.9835151,48.928633],[1.9849325,48.9285711],[1.9860372,48.9284816],[1.9872437,48.9284378],[1.9922085,48.9284283],[1.9931193,48.9285137],[1.9939299,48.9286244],[1.9966364,48.9287111],[1.9987251,48.9284144],[1.999082,48.9283237],[1.9991569,48.9288144],[1.999167,48.9293028],[1.9991446,48.9300921],[1.9990648,48.9303392],[1.9997945,48.9304018],[1.9998578,48.9308661],[2.0000725,48.9315461],[1.999763,48.9318412],[1.9994641,48.9324417],[1.9979432,48.9337717],[1.9974771,48.9342753],[1.9965684,48.9353752],[1.995978,48.935143],[1.9952742,48.935918],[1.9949799,48.9357049],[1.9938562,48.9360398]]]]},"properties":{"code_section":"78672000AN","code_commune":"78672","section_courte":"AN"}},{"type":"Feature","geometry":{"type":"MultiPolygon","coordinates":[[[[1.9949068,48.9402598],[1.9947136,48.9402431],[1.9944826,48.9405119],[1.9944353,48.9406393],[1.9935072,48.9420715],[1.993253,48.942532],[1.9930611,48.9427459],[1.9921608,48.9426412],[1.9921125,48.9424451],[1.9919394,48.9421056],[1.9918928,48.9415556],[1.9918255,48.9414076],[1.9916388,48.9412305],[1.9914326,48.9411492],[1.9910659,48.9410703],[1.9905006,48.9413809],[1.9897326,48.9419027],[1.9893309,48.9421355],[1.9877518,48.9426792],[1.9875065,48.9427932],[1.9867425,48.9432554],[1.9862366,48.943342],[1.9861648,48.9433244],[1.9857107,48.9411165],[1.9855177,48.9411268],[1.9854423,48.9409402],[1.984966,48.9410078],[1.984914,48.9407329],[1.9847807,48.9407379],[1.9847167,48.9400004],[1.9845361,48.9400596],[1.9841468,48.9389228],[1.9848593,48.938893],[1.9852903,48.9388353],[1.9865285,48.9386017],[1.9874109,48.938389],[1.9876983,48.9382756],[1.9890115,48.9375387],[1.9899247,48.9371507],[1.9913829,48.9366059],[1.9919448,48.9363518],[1.9933398,48.9355384],[1.9945857,48.9367715],[1.9948812,48.9371109],[1.9951767,48.9376455],[1.9952306,48.9379499],[1.9956242,48.9382876],[1.9958151,48.9389058],[1.9958189,48.9396651],[1.9958595,48.939852],[1.9960855,48.9402313],[1.9949068,48.9402598]]]]},"properties":{"code_section":"78672000AO","code_commune":"78672","section_courte":"AO"}},{"type":"Feature","geometry":{"type":"MultiPolygon","coordinates":[[[[1.9861648,48.9433244],[1.9862366,48.943342],[1.9867425,48.9432554],[1.9863961,48.943535],[1.9853034,48.9447232],[1.9849029,48.9453586],[1.9840743,48.9464565],[1.9837306,48.9463704],[1.9830185,48.946091],[1.9798251,48.9446672],[1.9780732,48.9434615],[1.9782295,48.9424803],[1.978012,48.9406841],[1.9780606,48.9406851],[1.9784756,48.9398973],[1.9786966,48.9395587],[1.9793158,48.9393853],[1.9796949,48.939333],[1.9809412,48.9392621],[1.9824178,48.9390706],[1.9841468,48.9389228],[1.9845361,48.9400596],[1.9847167,48.9400004],[1.9847807,48.9407379],[1.984914,48.9407329],[1.984966,48.9410078],[1.9854423,48.9409402],[1.9855177,48.9411268],[1.9857107,48.9411165],[1.9861648,48.9433244]]]]},"properties":{"code_section":"78672000AP","code_commune":"78672","section_courte":"AP"}},{"type":"Feature","geometry":{"type":"MultiPolygon","coordinates":[[[[1.9858389,48.9441337],[1.9865151,48.9434138],[1.9875065,48.9427932],[1.9877518,48.9426792],[1.9893309,48.9421355],[1.9897326,48.9419027],[1.9905006,48.9413809],[1.9910659,48.9410703],[1.9914326,48.9411492],[1.9916388,48.9412305],[1.9918255,48.9414076],[1.9918928,48.9415556],[1.9919394,48.9421056],[1.9921125,48.9424451],[1.9921608,48.9426412],[1.9930611,48.9427459],[1.992527,48.9434013],[1.9923692,48.9438096],[1.9923415,48.9440244],[1.9924835,48.9446901],[1.9931125,48.9454166],[1.9931231,48.9456501],[1.9930414,48.9457802],[1.9925943,48.9460391],[1.9924079,48.9465526],[1.991897,48.9465192],[1.9913034,48.9466065],[1.9903976,48.9468054],[1.9896951,48.9468634],[1.9882555,48.9465879],[1.9876359,48.9464966],[1.9870956,48.9464534],[1.9868317,48.9464959],[1.9861358,48.9467167],[1.985778,48.9467917],[1.9855853,48.9467889],[1.9851333,48.9466665],[1.9847001,48.9464671],[1.9841874,48.946296],[1.9849029,48.9453586],[1.9853034,48.9447232],[1.9858389,48.9441337]]]]},"properties":{"code_section":"78672000AR","code_commune":"78672","section_courte":"AR"}},{"type":"Feature","geometry":{"type":"MultiPolygon","coordinates":[[[[1.9900726,48.9468378],[1.9901313,48.9468546],[1.9888256,48.9471009],[1.9889626,48.9473903],[1.9883115,48.9475109],[1.9886096,48.9483308],[1.9863041,48.9495085],[1.9857063,48.9490225],[1.9852653,48.9487407],[1.9852197,48.948726],[1.9842545,48.9489694],[1.982947,48.9483126],[1.9819955,48.9492548],[1.9815174,48.9494617],[1.9801831,48.94963],[1.9801615,48.948775],[1.980041,48.9483667],[1.9790572,48.9470798],[1.9782923,48.9459512],[1.9782939,48.9454253],[1.9781023,48.9436768],[1.9783881,48.9436878],[1.9798251,48.9446672],[1.9830185,48.946091],[1.9837306,48.9463704],[1.9840743,48.9464565],[1.9842157,48.9462986],[1.9847001,48.9464671],[1.9851333,48.9466665],[1.9855853,48.9467889],[1.985778,48.9467917],[1.9861358,48.9467167],[1.9868317,48.9464959],[1.9870956,48.9464534],[1.9876359,48.9464966],[1.9882555,48.9465879],[1.9896951,48.9468634],[1.9900726,48.9468378]]]]},"properties":{"code_section":"78672000AS","code_commune":"78672","section_courte":"AS"}}]}