{"type":"FeatureCollection","features":[{"type":"Feature","geometry":{"type":"MultiPolygon","coordinates":[[[[2.0137202,48.8285294],[2.0143645,48.8295634],[2.0166376,48.8314231],[2.01676,48.8319212],[2.0154181,48.8331432],[2.0155541,48.8335063],[2.0152564,48.833669],[2.0149353,48.8337413],[2.014531,48.8338775],[2.0142038,48.833461],[2.0139826,48.8333345],[2.0133542,48.8336429],[2.013087,48.8332389],[2.0129192,48.8333175],[2.0128307,48.8334044],[2.0127056,48.8332934],[2.0128156,48.833261],[2.0125632,48.8330204],[2.0121678,48.833291],[2.0120788,48.8332338],[2.0117997,48.8334111],[2.0117386,48.8333773],[2.0116726,48.8334299],[2.0113991,48.8332858],[2.0114657,48.83323],[2.0113806,48.8331829],[2.0112568,48.8332858],[2.0112256,48.8333578],[2.0111724,48.83335],[2.0111911,48.8332968],[2.0109879,48.8331742],[2.0102886,48.8336522],[2.0095184,48.8332529],[2.0087279,48.8324653],[2.0093906,48.8320985],[2.0087302,48.8316521],[2.0089931,48.8314102],[2.008441,48.8312286],[2.0085556,48.8310088],[2.0079106,48.8308577],[2.0077911,48.8310964],[2.00732,48.8310221],[2.0066262,48.8309944],[2.0065732,48.8310734],[2.0062536,48.8309223],[2.0064446,48.8308151],[2.0067187,48.8305788],[2.0066845,48.8305493],[2.0067971,48.8302127],[2.0066403,48.8300044],[2.0062318,48.8297148],[2.0061824,48.8287888],[2.0063907,48.8284824],[2.0066034,48.8283442],[2.0086629,48.8284441],[2.0090091,48.8284332],[2.0091549,48.8283496],[2.0095227,48.8279483],[2.0096227,48.8278938],[2.0097377,48.8278768],[2.0108427,48.827963],[2.0134276,48.8280864],[2.013468,48.8280966],[2.0137202,48.8285294]]],[[[2.0206122,48.815004],[2.0191023,48.815512],[2.0174299,48.816356],[2.0163793,48.8169261],[2.0123524,48.8177079],[2.0126566,48.8186032],[2.0123841,48.8186327],[2.0122659,48.8181773],[2.01195,48.8177186],[2.0113756,48.8174043],[2.0108911,48.8172423],[2.0103879,48.8170054],[2.0072519,48.8182414],[2.003461,48.8196045],[2.0032444,48.8196689],[2.0029614,48.8196317],[2.0028651,48.819669],[2.0027445,48.819623],[2.0028487,48.819585],[2.0026775,48.819492],[2.0065591,48.8179891],[2.009056,48.8171555],[2.0100174,48.8167906],[2.0081547,48.8157714],[2.0058272,48.8152441],[2.0054802,48.8150896],[2.005157,48.8150944],[2.0001474,48.8139596],[2.0000598,48.8137469],[2.0023095,48.8142419],[2.0074144,48.8129321],[2.0125278,48.815007],[2.0125733,48.8152106],[2.0189928,48.8127283],[2.0191716,48.8127006],[2.020098,48.8121167],[2.0208471,48.8115247],[2.0216718,48.8114337],[2.0220759,48.8119588],[2.0226889,48.8118532],[2.0228811,48.8115043],[2.0234777,48.8113516],[2.0236959,48.8111604],[2.0239674,48.8113635],[2.0243969,48.8117697],[2.0199033,48.8134825],[2.0202035,48.8137672],[2.0204193,48.8138906],[2.0209708,48.814883],[2.0206122,48.815004]]]]},"properties":{"code_section":"786740000B","code_commune":"78674","section_courte":"B"}},{"type":"Feature","geometry":{"type":"MultiPolygon","coordinates":[[[[2.0023714,48.8193916],[2.0000112,48.8184545],[2.0002993,48.8161971],[2.0004638,48.8161678],[2.0001474,48.8139596],[2.005157,48.8150944],[2.0054802,48.8150896],[2.0058272,48.8152441],[2.0080986,48.8157553],[2.0082521,48.8158121],[2.0100174,48.8167906],[2.009056,48.8171555],[2.0065591,48.8179891],[2.0026526,48.8195018],[2.0023714,48.8193916]]]]},"properties":{"code_section":"78674000AA","code_commune":"78674","section_courte":"AA"}},{"type":"Feature","geometry":{"type":"MultiPolygon","coordinates":[[[[1.9997496,48.8205613],[1.9994772,48.8202215],[1.9996647,48.8200739],[1.9995262,48.8199492],[1.9986588,48.8183561],[1.9999723,48.8180263],[1.9990051,48.8163915],[2.0002993,48.8161971],[2.0000112,48.8184545],[2.0026775,48.819492],[2.0028487,48.819585],[2.0027445,48.819623],[2.0028651,48.819669],[2.0029614,48.8196317],[2.0032444,48.8196689],[2.0002893,48.8208034],[2.0001524,48.8208613],[2.000132,48.8209212],[1.9999675,48.8208974],[1.9997496,48.8205613]]]]},"properties":{"code_section":"78674000AB","code_commune":"78674","section_courte":"AB"}},{"type":"Feature","geometry":{"type":"MultiPolygon","coordinates":[[[[2.0004119,48.8247812],[2.0001731,48.8248422],[2.0000766,48.8248132],[1.9996502,48.8242032],[1.999544,48.8241593],[1.9979182,48.8246073],[1.997347,48.8250128],[1.9969285,48.8243307],[1.9952909,48.8221389],[1.9945924,48.8212843],[1.996468,48.8207356],[1.9995262,48.8199492],[1.9996647,48.8200739],[1.9994772,48.8202215],[1.9996103,48.8203552],[1.9999675,48.8208974],[2.000132,48.8209212],[2.0004128,48.821441],[2.0009,48.8221386],[2.0023413,48.8240308],[2.0019595,48.8241666],[2.0019418,48.82462],[2.0018602,48.8246893],[2.0013378,48.8248404],[2.0012254,48.824834],[2.0007125,48.824691],[2.0004119,48.8247812]]]]},"properties":{"code_section":"78674000AC","code_commune":"78674","section_courte":"AC"}},{"type":"Feature","geometry":{"type":"MultiPolygon","coordinates":[[[[1.9984381,48.8268446],[1.998458,48.826766],[1.997347,48.8250128],[1.9977631,48.8246998],[1.9979849,48.8245833],[1.9995882,48.8241608],[2.0000988,48.8248269],[2.0002166,48.8248365],[2.0007125,48.824691],[2.0012254,48.824834],[2.0013378,48.8248404],[2.001908,48.8246634],[2.0019418,48.82462],[2.0019595,48.8241666],[2.0023413,48.8240308],[2.0044482,48.8266312],[2.0048899,48.8280461],[2.0049628,48.8281811],[2.0048401,48.8281772],[2.0046472,48.8280926],[2.0037367,48.8274868],[2.0035976,48.8275826],[2.0033097,48.8274393],[2.0025056,48.8271955],[2.0023401,48.8272063],[2.0013903,48.8274612],[2.0011458,48.8270859],[2.0009943,48.8270599],[1.9990919,48.8275852],[1.9988581,48.8272811],[1.9984381,48.8268446]]]]},"properties":{"code_section":"78674000AD","code_commune":"78674","section_courte":"AD"}},{"type":"Feature","geometry":{"type":"MultiPolygon","coordinates":[[[[1.994285,48.8290601],[1.994451,48.8290048],[1.9942798,48.8288927],[1.9935137,48.8286422],[1.9961205,48.8272837],[1.9984155,48.8268248],[1.9988581,48.8272811],[2.0000788,48.828923],[2.0005283,48.8293858],[2.001391,48.8301772],[1.9988631,48.8301429],[1.9975646,48.8301559],[1.9974661,48.830476],[1.9960727,48.8301175],[1.9959279,48.8301021],[1.995513,48.8301208],[1.9912028,48.8300637],[1.994285,48.8290601]]]]},"properties":{"code_section":"78674000AE","code_commune":"78674","section_courte":"AE"}},{"type":"Feature","geometry":{"type":"MultiPolygon","coordinates":[[[[2.0017129,48.8302279],[2.001391,48.8301771],[2.0005283,48.8293858],[2.0000788,48.828923],[1.9990919,48.8275852],[2.0009943,48.8270599],[2.0011458,48.8270859],[2.0013903,48.8274612],[2.0023401,48.8272063],[2.0025555,48.8272009],[2.0033387,48.8274497],[2.0035976,48.8275826],[2.0037367,48.8274868],[2.0046472,48.8280926],[2.0048401,48.8281772],[2.0049628,48.8281811],[2.005131,48.828417],[2.0062916,48.8286365],[2.0061824,48.8287888],[2.0062224,48.8296926],[2.0062886,48.8297718],[2.0066403,48.8300044],[2.0067971,48.8302127],[2.0066845,48.8305493],[2.0067187,48.8305788],[2.0064446,48.8308151],[2.0062536,48.8309223],[2.0053614,48.830668],[2.0039342,48.8304174],[2.0017129,48.8302279]]]]},"properties":{"code_section":"78674000AH","code_commune":"78674","section_courte":"AH"}},{"type":"Feature","geometry":{"type":"MultiPolygon","coordinates":[[[[2.0060813,48.8331586],[2.0054031,48.8335514],[2.0052527,48.8337146],[2.005046,48.8335296],[2.0024739,48.8343015],[2.0005163,48.8321948],[1.9999804,48.8316945],[1.9996044,48.8314011],[1.9987949,48.8309581],[1.9980617,48.8306583],[1.9974661,48.830476],[1.9975646,48.8301559],[1.9988631,48.8301429],[2.001391,48.8301771],[2.0016557,48.8302237],[2.0039342,48.8304174],[2.0053614,48.830668],[2.0062102,48.830905],[2.0072167,48.8314186],[2.0065046,48.8319862],[2.0069298,48.8321534],[2.0075008,48.832506],[2.0079993,48.8331119],[2.0071119,48.8331957],[2.0062976,48.8333974],[2.0061102,48.8332336],[2.0060813,48.8331586]]]]},"properties":{"code_section":"78674000AI","code_commune":"78674","section_courte":"AI"}},{"type":"Feature","geometry":{"type":"MultiPolygon","coordinates":[[[[2.0002344,48.8319186],[2.0003477,48.8320269],[1.9911652,48.8350585],[1.9884677,48.8308197],[1.9912028,48.8300637],[1.995513,48.8301208],[1.9959279,48.8301021],[1.9960727,48.8301175],[1.9976434,48.8305232],[1.9984108,48.8307896],[1.9990009,48.831062],[1.9996044,48.8314011],[2.0002344,48.8319186]]]]},"properties":{"code_section":"78674000AK","code_commune":"78674","section_courte":"AK"}},{"type":"Feature","geometry":{"type":"MultiPolygon","coordinates":[[[[2.0120009,48.8350455],[2.0115228,48.835539],[2.011387,48.8357828],[2.0107901,48.8356603],[2.0102283,48.8356006],[2.0098318,48.8356241],[2.0081455,48.8358697],[2.0077233,48.8358928],[2.0069109,48.8358795],[2.0043285,48.8360581],[2.0031276,48.8348721],[2.0024739,48.8343015],[2.005046,48.8335296],[2.0052527,48.8337146],[2.0054031,48.8335514],[2.0060813,48.8331586],[2.0061102,48.8332336],[2.0062976,48.8333974],[2.0071119,48.8331957],[2.0079993,48.8331119],[2.0075008,48.832506],[2.0069298,48.8321534],[2.0065046,48.8319862],[2.0072167,48.8314186],[2.0065732,48.8310734],[2.0066262,48.8309944],[2.00732,48.8310221],[2.0077911,48.8310964],[2.0079106,48.8308577],[2.0085556,48.8310088],[2.008441,48.8312286],[2.0089931,48.8314102],[2.0087302,48.8316521],[2.0093906,48.8320985],[2.0087279,48.8324653],[2.0095184,48.8332529],[2.0102886,48.8336522],[2.0109879,48.8331742],[2.0111911,48.8332968],[2.0111724,48.8333499],[2.0112256,48.8333578],[2.0112635,48.8332782],[2.0113806,48.8331829],[2.0114657,48.83323],[2.0113991,48.8332858],[2.0116726,48.8334299],[2.0117386,48.8333772],[2.0117997,48.8334111],[2.0120788,48.8332338],[2.0121676,48.833291],[2.0125632,48.8330203],[2.0128156,48.833261],[2.0127056,48.8332934],[2.0128307,48.8334044],[2.0129192,48.8333175],[2.013087,48.8332389],[2.013457,48.8338505],[2.0133843,48.8338691],[2.0132815,48.8339624],[2.0131383,48.8342587],[2.0130171,48.8343815],[2.0120009,48.8350455]]]]},"properties":{"code_section":"78674000AL","code_commune":"78674","section_courte":"AL"}},{"type":"Feature","geometry":{"type":"MultiPolygon","coordinates":[[[[2.0231503,48.8359253],[2.0223898,48.8358532],[2.0210715,48.8356356],[2.0200271,48.8353166],[2.0189844,48.8348487],[2.0182619,48.8345711],[2.017591,48.8344359],[2.017148,48.8344458],[2.0163038,48.8345415],[2.0160915,48.8344627],[2.0159694,48.8342927],[2.0157096,48.8343566],[2.014667,48.834791],[2.0140305,48.8350213],[2.0135108,48.8353962],[2.0131191,48.8351108],[2.0129959,48.835179],[2.0127952,48.8350148],[2.0126324,48.8350655],[2.0122807,48.8348436],[2.0128233,48.8345261],[2.0131085,48.8342972],[2.0132815,48.8339624],[2.0133843,48.8338691],[2.013457,48.8338505],[2.0133164,48.8336575],[2.0139826,48.8333345],[2.0142038,48.833461],[2.014531,48.8338775],[2.0149353,48.8337413],[2.0152564,48.833669],[2.0155541,48.8335063],[2.0154181,48.8331432],[2.01676,48.8319212],[2.0167517,48.8318649],[2.0208373,48.8308053],[2.0194442,48.8328168],[2.0195094,48.8328212],[2.0200105,48.833069],[2.0202981,48.8332451],[2.0208045,48.8334406],[2.0212866,48.8336025],[2.0226096,48.8339528],[2.022595,48.8349944],[2.0234752,48.8349098],[2.0236007,48.8359175],[2.0231503,48.8359253]]]]},"properties":{"code_section":"78674000AM","code_commune":"78674","section_courte":"AM"}},{"type":"Feature","geometry":{"type":"MultiPolygon","coordinates":[[[[2.0146714,48.8399726],[2.0135516,48.8405532],[2.0140124,48.8411227],[2.0157233,48.8437379],[2.0153954,48.8437293],[2.0149058,48.8433727],[2.0144196,48.8430947],[2.0111933,48.841684],[2.010454,48.8413215],[2.0100186,48.8410835],[2.0089759,48.8404112],[2.0076114,48.8393987],[2.0043285,48.8360581],[2.0069109,48.8358795],[2.0077233,48.8358928],[2.0081455,48.8358697],[2.0098318,48.8356241],[2.0102283,48.8356006],[2.0107901,48.8356603],[2.011387,48.8357828],[2.0115228,48.835539],[2.0119003,48.8351354],[2.0122807,48.8348436],[2.0126324,48.8350655],[2.0127952,48.8350148],[2.0129959,48.835179],[2.0131191,48.8351108],[2.0135108,48.8353962],[2.0140305,48.8350213],[2.014667,48.834791],[2.0157096,48.8343566],[2.0159694,48.8342927],[2.0160915,48.8344627],[2.0163038,48.8345415],[2.0174214,48.8344313],[2.0177686,48.8344608],[2.0181911,48.8345527],[2.0151337,48.838899],[2.0151993,48.8396908],[2.0146714,48.8399726]]]]},"properties":{"code_section":"78674000AN","code_commune":"78674","section_courte":"AN"}},{"type":"Feature","geometry":{"type":"MultiPolygon","coordinates":[[[[2.0165903,48.8500542],[2.010779,48.8477753],[2.0084131,48.8483412],[2.0055695,48.8493025],[2.0043069,48.8487866],[2.0039312,48.8485486],[2.0036028,48.848142],[2.0029901,48.8475131],[2.0029422,48.8473873],[2.0029747,48.8472485],[2.0031329,48.8469857],[2.0031529,48.8467616],[2.0031444,48.8464947],[2.0029884,48.8459241],[2.0026238,48.8451807],[2.0021153,48.8445411],[2.002164,48.844524],[2.0016602,48.8439716],[2.0014935,48.8439441],[2.0043063,48.8432691],[2.0046092,48.8431593],[2.0049345,48.8430003],[2.0060195,48.8423044],[2.0068207,48.8419571],[2.007313,48.8416646],[2.0089759,48.8404112],[2.0100186,48.8410835],[2.010454,48.8413215],[2.0111933,48.841684],[2.0144196,48.8430947],[2.0149058,48.8433727],[2.0153954,48.8437293],[2.0157233,48.8437379],[2.0140124,48.8411227],[2.0135516,48.8405532],[2.0151993,48.8396908],[2.0151337,48.838899],[2.0181911,48.8345527],[2.0189844,48.8348487],[2.0195047,48.8350985],[2.0194675,48.835262],[2.0195,48.8354982],[2.0202403,48.836522],[2.0211621,48.8372567],[2.0219808,48.8380559],[2.0233015,48.8390775],[2.0237459,48.8393189],[2.0216702,48.8414036],[2.0227513,48.8417694],[2.0208602,48.844589],[2.0208237,48.8446194],[2.0206182,48.8445515],[2.018914,48.84669],[2.0179784,48.8462583],[2.0168537,48.845787],[2.0166946,48.8461381],[2.0167892,48.8461483],[2.0169349,48.846569],[2.0169431,48.846785],[2.0167472,48.8473843],[2.0166295,48.84735],[2.0167567,48.8486453],[2.016652,48.8486119],[2.0166516,48.8486603],[2.0168345,48.8487171],[2.0169357,48.8501899],[2.0165903,48.8500542]]]]},"properties":{"code_section":"78674000ZA","code_commune":"78674","section_courte":"ZA"}},{"type":"Feature","geometry":{"type":"MultiPolygon","coordinates":[[[[2.0358116,48.8457749],[2.0360995,48.8463088],[2.0356945,48.8458862],[2.0352607,48.8455288],[2.0347014,48.8451509],[2.0341099,48.8448395],[2.0307826,48.8434693],[2.0293159,48.8429915],[2.0283951,48.8427399],[2.0270652,48.8424628],[2.0254652,48.8421718],[2.02362,48.8418864],[2.0227787,48.8417123],[2.0227577,48.841756],[2.0216702,48.8414036],[2.0237459,48.8393189],[2.0233015,48.8390775],[2.0219808,48.8380559],[2.0211621,48.8372567],[2.0202403,48.836522],[2.0195,48.8354982],[2.0194675,48.835262],[2.0195047,48.8350985],[2.0200271,48.8353166],[2.0210715,48.8356356],[2.0227859,48.8359019],[2.0236007,48.8359175],[2.0251235,48.8358296],[2.0265872,48.8358662],[2.0281976,48.8361237],[2.0293004,48.8362603],[2.0303304,48.836498],[2.0308697,48.8366688],[2.0311846,48.836735],[2.0340385,48.8368831],[2.0368841,48.8369904],[2.0367681,48.8396172],[2.0361978,48.8396083],[2.0387473,48.8414211],[2.0417076,48.8430292],[2.0415976,48.8433898],[2.0411147,48.8440969],[2.0404931,48.8440901],[2.0393817,48.8438913],[2.0384829,48.8436517],[2.0380579,48.8434329],[2.0372204,48.8441288],[2.0351831,48.8446218],[2.0358116,48.8457749]]]]},"properties":{"code_section":"78674000ZB","code_commune":"78674","section_courte":"ZB"}},{"type":"Feature","geometry":{"type":"MultiPolygon","coordinates":[[[[2.031035,48.8211523],[2.031098,48.8211906],[2.0317024,48.8220968],[2.0322486,48.8227901],[2.0325147,48.8230096],[2.032818,48.8230966],[2.032869,48.8231419],[2.0339774,48.8249997],[2.0350455,48.8259935],[2.0348963,48.8261739],[2.0309924,48.8282161],[2.0309032,48.8283339],[2.0309535,48.8284746],[2.0309137,48.828595],[2.0308341,48.8287052],[2.0305844,48.8289173],[2.0303532,48.8292633],[2.0304141,48.8296362],[2.0303524,48.8299735],[2.0304337,48.8307292],[2.0306705,48.8308835],[2.0310105,48.8313341],[2.0323443,48.8343095],[2.0327332,48.8353511],[2.0318889,48.8353234],[2.0319328,48.8359007],[2.0318411,48.8367595],[2.0311846,48.836735],[2.0308697,48.8366688],[2.0303304,48.836498],[2.0293004,48.8362603],[2.0281976,48.8361237],[2.0265872,48.8358662],[2.0251235,48.8358296],[2.0236007,48.8359175],[2.0234752,48.8349098],[2.022595,48.8349944],[2.0226096,48.8339528],[2.0212866,48.8336025],[2.0208045,48.8334406],[2.0202981,48.8332451],[2.0200105,48.833069],[2.0195094,48.8328212],[2.0194442,48.8328168],[2.0211563,48.8303571],[2.024338,48.8262853],[2.0247475,48.8258129],[2.0250651,48.8251415],[2.0255758,48.8238714],[2.0257507,48.8230661],[2.0257673,48.822743],[2.0257243,48.8223033],[2.0254973,48.8211877],[2.031035,48.8211523]]]]},"properties":{"code_section":"78674000ZC","code_commune":"78674","section_courte":"ZC"}},{"type":"Feature","geometry":{"type":"MultiPolygon","coordinates":[[[[2.013857,48.8212782],[2.0140688,48.8213161],[2.0140557,48.8213515],[2.0147631,48.8214483],[2.0155122,48.821393],[2.0160372,48.8212752],[2.0173212,48.8207604],[2.0211179,48.8191008],[2.0212495,48.8190732],[2.0220541,48.8187203],[2.0253249,48.8211859],[2.0254973,48.8211877],[2.0257243,48.8223033],[2.0257673,48.822743],[2.0257507,48.8230661],[2.0255758,48.8238714],[2.0250651,48.8251415],[2.0247475,48.8258129],[2.024338,48.8262853],[2.0208373,48.8308053],[2.0167517,48.8318649],[2.0166376,48.8314231],[2.0143645,48.8295634],[2.013468,48.8280966],[2.0134276,48.8280864],[2.0130557,48.8271066],[2.0128252,48.8258829],[2.012878,48.8241978],[2.0128194,48.8226719],[2.0126077,48.8210862],[2.0132726,48.8211681],[2.013857,48.8212782]]]]},"properties":{"code_section":"78674000ZF","code_commune":"78674","section_courte":"ZF"}},{"type":"Feature","geometry":{"type":"MultiPolygon","coordinates":[[[[2.031098,48.8211906],[2.031035,48.8211523],[2.0253249,48.8211859],[2.0220541,48.8187203],[2.0212495,48.8190732],[2.0211179,48.8191008],[2.0173212,48.8207604],[2.0161274,48.8212458],[2.0156716,48.8213677],[2.01504,48.8214397],[2.0146147,48.8214431],[2.0140557,48.8213515],[2.0140781,48.8212913],[2.0143712,48.8213428],[2.0144283,48.8213245],[2.0131525,48.8175524],[2.0163793,48.8169261],[2.0174299,48.816356],[2.0191023,48.815512],[2.0209708,48.814883],[2.0204193,48.8138906],[2.0202035,48.8137672],[2.0199033,48.8134825],[2.024485,48.8117365],[2.0251882,48.8121123],[2.0264812,48.8131676],[2.0268311,48.8140525],[2.0269055,48.8145706],[2.0271266,48.8153332],[2.0276018,48.8163335],[2.0278287,48.8165783],[2.0281465,48.8167969],[2.0284644,48.817085],[2.0291892,48.8181339],[2.0293123,48.8184383],[2.0311454,48.8211902],[2.031098,48.8211906]]]]},"properties":{"code_section":"78674000ZG","code_commune":"78674","section_courte":"ZG"}},{"type":"Feature","geometry":{"type":"MultiPolygon","coordinates":[[[[2.0093505,48.8174042],[2.0103879,48.8170054],[2.0108911,48.8172423],[2.0113756,48.8174043],[2.01195,48.8177186],[2.0122659,48.8181773],[2.0123841,48.8186327],[2.0126566,48.8186032],[2.0123524,48.8177079],[2.0130831,48.8175838],[2.013144,48.81754],[2.0144283,48.8213245],[2.0143712,48.8213428],[2.0140781,48.8212913],[2.0140688,48.8213161],[2.0132726,48.8211681],[2.0058896,48.8200797],[2.0033133,48.819729],[2.0032444,48.8196689],[2.0072519,48.8182414],[2.0093505,48.8174042]]]]},"properties":{"code_section":"78674000ZH","code_commune":"78674","section_courte":"ZH"}},{"type":"Feature","geometry":{"type":"MultiPolygon","coordinates":[[[[2.0026412,48.8243975],[2.0009,48.8221386],[2.0004128,48.821441],[2.000132,48.8209212],[2.0001524,48.8208613],[2.0002893,48.8208034],[2.0032444,48.8196689],[2.0033133,48.819729],[2.0058896,48.8200797],[2.0126077,48.8210862],[2.0128194,48.8226719],[2.012878,48.8241978],[2.0128252,48.8258829],[2.0130557,48.8271066],[2.0134416,48.828073],[2.0108427,48.827963],[2.0097377,48.8278768],[2.0096227,48.8278938],[2.0095227,48.8279483],[2.0091549,48.8283496],[2.0090091,48.8284332],[2.0086629,48.8284441],[2.0066034,48.8283442],[2.0063907,48.8284824],[2.0062916,48.8286365],[2.005131,48.828417],[2.0048899,48.8280461],[2.0044482,48.8266312],[2.0026412,48.8243975]]]]},"properties":{"code_section":"78674000ZJ","code_commune":"78674","section_courte":"ZJ"}},{"type":"Feature","geometry":{"type":"MultiPolygon","coordinates":[[[[1.9840977,48.8372045],[1.9837157,48.8347957],[1.9836183,48.8328562],[1.9876527,48.8310767],[1.9884677,48.8308197],[1.9911652,48.8350585],[2.0003477,48.8320269],[2.0024739,48.8343015],[1.9973427,48.8358052],[1.995879,48.836266],[1.9931379,48.8370473],[1.9922787,48.8372519],[1.9912153,48.8374345],[1.9880732,48.8378983],[1.9870838,48.8380182],[1.9843491,48.8384561],[1.9840977,48.8372045]]]]},"properties":{"code_section":"78674000ZK","code_commune":"78674","section_courte":"ZK"}},{"type":"Feature","geometry":{"type":"MultiPolygon","coordinates":[[[[1.9858858,48.838212],[1.9870838,48.8380182],[1.9880732,48.8378983],[1.9912153,48.8374345],[1.9922787,48.8372519],[1.9931379,48.8370473],[1.9952449,48.83645],[1.9973427,48.8358052],[2.0024739,48.8343015],[2.0031276,48.8348721],[2.0044716,48.8361995],[2.0076114,48.8393987],[2.0089759,48.8404112],[2.007313,48.8416646],[2.0068207,48.8419571],[2.0060195,48.8423044],[2.0049345,48.8430003],[2.0046092,48.8431593],[2.0043063,48.8432691],[2.0014935,48.8439441],[2.0011573,48.843685],[2.0009845,48.8436087],[2.0006559,48.8435333],[1.9978933,48.8431044],[1.9953783,48.8426262],[1.9946163,48.8424538],[1.9898631,48.8408968],[1.9878597,48.8401362],[1.9847098,48.8391338],[1.9843491,48.8384561],[1.9858858,48.838212]]]]},"properties":{"code_section":"78674000ZL","code_commune":"78674","section_courte":"ZL"}}]}