{"type":"FeatureCollection","features":[{"type":"Feature","geometry":{"type":"MultiPolygon","coordinates":[[[[2.041072,48.7561904],[2.0411645,48.7566427],[2.0406171,48.7567228],[2.0405279,48.7565621],[2.0406206,48.7565312],[2.0403049,48.7562788],[2.0398995,48.756146],[2.0394433,48.7561265],[2.0391069,48.7561968],[2.0388206,48.7563287],[2.0385999,48.7565253],[2.0384792,48.7567896],[2.0367917,48.7567459],[2.0368286,48.7570022],[2.0349756,48.7571161],[2.0345148,48.7564604],[2.0339515,48.7564135],[2.0336104,48.7564679],[2.033369,48.7564392],[2.0329038,48.7564687],[2.0314162,48.7566843],[2.0301729,48.756772],[2.0293065,48.7566787],[2.0286679,48.7566835],[2.0283211,48.7565113],[2.025941,48.7576659],[2.0255918,48.7559774],[2.0256778,48.7559485],[2.0258363,48.7558086],[2.0275385,48.7557956],[2.0288738,48.7559881],[2.0304996,48.7560735],[2.0318168,48.7556088],[2.0331738,48.7547803],[2.0346174,48.7546448],[2.0367885,48.7541895],[2.036832,48.7541773],[2.0367095,48.7540751],[2.0374019,48.753936],[2.0375491,48.7538305],[2.0379426,48.7540396],[2.0383471,48.7542208],[2.0384725,48.7542454],[2.0386424,48.7542458],[2.0395358,48.754055],[2.0401766,48.7540079],[2.0403455,48.7540367],[2.0403458,48.7541108],[2.0407045,48.7543319],[2.0409249,48.754229],[2.0410603,48.7542929],[2.04083,48.75441],[2.0413829,48.7547547],[2.0414281,48.7548436],[2.0410391,48.7551297],[2.0405466,48.7555577],[2.0404454,48.7556914],[2.0411089,48.755652],[2.0410642,48.7558925],[2.041072,48.7561904]]]]},"properties":{"code_section":"786880000A","code_commune":"78688","section_courte":"A"}},{"type":"Feature","geometry":{"type":"MultiPolygon","coordinates":[[[[2.0447996,48.7559116],[2.0455913,48.7580111],[2.0450607,48.7580833],[2.0446809,48.7581671],[2.0436298,48.7585456],[2.0431515,48.7587821],[2.0430414,48.7588072],[2.0411645,48.7566427],[2.0410625,48.7561194],[2.0411089,48.755652],[2.0404454,48.7556914],[2.0405466,48.7555577],[2.0410391,48.7551297],[2.0414281,48.7548436],[2.0413829,48.7547547],[2.04083,48.75441],[2.0410603,48.7542929],[2.0409249,48.754229],[2.0407045,48.7543319],[2.0403458,48.7541108],[2.0403455,48.7540367],[2.040819,48.7541265],[2.0411439,48.7542388],[2.041228,48.7541725],[2.0445715,48.7527032],[2.0507945,48.752191],[2.0510993,48.7531409],[2.0525587,48.7529894],[2.0531671,48.7557182],[2.051523,48.7558339],[2.0513881,48.7549296],[2.0468075,48.7552555],[2.046631,48.7557632],[2.0467693,48.7562362],[2.0467393,48.7563234],[2.0454752,48.7561015],[2.0448422,48.7558321],[2.0447996,48.7559116]]]]},"properties":{"code_section":"78688000AB","code_commune":"78688","section_courte":"AB"}},{"type":"Feature","geometry":{"type":"MultiPolygon","coordinates":[[[[2.0509443,48.752144],[2.0539924,48.7525064],[2.0548479,48.7523979],[2.0557548,48.7552497],[2.0532637,48.7562161],[2.0525587,48.7529894],[2.0510993,48.7531409],[2.0507848,48.752152],[2.0509443,48.752144]]]]},"properties":{"code_section":"78688000AC","code_commune":"78688","section_courte":"AC"}},{"type":"Feature","geometry":{"type":"MultiPolygon","coordinates":[[[[2.0507848,48.752152],[2.0507945,48.752191],[2.0507446,48.7521993],[2.0445715,48.7527032],[2.041228,48.7541725],[2.0411439,48.7542388],[2.0405233,48.7535658],[2.0413935,48.7532748],[2.0412942,48.75177],[2.041639,48.7515036],[2.0418382,48.7510329],[2.0419394,48.7505099],[2.0445875,48.7502172],[2.0449959,48.7515448],[2.0478062,48.75117],[2.0488913,48.7511068],[2.0490432,48.7511536],[2.0496496,48.752167],[2.0507651,48.7520697],[2.0507848,48.752152]]]]},"properties":{"code_section":"78688000AD","code_commune":"78688","section_courte":"AD"}},{"type":"Feature","geometry":{"type":"MultiPolygon","coordinates":[[[[2.05553,48.7523562],[2.057826,48.7521509],[2.0576068,48.7517878],[2.0577731,48.7517096],[2.0583915,48.7515561],[2.0593512,48.751433],[2.0603139,48.7510184],[2.0605939,48.7509426],[2.0617665,48.7524365],[2.0619945,48.7528327],[2.0613007,48.7530796],[2.0599971,48.7537295],[2.059022,48.7541444],[2.0557548,48.7552497],[2.0548649,48.7524525],[2.05553,48.7523562]]]]},"properties":{"code_section":"78688000AE","code_commune":"78688","section_courte":"AE"}},{"type":"Feature","geometry":{"type":"MultiPolygon","coordinates":[[[[2.0382542,48.7622489],[2.0386845,48.7620881],[2.0394114,48.7619085],[2.0403797,48.761807],[2.0410341,48.7618234],[2.0484763,48.7626965],[2.0494858,48.7627827],[2.0494577,48.7630668],[2.0490218,48.7632447],[2.0489997,48.7632936],[2.0489034,48.763294],[2.0488587,48.7633504],[2.0487886,48.7633419],[2.0487199,48.7633714],[2.0486866,48.7634243],[2.0485965,48.7634199],[2.0485639,48.763473],[2.0484103,48.7634946],[2.0483787,48.7635518],[2.048296,48.7635493],[2.0482348,48.7636086],[2.0481744,48.7635985],[2.0480901,48.7636706],[2.0479948,48.7636728],[2.047958,48.7637235],[2.0478818,48.7637186],[2.0477826,48.7637979],[2.0476953,48.7637969],[2.0476605,48.7638497],[2.0475762,48.7638458],[2.0474912,48.7639192],[2.0473925,48.7639219],[2.0473585,48.763974],[2.0472049,48.7639991],[2.0471725,48.7640522],[2.0470172,48.7640747],[2.046996,48.7641233],[2.0468389,48.7641519],[2.0468018,48.7642082],[2.0466808,48.7642185],[2.0466613,48.764198],[2.042198,48.7660578],[2.0423704,48.7662395],[2.0420607,48.7663535],[2.042038,48.7663293],[2.0419627,48.7663496],[2.0408801,48.765212],[2.0404487,48.7654446],[2.039824,48.7647821],[2.0403515,48.7645599],[2.0397833,48.7639535],[2.0391652,48.764083],[2.039017,48.7639406],[2.0379601,48.7621846],[2.0382542,48.7622489]]]]},"properties":{"code_section":"78688000AG","code_commune":"78688","section_courte":"AG"}},{"type":"Feature","geometry":{"type":"MultiPolygon","coordinates":[[[[2.0534322,48.7677169],[2.0506267,48.76888],[2.0505158,48.7689636],[2.0504557,48.7691263],[2.050379,48.7691959],[2.0498534,48.7694167],[2.0496492,48.7694393],[2.0494957,48.7694085],[2.0457773,48.7655017],[2.0428512,48.7667248],[2.0427399,48.7665638],[2.0426758,48.7665615],[2.042198,48.7660578],[2.0466613,48.764198],[2.0466808,48.7642185],[2.0468018,48.7642082],[2.0468389,48.7641519],[2.046996,48.7641233],[2.0470172,48.7640747],[2.0471725,48.7640522],[2.0472049,48.7639991],[2.0473585,48.763974],[2.0473925,48.7639219],[2.0474912,48.7639192],[2.0475762,48.7638458],[2.0476605,48.7638497],[2.0476953,48.7637969],[2.0477826,48.7637979],[2.0478818,48.7637186],[2.047958,48.7637235],[2.0479948,48.7636728],[2.0480901,48.7636706],[2.0481744,48.7635985],[2.0482348,48.7636086],[2.048296,48.7635493],[2.0483787,48.7635518],[2.0484103,48.7634946],[2.0485639,48.763473],[2.0485965,48.7634199],[2.0486866,48.7634243],[2.0487199,48.7633714],[2.0487886,48.7633419],[2.0488587,48.7633504],[2.0489034,48.763294],[2.0489997,48.7632936],[2.0490218,48.7632447],[2.0494577,48.7630668],[2.0498616,48.7631098],[2.050721,48.7630566],[2.0512937,48.7638954],[2.0524529,48.7651238],[2.0527984,48.7655404],[2.0533126,48.7663104],[2.0535529,48.7667982],[2.0538306,48.7675507],[2.0534322,48.7677169]]]]},"properties":{"code_section":"78688000AH","code_commune":"78688","section_courte":"AH"}},{"type":"Feature","geometry":{"type":"MultiPolygon","coordinates":[[[[2.0532864,48.7623714],[2.0526317,48.762649],[2.051912,48.7628676],[2.0515462,48.7629476],[2.0511659,48.7630155],[2.0501772,48.7631052],[2.0498616,48.7631098],[2.0494577,48.7630668],[2.0494858,48.7627827],[2.0491409,48.762771],[2.04473,48.7622532],[2.0445697,48.7620952],[2.0448453,48.7610644],[2.0448715,48.7607006],[2.0447974,48.7604087],[2.0445773,48.7600527],[2.0433832,48.7586712],[2.0436298,48.7585456],[2.0446809,48.7581671],[2.0450607,48.7580833],[2.0455913,48.7580111],[2.0455757,48.7579695],[2.0458554,48.7579544],[2.0468147,48.7580234],[2.0473908,48.7581958],[2.0477092,48.7582106],[2.0491858,48.7581851],[2.0494293,48.7581117],[2.0500012,48.7580111],[2.0514348,48.7583769],[2.0541878,48.7585612],[2.0544142,48.7585873],[2.05525,48.7587897],[2.0568883,48.7598554],[2.0567701,48.7599203],[2.0566128,48.7598177],[2.0564472,48.7600564],[2.0563828,48.7600563],[2.0555117,48.7608077],[2.0540067,48.7619168],[2.0532732,48.7623385],[2.0532864,48.7623714]]]]},"properties":{"code_section":"78688000AI","code_commune":"78688","section_courte":"AI"}},{"type":"Feature","geometry":{"type":"MultiPolygon","coordinates":[[[[2.0400508,48.7561805],[2.0403612,48.7563097],[2.0405558,48.7564578],[2.0406206,48.7565312],[2.0405279,48.7565621],[2.0406171,48.7567228],[2.0411645,48.7566427],[2.0430414,48.7588072],[2.0431515,48.7587821],[2.0433776,48.7586646],[2.0445773,48.7600527],[2.0447901,48.7603923],[2.0448715,48.7607006],[2.0448453,48.7610644],[2.0445697,48.7620952],[2.04473,48.7622532],[2.0413079,48.7618486],[2.0403797,48.761807],[2.0393578,48.7619178],[2.0386845,48.7620881],[2.0382542,48.7622489],[2.0379601,48.7621846],[2.0376472,48.7616538],[2.0349832,48.7618138],[2.0349021,48.7611732],[2.0359245,48.7609936],[2.0353646,48.7610271],[2.0352313,48.7610003],[2.0350458,48.7609016],[2.0349732,48.7608083],[2.0346757,48.75868],[2.0348303,48.7585524],[2.0335945,48.7586278],[2.0333938,48.7572134],[2.0368286,48.7570022],[2.0367917,48.7567459],[2.0384792,48.7567896],[2.038538,48.7566198],[2.038671,48.7564448],[2.0390298,48.7562243],[2.0393168,48.7561449],[2.0395914,48.7561194],[2.0400508,48.7561805]]]]},"properties":{"code_section":"78688000AJ","code_commune":"78688","section_courte":"AJ"}},{"type":"Feature","geometry":{"type":"MultiPolygon","coordinates":[[[[2.0283897,48.7601087],[2.0283868,48.7601318],[2.027193,48.7602032],[2.0271039,48.7594022],[2.0269175,48.7590855],[2.0268099,48.7581091],[2.0267809,48.7581109],[2.026712,48.7576259],[2.0268827,48.757485],[2.028585,48.757407],[2.0285795,48.7573861],[2.0293521,48.7573409],[2.0295579,48.7574474],[2.0333938,48.7572134],[2.0335945,48.7586278],[2.0348303,48.7585524],[2.0346757,48.75868],[2.0349732,48.7608083],[2.0350458,48.7609016],[2.0352313,48.7610003],[2.0353646,48.7610271],[2.0359245,48.7609936],[2.0349021,48.7611732],[2.0348959,48.7611335],[2.0327553,48.7612686],[2.0326552,48.7605599],[2.0293695,48.7607569],[2.0290241,48.7604367],[2.0285328,48.7598939],[2.0283897,48.7601087]]]]},"properties":{"code_section":"78688000AK","code_commune":"78688","section_courte":"AK"}},{"type":"Feature","geometry":{"type":"MultiPolygon","coordinates":[[[[2.0661893,48.7563792],[2.0666991,48.7571505],[2.0662138,48.7572746],[2.0648834,48.7574676],[2.063778,48.7575144],[2.0633339,48.7575588],[2.0633255,48.7575345],[2.0618507,48.7577272],[2.0600524,48.7581431],[2.0592983,48.7582616],[2.0557468,48.7586323],[2.0555778,48.7578114],[2.0548686,48.7580041],[2.0535504,48.7581712],[2.0529683,48.7563282],[2.0557548,48.7552497],[2.059022,48.7541444],[2.0599971,48.7537295],[2.0613007,48.7530796],[2.0615911,48.7529657],[2.0624152,48.7526907],[2.0636316,48.7523638],[2.0646166,48.7538703],[2.0645519,48.7539005],[2.0661893,48.7563792]]]]},"properties":{"code_section":"78688000AL","code_commune":"78688","section_courte":"AL"}},{"type":"Feature","geometry":{"type":"MultiPolygon","coordinates":[[[[2.0532202,48.7661558],[2.0525286,48.7652099],[2.0512937,48.7638954],[2.050721,48.7630566],[2.0511659,48.7630155],[2.051912,48.7628676],[2.0526317,48.762649],[2.0532864,48.7623714],[2.0532732,48.7623385],[2.0540067,48.7619168],[2.0555117,48.7608077],[2.0563828,48.7600563],[2.0564472,48.7600564],[2.0566128,48.7598177],[2.0587351,48.7611762],[2.0588348,48.761108],[2.059164,48.7613162],[2.0609555,48.7624811],[2.0628673,48.7637892],[2.0538306,48.7675507],[2.0535529,48.7667982],[2.0532202,48.7661558]]]]},"properties":{"code_section":"78688000AM","code_commune":"78688","section_courte":"AM"}},{"type":"Feature","geometry":{"type":"MultiPolygon","coordinates":[[[[2.0661052,48.7562509],[2.0645519,48.7539005],[2.0659189,48.7534319],[2.0684346,48.7567063],[2.0666991,48.7571505],[2.0661052,48.7562509]]]]},"properties":{"code_section":"78688000AO","code_commune":"78688","section_courte":"AO"}},{"type":"Feature","geometry":{"type":"MultiPolygon","coordinates":[[[[2.0532637,48.7562161],[2.0529683,48.7563282],[2.0535504,48.7581712],[2.0548686,48.7580041],[2.0555778,48.7578114],[2.0557468,48.7586323],[2.0552063,48.7586787],[2.05525,48.7587897],[2.0544142,48.7585873],[2.0541878,48.7585612],[2.0514348,48.7583769],[2.0500012,48.7580111],[2.0494293,48.7581117],[2.0491858,48.7581851],[2.0477092,48.7582106],[2.0473908,48.7581958],[2.0468147,48.7580234],[2.0466374,48.7579999],[2.0461415,48.7579604],[2.0455757,48.7579695],[2.0447996,48.7559116],[2.0448422,48.7558321],[2.0454752,48.7561015],[2.0467393,48.7563234],[2.0467693,48.7562362],[2.046631,48.7557632],[2.0468075,48.7552555],[2.0513881,48.7549296],[2.051523,48.7558339],[2.0531671,48.7557182],[2.0532637,48.7562161]]]]},"properties":{"code_section":"78688000AP","code_commune":"78688","section_courte":"AP"}},{"type":"Feature","geometry":{"type":"MultiPolygon","coordinates":[[[[2.0552063,48.7586787],[2.0592983,48.7582616],[2.0600524,48.7581431],[2.0618507,48.7577272],[2.0633255,48.7575345],[2.0642154,48.7601341],[2.0635245,48.7603117],[2.0632386,48.7611514],[2.0618079,48.761529],[2.0609555,48.7624811],[2.0588348,48.761108],[2.0587351,48.7611762],[2.0568139,48.7599493],[2.0567701,48.7599203],[2.0568883,48.7598554],[2.05525,48.7587897],[2.0552063,48.7586787]]]]},"properties":{"code_section":"78688000AR","code_commune":"78688","section_courte":"AR"}},{"type":"Feature","geometry":{"type":"MultiPolygon","coordinates":[[[[2.0349756,48.7571161],[2.0295579,48.7574474],[2.0293521,48.7573409],[2.0285795,48.7573861],[2.028585,48.757407],[2.0268827,48.757485],[2.026712,48.7576259],[2.0268905,48.7586823],[2.0268592,48.7586841],[2.0269175,48.7590855],[2.0268755,48.7591072],[2.025941,48.7576659],[2.0283211,48.7565113],[2.0286679,48.7566835],[2.0293065,48.7566787],[2.0301729,48.756772],[2.0314162,48.7566843],[2.0329038,48.7564687],[2.033369,48.7564392],[2.0336104,48.7564679],[2.0339515,48.7564135],[2.0345148,48.7564604],[2.0349756,48.7571161]]]]},"properties":{"code_section":"78688000ZA","code_commune":"78688","section_courte":"ZA"}}]}