{"type":"FeatureCollection","features":[{"type":"Feature","geometry":{"type":"MultiPolygon","coordinates":[[[[2.1665874,48.8123041],[2.1645458,48.8123545],[2.1637744,48.8124094],[2.1628912,48.8124128],[2.1623226,48.8124947],[2.1614267,48.8127391],[2.1614203,48.8125599],[2.1612936,48.8125429],[2.160598,48.8116465],[2.1594554,48.8108763],[2.1586589,48.8104285],[2.1584816,48.8102694],[2.1587059,48.810011],[2.158876,48.8098829],[2.1590557,48.8098083],[2.1593424,48.8097469],[2.1596029,48.8097473],[2.1600879,48.8098396],[2.1601381,48.8096773],[2.1600045,48.8096284],[2.1599433,48.809521],[2.1598805,48.8093647],[2.1598726,48.8091714],[2.1600781,48.8089373],[2.1607012,48.808011],[2.1608639,48.8073936],[2.1611392,48.8071393],[2.1616449,48.8068743],[2.1618662,48.8065064],[2.1618307,48.806409],[2.1621962,48.8063663],[2.1653313,48.8073089],[2.1643518,48.809042],[2.1642361,48.8093416],[2.1654251,48.809622],[2.1651674,48.8100758],[2.166418,48.8103607],[2.1668544,48.8104381],[2.1670422,48.810067],[2.167116,48.8100564],[2.1672845,48.8101119],[2.1677443,48.810115],[2.1680008,48.8102234],[2.1691802,48.8100696],[2.1690297,48.8095303],[2.1696861,48.8095275],[2.1696811,48.8096308],[2.1698421,48.8096466],[2.1698276,48.8097881],[2.1702848,48.8098778],[2.170718,48.8102681],[2.1711784,48.8102707],[2.1712938,48.809235],[2.1718271,48.8092821],[2.171846,48.808556],[2.1718728,48.8085188],[2.1722867,48.8084688],[2.1726588,48.8084622],[2.1731244,48.8085028],[2.1747691,48.8087312],[2.1768709,48.8091061],[2.178004,48.8093709],[2.1781663,48.8094536],[2.1774126,48.8099167],[2.1773294,48.8099937],[2.1773055,48.8100809],[2.1773626,48.8102341],[2.1763578,48.8109564],[2.1763508,48.8110592],[2.1765819,48.8115121],[2.1765884,48.8116216],[2.1765407,48.8116886],[2.1764459,48.8117287],[2.1760309,48.8118149],[2.1759157,48.811893],[2.1758612,48.8119935],[2.1758487,48.8126072],[2.1758856,48.8127212],[2.1763035,48.8131957],[2.1767862,48.8139814],[2.1748286,48.8151203],[2.1736331,48.8152188],[2.1693049,48.8159382],[2.1674329,48.8128613],[2.1667641,48.8125316],[2.1665874,48.8123041]]]]},"properties":{"code_section":"786860000A","code_commune":"78686","section_courte":"A"}},{"type":"Feature","geometry":{"type":"MultiPolygon","coordinates":[[[[2.1829343,48.7972168],[2.1830353,48.7973064],[2.1825622,48.7971594],[2.1794541,48.7971353],[2.1745253,48.7970377],[2.1664061,48.7986411],[2.1663665,48.7985926],[2.1675238,48.7974004],[2.1665442,48.7970231],[2.1661576,48.7978273],[2.1660762,48.7983778],[2.1651358,48.7982657],[2.1646654,48.7980879],[2.1645244,48.7982354],[2.1638645,48.7980597],[2.1628869,48.7973712],[2.163648,48.7961616],[2.1635984,48.7961549],[2.1636444,48.796036],[2.1637995,48.7942128],[2.1639133,48.7940974],[2.1646353,48.7937694],[2.1654448,48.7929249],[2.1663184,48.7923057],[2.1665384,48.7919029],[2.1668233,48.7916132],[2.1670624,48.7915072],[2.1679049,48.7913088],[2.1683203,48.7911038],[2.1683564,48.7910066],[2.1683269,48.7909277],[2.1678834,48.7905242],[2.1676679,48.7902719],[2.1675573,48.7900719],[2.1674536,48.7897507],[2.1676264,48.7891103],[2.1678836,48.7887917],[2.1682698,48.7884645],[2.168328,48.788366],[2.1683469,48.7881798],[2.1683172,48.7880851],[2.1682045,48.7879588],[2.1693253,48.7875392],[2.169472,48.7876314],[2.1696124,48.7878432],[2.1698999,48.7885037],[2.1699303,48.7889356],[2.1702485,48.7893926],[2.1711176,48.7896772],[2.1721233,48.7898429],[2.1734451,48.7914893],[2.1728417,48.7920909],[2.1785551,48.7932183],[2.1829343,48.7972168]]]]},"properties":{"code_section":"786860000D","code_commune":"78686","section_courte":"D"}},{"type":"Feature","geometry":{"type":"MultiPolygon","coordinates":[[[[2.1650521,48.8053068],[2.1669648,48.8053811],[2.1687364,48.8053629],[2.1693173,48.8054148],[2.169346,48.8053513],[2.1701997,48.8053332],[2.1702228,48.805282],[2.1703052,48.8052669],[2.170447,48.8052662],[2.1705889,48.8052937],[2.1705969,48.8053186],[2.1713488,48.8053476],[2.1713032,48.8061327],[2.1712496,48.8062249],[2.1713794,48.8069346],[2.1707542,48.8069871],[2.1707651,48.8069556],[2.1705157,48.8069653],[2.1704809,48.8071105],[2.1702324,48.8074664],[2.1701762,48.8074729],[2.1701102,48.8085342],[2.1700173,48.8085256],[2.1700186,48.8089508],[2.1699692,48.808949],[2.1699926,48.809232],[2.169839,48.8092228],[2.1698421,48.8096466],[2.1696811,48.8096308],[2.1696861,48.8095275],[2.1690297,48.8095303],[2.1691802,48.8100696],[2.1680008,48.8102234],[2.1677443,48.810115],[2.1672845,48.8101119],[2.167116,48.8100564],[2.1670422,48.810067],[2.1668544,48.8104381],[2.1651674,48.8100758],[2.1654251,48.809622],[2.1642361,48.8093416],[2.1643518,48.809042],[2.1653313,48.8073089],[2.1621962,48.8063663],[2.1618307,48.806409],[2.1618662,48.8065064],[2.1616449,48.8068743],[2.1611392,48.8071393],[2.1608639,48.8073936],[2.1607012,48.808011],[2.1600781,48.8089373],[2.1598726,48.8091714],[2.1598805,48.8093647],[2.1599433,48.809521],[2.1600045,48.8096284],[2.1601381,48.8096773],[2.1600879,48.8098396],[2.1596029,48.8097473],[2.1593424,48.8097469],[2.1590557,48.8098083],[2.158876,48.8098829],[2.1582841,48.8102347],[2.1580672,48.8101155],[2.1583401,48.8099389],[2.1583047,48.8099136],[2.1584308,48.8098353],[2.1583617,48.8097901],[2.158738,48.8094416],[2.1586904,48.8094094],[2.1588333,48.8092068],[2.1590533,48.8085905],[2.1590119,48.8085475],[2.1593156,48.8083479],[2.1605397,48.8072145],[2.1611351,48.8065958],[2.1610578,48.8065388],[2.1610941,48.8063836],[2.1615091,48.805979],[2.1617588,48.8060865],[2.162038,48.8058116],[2.1617791,48.8056848],[2.1621275,48.8053],[2.1622428,48.805297],[2.1622467,48.8053265],[2.1636217,48.8053709],[2.1637493,48.8053622],[2.1637583,48.8053179],[2.1646344,48.8053247],[2.1647227,48.8053288],[2.1647617,48.8054018],[2.164847,48.8054031],[2.1648539,48.8053434],[2.1650862,48.8053288],[2.1650521,48.8053068]]]]},"properties":{"code_section":"78686000AB","code_commune":"78686","section_courte":"AB"}},{"type":"Feature","geometry":{"type":"MultiPolygon","coordinates":[[[[2.180632,48.8077608],[2.1803777,48.8080584],[2.180446,48.808086],[2.1785571,48.8096068],[2.178004,48.8093709],[2.1772351,48.8091866],[2.1747691,48.8087312],[2.172821,48.8084715],[2.1722867,48.8084688],[2.1718728,48.8085188],[2.1718271,48.8092821],[2.1712938,48.809235],[2.1711784,48.8102707],[2.170718,48.8102681],[2.1702848,48.8098778],[2.1698276,48.8097881],[2.169839,48.8092228],[2.1699926,48.809232],[2.1699692,48.808949],[2.1700186,48.8089508],[2.1700173,48.8085256],[2.1701102,48.8085342],[2.1701762,48.8074729],[2.1702324,48.8074664],[2.1704809,48.8071105],[2.1705157,48.8069653],[2.1707651,48.8069556],[2.1707542,48.8069871],[2.1713794,48.8069346],[2.1712496,48.8062249],[2.1713032,48.8061327],[2.1713488,48.8053476],[2.1719591,48.8053554],[2.1727191,48.8054238],[2.1727229,48.8052358],[2.1721151,48.8051747],[2.172115,48.8049502],[2.1706351,48.8044252],[2.1698963,48.8040821],[2.1699617,48.8040199],[2.1701727,48.8041159],[2.1759193,48.8040301],[2.1830598,48.8052686],[2.181915,48.8061851],[2.1820498,48.8062395],[2.1816122,48.8066612],[2.1815824,48.8066497],[2.180632,48.8077608]]]]},"properties":{"code_section":"78686000AC","code_commune":"78686","section_courte":"AC"}},{"type":"Feature","geometry":{"type":"MultiPolygon","coordinates":[[[[2.1857265,48.7996366],[2.1869713,48.8007115],[2.185669,48.8010534],[2.1854175,48.8010535],[2.1819922,48.8006026],[2.1803397,48.8047902],[2.1759193,48.8040301],[2.1739478,48.8012004],[2.1744137,48.8011141],[2.1748995,48.8011258],[2.1749316,48.8005307],[2.1749298,48.8004685],[2.1748962,48.8004687],[2.174901,48.8001654],[2.1762935,48.8001773],[2.1765402,48.8000989],[2.1766027,48.8000247],[2.1766487,48.7998536],[2.1775029,48.7999682],[2.1795197,48.7987997],[2.1794541,48.7971353],[2.1825622,48.7971594],[2.1830353,48.7973064],[2.1857265,48.7996366]]]]},"properties":{"code_section":"78686000AD","code_commune":"78686","section_courte":"AD"}},{"type":"Feature","geometry":{"type":"MultiPolygon","coordinates":[[[[2.1771358,48.7970807],[2.1794541,48.7971353],[2.1795197,48.7987997],[2.1775029,48.7999682],[2.1766487,48.7998536],[2.1766027,48.8000247],[2.1765402,48.8000989],[2.1762935,48.8001773],[2.174901,48.8001654],[2.1748962,48.8004687],[2.1749298,48.8004685],[2.1749316,48.8005307],[2.1748995,48.8011258],[2.1744137,48.8011141],[2.1739478,48.8012004],[2.1759193,48.8040301],[2.1701727,48.8041159],[2.1699617,48.8040199],[2.1703774,48.8036603],[2.1705012,48.8035062],[2.1707206,48.8026294],[2.1711053,48.8004807],[2.1712796,48.7999147],[2.1715603,48.7993233],[2.1717485,48.7993595],[2.1717858,48.7992106],[2.1712864,48.7988268],[2.1715532,48.7986728],[2.1718663,48.7983688],[2.1718515,48.7982799],[2.1709312,48.798461],[2.1707349,48.7980207],[2.1706639,48.7980337],[2.1705553,48.7978175],[2.1745253,48.7970377],[2.1771358,48.7970807]]]]},"properties":{"code_section":"78686000AE","code_commune":"78686","section_courte":"AE"}},{"type":"Feature","geometry":{"type":"MultiPolygon","coordinates":[[[[2.1708192,48.8053268],[2.1703052,48.8052669],[2.1702228,48.805282],[2.1701997,48.8053332],[2.169346,48.8053513],[2.1693173,48.8054148],[2.1687364,48.8053629],[2.1669648,48.8053811],[2.1650521,48.8053068],[2.1650862,48.8053288],[2.1648539,48.8053434],[2.164847,48.8054031],[2.1647617,48.8054018],[2.1647227,48.8053288],[2.1646344,48.8053247],[2.1637583,48.8053179],[2.1637493,48.8053622],[2.1636217,48.8053709],[2.1622467,48.8053265],[2.1622428,48.805297],[2.1620807,48.8052858],[2.163777,48.8039336],[2.1612574,48.8014689],[2.1635927,48.8007739],[2.16394,48.8006974],[2.1648299,48.800677],[2.1650952,48.8006406],[2.1669546,48.7999422],[2.1679651,48.8001443],[2.1688848,48.8002772],[2.1688831,48.8003412],[2.1697054,48.8004204],[2.1711053,48.8004807],[2.1707206,48.8026294],[2.1705012,48.8035062],[2.1703774,48.8036603],[2.1698963,48.8040821],[2.1706351,48.8044252],[2.172115,48.8049502],[2.1721151,48.8051747],[2.1727229,48.8052358],[2.1727191,48.8054238],[2.1719591,48.8053554],[2.1708192,48.8053268]]]]},"properties":{"code_section":"78686000AH","code_commune":"78686","section_courte":"AH"}},{"type":"Feature","geometry":{"type":"MultiPolygon","coordinates":[[[[2.1616665,48.7987274],[2.1620349,48.7987385],[2.1629424,48.7974043],[2.1638645,48.7980597],[2.1645244,48.7982354],[2.1646654,48.7980879],[2.1651358,48.7982657],[2.1660762,48.7983778],[2.1661576,48.7978273],[2.1665442,48.7970231],[2.1675238,48.7974004],[2.1663665,48.7985926],[2.1664061,48.7986411],[2.1705553,48.7978175],[2.1706639,48.7980337],[2.1707349,48.7980207],[2.1709312,48.798461],[2.1718515,48.7982799],[2.1718672,48.7983455],[2.1715532,48.7986728],[2.1712864,48.7988268],[2.1717858,48.7992106],[2.1717485,48.7993595],[2.1715603,48.7993233],[2.1712796,48.7999147],[2.1711053,48.8004807],[2.1697054,48.8004204],[2.1688831,48.8003412],[2.1688848,48.8002772],[2.1679651,48.8001443],[2.1669546,48.7999422],[2.1650952,48.8006406],[2.1648299,48.800677],[2.16394,48.8006974],[2.1635927,48.8007739],[2.1612574,48.8014689],[2.1588792,48.7990531],[2.1591727,48.7988147],[2.1592938,48.7986621],[2.1616665,48.7987274]]]]},"properties":{"code_section":"78686000AI","code_commune":"78686","section_courte":"AI"}}]}