{"type":"FeatureCollection","features":[{"type":"Feature","geometry":{"type":"MultiPolygon","coordinates":[[[[2.2716979,48.9253339],[2.2717688,48.9254218],[2.2742102,48.9244959],[2.2746589,48.9249996],[2.2733138,48.9268326],[2.2683195,48.9251866],[2.2678085,48.9250406],[2.2704824,48.9245286],[2.2709231,48.9243742],[2.2716979,48.9253339]]]]},"properties":{"code_section":"920090000A","code_commune":"92009","section_courte":"A"}},{"type":"Feature","geometry":{"type":"MultiPolygon","coordinates":[[[[2.2709469,48.924405],[2.2709231,48.9243742],[2.2731876,48.9235671],[2.2750259,48.9231941],[2.2763262,48.9228949],[2.2760411,48.9231509],[2.2746589,48.9249996],[2.2742102,48.9244959],[2.2717688,48.9254218],[2.2709469,48.924405]]]]},"properties":{"code_section":"920090000B","code_commune":"92009","section_courte":"B"}},{"type":"Feature","geometry":{"type":"MultiPolygon","coordinates":[[[[2.2721609,48.9220462],[2.2724455,48.921906],[2.2735159,48.9235007],[2.2731876,48.9235671],[2.2704824,48.9245286],[2.2697815,48.9246626],[2.2686311,48.9229768],[2.2687933,48.9229332],[2.2679079,48.9213863],[2.2711063,48.9205844],[2.2721609,48.9220462]]]]},"properties":{"code_section":"920090000C","code_commune":"92009","section_courte":"C"}},{"type":"Feature","geometry":{"type":"MultiPolygon","coordinates":[[[[2.2776088,48.920525],[2.2784435,48.9211644],[2.2763262,48.9228949],[2.2735159,48.9235007],[2.2724455,48.921906],[2.2746481,48.9208538],[2.2769864,48.9199138],[2.2771974,48.920086],[2.2776088,48.920525]]]]},"properties":{"code_section":"920090000D","code_commune":"92009","section_courte":"D"}},{"type":"Feature","geometry":{"type":"MultiPolygon","coordinates":[[[[2.2762426,48.919323],[2.2769864,48.9199138],[2.2746481,48.9208538],[2.2721609,48.9220462],[2.2707518,48.920109],[2.2739042,48.9189103],[2.2750602,48.9183334],[2.2762426,48.919323]]]]},"properties":{"code_section":"920090000E","code_commune":"92009","section_courte":"E"}},{"type":"Feature","geometry":{"type":"MultiPolygon","coordinates":[[[[2.2785923,48.9174482],[2.2806131,48.9191061],[2.2784435,48.9211644],[2.2776088,48.920525],[2.2771974,48.920086],[2.2750602,48.9183334],[2.277856,48.9169367],[2.2785923,48.9174482]]]]},"properties":{"code_section":"920090000F","code_commune":"92009","section_courte":"F"}},{"type":"Feature","geometry":{"type":"MultiPolygon","coordinates":[[[[2.2730113,48.916916],[2.2762273,48.9158083],[2.277856,48.9169367],[2.2739042,48.9189103],[2.2731568,48.919192],[2.2714389,48.9175365],[2.2720479,48.9172395],[2.2730113,48.916916]]]]},"properties":{"code_section":"920090000G","code_commune":"92009","section_courte":"G"}},{"type":"Feature","geometry":{"type":"MultiPolygon","coordinates":[[[[2.268308,48.9212861],[2.2671534,48.9195048],[2.2683756,48.9190305],[2.2714389,48.9175365],[2.2731568,48.919192],[2.2707518,48.920109],[2.2711063,48.9205844],[2.268308,48.9212861]]]]},"properties":{"code_section":"920090000H","code_commune":"92009","section_courte":"H"}},{"type":"Feature","geometry":{"type":"MultiPolygon","coordinates":[[[[2.2686079,48.9184969],[2.2688954,48.9187677],[2.2683756,48.9190305],[2.2671534,48.9195048],[2.2652036,48.920368],[2.2646136,48.9191745],[2.263185,48.9202074],[2.2628961,48.9194959],[2.2623941,48.9188006],[2.2625384,48.918591],[2.2625274,48.9185509],[2.2646011,48.9180226],[2.2650303,48.9173914],[2.2655395,48.9170789],[2.2663777,48.9167303],[2.2668795,48.917229],[2.2669581,48.9172076],[2.2678464,48.9180886],[2.2680438,48.9179873],[2.2686079,48.9184969]]]]},"properties":{"code_section":"920090000I","code_commune":"92009","section_courte":"I"}},{"type":"Feature","geometry":{"type":"MultiPolygon","coordinates":[[[[2.2669243,48.9172167],[2.2668795,48.917229],[2.2663777,48.9167303],[2.267783,48.9161891],[2.2696991,48.9153237],[2.2703992,48.9148391],[2.2707934,48.9150629],[2.2719654,48.9159704],[2.2719302,48.9159892],[2.2726369,48.9165315],[2.2730113,48.916916],[2.2720479,48.9172395],[2.2688954,48.9187677],[2.2680438,48.9179873],[2.2678464,48.9180886],[2.2669581,48.9172076],[2.2669243,48.9172167]]]]},"properties":{"code_section":"920090000J","code_commune":"92009","section_courte":"J"}},{"type":"Feature","geometry":{"type":"MultiPolygon","coordinates":[[[[2.2704625,48.9148786],[2.2703992,48.9148391],[2.2727871,48.9131376],[2.2743036,48.9144201],[2.2762273,48.9158083],[2.2730113,48.916916],[2.2726369,48.9165315],[2.2719302,48.9159892],[2.2719654,48.9159704],[2.2707934,48.9150629],[2.2704625,48.9148786]]]]},"properties":{"code_section":"920090000K","code_commune":"92009","section_courte":"K"}},{"type":"Feature","geometry":{"type":"MultiPolygon","coordinates":[[[[2.2670931,48.9148686],[2.2670653,48.9148357],[2.2676452,48.9146548],[2.2670984,48.9135862],[2.2680948,48.9133897],[2.2711978,48.9129466],[2.2723649,48.9127308],[2.2727871,48.9131376],[2.2696991,48.9153237],[2.26815,48.9160226],[2.2670931,48.9148686]]]]},"properties":{"code_section":"920090000L","code_commune":"92009","section_courte":"L"}},{"type":"Feature","geometry":{"type":"MultiPolygon","coordinates":[[[[2.2680714,48.9159391],[2.26815,48.9160226],[2.267783,48.9161891],[2.2655395,48.9170789],[2.2650303,48.9173914],[2.2646011,48.9180226],[2.2625274,48.9185509],[2.2623411,48.9178618],[2.2619164,48.9170297],[2.2617874,48.916582],[2.2617677,48.9162573],[2.2650042,48.9157012],[2.2664775,48.9149941],[2.2670653,48.9148357],[2.2680714,48.9159391]]]]},"properties":{"code_section":"920090000M","code_commune":"92009","section_courte":"M"}},{"type":"Feature","geometry":{"type":"MultiPolygon","coordinates":[[[[2.2635691,48.914186],[2.2670984,48.9135862],[2.2676452,48.9146548],[2.2664775,48.9149941],[2.2650042,48.9157012],[2.2617677,48.9162573],[2.26164,48.9143902],[2.2635691,48.914186]]]]},"properties":{"code_section":"920090000N","code_commune":"92009","section_courte":"N"}},{"type":"Feature","geometry":{"type":"MultiPolygon","coordinates":[[[[2.2613301,48.9126906],[2.2615545,48.9138763],[2.2589012,48.9139309],[2.2574766,48.9138847],[2.2574147,48.9135578],[2.2579348,48.913489],[2.2577808,48.9128999],[2.2578623,48.9128914],[2.2576737,48.9108774],[2.260837,48.9105464],[2.2611747,48.9117593],[2.2613301,48.9126906]]]]},"properties":{"code_section":"920090000O","code_commune":"92009","section_courte":"O"}},{"type":"Feature","geometry":{"type":"MultiPolygon","coordinates":[[[[2.2612836,48.9124066],[2.2611747,48.9117593],[2.260837,48.9105464],[2.2631913,48.9103106],[2.2641995,48.9102383],[2.2645675,48.9102219],[2.2649666,48.9102725],[2.2647423,48.9104732],[2.2650702,48.9120215],[2.265253,48.9120075],[2.2654767,48.9138566],[2.2635691,48.914186],[2.26164,48.9143902],[2.2612836,48.9124066]]]]},"properties":{"code_section":"920090000P","code_commune":"92009","section_courte":"P"}},{"type":"Feature","geometry":{"type":"MultiPolygon","coordinates":[[[[2.2692525,48.9131687],[2.2692557,48.9132171],[2.2680948,48.9133897],[2.2670984,48.9135862],[2.2654767,48.9138566],[2.265253,48.9120075],[2.2650702,48.9120215],[2.2647423,48.9104732],[2.2649666,48.9102725],[2.2660785,48.9105703],[2.2666775,48.9106277],[2.2681394,48.9105991],[2.2688586,48.9104476],[2.269056,48.911391],[2.2688446,48.9114246],[2.2689252,48.9127506],[2.2689722,48.9127391],[2.2689831,48.9128742],[2.2692109,48.9128192],[2.2692525,48.9131687]]]]},"properties":{"code_section":"920090000Q","code_commune":"92009","section_courte":"Q"}},{"type":"Feature","geometry":{"type":"MultiPolygon","coordinates":[[[[2.2721179,48.9101744],[2.2723649,48.9127308],[2.2711978,48.9129466],[2.2692557,48.9132171],[2.2692109,48.9128192],[2.2689831,48.9128742],[2.2689722,48.9127391],[2.2689252,48.9127506],[2.2688446,48.9114246],[2.269056,48.911391],[2.2688586,48.9104476],[2.2693864,48.9103367],[2.2721179,48.9101744]]]]},"properties":{"code_section":"920090000R","code_commune":"92009","section_courte":"R"}},{"type":"Feature","geometry":{"type":"MultiPolygon","coordinates":[[[[2.2630549,48.9103236],[2.2621786,48.9104117],[2.2623541,48.9096951],[2.2618981,48.9096493],[2.2618289,48.9096146],[2.2623896,48.9091285],[2.2625047,48.9090825],[2.262353,48.9090059],[2.2626791,48.9076916],[2.263759,48.9075897],[2.263877,48.9071571],[2.2659905,48.9074095],[2.2649666,48.9102725],[2.2645675,48.9102219],[2.2630549,48.9103236]]]]},"properties":{"code_section":"920090000S","code_commune":"92009","section_courte":"S"}},{"type":"Feature","geometry":{"type":"MultiPolygon","coordinates":[[[[2.2620741,48.9077453],[2.2626791,48.9076916],[2.262353,48.9090059],[2.2625047,48.9090825],[2.2623896,48.9091285],[2.2618289,48.9096146],[2.2618981,48.9096493],[2.2623541,48.9096951],[2.2621786,48.9104117],[2.2570398,48.9109429],[2.2577685,48.9081315],[2.2611453,48.9078283],[2.261167,48.9077804],[2.2611277,48.9077727],[2.2611822,48.907652],[2.2617889,48.9077708],[2.2620741,48.9077453]]]]},"properties":{"code_section":"920090000T","code_commune":"92009","section_courte":"T"}},{"type":"Feature","geometry":{"type":"MultiPolygon","coordinates":[[[[2.2611662,48.9077822],[2.2611453,48.9078283],[2.2577685,48.9081315],[2.2582142,48.906072],[2.260224,48.9066333],[2.2613722,48.9068226],[2.263877,48.9071571],[2.263759,48.9075897],[2.2617889,48.9077708],[2.2611822,48.907652],[2.2611277,48.9077727],[2.2611662,48.9077822]]]]},"properties":{"code_section":"920090000U","code_commune":"92009","section_courte":"U"}},{"type":"Feature","geometry":{"type":"MultiPolygon","coordinates":[[[[2.2640834,48.9063565],[2.263877,48.9071571],[2.2613722,48.9068226],[2.2630418,48.903766],[2.2638417,48.9045025],[2.2641463,48.9050712],[2.2642396,48.9055278],[2.2642284,48.9058731],[2.2640834,48.9063565]]]]},"properties":{"code_section":"920090000V","code_commune":"92009","section_courte":"V"}},{"type":"Feature","geometry":{"type":"MultiPolygon","coordinates":[[[[2.2664317,48.9061693],[2.2659905,48.9074095],[2.263877,48.9071571],[2.2642284,48.9058731],[2.2642396,48.9055278],[2.2641463,48.9050712],[2.2638417,48.9045025],[2.2630418,48.903766],[2.2632445,48.9033974],[2.2669958,48.9046444],[2.2665597,48.9057415],[2.2664317,48.9061693]]]]},"properties":{"code_section":"920090000X","code_commune":"92009","section_courte":"X"}}]}