{"type":"FeatureCollection","features":[{"type":"Feature","geometry":{"type":"MultiPolygon","coordinates":[[[[2.2763775,48.9334621],[2.27642,48.9335691],[2.27566,48.9335471],[2.2746451,48.9332584],[2.2743696,48.9332668],[2.2740366,48.9333208],[2.2737954,48.9333984],[2.2733296,48.9336658],[2.2731811,48.9337872],[2.2730393,48.9338378],[2.2727833,48.9322572],[2.2728108,48.9321841],[2.2726419,48.930829],[2.2726634,48.9307326],[2.2724694,48.9295225],[2.2744748,48.9292017],[2.2751149,48.9302235],[2.2759913,48.9319911],[2.2758005,48.9320331],[2.2758376,48.9320456],[2.2763775,48.9334621]]]]},"properties":{"code_section":"920040000A","code_commune":"92004","section_courte":"A"}},{"type":"Feature","geometry":{"type":"MultiPolygon","coordinates":[[[[2.2765348,48.933569],[2.27642,48.9335691],[2.2758376,48.9320456],[2.2758005,48.9320331],[2.2759913,48.9319911],[2.2751149,48.9302235],[2.2764696,48.9299047],[2.2762971,48.9308296],[2.2793378,48.9314569],[2.2797527,48.9324059],[2.2794362,48.9325216],[2.279711,48.9332349],[2.278777,48.9333235],[2.2776258,48.9335179],[2.2765348,48.933569]]]]},"properties":{"code_section":"920040000B","code_commune":"92004","section_courte":"B"}},{"type":"Feature","geometry":{"type":"MultiPolygon","coordinates":[[[[2.2813157,48.929975],[2.2817609,48.9294875],[2.2843153,48.9302869],[2.2836704,48.9311235],[2.2833447,48.931749],[2.2831121,48.9319356],[2.282274,48.9323093],[2.2816595,48.9327348],[2.2811942,48.9330044],[2.2810242,48.93306],[2.279711,48.9332349],[2.2794362,48.9325216],[2.2797527,48.9324059],[2.2793378,48.9314569],[2.2795885,48.9315093],[2.279898,48.9314403],[2.2812008,48.9300286],[2.2812171,48.9299538],[2.2813157,48.929975]]]]},"properties":{"code_section":"920040000C","code_commune":"92004","section_courte":"C"}},{"type":"Feature","geometry":{"type":"MultiPolygon","coordinates":[[[[2.2766911,48.9287172],[2.2771412,48.9280928],[2.281721,48.9295312],[2.2813157,48.929975],[2.2812171,48.9299538],[2.2812008,48.9300286],[2.279898,48.9314403],[2.2795885,48.9315093],[2.2762971,48.9308296],[2.2766911,48.9287172]]]]},"properties":{"code_section":"920040000D","code_commune":"92004","section_courte":"D"}},{"type":"Feature","geometry":{"type":"MultiPolygon","coordinates":[[[[2.2771412,48.9280928],[2.2766911,48.9287172],[2.2764696,48.9299047],[2.2751149,48.9302235],[2.2744748,48.9292017],[2.2724694,48.9295225],[2.2723557,48.9284955],[2.2718049,48.9277716],[2.2727693,48.9274258],[2.2729687,48.9272723],[2.2732586,48.9269062],[2.2771412,48.9280928]]]]},"properties":{"code_section":"920040000E","code_commune":"92004","section_courte":"E"}},{"type":"Feature","geometry":{"type":"MultiPolygon","coordinates":[[[[2.2753987,48.9275532],[2.2732586,48.9269062],[2.2738552,48.9260902],[2.2749308,48.9256197],[2.2784626,48.9243025],[2.279987,48.9259797],[2.2753987,48.9275532]]]]},"properties":{"code_section":"920040000F","code_commune":"92004","section_courte":"F"}},{"type":"Feature","geometry":{"type":"MultiPolygon","coordinates":[[[[2.2771412,48.9280928],[2.2753987,48.9275532],[2.279987,48.9259797],[2.2808667,48.9269494],[2.2818886,48.929138],[2.2819172,48.9294717],[2.2818709,48.9295219],[2.2817609,48.9294875],[2.281721,48.9295312],[2.2771412,48.9280928]]]]},"properties":{"code_section":"920040000G","code_commune":"92004","section_courte":"G"}},{"type":"Feature","geometry":{"type":"MultiPolygon","coordinates":[[[[2.28441,48.9261644],[2.2845172,48.926143],[2.2843698,48.9302355],[2.2843153,48.9302869],[2.2818709,48.9295219],[2.2819172,48.9294717],[2.2818886,48.929138],[2.280837,48.9269172],[2.2812196,48.9268539],[2.2811806,48.9268106],[2.28441,48.9261644]]]]},"properties":{"code_section":"920040000H","code_commune":"92004","section_courte":"H"}},{"type":"Feature","geometry":{"type":"MultiPolygon","coordinates":[[[[2.2823157,48.9265835],[2.2811806,48.9268106],[2.2812196,48.9268539],[2.280837,48.9269172],[2.2784626,48.9243025],[2.2791835,48.9240541],[2.2798047,48.9237278],[2.2814823,48.9227154],[2.2850134,48.9252214],[2.2845172,48.926143],[2.2823157,48.9265835]]]]},"properties":{"code_section":"920040000I","code_commune":"92004","section_courte":"I"}},{"type":"Feature","geometry":{"type":"MultiPolygon","coordinates":[[[[2.2761579,48.9230371],[2.2772768,48.9221308],[2.2796169,48.9238261],[2.2791835,48.9240541],[2.2749308,48.9256197],[2.2738552,48.9260902],[2.2760411,48.9231509],[2.2761579,48.9230371]]]]},"properties":{"code_section":"920040000J","code_commune":"92004","section_courte":"J"}},{"type":"Feature","geometry":{"type":"MultiPolygon","coordinates":[[[[2.2788945,48.9207414],[2.2803914,48.9193205],[2.2833391,48.9210774],[2.2830875,48.9217347],[2.2796169,48.9238261],[2.2772768,48.9221308],[2.278266,48.9213307],[2.2788945,48.9207414]]]]},"properties":{"code_section":"920040000K","code_commune":"92004","section_courte":"K"}},{"type":"Feature","geometry":{"type":"MultiPolygon","coordinates":[[[[2.2859486,48.92268],[2.2862801,48.9228799],[2.2850134,48.9252214],[2.2814823,48.9227154],[2.2830875,48.9217347],[2.2833391,48.9210774],[2.2859486,48.92268]]]]},"properties":{"code_section":"920040000L","code_commune":"92004","section_courte":"L"}},{"type":"Feature","geometry":{"type":"MultiPolygon","coordinates":[[[[2.2859486,48.92268],[2.2833391,48.9210774],[2.2852172,48.9196123],[2.2859884,48.919079],[2.2883705,48.920436],[2.2869439,48.9216556],[2.2859486,48.92268]]]]},"properties":{"code_section":"920040000M","code_commune":"92004","section_courte":"M"}},{"type":"Feature","geometry":{"type":"MultiPolygon","coordinates":[[[[2.2870704,48.9182383],[2.2871264,48.9182642],[2.2869494,48.9184143],[2.2852172,48.9196123],[2.2833391,48.9210774],[2.2803914,48.9193205],[2.2808767,48.9188512],[2.2830576,48.9178033],[2.2844716,48.9167716],[2.2846368,48.9165924],[2.2851735,48.9168507],[2.2848695,48.9171186],[2.2859564,48.9176692],[2.2860498,48.9177941],[2.2862104,48.9178869],[2.2864165,48.9179265],[2.2865138,48.9180563],[2.2868595,48.918252],[2.2870704,48.9182383]]]]},"properties":{"code_section":"920040000N","code_commune":"92004","section_courte":"N"}},{"type":"Feature","geometry":{"type":"MultiPolygon","coordinates":[[[[2.2847012,48.9166214],[2.2846368,48.9165924],[2.2865939,48.9146267],[2.2876089,48.9137659],[2.2901721,48.9147552],[2.2892179,48.9157745],[2.2891372,48.9159308],[2.2891132,48.9161668],[2.2896688,48.9164171],[2.2892895,48.9165425],[2.288528,48.9171183],[2.2871264,48.9182642],[2.2870704,48.9182383],[2.2868595,48.918252],[2.2865138,48.9180563],[2.2864165,48.9179265],[2.2862104,48.9178869],[2.2860498,48.9177941],[2.2859564,48.9176692],[2.2848695,48.9171186],[2.2851735,48.9168507],[2.2847012,48.9166214]]]]},"properties":{"code_section":"920040000O","code_commune":"92004","section_courte":"O"}},{"type":"Feature","geometry":{"type":"MultiPolygon","coordinates":[[[[2.2921992,48.9176088],[2.292257,48.9176397],[2.2902804,48.9188691],[2.2883705,48.920436],[2.2859884,48.919079],[2.2869494,48.9184143],[2.288528,48.9171183],[2.2892895,48.9165425],[2.2896688,48.9164171],[2.2921992,48.9176088]]]]},"properties":{"code_section":"920040000P","code_commune":"92004","section_courte":"P"}},{"type":"Feature","geometry":{"type":"MultiPolygon","coordinates":[[[[2.2921992,48.9176088],[2.2891132,48.9161668],[2.2891372,48.9159308],[2.2892179,48.9157745],[2.2901721,48.9147552],[2.2923038,48.9155822],[2.2926992,48.9154639],[2.2943333,48.9161638],[2.2939245,48.9166038],[2.292257,48.9176397],[2.2921992,48.9176088]]]]},"properties":{"code_section":"920040000Q","code_commune":"92004","section_courte":"Q"}},{"type":"Feature","geometry":{"type":"MultiPolygon","coordinates":[[[[2.2951852,48.9162483],[2.2957097,48.9165486],[2.2952253,48.9199468],[2.2926584,48.918419],[2.2918586,48.9178958],[2.2939245,48.9166038],[2.2945743,48.9159056],[2.2951852,48.9162483]]]]},"properties":{"code_section":"920040000R","code_commune":"92004","section_courte":"R"}},{"type":"Feature","geometry":{"type":"MultiPolygon","coordinates":[[[[2.2961014,48.9137749],[2.2957097,48.9165486],[2.2945743,48.9159056],[2.2943333,48.9161638],[2.2926992,48.9154639],[2.2923038,48.9155822],[2.2920431,48.9154806],[2.292439,48.915074],[2.2937407,48.9140682],[2.2954133,48.9122895],[2.2962549,48.9127196],[2.2961014,48.9137749]]]]},"properties":{"code_section":"920040000S","code_commune":"92004","section_courte":"S"}},{"type":"Feature","geometry":{"type":"MultiPolygon","coordinates":[[[[2.2946152,48.9118097],[2.2954133,48.9122895],[2.2937407,48.9140682],[2.292439,48.915074],[2.2920431,48.9154806],[2.2892203,48.9143881],[2.2918709,48.91093],[2.2934611,48.9112706],[2.2946152,48.9118097]]]]},"properties":{"code_section":"920040000T","code_commune":"92004","section_courte":"T"}},{"type":"Feature","geometry":{"type":"MultiPolygon","coordinates":[[[[2.2892203,48.9143881],[2.2876089,48.9137659],[2.2868028,48.9133796],[2.289854,48.9104677],[2.2918709,48.91093],[2.2892203,48.9143881]]]]},"properties":{"code_section":"920040000U","code_commune":"92004","section_courte":"U"}},{"type":"Feature","geometry":{"type":"MultiPolygon","coordinates":[[[[2.2863615,48.9096207],[2.289854,48.9104677],[2.2868028,48.9133796],[2.2846256,48.9123488],[2.2851546,48.9116297],[2.2863615,48.9096207]]]]},"properties":{"code_section":"920040000V","code_commune":"92004","section_courte":"V"}},{"type":"Feature","geometry":{"type":"MultiPolygon","coordinates":[[[[2.2846256,48.9123488],[2.2876089,48.9137659],[2.2865939,48.9146267],[2.2846368,48.9165924],[2.2845519,48.9165962],[2.2824229,48.9160554],[2.2835246,48.9138351],[2.2846256,48.9123488]]]]},"properties":{"code_section":"920040000X","code_commune":"92004","section_courte":"X"}},{"type":"Feature","geometry":{"type":"MultiPolygon","coordinates":[[[[2.2809916,48.9165384],[2.2816795,48.9158512],[2.2845519,48.9165962],[2.2846368,48.9165924],[2.2844716,48.9167716],[2.2830576,48.9178033],[2.2808767,48.9188512],[2.2806131,48.9191061],[2.2791174,48.9178771],[2.2801688,48.917202],[2.2809916,48.9165384]]]]},"properties":{"code_section":"920040000Y","code_commune":"92004","section_courte":"Y"}},{"type":"Feature","geometry":{"type":"MultiPolygon","coordinates":[[[[2.2771351,48.9164368],[2.2762501,48.9158247],[2.2770756,48.9154568],[2.2777393,48.9142726],[2.2782503,48.9135178],[2.2795453,48.9143522],[2.2791039,48.9145488],[2.2816795,48.9158512],[2.2809916,48.9165384],[2.2801688,48.917202],[2.2791174,48.9178771],[2.2785923,48.9174482],[2.2771351,48.9164368]]]]},"properties":{"code_section":"920040000Z","code_commune":"92004","section_courte":"Z"}},{"type":"Feature","geometry":{"type":"MultiPolygon","coordinates":[[[[2.2835457,48.9136442],[2.2836432,48.9136746],[2.2835246,48.9138351],[2.2824229,48.9160554],[2.2816795,48.9158512],[2.2791039,48.9145488],[2.2795453,48.9143522],[2.2782503,48.9135178],[2.2800992,48.9120126],[2.2826324,48.9132828],[2.2835457,48.9136442]]]]},"properties":{"code_section":"92004000AB","code_commune":"92004","section_courte":"AB"}},{"type":"Feature","geometry":{"type":"MultiPolygon","coordinates":[[[[2.2826845,48.9133048],[2.2800992,48.9120126],[2.2805793,48.9116303],[2.2813173,48.9109174],[2.2821005,48.9098475],[2.2842953,48.909971],[2.2860296,48.910173],[2.2851546,48.9116297],[2.2836432,48.9136746],[2.2832416,48.9135448],[2.2826845,48.9133048]]]]},"properties":{"code_section":"92004000AC","code_commune":"92004","section_courte":"AC"}},{"type":"Feature","geometry":{"type":"MultiPolygon","coordinates":[[[[2.2810236,48.9097801],[2.2807274,48.9097301],[2.2830474,48.9073537],[2.2863615,48.9096207],[2.2860296,48.910173],[2.2842953,48.909971],[2.2810236,48.9097801]]]]},"properties":{"code_section":"92004000AD","code_commune":"92004","section_courte":"AD"}},{"type":"Feature","geometry":{"type":"MultiPolygon","coordinates":[[[[2.2824178,48.9069208],[2.2830474,48.9073537],[2.2807274,48.9097301],[2.278261,48.9093994],[2.2781232,48.9094974],[2.277717,48.909268],[2.2774272,48.9090309],[2.2778533,48.9088114],[2.2785154,48.9083586],[2.2801889,48.9066664],[2.2816645,48.9063227],[2.2821075,48.9066263],[2.2820518,48.9066658],[2.2824178,48.9069208]]]]},"properties":{"code_section":"92004000AE","code_commune":"92004","section_courte":"AE"}},{"type":"Feature","geometry":{"type":"MultiPolygon","coordinates":[[[[2.278994,48.9095056],[2.2810236,48.9097801],[2.2821005,48.9098475],[2.2813173,48.9109174],[2.2805793,48.9116303],[2.2787038,48.9131225],[2.2763662,48.9122771],[2.2769353,48.9117135],[2.278994,48.9095056]]]]},"properties":{"code_section":"92004000AF","code_commune":"92004","section_courte":"AF"}},{"type":"Feature","geometry":{"type":"MultiPolygon","coordinates":[[[[2.2770756,48.9154568],[2.2762501,48.9158247],[2.2746276,48.9146536],[2.2755662,48.9140954],[2.2762621,48.9138206],[2.2753152,48.9131859],[2.2760303,48.9126098],[2.2763662,48.9122771],[2.2787038,48.9131225],[2.2782836,48.9134699],[2.2777393,48.9142726],[2.2770756,48.9154568]]]]},"properties":{"code_section":"92004000AG","code_commune":"92004","section_courte":"AG"}},{"type":"Feature","geometry":{"type":"MultiPolygon","coordinates":[[[[2.2756485,48.9128604],[2.2756913,48.9128829],[2.2753152,48.9131859],[2.2762621,48.9138206],[2.2755662,48.9140954],[2.2746276,48.9146536],[2.2743036,48.9144201],[2.2726573,48.913036],[2.2723649,48.9127308],[2.2722558,48.9117302],[2.2727221,48.9115504],[2.2727251,48.9112458],[2.2732153,48.911015],[2.2744554,48.9121989],[2.2746006,48.9122035],[2.2756485,48.9128604]]]]},"properties":{"code_section":"92004000AH","code_commune":"92004","section_courte":"AH"}},{"type":"Feature","geometry":{"type":"MultiPolygon","coordinates":[[[[2.2735587,48.9113555],[2.2732153,48.911015],[2.2774272,48.9090309],[2.277717,48.909268],[2.2781232,48.9094974],[2.278261,48.9093994],[2.278994,48.9095056],[2.2769353,48.9117135],[2.2760303,48.9126098],[2.2756913,48.9128829],[2.2746006,48.9122035],[2.2744554,48.9121989],[2.2735587,48.9113555]]]]},"properties":{"code_section":"92004000AI","code_commune":"92004","section_courte":"AI"}},{"type":"Feature","geometry":{"type":"MultiPolygon","coordinates":[[[[2.2775602,48.9089248],[2.2776081,48.9089458],[2.2727251,48.9112458],[2.2727221,48.9115504],[2.2722558,48.9117302],[2.2721179,48.9101744],[2.2722642,48.9101809],[2.2736157,48.9089801],[2.2743165,48.9082795],[2.2746043,48.9080649],[2.2750845,48.9076146],[2.2761552,48.9080666],[2.2761904,48.9080258],[2.2766044,48.9082088],[2.276365,48.9084653],[2.2766275,48.908575],[2.276728,48.9085701],[2.2775602,48.9089248]]]]},"properties":{"code_section":"92004000AJ","code_commune":"92004","section_courte":"AJ"}},{"type":"Feature","geometry":{"type":"MultiPolygon","coordinates":[[[[2.2722013,48.9075008],[2.2743165,48.9082795],[2.2736157,48.9089801],[2.2722642,48.9101809],[2.2693864,48.9103367],[2.2690364,48.9104103],[2.2685356,48.9102901],[2.2691544,48.9085363],[2.2694934,48.9086633],[2.2702022,48.9078218],[2.2722013,48.9075008]]]]},"properties":{"code_section":"92004000AK","code_commune":"92004","section_courte":"AK"}},{"type":"Feature","geometry":{"type":"MultiPolygon","coordinates":[[[[2.2691544,48.9085363],[2.2685356,48.9102901],[2.2690364,48.9104103],[2.2681394,48.9105991],[2.2666775,48.9106277],[2.2660785,48.9105703],[2.2649666,48.9102725],[2.2659905,48.9074095],[2.2691544,48.9085363]]]]},"properties":{"code_section":"92004000AL","code_commune":"92004","section_courte":"AL"}},{"type":"Feature","geometry":{"type":"MultiPolygon","coordinates":[[[[2.2703954,48.9068284],[2.2722013,48.9075008],[2.2702022,48.9078218],[2.2694934,48.9086633],[2.2659905,48.9074095],[2.266429,48.9061785],[2.2668476,48.9060266],[2.2675866,48.9058783],[2.2678846,48.9058715],[2.2703954,48.9068284]]]]},"properties":{"code_section":"92004000AM","code_commune":"92004","section_courte":"AM"}},{"type":"Feature","geometry":{"type":"MultiPolygon","coordinates":[[[[2.2761904,48.9080258],[2.2761552,48.9080666],[2.2750845,48.9076146],[2.2757715,48.9069817],[2.2758714,48.906948],[2.2761258,48.9069502],[2.2761518,48.9066978],[2.2762941,48.906444],[2.2770796,48.905737],[2.2778077,48.9053468],[2.2788557,48.9044777],[2.2815849,48.9063469],[2.2801889,48.9066664],[2.2785154,48.9083586],[2.278083,48.9086673],[2.2776081,48.9089458],[2.276728,48.9085701],[2.2766275,48.908575],[2.276365,48.9084653],[2.2766044,48.9082088],[2.2761904,48.9080258]]]]},"properties":{"code_section":"92004000AN","code_commune":"92004","section_courte":"AN"}},{"type":"Feature","geometry":{"type":"MultiPolygon","coordinates":[[[[2.2824178,48.9069208],[2.2820518,48.9066658],[2.2821075,48.9066263],[2.2818675,48.9064611],[2.2816645,48.9063227],[2.2815849,48.9063469],[2.2789509,48.9045416],[2.2794832,48.9040872],[2.2795857,48.9041289],[2.2801144,48.9036513],[2.2807949,48.9039811],[2.2814119,48.9043279],[2.2818482,48.9046352],[2.2830816,48.9034232],[2.2844223,48.9043499],[2.2843835,48.904374],[2.2846941,48.9045903],[2.2849878,48.904408],[2.2856833,48.9049326],[2.284677,48.9056812],[2.2824178,48.9069208]]]]},"properties":{"code_section":"92004000AO","code_commune":"92004","section_courte":"AO"}},{"type":"Feature","geometry":{"type":"MultiPolygon","coordinates":[[[[2.2858067,48.9055299],[2.2856633,48.9054645],[2.2858553,48.9052783],[2.285451,48.9050935],[2.2856833,48.9049326],[2.2849878,48.904408],[2.2846941,48.9045903],[2.2843835,48.904374],[2.2844223,48.9043499],[2.2830816,48.9034232],[2.2842847,48.9022294],[2.288696,48.904205],[2.2866257,48.9059636],[2.2862151,48.9057753],[2.2862556,48.9057345],[2.2858067,48.9055299]]]]},"properties":{"code_section":"92004000AP","code_commune":"92004","section_courte":"AP"}},{"type":"Feature","geometry":{"type":"MultiPolygon","coordinates":[[[[2.2865433,48.9059243],[2.2866257,48.9059636],[2.2865434,48.9060382],[2.2884341,48.9072446],[2.2874289,48.9080018],[2.2863615,48.9096207],[2.2824178,48.9069208],[2.284677,48.9056812],[2.285451,48.9050935],[2.2858553,48.9052783],[2.2856633,48.9054645],[2.2862556,48.9057345],[2.2862151,48.9057753],[2.2865433,48.9059243]]]]},"properties":{"code_section":"92004000AQ","code_commune":"92004","section_courte":"AQ"}},{"type":"Feature","geometry":{"type":"MultiPolygon","coordinates":[[[[2.2914859,48.9055855],[2.291634,48.9056589],[2.2905001,48.9066551],[2.2907945,48.9068069],[2.2906447,48.9069497],[2.2904707,48.9070634],[2.2902901,48.9069659],[2.2902314,48.9069744],[2.2900113,48.9071135],[2.2898769,48.9070254],[2.2889735,48.9075884],[2.2865434,48.9060382],[2.288696,48.904205],[2.2914859,48.9055855]]]]},"properties":{"code_section":"92004000AR","code_commune":"92004","section_courte":"AR"}},{"type":"Feature","geometry":{"type":"MultiPolygon","coordinates":[[[[2.2907945,48.9068069],[2.2905001,48.9066551],[2.291634,48.9056589],[2.2925254,48.9061583],[2.2931008,48.9065408],[2.2934652,48.9068634],[2.2940268,48.9074749],[2.2927875,48.9083496],[2.2927636,48.9083186],[2.2918675,48.9094327],[2.2889735,48.9075884],[2.2898769,48.9070254],[2.2900113,48.9071135],[2.2902901,48.9069659],[2.2904707,48.9070634],[2.2907945,48.9068069]]]]},"properties":{"code_section":"92004000AS","code_commune":"92004","section_courte":"AS"}},{"type":"Feature","geometry":{"type":"MultiPolygon","coordinates":[[[[2.2908737,48.9107056],[2.2863615,48.9096207],[2.2874289,48.9080018],[2.2884341,48.9072446],[2.2918675,48.9094327],[2.2908737,48.9107056]]]]},"properties":{"code_section":"92004000AT","code_commune":"92004","section_courte":"AT"}},{"type":"Feature","geometry":{"type":"MultiPolygon","coordinates":[[[[2.2936305,48.9077533],[2.2940268,48.9074749],[2.294353,48.9077259],[2.2948969,48.9080703],[2.2959744,48.9086274],[2.2957503,48.9088542],[2.2953129,48.9086685],[2.2951273,48.9086446],[2.2950569,48.9086883],[2.2952154,48.9089214],[2.2954885,48.9091221],[2.2944587,48.9101746],[2.2941421,48.9104312],[2.2949034,48.9108432],[2.2944089,48.9112402],[2.2943549,48.9112047],[2.2940086,48.9115272],[2.2934611,48.9112706],[2.2931211,48.9111803],[2.2908737,48.9107056],[2.2927636,48.9083186],[2.2927875,48.9083496],[2.2936305,48.9077533]]]]},"properties":{"code_section":"92004000AU","code_commune":"92004","section_courte":"AU"}},{"type":"Feature","geometry":{"type":"MultiPolygon","coordinates":[[[[2.2957709,48.9088333],[2.2959744,48.9086274],[2.2983297,48.909789],[2.2960615,48.9126179],[2.2954133,48.9122895],[2.2946152,48.9118097],[2.2940086,48.9115272],[2.2943549,48.9112047],[2.2944089,48.9112402],[2.2949034,48.9108432],[2.2941421,48.9104312],[2.2944587,48.9101746],[2.2954885,48.9091221],[2.2952154,48.9089214],[2.2950569,48.9086883],[2.2951273,48.9086446],[2.2953129,48.9086685],[2.2957503,48.9088542],[2.2957709,48.9088333]]]]},"properties":{"code_section":"92004000AV","code_commune":"92004","section_courte":"AV"}},{"type":"Feature","geometry":{"type":"MultiPolygon","coordinates":[[[[2.2998859,48.9103677],[2.3016111,48.910995],[2.2988906,48.9137205],[2.2962549,48.9127196],[2.2960615,48.9126179],[2.2983297,48.909789],[2.2998859,48.9103677]]]]},"properties":{"code_section":"92004000AX","code_commune":"92004","section_courte":"AX"}},{"type":"Feature","geometry":{"type":"MultiPolygon","coordinates":[[[[2.301361,48.9112444],[2.3016111,48.910995],[2.3024439,48.9112222],[2.3042282,48.9115479],[2.3036321,48.9126549],[2.3037903,48.9126911],[2.3017292,48.9151133],[2.3007199,48.9146527],[2.300216,48.914342],[2.2988906,48.9137205],[2.301361,48.9112444]]]]},"properties":{"code_section":"92004000AY","code_commune":"92004","section_courte":"AY"}},{"type":"Feature","geometry":{"type":"MultiPolygon","coordinates":[[[[2.310834,48.9131128],[2.3109288,48.9131442],[2.3079788,48.9174598],[2.3034171,48.9157868],[2.3017292,48.9151133],[2.3037903,48.9126911],[2.3036321,48.9126549],[2.3042282,48.9115479],[2.3074941,48.9121559],[2.3087408,48.9124784],[2.310834,48.9131128]]]]},"properties":{"code_section":"92004000AZ","code_commune":"92004","section_courte":"AZ"}},{"type":"Feature","geometry":{"type":"MultiPolygon","coordinates":[[[[2.3110298,48.9131751],[2.3172651,48.9150945],[2.3167125,48.9158515],[2.3164019,48.9159324],[2.3161766,48.9163384],[2.3155116,48.9172801],[2.3155921,48.9173048],[2.3154822,48.9174564],[2.3155543,48.9174769],[2.3155067,48.9175459],[2.3153026,48.9175025],[2.3147348,48.9184781],[2.3145885,48.9186524],[2.3146247,48.9186691],[2.3141039,48.919795],[2.3099551,48.9183924],[2.3091412,48.9179725],[2.3079788,48.9174598],[2.3109288,48.9131442],[2.3110298,48.9131751]]]]},"properties":{"code_section":"92004000BC","code_commune":"92004","section_courte":"BC"}},{"type":"Feature","geometry":{"type":"MultiPolygon","coordinates":[[[[2.3183337,48.9205415],[2.3177592,48.9208214],[2.3149417,48.9200737],[2.3141039,48.919795],[2.3146247,48.9186691],[2.3145885,48.9186524],[2.3147348,48.9184781],[2.3153026,48.9175025],[2.3155067,48.9175459],[2.3155543,48.9174769],[2.3154822,48.9174564],[2.3155921,48.9173048],[2.3155116,48.9172801],[2.3161766,48.9163384],[2.3164019,48.9159324],[2.3167125,48.9158515],[2.3172651,48.9150945],[2.3198017,48.9159298],[2.3203243,48.9165717],[2.3211233,48.9178098],[2.3216136,48.9184885],[2.3218626,48.9187527],[2.3204025,48.9195834],[2.3183337,48.9205415]]]]},"properties":{"code_section":"92004000BD","code_commune":"92004","section_courte":"BD"}}]}