{"type":"FeatureCollection","features":[{"type":"Feature","geometry":{"type":"MultiPolygon","coordinates":[[[[2.3049938,48.8075404],[2.3046867,48.8072043],[2.3115833,48.8042288],[2.3133623,48.8059973],[2.3135084,48.8059366],[2.3174599,48.8098808],[2.307905,48.8106706],[2.3049938,48.8075404]]]]},"properties":{"code_section":"920070000A","code_commune":"92007","section_courte":"A"}},{"type":"Feature","geometry":{"type":"MultiPolygon","coordinates":[[[[2.3047575,48.8071739],[2.3046867,48.8072043],[2.3040941,48.8065424],[2.3038044,48.8061355],[2.3035033,48.8055543],[2.3033434,48.8050717],[2.3030187,48.8033527],[2.3023439,48.801931],[2.3021765,48.801485],[2.3037329,48.8000521],[2.304681,48.8006416],[2.3046423,48.8006723],[2.3051426,48.8009745],[2.306794,48.8018114],[2.3068622,48.8017993],[2.3069696,48.8018537],[2.3079758,48.8006405],[2.3115833,48.8042288],[2.3047575,48.8071739]]]]},"properties":{"code_section":"920070000B","code_commune":"92007","section_courte":"B"}},{"type":"Feature","geometry":{"type":"MultiPolygon","coordinates":[[[[2.3020691,48.8103816],[2.3017586,48.809999],[2.305928,48.8085546],[2.307905,48.8106706],[2.3026572,48.8111074],[2.3020691,48.8103816]]]]},"properties":{"code_section":"920070000C","code_commune":"92007","section_courte":"C"}},{"type":"Feature","geometry":{"type":"MultiPolygon","coordinates":[[[[2.2946809,48.7985377],[2.2944516,48.7983407],[2.2968761,48.7976789],[2.2971856,48.7981465],[2.2979249,48.7990245],[2.2990714,48.8002544],[2.2998431,48.8011808],[2.3003215,48.8015868],[2.3005982,48.8012379],[2.301407,48.7999803],[2.3021765,48.801485],[2.3023439,48.801931],[2.3030366,48.8034399],[2.2995833,48.8028327],[2.2946809,48.7985377]]]]},"properties":{"code_section":"920070000D","code_commune":"92007","section_courte":"D"}},{"type":"Feature","geometry":{"type":"MultiPolygon","coordinates":[[[[2.2970506,48.7962521],[2.2990897,48.7971523],[2.2983976,48.7977109],[2.2978694,48.7977743],[2.2971856,48.7981465],[2.2968761,48.7976789],[2.2943872,48.7983605],[2.2936384,48.7977681],[2.2928877,48.7970164],[2.2925102,48.7964009],[2.2923324,48.7960043],[2.2933665,48.7959838],[2.2952374,48.7956208],[2.2957758,48.795642],[2.2961612,48.7957538],[2.2970506,48.7962521]]]]},"properties":{"code_section":"920070000E","code_commune":"92007","section_courte":"E"}},{"type":"Feature","geometry":{"type":"MultiPolygon","coordinates":[[[[2.3023771,48.7991464],[2.3023353,48.7991723],[2.3005991,48.7981278],[2.300176,48.7991144],[2.2997089,48.7987554],[2.2983499,48.7995021],[2.2971856,48.7981465],[2.2978694,48.7977743],[2.2983976,48.7977109],[2.2993627,48.7969303],[2.3008517,48.7974578],[2.3012382,48.7973503],[2.3015825,48.7971432],[2.3017154,48.7969319],[2.3025848,48.7969242],[2.30343,48.7969723],[2.3036246,48.7970187],[2.3030572,48.7979396],[2.3037658,48.7982929],[2.3023771,48.7991464]]]]},"properties":{"code_section":"920070000F","code_commune":"92007","section_courte":"F"}},{"type":"Feature","geometry":{"type":"MultiPolygon","coordinates":[[[[2.3022375,48.8014299],[2.3021765,48.801485],[2.301407,48.7999803],[2.3005982,48.8012379],[2.3003215,48.8015868],[2.2998431,48.8011808],[2.2990714,48.8002544],[2.2983499,48.7995021],[2.2997089,48.7987554],[2.300176,48.7991144],[2.3005991,48.7981278],[2.3020082,48.7989663],[2.3037329,48.8000521],[2.3022375,48.8014299]]]]},"properties":{"code_section":"920070000G","code_commune":"92007","section_courte":"G"}},{"type":"Feature","geometry":{"type":"MultiPolygon","coordinates":[[[[2.304681,48.8006416],[2.3023353,48.7991723],[2.3037658,48.7982929],[2.3053362,48.798948],[2.3063587,48.7993109],[2.3080146,48.7999529],[2.3083661,48.8001672],[2.3069696,48.8018537],[2.3068622,48.8017993],[2.306794,48.8018114],[2.3051426,48.8009745],[2.3046423,48.8006723],[2.304681,48.8006416]]]]},"properties":{"code_section":"920070000H","code_commune":"92007","section_courte":"H"}},{"type":"Feature","geometry":{"type":"MultiPolygon","coordinates":[[[[2.3044182,48.7985815],[2.3030572,48.7979396],[2.3036246,48.7970187],[2.3047128,48.7972246],[2.3063126,48.7973608],[2.3079402,48.7974271],[2.3095885,48.7976221],[2.3077572,48.7998536],[2.3044182,48.7985815]]]]},"properties":{"code_section":"920070000I","code_commune":"92007","section_courte":"I"}},{"type":"Feature","geometry":{"type":"MultiPolygon","coordinates":[[[[2.313819,48.8005746],[2.3137777,48.8006875],[2.308959,48.7983892],[2.3095885,48.7976221],[2.3118855,48.7979277],[2.3127192,48.7979768],[2.3138757,48.797926],[2.3138884,48.7979874],[2.3141233,48.797977],[2.3144663,48.7991776],[2.3145133,48.799999],[2.3140332,48.8000076],[2.313819,48.8005746]]]]},"properties":{"code_section":"920070000J","code_commune":"92007","section_courte":"J"}},{"type":"Feature","geometry":{"type":"MultiPolygon","coordinates":[[[[2.3125243,48.8015416],[2.3093644,48.8008825],[2.3081212,48.8000028],[2.3077572,48.7998536],[2.308959,48.7983892],[2.3137777,48.8006875],[2.3134126,48.8016458],[2.3125243,48.8015416]]]]},"properties":{"code_section":"920070000K","code_commune":"92007","section_courte":"K"}},{"type":"Feature","geometry":{"type":"MultiPolygon","coordinates":[[[[2.3080092,48.8006737],[2.3079758,48.8006405],[2.3083661,48.8001672],[2.3093644,48.8008825],[2.3122634,48.8014896],[2.31268,48.8028274],[2.311827,48.8032078],[2.3110183,48.803666],[2.3080092,48.8006737]]]]},"properties":{"code_section":"920070000L","code_commune":"92007","section_courte":"L"}},{"type":"Feature","geometry":{"type":"MultiPolygon","coordinates":[[[[2.3161016,48.8037511],[2.314187,48.8040098],[2.3139757,48.8031299],[2.3128173,48.803256],[2.3122634,48.8014896],[2.3134126,48.8016458],[2.3137777,48.8006875],[2.3164572,48.8019625],[2.317078,48.8036096],[2.3166907,48.8036636],[2.3167006,48.8036987],[2.3165392,48.8037218],[2.3165307,48.8036896],[2.3161016,48.8037511]]]]},"properties":{"code_section":"920070000M","code_commune":"92007","section_courte":"M"}},{"type":"Feature","geometry":{"type":"MultiPolygon","coordinates":[[[[2.3161138,48.805735],[2.3161276,48.805792],[2.3149294,48.8058296],[2.3138668,48.8059416],[2.3135084,48.8059366],[2.3133623,48.8059973],[2.3110183,48.803666],[2.311827,48.8032078],[2.31268,48.8028274],[2.3128173,48.803256],[2.3139757,48.8031299],[2.314187,48.8040098],[2.3154284,48.8038494],[2.3159834,48.805208],[2.3161138,48.805735]]]]},"properties":{"code_section":"920070000N","code_commune":"92007","section_courte":"N"}},{"type":"Feature","geometry":{"type":"MultiPolygon","coordinates":[[[[2.3183459,48.8060345],[2.3178684,48.8083956],[2.3190471,48.8099684],[2.3179693,48.8098798],[2.3174599,48.8098808],[2.3135128,48.8059426],[2.3138668,48.8059416],[2.3149294,48.8058296],[2.3159223,48.8057842],[2.3169021,48.8058211],[2.3183459,48.8060345]]]]},"properties":{"code_section":"920070000O","code_commune":"92007","section_courte":"O"}},{"type":"Feature","geometry":{"type":"MultiPolygon","coordinates":[[[[2.3160901,48.8056381],[2.3159834,48.805208],[2.3154284,48.8038494],[2.3165307,48.8036896],[2.3165392,48.8037218],[2.3167006,48.8036987],[2.3166907,48.8036636],[2.317078,48.8036096],[2.3164572,48.8019625],[2.3179912,48.8020314],[2.3185703,48.8033983],[2.3184827,48.8034107],[2.3190065,48.8044624],[2.3189496,48.8046266],[2.3189889,48.8045396],[2.319368,48.8045989],[2.320026,48.8058114],[2.3192685,48.8060142],[2.3192988,48.80606],[2.3184872,48.8061005],[2.3183344,48.8060873],[2.3183459,48.8060345],[2.3169021,48.8058211],[2.3161276,48.805792],[2.3160901,48.8056381]]]]},"properties":{"code_section":"920070000P","code_commune":"92007","section_courte":"P"}},{"type":"Feature","geometry":{"type":"MultiPolygon","coordinates":[[[[2.3239161,48.8053817],[2.3237367,48.805429],[2.322753,48.8049562],[2.3250863,48.8044532],[2.3259835,48.8067349],[2.3263679,48.8082945],[2.3252482,48.80842],[2.3250053,48.8081538],[2.3247555,48.8076708],[2.324789,48.8070149],[2.3245363,48.8069957],[2.3243436,48.8066813],[2.3244418,48.8058162],[2.3242754,48.8058594],[2.3239966,48.8053612],[2.3239161,48.8053817]]]]},"properties":{"code_section":"920070000Q","code_commune":"92007","section_courte":"Q"}},{"type":"Feature","geometry":{"type":"MultiPolygon","coordinates":[[[[2.3194564,48.8060697],[2.3192988,48.80606],[2.3192681,48.8060147],[2.320026,48.8058114],[2.319368,48.8045989],[2.3189889,48.8045396],[2.3189496,48.8046266],[2.3190065,48.8044624],[2.3187566,48.8039616],[2.3196379,48.8037521],[2.3197968,48.803686],[2.3198917,48.8035988],[2.32019,48.8037404],[2.3217478,48.8032673],[2.3244489,48.8028079],[2.3250863,48.8044532],[2.322753,48.8049562],[2.3237367,48.805429],[2.3217381,48.8059513],[2.3210257,48.8056876],[2.3204199,48.8061277],[2.3194564,48.8060697]]]]},"properties":{"code_section":"920070000R","code_commune":"92007","section_courte":"R"}},{"type":"Feature","geometry":{"type":"MultiPolygon","coordinates":[[[[2.3189279,48.8039196],[2.3187566,48.8039616],[2.3184827,48.8034107],[2.3185703,48.8033983],[2.3179912,48.8020314],[2.3190351,48.8020861],[2.3240588,48.8018233],[2.3244489,48.8028079],[2.3217478,48.8032673],[2.32019,48.8037404],[2.3198917,48.8035988],[2.3197968,48.803686],[2.3196379,48.8037521],[2.3189279,48.8039196]]]]},"properties":{"code_section":"920070000S","code_commune":"92007","section_courte":"S"}},{"type":"Feature","geometry":{"type":"MultiPolygon","coordinates":[[[[2.3182353,48.8014194],[2.3184458,48.8013973],[2.3178766,48.7995528],[2.3189978,48.799403],[2.319177,48.7999765],[2.3213442,48.7997723],[2.3231182,48.7994748],[2.3240588,48.8018233],[2.3190351,48.8020861],[2.3181955,48.8020417],[2.3181447,48.8014225],[2.3182353,48.8014194]]]]},"properties":{"code_section":"920070000T","code_commune":"92007","section_courte":"T"}},{"type":"Feature","geometry":{"type":"MultiPolygon","coordinates":[[[[2.3181962,48.8019958],[2.3181955,48.8020417],[2.3164572,48.8019625],[2.3137777,48.8006875],[2.3140332,48.8000076],[2.3145133,48.799999],[2.3144663,48.7991776],[2.3141233,48.797977],[2.3138884,48.7979874],[2.3138757,48.797926],[2.316179,48.7977916],[2.3174242,48.797818],[2.3178766,48.7995528],[2.3184458,48.8013973],[2.3181447,48.8014225],[2.3181962,48.8019958]]]]},"properties":{"code_section":"920070000U","code_commune":"92007","section_courte":"U"}},{"type":"Feature","geometry":{"type":"MultiPolygon","coordinates":[[[[2.3180199,48.7995343],[2.3178766,48.7995528],[2.3174242,48.797818],[2.3182368,48.7978891],[2.3191198,48.7980386],[2.3195274,48.7981324],[2.3205693,48.7984438],[2.3209329,48.7985148],[2.3217175,48.7985598],[2.3227588,48.798543],[2.3231182,48.7994748],[2.3213442,48.7997723],[2.319177,48.7999765],[2.3189978,48.799403],[2.3180199,48.7995343]]]]},"properties":{"code_section":"920070000V","code_commune":"92007","section_courte":"V"}},{"type":"Feature","geometry":{"type":"MultiPolygon","coordinates":[[[[2.3179819,48.797863],[2.3174242,48.797818],[2.3171266,48.7958734],[2.3186006,48.7960532],[2.3198419,48.7961631],[2.3218142,48.796128],[2.3227588,48.798543],[2.3217175,48.7985598],[2.3209329,48.7985148],[2.3205693,48.7984438],[2.3195274,48.7981324],[2.3191198,48.7980386],[2.3179819,48.797863]]]]},"properties":{"code_section":"920070000X","code_commune":"92007","section_courte":"X"}},{"type":"Feature","geometry":{"type":"MultiPolygon","coordinates":[[[[2.3116626,48.7954401],[2.3116627,48.7953447],[2.3132332,48.7953791],[2.3143874,48.7955731],[2.3171266,48.7958734],[2.3174242,48.797818],[2.316179,48.7977916],[2.3127192,48.7979768],[2.3116156,48.7978919],[2.3116627,48.7969126],[2.3116626,48.7954401]]]]},"properties":{"code_section":"920070000Y","code_commune":"92007","section_courte":"Y"}},{"type":"Feature","geometry":{"type":"MultiPolygon","coordinates":[[[[2.3116174,48.7978389],[2.3116156,48.7978919],[2.3079402,48.7974271],[2.305847,48.7973212],[2.3064626,48.7950805],[2.3075064,48.7950777],[2.3081512,48.7951085],[2.3102834,48.7953389],[2.3116627,48.7953447],[2.3116627,48.7969126],[2.3116174,48.7978389]]]]},"properties":{"code_section":"920070000Z","code_commune":"92007","section_courte":"Z"}},{"type":"Feature","geometry":{"type":"MultiPolygon","coordinates":[[[[2.3050649,48.7950817],[2.3064626,48.7950805],[2.305847,48.7973212],[2.3047128,48.7972246],[2.30343,48.7969723],[2.3025848,48.7969242],[2.3017154,48.7969319],[2.3015782,48.7966127],[2.3015372,48.7963526],[2.3015716,48.7962425],[2.3019061,48.7959241],[2.3008287,48.7953454],[2.3009458,48.7953361],[2.3024101,48.7945985],[2.3025784,48.7945368],[2.30282,48.794507],[2.3030435,48.7945525],[2.3031743,48.7945034],[2.3033075,48.7947337],[2.3034658,48.7947825],[2.3041334,48.7949487],[2.3050649,48.7950817]]]]},"properties":{"code_section":"92007000AB","code_commune":"92007","section_courte":"AB"}},{"type":"Feature","geometry":{"type":"MultiPolygon","coordinates":[[[[2.2994465,48.7949834],[2.3008287,48.7953454],[2.3019061,48.7959241],[2.3015716,48.7962425],[2.3015372,48.7963526],[2.3015782,48.7966127],[2.3017154,48.7969319],[2.3015825,48.7971432],[2.3012382,48.7973503],[2.3008517,48.7974578],[2.2993627,48.7969303],[2.2990897,48.7971523],[2.2970506,48.7962521],[2.2961612,48.7957538],[2.2983289,48.7944122],[2.2994465,48.7949834]]]]},"properties":{"code_section":"92007000AC","code_commune":"92007","section_courte":"AC"}},{"type":"Feature","geometry":{"type":"MultiPolygon","coordinates":[[[[2.3032954,48.7940559],[2.303344,48.7940673],[2.30322,48.7942992],[2.3031743,48.7945034],[2.3030435,48.7945525],[2.30282,48.794507],[2.3025784,48.7945368],[2.3009458,48.7953361],[2.3008287,48.7953454],[2.2994465,48.7949834],[2.2983289,48.7944122],[2.2974425,48.7936792],[2.2979506,48.7932302],[2.298813,48.7923552],[2.3000012,48.7928778],[2.3004754,48.7932445],[2.3015446,48.7937233],[2.3018664,48.7939593],[2.3022668,48.7936162],[2.3032954,48.7940559]]]]},"properties":{"code_section":"92007000AD","code_commune":"92007","section_courte":"AD"}},{"type":"Feature","geometry":{"type":"MultiPolygon","coordinates":[[[[2.3025557,48.7937383],[2.3022668,48.7936162],[2.3018664,48.7939593],[2.3015446,48.7937233],[2.3004754,48.7932445],[2.3000012,48.7928778],[2.298813,48.7923552],[2.2999161,48.7905677],[2.3008221,48.7909368],[2.3012736,48.7910196],[2.3015122,48.7911021],[2.3022276,48.7911977],[2.302728,48.7913398],[2.3033925,48.7914642],[2.3035915,48.7914643],[2.3043588,48.7916401],[2.3037678,48.793383],[2.3036022,48.7937051],[2.303344,48.7940673],[2.3025557,48.7937383]]]]},"properties":{"code_section":"92007000AE","code_commune":"92007","section_courte":"AE"}},{"type":"Feature","geometry":{"type":"MultiPolygon","coordinates":[[[[2.3066083,48.7921785],[2.3065987,48.7928184],[2.3064312,48.794603],[2.3064192,48.7949077],[2.3064626,48.7950805],[2.3050649,48.7950817],[2.3041334,48.7949487],[2.3033075,48.7947337],[2.3031743,48.7945034],[2.30322,48.7942992],[2.3037678,48.793383],[2.3043588,48.7916401],[2.3049421,48.7915515],[2.3053084,48.7915273],[2.3056737,48.7914435],[2.3058662,48.7913805],[2.3063343,48.7910691],[2.3065184,48.7913432],[2.3066265,48.7916366],[2.3066083,48.7921785]]]]},"properties":{"code_section":"92007000AF","code_commune":"92007","section_courte":"AF"}},{"type":"Feature","geometry":{"type":"MultiPolygon","coordinates":[[[[2.311891,48.7952799],[2.3118961,48.7953499],[2.3102834,48.7953389],[2.3081512,48.7951085],[2.3075064,48.7950777],[2.3064626,48.7950805],[2.3064192,48.7949077],[2.3064312,48.794603],[2.3065987,48.7928184],[2.307558,48.792795],[2.3086261,48.7927217],[2.3086546,48.7929016],[2.3111875,48.7922851],[2.311455,48.7929128],[2.3117493,48.7929499],[2.3113739,48.7936946],[2.3114102,48.7940842],[2.3117917,48.7940449],[2.311891,48.7952799]]]]},"properties":{"code_section":"92007000AG","code_commune":"92007","section_courte":"AG"}},{"type":"Feature","geometry":{"type":"MultiPolygon","coordinates":[[[[2.3118601,48.7948968],[2.3117917,48.7940449],[2.3114102,48.7940842],[2.3113739,48.7936946],[2.3117493,48.7929499],[2.311455,48.7929128],[2.3111875,48.7922851],[2.3120857,48.7920663],[2.3123236,48.7919656],[2.3124975,48.7919526],[2.3139191,48.7915536],[2.3143384,48.7923513],[2.3135286,48.792547],[2.3136828,48.7927842],[2.3139243,48.793334],[2.3141816,48.7937875],[2.3141222,48.7938039],[2.3142747,48.7955574],[2.3132332,48.7953791],[2.3118961,48.7953499],[2.3118601,48.7948968]]]]},"properties":{"code_section":"92007000AH","code_commune":"92007","section_courte":"AH"}},{"type":"Feature","geometry":{"type":"MultiPolygon","coordinates":[[[[2.3185947,48.7930111],[2.3157524,48.7933553],[2.3141816,48.7937875],[2.3139243,48.793334],[2.3136828,48.7927842],[2.3135286,48.792547],[2.3143384,48.7923513],[2.3139215,48.7915657],[2.3165342,48.7909735],[2.3170362,48.7918249],[2.3173165,48.7921589],[2.3177411,48.7925289],[2.3185947,48.7930111]]]]},"properties":{"code_section":"92007000AI","code_commune":"92007","section_courte":"AI"}},{"type":"Feature","geometry":{"type":"MultiPolygon","coordinates":[[[[2.3185217,48.795475],[2.318531,48.7960447],[2.3142747,48.7955574],[2.3141222,48.7938039],[2.3157524,48.7933553],[2.3178728,48.793099],[2.3179954,48.7934248],[2.3182737,48.79338],[2.3184435,48.793581],[2.318521,48.793788],[2.3186175,48.7937818],[2.3188438,48.7944207],[2.3185267,48.7944577],[2.3185217,48.795475]]]]},"properties":{"code_section":"92007000AJ","code_commune":"92007","section_courte":"AJ"}},{"type":"Feature","geometry":{"type":"MultiPolygon","coordinates":[[[[2.3185516,48.7948534],[2.3185267,48.7944577],[2.3188438,48.7944207],[2.3186175,48.7937818],[2.318521,48.793788],[2.3184435,48.793581],[2.3182737,48.79338],[2.3179954,48.7934248],[2.3178728,48.793099],[2.3185947,48.7930111],[2.3185876,48.792986],[2.3182568,48.7928412],[2.3177587,48.7925398],[2.318945,48.7922979],[2.3190058,48.7924405],[2.3202891,48.7921469],[2.3218142,48.796128],[2.3198419,48.7961631],[2.318531,48.7960447],[2.3185117,48.794855],[2.3185516,48.7948534]]]]},"properties":{"code_section":"92007000AK","code_commune":"92007","section_courte":"AK"}},{"type":"Feature","geometry":{"type":"MultiPolygon","coordinates":[[[[2.3182722,48.7924316],[2.3177587,48.7925398],[2.3173165,48.7921589],[2.3170362,48.7918249],[2.3163744,48.7906978],[2.3152504,48.7890229],[2.318671,48.7879759],[2.3202891,48.7921469],[2.3190058,48.7924405],[2.318945,48.7922979],[2.3182722,48.7924316]]]]},"properties":{"code_section":"92007000AL","code_commune":"92007","section_courte":"AL"}},{"type":"Feature","geometry":{"type":"MultiPolygon","coordinates":[[[[2.3148438,48.7913501],[2.3139191,48.7915536],[2.312472,48.7919545],[2.3116751,48.7907797],[2.311275,48.7902553],[2.3111698,48.7902283],[2.3112564,48.7902015],[2.3107748,48.789402],[2.3108005,48.7893629],[2.3109363,48.7893137],[2.3124947,48.7893959],[2.3124602,48.7893189],[2.3141078,48.78939],[2.3152504,48.7890229],[2.3165342,48.7909735],[2.3148438,48.7913501]]]]},"properties":{"code_section":"92007000AM","code_commune":"92007","section_courte":"AM"}},{"type":"Feature","geometry":{"type":"MultiPolygon","coordinates":[[[[2.3069685,48.7928144],[2.3065987,48.7928184],[2.3066265,48.7916366],[2.3065184,48.7913432],[2.3062952,48.7910477],[2.3064143,48.7909131],[2.3066229,48.7908486],[2.3072614,48.7907464],[2.3095834,48.7904165],[2.3107631,48.7903075],[2.3111698,48.7902283],[2.311275,48.7902553],[2.3116751,48.7907797],[2.312472,48.7919545],[2.3123236,48.7919656],[2.3120857,48.7920663],[2.3086546,48.7929016],[2.3086261,48.7927217],[2.3069685,48.7928144]]]]},"properties":{"code_section":"92007000AN","code_commune":"92007","section_courte":"AN"}},{"type":"Feature","geometry":{"type":"MultiPolygon","coordinates":[[[[2.3111698,48.7902283],[2.3107631,48.7903075],[2.3095834,48.7904165],[2.3067241,48.7908334],[2.3068209,48.7905907],[2.3074628,48.7897651],[2.3078318,48.7894784],[2.3085045,48.7887625],[2.3084047,48.7885351],[2.3083374,48.7882256],[2.3091999,48.7881659],[2.3092155,48.7882517],[2.3093418,48.7881801],[2.3096923,48.7880798],[2.3104226,48.7876652],[2.3112755,48.7873628],[2.3114482,48.7875207],[2.3115242,48.7876429],[2.3117628,48.7881952],[2.3121751,48.7887552],[2.3124947,48.7893959],[2.3109363,48.7893137],[2.3108192,48.7893478],[2.3107748,48.789402],[2.3112564,48.7902015],[2.3111698,48.7902283]]]]},"properties":{"code_section":"92007000AO","code_commune":"92007","section_courte":"AO"}},{"type":"Feature","geometry":{"type":"MultiPolygon","coordinates":[[[[2.308498,48.788768],[2.3078318,48.7894784],[2.3074628,48.7897651],[2.3068209,48.7905907],[2.3067241,48.7908334],[2.3064143,48.7909131],[2.3062952,48.7910477],[2.3063343,48.7910691],[2.3058662,48.7913805],[2.3053084,48.7915273],[2.3049421,48.7915515],[2.3043588,48.7916401],[2.3036212,48.7914707],[2.3036112,48.7913378],[2.303865,48.7900863],[2.3045295,48.7885074],[2.3048813,48.7885229],[2.3052718,48.7885816],[2.305588,48.78854],[2.3060701,48.7885546],[2.3067163,48.7885302],[2.3066961,48.7884089],[2.3081706,48.7883105],[2.3081567,48.7882366],[2.3083374,48.7882256],[2.308498,48.788768]]]]},"properties":{"code_section":"92007000AP","code_commune":"92007","section_courte":"AP"}},{"type":"Feature","geometry":{"type":"MultiPolygon","coordinates":[[[[2.3001108,48.7906464],[2.2999161,48.7905677],[2.3018133,48.7875177],[2.3035532,48.7878777],[2.3036619,48.7876659],[2.3044298,48.7876764],[2.3045318,48.7885272],[2.303865,48.7900863],[2.3036112,48.7913378],[2.3036212,48.7914707],[2.3032015,48.7914337],[2.302728,48.7913398],[2.3022276,48.7911977],[2.3015122,48.7911021],[2.3012736,48.7910196],[2.3008221,48.7909368],[2.3001108,48.7906464]]]]},"properties":{"code_section":"92007000AQ","code_commune":"92007","section_courte":"AQ"}},{"type":"Feature","geometry":{"type":"MultiPolygon","coordinates":[[[[2.3054659,48.7863121],[2.3054735,48.7863542],[2.3047376,48.7863736],[2.3049408,48.7874867],[2.3048737,48.7874968],[2.304889,48.7876278],[2.3051198,48.7882005],[2.3052607,48.7881984],[2.3052916,48.7885787],[2.3045295,48.7885074],[2.3044298,48.7876764],[2.3036619,48.7876659],[2.3035532,48.7878777],[2.3018133,48.7875177],[2.3031186,48.7855318],[2.3036122,48.7853161],[2.3041026,48.7852002],[2.3051798,48.7850747],[2.3051961,48.7851409],[2.3050532,48.7851564],[2.3051434,48.7855288],[2.3052831,48.785519],[2.3054659,48.7863121]]]]},"properties":{"code_section":"92007000AR","code_commune":"92007","section_courte":"AR"}},{"type":"Feature","geometry":{"type":"MultiPolygon","coordinates":[[[[2.3085665,48.7882096],[2.3081567,48.7882366],[2.3081706,48.7883105],[2.3066961,48.7884089],[2.3067163,48.7885302],[2.3060701,48.7885546],[2.305588,48.78854],[2.3052916,48.7885787],[2.3052607,48.7881984],[2.3051198,48.7882005],[2.304889,48.7876278],[2.3048737,48.7874968],[2.3049408,48.7874867],[2.3047376,48.7863736],[2.3064473,48.7863224],[2.3109627,48.7860997],[2.311193,48.7872838],[2.3112755,48.7873628],[2.3104226,48.7876652],[2.3096923,48.7880798],[2.3093418,48.7881801],[2.3092155,48.7882517],[2.3091999,48.7881659],[2.3085665,48.7882096]]]]},"properties":{"code_section":"92007000AS","code_commune":"92007","section_courte":"AS"}},{"type":"Feature","geometry":{"type":"MultiPolygon","coordinates":[[[[2.3053074,48.7856243],[2.3052831,48.785519],[2.3051434,48.7855288],[2.3050532,48.7851564],[2.3051961,48.7851409],[2.3051798,48.7850747],[2.3061789,48.7849699],[2.3096981,48.7848976],[2.3108423,48.7857765],[2.3109627,48.7860997],[2.3054735,48.7863542],[2.3053074,48.7856243]]]]},"properties":{"code_section":"92007000AT","code_commune":"92007","section_courte":"AT"}}]}