{"type":"FeatureCollection","features":[{"type":"Feature","geometry":{"type":"MultiPolygon","coordinates":[[[[2.2255326,48.8478882],[2.225528,48.8478232],[2.2273188,48.8476929],[2.2273419,48.8479908],[2.2293414,48.8476694],[2.2329022,48.8474098],[2.2332555,48.8473187],[2.233423,48.8472426],[2.2334574,48.8475612],[2.2347146,48.8473599],[2.23489,48.847787],[2.2354621,48.8486044],[2.2355448,48.8486306],[2.2372593,48.8484047],[2.2378004,48.8504396],[2.2265767,48.8529051],[2.2241306,48.8534659],[2.2242984,48.8529203],[2.2249904,48.8511123],[2.225349,48.8498745],[2.2254412,48.8494102],[2.2255326,48.8478882]]]]},"properties":{"code_section":"920120000A","code_commune":"92012","section_courte":"A"}},{"type":"Feature","geometry":{"type":"MultiPolygon","coordinates":[[[[2.2270624,48.8477124],[2.225528,48.8478232],[2.2254657,48.8471281],[2.2253013,48.8462691],[2.2249421,48.8451619],[2.2299686,48.8448774],[2.2304817,48.8475874],[2.2293414,48.8476694],[2.2273419,48.8479908],[2.2273188,48.8476929],[2.2270624,48.8477124]]]]},"properties":{"code_section":"920120000B","code_commune":"92012","section_courte":"B"}},{"type":"Feature","geometry":{"type":"MultiPolygon","coordinates":[[[[2.226296,48.8450871],[2.2249421,48.8451619],[2.2244135,48.8435546],[2.2293824,48.8427231],[2.2299686,48.8448774],[2.226296,48.8450871]]]]},"properties":{"code_section":"920120000C","code_commune":"92012","section_courte":"C"}},{"type":"Feature","geometry":{"type":"MultiPolygon","coordinates":[[[[2.2256142,48.843351],[2.2244135,48.8435546],[2.2241975,48.8425273],[2.2237579,48.8412956],[2.2255684,48.8411592],[2.2279217,48.8408202],[2.2279183,48.8406447],[2.2279915,48.8405372],[2.2281161,48.8404528],[2.2282768,48.8404017],[2.2284544,48.8403898],[2.2287064,48.8404471],[2.2288359,48.8405311],[2.2289146,48.840636],[2.2289139,48.8408115],[2.2287555,48.8409827],[2.2289608,48.8411364],[2.2293824,48.8427231],[2.2256142,48.843351]]]]},"properties":{"code_section":"920120000D","code_commune":"92012","section_courte":"D"}},{"type":"Feature","geometry":{"type":"MultiPolygon","coordinates":[[[[2.2296995,48.8429587],[2.229451,48.8429909],[2.2289608,48.8411364],[2.2287555,48.8409827],[2.2288904,48.8408579],[2.2289251,48.8406841],[2.2338618,48.8402473],[2.2348652,48.8416044],[2.2346104,48.8428049],[2.2338109,48.8428143],[2.2338432,48.8424618],[2.2336048,48.8424439],[2.2335909,48.8425354],[2.2330444,48.8424937],[2.2330038,48.8427256],[2.2314251,48.8427572],[2.2296995,48.8429587]]]]},"properties":{"code_section":"920120000E","code_commune":"92012","section_courte":"E"}},{"type":"Feature","geometry":{"type":"MultiPolygon","coordinates":[[[[2.2345418,48.8428059],[2.2346104,48.8428049],[2.2344719,48.8447439],[2.2343386,48.8446822],[2.2335313,48.8446793],[2.2299686,48.8448774],[2.229451,48.8429909],[2.2314251,48.8427572],[2.2330038,48.8427256],[2.2330444,48.8424937],[2.2335909,48.8425354],[2.2336048,48.8424439],[2.2338432,48.8424618],[2.2338109,48.8428143],[2.2345418,48.8428059]]]]},"properties":{"code_section":"920120000F","code_commune":"92012","section_courte":"F"}},{"type":"Feature","geometry":{"type":"MultiPolygon","coordinates":[[[[2.2358023,48.8453585],[2.236128,48.8454998],[2.2359944,48.8468078],[2.2341007,48.84697],[2.233801,48.847053],[2.2333039,48.8473025],[2.2329022,48.8474098],[2.2304817,48.8475874],[2.2299686,48.8448774],[2.2335313,48.8446793],[2.2343386,48.8446822],[2.2358023,48.8453585]]]]},"properties":{"code_section":"920120000G","code_commune":"92012","section_courte":"G"}},{"type":"Feature","geometry":{"type":"MultiPolygon","coordinates":[[[[2.2334574,48.8475612],[2.233423,48.8472426],[2.233801,48.847053],[2.2341007,48.84697],[2.2368147,48.846734],[2.2372593,48.8484047],[2.2355448,48.8486306],[2.2354621,48.8486044],[2.23489,48.847787],[2.2347146,48.8473599],[2.2334574,48.8475612]]]]},"properties":{"code_section":"920120000H","code_commune":"92012","section_courte":"H"}},{"type":"Feature","geometry":{"type":"MultiPolygon","coordinates":[[[[2.2413693,48.8478105],[2.2420419,48.8480994],[2.2403223,48.8496029],[2.2398809,48.8498746],[2.2393997,48.8500714],[2.2378004,48.8504396],[2.2372485,48.8483638],[2.2413693,48.8478105]]]]},"properties":{"code_section":"920120000I","code_commune":"92012","section_courte":"I"}},{"type":"Feature","geometry":{"type":"MultiPolygon","coordinates":[[[[2.2418863,48.8471151],[2.2419321,48.8480523],[2.2413693,48.8478105],[2.2372485,48.8483638],[2.2368147,48.846734],[2.2385195,48.846548],[2.2389795,48.846443],[2.2409821,48.8461289],[2.2411668,48.8465532],[2.2417678,48.8469456],[2.2418863,48.8471151]]]]},"properties":{"code_section":"920120000J","code_commune":"92012","section_courte":"J"}},{"type":"Feature","geometry":{"type":"MultiPolygon","coordinates":[[[[2.2371391,48.8466974],[2.2359944,48.8468078],[2.236128,48.8454998],[2.2370143,48.8458844],[2.2372236,48.8450382],[2.2377156,48.8450316],[2.240558,48.8445191],[2.2409821,48.8461289],[2.2389795,48.846443],[2.2385195,48.846548],[2.2371391,48.8466974]]]]},"properties":{"code_section":"920120000K","code_commune":"92012","section_courte":"K"}},{"type":"Feature","geometry":{"type":"MultiPolygon","coordinates":[[[[2.2390649,48.843656],[2.2394748,48.8437086],[2.2391933,48.8447653],[2.2377156,48.8450316],[2.2372236,48.8450382],[2.2370143,48.8458844],[2.2344719,48.8447439],[2.2345765,48.8432912],[2.2366039,48.8433473],[2.2390649,48.843656]]]]},"properties":{"code_section":"920120000L","code_commune":"92012","section_courte":"L"}},{"type":"Feature","geometry":{"type":"MultiPolygon","coordinates":[[[[2.236431,48.8433389],[2.2345765,48.8432912],[2.2346104,48.8428049],[2.2348652,48.8416044],[2.2372409,48.8416552],[2.2390885,48.8414224],[2.2401586,48.8411559],[2.240187,48.8411695],[2.2394748,48.8437086],[2.236431,48.8433389]]]]},"properties":{"code_section":"920120000M","code_commune":"92012","section_courte":"M"}},{"type":"Feature","geometry":{"type":"MultiPolygon","coordinates":[[[[2.2348652,48.8416044],[2.2338618,48.8402473],[2.2397798,48.83972],[2.2396223,48.8401607],[2.2397168,48.8401746],[2.2393887,48.8408909],[2.2390885,48.8414224],[2.2372409,48.8416552],[2.2348652,48.8416044]]]]},"properties":{"code_section":"920120000N","code_commune":"92012","section_courte":"N"}},{"type":"Feature","geometry":{"type":"MultiPolygon","coordinates":[[[[2.2449549,48.8401972],[2.2441456,48.8420535],[2.2401232,48.8413962],[2.240187,48.8411695],[2.2401586,48.8411559],[2.2390885,48.8414224],[2.2393887,48.8408909],[2.2397168,48.8401746],[2.2396223,48.8401607],[2.2397798,48.83972],[2.2456025,48.8392026],[2.2449549,48.8401972]]]]},"properties":{"code_section":"920120000O","code_commune":"92012","section_courte":"O"}},{"type":"Feature","geometry":{"type":"MultiPolygon","coordinates":[[[[2.2407436,48.8444834],[2.2391933,48.8447653],[2.2401232,48.8413962],[2.2441456,48.8420535],[2.2433119,48.8439769],[2.2407436,48.8444834]]]]},"properties":{"code_section":"920120000P","code_commune":"92012","section_courte":"P"}},{"type":"Feature","geometry":{"type":"MultiPolygon","coordinates":[[[[2.2474053,48.8408465],[2.2467828,48.8421595],[2.2473521,48.8431125],[2.2461986,48.8434076],[2.2437582,48.8429428],[2.2449549,48.8401972],[2.2456025,48.8392026],[2.2468245,48.8390948],[2.2477609,48.8406857],[2.2474053,48.8408465]]]]},"properties":{"code_section":"920120000Q","code_commune":"92012","section_courte":"Q"}},{"type":"Feature","geometry":{"type":"MultiPolygon","coordinates":[[[[2.2412911,48.8460735],[2.2409821,48.8461289],[2.240558,48.8445191],[2.2433119,48.8439769],[2.2437582,48.8429428],[2.2461986,48.8434076],[2.2462576,48.8433924],[2.2471728,48.8449711],[2.2446282,48.8456275],[2.2412911,48.8460735]]]]},"properties":{"code_section":"920120000R","code_commune":"92012","section_courte":"R"}},{"type":"Feature","geometry":{"type":"MultiPolygon","coordinates":[[[[2.2469962,48.8453674],[2.24714,48.845346],[2.2472782,48.8455862],[2.2472469,48.8456364],[2.2475877,48.8462177],[2.2475436,48.8462282],[2.247641,48.8463964],[2.2424356,48.8477362],[2.2420419,48.8480994],[2.2419321,48.8480523],[2.2418863,48.8471151],[2.2417678,48.8469456],[2.2411668,48.8465532],[2.2409821,48.8461289],[2.2446282,48.8456275],[2.246687,48.8450958],[2.2468165,48.8453056],[2.2469962,48.8453674]]]]},"properties":{"code_section":"920120000S","code_commune":"92012","section_courte":"S"}},{"type":"Feature","geometry":{"type":"MultiPolygon","coordinates":[[[[2.24714,48.845346],[2.2470035,48.8453797],[2.2468165,48.8453056],[2.246687,48.8450958],[2.2512194,48.8439294],[2.2517231,48.8439158],[2.252538,48.8455684],[2.2506541,48.8456206],[2.247641,48.8463964],[2.2475436,48.8462282],[2.2475877,48.8462177],[2.2472469,48.8456364],[2.2472782,48.8455862],[2.24714,48.845346]]]]},"properties":{"code_section":"920120000T","code_commune":"92012","section_courte":"T"}},{"type":"Feature","geometry":{"type":"MultiPolygon","coordinates":[[[[2.2516965,48.843863],[2.2517231,48.8439158],[2.2512194,48.8439294],[2.2471728,48.8449711],[2.2462576,48.8433924],[2.2503967,48.8423336],[2.2512604,48.8425078],[2.2512193,48.8428915],[2.2516965,48.843863]]]]},"properties":{"code_section":"920120000U","code_commune":"92012","section_courte":"U"}},{"type":"Feature","geometry":{"type":"MultiPolygon","coordinates":[[[[2.2512725,48.842396],[2.2512604,48.8425078],[2.2503967,48.8423336],[2.2473521,48.8431125],[2.2467828,48.8421595],[2.2474053,48.8408465],[2.2513348,48.8390726],[2.2516139,48.8392039],[2.2512725,48.842396]]]]},"properties":{"code_section":"920120000V","code_commune":"92012","section_courte":"V"}},{"type":"Feature","geometry":{"type":"MultiPolygon","coordinates":[[[[2.251627,48.8390914],[2.2516139,48.8392039],[2.2513348,48.8390726],[2.2477609,48.8406857],[2.2468245,48.8390948],[2.2479413,48.8375813],[2.2523057,48.8381355],[2.2516488,48.8389059],[2.251627,48.8390914]]]]},"properties":{"code_section":"920120000X","code_commune":"92012","section_courte":"X"}},{"type":"Feature","geometry":{"type":"MultiPolygon","coordinates":[[[[2.2457733,48.837309],[2.2468245,48.8390948],[2.2400722,48.8396938],[2.2417095,48.8367975],[2.2457733,48.837309]]]]},"properties":{"code_section":"920120000Y","code_commune":"92012","section_courte":"Y"}},{"type":"Feature","geometry":{"type":"MultiPolygon","coordinates":[[[[2.2405366,48.8366498],[2.2417095,48.8367975],[2.2400722,48.8396938],[2.2374528,48.839929],[2.2378389,48.8373903],[2.237958,48.8363249],[2.2405366,48.8366498]]]]},"properties":{"code_section":"920120000Z","code_commune":"92012","section_courte":"Z"}},{"type":"Feature","geometry":{"type":"MultiPolygon","coordinates":[[[[2.2376182,48.8362817],[2.237958,48.8363249],[2.2378389,48.8373903],[2.2374528,48.839929],[2.2338618,48.8402473],[2.2344888,48.8358884],[2.2376182,48.8362817]]]]},"properties":{"code_section":"92012000AB","code_commune":"92012","section_courte":"AB"}},{"type":"Feature","geometry":{"type":"MultiPolygon","coordinates":[[[[2.2301367,48.8389443],[2.2303378,48.8389405],[2.2303435,48.8388675],[2.2319908,48.8389404],[2.2319702,48.8391163],[2.2340226,48.8392513],[2.2338618,48.8402473],[2.2289251,48.8406841],[2.2288359,48.8405311],[2.2286274,48.8404189],[2.2283061,48.8389839],[2.2301367,48.8389443]]]]},"properties":{"code_section":"92012000AC","code_commune":"92012","section_courte":"AC"}},{"type":"Feature","geometry":{"type":"MultiPolygon","coordinates":[[[[2.2329779,48.8391825],[2.2319702,48.8391163],[2.2319908,48.8389404],[2.2303435,48.8388675],[2.230592,48.8363303],[2.2307211,48.8354124],[2.2344888,48.8358884],[2.2340226,48.8392513],[2.2329779,48.8391825]]]]},"properties":{"code_section":"92012000AD","code_commune":"92012","section_courte":"AD"}},{"type":"Feature","geometry":{"type":"MultiPolygon","coordinates":[[[[2.228392,48.8389821],[2.2283061,48.8389839],[2.2279519,48.8372253],[2.2279255,48.8355853],[2.2280561,48.8350774],[2.2307211,48.8354124],[2.230415,48.8379573],[2.2303378,48.8389405],[2.228392,48.8389821]]]]},"properties":{"code_section":"92012000AE","code_commune":"92012","section_courte":"AE"}},{"type":"Feature","geometry":{"type":"MultiPolygon","coordinates":[[[[2.2281591,48.8387143],[2.2282421,48.8387071],[2.2286274,48.8404189],[2.2283649,48.8403907],[2.2281161,48.8404528],[2.2279915,48.8405372],[2.2279183,48.8406447],[2.2279217,48.8408202],[2.2255684,48.8411592],[2.2237579,48.8412956],[2.2233338,48.8403207],[2.2233301,48.8402205],[2.2228494,48.8388166],[2.2242693,48.8389408],[2.2251901,48.8389765],[2.2281591,48.8387143]]]]},"properties":{"code_section":"92012000AF","code_commune":"92012","section_courte":"AF"}},{"type":"Feature","geometry":{"type":"MultiPolygon","coordinates":[[[[2.2263946,48.8365209],[2.2279471,48.8365093],[2.2279519,48.8372253],[2.2282421,48.8387071],[2.2251901,48.8389765],[2.2242693,48.8389408],[2.2228494,48.8388166],[2.2228022,48.8383378],[2.2228344,48.8378583],[2.2230703,48.8366031],[2.2232061,48.8361885],[2.2263946,48.8365209]]]]},"properties":{"code_section":"92012000AG","code_commune":"92012","section_courte":"AG"}},{"type":"Feature","geometry":{"type":"MultiPolygon","coordinates":[[[[2.2241755,48.8362907],[2.2232061,48.8361885],[2.2234351,48.8358538],[2.2246177,48.8345055],[2.2253401,48.8336032],[2.2262046,48.8337337],[2.2263192,48.8335861],[2.2269973,48.833843],[2.2269906,48.8338679],[2.2277085,48.8340358],[2.2275348,48.834313],[2.2282875,48.8344867],[2.2281325,48.8347938],[2.2279255,48.8355853],[2.2279471,48.8365093],[2.2263946,48.8365209],[2.2241755,48.8362907]]]]},"properties":{"code_section":"92012000AH","code_commune":"92012","section_courte":"AH"}},{"type":"Feature","geometry":{"type":"MultiPolygon","coordinates":[[[[2.2271231,48.8338995],[2.2263192,48.8335861],[2.2262046,48.8337337],[2.2253401,48.8336032],[2.2257597,48.8330078],[2.2260926,48.8323767],[2.226286,48.8316392],[2.2264056,48.8307126],[2.2280098,48.8312155],[2.227877,48.8316859],[2.2295736,48.832048],[2.2294197,48.8322546],[2.2282875,48.8344867],[2.2275348,48.834313],[2.2277085,48.8340358],[2.2271231,48.8338995]]]]},"properties":{"code_section":"92012000AI","code_commune":"92012","section_courte":"AI"}},{"type":"Feature","geometry":{"type":"MultiPolygon","coordinates":[[[[2.2275344,48.8310668],[2.2264056,48.8307126],[2.2267919,48.8293484],[2.2271577,48.8285418],[2.2314937,48.8298898],[2.2295736,48.832048],[2.227877,48.8316859],[2.2280098,48.8312155],[2.2275344,48.8310668]]]]},"properties":{"code_section":"92012000AJ","code_commune":"92012","section_courte":"AJ"}},{"type":"Feature","geometry":{"type":"MultiPolygon","coordinates":[[[[2.2291155,48.8328924],[2.2292177,48.8326697],[2.2334815,48.8333049],[2.2324511,48.835631],[2.2280561,48.8350774],[2.228151,48.8347494],[2.2291155,48.8328924]]]]},"properties":{"code_section":"92012000AK","code_commune":"92012","section_courte":"AK"}},{"type":"Feature","geometry":{"type":"MultiPolygon","coordinates":[[[[2.2340037,48.832129],[2.2334815,48.8333049],[2.2292177,48.8326697],[2.2294197,48.8322546],[2.2295475,48.8320776],[2.2314937,48.8298898],[2.2347207,48.8308939],[2.2340037,48.832129]]]]},"properties":{"code_section":"92012000AL","code_commune":"92012","section_courte":"AL"}},{"type":"Feature","geometry":{"type":"MultiPolygon","coordinates":[[[[2.2368809,48.8355004],[2.2366233,48.8361566],[2.2324511,48.835631],[2.2335011,48.8332608],[2.2375058,48.83384],[2.2368809,48.8355004]]]]},"properties":{"code_section":"92012000AM","code_commune":"92012","section_courte":"AM"}},{"type":"Feature","geometry":{"type":"MultiPolygon","coordinates":[[[[2.2375754,48.8336379],[2.2375058,48.83384],[2.2335011,48.8332608],[2.2340037,48.832129],[2.2347207,48.8308939],[2.2381835,48.8319727],[2.2375754,48.8336379]]]]},"properties":{"code_section":"92012000AN","code_commune":"92012","section_courte":"AN"}},{"type":"Feature","geometry":{"type":"MultiPolygon","coordinates":[[[[2.2419691,48.8363384],[2.2417095,48.8367975],[2.2366233,48.8361566],[2.2373225,48.8343873],[2.2394885,48.8347517],[2.239676,48.8341675],[2.2428674,48.834758],[2.2419691,48.8363384]]]]},"properties":{"code_section":"92012000AO","code_commune":"92012","section_courte":"AO"}},{"type":"Feature","geometry":{"type":"MultiPolygon","coordinates":[[[[2.2394885,48.8347517],[2.2373225,48.8343873],[2.2381835,48.8319727],[2.2435059,48.8336247],[2.2428674,48.834758],[2.239676,48.8341675],[2.2394885,48.8347517]]]]},"properties":{"code_section":"92012000AP","code_commune":"92012","section_courte":"AP"}},{"type":"Feature","geometry":{"type":"MultiPolygon","coordinates":[[[[2.2456628,48.8342921],[2.2469525,48.8346921],[2.2461459,48.8364219],[2.2456866,48.8362671],[2.2451376,48.8362366],[2.2457733,48.837309],[2.2417095,48.8367975],[2.2435059,48.8336247],[2.2456628,48.8342921]]]]},"properties":{"code_section":"92012000AQ","code_commune":"92012","section_courte":"AQ"}},{"type":"Feature","geometry":{"type":"MultiPolygon","coordinates":[[[[2.2465193,48.8356233],[2.2469525,48.8346921],[2.2494887,48.8354811],[2.2468245,48.8390948],[2.2451376,48.8362366],[2.2456866,48.8362671],[2.2461459,48.8364219],[2.2465193,48.8356233]]]]},"properties":{"code_section":"92012000AR","code_commune":"92012","section_courte":"AR"}},{"type":"Feature","geometry":{"type":"MultiPolygon","coordinates":[[[[2.2486614,48.8376732],[2.2479413,48.8375813],[2.2493391,48.8356841],[2.2530071,48.8373156],[2.2523057,48.8381355],[2.2486614,48.8376732]]]]},"properties":{"code_section":"92012000AS","code_commune":"92012","section_courte":"AS"}},{"type":"Feature","geometry":{"type":"MultiPolygon","coordinates":[[[[2.2530071,48.8373156],[2.2493391,48.8356841],[2.2502358,48.8344669],[2.2541937,48.8359232],[2.2530071,48.8373156]]]]},"properties":{"code_section":"92012000AT","code_commune":"92012","section_courte":"AT"}},{"type":"Feature","geometry":{"type":"MultiPolygon","coordinates":[[[[2.2494887,48.8354811],[2.2435059,48.8336247],[2.2442687,48.8322714],[2.2502358,48.8344669],[2.2494887,48.8354811]]]]},"properties":{"code_section":"92012000AU","code_commune":"92012","section_courte":"AU"}},{"type":"Feature","geometry":{"type":"MultiPolygon","coordinates":[[[[2.2431148,48.8335021],[2.2381835,48.8319727],[2.2388321,48.8302743],[2.2442687,48.8322714],[2.2435059,48.8336247],[2.2431148,48.8335021]]]]},"properties":{"code_section":"92012000AV","code_commune":"92012","section_courte":"AV"}},{"type":"Feature","geometry":{"type":"MultiPolygon","coordinates":[[[[2.238841,48.8302331],[2.2381835,48.8319727],[2.2367009,48.8315094],[2.237423,48.8297544],[2.2363582,48.8293649],[2.2387059,48.8284481],[2.2390752,48.8300615],[2.2389291,48.8301241],[2.238841,48.8302331]]]]},"properties":{"code_section":"92012000AX","code_commune":"92012","section_courte":"AX"}},{"type":"Feature","geometry":{"type":"MultiPolygon","coordinates":[[[[2.2326069,48.8280934],[2.2326789,48.8280089],[2.237423,48.8297544],[2.2367009,48.8315094],[2.2314937,48.8298898],[2.2316849,48.8296609],[2.2315835,48.8295882],[2.2319212,48.8291901],[2.2322865,48.8290664],[2.2325185,48.8288375],[2.232485,48.8288246],[2.2324824,48.8286904],[2.232352,48.828642],[2.2322885,48.8285714],[2.2325238,48.8282899],[2.2324598,48.8282665],[2.2326069,48.8280934]]]]},"properties":{"code_section":"92012000AY","code_commune":"92012","section_courte":"AY"}},{"type":"Feature","geometry":{"type":"MultiPolygon","coordinates":[[[[2.2316459,48.8296988],[2.2314937,48.8298898],[2.2271577,48.8285418],[2.2273034,48.8282713],[2.2273507,48.8280419],[2.2281371,48.8280151],[2.2283555,48.8279757],[2.2286845,48.8277986],[2.2291381,48.8274467],[2.2298665,48.8269715],[2.2326789,48.8280089],[2.2324598,48.8282665],[2.2325238,48.8282899],[2.2322885,48.8285714],[2.232352,48.828642],[2.2324824,48.8286904],[2.232485,48.8288246],[2.2325185,48.8288375],[2.2322865,48.8290664],[2.2319212,48.8291901],[2.2315835,48.8295882],[2.2316849,48.8296609],[2.2316459,48.8296988]]]]},"properties":{"code_section":"92012000AZ","code_commune":"92012","section_courte":"AZ"}},{"type":"Feature","geometry":{"type":"MultiPolygon","coordinates":[[[[2.2308067,48.8264746],[2.2298665,48.8269715],[2.2291381,48.8274467],[2.2286845,48.8277986],[2.2283555,48.8279757],[2.2281371,48.8280151],[2.2273673,48.8280328],[2.2273194,48.8279945],[2.227273,48.8276657],[2.2272959,48.827383],[2.2274658,48.8269997],[2.2280107,48.8262919],[2.2283831,48.8258769],[2.2295021,48.8248265],[2.2305797,48.8240155],[2.231648,48.8233443],[2.233405,48.8224347],[2.2343595,48.8220551],[2.2350635,48.8218472],[2.2363559,48.8215331],[2.2363152,48.8215493],[2.2368077,48.8215033],[2.2377245,48.8215251],[2.238625,48.82163],[2.2394614,48.821801],[2.2401184,48.8220175],[2.2416878,48.8226498],[2.2403614,48.8226057],[2.2396496,48.8226645],[2.2389683,48.8227841],[2.2376084,48.8232313],[2.235192,48.8242198],[2.2334739,48.8250408],[2.2308067,48.8264746]]]]},"properties":{"code_section":"92012000BC","code_commune":"92012","section_courte":"BC"}},{"type":"Feature","geometry":{"type":"MultiPolygon","coordinates":[[[[2.2391075,48.828291],[2.2363582,48.8293649],[2.2298665,48.8269715],[2.2334739,48.8250408],[2.2357612,48.8239699],[2.2376084,48.8232313],[2.2389683,48.8227841],[2.2396496,48.8226645],[2.2403614,48.8226057],[2.2416878,48.8226498],[2.241995,48.8268415],[2.2415723,48.8273211],[2.2391075,48.828291]]]]},"properties":{"code_section":"92012000BD","code_commune":"92012","section_courte":"BD"}},{"type":"Feature","geometry":{"type":"MultiPolygon","coordinates":[[[[2.2423271,48.8315589],[2.2388321,48.8302743],[2.2388902,48.8301568],[2.2390752,48.8300615],[2.2387059,48.8284481],[2.2415723,48.8273211],[2.2420419,48.8275467],[2.2423271,48.8315589]]]]},"properties":{"code_section":"92012000BE","code_commune":"92012","section_courte":"BE"}},{"type":"Feature","geometry":{"type":"MultiPolygon","coordinates":[[[[2.2456731,48.8290437],[2.2461491,48.828934],[2.2442687,48.8322714],[2.2423271,48.8315589],[2.2421973,48.8297323],[2.2456731,48.8290437]]]]},"properties":{"code_section":"92012000BF","code_commune":"92012","section_courte":"BF"}},{"type":"Feature","geometry":{"type":"MultiPolygon","coordinates":[[[[2.2432898,48.8269225],[2.2467405,48.8278914],[2.2461491,48.828934],[2.2421973,48.8297323],[2.2420419,48.8275467],[2.2415723,48.8273211],[2.241995,48.8268415],[2.2424476,48.8270476],[2.2430389,48.8268586],[2.2432898,48.8269225]]]]},"properties":{"code_section":"92012000BG","code_commune":"92012","section_courte":"BG"}},{"type":"Feature","geometry":{"type":"MultiPolygon","coordinates":[[[[2.2428975,48.8245729],[2.2469184,48.8253742],[2.2473011,48.8254725],[2.2482891,48.825157],[2.2467405,48.8278914],[2.2430389,48.8268586],[2.2424476,48.8270476],[2.241995,48.8268415],[2.2418208,48.8243582],[2.2428975,48.8245729]]]]},"properties":{"code_section":"92012000BH","code_commune":"92012","section_courte":"BH"}},{"type":"Feature","geometry":{"type":"MultiPolygon","coordinates":[[[[2.2448155,48.8233686],[2.245319,48.823518],[2.2441559,48.824818],[2.2418208,48.8243582],[2.2416946,48.8226512],[2.2421117,48.8227711],[2.2442476,48.8232116],[2.2448155,48.8233686]]]]},"properties":{"code_section":"92012000BI","code_commune":"92012","section_courte":"BI"}},{"type":"Feature","geometry":{"type":"MultiPolygon","coordinates":[[[[2.2450168,48.823856],[2.245319,48.823518],[2.2486193,48.8245125],[2.2482891,48.825157],[2.2473011,48.8254725],[2.2441559,48.824818],[2.2450168,48.823856]]]]},"properties":{"code_section":"92012000BJ","code_commune":"92012","section_courte":"BJ"}},{"type":"Feature","geometry":{"type":"MultiPolygon","coordinates":[[[[2.2504913,48.8283896],[2.249314,48.8297333],[2.2486367,48.8293916],[2.2475178,48.8290226],[2.246935,48.8289127],[2.2461491,48.828934],[2.2482713,48.8251916],[2.2504913,48.8283896]]]]},"properties":{"code_section":"92012000BK","code_commune":"92012","section_courte":"BK"}},{"type":"Feature","geometry":{"type":"MultiPolygon","coordinates":[[[[2.2491762,48.8314554],[2.2479961,48.8336429],[2.2442687,48.8322714],[2.2461491,48.828934],[2.246935,48.8289127],[2.2475178,48.8290226],[2.2486367,48.8293916],[2.2499377,48.8300493],[2.2491762,48.8314554]]]]},"properties":{"code_section":"92012000BL","code_commune":"92012","section_courte":"BL"}},{"type":"Feature","geometry":{"type":"MultiPolygon","coordinates":[[[[2.2512302,48.8307197],[2.252468,48.8314365],[2.2502358,48.8344669],[2.2479961,48.8336429],[2.2499377,48.8300493],[2.2512302,48.8307197]]]]},"properties":{"code_section":"92012000BM","code_commune":"92012","section_courte":"BM"}},{"type":"Feature","geometry":{"type":"MultiPolygon","coordinates":[[[[2.2523035,48.8351766],[2.2522691,48.835215],[2.2502358,48.8344669],[2.252468,48.8314365],[2.2525896,48.8313995],[2.2528833,48.8318216],[2.2536309,48.8322905],[2.2545333,48.8329294],[2.2541202,48.83338],[2.2538629,48.8334423],[2.2528682,48.8345504],[2.2525982,48.8344513],[2.2524375,48.8346349],[2.2526961,48.8347367],[2.2523035,48.8351766]]]]},"properties":{"code_section":"92012000BN","code_commune":"92012","section_courte":"BN"}},{"type":"Feature","geometry":{"type":"MultiPolygon","coordinates":[[[[2.2563717,48.8341463],[2.2569835,48.8345943],[2.2551487,48.8348045],[2.2541937,48.8359232],[2.2522691,48.835215],[2.2526961,48.8347367],[2.2524375,48.8346349],[2.2525982,48.8344513],[2.2528682,48.8345504],[2.2538629,48.8334423],[2.2541202,48.83338],[2.2545333,48.8329294],[2.2563209,48.8341776],[2.2563717,48.8341463]]]]},"properties":{"code_section":"92012000BO","code_commune":"92012","section_courte":"BO"}},{"type":"Feature","geometry":{"type":"MultiPolygon","coordinates":[[[[2.2558586,48.8314278],[2.2532168,48.8320308],[2.2528833,48.8318216],[2.2525896,48.8313995],[2.252468,48.8314365],[2.2512302,48.8307197],[2.249314,48.8297333],[2.2504913,48.8283896],[2.2482713,48.8251916],[2.2486193,48.8245125],[2.2497306,48.8248521],[2.2505057,48.8251503],[2.250973,48.8253766],[2.2520579,48.8259809],[2.2529799,48.8265807],[2.2565668,48.8292303],[2.2575507,48.8298489],[2.2569273,48.8305023],[2.2572195,48.831095],[2.2558586,48.8314278]]]]},"properties":{"code_section":"92012000BP","code_commune":"92012","section_courte":"BP"}},{"type":"Feature","geometry":{"type":"MultiPolygon","coordinates":[[[[2.2610854,48.8341179],[2.2569835,48.8345943],[2.2563717,48.8341463],[2.2563209,48.8341776],[2.2536309,48.8322905],[2.2532168,48.8320308],[2.2572195,48.831095],[2.2569273,48.8305023],[2.2575507,48.8298489],[2.2600618,48.8312138],[2.2603948,48.831443],[2.2611851,48.8321666],[2.2627909,48.8339228],[2.2610854,48.8341179]]]]},"properties":{"code_section":"92012000BQ","code_commune":"92012","section_courte":"BQ"}}]}