{"type":"FeatureCollection","features":[{"type":"Feature","geometry":{"type":"MultiPolygon","coordinates":[[[[2.2764018,48.7813662],[2.2762942,48.7811855],[2.2763713,48.7809164],[2.2764505,48.7807803],[2.2768137,48.7804038],[2.2803631,48.7796062],[2.2804188,48.7798316],[2.2804097,48.7800033],[2.2799712,48.7820238],[2.2797819,48.7823286],[2.2794123,48.7825825],[2.2789697,48.7827536],[2.278275,48.7820447],[2.2780711,48.7821015],[2.2775489,48.7812845],[2.2775085,48.7811063],[2.2764018,48.7813662]]]]},"properties":{"code_section":"920190000A","code_commune":"92019","section_courte":"A"}},{"type":"Feature","geometry":{"type":"MultiPolygon","coordinates":[[[[2.2801419,48.7790675],[2.2803631,48.7796062],[2.2768137,48.7804038],[2.2764505,48.7807803],[2.2762151,48.7813014],[2.2759228,48.7807625],[2.2758706,48.780772],[2.2753582,48.7794393],[2.275064,48.7794752],[2.2748525,48.7788026],[2.276732,48.7784708],[2.2767439,48.7784985],[2.2771783,48.7784245],[2.2773224,48.7782213],[2.2776886,48.7783383],[2.2789078,48.7785316],[2.2797157,48.7785037],[2.2801101,48.7789773],[2.2801419,48.7790675]]]]},"properties":{"code_section":"920190000B","code_commune":"92019","section_courte":"B"}},{"type":"Feature","geometry":{"type":"MultiPolygon","coordinates":[[[[2.2773224,48.7782213],[2.2771783,48.7784245],[2.2767439,48.7784985],[2.276732,48.7784708],[2.2748525,48.7788026],[2.2746798,48.7781931],[2.2745542,48.7774999],[2.274389,48.776999],[2.2744294,48.7769901],[2.2743921,48.7769245],[2.2750041,48.7767891],[2.2750323,48.7767593],[2.2748989,48.7767037],[2.2749272,48.7766741],[2.2751782,48.776612],[2.2749287,48.7758999],[2.2778658,48.7758106],[2.2793572,48.778028],[2.2797339,48.7784998],[2.2789078,48.7785316],[2.2776886,48.7783383],[2.2773224,48.7782213]]]]},"properties":{"code_section":"920190000C","code_commune":"92019","section_courte":"C"}},{"type":"Feature","geometry":{"type":"MultiPolygon","coordinates":[[[[2.2744294,48.7769901],[2.2723304,48.7773501],[2.2720826,48.7771448],[2.2714526,48.7768882],[2.2711725,48.7768095],[2.270289,48.7766859],[2.2700364,48.7766193],[2.2696414,48.7764094],[2.2693877,48.7760857],[2.269249,48.7757322],[2.2692397,48.7752139],[2.2698294,48.7749729],[2.2703496,48.7748041],[2.2706228,48.7747506],[2.2709354,48.7747672],[2.2712588,48.7748284],[2.2724795,48.7756427],[2.2747873,48.7751315],[2.274871,48.7756982],[2.2751782,48.776612],[2.2749272,48.7766741],[2.2748989,48.7767037],[2.2750323,48.7767593],[2.2750041,48.7767891],[2.2743921,48.7769245],[2.2744294,48.7769901]]]]},"properties":{"code_section":"920190000D","code_commune":"92019","section_courte":"D"}},{"type":"Feature","geometry":{"type":"MultiPolygon","coordinates":[[[[2.2666362,48.7737514],[2.267548,48.7733821],[2.2679565,48.773651],[2.268058,48.7737555],[2.268432,48.7744026],[2.2692218,48.7750699],[2.269249,48.7757322],[2.2693245,48.7759678],[2.2680848,48.7762219],[2.2674416,48.7764783],[2.2672433,48.7761464],[2.267298,48.7759163],[2.2671229,48.7757771],[2.2670778,48.7756852],[2.2672254,48.7752758],[2.2664494,48.7752561],[2.266377,48.7752102],[2.266316,48.7752929],[2.2659283,48.7755351],[2.2650986,48.77495],[2.2649661,48.7750476],[2.2647324,48.7748538],[2.2645596,48.7749956],[2.2642868,48.7749351],[2.2643977,48.7746808],[2.2643105,48.7745908],[2.2638004,48.7746013],[2.2637266,48.774253],[2.2638051,48.7742341],[2.263938,48.7743889],[2.264237,48.7745133],[2.2644951,48.7745515],[2.2648552,48.7745312],[2.2651768,48.7744402],[2.2666362,48.7737514]]]]},"properties":{"code_section":"920190000E","code_commune":"92019","section_courte":"E"}},{"type":"Feature","geometry":{"type":"MultiPolygon","coordinates":[[[[2.2755182,48.7758856],[2.2749287,48.7758999],[2.2747873,48.7751315],[2.2724795,48.7756427],[2.2712588,48.7748284],[2.2709354,48.7747672],[2.2706228,48.7747506],[2.2703496,48.7748041],[2.2698294,48.7749729],[2.2692397,48.7752139],[2.2692218,48.7750699],[2.26911,48.7749551],[2.268432,48.7744026],[2.268058,48.7737555],[2.2679565,48.773651],[2.2674584,48.7733142],[2.2672529,48.773094],[2.2668117,48.7722106],[2.2666168,48.7719744],[2.2666894,48.7718506],[2.2684773,48.7713818],[2.2689042,48.771106],[2.2695319,48.7705944],[2.2697372,48.770352],[2.2699361,48.7698749],[2.2700224,48.7697199],[2.2701209,48.7696408],[2.2741804,48.770274],[2.2744502,48.7711657],[2.2750066,48.7719525],[2.2751811,48.7722983],[2.2756823,48.772807],[2.277569,48.7727761],[2.2807511,48.7731975],[2.2791224,48.7750897],[2.2789391,48.7754359],[2.2787807,48.7759658],[2.2782784,48.7764161],[2.2778658,48.7758106],[2.2755182,48.7758856]]]]},"properties":{"code_section":"920190000F","code_commune":"92019","section_courte":"F"}},{"type":"Feature","geometry":{"type":"MultiPolygon","coordinates":[[[[2.2600688,48.7732871],[2.2599877,48.7732579],[2.2605857,48.7732084],[2.2619243,48.7730247],[2.2617775,48.7725702],[2.2617138,48.7722079],[2.2615635,48.7720164],[2.2609801,48.7715478],[2.2604179,48.7704107],[2.2603732,48.770158],[2.260489,48.7701121],[2.26024,48.769729],[2.2601337,48.7694878],[2.2600954,48.7692802],[2.2603249,48.7691034],[2.2605608,48.7689963],[2.2620334,48.7685218],[2.2624013,48.7683372],[2.2670705,48.7690432],[2.2672592,48.769078],[2.267388,48.7692049],[2.2701209,48.7696408],[2.2700224,48.7697199],[2.2699361,48.7698749],[2.2697372,48.770352],[2.2695319,48.7705944],[2.2689042,48.771106],[2.2684773,48.7713818],[2.2666894,48.7718506],[2.2666168,48.7719744],[2.2668117,48.7722106],[2.2671647,48.7729657],[2.267548,48.7733821],[2.2666362,48.7737514],[2.2651176,48.7744636],[2.264718,48.7745472],[2.2642724,48.7745205],[2.263938,48.7743889],[2.2638051,48.7742341],[2.2637266,48.774253],[2.2638004,48.7746013],[2.2600688,48.7732871]]]]},"properties":{"code_section":"920190000G","code_commune":"92019","section_courte":"G"}},{"type":"Feature","geometry":{"type":"MultiPolygon","coordinates":[[[[2.2590358,48.7705145],[2.2592634,48.7704582],[2.2592756,48.7704872],[2.2597362,48.7703672],[2.2604179,48.7704107],[2.2609801,48.7715478],[2.2615635,48.7720164],[2.2617138,48.7722079],[2.2617775,48.7725702],[2.2619243,48.7730247],[2.2602077,48.7732513],[2.2599877,48.7732579],[2.2592087,48.7731262],[2.2585055,48.7731903],[2.2577678,48.7732053],[2.2572307,48.7733232],[2.2564672,48.7730522],[2.2564319,48.7730699],[2.2550298,48.7723693],[2.2557081,48.7717133],[2.2555593,48.7713912],[2.2555689,48.7711985],[2.2556761,48.7709544],[2.2560197,48.770691],[2.2561622,48.7707382],[2.256133,48.7709063],[2.2561895,48.7710268],[2.2563298,48.7711197],[2.2564861,48.771147],[2.2570842,48.7709966],[2.2576568,48.7709169],[2.2580694,48.7709078],[2.2586104,48.7706606],[2.2589886,48.770562],[2.2588914,48.7705559],[2.2590358,48.7705145]]]]},"properties":{"code_section":"920190000H","code_commune":"92019","section_courte":"H"}},{"type":"Feature","geometry":{"type":"MultiPolygon","coordinates":[[[[2.2557865,48.7708621],[2.2556761,48.7709544],[2.2543631,48.770815],[2.2545989,48.7698158],[2.2545274,48.7693126],[2.2546228,48.7693966],[2.2547128,48.7694093],[2.2555164,48.7694202],[2.2568994,48.7692555],[2.2575074,48.7692527],[2.2586294,48.7691201],[2.2589756,48.7691944],[2.2596234,48.7695489],[2.2599796,48.7699126],[2.2603732,48.770158],[2.2604179,48.7704107],[2.2597362,48.7703672],[2.2592756,48.7704872],[2.2592634,48.7704582],[2.2586104,48.7706606],[2.2580694,48.7709078],[2.2576568,48.7709169],[2.2570842,48.7709966],[2.2564861,48.771147],[2.2563298,48.7711197],[2.2561895,48.7710268],[2.256133,48.7709063],[2.2561622,48.7707382],[2.2560197,48.770691],[2.2557865,48.7708621]]]]},"properties":{"code_section":"920190000I","code_commune":"92019","section_courte":"I"}},{"type":"Feature","geometry":{"type":"MultiPolygon","coordinates":[[[[2.2518358,48.7726041],[2.2513542,48.7725953],[2.2510851,48.7724087],[2.2522483,48.7712272],[2.2533622,48.771691],[2.2532304,48.770581],[2.2531346,48.7703681],[2.2545099,48.7701584],[2.2543631,48.770815],[2.2556761,48.7709544],[2.2555558,48.771322],[2.2555931,48.7715014],[2.2557081,48.7717133],[2.2550298,48.7723693],[2.2564319,48.7730699],[2.2565878,48.7732429],[2.2557072,48.7732376],[2.2557153,48.7730497],[2.2541268,48.7730256],[2.254063,48.7727526],[2.2523436,48.7725957],[2.2518358,48.7726041]]]]},"properties":{"code_section":"920190000J","code_commune":"92019","section_courte":"J"}},{"type":"Feature","geometry":{"type":"MultiPolygon","coordinates":[[[[2.244978,48.7728476],[2.2449415,48.7728505],[2.2450513,48.7720232],[2.2535836,48.7671075],[2.253754,48.7672457],[2.2537897,48.7673273],[2.2538334,48.7673189],[2.2542293,48.7682126],[2.2544851,48.7690138],[2.2545989,48.7698158],[2.2545099,48.7701584],[2.2531346,48.7703681],[2.2532304,48.770581],[2.2533622,48.771691],[2.2522483,48.7712272],[2.2510851,48.7724087],[2.2513542,48.7725953],[2.2501967,48.7729751],[2.2496953,48.7730671],[2.2490888,48.7731264],[2.2464777,48.773516],[2.24632,48.7727162],[2.244978,48.7728476]]]]},"properties":{"code_section":"920190000K","code_commune":"92019","section_courte":"K"}},{"type":"Feature","geometry":{"type":"MultiPolygon","coordinates":[[[[2.2383889,48.7737961],[2.2383459,48.7737999],[2.2376292,48.7726231],[2.2376708,48.7724137],[2.2377293,48.7723316],[2.2377174,48.7722405],[2.2376452,48.7721877],[2.2373555,48.7721074],[2.2372756,48.7720444],[2.2359182,48.7698315],[2.2385826,48.7664699],[2.2451858,48.7719487],[2.2450513,48.7720232],[2.244951,48.7728005],[2.2444231,48.7729919],[2.2438381,48.7730697],[2.2426857,48.773387],[2.2419187,48.7738318],[2.2420586,48.7730618],[2.240995,48.7730776],[2.2406482,48.7730441],[2.2391957,48.7726619],[2.2390236,48.7732636],[2.2387374,48.7732228],[2.2385138,48.7737811],[2.2383889,48.7737961]]]]},"properties":{"code_section":"920190000L","code_commune":"92019","section_courte":"L"}},{"type":"Feature","geometry":{"type":"MultiPolygon","coordinates":[[[[2.2357919,48.7698798],[2.2359182,48.7698315],[2.2372756,48.7720444],[2.2373555,48.7721074],[2.2376452,48.7721877],[2.2377174,48.7722405],[2.2377293,48.7723316],[2.2376708,48.7724137],[2.2376292,48.7726231],[2.2383459,48.7737999],[2.2382244,48.7738128],[2.2374595,48.7736417],[2.2372276,48.7736296],[2.236826,48.773726],[2.2364814,48.7749499],[2.2372405,48.7755439],[2.237165,48.7758193],[2.2374498,48.7762973],[2.2304058,48.7768085],[2.229337,48.7763539],[2.2290258,48.7761606],[2.2288014,48.7759216],[2.2287232,48.7754423],[2.2288496,48.7744577],[2.2302714,48.7740561],[2.2303996,48.7739383],[2.230715,48.7734683],[2.2306989,48.7731762],[2.2303521,48.7724953],[2.2303161,48.7723195],[2.2303006,48.7719582],[2.2304649,48.7714165],[2.230582,48.7713138],[2.230879,48.771157],[2.2314345,48.7710979],[2.2316833,48.7710301],[2.2318722,48.7709423],[2.2326288,48.7710678],[2.2328284,48.7708025],[2.2345222,48.77033],[2.2357919,48.7698798]]]]},"properties":{"code_section":"920190000M","code_commune":"92019","section_courte":"M"}},{"type":"Feature","geometry":{"type":"MultiPolygon","coordinates":[[[[2.2318824,48.7709441],[2.2322697,48.7704769],[2.2326785,48.770098],[2.233114,48.7691857],[2.2327248,48.7678082],[2.2328037,48.7662629],[2.2325978,48.7660346],[2.2328539,48.7659858],[2.2329743,48.766193],[2.2385826,48.7664699],[2.2359182,48.7698315],[2.2345222,48.77033],[2.2328284,48.7708025],[2.2326288,48.7710678],[2.2318824,48.7709441]]]]},"properties":{"code_section":"920190000N","code_commune":"92019","section_courte":"N"}},{"type":"Feature","geometry":{"type":"MultiPolygon","coordinates":[[[[2.248263,48.769964],[2.248331,48.7701348],[2.2451858,48.7719487],[2.2385826,48.7664699],[2.2407355,48.763733],[2.2452509,48.762634],[2.2468474,48.7666705],[2.2469189,48.766659],[2.248263,48.769964]]]]},"properties":{"code_section":"920190000O","code_commune":"92019","section_courte":"O"}},{"type":"Feature","geometry":{"type":"MultiPolygon","coordinates":[[[[2.2467829,48.7659616],[2.246561,48.7659465],[2.2452509,48.762634],[2.2469825,48.7608339],[2.2497431,48.7620113],[2.250278,48.7613226],[2.2514505,48.7607344],[2.2517411,48.7607561],[2.2533053,48.7610705],[2.2544562,48.7611398],[2.2544429,48.7611997],[2.2488543,48.7655856],[2.2487014,48.7657707],[2.2484085,48.7659746],[2.2477062,48.7660413],[2.2467829,48.7659616]]]]},"properties":{"code_section":"920190000P","code_commune":"92019","section_courte":"P"}},{"type":"Feature","geometry":{"type":"MultiPolygon","coordinates":[[[[2.2544316,48.7612548],[2.254318,48.7617992],[2.2538564,48.7622165],[2.2536516,48.7625715],[2.2536823,48.7627856],[2.2538072,48.7630655],[2.2556677,48.7660931],[2.2553348,48.7661381],[2.2535836,48.7671075],[2.248331,48.7701348],[2.2469189,48.766659],[2.2468474,48.7666705],[2.246561,48.7659465],[2.2477062,48.7660413],[2.2484085,48.7659746],[2.2487014,48.7657707],[2.2488543,48.7655856],[2.2544429,48.7611997],[2.2544316,48.7612548]]]]},"properties":{"code_section":"920190000Q","code_commune":"92019","section_courte":"Q"}},{"type":"Feature","geometry":{"type":"MultiPolygon","coordinates":[[[[2.2543741,48.7615526],[2.2544562,48.7611398],[2.2550503,48.7614178],[2.2552316,48.7614617],[2.2554362,48.7614609],[2.2580268,48.7612178],[2.2595655,48.7609719],[2.2620237,48.7598042],[2.2623996,48.7600931],[2.2649268,48.7614531],[2.2656455,48.7616904],[2.2669037,48.7621752],[2.2671671,48.7623231],[2.2673863,48.7624995],[2.2680127,48.7628093],[2.2675469,48.7635965],[2.2677162,48.7636294],[2.2675476,48.7640159],[2.267683,48.7644747],[2.2556677,48.7660931],[2.2537039,48.7628678],[2.2536682,48.7625218],[2.2539443,48.762109],[2.254318,48.7617992],[2.2543741,48.7615526]]]]},"properties":{"code_section":"920190000R","code_commune":"92019","section_courte":"R"}},{"type":"Feature","geometry":{"type":"MultiPolygon","coordinates":[[[[2.2720097,48.7636981],[2.2719953,48.7639109],[2.267683,48.7644747],[2.2675476,48.7640159],[2.2677162,48.7636294],[2.2675469,48.7635965],[2.2680127,48.7628093],[2.2673863,48.7624995],[2.2671961,48.7623464],[2.2688697,48.7620316],[2.2689628,48.76199],[2.2690191,48.761893],[2.2687599,48.7610492],[2.268705,48.7607006],[2.2710445,48.7607039],[2.271569,48.7619089],[2.2719337,48.7625141],[2.2720262,48.7627387],[2.2720542,48.762925],[2.2720097,48.7636981]]]]},"properties":{"code_section":"920190000S","code_commune":"92019","section_courte":"S"}},{"type":"Feature","geometry":{"type":"MultiPolygon","coordinates":[[[[2.260489,48.7701121],[2.2603732,48.770158],[2.2599796,48.7699126],[2.2596234,48.7695489],[2.2589756,48.7691944],[2.2586294,48.7691201],[2.2575074,48.7692527],[2.2568994,48.7692555],[2.2555164,48.7694202],[2.2546228,48.7693966],[2.2545274,48.7693126],[2.2544851,48.7690138],[2.2542293,48.7682126],[2.2538334,48.7673189],[2.2537897,48.7673273],[2.253754,48.7672457],[2.2535836,48.7671075],[2.2553348,48.7661381],[2.266065,48.7646862],[2.2667934,48.7669833],[2.2666955,48.7670529],[2.2666871,48.7672318],[2.2669442,48.7676224],[2.267032,48.7675998],[2.2673506,48.7681962],[2.2673305,48.7684362],[2.2671267,48.7689966],[2.2672797,48.7690188],[2.2672592,48.769078],[2.2624013,48.7683372],[2.2620334,48.7685218],[2.2605608,48.7689963],[2.2601652,48.7692053],[2.2600954,48.7692802],[2.2601337,48.7694878],[2.26024,48.769729],[2.260489,48.7701121]]]]},"properties":{"code_section":"920190000T","code_commune":"92019","section_courte":"T"}},{"type":"Feature","geometry":{"type":"MultiPolygon","coordinates":[[[[2.267683,48.7644747],[2.27383,48.7636709],[2.2762147,48.7638238],[2.2769301,48.7640568],[2.2772875,48.7642457],[2.2774789,48.7643044],[2.2777607,48.7643422],[2.2783825,48.7645611],[2.2787445,48.7646445],[2.2788036,48.7651716],[2.2788671,48.7652289],[2.2790862,48.7653214],[2.2791652,48.7654255],[2.2791507,48.7661002],[2.2791927,48.7663197],[2.2793865,48.7663319],[2.2793902,48.7667083],[2.2785101,48.7667141],[2.2782399,48.7667463],[2.2772753,48.7669781],[2.2767628,48.7670437],[2.2754028,48.7669145],[2.2725297,48.7671623],[2.272576,48.7675004],[2.2713834,48.7682375],[2.2709852,48.7685635],[2.2701209,48.7696408],[2.267388,48.7692049],[2.2672592,48.769078],[2.2672797,48.7690188],[2.2671267,48.7689966],[2.2673305,48.7684362],[2.2673506,48.7681962],[2.267032,48.7675998],[2.2669442,48.7676224],[2.2666871,48.7672318],[2.2666955,48.7670529],[2.2667934,48.7669833],[2.266065,48.7646862],[2.267683,48.7644747]]]]},"properties":{"code_section":"920190000U","code_commune":"92019","section_courte":"U"}},{"type":"Feature","geometry":{"type":"MultiPolygon","coordinates":[[[[2.277011,48.7670921],[2.2770044,48.7670217],[2.2782399,48.7667463],[2.2785101,48.7667141],[2.2793902,48.7667083],[2.2797906,48.767468],[2.2803072,48.7699984],[2.2798284,48.770041],[2.2796376,48.7700258],[2.2790985,48.7699084],[2.2782727,48.769595],[2.2772811,48.7690779],[2.2765998,48.7688813],[2.2758635,48.7687367],[2.2760452,48.7678456],[2.2768918,48.7679293],[2.277011,48.7670921]]]]},"properties":{"code_section":"920190000V","code_commune":"92019","section_courte":"V"}},{"type":"Feature","geometry":{"type":"MultiPolygon","coordinates":[[[[2.2758766,48.7687081],[2.2758635,48.7687367],[2.2739798,48.7683855],[2.2730835,48.7680621],[2.2724884,48.7679567],[2.2719059,48.7679134],[2.272576,48.7675004],[2.2725297,48.7671623],[2.2754028,48.7669145],[2.2767628,48.7670437],[2.2770044,48.7670217],[2.2768918,48.7679293],[2.2760452,48.7678456],[2.2758766,48.7687081]]]]},"properties":{"code_section":"920190000X","code_commune":"92019","section_courte":"X"}},{"type":"Feature","geometry":{"type":"MultiPolygon","coordinates":[[[[2.2755024,48.7704357],[2.2754993,48.7704772],[2.2701209,48.7696408],[2.2709852,48.7685635],[2.2713834,48.7682375],[2.2719059,48.7679134],[2.2724884,48.7679567],[2.2730835,48.7680621],[2.2739798,48.7683855],[2.2761098,48.7687851],[2.2758896,48.7697523],[2.2755728,48.769726],[2.2755024,48.7704357]]]]},"properties":{"code_section":"920190000Y","code_commune":"92019","section_courte":"Y"}},{"type":"Feature","geometry":{"type":"MultiPolygon","coordinates":[[[[2.2757529,48.7697403],[2.2758896,48.7697523],[2.2761098,48.7687851],[2.2769654,48.7689801],[2.2772811,48.7690779],[2.2782727,48.769595],[2.2790985,48.7699084],[2.2796376,48.7700258],[2.2798284,48.770041],[2.2802264,48.7700055],[2.2803632,48.7703681],[2.2808994,48.7713337],[2.2754993,48.7704772],[2.2755728,48.769726],[2.2757529,48.7697403]]]]},"properties":{"code_section":"920190000Z","code_commune":"92019","section_courte":"Z"}},{"type":"Feature","geometry":{"type":"MultiPolygon","coordinates":[[[[2.2796061,48.7729912],[2.2795904,48.7730438],[2.277569,48.7727761],[2.2756823,48.772807],[2.2751811,48.7722983],[2.2750066,48.7719525],[2.2744502,48.7711657],[2.2741804,48.770274],[2.2798776,48.7711597],[2.279767,48.772462],[2.2796604,48.7724547],[2.2796061,48.7729912]]]]},"properties":{"code_section":"92019000AB","code_commune":"92019","section_courte":"AB"}},{"type":"Feature","geometry":{"type":"MultiPolygon","coordinates":[[[[2.2828141,48.7733005],[2.2828214,48.7733362],[2.2827456,48.7733441],[2.2817231,48.7727443],[2.2814955,48.7726515],[2.2811028,48.7725561],[2.2810853,48.772719],[2.281012,48.7728755],[2.2807511,48.7731975],[2.2795904,48.7730438],[2.2796604,48.7724547],[2.279767,48.772462],[2.2798776,48.7711597],[2.2808994,48.7713337],[2.2808519,48.7712199],[2.2812534,48.7711986],[2.2815253,48.771151],[2.2843299,48.7705023],[2.2843383,48.770973],[2.2849741,48.772641],[2.2848993,48.7726536],[2.2847835,48.7724662],[2.2842165,48.7726382],[2.283991,48.7722214],[2.2832778,48.7723673],[2.2831123,48.7718952],[2.2826296,48.7719959],[2.2826528,48.7720577],[2.2825173,48.7720865],[2.2826407,48.772428],[2.2828141,48.7733005]]]]},"properties":{"code_section":"92019000AC","code_commune":"92019","section_courte":"AC"}},{"type":"Feature","geometry":{"type":"MultiPolygon","coordinates":[[[[2.2804528,48.7740352],[2.2801342,48.7739127],[2.281012,48.7728755],[2.2810853,48.772719],[2.2811028,48.7725561],[2.2814955,48.7726515],[2.2817231,48.7727443],[2.2827456,48.7733441],[2.2828214,48.7733362],[2.2826407,48.772428],[2.2825173,48.7720865],[2.2826528,48.7720577],[2.2826296,48.7719959],[2.2831123,48.7718952],[2.2832778,48.7723673],[2.283991,48.7722214],[2.2842165,48.7726382],[2.2847835,48.7724662],[2.2848993,48.7726536],[2.2849741,48.772641],[2.2850115,48.772735],[2.2862107,48.7726813],[2.2862413,48.7729787],[2.2864274,48.7733377],[2.2865829,48.7734737],[2.2870291,48.7737138],[2.2863926,48.774072],[2.2863028,48.7741554],[2.2852589,48.7742431],[2.2851806,48.7743669],[2.2850632,48.7744029],[2.2848632,48.774313],[2.2846771,48.7743203],[2.2845488,48.7742784],[2.284526,48.7742993],[2.2831863,48.774323],[2.282749,48.7743947],[2.2825316,48.7744501],[2.2827101,48.774779],[2.2815455,48.7744992],[2.2813844,48.7743946],[2.2804528,48.7740352]]]]},"properties":{"code_section":"92019000AD","code_commune":"92019","section_courte":"AD"}},{"type":"Feature","geometry":{"type":"MultiPolygon","coordinates":[[[[2.2859598,48.772694],[2.2850115,48.772735],[2.2843383,48.770973],[2.2843259,48.7702844],[2.2834392,48.7693114],[2.283953,48.7691928],[2.2839336,48.7691602],[2.2849776,48.7689734],[2.2860534,48.7688295],[2.2860403,48.7688887],[2.2880773,48.7687933],[2.2880975,48.7687687],[2.2883866,48.7688372],[2.2862859,48.7713006],[2.2862107,48.7726813],[2.2859598,48.772694]]]]},"properties":{"code_section":"92019000AE","code_commune":"92019","section_courte":"AE"}},{"type":"Feature","geometry":{"type":"MultiPolygon","coordinates":[[[[2.2860956,48.7688865],[2.2860403,48.7688887],[2.2861361,48.7675982],[2.2862445,48.7676566],[2.2862818,48.7676255],[2.2862245,48.7674786],[2.2862981,48.7659181],[2.2864222,48.7659401],[2.2865726,48.7658903],[2.2869654,48.7658803],[2.2874911,48.7658059],[2.288958,48.7658264],[2.2896127,48.7659219],[2.2902029,48.765938],[2.2909275,48.7657974],[2.2883866,48.7688372],[2.2880975,48.7687687],[2.2880773,48.7687933],[2.2860956,48.7688865]]]]},"properties":{"code_section":"92019000AF","code_commune":"92019","section_courte":"AF"}},{"type":"Feature","geometry":{"type":"MultiPolygon","coordinates":[[[[2.2848589,48.7689944],[2.2839336,48.7691602],[2.283953,48.7691928],[2.2834392,48.7693114],[2.2826443,48.7683006],[2.2823496,48.7681921],[2.2828249,48.7674987],[2.28292,48.7672869],[2.2829653,48.7669711],[2.2839877,48.7669788],[2.2839844,48.7668949],[2.2841188,48.7668975],[2.2839677,48.766299],[2.2837525,48.7658748],[2.2862991,48.7658577],[2.2862245,48.7674786],[2.2862818,48.7676255],[2.2862445,48.7676566],[2.2861361,48.7675982],[2.2860534,48.7688295],[2.2848589,48.7689944]]]]},"properties":{"code_section":"92019000AG","code_commune":"92019","section_courte":"AG"}},{"type":"Feature","geometry":{"type":"MultiPolygon","coordinates":[[[[2.2814591,48.7711634],[2.2808519,48.7712199],[2.2803632,48.7703681],[2.2802264,48.7700055],[2.2803072,48.7699984],[2.2798961,48.7681168],[2.2803546,48.7681333],[2.2808777,48.7682423],[2.2809787,48.7682255],[2.2810695,48.7681679],[2.2812576,48.7679428],[2.2814346,48.7678756],[2.2816218,48.7679066],[2.2826443,48.7683006],[2.2833771,48.7692433],[2.2843259,48.7702844],[2.2843299,48.7705023],[2.2814591,48.7711634]]]]},"properties":{"code_section":"92019000AH","code_commune":"92019","section_courte":"AH"}},{"type":"Feature","geometry":{"type":"MultiPolygon","coordinates":[[[[2.28301,48.7667923],[2.282908,48.7673302],[2.2823496,48.7681921],[2.2816218,48.7679066],[2.2814346,48.7678756],[2.2812576,48.7679428],[2.2810695,48.7681679],[2.2809787,48.7682255],[2.2808777,48.7682423],[2.2803546,48.7681333],[2.2798961,48.7681168],[2.2797906,48.767468],[2.2793902,48.7667083],[2.2793865,48.7663319],[2.2791927,48.7663197],[2.2791507,48.7661002],[2.2791652,48.7654255],[2.2790862,48.7653214],[2.2788671,48.7652289],[2.2788036,48.7651716],[2.2787445,48.7646445],[2.2795035,48.7646064],[2.2804244,48.764709],[2.2813051,48.7648676],[2.2813139,48.7651554],[2.2815005,48.7660599],[2.2809056,48.7665013],[2.2809586,48.7665325],[2.28301,48.7667923]]]]},"properties":{"code_section":"92019000AI","code_commune":"92019","section_courte":"AI"}},{"type":"Feature","geometry":{"type":"MultiPolygon","coordinates":[[[[2.2823154,48.7633311],[2.2813051,48.7648676],[2.2804244,48.764709],[2.2795035,48.7646064],[2.2787445,48.7646445],[2.2783825,48.7645611],[2.2777607,48.7643422],[2.2774789,48.7643044],[2.2772875,48.7642457],[2.2769301,48.7640568],[2.2765988,48.7639494],[2.2765289,48.7632943],[2.2829083,48.7624558],[2.2823154,48.7633311]]]]},"properties":{"code_section":"92019000AJ","code_commune":"92019","section_courte":"AJ"}},{"type":"Feature","geometry":{"type":"MultiPolygon","coordinates":[[[[2.2861659,48.7643713],[2.2862607,48.764962],[2.2864284,48.765008],[2.2864285,48.7650614],[2.286285,48.7650923],[2.2862991,48.7658577],[2.2837525,48.7658748],[2.2839677,48.766299],[2.2840447,48.7665471],[2.2841188,48.7668975],[2.2839844,48.7668949],[2.2839877,48.7669788],[2.2829653,48.7669711],[2.28301,48.7667923],[2.2809586,48.7665325],[2.2809056,48.7665013],[2.2815005,48.7660599],[2.2813139,48.7651554],[2.2813051,48.7648676],[2.2817686,48.7641509],[2.2828106,48.7645866],[2.2830748,48.7643315],[2.2834249,48.764328],[2.2836932,48.7642881],[2.283904,48.7642876],[2.284239,48.764378],[2.2850082,48.7643475],[2.2850028,48.7644189],[2.2861659,48.7643713]]]]},"properties":{"code_section":"92019000AK","code_commune":"92019","section_courte":"AK"}},{"type":"Feature","geometry":{"type":"MultiPolygon","coordinates":[[[[2.2818549,48.7641754],[2.2817686,48.7641509],[2.2829083,48.7624558],[2.2866926,48.7619299],[2.2869244,48.7627556],[2.2868554,48.7635284],[2.2866724,48.7639231],[2.2861678,48.7644733],[2.2861659,48.7643713],[2.2850028,48.7644189],[2.2850082,48.7643475],[2.284239,48.764378],[2.283904,48.7642876],[2.2836932,48.7642881],[2.2834249,48.764328],[2.2830748,48.7643315],[2.2828106,48.7645866],[2.2818549,48.7641754]]]]},"properties":{"code_section":"92019000AL","code_commune":"92019","section_courte":"AL"}},{"type":"Feature","geometry":{"type":"MultiPolygon","coordinates":[[[[2.2864222,48.7659401],[2.2862981,48.7659181],[2.286285,48.7650923],[2.2864285,48.7650614],[2.2864284,48.765008],[2.2862607,48.764962],[2.2861678,48.7644733],[2.286684,48.7639048],[2.2868631,48.763939],[2.2871217,48.7639031],[2.2872116,48.7638639],[2.2872839,48.7638838],[2.2874023,48.7638557],[2.2880074,48.7638556],[2.2883457,48.763915],[2.2885866,48.7638929],[2.2886613,48.7639266],[2.288804,48.7639346],[2.2890521,48.7638543],[2.2895182,48.7638963],[2.2902674,48.7638864],[2.2904929,48.7639759],[2.2909014,48.76397],[2.2916262,48.7643402],[2.2918321,48.7643857],[2.2919197,48.764374],[2.2919397,48.7644932],[2.2918836,48.7646506],[2.2909275,48.7657974],[2.2902029,48.765938],[2.2896127,48.7659219],[2.288958,48.7658264],[2.2874911,48.7658059],[2.2869654,48.7658803],[2.2865726,48.7658903],[2.2864222,48.7659401]]]]},"properties":{"code_section":"92019000AM","code_commune":"92019","section_courte":"AM"}},{"type":"Feature","geometry":{"type":"MultiPolygon","coordinates":[[[[2.2914552,48.7642446],[2.2909014,48.76397],[2.2905028,48.7639772],[2.2902481,48.7638848],[2.2895182,48.7638963],[2.2890521,48.7638543],[2.288804,48.7639346],[2.2886613,48.7639266],[2.2885866,48.7638929],[2.2883457,48.763915],[2.2880074,48.7638556],[2.2874023,48.7638557],[2.2872839,48.7638838],[2.2872116,48.7638639],[2.2871217,48.7639031],[2.2868631,48.763939],[2.286684,48.7639048],[2.2868554,48.7635284],[2.2869244,48.7627556],[2.2866926,48.7619299],[2.290972,48.7613461],[2.2919197,48.764374],[2.2918321,48.7643857],[2.2916405,48.7643458],[2.2914552,48.7642446]]]]},"properties":{"code_section":"92019000AN","code_commune":"92019","section_courte":"AN"}},{"type":"Feature","geometry":{"type":"MultiPolygon","coordinates":[[[[2.2848485,48.7610935],[2.2848012,48.7606339],[2.2860671,48.7606421],[2.2881026,48.7604867],[2.2881729,48.761081],[2.2908439,48.7609422],[2.290972,48.7613461],[2.284893,48.76218],[2.2848485,48.7610935]]]]},"properties":{"code_section":"92019000AO","code_commune":"92019","section_courte":"AO"}},{"type":"Feature","geometry":{"type":"MultiPolygon","coordinates":[[[[2.2848917,48.761975],[2.284893,48.76218],[2.2829083,48.7624558],[2.2827995,48.7623538],[2.2791147,48.7605106],[2.2786191,48.7600157],[2.2791987,48.760039],[2.2812148,48.7602186],[2.2836523,48.7605385],[2.2848012,48.7606339],[2.2848917,48.761975]]]]},"properties":{"code_section":"92019000AP","code_commune":"92019","section_courte":"AP"}},{"type":"Feature","geometry":{"type":"MultiPolygon","coordinates":[[[[2.2764769,48.7608383],[2.2764675,48.7608203],[2.2771856,48.7606984],[2.279059,48.7604555],[2.2791147,48.7605106],[2.2827995,48.7623538],[2.2829083,48.7624558],[2.2769887,48.763234],[2.2766833,48.7617939],[2.2766193,48.7617978],[2.2764769,48.7608383]]]]},"properties":{"code_section":"92019000AQ","code_commune":"92019","section_courte":"AQ"}},{"type":"Feature","geometry":{"type":"MultiPolygon","coordinates":[[[[2.2765948,48.7639132],[2.2765988,48.7639494],[2.2762147,48.7638238],[2.27383,48.7636709],[2.2719953,48.7639109],[2.2720542,48.762925],[2.2720262,48.7627387],[2.2719337,48.7625141],[2.271569,48.7619089],[2.2714077,48.7615118],[2.2744566,48.7612623],[2.2748288,48.7611961],[2.2748267,48.7612247],[2.2753385,48.7610511],[2.2764675,48.7608203],[2.2766193,48.7617978],[2.2766833,48.7617939],[2.2769887,48.763234],[2.2765289,48.7632943],[2.2765948,48.7639132]]]]},"properties":{"code_section":"92019000AR","code_commune":"92019","section_courte":"AR"}},{"type":"Feature","geometry":{"type":"MultiPolygon","coordinates":[[[[2.2751179,48.7610944],[2.2751325,48.7611236],[2.2748267,48.7612247],[2.2748288,48.7611961],[2.2744566,48.7612623],[2.2714077,48.7615118],[2.2710445,48.7607039],[2.271011,48.7607038],[2.2705922,48.7596659],[2.2702901,48.7590973],[2.2693927,48.7576345],[2.2704204,48.7578125],[2.2710413,48.757795],[2.2713874,48.7577439],[2.2729476,48.757394],[2.2742972,48.7590432],[2.2751179,48.7610944]]]]},"properties":{"code_section":"92019000AS","code_commune":"92019","section_courte":"AS"}},{"type":"Feature","geometry":{"type":"MultiPolygon","coordinates":[[[[2.2785869,48.75998],[2.279059,48.7604555],[2.2771856,48.7606984],[2.276213,48.7608621],[2.2753385,48.7610511],[2.2751325,48.7611236],[2.2742972,48.7590432],[2.2729476,48.757394],[2.2757105,48.7567742],[2.276133,48.7566347],[2.2771945,48.7579672],[2.2777034,48.7589734],[2.2785869,48.75998]]]]},"properties":{"code_section":"92019000AT","code_commune":"92019","section_courte":"AT"}}]}