{"type":"FeatureCollection","features":[{"type":"Feature","geometry":{"type":"MultiPolygon","coordinates":[[[[2.2534883,48.8150365],[2.2534557,48.81528],[2.2536772,48.815473],[2.2555728,48.8156824],[2.2571071,48.8154531],[2.2574516,48.8152754],[2.2576156,48.8150077],[2.2583566,48.8152176],[2.2576138,48.8161662],[2.2570495,48.8159596],[2.2566011,48.8165866],[2.2567557,48.8166445],[2.256479,48.817033],[2.2555774,48.8166858],[2.2555337,48.8168252],[2.2551591,48.8167723],[2.2548763,48.8166887],[2.2537328,48.8165218],[2.2532565,48.8165223],[2.2518267,48.8163896],[2.2526327,48.8155403],[2.2534883,48.8150365]]]]},"properties":{"code_section":"920230000A","code_commune":"92023","section_courte":"A"}},{"type":"Feature","geometry":{"type":"MultiPolygon","coordinates":[[[[2.2543452,48.8129318],[2.2543604,48.812877],[2.2556427,48.8128991],[2.2579455,48.8130406],[2.2576156,48.8150077],[2.2575297,48.815193],[2.2573531,48.8153476],[2.2571071,48.8154531],[2.256907,48.8154979],[2.2555728,48.8156824],[2.2536772,48.815473],[2.2534557,48.81528],[2.2534994,48.8150251],[2.2543448,48.8142778],[2.2536471,48.8141181],[2.2541221,48.8133995],[2.2543452,48.8129318]]]]},"properties":{"code_section":"920230000B","code_commune":"92023","section_courte":"B"}},{"type":"Feature","geometry":{"type":"MultiPolygon","coordinates":[[[[2.2576223,48.8108797],[2.2582676,48.8111224],[2.2579455,48.8130406],[2.2556427,48.8128991],[2.2543604,48.812877],[2.2545382,48.812389],[2.2545918,48.812115],[2.2547094,48.8108363],[2.2548687,48.810568],[2.254974,48.8101387],[2.256746,48.8105783],[2.2576223,48.8108797]]]]},"properties":{"code_section":"920230000C","code_commune":"92023","section_courte":"C"}},{"type":"Feature","geometry":{"type":"MultiPolygon","coordinates":[[[[2.2613545,48.813255],[2.2603668,48.8143918],[2.2599363,48.8142626],[2.2598046,48.8144086],[2.2596592,48.8146641],[2.2595305,48.8146067],[2.2593598,48.8147729],[2.2596763,48.8149166],[2.2588269,48.8155271],[2.2583566,48.8152176],[2.2576156,48.8150077],[2.2582676,48.8111224],[2.2620672,48.8123345],[2.2615891,48.8129567],[2.2615356,48.8132718],[2.2613545,48.813255]]]]},"properties":{"code_section":"920230000D","code_commune":"92023","section_courte":"D"}},{"type":"Feature","geometry":{"type":"MultiPolygon","coordinates":[[[[2.2620466,48.8135626],[2.2613436,48.8132645],[2.2615356,48.8132718],[2.2615891,48.8129567],[2.2620672,48.8123345],[2.2618198,48.8122556],[2.2649511,48.8110289],[2.2670377,48.8133083],[2.2673167,48.8139963],[2.2659798,48.8136784],[2.2649385,48.8135837],[2.2639357,48.8144661],[2.2626956,48.8138446],[2.2620466,48.8135626]]]]},"properties":{"code_section":"920230000E","code_commune":"92023","section_courte":"E"}},{"type":"Feature","geometry":{"type":"MultiPolygon","coordinates":[[[[2.2683749,48.8140791],[2.2673167,48.8139963],[2.2670377,48.8133083],[2.2649511,48.8110289],[2.2662449,48.810699],[2.2688086,48.8116872],[2.2701937,48.8134723],[2.2701441,48.8142095],[2.2683749,48.8140791]]]]},"properties":{"code_section":"920230000F","code_commune":"92023","section_courte":"F"}},{"type":"Feature","geometry":{"type":"MultiPolygon","coordinates":[[[[2.2708663,48.8095757],[2.27188,48.8093604],[2.272496,48.811287],[2.2709427,48.8115345],[2.2704468,48.8112632],[2.270347,48.8113144],[2.2707811,48.8119094],[2.2693039,48.8123255],[2.2688086,48.8116872],[2.2662449,48.810699],[2.2691622,48.8099461],[2.2708663,48.8095757]]]]},"properties":{"code_section":"920230000G","code_commune":"92023","section_courte":"G"}},{"type":"Feature","geometry":{"type":"MultiPolygon","coordinates":[[[[2.2724427,48.8141785],[2.2725696,48.8143908],[2.2701441,48.8142095],[2.2701937,48.8134723],[2.2693039,48.8123255],[2.2707811,48.8119094],[2.270347,48.8113144],[2.2704468,48.8112632],[2.2709427,48.8115345],[2.272496,48.811287],[2.2729355,48.8126497],[2.2720244,48.8134277],[2.2724427,48.8141785]]]]},"properties":{"code_section":"920230000H","code_commune":"92023","section_courte":"H"}},{"type":"Feature","geometry":{"type":"MultiPolygon","coordinates":[[[[2.2726037,48.814386],[2.2724427,48.8141785],[2.2720244,48.8134277],[2.2729355,48.8126497],[2.2742989,48.8133692],[2.2744775,48.8134105],[2.2743961,48.8134639],[2.2781522,48.8143318],[2.2780528,48.8148473],[2.2771811,48.8153511],[2.2761437,48.8149687],[2.2742184,48.8145412],[2.2729888,48.8143984],[2.2726037,48.814386]]]]},"properties":{"code_section":"920230000I","code_commune":"92023","section_courte":"I"}},{"type":"Feature","geometry":{"type":"MultiPolygon","coordinates":[[[[2.2745557,48.8133592],[2.2744775,48.8134105],[2.2742989,48.8133692],[2.2729355,48.8126497],[2.27188,48.8093604],[2.2746526,48.8085128],[2.2762918,48.8112328],[2.277353,48.8119772],[2.2760379,48.8124414],[2.2760117,48.812418],[2.2753901,48.8127458],[2.2754264,48.8127731],[2.2745557,48.8133592]]]]},"properties":{"code_section":"920230000J","code_commune":"92023","section_courte":"J"}},{"type":"Feature","geometry":{"type":"MultiPolygon","coordinates":[[[[2.2774242,48.8119451],[2.277353,48.8119772],[2.2762918,48.8112328],[2.2746526,48.8085128],[2.2766606,48.8078413],[2.2772719,48.8075652],[2.2777541,48.8082131],[2.2782419,48.8087102],[2.2799477,48.8109789],[2.2785016,48.8114302],[2.2774242,48.8119451]]]]},"properties":{"code_section":"920230000K","code_commune":"92023","section_courte":"K"}},{"type":"Feature","geometry":{"type":"MultiPolygon","coordinates":[[[[2.2723531,48.8054528],[2.2720453,48.8050549],[2.2731255,48.8046264],[2.2736036,48.8054572],[2.2758517,48.8049855],[2.2761307,48.8053059],[2.2772719,48.8075652],[2.2766606,48.8078413],[2.2746526,48.8085128],[2.2740929,48.8077244],[2.2734624,48.8071192],[2.2723531,48.8054528]]]]},"properties":{"code_section":"920230000L","code_commune":"92023","section_courte":"L"}},{"type":"Feature","geometry":{"type":"MultiPolygon","coordinates":[[[[2.2716916,48.8023989],[2.2731474,48.8018986],[2.2742996,48.8033961],[2.2758517,48.8049855],[2.2736036,48.8054572],[2.2731255,48.8046264],[2.2720453,48.8050549],[2.2712254,48.8040126],[2.271049,48.8038918],[2.2700764,48.8036476],[2.2716916,48.8023989]]]]},"properties":{"code_section":"920230000M","code_commune":"92023","section_courte":"M"}},{"type":"Feature","geometry":{"type":"MultiPolygon","coordinates":[[[[2.2707152,48.8055824],[2.2692852,48.8061515],[2.2676681,48.8067291],[2.266762,48.8050813],[2.2659576,48.8039553],[2.2667648,48.8036808],[2.2671914,48.8037345],[2.2676313,48.8037433],[2.2679292,48.8037258],[2.2689612,48.8035766],[2.2692215,48.8035671],[2.2698512,48.8036053],[2.2704793,48.8037347],[2.271049,48.8038918],[2.2712254,48.8040126],[2.2720453,48.8050549],[2.2707152,48.8055824]]]]},"properties":{"code_section":"920230000N","code_commune":"92023","section_courte":"N"}},{"type":"Feature","geometry":{"type":"MultiPolygon","coordinates":[[[[2.2695824,48.8064224],[2.2692852,48.8061515],[2.2720453,48.8050549],[2.2725379,48.8057127],[2.2734624,48.8071192],[2.2740929,48.8077244],[2.2746526,48.8085128],[2.27188,48.8093604],[2.2705136,48.8072972],[2.2695824,48.8064224]]]]},"properties":{"code_section":"920230000O","code_commune":"92023","section_courte":"O"}},{"type":"Feature","geometry":{"type":"MultiPolygon","coordinates":[[[[2.2683006,48.8082708],[2.2676681,48.8067291],[2.2692852,48.8061515],[2.2705136,48.8072972],[2.27188,48.8093604],[2.2692873,48.8099189],[2.2685416,48.8087488],[2.2683006,48.8082708]]]]},"properties":{"code_section":"920230000P","code_commune":"92023","section_courte":"P"}},{"type":"Feature","geometry":{"type":"MultiPolygon","coordinates":[[[[2.2679465,48.8076857],[2.2680433,48.807668],[2.2684363,48.8085699],[2.2692873,48.8099189],[2.2649511,48.8110289],[2.2643105,48.8103741],[2.2636248,48.8098008],[2.2646157,48.8093017],[2.2648521,48.8092408],[2.2651036,48.809238],[2.2658933,48.8087478],[2.2661559,48.8086739],[2.2662319,48.8083407],[2.2661807,48.8080237],[2.2679465,48.8076857]]]]},"properties":{"code_section":"920230000Q","code_commune":"92023","section_courte":"Q"}},{"type":"Feature","geometry":{"type":"MultiPolygon","coordinates":[[[[2.2671066,48.8078496],[2.2661807,48.8080237],[2.2661203,48.8077883],[2.2654402,48.8079675],[2.2652903,48.8077977],[2.2643865,48.8071873],[2.2645252,48.8070475],[2.2645288,48.8069702],[2.2634464,48.8051997],[2.2651493,48.804271],[2.2659576,48.8039553],[2.266637,48.8048863],[2.266994,48.8054869],[2.2676681,48.8067291],[2.2680433,48.807668],[2.2671066,48.8078496]]]]},"properties":{"code_section":"920230000R","code_commune":"92023","section_courte":"R"}},{"type":"Feature","geometry":{"type":"MultiPolygon","coordinates":[[[[2.2661203,48.8077883],[2.2662319,48.8083407],[2.2661559,48.8086739],[2.2658933,48.8087478],[2.2651036,48.809238],[2.2648521,48.8092408],[2.2646157,48.8093017],[2.2636248,48.8098008],[2.2623503,48.808736],[2.2605505,48.8068533],[2.2615309,48.8062377],[2.2634464,48.8051997],[2.2645288,48.8069702],[2.2645252,48.8070475],[2.2643865,48.8071873],[2.2652903,48.8077977],[2.2654402,48.8079675],[2.2661203,48.8077883]]]]},"properties":{"code_section":"920230000S","code_commune":"92023","section_courte":"S"}},{"type":"Feature","geometry":{"type":"MultiPolygon","coordinates":[[[[2.2590589,48.8104135],[2.259634,48.8098852],[2.2607234,48.8093753],[2.2610678,48.8094109],[2.261924,48.8090963],[2.2624236,48.8087972],[2.2643105,48.8103741],[2.2649511,48.8110289],[2.2618198,48.8122556],[2.2582676,48.8111224],[2.2583998,48.8103768],[2.2589682,48.8105049],[2.2590589,48.8104135]]]]},"properties":{"code_section":"920230000T","code_commune":"92023","section_courte":"T"}},{"type":"Feature","geometry":{"type":"MultiPolygon","coordinates":[[[[2.2584946,48.8103841],[2.2583998,48.8103768],[2.2590143,48.8066081],[2.2591224,48.8065915],[2.2596638,48.8063381],[2.2606416,48.8057323],[2.2616295,48.8061844],[2.2605505,48.8068533],[2.2624236,48.8087972],[2.261924,48.8090963],[2.2610678,48.8094109],[2.2607234,48.8093753],[2.259634,48.8098852],[2.2589682,48.8105049],[2.2584946,48.8103841]]]]},"properties":{"code_section":"920230000U","code_commune":"92023","section_courte":"U"}},{"type":"Feature","geometry":{"type":"MultiPolygon","coordinates":[[[[2.2584268,48.8068551],[2.2590143,48.8066081],[2.2582676,48.8111224],[2.2565732,48.8105327],[2.2547101,48.8075805],[2.2568685,48.8072733],[2.2584268,48.8068551]]]]},"properties":{"code_section":"920230000V","code_commune":"92023","section_courte":"V"}},{"type":"Feature","geometry":{"type":"MultiPolygon","coordinates":[[[[2.2565732,48.8105327],[2.254974,48.8101387],[2.2531946,48.8097708],[2.2527152,48.8096389],[2.2526427,48.8096075],[2.251695,48.8087191],[2.2503784,48.8078855],[2.2510087,48.807839],[2.2513056,48.8077867],[2.2542484,48.8068488],[2.2565732,48.8105327]]]]},"properties":{"code_section":"920230000X","code_commune":"92023","section_courte":"X"}},{"type":"Feature","geometry":{"type":"MultiPolygon","coordinates":[[[[2.2566829,48.8067205],[2.2568685,48.8072733],[2.2547101,48.8075805],[2.2542484,48.8068488],[2.2523134,48.8074695],[2.2513103,48.8052869],[2.2524932,48.8051596],[2.2528896,48.8050796],[2.2536403,48.8045816],[2.2547356,48.8041291],[2.2562582,48.8062053],[2.2564051,48.806158],[2.256631,48.8065529],[2.2566829,48.8067205]]]]},"properties":{"code_section":"920230000Y","code_commune":"92023","section_courte":"Y"}},{"type":"Feature","geometry":{"type":"MultiPolygon","coordinates":[[[[2.2551873,48.8047328],[2.2547356,48.8041291],[2.2571442,48.8033458],[2.258585,48.8047636],[2.2606416,48.8057323],[2.2596638,48.8063381],[2.2591224,48.8065915],[2.2590143,48.8066081],[2.2584268,48.8068551],[2.2568756,48.8072715],[2.256631,48.8065529],[2.2564051,48.806158],[2.2562582,48.8062053],[2.2551873,48.8047328]]]]},"properties":{"code_section":"920230000Z","code_commune":"92023","section_courte":"Z"}},{"type":"Feature","geometry":{"type":"MultiPolygon","coordinates":[[[[2.2634464,48.8051997],[2.2616295,48.8061844],[2.2594614,48.8051913],[2.2628341,48.8027829],[2.2637645,48.803897],[2.2642941,48.8043919],[2.2645625,48.8045727],[2.2634464,48.8051997]]]]},"properties":{"code_section":"92023000AB","code_commune":"92023","section_courte":"AB"}},{"type":"Feature","geometry":{"type":"MultiPolygon","coordinates":[[[[2.2625766,48.8024662],[2.2628341,48.8027829],[2.2594614,48.8051913],[2.258585,48.8047636],[2.2571442,48.8033458],[2.2581047,48.8026447],[2.2613456,48.8004231],[2.2619892,48.8008248],[2.2617584,48.8011258],[2.2617822,48.801673],[2.2620758,48.8021306],[2.2625766,48.8024662]]]]},"properties":{"code_section":"92023000AC","code_commune":"92023","section_courte":"AC"}},{"type":"Feature","geometry":{"type":"MultiPolygon","coordinates":[[[[2.2668579,48.8013653],[2.2669402,48.8014189],[2.2628341,48.8027829],[2.2625766,48.8024662],[2.2620758,48.8021306],[2.2617822,48.801673],[2.2617584,48.8011258],[2.2619892,48.8008248],[2.2613456,48.8004231],[2.2625846,48.8000997],[2.2629,48.8002953],[2.2633844,48.8000597],[2.2642741,48.7997685],[2.2647978,48.7996685],[2.2653221,48.8000523],[2.2656769,48.8002348],[2.2659053,48.8003977],[2.2668579,48.8013653]]]]},"properties":{"code_section":"92023000AD","code_commune":"92023","section_courte":"AD"}},{"type":"Feature","geometry":{"type":"MultiPolygon","coordinates":[[[[2.2635051,48.8035875],[2.2628341,48.8027829],[2.2669402,48.8014189],[2.2670873,48.8031618],[2.2669235,48.8037025],[2.2667648,48.8036808],[2.2660705,48.8039125],[2.2652444,48.804225],[2.2645625,48.8045727],[2.2642941,48.8043919],[2.2637645,48.803897],[2.2635051,48.8035875]]]]},"properties":{"code_section":"92023000AE","code_commune":"92023","section_courte":"AE"}},{"type":"Feature","geometry":{"type":"MultiPolygon","coordinates":[[[[2.267125,48.8037291],[2.2669235,48.8037025],[2.2670873,48.8031618],[2.2669402,48.8014189],[2.268317,48.8013773],[2.2731089,48.8018461],[2.2731474,48.8018986],[2.2716916,48.8023989],[2.2700764,48.8036476],[2.2697279,48.8035885],[2.2690702,48.8035702],[2.2679292,48.8037258],[2.267125,48.8037291]]]]},"properties":{"code_section":"92023000AF","code_commune":"92023","section_courte":"AF"}},{"type":"Feature","geometry":{"type":"MultiPolygon","coordinates":[[[[2.2722245,48.7990553],[2.272263,48.7990499],[2.2730292,48.8018382],[2.268317,48.8013773],[2.2670276,48.8014197],[2.2671617,48.8011803],[2.2673752,48.8005383],[2.2678887,48.799262],[2.2681478,48.7992487],[2.2683906,48.7997221],[2.2685157,48.7998641],[2.2687401,48.8000125],[2.2692005,48.8002177],[2.2705994,48.799336],[2.270803,48.7992514],[2.2722245,48.7990553]]]]},"properties":{"code_section":"92023000AG","code_commune":"92023","section_courte":"AG"}},{"type":"Feature","geometry":{"type":"MultiPolygon","coordinates":[[[[2.2766079,48.7995346],[2.2765871,48.7998188],[2.2766348,48.800148],[2.2764213,48.8002136],[2.2764911,48.8004614],[2.2766832,48.8004715],[2.2771197,48.8008895],[2.2773318,48.8011599],[2.2775361,48.8015077],[2.2756112,48.8017297],[2.2743919,48.8017575],[2.2734223,48.8018403],[2.2730292,48.8018382],[2.272263,48.7990499],[2.2743805,48.7987695],[2.2745118,48.7987253],[2.2753877,48.7982012],[2.2756989,48.7989385],[2.2762295,48.7988212],[2.276481,48.7990865],[2.2766079,48.7995346]]]]},"properties":{"code_section":"92023000AH","code_commune":"92023","section_courte":"AH"}},{"type":"Feature","geometry":{"type":"MultiPolygon","coordinates":[[[[2.2700795,48.7973481],[2.2700568,48.7972713],[2.2689481,48.7966534],[2.269611,48.7960827],[2.2713932,48.794934],[2.2740611,48.7963915],[2.2756211,48.7972963],[2.2757355,48.797389],[2.2763636,48.7977088],[2.2760858,48.7978798],[2.2753877,48.7982012],[2.2745118,48.7987253],[2.2743805,48.7987695],[2.2722245,48.7990553],[2.2717992,48.7985769],[2.2716859,48.7986176],[2.2715304,48.7984906],[2.2719103,48.7982611],[2.2707841,48.7974877],[2.2705903,48.7976483],[2.2700795,48.7973481]]]]},"properties":{"code_section":"92023000AI","code_commune":"92023","section_courte":"AI"}},{"type":"Feature","geometry":{"type":"MultiPolygon","coordinates":[[[[2.2717992,48.7985769],[2.2722245,48.7990553],[2.270803,48.7992514],[2.2705994,48.799336],[2.2692005,48.8002177],[2.2686656,48.7999722],[2.268428,48.7997736],[2.2680033,48.7989521],[2.2679104,48.7984421],[2.2673633,48.7977673],[2.2689481,48.7966534],[2.2700568,48.7972713],[2.27006,48.7973368],[2.2705903,48.7976483],[2.2707841,48.7974877],[2.2716737,48.7981141],[2.2716959,48.7980969],[2.2719103,48.7982611],[2.2715304,48.7984906],[2.2716859,48.7986176],[2.2717992,48.7985769]]]]},"properties":{"code_section":"92023000AJ","code_commune":"92023","section_courte":"AJ"}},{"type":"Feature","geometry":{"type":"MultiPolygon","coordinates":[[[[2.2680033,48.7989521],[2.2681478,48.7992487],[2.2678887,48.799262],[2.2673752,48.8005383],[2.2671617,48.8011803],[2.2670276,48.8014197],[2.2669402,48.8014189],[2.2668579,48.8013653],[2.2659432,48.8004318],[2.2657143,48.8002593],[2.2653221,48.8000523],[2.2647978,48.7996685],[2.2646433,48.7996862],[2.263948,48.7992481],[2.2653062,48.7983796],[2.2653035,48.7989751],[2.266695,48.7979984],[2.2673633,48.7977673],[2.2679104,48.7984421],[2.2680033,48.7989521]]]]},"properties":{"code_section":"92023000AK","code_commune":"92023","section_courte":"AK"}},{"type":"Feature","geometry":{"type":"MultiPolygon","coordinates":[[[[2.2634056,48.7990198],[2.2635847,48.7992319],[2.2638724,48.7992005],[2.2646433,48.7996862],[2.2642741,48.7997685],[2.2633844,48.8000597],[2.2629,48.8002953],[2.2625846,48.8000997],[2.2613456,48.8004231],[2.2611796,48.8003639],[2.2598407,48.7992816],[2.2598557,48.7992328],[2.2590118,48.7989224],[2.2585743,48.7987158],[2.259877,48.7976094],[2.2604826,48.797951],[2.2614736,48.7975357],[2.2625189,48.7971887],[2.2632796,48.7983792],[2.2635595,48.7986203],[2.2632091,48.7987981],[2.2634056,48.7990198]]]]},"properties":{"code_section":"92023000AL","code_commune":"92023","section_courte":"AL"}},{"type":"Feature","geometry":{"type":"MultiPolygon","coordinates":[[[[2.2632796,48.7983792],[2.2625189,48.7971887],[2.2650392,48.7963475],[2.2649894,48.7961105],[2.2650711,48.7954023],[2.2668319,48.7952632],[2.2672287,48.7956887],[2.2676452,48.7960534],[2.2677118,48.7962085],[2.268752,48.796791],[2.2673633,48.7977673],[2.266695,48.7979984],[2.2653035,48.7989751],[2.2653062,48.7983796],[2.263948,48.7992481],[2.2638724,48.7992005],[2.2635847,48.7992319],[2.2632091,48.7987981],[2.2635595,48.7986203],[2.2632796,48.7983792]]]]},"properties":{"code_section":"92023000AM","code_commune":"92023","section_courte":"AM"}},{"type":"Feature","geometry":{"type":"MultiPolygon","coordinates":[[[[2.2712885,48.794877],[2.2713932,48.794934],[2.269611,48.7960827],[2.268752,48.796791],[2.2677118,48.7962085],[2.2676452,48.7960534],[2.2672287,48.7956887],[2.2668319,48.7952632],[2.2650711,48.7954023],[2.2650967,48.7949577],[2.2650519,48.7938438],[2.2712885,48.794877]]]]},"properties":{"code_section":"92023000AN","code_commune":"92023","section_courte":"AN"}},{"type":"Feature","geometry":{"type":"MultiPolygon","coordinates":[[[[2.2722029,48.7940526],[2.2722319,48.7940656],[2.2721745,48.7941716],[2.2713932,48.794934],[2.2712885,48.794877],[2.2661272,48.7940219],[2.2667315,48.7935992],[2.2670522,48.7932641],[2.2673427,48.7921089],[2.2674886,48.791948],[2.2691739,48.7926192],[2.2722029,48.7940526]]]]},"properties":{"code_section":"92023000AO","code_commune":"92023","section_courte":"AO"}},{"type":"Feature","geometry":{"type":"MultiPolygon","coordinates":[[[[2.2689789,48.7895022],[2.2690134,48.7893776],[2.269837,48.7896748],[2.2712334,48.7902232],[2.2719292,48.7906267],[2.2722927,48.7907963],[2.2725571,48.7908426],[2.2730196,48.7908339],[2.2722319,48.7940656],[2.2691739,48.7926192],[2.2682041,48.7922342],[2.2689789,48.7895022]]]]},"properties":{"code_section":"92023000AP","code_commune":"92023","section_courte":"AP"}},{"type":"Feature","geometry":{"type":"MultiPolygon","coordinates":[[[[2.2682429,48.7920974],[2.2682041,48.7922342],[2.2629433,48.7901147],[2.2639678,48.7893829],[2.2641256,48.7884944],[2.2651547,48.7886262],[2.2682589,48.7891908],[2.2690134,48.7893776],[2.2682429,48.7920974]]]]},"properties":{"code_section":"92023000AQ","code_commune":"92023","section_courte":"AQ"}},{"type":"Feature","geometry":{"type":"MultiPolygon","coordinates":[[[[2.2628702,48.790167],[2.2629433,48.7901147],[2.2674886,48.791948],[2.2673427,48.7921089],[2.2670522,48.7932641],[2.2667315,48.7935992],[2.2661272,48.7940219],[2.2650519,48.7938438],[2.2650214,48.7932535],[2.2646898,48.792648],[2.2644965,48.7924623],[2.2636352,48.7918267],[2.262917,48.7914926],[2.262798,48.7914745],[2.2628702,48.790167]]]]},"properties":{"code_section":"92023000AR","code_commune":"92023","section_courte":"AR"}},{"type":"Feature","geometry":{"type":"MultiPolygon","coordinates":[[[[2.2614736,48.7975357],[2.2604826,48.797951],[2.259877,48.7976094],[2.2585743,48.7987158],[2.2581053,48.7982499],[2.2571844,48.7978405],[2.2566799,48.797501],[2.256665,48.7975251],[2.254452,48.7958246],[2.2545787,48.7957586],[2.2547929,48.7957957],[2.254911,48.7957808],[2.2561319,48.7951739],[2.2569343,48.7949698],[2.2570458,48.7948641],[2.257568,48.7948504],[2.2579759,48.7946798],[2.2579555,48.7947312],[2.2588039,48.7944423],[2.259186,48.7944109],[2.2594376,48.7943439],[2.2596125,48.7942184],[2.2598462,48.7939434],[2.2600287,48.793508],[2.260181,48.7934411],[2.2618371,48.7932455],[2.2626032,48.7931955],[2.2628256,48.7928647],[2.263333,48.7924077],[2.2637833,48.7919271],[2.2642748,48.7923233],[2.2644965,48.7924623],[2.2646898,48.792648],[2.2650214,48.7932535],[2.2650967,48.7949577],[2.2649894,48.7961105],[2.2650392,48.7963475],[2.2614736,48.7975357]]]]},"properties":{"code_section":"92023000AS","code_commune":"92023","section_courte":"AS"}},{"type":"Feature","geometry":{"type":"MultiPolygon","coordinates":[[[[2.2498109,48.8055144],[2.2492062,48.8056766],[2.2489195,48.8047363],[2.2486825,48.8043183],[2.2484218,48.8040407],[2.2482258,48.8039366],[2.2472075,48.8030024],[2.244694,48.8024586],[2.2427293,48.8032442],[2.2425976,48.8031025],[2.2423605,48.8032393],[2.2423346,48.8034504],[2.2415687,48.8029233],[2.2410795,48.801894],[2.2413557,48.8018371],[2.2418051,48.8016059],[2.2415751,48.8008971],[2.2413652,48.800852],[2.247162,48.7969487],[2.248935,48.7960672],[2.2489854,48.7959673],[2.2491401,48.7959674],[2.2528026,48.794146],[2.2533178,48.7946269],[2.2537475,48.7951546],[2.2545787,48.7957586],[2.254452,48.7958246],[2.256665,48.7975251],[2.2566799,48.797501],[2.2571844,48.7978405],[2.2581053,48.7982499],[2.2583624,48.7985373],[2.258609,48.7987402],[2.2590118,48.7989224],[2.2598557,48.7992328],[2.2598407,48.7992816],[2.2611796,48.8003639],[2.2613456,48.8004231],[2.2581047,48.8026447],[2.2571442,48.8033458],[2.2549689,48.8040505],[2.2543259,48.8042861],[2.2536279,48.8045883],[2.2528896,48.8050796],[2.2524932,48.8051596],[2.2503179,48.8054075],[2.2498109,48.8055144]]]]},"properties":{"code_section":"92023000AT","code_commune":"92023","section_courte":"AT"}},{"type":"Feature","geometry":{"type":"MultiPolygon","coordinates":[[[[2.2516483,48.8060321],[2.2523134,48.8074695],[2.2513056,48.8077867],[2.2510087,48.807839],[2.2503784,48.8078855],[2.2502568,48.8078084],[2.2483269,48.8074781],[2.2485765,48.8064736],[2.2492787,48.8060711],[2.2495509,48.8055846],[2.2503179,48.8054075],[2.2513103,48.8052869],[2.2516483,48.8060321]]],[[[2.2482258,48.8039366],[2.246304,48.8047918],[2.2462682,48.8047724],[2.2461974,48.804605],[2.2459716,48.8044169],[2.2457178,48.8042991],[2.2460761,48.8027595],[2.2472075,48.8030024],[2.2482258,48.8039366]]]]},"properties":{"code_section":"92023000AU","code_commune":"92023","section_courte":"AU"}},{"type":"Feature","geometry":{"type":"MultiPolygon","coordinates":[[[[2.2448462,48.8024916],[2.2460761,48.8027595],[2.2457178,48.8042991],[2.2455101,48.8044889],[2.2450758,48.8047365],[2.2433618,48.80387],[2.2427293,48.8032442],[2.244694,48.8024586],[2.2448462,48.8024916]]]]},"properties":{"code_section":"92023000AV","code_commune":"92023","section_courte":"AV"}},{"type":"Feature","geometry":{"type":"MultiPolygon","coordinates":[[[[2.2530876,48.7939271],[2.2527289,48.7940683],[2.2528026,48.794146],[2.2491401,48.7959674],[2.2489854,48.7959673],[2.248935,48.7960672],[2.247162,48.7969487],[2.2413652,48.800852],[2.2410422,48.8007937],[2.2407744,48.8008108],[2.2405835,48.8007287],[2.2400678,48.7996242],[2.2395889,48.799637],[2.2389556,48.7984958],[2.2387571,48.7977659],[2.2361047,48.7956279],[2.2347744,48.7954493],[2.2363882,48.7889815],[2.2365402,48.7888949],[2.2363813,48.7887621],[2.2381889,48.7884261],[2.2386892,48.7883628],[2.2391985,48.7883683],[2.2394356,48.7884541],[2.2402223,48.7889996],[2.2413419,48.7895863],[2.2425833,48.7900732],[2.2431762,48.790245],[2.2459903,48.7907502],[2.2483286,48.7910224],[2.251369,48.7915568],[2.2513424,48.7916209],[2.2517885,48.7920668],[2.2519769,48.7921474],[2.252088,48.7922506],[2.2522428,48.7925709],[2.252274,48.7925942],[2.2525804,48.7925992],[2.2526015,48.7925764],[2.2527699,48.7925651],[2.2533879,48.793043],[2.2539025,48.793552],[2.2538838,48.7936142],[2.2530876,48.7939271]]]]},"properties":{"code_section":"92023000AX","code_commune":"92023","section_courte":"AX"}},{"type":"Feature","geometry":{"type":"MultiPolygon","coordinates":[[[[2.2513583,48.7915738],[2.2515916,48.7915863],[2.2554863,48.7922231],[2.2541901,48.7948701],[2.2542961,48.7949706],[2.2538104,48.7952023],[2.2536631,48.7950713],[2.2533178,48.7946269],[2.2527289,48.7940683],[2.2538838,48.7936142],[2.2539025,48.793552],[2.2533879,48.793043],[2.2527699,48.7925651],[2.2526015,48.7925764],[2.2525804,48.7925992],[2.252274,48.7925942],[2.2522428,48.7925709],[2.252088,48.7922506],[2.2519769,48.7921474],[2.2517885,48.7920668],[2.2513424,48.7916209],[2.2513583,48.7915738]]]]},"properties":{"code_section":"92023000AY","code_commune":"92023","section_courte":"AY"}},{"type":"Feature","geometry":{"type":"MultiPolygon","coordinates":[[[[2.2546717,48.795775],[2.2545787,48.7957586],[2.2538104,48.7952023],[2.2542961,48.7949706],[2.2541901,48.7948701],[2.2554863,48.7922231],[2.2587658,48.7927622],[2.2579759,48.7946798],[2.257568,48.7948504],[2.2570458,48.7948641],[2.2569343,48.7949698],[2.2561319,48.7951739],[2.254911,48.7957808],[2.2546717,48.795775]]]]},"properties":{"code_section":"92023000AZ","code_commune":"92023","section_courte":"AZ"}},{"type":"Feature","geometry":{"type":"MultiPolygon","coordinates":[[[[2.258328,48.7908277],[2.2595117,48.791002],[2.2587658,48.7927622],[2.2526988,48.7917717],[2.2535387,48.7899194],[2.255871,48.7904951],[2.2583143,48.7908578],[2.258328,48.7908277]]]]},"properties":{"code_section":"92023000BC","code_commune":"92023","section_courte":"BC"}},{"type":"Feature","geometry":{"type":"MultiPolygon","coordinates":[[[[2.2637833,48.7919271],[2.263333,48.7924077],[2.2628256,48.7928647],[2.2626032,48.7931955],[2.2618371,48.7932455],[2.260181,48.7934411],[2.2600287,48.793508],[2.2598462,48.7939434],[2.2596125,48.7942184],[2.2594376,48.7943439],[2.259186,48.7944109],[2.2588039,48.7944423],[2.2579555,48.7947312],[2.2595117,48.791002],[2.262917,48.7914926],[2.2635128,48.79176],[2.2637833,48.7919271]]]]},"properties":{"code_section":"92023000BD","code_commune":"92023","section_courte":"BD"}},{"type":"Feature","geometry":{"type":"MultiPolygon","coordinates":[[[[2.2591665,48.7886765],[2.2592193,48.7885686],[2.2629433,48.7901147],[2.2628702,48.790167],[2.262798,48.7914745],[2.258328,48.7908277],[2.2586091,48.7900325],[2.2586909,48.7896421],[2.2591665,48.7886765]]]]},"properties":{"code_section":"92023000BE","code_commune":"92023","section_courte":"BE"}},{"type":"Feature","geometry":{"type":"MultiPolygon","coordinates":[[[[2.2641235,48.7884912],[2.2639678,48.7893829],[2.2629433,48.7901147],[2.2585528,48.7882984],[2.2587277,48.7862755],[2.2637902,48.7883766],[2.2641235,48.7884912]]]]},"properties":{"code_section":"92023000BF","code_commune":"92023","section_courte":"BF"}},{"type":"Feature","geometry":{"type":"MultiPolygon","coordinates":[[[[2.2586639,48.7897711],[2.2586091,48.7900325],[2.2583143,48.7908578],[2.2558535,48.7904917],[2.2535387,48.7899194],[2.2526988,48.7917717],[2.2488328,48.7911073],[2.2501376,48.788583],[2.249605,48.788357],[2.2515873,48.7855002],[2.2521336,48.7857215],[2.2525884,48.7845498],[2.254525,48.7848663],[2.2567792,48.7855091],[2.2587289,48.7861782],[2.2585528,48.7882984],[2.2592193,48.7885686],[2.2586909,48.7896421],[2.2586639,48.7897711]]]]},"properties":{"code_section":"92023000BG","code_commune":"92023","section_courte":"BG"}},{"type":"Feature","geometry":{"type":"MultiPolygon","coordinates":[[[[2.2488501,48.7910783],[2.2488328,48.7911073],[2.2483286,48.7910224],[2.2459903,48.7907502],[2.2431762,48.790245],[2.2425833,48.7900732],[2.2413419,48.7895863],[2.2402223,48.7889996],[2.2394356,48.7884541],[2.2391985,48.7883683],[2.2386892,48.7883628],[2.2381889,48.7884261],[2.2369886,48.7886493],[2.2375586,48.7863881],[2.2389616,48.7860177],[2.2404075,48.785392],[2.2466072,48.7871851],[2.2495798,48.7883962],[2.249605,48.788357],[2.2501376,48.788583],[2.2488501,48.7910783]]]]},"properties":{"code_section":"92023000BH","code_commune":"92023","section_courte":"BH"}},{"type":"Feature","geometry":{"type":"MultiPolygon","coordinates":[[[[2.2496335,48.7883152],[2.2495798,48.7883962],[2.2466072,48.7871851],[2.2404075,48.785392],[2.2403631,48.7853027],[2.2412229,48.78398],[2.2412449,48.7839911],[2.2415685,48.7836985],[2.2422459,48.7833192],[2.2419943,48.7827397],[2.2425269,48.7819214],[2.242508,48.7818773],[2.2425652,48.7818039],[2.2466919,48.7834798],[2.2485291,48.7826686],[2.2505716,48.7846794],[2.2506529,48.7844981],[2.2518774,48.784478],[2.2525884,48.7845498],[2.2521336,48.7857215],[2.2515873,48.7855002],[2.2496335,48.7883152]]]]},"properties":{"code_section":"92023000BI","code_commune":"92023","section_courte":"BI"}},{"type":"Feature","geometry":{"type":"MultiPolygon","coordinates":[[[[2.2484655,48.7826261],[2.2485031,48.7826801],[2.2466919,48.7834798],[2.2391629,48.7804013],[2.2392761,48.7803387],[2.2392272,48.7803183],[2.2392803,48.7802891],[2.2393294,48.780309],[2.2400164,48.7799287],[2.2402171,48.7798496],[2.2463316,48.7791157],[2.2465141,48.7797493],[2.2467852,48.7802887],[2.2484655,48.7826261]]]]},"properties":{"code_section":"92023000BJ","code_commune":"92023","section_courte":"BJ"}},{"type":"Feature","geometry":{"type":"MultiPolygon","coordinates":[[[[2.2420005,48.7827299],[2.2422459,48.7833192],[2.2415685,48.7836985],[2.2403198,48.7829907],[2.2403486,48.782941],[2.2384967,48.7826218],[2.2390286,48.7803764],[2.2391629,48.7804013],[2.2425652,48.7818039],[2.242508,48.7818773],[2.2425269,48.7819214],[2.2420005,48.7827299]]]]},"properties":{"code_section":"92023000BK","code_commune":"92023","section_courte":"BK"}},{"type":"Feature","geometry":{"type":"MultiPolygon","coordinates":[[[[2.2400882,48.7828872],[2.2403486,48.782941],[2.2403198,48.7829907],[2.2415685,48.7836985],[2.2412449,48.7839911],[2.2412229,48.78398],[2.2403631,48.7853027],[2.2404075,48.785392],[2.2389616,48.7860177],[2.2375586,48.7863881],[2.2384967,48.7826218],[2.2400882,48.7828872]]]]},"properties":{"code_section":"92023000BL","code_commune":"92023","section_courte":"BL"}},{"type":"Feature","geometry":{"type":"MultiPolygon","coordinates":[[[[2.2349231,48.7846508],[2.2348957,48.7845456],[2.2379524,48.7848013],[2.2369886,48.7886493],[2.2363813,48.7887621],[2.2359408,48.7884041],[2.2358643,48.7883056],[2.2356295,48.7873298],[2.2354115,48.7869537],[2.2349231,48.7846508]]]]},"properties":{"code_section":"92023000BM","code_commune":"92023","section_courte":"BM"}},{"type":"Feature","geometry":{"type":"MultiPolygon","coordinates":[[[[2.2380167,48.7836676],[2.2382246,48.7837155],[2.2379524,48.7848013],[2.2348957,48.7845456],[2.2348679,48.7844957],[2.2335734,48.7841844],[2.2306448,48.7833988],[2.2297567,48.7831147],[2.2290918,48.7828024],[2.2278673,48.7820823],[2.2267713,48.7816371],[2.2284831,48.7802589],[2.2314313,48.7801219],[2.2331946,48.7808466],[2.2341264,48.7828947],[2.2342249,48.7828758],[2.2380167,48.7836676]]]]},"properties":{"code_section":"92023000BN","code_commune":"92023","section_courte":"BN"}},{"type":"Feature","geometry":{"type":"MultiPolygon","coordinates":[[[[2.2334285,48.7813654],[2.2329628,48.7803327],[2.236332,48.7817004],[2.2388827,48.7809644],[2.2382246,48.7837155],[2.2342249,48.7828758],[2.2341264,48.7828947],[2.2334285,48.7813654]]]]},"properties":{"code_section":"92023000BO","code_commune":"92023","section_courte":"BO"}},{"type":"Feature","geometry":{"type":"MultiPolygon","coordinates":[[[[2.2390286,48.7803764],[2.2388827,48.7809644],[2.236332,48.7817004],[2.2329628,48.7803327],[2.2327689,48.7799032],[2.2353509,48.7788158],[2.2390286,48.7803764]]]]},"properties":{"code_section":"92023000BP","code_commune":"92023","section_courte":"BP"}},{"type":"Feature","geometry":{"type":"MultiPolygon","coordinates":[[[[2.2397654,48.779052],[2.2399909,48.7790257],[2.2402171,48.7798496],[2.2400164,48.7799287],[2.2393294,48.780309],[2.2392803,48.7802891],[2.2392272,48.7803183],[2.2392761,48.7803387],[2.2391629,48.7804013],[2.2390286,48.7803764],[2.2353509,48.7788158],[2.2347907,48.7786059],[2.2351875,48.7781527],[2.2350953,48.7781056],[2.2357492,48.7781342],[2.2357667,48.7779399],[2.2362221,48.7763878],[2.2376857,48.7762807],[2.2379502,48.7761309],[2.2380865,48.7762365],[2.2380266,48.7764136],[2.2377872,48.7765439],[2.2375401,48.776555],[2.2372631,48.7764538],[2.2378611,48.7771153],[2.238099,48.7777812],[2.2371706,48.7777764],[2.2371699,48.7780656],[2.2370279,48.7780654],[2.2370213,48.7783259],[2.2368709,48.7783249],[2.2368586,48.7785784],[2.2376418,48.7786607],[2.2380158,48.7786141],[2.23819,48.7792391],[2.2397654,48.779052]]]]},"properties":{"code_section":"92023000BQ","code_commune":"92023","section_courte":"BQ"}},{"type":"Feature","geometry":{"type":"MultiPolygon","coordinates":[[[[2.2350656,48.7782917],[2.2347907,48.7786059],[2.2304058,48.7768085],[2.2362221,48.7763878],[2.2357667,48.7779399],[2.2357492,48.7781342],[2.2350953,48.7781056],[2.2351875,48.7781527],[2.2350656,48.7782917]]]]},"properties":{"code_section":"92023000BR","code_commune":"92023","section_courte":"BR"}},{"type":"Feature","geometry":{"type":"MultiPolygon","coordinates":[[[[2.2289173,48.7786963],[2.2304058,48.7768085],[2.2342175,48.7783913],[2.2353509,48.7788158],[2.2327689,48.7799032],[2.2331946,48.7808466],[2.2314313,48.7801219],[2.2307449,48.7801538],[2.2284944,48.7792366],[2.2289173,48.7786963]]]]},"properties":{"code_section":"92023000BS","code_commune":"92023","section_courte":"BS"}},{"type":"Feature","geometry":{"type":"MultiPolygon","coordinates":[[[[2.2267713,48.7816371],[2.2247397,48.7808162],[2.2236169,48.7806333],[2.22372,48.7804047],[2.22403,48.7801319],[2.2240276,48.779743],[2.2242582,48.7792194],[2.2258313,48.7794336],[2.2284944,48.7792366],[2.2307449,48.7801538],[2.2284831,48.7802589],[2.2267713,48.7816371]]]]},"properties":{"code_section":"92023000BT","code_commune":"92023","section_courte":"BT"}},{"type":"Feature","geometry":{"type":"MultiPolygon","coordinates":[[[[2.2275245,48.7770293],[2.2304058,48.7768085],[2.2284944,48.7792366],[2.2258313,48.7794336],[2.2242582,48.7792194],[2.2242386,48.7788821],[2.224024,48.7784066],[2.2240184,48.7779728],[2.2241013,48.7778004],[2.2242281,48.777676],[2.2245652,48.777447],[2.22466,48.777294],[2.2275245,48.7770293]]]]},"properties":{"code_section":"92023000BU","code_commune":"92023","section_courte":"BU"}},{"type":"Feature","geometry":{"type":"MultiPolygon","coordinates":[[[[2.229337,48.7763539],[2.2304058,48.7768085],[2.2275245,48.7770293],[2.22466,48.777294],[2.2247966,48.7770829],[2.2249383,48.7767063],[2.2253485,48.776445],[2.2256245,48.776333],[2.226451,48.7761118],[2.2270699,48.7761243],[2.2272533,48.7759867],[2.2278786,48.7756394],[2.2281146,48.7753525],[2.2282963,48.7749542],[2.2286348,48.7746816],[2.2286794,48.7745091],[2.2288496,48.7744577],[2.2287232,48.7754423],[2.2287583,48.7757806],[2.2288014,48.7759216],[2.2289689,48.7761101],[2.229337,48.7763539]]]]},"properties":{"code_section":"92023000BV","code_commune":"92023","section_courte":"BV"}},{"type":"Feature","geometry":{"type":"MultiPolygon","coordinates":[[[[2.2380865,48.7762365],[2.2379502,48.7761309],[2.2403047,48.7747634],[2.2406649,48.7760756],[2.2392033,48.7762501],[2.2399909,48.7790257],[2.23819,48.7792391],[2.2380158,48.7786141],[2.2376418,48.7786607],[2.2368586,48.7785784],[2.2368709,48.7783249],[2.2370213,48.7783259],[2.2370279,48.7780654],[2.2371699,48.7780656],[2.2371706,48.7777764],[2.238099,48.7777812],[2.2378611,48.7771153],[2.2372631,48.7764538],[2.2375401,48.776555],[2.2377872,48.7765439],[2.2380266,48.7764136],[2.2380865,48.7762365]]]]},"properties":{"code_section":"92023000BX","code_commune":"92023","section_courte":"BX"}}]}