{"type":"FeatureCollection","features":[{"type":"Feature","geometry":{"type":"MultiPolygon","coordinates":[[[[2.2904427,48.9041143],[2.2900511,48.9048772],[2.288696,48.904205],[2.2873943,48.9036414],[2.2913457,48.9013541],[2.2914768,48.9014535],[2.2917675,48.9015326],[2.2904427,48.9041143]]]]},"properties":{"code_section":"920240000A","code_commune":"92024","section_courte":"A"}},{"type":"Feature","geometry":{"type":"MultiPolygon","coordinates":[[[[2.2963927,48.9070609],[2.2951861,48.9082307],[2.2946404,48.907916],[2.294144,48.9075718],[2.2939444,48.9074005],[2.2934652,48.9068634],[2.2928819,48.9063802],[2.291634,48.9056589],[2.2900511,48.9048772],[2.2917675,48.9015326],[2.2914768,48.9014535],[2.2913457,48.9013541],[2.2926787,48.9005874],[2.2926648,48.9007464],[2.2927367,48.9009285],[2.2932016,48.9010662],[2.2949633,48.9017587],[2.2964089,48.9025019],[2.2971646,48.9030319],[2.299311,48.904225],[2.2963927,48.9070609]]]]},"properties":{"code_section":"920240000B","code_commune":"92024","section_courte":"B"}},{"type":"Feature","geometry":{"type":"MultiPolygon","coordinates":[[[[2.2984674,48.9078955],[2.2965692,48.9068894],[2.299311,48.904225],[2.301826,48.9054627],[2.2995502,48.9082998],[2.2984674,48.9078955]]]]},"properties":{"code_section":"920240000C","code_commune":"92024","section_courte":"C"}},{"type":"Feature","geometry":{"type":"MultiPolygon","coordinates":[[[[2.2993443,48.9101671],[2.298111,48.9096994],[2.2951861,48.9082307],[2.2965692,48.9068894],[2.2984674,48.9078955],[2.2995502,48.9082998],[2.300411,48.9087484],[2.3011505,48.9092668],[2.3024146,48.9099596],[2.3036398,48.910319],[2.30582,48.9108657],[2.3051773,48.9117232],[2.3021216,48.9111535],[2.3016111,48.910995],[2.2993443,48.9101671]]]]},"properties":{"code_section":"920240000D","code_commune":"92024","section_courte":"D"}},{"type":"Feature","geometry":{"type":"MultiPolygon","coordinates":[[[[2.3018571,48.9088615],[2.3013492,48.9093747],[2.300411,48.9087484],[2.2995502,48.9082998],[2.3011773,48.906259],[2.3032401,48.9071524],[2.3020932,48.9084723],[2.3018571,48.9088615]]]]},"properties":{"code_section":"920240000E","code_commune":"92024","section_courte":"E"}},{"type":"Feature","geometry":{"type":"MultiPolygon","coordinates":[[[[2.3016875,48.9090455],[2.3018571,48.9088615],[2.3020932,48.9084723],[2.3032401,48.9071524],[2.3074885,48.908647],[2.30582,48.9108657],[2.3036398,48.910319],[2.3024146,48.9099596],[2.3013492,48.9093747],[2.3016875,48.9090455]]]]},"properties":{"code_section":"920240000F","code_commune":"92024","section_courte":"F"}},{"type":"Feature","geometry":{"type":"MultiPolygon","coordinates":[[[[2.3129302,48.9102156],[2.3109288,48.9131442],[2.3089491,48.9125384],[2.3078229,48.912237],[2.3071078,48.9120771],[2.3051773,48.9117232],[2.3095855,48.9058875],[2.3102572,48.9053478],[2.3129151,48.9061273],[2.3129302,48.9102156]]]]},"properties":{"code_section":"920240000G","code_commune":"92024","section_courte":"G"}},{"type":"Feature","geometry":{"type":"MultiPolygon","coordinates":[[[[2.3142547,48.9133738],[2.313773,48.9140183],[2.3109288,48.9131442],[2.3129302,48.9102156],[2.312926,48.9089879],[2.3164931,48.9103789],[2.3142547,48.9133738]]]]},"properties":{"code_section":"920240000H","code_commune":"92024","section_courte":"H"}},{"type":"Feature","geometry":{"type":"MultiPolygon","coordinates":[[[[2.3179769,48.9078846],[2.3183846,48.9079655],[2.3162651,48.9101532],[2.3164979,48.9102497],[2.316421,48.9103534],[2.312926,48.9089879],[2.3129151,48.9061273],[2.3139633,48.9063246],[2.3153838,48.9069338],[2.3166175,48.9075648],[2.3171481,48.9077201],[2.3179769,48.9078846]]]]},"properties":{"code_section":"920240000I","code_commune":"92024","section_courte":"I"}},{"type":"Feature","geometry":{"type":"MultiPolygon","coordinates":[[[[2.3071804,48.9042887],[2.3073088,48.9041698],[2.3091873,48.9050306],[2.3102572,48.9053478],[2.3095855,48.9058875],[2.3074885,48.908647],[2.3037627,48.907334],[2.3044698,48.9065567],[2.3056162,48.9051196],[2.3062793,48.9045131],[2.3067291,48.9047118],[2.3071804,48.9042887]]]]},"properties":{"code_section":"920240000J","code_commune":"92024","section_courte":"J"}},{"type":"Feature","geometry":{"type":"MultiPolygon","coordinates":[[[[2.3042602,48.9068019],[2.3037627,48.907334],[2.3032401,48.9071524],[2.3011773,48.906259],[2.3039543,48.9028223],[2.3058595,48.9034871],[2.3073088,48.9041698],[2.3067291,48.9047118],[2.3062793,48.9045131],[2.3056162,48.9051196],[2.3042602,48.9068019]]]]},"properties":{"code_section":"920240000K","code_commune":"92024","section_courte":"K"}},{"type":"Feature","geometry":{"type":"MultiPolygon","coordinates":[[[[2.301826,48.9054627],[2.299311,48.904225],[2.3001497,48.9034175],[2.3010913,48.9014787],[2.3025097,48.9020992],[2.3039543,48.9028223],[2.301826,48.9054627]]]]},"properties":{"code_section":"920240000L","code_commune":"92024","section_courte":"L"}},{"type":"Feature","geometry":{"type":"MultiPolygon","coordinates":[[[[2.2995308,48.9007328],[2.3010913,48.9014787],[2.3001497,48.9034175],[2.299311,48.904225],[2.2971646,48.9030319],[2.2995308,48.9007328]]]]},"properties":{"code_section":"920240000M","code_commune":"92024","section_courte":"M"}},{"type":"Feature","geometry":{"type":"MultiPolygon","coordinates":[[[[2.3006132,48.9010973],[2.300501,48.9011964],[2.2995308,48.9007328],[2.2971646,48.9030319],[2.2964089,48.9025019],[2.295007,48.9017814],[2.295944,48.9008084],[2.2962359,48.9009296],[2.2972812,48.8999669],[2.2973331,48.8999933],[2.297542,48.8998021],[2.2976138,48.8998462],[2.297664,48.8998078],[2.2980602,48.9000127],[2.2983391,48.899753],[2.2985746,48.8997765],[2.2993796,48.9000953],[2.2994103,48.9000658],[2.2995931,48.9001371],[2.2996448,48.9001176],[2.2997001,48.9001423],[2.2998628,48.8999931],[2.3006911,48.9003782],[2.3007596,48.9003167],[2.3012505,48.9005117],[2.3006132,48.9010973]]]]},"properties":{"code_section":"920240000N","code_commune":"92024","section_courte":"N"}},{"type":"Feature","geometry":{"type":"MultiPolygon","coordinates":[[[[2.2942889,48.899646],[2.2958422,48.8987386],[2.2960837,48.8988453],[2.297664,48.8998078],[2.2976138,48.8998462],[2.297542,48.8998021],[2.2973331,48.8999933],[2.2972812,48.8999669],[2.2962359,48.9009296],[2.295944,48.9008084],[2.295007,48.9017814],[2.2932016,48.9010662],[2.2927367,48.9009285],[2.2926648,48.9007464],[2.2926787,48.9005874],[2.2942889,48.899646]]]]},"properties":{"code_section":"920240000O","code_commune":"92024","section_courte":"O"}},{"type":"Feature","geometry":{"type":"MultiPolygon","coordinates":[[[[2.3006878,48.9011331],[2.3005753,48.9012317],[2.300501,48.9011964],[2.3012505,48.9005117],[2.3007596,48.9003167],[2.3006911,48.9003782],[2.2998628,48.8999931],[2.2997001,48.9001423],[2.2996448,48.9001176],[2.2995931,48.9001371],[2.2994103,48.9000658],[2.2993796,48.9000953],[2.2985746,48.8997765],[2.2983391,48.899753],[2.2980602,48.9000127],[2.297664,48.8998078],[2.2960837,48.8988453],[2.2958422,48.8987386],[2.2990165,48.8970077],[2.3032655,48.8987473],[2.3012384,48.9007192],[2.3011816,48.9006933],[2.3006878,48.9011331]]]]},"properties":{"code_section":"920240000P","code_commune":"92024","section_courte":"P"}},{"type":"Feature","geometry":{"type":"MultiPolygon","coordinates":[[[[2.30304,48.8989835],[2.3032655,48.8987473],[2.3052263,48.8995563],[2.3062228,48.9000315],[2.3039543,48.9028223],[2.3025097,48.9020992],[2.3005753,48.9012317],[2.3011816,48.9006933],[2.3012384,48.9007192],[2.30304,48.8989835]]]]},"properties":{"code_section":"920240000Q","code_commune":"92024","section_courte":"Q"}},{"type":"Feature","geometry":{"type":"MultiPolygon","coordinates":[[[[2.3057718,48.9034564],[2.3039543,48.9028223],[2.3062228,48.9000315],[2.3081095,48.9009108],[2.3076144,48.9015138],[2.3075481,48.901483],[2.3061283,48.903172],[2.3057718,48.9034564]]]]},"properties":{"code_section":"920240000R","code_commune":"92024","section_courte":"R"}},{"type":"Feature","geometry":{"type":"MultiPolygon","coordinates":[[[[2.3076144,48.9015138],[2.3123049,48.9036854],[2.3102572,48.9053478],[2.3091873,48.9050306],[2.3057718,48.9034564],[2.3061283,48.903172],[2.3075481,48.901483],[2.3076144,48.9015138]]]]},"properties":{"code_section":"920240000S","code_commune":"92024","section_courte":"S"}},{"type":"Feature","geometry":{"type":"MultiPolygon","coordinates":[[[[2.3180223,48.9078349],[2.3179902,48.9078872],[2.3171481,48.9077201],[2.3166175,48.9075648],[2.3153838,48.9069338],[2.3139633,48.9063246],[2.3129151,48.9061273],[2.3102572,48.9053478],[2.3129195,48.9031863],[2.3205957,48.9038316],[2.3209022,48.9046203],[2.3180223,48.9078349]]]]},"properties":{"code_section":"920240000T","code_commune":"92024","section_courte":"T"}},{"type":"Feature","geometry":{"type":"MultiPolygon","coordinates":[[[[2.3158422,48.9008181],[2.315966,48.9007718],[2.3205384,48.9036951],[2.3205957,48.9038316],[2.3129195,48.9031863],[2.3158422,48.9008181]]]]},"properties":{"code_section":"920240000U","code_commune":"92024","section_courte":"U"}},{"type":"Feature","geometry":{"type":"MultiPolygon","coordinates":[[[[2.3204598,48.9034812],[2.3205384,48.9036951],[2.315966,48.9007718],[2.3187187,48.8997537],[2.3198887,48.9004593],[2.3196103,48.9013136],[2.3204598,48.9034812]]]]},"properties":{"code_section":"920240000V","code_commune":"92024","section_courte":"V"}},{"type":"Feature","geometry":{"type":"MultiPolygon","coordinates":[[[[2.3186081,48.8996873],[2.3187187,48.8997537],[2.3158422,48.9008181],[2.3147534,48.9016821],[2.3120041,48.9002996],[2.3133512,48.8992443],[2.3137315,48.899477],[2.3151119,48.8986803],[2.3149392,48.898547],[2.3185174,48.8996333],[2.3186081,48.8996873]]]]},"properties":{"code_section":"920240000X","code_commune":"92024","section_courte":"X"}},{"type":"Feature","geometry":{"type":"MultiPolygon","coordinates":[[[[2.3142421,48.8983296],[2.3149281,48.8985377],[2.3151119,48.8986803],[2.3137315,48.899477],[2.3133512,48.8992443],[2.3120041,48.9002996],[2.3097295,48.8991515],[2.310549,48.8984791],[2.3113107,48.8979108],[2.3118488,48.8975698],[2.3123033,48.8977401],[2.3142421,48.8983296]]]]},"properties":{"code_section":"920240000Y","code_commune":"92024","section_courte":"Y"}},{"type":"Feature","geometry":{"type":"MultiPolygon","coordinates":[[[[2.3147534,48.9016821],[2.3123049,48.9036854],[2.3076144,48.9015138],[2.3083914,48.9005762],[2.3097295,48.8991515],[2.3147534,48.9016821]]]]},"properties":{"code_section":"920240000Z","code_commune":"92024","section_courte":"Z"}},{"type":"Feature","geometry":{"type":"MultiPolygon","coordinates":[[[[2.3117877,48.8975428],[2.3118488,48.8975698],[2.3113107,48.8979108],[2.310549,48.8984791],[2.3097295,48.8991515],[2.3081095,48.9009108],[2.3062228,48.9000315],[2.3080028,48.8978265],[2.3095513,48.8967092],[2.3117877,48.8975428]]]]},"properties":{"code_section":"92024000AB","code_commune":"92024","section_courte":"AB"}},{"type":"Feature","geometry":{"type":"MultiPolygon","coordinates":[[[[2.3084343,48.896291],[2.3095513,48.8967092],[2.3080028,48.8978265],[2.3062228,48.9000315],[2.3052263,48.8995563],[2.3035993,48.8988837],[2.304838,48.8977454],[2.3062917,48.8965109],[2.3064677,48.8966],[2.3069486,48.8962433],[2.3071268,48.8963233],[2.3075546,48.8959598],[2.3084343,48.896291]]]]},"properties":{"code_section":"92024000AC","code_commune":"92024","section_courte":"AC"}},{"type":"Feature","geometry":{"type":"MultiPolygon","coordinates":[[[[2.3032679,48.8956621],[2.3035387,48.8955054],[2.3041786,48.8956991],[2.3049462,48.8950949],[2.3054505,48.8953707],[2.3047936,48.8958645],[2.3062917,48.8965109],[2.304838,48.8977454],[2.3035993,48.8988837],[2.3004928,48.8976114],[2.3016046,48.8966368],[2.3032679,48.8956621]]]]},"properties":{"code_section":"92024000AD","code_commune":"92024","section_courte":"AD"}},{"type":"Feature","geometry":{"type":"MultiPolygon","coordinates":[[[[2.3005483,48.897561],[2.3004928,48.8976114],[2.2993232,48.8971543],[2.2990165,48.8970077],[2.3023567,48.8950099],[2.303311,48.8956372],[2.3016046,48.8966368],[2.3005483,48.897561]]]]},"properties":{"code_section":"92024000AE","code_commune":"92024","section_courte":"AE"}},{"type":"Feature","geometry":{"type":"MultiPolygon","coordinates":[[[[2.3058485,48.8951509],[2.3075546,48.8959598],[2.3071268,48.8963233],[2.3069486,48.8962433],[2.3064677,48.8966],[2.3047936,48.8958645],[2.3054505,48.8953707],[2.3049462,48.8950949],[2.3041786,48.8956991],[2.3035387,48.8955054],[2.303311,48.8956372],[2.3023567,48.8950099],[2.303785,48.8941721],[2.3058485,48.8951509]]]]},"properties":{"code_section":"92024000AF","code_commune":"92024","section_courte":"AF"}}]}