{"type":"FeatureCollection","features":[{"type":"Feature","geometry":{"type":"MultiPolygon","coordinates":[[[[2.2355744,48.8985517],[2.2355507,48.8985982],[2.2355215,48.8985617],[2.2343319,48.8983092],[2.2342737,48.8983285],[2.2342494,48.8983778],[2.2344007,48.8984117],[2.2343743,48.8984629],[2.2341654,48.8984159],[2.2341781,48.8983919],[2.2335955,48.8982612],[2.2337137,48.8981024],[2.2321495,48.8977715],[2.2337632,48.8956713],[2.2350756,48.8955155],[2.2356747,48.8951608],[2.2357378,48.8950797],[2.2359834,48.8949914],[2.2367996,48.8947749],[2.2376759,48.8946275],[2.2376927,48.894698],[2.237837,48.8947553],[2.2378662,48.8951604],[2.2366424,48.8967125],[2.2356308,48.8985638],[2.2355744,48.8985517]]]]},"properties":{"code_section":"920260000A","code_commune":"92026","section_courte":"A"}},{"type":"Feature","geometry":{"type":"MultiPolygon","coordinates":[[[[2.2361597,48.8996202],[2.2358281,48.9005867],[2.2358339,48.9014922],[2.2317737,48.9006899],[2.2305915,48.9003342],[2.2321495,48.8977715],[2.2337137,48.8981024],[2.2335955,48.8982612],[2.2341781,48.8983919],[2.2341654,48.8984159],[2.2343743,48.8984629],[2.2344007,48.8984117],[2.2342494,48.8983778],[2.2342737,48.8983285],[2.2343319,48.8983092],[2.2355215,48.8985617],[2.2355507,48.8985982],[2.2350811,48.899457],[2.2361597,48.8996202]]]]},"properties":{"code_section":"920260000B","code_commune":"92026","section_courte":"B"}},{"type":"Feature","geometry":{"type":"MultiPolygon","coordinates":[[[[2.2358339,48.9014922],[2.2358281,48.9005867],[2.2361597,48.8996202],[2.2350811,48.899457],[2.2355744,48.8985517],[2.2356308,48.8985638],[2.2356569,48.8985162],[2.2358651,48.898559],[2.2358859,48.898519],[2.2366495,48.8986969],[2.2366364,48.8987226],[2.237699,48.8989257],[2.2375414,48.8994709],[2.2398459,48.8999352],[2.2395067,48.9022382],[2.2373814,48.9017696],[2.2358339,48.9014922]]]]},"properties":{"code_section":"920260000C","code_commune":"92026","section_courte":"C"}},{"type":"Feature","geometry":{"type":"MultiPolygon","coordinates":[[[[2.2357328,48.8985307],[2.2356569,48.8985162],[2.2366171,48.8967592],[2.2381999,48.8971758],[2.2401584,48.8977986],[2.2398459,48.8999352],[2.2375414,48.8994709],[2.237699,48.8989257],[2.2366364,48.8987226],[2.2366495,48.8986969],[2.2358859,48.898519],[2.2358651,48.898559],[2.2357328,48.8985307]]]]},"properties":{"code_section":"920260000D","code_commune":"92026","section_courte":"D"}},{"type":"Feature","geometry":{"type":"MultiPolygon","coordinates":[[[[2.2381999,48.8971758],[2.2366171,48.8967592],[2.2378662,48.8951604],[2.237837,48.8947553],[2.2376927,48.894698],[2.2376759,48.8946275],[2.2378897,48.8945937],[2.2405665,48.8950217],[2.2401584,48.8977986],[2.2381999,48.8971758]]]]},"properties":{"code_section":"920260000E","code_commune":"92026","section_courte":"E"}},{"type":"Feature","geometry":{"type":"MultiPolygon","coordinates":[[[[2.2436525,48.896163],[2.2439784,48.8962986],[2.2434783,48.8968798],[2.2434019,48.8968505],[2.2423975,48.8986161],[2.2401584,48.8977986],[2.2406258,48.8946129],[2.2410089,48.8947461],[2.2409703,48.8950041],[2.2436525,48.896163]]]]},"properties":{"code_section":"920260000F","code_commune":"92026","section_courte":"F"}},{"type":"Feature","geometry":{"type":"MultiPolygon","coordinates":[[[[2.2434783,48.8968798],[2.2439784,48.8962986],[2.2475227,48.8977638],[2.2457118,48.8996291],[2.2423975,48.8986161],[2.2434019,48.8968505],[2.2434783,48.8968798]]]]},"properties":{"code_section":"920260000G","code_commune":"92026","section_courte":"G"}},{"type":"Feature","geometry":{"type":"MultiPolygon","coordinates":[[[[2.2399741,48.8999266],[2.2398459,48.8999352],[2.2401584,48.8977986],[2.2424808,48.8986474],[2.2457118,48.8996291],[2.244548,48.9007784],[2.2399741,48.8999266]]]]},"properties":{"code_section":"920260000H","code_commune":"92026","section_courte":"H"}},{"type":"Feature","geometry":{"type":"MultiPolygon","coordinates":[[[[2.2425958,48.9027744],[2.2395067,48.9022382],[2.2398459,48.8999352],[2.2399741,48.8999266],[2.2445013,48.9007707],[2.2425958,48.9027744]]]]},"properties":{"code_section":"920260000I","code_commune":"92026","section_courte":"I"}},{"type":"Feature","geometry":{"type":"MultiPolygon","coordinates":[[[[2.2457001,48.9029912],[2.2430259,48.9023379],[2.2445013,48.9007707],[2.244548,48.9007784],[2.245694,48.899647],[2.2487716,48.900675],[2.246133,48.9022232],[2.2457001,48.9029912]]]]},"properties":{"code_section":"920260000J","code_commune":"92026","section_courte":"J"}},{"type":"Feature","geometry":{"type":"MultiPolygon","coordinates":[[[[2.2510105,48.89938],[2.2487716,48.900675],[2.245694,48.899647],[2.2475791,48.8977008],[2.2484112,48.898066],[2.249505,48.8986125],[2.2511656,48.8992891],[2.2510105,48.89938]]]]},"properties":{"code_section":"920260000K","code_commune":"92026","section_courte":"K"}},{"type":"Feature","geometry":{"type":"MultiPolygon","coordinates":[[[[2.2510916,48.8993366],[2.2512069,48.8992662],[2.2513118,48.8993335],[2.2522061,48.8996631],[2.2554145,48.9007232],[2.2533546,48.9021604],[2.2533566,48.9022179],[2.2487716,48.900675],[2.2510916,48.8993366]]]]},"properties":{"code_section":"920260000L","code_commune":"92026","section_courte":"L"}},{"type":"Feature","geometry":{"type":"MultiPolygon","coordinates":[[[[2.2502363,48.9029323],[2.2464071,48.902048],[2.2487716,48.900675],[2.2533566,48.9022179],[2.2522489,48.9034321],[2.2502363,48.9029323]]]]},"properties":{"code_section":"920260000M","code_commune":"92026","section_courte":"M"}},{"type":"Feature","geometry":{"type":"MultiPolygon","coordinates":[[[[2.2531421,48.9036952],[2.2522489,48.9034321],[2.2533566,48.9022179],[2.2576167,48.9036159],[2.2558761,48.905413],[2.2558117,48.9053945],[2.2558939,48.9045911],[2.2531421,48.9036952]]]]},"properties":{"code_section":"920260000N","code_commune":"92026","section_courte":"N"}},{"type":"Feature","geometry":{"type":"MultiPolygon","coordinates":[[[[2.2590795,48.9019675],[2.2592035,48.9020126],[2.2576167,48.9036159],[2.2533566,48.9022179],[2.2533546,48.9021604],[2.2554145,48.9007232],[2.2563087,48.9009729],[2.2563034,48.9010344],[2.2590795,48.9019675]]]]},"properties":{"code_section":"920260000O","code_commune":"92026","section_courte":"O"}},{"type":"Feature","geometry":{"type":"MultiPolygon","coordinates":[[[[2.2568874,48.9012369],[2.2563034,48.9010344],[2.2563494,48.9004771],[2.2566408,48.8988607],[2.2607856,48.90042],[2.2592035,48.9020126],[2.2568874,48.9012369]]]]},"properties":{"code_section":"920260000P","code_commune":"92026","section_courte":"P"}},{"type":"Feature","geometry":{"type":"MultiPolygon","coordinates":[[[[2.2607856,48.90042],[2.2566408,48.8988607],[2.2565348,48.8976688],[2.2599651,48.8988071],[2.2616935,48.8994995],[2.2607856,48.90042]]]]},"properties":{"code_section":"920260000Q","code_commune":"92026","section_courte":"Q"}},{"type":"Feature","geometry":{"type":"MultiPolygon","coordinates":[[[[2.2563087,48.9009729],[2.2554145,48.9007232],[2.2526678,48.8998194],[2.2513118,48.8993335],[2.2512069,48.8992662],[2.2537428,48.8978198],[2.2566459,48.8988302],[2.2563494,48.9004771],[2.2563087,48.9009729]]]]},"properties":{"code_section":"920260000R","code_commune":"92026","section_courte":"R"}},{"type":"Feature","geometry":{"type":"MultiPolygon","coordinates":[[[[2.2506439,48.8964564],[2.2554938,48.8968611],[2.2511656,48.8992891],[2.249505,48.8986125],[2.2490973,48.8984186],[2.2504881,48.8964316],[2.2506439,48.8964564]]]]},"properties":{"code_section":"920260000S","code_commune":"92026","section_courte":"S"}},{"type":"Feature","geometry":{"type":"MultiPolygon","coordinates":[[[[2.2527345,48.8966082],[2.2528999,48.8966469],[2.2504881,48.8964316],[2.2490973,48.8984186],[2.2484112,48.898066],[2.2475424,48.8976852],[2.2490127,48.8958514],[2.2500038,48.8951185],[2.250737,48.8956542],[2.2514607,48.8960533],[2.2527345,48.8966082]]]]},"properties":{"code_section":"920260000T","code_commune":"92026","section_courte":"T"}},{"type":"Feature","geometry":{"type":"MultiPolygon","coordinates":[[[[2.2440209,48.8947797],[2.2444347,48.8941197],[2.2445175,48.894148],[2.2445517,48.894235],[2.2452462,48.8945815],[2.2452118,48.8946112],[2.247558,48.8957854],[2.2479683,48.8957914],[2.2489528,48.8959359],[2.2475424,48.8976852],[2.2475791,48.8977008],[2.2475227,48.8977638],[2.2434727,48.8960879],[2.2437331,48.8958464],[2.2433991,48.8956745],[2.2437408,48.8951703],[2.2440147,48.8949574],[2.2440209,48.8947797]]]]},"properties":{"code_section":"920260000U","code_commune":"92026","section_courte":"U"}},{"type":"Feature","geometry":{"type":"MultiPolygon","coordinates":[[[[2.2437331,48.8958464],[2.2434727,48.8960879],[2.2409703,48.8950041],[2.2410089,48.8947461],[2.2406258,48.8946129],[2.240805,48.8933777],[2.2412088,48.8934031],[2.2412171,48.8933455],[2.2425194,48.8929323],[2.2429103,48.8934682],[2.2430409,48.893526],[2.2429946,48.8935959],[2.2430282,48.893563],[2.2431219,48.8936047],[2.2433278,48.8939041],[2.2442515,48.8944107],[2.2440092,48.8947714],[2.2440455,48.8948477],[2.2440147,48.8949574],[2.2437408,48.8951703],[2.2433991,48.8956745],[2.2437331,48.8958464]]]]},"properties":{"code_section":"920260000V","code_commune":"92026","section_courte":"V"}},{"type":"Feature","geometry":{"type":"MultiPolygon","coordinates":[[[[2.2412171,48.8933455],[2.2412088,48.8934031],[2.240805,48.8933777],[2.2411666,48.8908861],[2.2425194,48.8914481],[2.2426236,48.8913216],[2.2455905,48.8925513],[2.2446928,48.8937198],[2.2442515,48.8944107],[2.2433278,48.8939041],[2.2431219,48.8936047],[2.2430282,48.893563],[2.2429946,48.8935959],[2.2430409,48.893526],[2.2429103,48.8934682],[2.2425194,48.8929323],[2.2412171,48.8933455]]]]},"properties":{"code_section":"920260000X","code_commune":"92026","section_courte":"X"}},{"type":"Feature","geometry":{"type":"MultiPolygon","coordinates":[[[[2.2445175,48.894148],[2.2444347,48.8941197],[2.2446928,48.8937198],[2.2455905,48.8925513],[2.2454971,48.8925119],[2.2465014,48.8915329],[2.2474241,48.89091],[2.2475533,48.8910054],[2.2478044,48.8909024],[2.2481114,48.891228],[2.248082,48.8912556],[2.2492648,48.8918207],[2.2493644,48.8919566],[2.2501419,48.8923402],[2.2500944,48.892344],[2.2496332,48.8927697],[2.2496687,48.8928181],[2.2495065,48.8928868],[2.2483179,48.8938739],[2.2486958,48.8940368],[2.2468516,48.895434],[2.2452118,48.8946112],[2.2452462,48.8945815],[2.2450327,48.8944555],[2.2445517,48.894235],[2.2445175,48.894148]]]]},"properties":{"code_section":"920260000Y","code_commune":"92026","section_courte":"Y"}},{"type":"Feature","geometry":{"type":"MultiPolygon","coordinates":[[[[2.2503106,48.8923837],[2.2521905,48.893444],[2.2504093,48.8948537],[2.2490127,48.8958514],[2.2489528,48.8959359],[2.2479683,48.8957914],[2.247558,48.8957854],[2.2468516,48.895434],[2.2486958,48.8940368],[2.2483179,48.8938739],[2.2495065,48.8928868],[2.2496687,48.8928181],[2.2496332,48.8927697],[2.2500944,48.892344],[2.2501419,48.8923402],[2.2502542,48.8924016],[2.2503106,48.8923837]]]]},"properties":{"code_section":"920260000Z","code_commune":"92026","section_courte":"Z"}},{"type":"Feature","geometry":{"type":"MultiPolygon","coordinates":[[[[2.2455883,48.8924133],[2.2454971,48.8925119],[2.2426236,48.8913216],[2.2425194,48.8914481],[2.2411666,48.8908861],[2.2455897,48.8894843],[2.2468867,48.8912621],[2.2465014,48.8915329],[2.2455883,48.8924133]]]]},"properties":{"code_section":"92026000AB","code_commune":"92026","section_courte":"AB"}},{"type":"Feature","geometry":{"type":"MultiPolygon","coordinates":[[[[2.2476773,48.8908552],[2.2475045,48.8909562],[2.2474241,48.89091],[2.2468867,48.8912621],[2.2455897,48.8894843],[2.2509483,48.8877857],[2.2511578,48.8880723],[2.2495949,48.8885689],[2.2496494,48.8885714],[2.2497121,48.8886498],[2.2500532,48.8885416],[2.2503066,48.8888887],[2.2501486,48.8891966],[2.2502909,48.8893586],[2.2502512,48.8893505],[2.2476773,48.8908552]]]]},"properties":{"code_section":"92026000AC","code_commune":"92026","section_courte":"AC"}},{"type":"Feature","geometry":{"type":"MultiPolygon","coordinates":[[[[2.2524753,48.8918229],[2.2535596,48.8923331],[2.2521905,48.893444],[2.2503106,48.8923837],[2.2502542,48.8924016],[2.2493644,48.8919566],[2.2492648,48.8918207],[2.248082,48.8912556],[2.2481114,48.891228],[2.2478044,48.8909024],[2.2475533,48.8910054],[2.2475045,48.8909562],[2.2502512,48.8893505],[2.2502909,48.8893586],[2.2507237,48.889905],[2.2507733,48.8898865],[2.2520597,48.8914596],[2.2524753,48.8918229]]]]},"properties":{"code_section":"92026000AD","code_commune":"92026","section_courte":"AD"}},{"type":"Feature","geometry":{"type":"MultiPolygon","coordinates":[[[[2.2521086,48.8911363],[2.2518861,48.891253],[2.2507733,48.8898865],[2.2507237,48.889905],[2.2501486,48.8891966],[2.2503066,48.8888887],[2.2500532,48.8885416],[2.2497121,48.8886498],[2.2496494,48.8885714],[2.2495949,48.8885689],[2.2511578,48.8880723],[2.2509483,48.8877857],[2.2537328,48.8869033],[2.2539832,48.8872013],[2.2544565,48.8875961],[2.2554962,48.8885795],[2.256047,48.8890238],[2.2540371,48.8900978],[2.2538856,48.8901431],[2.2525758,48.8908744],[2.2521976,48.8910042],[2.2521086,48.8911363]]]]},"properties":{"code_section":"92026000AE","code_commune":"92026","section_courte":"AE"}},{"type":"Feature","geometry":{"type":"MultiPolygon","coordinates":[[[[2.2555585,48.8892819],[2.256047,48.8890238],[2.2567998,48.889582],[2.2536156,48.8921933],[2.2536301,48.8922678],[2.2535596,48.8923331],[2.2524753,48.8918229],[2.2520597,48.8914596],[2.2518861,48.891253],[2.2521086,48.8911363],[2.2521976,48.8910042],[2.2525758,48.8908744],[2.2538856,48.8901431],[2.2540371,48.8900978],[2.2555585,48.8892819]]]]},"properties":{"code_section":"92026000AF","code_commune":"92026","section_courte":"AF"}},{"type":"Feature","geometry":{"type":"MultiPolygon","coordinates":[[[[2.2564267,48.8898728],[2.2567998,48.889582],[2.2585231,48.8906691],[2.2590933,48.891112],[2.2575236,48.8925311],[2.2575265,48.8926525],[2.2564686,48.8937071],[2.2535596,48.8923331],[2.2536301,48.8922678],[2.2536156,48.8921933],[2.2564267,48.8898728]]]]},"properties":{"code_section":"92026000AG","code_commune":"92026","section_courte":"AG"}},{"type":"Feature","geometry":{"type":"MultiPolygon","coordinates":[[[[2.2520531,48.8938372],[2.2518313,48.8937353],[2.2535596,48.8923331],[2.2564686,48.8937071],[2.2566629,48.8949719],[2.2563619,48.8955444],[2.2551262,48.8957895],[2.2550008,48.8955153],[2.2541176,48.895284],[2.2541023,48.8953032],[2.2540228,48.8952822],[2.2543584,48.8948095],[2.2520531,48.8938372]]]]},"properties":{"code_section":"92026000AH","code_commune":"92026","section_courte":"AH"}},{"type":"Feature","geometry":{"type":"MultiPolygon","coordinates":[[[[2.2550995,48.8957293],[2.2551262,48.8957895],[2.2548291,48.8958766],[2.2547742,48.8959767],[2.2549489,48.8960148],[2.2548878,48.8960362],[2.254808,48.8961801],[2.2547189,48.896173],[2.2546902,48.8963208],[2.2547291,48.8963242],[2.2545946,48.8965687],[2.2545209,48.8965627],[2.2543875,48.8967851],[2.2528999,48.8966469],[2.2527345,48.8966082],[2.2514607,48.8960533],[2.250737,48.8956542],[2.2500038,48.8951185],[2.2504093,48.8948537],[2.2518313,48.8937353],[2.2525919,48.894084],[2.2543584,48.8948095],[2.2540228,48.8952822],[2.2541023,48.8953032],[2.2541176,48.895284],[2.2550008,48.8955153],[2.2550995,48.8957293]]]]},"properties":{"code_section":"92026000AI","code_commune":"92026","section_courte":"AI"}},{"type":"Feature","geometry":{"type":"MultiPolygon","coordinates":[[[[2.2545946,48.8965687],[2.2547291,48.8963242],[2.2546902,48.8963208],[2.2547189,48.896173],[2.254808,48.8961801],[2.2548878,48.8960362],[2.2549489,48.8960148],[2.2547742,48.8959767],[2.2548291,48.8958766],[2.2551262,48.8957895],[2.2563619,48.8955444],[2.2565046,48.8961804],[2.2577818,48.8962741],[2.2584781,48.8963717],[2.2582733,48.8970755],[2.258331,48.8971325],[2.2582996,48.8972195],[2.2582593,48.8972138],[2.2579076,48.8981256],[2.2565348,48.8976688],[2.2566459,48.8988302],[2.2537428,48.8978198],[2.2554938,48.8968611],[2.2543875,48.8967851],[2.2545209,48.8965627],[2.2545946,48.8965687]]]]},"properties":{"code_section":"92026000AJ","code_commune":"92026","section_courte":"AJ"}},{"type":"Feature","geometry":{"type":"MultiPolygon","coordinates":[[[[2.2583085,48.897196],[2.258331,48.8971325],[2.2582733,48.8970755],[2.2584781,48.8963717],[2.2587344,48.8964034],[2.2601362,48.8967381],[2.2633043,48.8978823],[2.2616935,48.8994995],[2.2599651,48.8988071],[2.2579076,48.8981256],[2.2582593,48.8972138],[2.2583085,48.897196]]]]},"properties":{"code_section":"92026000AK","code_commune":"92026","section_courte":"AK"}},{"type":"Feature","geometry":{"type":"MultiPolygon","coordinates":[[[[2.2587344,48.8964034],[2.2584376,48.8963666],[2.2591008,48.8954869],[2.2595295,48.8950107],[2.2603233,48.8953809],[2.2625182,48.8962391],[2.2643235,48.8968969],[2.2632739,48.8978708],[2.2601362,48.8967381],[2.2587344,48.8964034]]]]},"properties":{"code_section":"92026000AL","code_commune":"92026","section_courte":"AL"}},{"type":"Feature","geometry":{"type":"MultiPolygon","coordinates":[[[[2.2589887,48.8939384],[2.2589748,48.8939844],[2.2591301,48.893917],[2.2592002,48.8939925],[2.2590827,48.8940442],[2.2594137,48.8943742],[2.2594624,48.8943534],[2.2596465,48.8945478],[2.2592746,48.8948965],[2.2595295,48.8950107],[2.2591008,48.8954869],[2.2584376,48.8963666],[2.2577818,48.8962741],[2.2565046,48.8961804],[2.2563619,48.8955444],[2.2566629,48.8949719],[2.2564686,48.8937071],[2.2575265,48.8926525],[2.2584505,48.8932691],[2.2584849,48.8933067],[2.2584049,48.8933883],[2.2584854,48.8933881],[2.2589887,48.8939384]]]]},"properties":{"code_section":"92026000AM","code_commune":"92026","section_courte":"AM"}},{"type":"Feature","geometry":{"type":"MultiPolygon","coordinates":[[[[2.2591301,48.893917],[2.2589748,48.8939844],[2.2589887,48.8939384],[2.2584854,48.8933881],[2.2584049,48.8933883],[2.2584849,48.8933067],[2.2584505,48.8932691],[2.2575265,48.8926525],[2.2575236,48.8925311],[2.2590933,48.891112],[2.2599514,48.891875],[2.2612977,48.8932387],[2.2620602,48.893955],[2.2611329,48.8945936],[2.2611464,48.8946821],[2.2607214,48.8950725],[2.2607795,48.8950981],[2.2604724,48.8954392],[2.2592746,48.8948965],[2.2596465,48.8945478],[2.2594624,48.8943534],[2.2594137,48.8943742],[2.2590827,48.8940442],[2.2592002,48.8939925],[2.2591301,48.893917]]]]},"properties":{"code_section":"92026000AN","code_commune":"92026","section_courte":"AN"}},{"type":"Feature","geometry":{"type":"MultiPolygon","coordinates":[[[[2.2652169,48.8959642],[2.2643235,48.8968969],[2.2625182,48.8962391],[2.2604724,48.8954392],[2.2607795,48.8950981],[2.2607214,48.8950725],[2.2611464,48.8946821],[2.2611329,48.8945936],[2.2620602,48.893955],[2.262837,48.8945677],[2.2637516,48.8951815],[2.2641194,48.8954113],[2.2652169,48.8959642]]]]},"properties":{"code_section":"92026000AO","code_commune":"92026","section_courte":"AO"}},{"type":"Feature","geometry":{"type":"MultiPolygon","coordinates":[[[[2.262375,48.9048671],[2.2624372,48.9048825],[2.2613722,48.9068226],[2.260224,48.9066333],[2.2558761,48.905413],[2.2581806,48.9030424],[2.2593348,48.9034719],[2.2593667,48.9034351],[2.2608687,48.9040005],[2.2608444,48.904028],[2.2609407,48.9040635],[2.2607596,48.9044105],[2.262375,48.9048671]]]]},"properties":{"code_section":"92026000AP","code_commune":"92026","section_courte":"AP"}},{"type":"Feature","geometry":{"type":"MultiPolygon","coordinates":[[[[2.263272,48.9029818],[2.2630986,48.9032684],[2.2632829,48.9033273],[2.2624372,48.9048825],[2.2607596,48.9044105],[2.2609407,48.9040635],[2.2608444,48.904028],[2.2608687,48.9040005],[2.2593667,48.9034351],[2.2593348,48.9034719],[2.2581806,48.9030424],[2.2599368,48.9012761],[2.263604,48.9025409],[2.2633332,48.9029997],[2.263272,48.9029818]]]]},"properties":{"code_section":"92026000AQ","code_commune":"92026","section_courte":"AQ"}},{"type":"Feature","geometry":{"type":"MultiPolygon","coordinates":[[[[2.2602898,48.9013972],[2.2599368,48.9012761],[2.2616935,48.8994995],[2.2648279,48.9008698],[2.2642099,48.9016324],[2.2641392,48.9016196],[2.2635575,48.9025249],[2.2602898,48.9013972]]]]},"properties":{"code_section":"92026000AR","code_commune":"92026","section_courte":"AR"}},{"type":"Feature","geometry":{"type":"MultiPolygon","coordinates":[[[[2.2669958,48.9046444],[2.2632445,48.9033974],[2.2632829,48.9033273],[2.2630986,48.9032684],[2.263272,48.9029818],[2.2633332,48.9029997],[2.263604,48.9025409],[2.2635575,48.9025249],[2.2641392,48.9016196],[2.2642099,48.9016324],[2.2648279,48.9008698],[2.2663288,48.9016434],[2.2686821,48.9025411],[2.2669958,48.9046444]]]]},"properties":{"code_section":"92026000AS","code_commune":"92026","section_courte":"AS"}},{"type":"Feature","geometry":{"type":"MultiPolygon","coordinates":[[[[2.2710465,48.9061237],[2.2709191,48.90621],[2.2703954,48.9068284],[2.2678846,48.9058715],[2.2675866,48.9058783],[2.2672307,48.9059379],[2.2667571,48.9060501],[2.266429,48.9061785],[2.2665597,48.9057415],[2.2669958,48.9046444],[2.2679379,48.9034682],[2.2721197,48.9050432],[2.2713298,48.9059251],[2.2710465,48.9061237]]]]},"properties":{"code_section":"92026000AT","code_commune":"92026","section_courte":"AT"}},{"type":"Feature","geometry":{"type":"MultiPolygon","coordinates":[[[[2.2713298,48.9059251],[2.2721197,48.9050432],[2.2731425,48.9054221],[2.2761773,48.9066429],[2.2761258,48.9069502],[2.2758714,48.906948],[2.2757245,48.9070147],[2.2746043,48.9080649],[2.2743165,48.9082795],[2.2703954,48.9068284],[2.2709191,48.90621],[2.2713298,48.9059251]]]]},"properties":{"code_section":"92026000AU","code_commune":"92026","section_courte":"AU"}},{"type":"Feature","geometry":{"type":"MultiPolygon","coordinates":[[[[2.2761944,48.9066058],[2.2761773,48.9066429],[2.2731425,48.9054221],[2.2739484,48.9045014],[2.2748246,48.904835],[2.2762225,48.9032858],[2.2782252,48.9041422],[2.2788557,48.9044777],[2.2778077,48.9053468],[2.2770796,48.905737],[2.2762941,48.906444],[2.2761944,48.9066058]]]]},"properties":{"code_section":"92026000AV","code_commune":"92026","section_courte":"AV"}},{"type":"Feature","geometry":{"type":"MultiPolygon","coordinates":[[[[2.273672,48.9022499],[2.2737189,48.9022034],[2.2762225,48.9032858],[2.2748246,48.904835],[2.2739484,48.9045014],[2.2731425,48.9054221],[2.2708005,48.9045389],[2.2715939,48.9036205],[2.2717877,48.9036958],[2.272458,48.9029968],[2.272623,48.9030624],[2.2727029,48.9029748],[2.272641,48.9029497],[2.2726289,48.9028583],[2.2731342,48.9028147],[2.273672,48.9022499]]]]},"properties":{"code_section":"92026000AX","code_commune":"92026","section_courte":"AX"}},{"type":"Feature","geometry":{"type":"MultiPolygon","coordinates":[[[[2.2719646,48.90351],[2.2717877,48.9036958],[2.2715939,48.9036205],[2.2708005,48.9045389],[2.2679379,48.9034682],[2.2701862,48.9006852],[2.2737189,48.9022034],[2.2731342,48.9028147],[2.2726289,48.9028583],[2.272641,48.9029497],[2.2727029,48.9029748],[2.272623,48.9030624],[2.272458,48.9029968],[2.2719646,48.90351]]]]},"properties":{"code_section":"92026000AY","code_commune":"92026","section_courte":"AY"}},{"type":"Feature","geometry":{"type":"MultiPolygon","coordinates":[[[[2.2701862,48.9006852],[2.2686821,48.9025411],[2.2663288,48.9016434],[2.264985,48.9009508],[2.2665519,48.8991294],[2.2701862,48.9006852]]]]},"properties":{"code_section":"92026000AZ","code_commune":"92026","section_courte":"AZ"}},{"type":"Feature","geometry":{"type":"MultiPolygon","coordinates":[[[[2.2653933,48.8986384],[2.2665519,48.8991294],[2.264985,48.9009508],[2.2616935,48.8994995],[2.2633043,48.8978823],[2.2653933,48.8986384]]]]},"properties":{"code_section":"92026000BC","code_commune":"92026","section_courte":"BC"}},{"type":"Feature","geometry":{"type":"MultiPolygon","coordinates":[[[[2.268151,48.8997507],[2.2681061,48.8997949],[2.2653933,48.8986384],[2.2632739,48.8978708],[2.2643235,48.8968969],[2.2655557,48.8973479],[2.268998,48.8986886],[2.2683951,48.8993774],[2.2684878,48.8994139],[2.268151,48.8997507]]]]},"properties":{"code_section":"92026000BD","code_commune":"92026","section_courte":"BD"}},{"type":"Feature","geometry":{"type":"MultiPolygon","coordinates":[[[[2.2695789,48.8978367],[2.2696964,48.8978806],[2.268998,48.8986886],[2.2655557,48.8973479],[2.2643235,48.8968969],[2.2652169,48.8959642],[2.26655,48.8965851],[2.2695789,48.8978367]]]]},"properties":{"code_section":"92026000BE","code_commune":"92026","section_courte":"BE"}},{"type":"Feature","geometry":{"type":"MultiPolygon","coordinates":[[[[2.2713732,48.9011282],[2.2713282,48.9011751],[2.2681061,48.8997949],[2.2684878,48.8994139],[2.2683951,48.8993774],[2.2696964,48.8978806],[2.2734131,48.8992092],[2.2725803,48.9000401],[2.2726745,48.9000789],[2.2726375,48.900116],[2.2723235,48.900407],[2.2721258,48.9003263],[2.2713732,48.9011282]]]]},"properties":{"code_section":"92026000BF","code_commune":"92026","section_courte":"BF"}},{"type":"Feature","geometry":{"type":"MultiPolygon","coordinates":[[[[2.2721872,48.9003514],[2.2723235,48.900407],[2.2726375,48.900116],[2.2726745,48.9000789],[2.2725803,48.9000401],[2.2734131,48.8992092],[2.2753066,48.8997953],[2.2773037,48.9003341],[2.2747413,48.9026488],[2.2713282,48.9011751],[2.2721258,48.9003263],[2.2721872,48.9003514]]]]},"properties":{"code_section":"92026000BG","code_commune":"92026","section_courte":"BG"}},{"type":"Feature","geometry":{"type":"MultiPolygon","coordinates":[[[[2.2799847,48.9037684],[2.2795857,48.9041289],[2.2794832,48.9040872],[2.2789509,48.9045416],[2.2782252,48.9041422],[2.2747413,48.9026488],[2.2758948,48.9016089],[2.2768,48.9021232],[2.2801144,48.9036513],[2.2799847,48.9037684]]]]},"properties":{"code_section":"92026000BH","code_commune":"92026","section_courte":"BH"}},{"type":"Feature","geometry":{"type":"MultiPolygon","coordinates":[[[[2.280697,48.9009784],[2.2808691,48.901035],[2.2790994,48.903186],[2.2768,48.9021232],[2.2758948,48.9016089],[2.2773037,48.9003341],[2.2782941,48.9006601],[2.2786557,48.9007471],[2.2790697,48.9008048],[2.2800272,48.9008502],[2.280697,48.9009784]]]]},"properties":{"code_section":"92026000BI","code_commune":"92026","section_courte":"BI"}},{"type":"Feature","geometry":{"type":"MultiPolygon","coordinates":[[[[2.2803203,48.9017121],[2.2808691,48.901035],[2.2829312,48.9016859],[2.2842847,48.9022294],[2.2818482,48.9046352],[2.2814119,48.9043279],[2.2807949,48.9039811],[2.2790994,48.903186],[2.2803203,48.9017121]]]]},"properties":{"code_section":"92026000BJ","code_commune":"92026","section_courte":"BJ"}}]}