{"type":"FeatureCollection","features":[{"type":"Feature","geometry":{"type":"MultiPolygon","coordinates":[[[[2.1824612,48.8122302],[2.1830595,48.8118154],[2.1834644,48.8120232],[2.1836856,48.8122265],[2.1838519,48.8120994],[2.184117,48.8119765],[2.1846838,48.8122988],[2.1850153,48.8124371],[2.1854579,48.8125626],[2.186037,48.8126779],[2.1864465,48.8128052],[2.185761,48.8135894],[2.1857711,48.8136818],[2.1871097,48.8148912],[2.1872865,48.8151263],[2.1875957,48.8156762],[2.1845646,48.8155294],[2.1845664,48.8155021],[2.182982,48.8154592],[2.1827066,48.8153683],[2.1818911,48.8148876],[2.1813458,48.8147162],[2.1810894,48.8146699],[2.1798832,48.8147822],[2.1785874,48.8148621],[2.1776872,48.8144114],[2.1768702,48.8140567],[2.1767848,48.8139924],[2.1762041,48.8130692],[2.1759235,48.8128066],[2.1758572,48.8126503],[2.1759477,48.8119287],[2.17609,48.8118234],[2.1764393,48.8117294],[2.1765416,48.811668],[2.176594,48.8115776],[2.1763617,48.8110486],[2.1763694,48.8109514],[2.1774035,48.8102263],[2.177439,48.8102547],[2.1774656,48.8102392],[2.1777378,48.8104918],[2.1777869,48.8106694],[2.1784438,48.8113638],[2.178502,48.8115031],[2.179061,48.8111686],[2.1793302,48.811407],[2.1793716,48.8113758],[2.1794138,48.8113902],[2.1794501,48.8120824],[2.1804474,48.8126417],[2.1822514,48.812106],[2.1824612,48.8122302]]]]},"properties":{"code_section":"92022000AB","code_commune":"92022","section_courte":"AB"}},{"type":"Feature","geometry":{"type":"MultiPolygon","coordinates":[[[[2.1927456,48.8173771],[2.1926668,48.8174467],[2.1921314,48.8171666],[2.1917199,48.8168766],[2.1914787,48.8170256],[2.1909727,48.8169243],[2.1908983,48.8169548],[2.190107,48.8167263],[2.1895782,48.8167032],[2.1900049,48.8164089],[2.1896799,48.8160975],[2.1897898,48.8157664],[2.1875957,48.8156762],[2.1872865,48.8151263],[2.1871097,48.8148912],[2.1857711,48.8136818],[2.185761,48.8135894],[2.1864465,48.8128052],[2.186037,48.8126779],[2.1854579,48.8125626],[2.1850153,48.8124371],[2.1846838,48.8122988],[2.184117,48.8119765],[2.1838519,48.8120994],[2.1836856,48.8122265],[2.1834644,48.8120232],[2.1830595,48.8118154],[2.1876571,48.8087263],[2.1876768,48.8087966],[2.1878065,48.8088796],[2.1906533,48.8102214],[2.1913755,48.8105789],[2.1916267,48.8107426],[2.1916924,48.8108573],[2.1918052,48.8113412],[2.1921008,48.8130387],[2.1921809,48.8132746],[2.193836,48.8155899],[2.1937973,48.8156682],[2.1938961,48.8158104],[2.1941952,48.8160862],[2.1943957,48.8162224],[2.1937875,48.8166043],[2.1935566,48.8169116],[2.1931315,48.8171212],[2.1927456,48.8173771]]]]},"properties":{"code_section":"92022000AC","code_commune":"92022","section_courte":"AC"}},{"type":"Feature","geometry":{"type":"MultiPolygon","coordinates":[[[[2.1926671,48.8174487],[2.1929441,48.8172302],[2.1935566,48.8169116],[2.1937875,48.8166043],[2.1943957,48.8162224],[2.1941952,48.8160862],[2.1938961,48.8158104],[2.1937979,48.8156357],[2.1946468,48.8146579],[2.1947913,48.8143892],[2.1951003,48.8124705],[2.1948258,48.8117961],[2.1952103,48.8117005],[2.1950481,48.8113835],[2.1951903,48.8113777],[2.1962504,48.8122548],[2.1968987,48.8130853],[2.1975724,48.8132885],[2.1980514,48.8141282],[2.1975955,48.8144282],[2.197639,48.8144783],[2.1973862,48.8146743],[2.1966851,48.815132],[2.1972209,48.8157601],[2.1991121,48.8165875],[2.1995383,48.8170717],[2.1991999,48.8172469],[2.1989659,48.8172726],[2.1985698,48.8178242],[2.1984654,48.8178476],[2.1982021,48.8180441],[2.2002642,48.8190502],[2.1995968,48.8196667],[2.1996636,48.819706],[2.1978754,48.8209139],[2.1975912,48.8207309],[2.197187,48.8202316],[2.1964273,48.8198964],[2.1961075,48.8196828],[2.1957469,48.8193295],[2.1951481,48.8189775],[2.1946599,48.8185597],[2.1944917,48.8184701],[2.1938707,48.8182522],[2.1933152,48.8178424],[2.1926671,48.8174487]]]]},"properties":{"code_section":"92022000AD","code_commune":"92022","section_courte":"AD"}},{"type":"Feature","geometry":{"type":"MultiPolygon","coordinates":[[[[2.1950713,48.8113229],[2.1950058,48.8113328],[2.1951237,48.8113743],[2.1950481,48.8113835],[2.1952103,48.8117005],[2.1948258,48.8117961],[2.1951003,48.8124705],[2.1947913,48.8143892],[2.1946468,48.8146579],[2.193836,48.8155899],[2.1921809,48.8132746],[2.1921008,48.8130387],[2.1918052,48.8113412],[2.1916924,48.8108573],[2.1916267,48.8107426],[2.1913755,48.8105789],[2.1906533,48.8102214],[2.1894929,48.8096945],[2.1876768,48.8087966],[2.1876495,48.8086999],[2.1878242,48.8074771],[2.1880564,48.80742],[2.1883623,48.8075234],[2.1887948,48.8075955],[2.190465,48.8076108],[2.1907485,48.8076362],[2.1937567,48.8081228],[2.1939769,48.8075966],[2.1955555,48.8079011],[2.1956831,48.8086077],[2.195686,48.8090317],[2.1952737,48.8111592],[2.19521,48.8112667],[2.1950713,48.8113229]]]]},"properties":{"code_section":"92022000AE","code_commune":"92022","section_courte":"AE"}},{"type":"Feature","geometry":{"type":"MultiPolygon","coordinates":[[[[2.1986762,48.8138295],[2.1973862,48.8146743],[2.197639,48.8144783],[2.1975955,48.8144282],[2.1980514,48.8141282],[2.1975724,48.8132885],[2.1968987,48.8130853],[2.1962504,48.8122548],[2.1952091,48.8113814],[2.1950058,48.8113328],[2.19521,48.8112667],[2.1952737,48.8111592],[2.195686,48.8090317],[2.1956831,48.8086077],[2.1955555,48.8079011],[2.1939769,48.8075966],[2.1937567,48.8081228],[2.1925435,48.8079242],[2.1923048,48.8076254],[2.192211,48.8073427],[2.1915286,48.8063426],[2.1911588,48.8061204],[2.1909547,48.8059016],[2.1891238,48.8046345],[2.1890535,48.8046299],[2.1886784,48.8043472],[2.1888585,48.8041854],[2.1887602,48.8041479],[2.1886267,48.8035913],[2.189221,48.8034744],[2.1899765,48.8035508],[2.1905099,48.8027834],[2.1902319,48.8026974],[2.1898198,48.8024472],[2.1895272,48.8020366],[2.1891001,48.8013276],[2.189227,48.8006103],[2.1890507,48.8005173],[2.18997,48.8002266],[2.1915992,48.8001],[2.1931172,48.7999089],[2.1966853,48.7999058],[2.1968845,48.7998165],[2.1983253,48.798706],[2.1985706,48.798466],[2.2026362,48.7984359],[2.2040684,48.7990447],[2.2048868,48.7995517],[2.2060527,48.7999375],[2.2046299,48.8021198],[2.2044156,48.8020945],[2.2042272,48.8021299],[2.2040615,48.8022406],[2.2040057,48.8023761],[2.2040378,48.8024824],[2.2041559,48.802589],[2.2043375,48.8026508],[2.204522,48.8026541],[2.205987,48.8088984],[2.203933,48.8103977],[2.1986762,48.8138295]]]]},"properties":{"code_section":"92022000AH","code_commune":"92022","section_courte":"AH"}},{"type":"Feature","geometry":{"type":"MultiPolygon","coordinates":[[[[2.1882876,48.7984694],[2.1883315,48.7973198],[2.1964703,48.7975326],[2.1984027,48.79864],[2.1968845,48.7998165],[2.1966853,48.7999058],[2.1931172,48.7999089],[2.1915992,48.8001],[2.18997,48.8002266],[2.1890507,48.8005173],[2.1889785,48.8004859],[2.18846,48.7999401],[2.188455,48.7997147],[2.1877417,48.7993056],[2.1882677,48.7989299],[2.1882116,48.7986566],[2.1882876,48.7984694]]]]},"properties":{"code_section":"92022000AI","code_commune":"92022","section_courte":"AI"}},{"type":"Feature","geometry":{"type":"MultiPolygon","coordinates":[[[[2.1887352,48.8042964],[2.1886784,48.8043472],[2.18858,48.8042685],[2.188511,48.8042815],[2.1881779,48.8040596],[2.1881044,48.8039352],[2.1877238,48.8035936],[2.1872085,48.8031911],[2.186286,48.8027398],[2.1861548,48.8027209],[2.1855409,48.8024281],[2.1853647,48.8025081],[2.185315,48.8024839],[2.1853541,48.8024317],[2.1853118,48.8023825],[2.1843969,48.8020225],[2.1833989,48.8016739],[2.183337,48.8016858],[2.1833052,48.8016482],[2.1817531,48.8011676],[2.1819709,48.8005977],[2.1854601,48.8010498],[2.1859063,48.8010081],[2.1869682,48.8007093],[2.182919,48.7972152],[2.1883315,48.7973198],[2.1882876,48.7984694],[2.1882116,48.7986566],[2.1882677,48.7989299],[2.1877417,48.7993056],[2.188455,48.7997147],[2.18846,48.7999401],[2.1889785,48.8004859],[2.189227,48.8006103],[2.1891001,48.8013276],[2.1898198,48.8024472],[2.1902319,48.8026974],[2.1905099,48.8027834],[2.1899765,48.8035508],[2.189221,48.8034744],[2.1886267,48.8035913],[2.1887602,48.8041479],[2.1888585,48.8041854],[2.1887352,48.8042964]]]]},"properties":{"code_section":"92022000AK","code_commune":"92022","section_courte":"AK"}},{"type":"Feature","geometry":{"type":"MultiPolygon","coordinates":[[[[2.181595,48.8015735],[2.1817531,48.8011676],[2.1833052,48.8016482],[2.183337,48.8016858],[2.1833989,48.8016739],[2.1843969,48.8020225],[2.1853118,48.8023825],[2.1853541,48.8024317],[2.185315,48.8024839],[2.1853647,48.8025081],[2.1855409,48.8024281],[2.1861548,48.8027209],[2.186286,48.8027398],[2.1871575,48.8031599],[2.1877238,48.8035936],[2.1881044,48.8039352],[2.1881779,48.8040596],[2.188511,48.8042815],[2.18858,48.8042685],[2.1890535,48.8046299],[2.1891238,48.8046345],[2.1909547,48.8059016],[2.1911588,48.8061204],[2.1915286,48.8063426],[2.192211,48.8073427],[2.1923048,48.8076254],[2.1925435,48.8079242],[2.1911887,48.8076907],[2.190632,48.8076237],[2.1887948,48.8075955],[2.1883623,48.8075234],[2.1880564,48.80742],[2.1878242,48.8074771],[2.1878421,48.8073586],[2.1877996,48.8072897],[2.1880412,48.8055606],[2.1874837,48.8055834],[2.1870516,48.805672],[2.1859933,48.8056658],[2.1856405,48.8057722],[2.185324,48.8056619],[2.1842163,48.8054202],[2.183053,48.8052608],[2.1803292,48.8047944],[2.181595,48.8015735]]]]},"properties":{"code_section":"92022000AL","code_commune":"92022","section_courte":"AL"}},{"type":"Feature","geometry":{"type":"MultiPolygon","coordinates":[[[[2.1833424,48.8116238],[2.1824612,48.8122302],[2.1822514,48.812106],[2.1804474,48.8126417],[2.1794501,48.8120824],[2.1794138,48.8113902],[2.1793716,48.8113758],[2.1793302,48.811407],[2.179061,48.8111686],[2.178502,48.8115031],[2.1784438,48.8113638],[2.1777869,48.8106694],[2.1777378,48.8104918],[2.1774656,48.8102392],[2.177439,48.8102547],[2.177295,48.8101348],[2.177277,48.8100582],[2.17816,48.8094506],[2.1785496,48.8096001],[2.1804494,48.8080827],[2.1803745,48.8080562],[2.1815856,48.8066489],[2.1816141,48.8066609],[2.1820448,48.8062377],[2.1819175,48.8061825],[2.183053,48.8052608],[2.1845078,48.8054753],[2.1853857,48.8056777],[2.1856405,48.8057722],[2.1859933,48.8056658],[2.1870516,48.805672],[2.1874837,48.8055834],[2.1880412,48.8055606],[2.1877996,48.8072897],[2.1878421,48.8073586],[2.1876571,48.8087263],[2.1833424,48.8116238]]]]},"properties":{"code_section":"92022000AM","code_commune":"92022","section_courte":"AM"}}]}