{"type":"FeatureCollection","features":[{"type":"Feature","geometry":{"type":"MultiPolygon","coordinates":[[[[2.2552414,48.9401098],[2.2506956,48.9382279],[2.2490106,48.9374768],[2.2475919,48.9367935],[2.2483827,48.9337967],[2.2493071,48.9346576],[2.2510655,48.935869],[2.2526804,48.9360472],[2.2531881,48.9361489],[2.2535259,48.936157],[2.2538442,48.9362819],[2.254338,48.9365822],[2.2555904,48.9369856],[2.256865,48.9374962],[2.2579212,48.9375749],[2.2580874,48.937623],[2.256884,48.9385857],[2.2552414,48.9401098]]]]},"properties":{"code_section":"920360000A","code_commune":"92036","section_courte":"A"}},{"type":"Feature","geometry":{"type":"MultiPolygon","coordinates":[[[[2.2630427,48.9360256],[2.2629977,48.9360504],[2.2631969,48.9368791],[2.2633018,48.9378163],[2.2632191,48.9387318],[2.263061,48.9395544],[2.2629055,48.9399969],[2.2627768,48.940342],[2.2622652,48.9413986],[2.2614532,48.9425996],[2.261044,48.9424782],[2.2604731,48.9432144],[2.2591835,48.9425644],[2.2577794,48.9418071],[2.2571934,48.941411],[2.2557897,48.9403635],[2.2552414,48.9401098],[2.256884,48.9385857],[2.2590449,48.9368669],[2.2622569,48.9349164],[2.2624837,48.9354585],[2.2626969,48.9354108],[2.2628936,48.9358881],[2.2630427,48.9360256]]]]},"properties":{"code_section":"920360000B","code_commune":"92036","section_courte":"B"}},{"type":"Feature","geometry":{"type":"MultiPolygon","coordinates":[[[[2.2813023,48.9414422],[2.2826247,48.941635],[2.2832116,48.9417611],[2.2818228,48.9450995],[2.2820423,48.9451283],[2.2829262,48.9458182],[2.2836683,48.9454294],[2.2844404,48.9456342],[2.2842401,48.9463122],[2.2826075,48.9472175],[2.2773932,48.9487009],[2.2741037,48.9477341],[2.2698515,48.9468157],[2.2686201,48.9464821],[2.2681231,48.9463099],[2.2669132,48.945815],[2.2632719,48.9442699],[2.2607289,48.9432885],[2.2604731,48.9432144],[2.261044,48.9424782],[2.2614532,48.9425996],[2.2620162,48.9417845],[2.2622652,48.9413986],[2.262826,48.9402192],[2.263061,48.9395544],[2.2632463,48.9383961],[2.2634764,48.938395],[2.2634727,48.9383129],[2.2637571,48.9381336],[2.2637835,48.93839],[2.2658611,48.9383291],[2.2660184,48.9409149],[2.2680639,48.9408596],[2.2680527,48.9406698],[2.2747344,48.9404941],[2.2813023,48.9414422]]]]},"properties":{"code_section":"920360000C","code_commune":"92036","section_courte":"C"}},{"type":"Feature","geometry":{"type":"MultiPolygon","coordinates":[[[[2.2826981,48.9409664],[2.2826247,48.941635],[2.2747344,48.9404941],[2.2680527,48.9406698],[2.2680639,48.9408596],[2.2660184,48.9409149],[2.2658611,48.9383291],[2.2637835,48.93839],[2.2637571,48.9381336],[2.2634727,48.9383129],[2.2634764,48.938395],[2.2632463,48.9383961],[2.2633018,48.9378163],[2.2631969,48.9368791],[2.2629977,48.9360504],[2.263057,48.9360176],[2.2628936,48.9358881],[2.2626969,48.9354108],[2.2646254,48.9349784],[2.2685592,48.9344269],[2.2712505,48.9338743],[2.2714932,48.9339294],[2.2719497,48.9341198],[2.2722505,48.934105],[2.2725374,48.9340352],[2.2731811,48.9337872],[2.2733296,48.9336658],[2.2737954,48.9333984],[2.2740366,48.9333208],[2.2743696,48.9332668],[2.2746451,48.9332584],[2.27566,48.9335471],[2.2765348,48.933569],[2.2769607,48.9340214],[2.2776637,48.9339482],[2.2780707,48.9345523],[2.2781457,48.9345335],[2.278589,48.9351471],[2.2785907,48.9352801],[2.2832746,48.9358118],[2.2829908,48.9366386],[2.2815916,48.936382],[2.281115,48.9374238],[2.2816489,48.9375345],[2.2812737,48.9384172],[2.2826297,48.9386882],[2.2828231,48.9398212],[2.2826981,48.9409664]]]]},"properties":{"code_section":"920360000D","code_commune":"92036","section_courte":"D"}},{"type":"Feature","geometry":{"type":"MultiPolygon","coordinates":[[[[2.284318,48.9419959],[2.2826247,48.941635],[2.2828231,48.9398212],[2.2826297,48.9386882],[2.2812737,48.9384172],[2.2816489,48.9375345],[2.281115,48.9374238],[2.2815916,48.936382],[2.2829908,48.9366386],[2.2832746,48.9358118],[2.2848815,48.93598],[2.2860482,48.9360194],[2.2864887,48.9359651],[2.2870191,48.9360736],[2.2870577,48.9365037],[2.2872375,48.9364968],[2.2872871,48.9370954],[2.2881779,48.9368638],[2.2884802,48.9373342],[2.2890771,48.9370692],[2.2907621,48.9381507],[2.2910452,48.9377675],[2.2913434,48.9374573],[2.3024566,48.9396767],[2.302366,48.9399173],[2.3030304,48.9426733],[2.3006544,48.9433355],[2.3003067,48.9433571],[2.2999606,48.9433279],[2.2994003,48.9431659],[2.2956102,48.9418365],[2.2949375,48.9415426],[2.2932661,48.9409816],[2.2929506,48.9409136],[2.2905702,48.9422313],[2.2903817,48.942202],[2.2890203,48.9424576],[2.2883347,48.9428413],[2.2876504,48.9426985],[2.2868747,48.9421005],[2.2862907,48.9424221],[2.284318,48.9419959]]]]},"properties":{"code_section":"920360000E","code_commune":"92036","section_courte":"E"}},{"type":"Feature","geometry":{"type":"MultiPolygon","coordinates":[[[[2.3017098,48.9500922],[2.3017267,48.9502087],[2.3007757,48.9503732],[2.2996462,48.9504873],[2.2979554,48.9505205],[2.2961197,48.9505185],[2.292938,48.9506181],[2.291856,48.9507667],[2.2913022,48.9508751],[2.2907458,48.9510386],[2.2890022,48.9508762],[2.2863589,48.9505549],[2.2841594,48.9502497],[2.2821004,48.949914],[2.2807362,48.9496387],[2.2796524,48.9493561],[2.2773932,48.9487009],[2.2826075,48.9472175],[2.2842401,48.9463122],[2.2844404,48.9456342],[2.2836683,48.9454294],[2.2829262,48.9458182],[2.2820423,48.9451283],[2.2818228,48.9450995],[2.2832116,48.9417611],[2.2862907,48.9424221],[2.2868747,48.9421005],[2.2876504,48.9426985],[2.2883347,48.9428413],[2.2890203,48.9424576],[2.2903817,48.942202],[2.2905702,48.9422313],[2.2929506,48.9409136],[2.2932661,48.9409816],[2.2949375,48.9415426],[2.2956102,48.9418365],[2.2994003,48.9431659],[2.2999606,48.9433279],[2.3003067,48.9433571],[2.3006544,48.9433355],[2.3030304,48.9426733],[2.3031264,48.9429278],[2.3030535,48.943082],[2.3031239,48.9433184],[2.3021822,48.9452314],[2.3017798,48.946215],[2.3016093,48.9462223],[2.301599,48.9462891],[2.3018022,48.9462994],[2.3016931,48.946886],[2.301652,48.9467713],[2.3015757,48.9477069],[2.3015891,48.948316],[2.3016501,48.948817],[2.3018664,48.9497507],[2.301636,48.9498131],[2.3017098,48.9500922]]]]},"properties":{"code_section":"920360000F","code_commune":"92036","section_courte":"F"}},{"type":"Feature","geometry":{"type":"MultiPolygon","coordinates":[[[[2.3060981,48.9492249],[2.3017267,48.9502087],[2.301636,48.9498131],[2.3018664,48.9497507],[2.3016501,48.948817],[2.3015891,48.948316],[2.3015757,48.9477069],[2.301652,48.9467713],[2.3016931,48.946886],[2.3018022,48.9462994],[2.301599,48.9462891],[2.3016033,48.9462613],[2.3024348,48.9462349],[2.3024323,48.9462842],[2.3025644,48.9462773],[2.3025683,48.9462276],[2.3045869,48.9461335],[2.30666,48.9457921],[2.3104971,48.944807],[2.3116736,48.9479251],[2.309136,48.9485408],[2.3060981,48.9492249]]]]},"properties":{"code_section":"920360000G","code_commune":"92036","section_courte":"G"}},{"type":"Feature","geometry":{"type":"MultiPolygon","coordinates":[[[[2.3024348,48.9462349],[2.3016033,48.9462613],[2.3016093,48.9462223],[2.3017798,48.946215],[2.3021822,48.9452314],[2.3031239,48.9433184],[2.3030535,48.943082],[2.3031264,48.9429278],[2.3030304,48.9426733],[2.3027179,48.9413703],[2.3031572,48.941436],[2.3033509,48.9411128],[2.3036664,48.9411821],[2.3036495,48.9412189],[2.3041502,48.9413125],[2.3051747,48.9411256],[2.3075846,48.9408466],[2.3092172,48.9403246],[2.3099839,48.9413059],[2.3092546,48.9415133],[2.3104971,48.944807],[2.30666,48.9457921],[2.3045869,48.9461335],[2.3025683,48.9462276],[2.3025644,48.9462773],[2.3024323,48.9462842],[2.3024348,48.9462349]]]]},"properties":{"code_section":"920360000H","code_commune":"92036","section_courte":"H"}},{"type":"Feature","geometry":{"type":"MultiPolygon","coordinates":[[[[2.3089417,48.9390868],[2.3095284,48.9401931],[2.3091993,48.9403002],[2.3092172,48.9403246],[2.3075846,48.9408466],[2.3051747,48.9411256],[2.3041502,48.9413125],[2.3036495,48.9412189],[2.3036664,48.9411821],[2.3033509,48.9411128],[2.3031572,48.941436],[2.3027179,48.9413703],[2.302366,48.9399173],[2.3030469,48.9381411],[2.3033305,48.9381886],[2.3037576,48.9381837],[2.303915,48.9380893],[2.3039829,48.9379596],[2.3039941,48.9376868],[2.3039149,48.9371405],[2.3035881,48.936374],[2.3037843,48.936339],[2.3024801,48.9331861],[2.3037876,48.933082],[2.3049042,48.9331925],[2.3082348,48.9333383],[2.3078097,48.9339953],[2.3078016,48.9342834],[2.3084082,48.9355114],[2.3084034,48.9358066],[2.3078223,48.9369858],[2.3082645,48.9379464],[2.3081585,48.9380041],[2.3088257,48.9391162],[2.3089417,48.9390868]]]]},"properties":{"code_section":"920360000I","code_commune":"92036","section_courte":"I"}},{"type":"Feature","geometry":{"type":"MultiPolygon","coordinates":[[[[2.3095189,48.9401763],[2.3089417,48.9390868],[2.3088257,48.9391162],[2.3081585,48.9380041],[2.3082645,48.9379464],[2.3078223,48.9369858],[2.3084034,48.9358066],[2.3084082,48.9355114],[2.3078016,48.9342834],[2.3078097,48.9339953],[2.3082348,48.9333383],[2.3087835,48.9333787],[2.3091268,48.9332606],[2.3102693,48.9331048],[2.310252,48.9330486],[2.3118559,48.9328258],[2.3128735,48.9342516],[2.3134765,48.9340394],[2.3150253,48.9358496],[2.3150521,48.935879],[2.3150863,48.9358659],[2.316494,48.9375801],[2.314833,48.938014],[2.3126027,48.9391965],[2.3095189,48.9401763]]]]},"properties":{"code_section":"920360000J","code_commune":"92036","section_courte":"J"}},{"type":"Feature","geometry":{"type":"MultiPolygon","coordinates":[[[[2.31219,48.933294],[2.3118559,48.9328258],[2.31256,48.9327167],[2.3126045,48.9327686],[2.3126613,48.9327593],[2.3184617,48.931766],[2.3209831,48.9312674],[2.321101,48.9313178],[2.3220873,48.9327089],[2.3220872,48.932859],[2.3210101,48.934396],[2.3209786,48.9344959],[2.3202554,48.9352302],[2.3191031,48.9362857],[2.3184426,48.9368301],[2.3180352,48.9370536],[2.3174799,48.9372921],[2.316494,48.9375801],[2.3150863,48.9358659],[2.3150521,48.935879],[2.3150253,48.9358496],[2.3134765,48.9340394],[2.3128735,48.9342516],[2.31219,48.933294]]]]},"properties":{"code_section":"920360000K","code_commune":"92036","section_courte":"K"}},{"type":"Feature","geometry":{"type":"MultiPolygon","coordinates":[[[[2.3103627,48.9330332],[2.310252,48.9330486],[2.3102693,48.9331048],[2.3091268,48.9332606],[2.3087835,48.9333787],[2.3049042,48.9331925],[2.3037876,48.933082],[2.3024801,48.9331861],[2.3013731,48.9307409],[2.3058808,48.9299873],[2.3087966,48.9295786],[2.3096244,48.9295005],[2.3103533,48.9291159],[2.310502,48.9290873],[2.3105323,48.9291417],[2.3106961,48.9291107],[2.3105629,48.9291928],[2.3107292,48.9291626],[2.3110449,48.9292781],[2.3120483,48.9316003],[2.3120301,48.9316911],[2.3126613,48.9327593],[2.3126045,48.9327686],[2.31256,48.9327167],[2.3103627,48.9330332]]]]},"properties":{"code_section":"920360000L","code_commune":"92036","section_courte":"L"}},{"type":"Feature","geometry":{"type":"MultiPolygon","coordinates":[[[[2.3105323,48.9291417],[2.310502,48.9290873],[2.3148467,48.9282687],[2.3183375,48.9275166],[2.3208563,48.9312132],[2.3209831,48.9312674],[2.3184617,48.931766],[2.3126613,48.9327593],[2.3120301,48.9316911],[2.3120483,48.9316003],[2.3110449,48.9292781],[2.3107292,48.9291626],[2.3105629,48.9291928],[2.3106961,48.9291107],[2.3105323,48.9291417]]]]},"properties":{"code_section":"920360000M","code_commune":"92036","section_courte":"M"}},{"type":"Feature","geometry":{"type":"MultiPolygon","coordinates":[[[[2.3258123,48.9246258],[2.3254237,48.9249031],[2.3234975,48.9241289],[2.322078,48.9238004],[2.32141,48.9234229],[2.3197418,48.9218968],[2.3192181,48.9214863],[2.3188108,48.9212405],[2.3183939,48.9210383],[2.3177592,48.9208214],[2.3204025,48.9195834],[2.3218626,48.9187527],[2.3221568,48.9189735],[2.3226053,48.9192103],[2.3250823,48.9202774],[2.3257849,48.9206237],[2.3262214,48.9208954],[2.3285207,48.9226937],[2.3258123,48.9246258]]]]},"properties":{"code_section":"920360000N","code_commune":"92036","section_courte":"N"}},{"type":"Feature","geometry":{"type":"MultiPolygon","coordinates":[[[[2.3138782,48.9224276],[2.3138268,48.9223795],[2.3174957,48.9209652],[2.3177592,48.9208214],[2.3183939,48.9210383],[2.3188108,48.9212405],[2.3192181,48.9214863],[2.3197418,48.9218968],[2.32141,48.9234229],[2.322078,48.9238004],[2.3234975,48.9241289],[2.3254237,48.9249031],[2.3187501,48.9273622],[2.3180821,48.9264899],[2.3171401,48.9255469],[2.31673,48.9257551],[2.3155952,48.9247084],[2.3161207,48.9244568],[2.3154912,48.9238814],[2.3154564,48.923897],[2.3138782,48.9224276]]]]},"properties":{"code_section":"920360000O","code_commune":"92036","section_courte":"O"}},{"type":"Feature","geometry":{"type":"MultiPolygon","coordinates":[[[[2.3183375,48.9275166],[2.3148467,48.9282687],[2.3103533,48.9291159],[2.3096244,48.9295005],[2.3090874,48.9295595],[2.3073556,48.9250866],[2.3095392,48.9240097],[2.3130076,48.9226685],[2.3129968,48.9226921],[2.3138268,48.9223795],[2.3154564,48.923897],[2.3154912,48.9238814],[2.3161207,48.9244568],[2.3155952,48.9247084],[2.31673,48.9257551],[2.3171401,48.9255469],[2.3180821,48.9264899],[2.3187501,48.9273622],[2.3183375,48.9275166]]]]},"properties":{"code_section":"920360000P","code_commune":"92036","section_courte":"P"}},{"type":"Feature","geometry":{"type":"MultiPolygon","coordinates":[[[[2.3081386,48.9270959],[2.3090874,48.9295595],[2.3087966,48.9295786],[2.3058808,48.9299873],[2.3013731,48.9307409],[2.3007235,48.9292742],[2.3004901,48.9285132],[2.3019424,48.9281371],[2.3019844,48.9280535],[2.3021197,48.9280832],[2.3025407,48.927955],[2.3025893,48.9279947],[2.3026521,48.9278695],[2.3030928,48.9277375],[2.3036715,48.9272439],[2.3073556,48.9250866],[2.3081386,48.9270959]]]]},"properties":{"code_section":"920360000Q","code_commune":"92036","section_courte":"Q"}},{"type":"Feature","geometry":{"type":"MultiPolygon","coordinates":[[[[2.2975202,48.9299113],[2.2973947,48.9298318],[2.2980247,48.9296058],[2.2983689,48.9293934],[2.2986811,48.9291119],[2.299411,48.9286864],[2.3004767,48.9284437],[2.3007235,48.9292742],[2.3019855,48.9320368],[2.3011224,48.9321306],[2.3011573,48.9322664],[2.3003566,48.9323634],[2.2986495,48.9325083],[2.2986495,48.9320271],[2.2989558,48.931783],[2.2986824,48.9305059],[2.2975202,48.9299113]]]]},"properties":{"code_section":"920360000R","code_commune":"92036","section_courte":"R"}},{"type":"Feature","geometry":{"type":"MultiPolygon","coordinates":[[[[2.2968016,48.9299426],[2.2973947,48.9298318],[2.2986824,48.9305059],[2.2989558,48.931783],[2.2986495,48.9320271],[2.2986495,48.9325083],[2.2969541,48.9327571],[2.296359,48.9328149],[2.2963196,48.9329611],[2.2945168,48.9321268],[2.2947644,48.9317647],[2.2949529,48.9312102],[2.2950689,48.9304576],[2.2956767,48.9302507],[2.2968016,48.9299426]]]]},"properties":{"code_section":"920360000S","code_commune":"92036","section_courte":"S"}},{"type":"Feature","geometry":{"type":"MultiPolygon","coordinates":[[[[2.3019855,48.9320368],[2.3031118,48.9347127],[2.3018387,48.9347932],[2.30005,48.9349825],[2.2975361,48.9351996],[2.2971149,48.9351878],[2.2969969,48.9335456],[2.2985757,48.9334924],[2.2986495,48.9325083],[2.3003566,48.9323634],[2.3011573,48.9322664],[2.3011224,48.9321306],[2.3019855,48.9320368]]]]},"properties":{"code_section":"920360000T","code_commune":"92036","section_courte":"T"}},{"type":"Feature","geometry":{"type":"MultiPolygon","coordinates":[[[[2.2985757,48.9334924],[2.2969969,48.9335456],[2.2971149,48.9351878],[2.2963833,48.9351243],[2.2947312,48.9347238],[2.2935565,48.9343414],[2.2938033,48.9339641],[2.2941267,48.9333048],[2.2942244,48.9326314],[2.2943589,48.9323467],[2.2945168,48.9321268],[2.2963196,48.9329611],[2.296359,48.9328149],[2.2969541,48.9327571],[2.2986495,48.9325083],[2.2985757,48.9334924]]]]},"properties":{"code_section":"920360000U","code_commune":"92036","section_courte":"U"}},{"type":"Feature","geometry":{"type":"MultiPolygon","coordinates":[[[[2.2926958,48.9358927],[2.2935565,48.9343414],[2.2947312,48.9347238],[2.2963833,48.9351243],[2.2971149,48.9351878],[2.2975361,48.9351996],[2.30005,48.9349825],[2.3018387,48.9347932],[2.3031118,48.9347127],[2.3037843,48.936339],[2.3035881,48.936374],[2.3039493,48.937261],[2.3039829,48.9379596],[2.303915,48.9380893],[2.3037576,48.9381837],[2.3033305,48.9381886],[2.3030469,48.9381411],[2.3024566,48.9396767],[2.2913434,48.9374573],[2.2919274,48.9368313],[2.2919865,48.9368525],[2.2926958,48.9358927]]]]},"properties":{"code_section":"920360000V","code_commune":"92036","section_courte":"V"}},{"type":"Feature","geometry":{"type":"MultiPolygon","coordinates":[[[[2.2921536,48.9366292],[2.2919865,48.9368525],[2.2919274,48.9368313],[2.2910452,48.9377675],[2.2907621,48.9381507],[2.2890771,48.9370692],[2.2884802,48.9373342],[2.2881779,48.9368638],[2.2872871,48.9370954],[2.2872375,48.9364968],[2.2870577,48.9365037],[2.2870191,48.9360736],[2.2864887,48.9359651],[2.2882186,48.9357535],[2.2887472,48.9356434],[2.2890174,48.9353052],[2.2892446,48.9353866],[2.2892501,48.935294],[2.2898472,48.9352943],[2.2898466,48.935262],[2.2894172,48.9351052],[2.2894455,48.9345909],[2.2895154,48.9345597],[2.2895367,48.9341673],[2.2867439,48.9340517],[2.286451,48.9343531],[2.2856702,48.9340176],[2.2856857,48.9335529],[2.2859648,48.9335562],[2.2859792,48.9329512],[2.283269,48.9322649],[2.2842407,48.9316553],[2.2834232,48.931608],[2.2836704,48.9311235],[2.2843153,48.9302869],[2.2876302,48.9313224],[2.2941558,48.9331613],[2.2941267,48.9333048],[2.2938033,48.9339641],[2.2935565,48.9343414],[2.2926958,48.9358927],[2.2921536,48.9366292]]]]},"properties":{"code_section":"920360000X","code_commune":"92036","section_courte":"X"}},{"type":"Feature","geometry":{"type":"MultiPolygon","coordinates":[[[[2.2885442,48.934129],[2.2895367,48.9341673],[2.2895154,48.9345597],[2.2894455,48.9345909],[2.2894172,48.9351052],[2.2898466,48.935262],[2.2898472,48.9352943],[2.2892501,48.935294],[2.2892446,48.9353866],[2.2890174,48.9353052],[2.2887472,48.9356434],[2.2882186,48.9357535],[2.2860482,48.9360194],[2.2848815,48.93598],[2.2785907,48.9352801],[2.278589,48.9351471],[2.2781457,48.9345335],[2.2780707,48.9345523],[2.2776637,48.9339482],[2.2769607,48.9340214],[2.2765348,48.933569],[2.2776258,48.9335179],[2.278777,48.9333235],[2.2797832,48.9332268],[2.2810242,48.93306],[2.2811942,48.9330044],[2.281444,48.9328676],[2.282274,48.9323093],[2.2831121,48.9319356],[2.2833447,48.931749],[2.2834232,48.931608],[2.2842407,48.9316553],[2.283269,48.9322649],[2.2859792,48.9329512],[2.2859648,48.9335562],[2.2856857,48.9335529],[2.2856702,48.9340176],[2.286451,48.9343531],[2.2867439,48.9340517],[2.2885442,48.934129]]]]},"properties":{"code_section":"920360000Y","code_commune":"92036","section_courte":"Y"}},{"type":"Feature","geometry":{"type":"MultiPolygon","coordinates":[[[[2.2850134,48.9252214],[2.2862801,48.9228799],[2.2900511,48.9250589],[2.2885142,48.9270048],[2.2879424,48.929224],[2.2876302,48.9313224],[2.2843153,48.9302869],[2.2843698,48.9302355],[2.2845176,48.9261344],[2.2850134,48.9252214]]]]},"properties":{"code_section":"920360000Z","code_commune":"92036","section_courte":"Z"}},{"type":"Feature","geometry":{"type":"MultiPolygon","coordinates":[[[[2.2896877,48.9319088],[2.2876302,48.9313224],[2.2879424,48.929224],[2.2903597,48.9293744],[2.2914963,48.9296663],[2.2916116,48.9298154],[2.2918025,48.9299332],[2.2915018,48.9318178],[2.2915766,48.9318743],[2.2916549,48.9324694],[2.2896877,48.9319088]]]]},"properties":{"code_section":"92036000AB","code_commune":"92036","section_courte":"AB"}},{"type":"Feature","geometry":{"type":"MultiPolygon","coordinates":[[[[2.2933812,48.9291743],[2.2936046,48.9291855],[2.2935848,48.9293272],[2.2950309,48.9294098],[2.29508,48.9303122],[2.2949529,48.9312102],[2.2947644,48.9317647],[2.2943589,48.9323467],[2.2942244,48.9326314],[2.2941558,48.9331613],[2.2916549,48.9324694],[2.2915766,48.9318743],[2.2915018,48.9318178],[2.2918025,48.9299332],[2.2916116,48.9298154],[2.2914963,48.9296663],[2.2914779,48.9295571],[2.2915378,48.9294218],[2.2916398,48.9293198],[2.2919095,48.9291978],[2.2919615,48.9289592],[2.2925102,48.9290488],[2.2925208,48.9290219],[2.2933812,48.9291743]]]]},"properties":{"code_section":"92036000AC","code_commune":"92036","section_courte":"AC"}},{"type":"Feature","geometry":{"type":"MultiPolygon","coordinates":[[[[2.2920288,48.9289696],[2.2919615,48.9289592],[2.2920818,48.9281249],[2.2918256,48.9278176],[2.291816,48.9277366],[2.2920679,48.9272182],[2.2921692,48.9266167],[2.2923533,48.9263919],[2.2925912,48.926502],[2.2930427,48.9266286],[2.2946832,48.9268178],[2.2949912,48.9284325],[2.2950309,48.9294098],[2.2935848,48.9293272],[2.2936046,48.9291855],[2.2933812,48.9291743],[2.2925208,48.9290219],[2.2925102,48.9290488],[2.2920288,48.9289696]]]]},"properties":{"code_section":"92036000AD","code_commune":"92036","section_courte":"AD"}},{"type":"Feature","geometry":{"type":"MultiPolygon","coordinates":[[[[2.2920818,48.9281249],[2.2919095,48.9291978],[2.291588,48.9293634],[2.2914779,48.9295571],[2.2914963,48.9296663],[2.2903597,48.9293744],[2.2879424,48.929224],[2.2885142,48.9270048],[2.2900511,48.9250589],[2.2923533,48.9263919],[2.2921692,48.9266167],[2.2920679,48.9272182],[2.291816,48.9277366],[2.2918256,48.9278176],[2.2920818,48.9281249]]]]},"properties":{"code_section":"92036000AE","code_commune":"92036","section_courte":"AE"}},{"type":"Feature","geometry":{"type":"MultiPolygon","coordinates":[[[[2.2950073,48.921344],[2.2948253,48.9225001],[2.2939369,48.9224089],[2.2937525,48.9225993],[2.2930035,48.9240416],[2.2917975,48.9260616],[2.2859486,48.92268],[2.2869439,48.9216556],[2.2902804,48.9188691],[2.2918586,48.9178958],[2.2926584,48.918419],[2.2952253,48.9199468],[2.2950073,48.921344]]]]},"properties":{"code_section":"92036000AF","code_commune":"92036","section_courte":"AF"}},{"type":"Feature","geometry":{"type":"MultiPolygon","coordinates":[[[[2.2940626,48.9224376],[2.2948253,48.9225001],[2.2944494,48.9254043],[2.2944518,48.9255943],[2.2946832,48.9268178],[2.2928759,48.9265942],[2.2924592,48.9264457],[2.2917975,48.9260616],[2.2930035,48.9240416],[2.2937525,48.9225993],[2.2939369,48.9224089],[2.2940626,48.9224376]]]]},"properties":{"code_section":"92036000AG","code_commune":"92036","section_courte":"AG"}},{"type":"Feature","geometry":{"type":"MultiPolygon","coordinates":[[[[2.3004036,48.9280646],[2.3004767,48.9284437],[2.299411,48.9286864],[2.2986811,48.9291119],[2.2983689,48.9293934],[2.2980247,48.9296058],[2.297541,48.9297949],[2.2963604,48.9300547],[2.2950689,48.9304576],[2.2949912,48.9284325],[2.2944518,48.9255943],[2.2944833,48.925246],[2.2980399,48.9254889],[2.2999969,48.9254787],[2.3000002,48.9259599],[2.3004036,48.9280646]]]]},"properties":{"code_section":"92036000AH","code_commune":"92036","section_courte":"AH"}},{"type":"Feature","geometry":{"type":"MultiPolygon","coordinates":[[[[2.2968499,48.9233372],[2.2968469,48.9234079],[2.296572,48.9235436],[2.296469,48.9253742],[2.2944833,48.925246],[2.2948253,48.9225001],[2.2949209,48.9220311],[2.295858,48.9225575],[2.2958133,48.9228584],[2.2962572,48.9230249],[2.2968463,48.9232994],[2.2968499,48.9233372]]]]},"properties":{"code_section":"92036000AI","code_commune":"92036","section_courte":"AI"}},{"type":"Feature","geometry":{"type":"MultiPolygon","coordinates":[[[[2.2965605,48.9236775],[2.296572,48.9235436],[2.2998312,48.9219239],[2.299981,48.9236538],[2.2999969,48.9254787],[2.2980399,48.9254889],[2.296469,48.9253742],[2.2965605,48.9236775]]]]},"properties":{"code_section":"92036000AJ","code_commune":"92036","section_courte":"AJ"}},{"type":"Feature","geometry":{"type":"MultiPolygon","coordinates":[[[[2.2958417,48.9226673],[2.295858,48.9225575],[2.2949209,48.9220311],[2.2956505,48.9169724],[2.2957187,48.9171181],[2.2962553,48.9175962],[2.2963903,48.9177567],[2.2964191,48.9177457],[2.2980788,48.9196276],[2.2997804,48.9185958],[2.299929,48.9186954],[2.3012589,48.917899],[2.3019417,48.9182161],[2.3038066,48.9194118],[2.3041233,48.9197661],[2.2968469,48.9234079],[2.2968463,48.9232994],[2.2962572,48.9230249],[2.2958133,48.9228584],[2.2958417,48.9226673]]]]},"properties":{"code_section":"92036000AK","code_commune":"92036","section_courte":"AK"}},{"type":"Feature","geometry":{"type":"MultiPolygon","coordinates":[[[[2.2984347,48.9162543],[2.3012589,48.917899],[2.299929,48.9186954],[2.2997804,48.9185958],[2.2980788,48.9196276],[2.2964191,48.9177457],[2.2963903,48.9177567],[2.2962553,48.9175962],[2.2957187,48.9171181],[2.2956505,48.9169724],[2.295883,48.9153093],[2.296279,48.9153322],[2.2963593,48.9154243],[2.2969198,48.9156476],[2.2970957,48.9154537],[2.2975454,48.9156333],[2.2973696,48.9158257],[2.2984347,48.9162543]]]]},"properties":{"code_section":"92036000AL","code_commune":"92036","section_courte":"AL"}},{"type":"Feature","geometry":{"type":"MultiPolygon","coordinates":[[[[2.3005729,48.9284977],[2.3004901,48.9285132],[2.3000002,48.9259599],[2.299981,48.9236538],[2.2998312,48.9219239],[2.3041233,48.9197661],[2.3056167,48.9215404],[2.3059083,48.9218518],[2.3059421,48.9218385],[2.3062839,48.9222909],[2.3073556,48.9250866],[2.3036715,48.9272439],[2.3030928,48.9277375],[2.3026521,48.9278695],[2.3025893,48.9279947],[2.3025407,48.927955],[2.3021197,48.9280832],[2.3019844,48.9280535],[2.3019424,48.9281371],[2.3005729,48.9284977]]]]},"properties":{"code_section":"92036000AM","code_commune":"92036","section_courte":"AM"}},{"type":"Feature","geometry":{"type":"MultiPolygon","coordinates":[[[[2.3064651,48.9189048],[2.3065507,48.9188477],[2.3065542,48.9188786],[2.3070802,48.9192241],[2.3070545,48.9192774],[2.3096663,48.9209732],[2.311909,48.9231024],[2.3095392,48.9240097],[2.3073556,48.9250866],[2.3062839,48.9222909],[2.3059421,48.9218385],[2.3059083,48.9218518],[2.3056167,48.9215404],[2.3044822,48.9202215],[2.3064651,48.9189048]]]]},"properties":{"code_section":"92036000AN","code_commune":"92036","section_courte":"AN"}},{"type":"Feature","geometry":{"type":"MultiPolygon","coordinates":[[[[2.3065542,48.9188786],[2.3065507,48.9188477],[2.3068796,48.918629],[2.3069358,48.9186374],[2.3069932,48.918483],[2.3076732,48.918035],[2.3079788,48.9174598],[2.3091412,48.9179725],[2.3099551,48.9183924],[2.3149417,48.9200737],[2.3177592,48.9208214],[2.3174957,48.9209652],[2.311909,48.9231024],[2.3096663,48.9209732],[2.3070545,48.9192774],[2.3070802,48.9192241],[2.3065542,48.9188786]]]]},"properties":{"code_section":"92036000AO","code_commune":"92036","section_courte":"AO"}},{"type":"Feature","geometry":{"type":"MultiPolygon","coordinates":[[[[2.3076732,48.918035],[2.3069932,48.918483],[2.3069358,48.9186374],[2.3068796,48.918629],[2.3044822,48.9202215],[2.3038066,48.9194118],[2.3024959,48.9185717],[2.3049391,48.9163477],[2.3079788,48.9174598],[2.3076732,48.918035]]]]},"properties":{"code_section":"92036000AP","code_commune":"92036","section_courte":"AP"}},{"type":"Feature","geometry":{"type":"MultiPolygon","coordinates":[[[[2.3049391,48.9163477],[2.3024959,48.9185717],[2.3019417,48.9182161],[2.3012589,48.917899],[2.298485,48.9162745],[2.3005002,48.9145211],[2.3010803,48.9148254],[2.3020818,48.9152624],[2.3049391,48.9163477]]]]},"properties":{"code_section":"92036000AQ","code_commune":"92036","section_courte":"AQ"}},{"type":"Feature","geometry":{"type":"MultiPolygon","coordinates":[[[[2.2963256,48.9153874],[2.296279,48.9153322],[2.295883,48.9153093],[2.2962549,48.9127196],[2.2988906,48.9137205],[2.300216,48.914342],[2.3005002,48.9145211],[2.298485,48.9162745],[2.2973696,48.9158257],[2.2975454,48.9156333],[2.2970957,48.9154537],[2.2969198,48.9156476],[2.2963593,48.9154243],[2.2963256,48.9153874]]]]},"properties":{"code_section":"92036000AR","code_commune":"92036","section_courte":"AR"}}]}