{"type":"FeatureCollection","features":[{"type":"Feature","geometry":{"type":"MultiPolygon","coordinates":[[[[2.2763678,48.7936572],[2.2761025,48.7938065],[2.2754282,48.7943134],[2.2746509,48.7951355],[2.2722319,48.7940656],[2.2730196,48.7908339],[2.2725571,48.7908426],[2.2722927,48.7907963],[2.2716664,48.7904782],[2.2717428,48.7904623],[2.2720322,48.789634],[2.2720641,48.7891534],[2.2728439,48.7885307],[2.2731233,48.7883699],[2.2735867,48.7881462],[2.2743685,48.7879552],[2.2746128,48.7878694],[2.2747831,48.7877767],[2.2748573,48.7876739],[2.2748517,48.7876119],[2.2749259,48.7875928],[2.2749531,48.7878391],[2.2752598,48.787917],[2.2757484,48.7878199],[2.2764396,48.7878184],[2.2769006,48.788177],[2.2782937,48.7888091],[2.2792971,48.7890703],[2.279588,48.7892013],[2.2799079,48.7893703],[2.2803187,48.7901293],[2.2806596,48.7900891],[2.2807209,48.7902715],[2.2807514,48.7904989],[2.2806838,48.7906406],[2.2801049,48.7912231],[2.2798775,48.7916406],[2.2799116,48.7918052],[2.2795933,48.7918465],[2.2792414,48.79161],[2.277878,48.7910982],[2.2759514,48.7918481],[2.2758439,48.7922759],[2.2754734,48.7926168],[2.2755476,48.7926289],[2.275463,48.7927091],[2.2757206,48.7927485],[2.2756588,48.7929727],[2.2766007,48.7931166],[2.2763678,48.7936572]]]]},"properties":{"code_section":"920320000A","code_commune":"92032","section_courte":"A"}},{"type":"Feature","geometry":{"type":"MultiPolygon","coordinates":[[[[2.2795033,48.7934085],[2.2789395,48.7936668],[2.2781553,48.7933962],[2.2763034,48.7936934],[2.2763678,48.7936572],[2.2766007,48.7931166],[2.2756588,48.7929727],[2.2757206,48.7927485],[2.275463,48.7927091],[2.2755476,48.7926289],[2.2754734,48.7926168],[2.2758439,48.7922759],[2.2759514,48.7918481],[2.277878,48.7910982],[2.2792414,48.79161],[2.2795933,48.7918465],[2.2798633,48.7927278],[2.2801216,48.7927917],[2.2801935,48.79324],[2.2800115,48.7932538],[2.2795033,48.7934085]]]]},"properties":{"code_section":"920320000B","code_commune":"92032","section_courte":"B"}},{"type":"Feature","geometry":{"type":"MultiPolygon","coordinates":[[[[2.2801194,48.7949752],[2.2798677,48.7955052],[2.2797267,48.7954759],[2.2784875,48.7955554],[2.2766121,48.7959356],[2.2746509,48.7951355],[2.2754282,48.7943134],[2.2761025,48.7938065],[2.2763034,48.7936934],[2.2781553,48.7933962],[2.2791209,48.7937295],[2.2799261,48.793871],[2.2802446,48.7949298],[2.2801194,48.7949752]]]]},"properties":{"code_section":"920320000C","code_commune":"92032","section_courte":"C"}},{"type":"Feature","geometry":{"type":"MultiPolygon","coordinates":[[[[2.2802475,48.7955859],[2.2798677,48.7955052],[2.2801194,48.7949752],[2.2802446,48.7949298],[2.2799261,48.793871],[2.2800717,48.7938985],[2.2825569,48.7939731],[2.284412,48.7938916],[2.2849375,48.7956426],[2.285226,48.7962704],[2.2849931,48.7962177],[2.2844869,48.7958939],[2.2826292,48.795564],[2.2819286,48.7953896],[2.2815819,48.7952507],[2.2810492,48.7951028],[2.2805331,48.7950067],[2.2802475,48.7955859]]]]},"properties":{"code_section":"920320000D","code_commune":"92032","section_courte":"D"}},{"type":"Feature","geometry":{"type":"MultiPolygon","coordinates":[[[[2.2801824,48.7931699],[2.2801216,48.7927917],[2.2798633,48.7927278],[2.2795933,48.7918465],[2.2827049,48.7914605],[2.2843361,48.79119],[2.2844253,48.7921261],[2.2843736,48.7929318],[2.2842774,48.7935401],[2.284412,48.7938916],[2.2825569,48.7939731],[2.2800717,48.7938985],[2.2791209,48.7937295],[2.2789395,48.7936668],[2.2795033,48.7934085],[2.2800115,48.7932538],[2.2801935,48.79324],[2.2801824,48.7931699]]]]},"properties":{"code_section":"920320000E","code_commune":"92032","section_courte":"E"}},{"type":"Feature","geometry":{"type":"MultiPolygon","coordinates":[[[[2.2799132,48.7893788],[2.2812692,48.7887922],[2.2814642,48.7888435],[2.283479,48.7886419],[2.2844098,48.7884276],[2.2846017,48.7893074],[2.284607,48.7898375],[2.2845709,48.7901773],[2.2843073,48.7908073],[2.2843361,48.79119],[2.2827049,48.7914605],[2.2799116,48.7918052],[2.2798775,48.7916406],[2.2801049,48.7912231],[2.2806838,48.7906406],[2.2807514,48.7904989],[2.2806596,48.7900891],[2.2803187,48.7901293],[2.2799132,48.7893788]]]]},"properties":{"code_section":"920320000F","code_commune":"92032","section_courte":"F"}},{"type":"Feature","geometry":{"type":"MultiPolygon","coordinates":[[[[2.280207,48.7892603],[2.2799079,48.7893703],[2.2792971,48.7890703],[2.2782937,48.7888091],[2.2778613,48.7886146],[2.2782351,48.7882514],[2.2781757,48.7882247],[2.2782908,48.7881203],[2.2782104,48.7880823],[2.2786186,48.7877482],[2.2789505,48.7876522],[2.2789708,48.7876111],[2.2798473,48.7875373],[2.2798956,48.7877395],[2.2807488,48.7876097],[2.280801,48.7877405],[2.2811392,48.7877112],[2.2811321,48.7876462],[2.2813412,48.7875812],[2.2821986,48.7874636],[2.2836034,48.7870531],[2.2842615,48.7881808],[2.2843238,48.7883462],[2.2844098,48.7884276],[2.283479,48.7886419],[2.2814642,48.7888435],[2.2812692,48.7887922],[2.2806493,48.7890396],[2.280207,48.7892603]]]]},"properties":{"code_section":"920320000G","code_commune":"92032","section_courte":"G"}},{"type":"Feature","geometry":{"type":"MultiPolygon","coordinates":[[[[2.2749259,48.7875928],[2.2748517,48.7876119],[2.274824,48.787569],[2.2744422,48.7876786],[2.2739784,48.7877017],[2.2739554,48.7872884],[2.2738572,48.7867645],[2.2738941,48.7865203],[2.2740086,48.7863886],[2.2746837,48.7859197],[2.2748245,48.785773],[2.275433,48.7858649],[2.275914,48.7860221],[2.2766502,48.7860523],[2.2773102,48.7859442],[2.2784002,48.785655],[2.2785611,48.7857842],[2.2787383,48.7859697],[2.2787999,48.7861392],[2.2786443,48.7868186],[2.2786906,48.7870363],[2.2788201,48.7872418],[2.2789708,48.7876111],[2.2789505,48.7876522],[2.2786186,48.7877482],[2.2782104,48.7880823],[2.2782908,48.7881203],[2.2781757,48.7882247],[2.2782351,48.7882514],[2.2778613,48.7886146],[2.2769006,48.788177],[2.2764396,48.7878184],[2.2757484,48.7878199],[2.2752598,48.787917],[2.2749531,48.7878391],[2.2749259,48.7875928]]]]},"properties":{"code_section":"920320000H","code_commune":"92032","section_courte":"H"}},{"type":"Feature","geometry":{"type":"MultiPolygon","coordinates":[[[[2.2789975,48.7876078],[2.2786906,48.7870363],[2.2786443,48.7868186],[2.2787952,48.7862131],[2.2787815,48.78606],[2.2787383,48.7859697],[2.2784002,48.785655],[2.2786979,48.7856533],[2.2797016,48.7855446],[2.2805695,48.7855347],[2.2809716,48.78559],[2.2813404,48.7856856],[2.2818162,48.7856358],[2.2820841,48.7856566],[2.2823422,48.7857396],[2.2825701,48.7859255],[2.283127,48.7864532],[2.2836034,48.7870531],[2.2821986,48.7874636],[2.2813412,48.7875812],[2.2811321,48.7876462],[2.2811392,48.7877112],[2.280801,48.7877405],[2.2807488,48.7876097],[2.2798956,48.7877395],[2.2798473,48.7875373],[2.2789975,48.7876078]]]]},"properties":{"code_section":"920320000I","code_commune":"92032","section_courte":"I"}},{"type":"Feature","geometry":{"type":"MultiPolygon","coordinates":[[[[2.2850438,48.7844714],[2.2850317,48.7848614],[2.2853607,48.7854938],[2.2847196,48.7857325],[2.2846525,48.7856813],[2.283943,48.7859582],[2.2840406,48.7860945],[2.2840727,48.7862162],[2.2827264,48.785857],[2.2820841,48.7856566],[2.2818162,48.7856358],[2.2813404,48.7856856],[2.2809716,48.78559],[2.2805695,48.7855347],[2.2801607,48.7855436],[2.2801569,48.7850286],[2.2790667,48.7851809],[2.2787598,48.7842656],[2.2788358,48.7842521],[2.2790434,48.7841178],[2.279489,48.7840493],[2.2795414,48.7840919],[2.2798819,48.7840863],[2.2808014,48.7838783],[2.2808172,48.7836087],[2.2809469,48.7834845],[2.2812587,48.783406],[2.2818015,48.7834152],[2.2818402,48.7833803],[2.2818462,48.7832219],[2.2821589,48.7831397],[2.2824303,48.7830045],[2.2825562,48.7830137],[2.2825234,48.7830402],[2.2824291,48.7830345],[2.2828794,48.7835416],[2.2829843,48.783536],[2.2833677,48.7837968],[2.2849906,48.784409],[2.2849854,48.7844554],[2.2850438,48.7844714]]]]},"properties":{"code_section":"920320000J","code_commune":"92032","section_courte":"J"}},{"type":"Feature","geometry":{"type":"MultiPolygon","coordinates":[[[[2.2853101,48.7855126],[2.2853607,48.7854938],[2.2856615,48.7860496],[2.286642,48.7871288],[2.2870269,48.7878984],[2.2873259,48.7881713],[2.2870151,48.7882423],[2.2867159,48.7882714],[2.2857047,48.7881811],[2.2844098,48.7884276],[2.2843238,48.7883462],[2.2842615,48.7881808],[2.2836034,48.7870531],[2.283127,48.7864532],[2.2823422,48.7857396],[2.2840727,48.7862162],[2.2840406,48.7860945],[2.283943,48.7859582],[2.2846525,48.7856813],[2.2847196,48.7857325],[2.2853101,48.7855126]]]]},"properties":{"code_section":"920320000K","code_commune":"92032","section_courte":"K"}},{"type":"Feature","geometry":{"type":"MultiPolygon","coordinates":[[[[2.2881757,48.7887919],[2.2889406,48.7905283],[2.286814,48.7907978],[2.2855597,48.7910785],[2.2843361,48.79119],[2.2843073,48.7908073],[2.2845709,48.7901773],[2.284607,48.7898375],[2.2846017,48.7893074],[2.2844098,48.7884276],[2.2857047,48.7881811],[2.2867159,48.7882714],[2.2870151,48.7882423],[2.2878498,48.7880518],[2.2881757,48.7887919]]]]},"properties":{"code_section":"920320000L","code_commune":"92032","section_courte":"L"}},{"type":"Feature","geometry":{"type":"MultiPolygon","coordinates":[[[[2.2848971,48.7935479],[2.2843369,48.7936954],[2.2842774,48.7935401],[2.2843736,48.7929318],[2.2844253,48.7921261],[2.2843361,48.79119],[2.2855597,48.7910785],[2.286814,48.7907978],[2.2889406,48.7905283],[2.289914,48.7920169],[2.2886293,48.7933605],[2.2873697,48.7923447],[2.2852542,48.7934059],[2.2848971,48.7935479]]]]},"properties":{"code_section":"920320000M","code_commune":"92032","section_courte":"M"}},{"type":"Feature","geometry":{"type":"MultiPolygon","coordinates":[[[[2.2854967,48.7965758],[2.2854033,48.7966131],[2.2853795,48.7965886],[2.284999,48.7958042],[2.2843369,48.7936954],[2.2848971,48.7935479],[2.2852542,48.7934059],[2.2873697,48.7923447],[2.2886293,48.7933605],[2.2883969,48.7936035],[2.2880284,48.7943899],[2.2879124,48.7944863],[2.2877052,48.7950342],[2.2865757,48.7961439],[2.2854967,48.7965758]]]]},"properties":{"code_section":"920320000N","code_commune":"92032","section_courte":"N"}},{"type":"Feature","geometry":{"type":"MultiPolygon","coordinates":[[[[2.2883969,48.7936035],[2.289914,48.7920169],[2.2922831,48.7960048],[2.2901388,48.7955327],[2.2898458,48.7954062],[2.2892518,48.7950343],[2.2879124,48.7944863],[2.2880284,48.7943899],[2.2883969,48.7936035]]]]},"properties":{"code_section":"920320000O","code_commune":"92032","section_courte":"O"}},{"type":"Feature","geometry":{"type":"MultiPolygon","coordinates":[[[[2.2946697,48.7956845],[2.2946884,48.7957287],[2.2933665,48.7959838],[2.2922831,48.7960048],[2.2906694,48.7932886],[2.291694,48.7929104],[2.2928912,48.7925475],[2.2932336,48.7935716],[2.2931976,48.7935991],[2.2932464,48.7937646],[2.293517,48.7942112],[2.2940005,48.7947766],[2.2939319,48.7948023],[2.2941892,48.7950856],[2.2942616,48.7950647],[2.2946697,48.7956845]]]]},"properties":{"code_section":"920320000P","code_commune":"92032","section_courte":"P"}},{"type":"Feature","geometry":{"type":"MultiPolygon","coordinates":[[[[2.2939815,48.7919809],[2.2962631,48.7931434],[2.2970556,48.793481],[2.2974425,48.7936792],[2.2983289,48.7944122],[2.2961612,48.7957538],[2.2957758,48.795642],[2.2953867,48.7956221],[2.2952374,48.7956208],[2.2946884,48.7957287],[2.2942616,48.7950647],[2.2941892,48.7950856],[2.2939319,48.7948023],[2.2940005,48.7947766],[2.293517,48.7942112],[2.2932464,48.7937646],[2.2931976,48.7935991],[2.2932336,48.7935716],[2.2928912,48.7925475],[2.29316,48.7924659],[2.2938983,48.7919374],[2.2939815,48.7919809]]]]},"properties":{"code_section":"920320000Q","code_commune":"92032","section_courte":"Q"}},{"type":"Feature","geometry":{"type":"MultiPolygon","coordinates":[[[[2.2910575,48.7931494],[2.2906694,48.7932886],[2.289914,48.7920169],[2.2889406,48.7905283],[2.290687,48.7903278],[2.2911241,48.7900409],[2.2913428,48.7898052],[2.2925284,48.7896496],[2.2921156,48.7899591],[2.2920395,48.790227],[2.2920329,48.7906478],[2.2921918,48.7910175],[2.2927576,48.7913719],[2.2938983,48.7919374],[2.29316,48.7924659],[2.291694,48.7929104],[2.2910575,48.7931494]]]]},"properties":{"code_section":"920320000R","code_commune":"92032","section_courte":"R"}},{"type":"Feature","geometry":{"type":"MultiPolygon","coordinates":[[[[2.2915074,48.7875464],[2.2916831,48.7874427],[2.2918714,48.7872611],[2.2924757,48.7872852],[2.2924504,48.7873524],[2.2934528,48.7872452],[2.2934105,48.7889881],[2.2925284,48.7896496],[2.2913428,48.7898052],[2.2911241,48.7900409],[2.290687,48.7903278],[2.2889406,48.7905283],[2.2881757,48.7887919],[2.2893247,48.7885543],[2.2895818,48.7884618],[2.2900834,48.7881966],[2.2915074,48.7875464]]]]},"properties":{"code_section":"920320000S","code_commune":"92032","section_courte":"S"}},{"type":"Feature","geometry":{"type":"MultiPolygon","coordinates":[[[[2.2916831,48.7874427],[2.2895818,48.7884618],[2.2893247,48.7885543],[2.2881757,48.7887919],[2.2878498,48.7880518],[2.2873259,48.7881713],[2.2870269,48.7878984],[2.286642,48.7871288],[2.2856246,48.7859884],[2.2863871,48.7856899],[2.2866293,48.7859031],[2.2877762,48.7855528],[2.2880034,48.7850924],[2.2880992,48.7850872],[2.2882216,48.7851581],[2.2885531,48.7854651],[2.2893735,48.786395],[2.2899997,48.7862116],[2.2900397,48.78647],[2.2903675,48.787067],[2.2906424,48.787223],[2.2910543,48.7873698],[2.2913754,48.7874439],[2.2916831,48.7874427]]]]},"properties":{"code_section":"920320000T","code_commune":"92032","section_courte":"T"}},{"type":"Feature","geometry":{"type":"MultiPolygon","coordinates":[[[[2.2870025,48.7831158],[2.2869838,48.7832648],[2.2866202,48.783226],[2.287585,48.7842292],[2.2880372,48.784912],[2.2880321,48.7850333],[2.2877762,48.7855528],[2.2866293,48.7859031],[2.2863871,48.7856899],[2.2856246,48.7859884],[2.2850317,48.7848614],[2.2850438,48.7844714],[2.2849854,48.7844554],[2.2849906,48.784409],[2.2833677,48.7837968],[2.2829843,48.783536],[2.2828794,48.7835416],[2.2824291,48.7830345],[2.2825234,48.7830402],[2.2831291,48.7828449],[2.2842944,48.7826986],[2.2844533,48.7826343],[2.2850934,48.7825489],[2.2852833,48.7824776],[2.2861687,48.7824548],[2.2864993,48.782495],[2.2870025,48.7831158]]]]},"properties":{"code_section":"920320000U","code_commune":"92032","section_courte":"U"}},{"type":"Feature","geometry":{"type":"MultiPolygon","coordinates":[[[[2.2880648,48.7850897],[2.2880034,48.7850924],[2.2880372,48.784912],[2.287585,48.7842292],[2.2866202,48.783226],[2.2869838,48.7832648],[2.2870025,48.7831158],[2.2864997,48.7824923],[2.2866164,48.7824718],[2.2877479,48.7825435],[2.2885828,48.7828197],[2.2888752,48.7828694],[2.2890591,48.7829609],[2.2892241,48.7829682],[2.289777,48.7831431],[2.2899275,48.7831543],[2.2900133,48.7832186],[2.2901275,48.7831478],[2.2905957,48.7833427],[2.2915604,48.7836001],[2.2913747,48.7840437],[2.2914603,48.7841976],[2.2918162,48.7844783],[2.2906911,48.7855839],[2.2901748,48.7867152],[2.2900397,48.78647],[2.2899997,48.7862116],[2.2893735,48.786395],[2.2885531,48.7854651],[2.2882216,48.7851581],[2.2880648,48.7850897]]]]},"properties":{"code_section":"920320000V","code_commune":"92032","section_courte":"V"}},{"type":"Feature","geometry":{"type":"MultiPolygon","coordinates":[[[[2.2918714,48.7872611],[2.2916831,48.7874427],[2.2913754,48.7874439],[2.2910543,48.7873698],[2.2906424,48.787223],[2.2903675,48.787067],[2.2901748,48.7867152],[2.2906911,48.7855839],[2.2918162,48.7844783],[2.2914603,48.7841976],[2.2913747,48.7840437],[2.2914618,48.7838333],[2.2934535,48.7842144],[2.2934186,48.7870322],[2.2934528,48.7872452],[2.2924504,48.7873524],[2.2924757,48.7872852],[2.2918714,48.7872611]]]]},"properties":{"code_section":"920320000X","code_commune":"92032","section_courte":"X"}},{"type":"Feature","geometry":{"type":"MultiPolygon","coordinates":[[[[2.2983539,48.7870675],[2.2983248,48.7871375],[2.2982291,48.787198],[2.2976212,48.7868067],[2.2972843,48.7866853],[2.2966795,48.7865304],[2.2964272,48.7870333],[2.2951075,48.786374],[2.2948716,48.7866744],[2.2946756,48.7868452],[2.2941441,48.7871203],[2.293449,48.7873243],[2.2934186,48.7870322],[2.2934535,48.7842144],[2.298891,48.78486],[2.2988874,48.7854046],[2.2987371,48.7860628],[2.2983539,48.7870675]]]]},"properties":{"code_section":"920320000Y","code_commune":"92032","section_courte":"Y"}},{"type":"Feature","geometry":{"type":"MultiPolygon","coordinates":[[[[2.2984793,48.7867303],[2.2987371,48.7860628],[2.2988874,48.7854046],[2.298891,48.78486],[2.3034075,48.7853966],[2.300756,48.7866059],[2.3004205,48.7867032],[2.2990698,48.7869143],[2.2987245,48.7869879],[2.2983248,48.7871375],[2.2984793,48.7867303]]]]},"properties":{"code_section":"920320000Z","code_commune":"92032","section_courte":"Z"}},{"type":"Feature","geometry":{"type":"MultiPolygon","coordinates":[[[[2.293571,48.7885706],[2.2934146,48.7885701],[2.293449,48.7873243],[2.2941441,48.7871203],[2.2946756,48.7868452],[2.2948716,48.7866744],[2.2951075,48.786374],[2.2964272,48.7870333],[2.2966795,48.7865304],[2.2972843,48.7866853],[2.2976212,48.7868067],[2.2982291,48.787198],[2.2980484,48.7873339],[2.2979345,48.7875082],[2.2978855,48.7876301],[2.2978997,48.7878265],[2.2979644,48.7879764],[2.2980868,48.7881165],[2.2985754,48.7884707],[2.2987009,48.7885978],[2.2987776,48.7888407],[2.2987687,48.7889719],[2.2986493,48.7892215],[2.2983923,48.7894382],[2.2980541,48.7895746],[2.2976868,48.7896259],[2.2974883,48.7896199],[2.2972742,48.7895871],[2.2969425,48.7894707],[2.296011,48.7889465],[2.2955205,48.7887575],[2.2952092,48.7886967],[2.2948068,48.7886722],[2.294484,48.7886947],[2.2938693,48.7888009],[2.293571,48.7885706]]]]},"properties":{"code_section":"92032000AB","code_commune":"92032","section_courte":"AB"}},{"type":"Feature","geometry":{"type":"MultiPolygon","coordinates":[[[[2.2940514,48.7919299],[2.2939815,48.7919809],[2.2927576,48.7913719],[2.2921918,48.7910175],[2.2920329,48.7906478],[2.2920146,48.7904081],[2.2921156,48.7899591],[2.2934105,48.7889881],[2.2934146,48.7885701],[2.293571,48.7885706],[2.2938693,48.7888009],[2.294484,48.7886947],[2.2948068,48.7886722],[2.2952092,48.7886967],[2.2955205,48.7887575],[2.296011,48.7889465],[2.2969425,48.7894707],[2.2967082,48.7898912],[2.2963752,48.7903041],[2.2962309,48.7904116],[2.2957952,48.7903494],[2.2957192,48.7904472],[2.2954477,48.7904403],[2.2953897,48.7906935],[2.2952588,48.7908942],[2.2953369,48.7909252],[2.2947169,48.7916756],[2.2945824,48.7916293],[2.2945142,48.7917162],[2.2944058,48.7916699],[2.2940514,48.7919299]]]]},"properties":{"code_section":"92032000AC","code_commune":"92032","section_courte":"AC"}},{"type":"Feature","geometry":{"type":"MultiPolygon","coordinates":[[[[2.2952786,48.7909985],[2.2953369,48.7909252],[2.2967055,48.791469],[2.298202,48.7921184],[2.2986391,48.7923425],[2.2987492,48.7924367],[2.2979506,48.7932302],[2.2974425,48.7936792],[2.2970556,48.793481],[2.2962631,48.7931434],[2.2939815,48.7919809],[2.2944058,48.7916699],[2.2945142,48.7917162],[2.2945824,48.7916293],[2.2947169,48.7916756],[2.2952786,48.7909985]]]]},"properties":{"code_section":"92032000AD","code_commune":"92032","section_courte":"AD"}},{"type":"Feature","geometry":{"type":"MultiPolygon","coordinates":[[[[2.3002218,48.7888752],[2.3009428,48.7889227],[2.2987492,48.7924367],[2.2986391,48.7923425],[2.298202,48.7921184],[2.2967055,48.791469],[2.2952588,48.7908942],[2.2953897,48.7906935],[2.2954477,48.7904403],[2.2957192,48.7904472],[2.2957952,48.7903494],[2.2961438,48.790411],[2.2962741,48.7903897],[2.2964665,48.7902102],[2.2967082,48.7898912],[2.2969425,48.7894707],[2.2972942,48.7895914],[2.2976868,48.7896259],[2.2980735,48.7895694],[2.2984079,48.7894289],[2.2986394,48.7892337],[2.2987257,48.7891],[2.2987776,48.7888407],[2.2987009,48.7885978],[2.3002218,48.7888752]]]]},"properties":{"code_section":"92032000AE","code_commune":"92032","section_courte":"AE"}},{"type":"Feature","geometry":{"type":"MultiPolygon","coordinates":[[[[2.2982291,48.787198],[2.2987245,48.7869879],[2.3004205,48.7867032],[2.300756,48.7866059],[2.3031186,48.7855318],[2.3020385,48.7871455],[2.3009428,48.7889227],[2.3002218,48.7888752],[2.2987009,48.7885978],[2.2985754,48.7884707],[2.2980868,48.7881165],[2.2979644,48.7879764],[2.2978997,48.7878265],[2.2978855,48.7876301],[2.2979345,48.7875082],[2.2980484,48.7873339],[2.2982291,48.787198]]]]},"properties":{"code_section":"92032000AF","code_commune":"92032","section_courte":"AF"}}]}