{"type":"FeatureCollection","features":[{"type":"Feature","geometry":{"type":"MultiPolygon","coordinates":[[[[2.2776817,48.899868],[2.2772083,48.9003019],[2.2756161,48.8998836],[2.2743121,48.8994939],[2.2729064,48.8990397],[2.2710313,48.898364],[2.2728072,48.8966822],[2.2732906,48.8969792],[2.2738951,48.89727],[2.2774224,48.8986815],[2.2785544,48.8990898],[2.2777993,48.8997231],[2.2776817,48.899868]]]]},"properties":{"code_section":"920440000A","code_commune":"92044","section_courte":"A"}},{"type":"Feature","geometry":{"type":"MultiPolygon","coordinates":[[[[2.2885424,48.9029354],[2.2885844,48.902954],[2.2873943,48.9036414],[2.2840849,48.9021385],[2.2827374,48.9016215],[2.280697,48.9009784],[2.2803676,48.9008988],[2.2799129,48.9008402],[2.2790316,48.9008015],[2.2786557,48.9007471],[2.2782941,48.9006601],[2.2772083,48.9003019],[2.2777977,48.8997616],[2.2777993,48.8997231],[2.2786127,48.8990343],[2.2787076,48.8990692],[2.2803359,48.8972925],[2.2844867,48.8988902],[2.2831235,48.9005739],[2.2841252,48.9009135],[2.2865374,48.9020532],[2.2885424,48.9029354]]]]},"properties":{"code_section":"920440000B","code_commune":"92044","section_courte":"B"}},{"type":"Feature","geometry":{"type":"MultiPolygon","coordinates":[[[[2.2767691,48.8943309],[2.2781886,48.8949222],[2.2754908,48.8979099],[2.2736733,48.8971739],[2.2728072,48.8966822],[2.2753566,48.8942644],[2.2764163,48.8947004],[2.2767691,48.8943309]]]]},"properties":{"code_section":"920440000C","code_commune":"92044","section_courte":"C"}},{"type":"Feature","geometry":{"type":"MultiPolygon","coordinates":[[[[2.27725,48.8986136],[2.2754908,48.8979099],[2.2781886,48.8949222],[2.2809676,48.8965669],[2.2787076,48.8990692],[2.2786127,48.8990343],[2.2785544,48.8990898],[2.27725,48.8986136]]]]},"properties":{"code_section":"920440000D","code_commune":"92044","section_courte":"D"}},{"type":"Feature","geometry":{"type":"MultiPolygon","coordinates":[[[[2.2865632,48.9019817],[2.2865374,48.9020532],[2.2841252,48.9009135],[2.2831235,48.9005739],[2.2844867,48.8988902],[2.2845662,48.8989193],[2.2851838,48.8981207],[2.2861633,48.8984658],[2.2889268,48.8993103],[2.2865632,48.9019817]]]]},"properties":{"code_section":"920440000E","code_commune":"92044","section_courte":"E"}},{"type":"Feature","geometry":{"type":"MultiPolygon","coordinates":[[[[2.2929672,48.9003664],[2.2930288,48.900382],[2.2885844,48.902954],[2.2865374,48.9020532],[2.2865632,48.9019817],[2.2889268,48.8993103],[2.2929672,48.9003664]]]]},"properties":{"code_section":"920440000F","code_commune":"92044","section_courte":"F"}},{"type":"Feature","geometry":{"type":"MultiPolygon","coordinates":[[[[2.2956578,48.8986591],[2.2958422,48.8987386],[2.2930288,48.900382],[2.2904649,48.8997125],[2.2926879,48.8967705],[2.2950415,48.8975248],[2.294358,48.8982883],[2.2956578,48.8986591]]]]},"properties":{"code_section":"920440000G","code_commune":"92044","section_courte":"G"}},{"type":"Feature","geometry":{"type":"MultiPolygon","coordinates":[[[[2.2889268,48.8993103],[2.2877135,48.8989396],[2.2902459,48.8959755],[2.2926879,48.8967705],[2.2904649,48.8997125],[2.2889268,48.8993103]]]]},"properties":{"code_section":"920440000H","code_commune":"92044","section_courte":"H"}},{"type":"Feature","geometry":{"type":"MultiPolygon","coordinates":[[[[2.2902459,48.8959755],[2.2877135,48.8989396],[2.2861633,48.8984658],[2.2851838,48.8981207],[2.287609,48.8951253],[2.2902459,48.8959755]]]]},"properties":{"code_section":"920440000I","code_commune":"92044","section_courte":"I"}},{"type":"Feature","geometry":{"type":"MultiPolygon","coordinates":[[[[2.287609,48.8951253],[2.2845662,48.8989193],[2.2813144,48.8976682],[2.2843225,48.8943733],[2.2850311,48.8946545],[2.2852488,48.8944188],[2.287609,48.8951253]]]]},"properties":{"code_section":"920440000J","code_commune":"92044","section_courte":"J"}},{"type":"Feature","geometry":{"type":"MultiPolygon","coordinates":[[[[2.2843225,48.8943733],[2.2813144,48.8976682],[2.2803359,48.8972925],[2.2809676,48.8965669],[2.2789437,48.8953688],[2.2796791,48.8944255],[2.281071,48.8930284],[2.2845334,48.8941412],[2.2843225,48.8943733]]]]},"properties":{"code_section":"920440000K","code_commune":"92044","section_courte":"K"}},{"type":"Feature","geometry":{"type":"MultiPolygon","coordinates":[[[[2.2777216,48.8920901],[2.2776766,48.8920705],[2.2778842,48.8918583],[2.2794809,48.8925231],[2.281071,48.8930284],[2.2796791,48.8944255],[2.2789437,48.8953688],[2.2781886,48.8949222],[2.2767691,48.8943309],[2.2764163,48.8947004],[2.2753566,48.8942644],[2.2768239,48.8928776],[2.2771236,48.8926976],[2.2777216,48.8920901]]]]},"properties":{"code_section":"920440000L","code_commune":"92044","section_courte":"L"}},{"type":"Feature","geometry":{"type":"MultiPolygon","coordinates":[[[[2.2794809,48.8925231],[2.2778842,48.8918583],[2.2795681,48.8902528],[2.2835911,48.8916676],[2.2849208,48.8922311],[2.2834826,48.8938036],[2.2794809,48.8925231]]]]},"properties":{"code_section":"920440000M","code_commune":"92044","section_courte":"M"}},{"type":"Feature","geometry":{"type":"MultiPolygon","coordinates":[[[[2.2885589,48.8954297],[2.2852488,48.8944188],[2.2850311,48.8946545],[2.2843225,48.8943733],[2.2845334,48.8941412],[2.2834826,48.8938036],[2.2849208,48.8922311],[2.2895858,48.8942128],[2.2885589,48.8954297]]]]},"properties":{"code_section":"920440000N","code_commune":"92044","section_courte":"N"}},{"type":"Feature","geometry":{"type":"MultiPolygon","coordinates":[[[[2.2895858,48.8942128],[2.2903753,48.8932986],[2.2941141,48.8949084],[2.2926879,48.8967705],[2.2885589,48.8954297],[2.2895858,48.8942128]]]]},"properties":{"code_section":"920440000O","code_commune":"92044","section_courte":"O"}},{"type":"Feature","geometry":{"type":"MultiPolygon","coordinates":[[[[2.2985418,48.8967791],[2.2990165,48.8970077],[2.2958422,48.8987386],[2.2956578,48.8986591],[2.294358,48.8982883],[2.2950415,48.8975248],[2.2926879,48.8967705],[2.2941141,48.8949084],[2.2985418,48.8967791]]]]},"properties":{"code_section":"920440000P","code_commune":"92044","section_courte":"P"}},{"type":"Feature","geometry":{"type":"MultiPolygon","coordinates":[[[[2.2968617,48.893287],[2.2971005,48.8932871],[2.2974933,48.8930066],[2.2978221,48.8927191],[2.2978222,48.8926246],[2.3002659,48.8939425],[2.2976558,48.8964169],[2.2948803,48.8952382],[2.295705,48.8942254],[2.2963896,48.8935845],[2.29685,48.8933794],[2.2968617,48.893287]]]]},"properties":{"code_section":"920440000Q","code_commune":"92044","section_courte":"Q"}},{"type":"Feature","geometry":{"type":"MultiPolygon","coordinates":[[[[2.29576,48.8942009],[2.295705,48.8942254],[2.2948803,48.8952382],[2.2903753,48.8932986],[2.2922743,48.891085],[2.2934523,48.8922185],[2.2941451,48.8915463],[2.2969812,48.8932871],[2.2968617,48.893287],[2.29685,48.8933794],[2.2963896,48.8935845],[2.29576,48.8942009]]]]},"properties":{"code_section":"920440000R","code_commune":"92044","section_courte":"R"}},{"type":"Feature","geometry":{"type":"MultiPolygon","coordinates":[[[[2.2903753,48.8932986],[2.2895858,48.8942128],[2.2849208,48.8922311],[2.2863975,48.8906191],[2.2911043,48.8924541],[2.2903753,48.8932986]]]]},"properties":{"code_section":"920440000S","code_commune":"92044","section_courte":"S"}},{"type":"Feature","geometry":{"type":"MultiPolygon","coordinates":[[[[2.2849745,48.8899912],[2.2863975,48.8906191],[2.2849208,48.8922311],[2.2835911,48.8916676],[2.2795681,48.8902528],[2.2815756,48.8883384],[2.2849745,48.8899912]]]]},"properties":{"code_section":"920440000T","code_commune":"92044","section_courte":"T"}},{"type":"Feature","geometry":{"type":"MultiPolygon","coordinates":[[[[2.2911043,48.8924541],[2.2863975,48.8906191],[2.2879503,48.8889123],[2.2916037,48.8907038],[2.2917314,48.8905633],[2.2922743,48.891085],[2.2911043,48.8924541]]]]},"properties":{"code_section":"920440000U","code_commune":"92044","section_courte":"U"}},{"type":"Feature","geometry":{"type":"MultiPolygon","coordinates":[[[[2.2832197,48.8868642],[2.283363,48.8866923],[2.2879503,48.8889123],[2.2863975,48.8906191],[2.2849745,48.8899912],[2.2815756,48.8883384],[2.2832197,48.8868642]]]]},"properties":{"code_section":"920440000V","code_commune":"92044","section_courte":"V"}},{"type":"Feature","geometry":{"type":"MultiPolygon","coordinates":[[[[2.2835879,48.8864206],[2.2844606,48.8856409],[2.2856605,48.8865693],[2.2887129,48.8880687],[2.2879503,48.8889123],[2.283363,48.8866923],[2.2835879,48.8864206]]]]},"properties":{"code_section":"920440000X","code_commune":"92044","section_courte":"X"}},{"type":"Feature","geometry":{"type":"MultiPolygon","coordinates":[[[[2.2916037,48.8907038],[2.2879503,48.8889123],[2.2887129,48.8880687],[2.291534,48.8894508],[2.2935108,48.889686],[2.2921184,48.8909349],[2.2917314,48.8905633],[2.2916037,48.8907038]]]]},"properties":{"code_section":"920440000Y","code_commune":"92044","section_courte":"Y"}},{"type":"Feature","geometry":{"type":"MultiPolygon","coordinates":[[[[2.2922133,48.8908501],[2.2935108,48.889686],[2.2950546,48.8898664],[2.2986948,48.8917667],[2.2978261,48.892552],[2.2978221,48.8927191],[2.2974933,48.8930066],[2.2971005,48.8932871],[2.2969812,48.8932871],[2.2941451,48.8915463],[2.2934523,48.8922185],[2.2921184,48.8909349],[2.2922133,48.8908501]]]]},"properties":{"code_section":"920440000Z","code_commune":"92044","section_courte":"Z"}},{"type":"Feature","geometry":{"type":"MultiPolygon","coordinates":[[[[2.3013555,48.894258],[2.3011264,48.8944599],[2.3002309,48.8939704],[2.3002659,48.8939425],[2.2978222,48.8926246],[2.2978261,48.892552],[2.2986948,48.8917667],[2.3022625,48.8934487],[2.3013555,48.894258]]]]},"properties":{"code_section":"92044000AB","code_commune":"92044","section_courte":"AB"}},{"type":"Feature","geometry":{"type":"MultiPolygon","coordinates":[[[[2.3016078,48.8945163],[2.3023567,48.8950099],[2.2990165,48.8970077],[2.2985418,48.8967791],[2.2976558,48.8964169],[2.3002309,48.8939704],[2.3011264,48.8944599],[2.3012957,48.8943101],[2.3016078,48.8945163]]]]},"properties":{"code_section":"92044000AC","code_commune":"92044","section_courte":"AC"}},{"type":"Feature","geometry":{"type":"MultiPolygon","coordinates":[[[[2.3022625,48.8934487],[2.303785,48.8941721],[2.3023567,48.8950099],[2.3012957,48.8943101],[2.3022625,48.8934487]]]]},"properties":{"code_section":"92044000AD","code_commune":"92044","section_courte":"AD"}}]}