{"type":"FeatureCollection","features":[{"type":"Feature","geometry":{"type":"MultiPolygon","coordinates":[[[[2.2348141,48.7952918],[2.2347744,48.7954493],[2.232447,48.7974749],[2.232427,48.7975977],[2.2323592,48.7976147],[2.2343302,48.8009835],[2.2339599,48.8025391],[2.2340597,48.8035808],[2.2339859,48.8035967],[2.2338098,48.8042701],[2.2334925,48.805187],[2.233688,48.8052103],[2.2336671,48.805364],[2.2332706,48.8068172],[2.2333034,48.8068218],[2.2328737,48.808503],[2.2327241,48.8093128],[2.2324055,48.8095871],[2.2323576,48.8095579],[2.2323635,48.8094724],[2.2319565,48.8094225],[2.2318872,48.8093639],[2.231891,48.8093145],[2.2318138,48.8093058],[2.2316976,48.8093951],[2.231222,48.80935],[2.231248,48.8092448],[2.2310705,48.8092246],[2.2311156,48.8090408],[2.2305806,48.8089832],[2.2302736,48.8101838],[2.2302108,48.8101775],[2.2301901,48.810261],[2.2278108,48.8100262],[2.2280745,48.8109033],[2.2270981,48.8119655],[2.2267004,48.8117757],[2.2255652,48.8126026],[2.2235475,48.8137109],[2.2227059,48.8143336],[2.2222262,48.8145705],[2.2219022,48.8147825],[2.2218649,48.814767],[2.221929,48.8152428],[2.2212291,48.8152701],[2.2206657,48.8151695],[2.2202497,48.8150621],[2.2199493,48.8148874],[2.2194061,48.8144914],[2.2159336,48.8128612],[2.2131977,48.8121362],[2.2114675,48.8117202],[2.2104918,48.811396],[2.2085531,48.8106419],[2.2074123,48.8101091],[2.2058811,48.8093127],[2.205526,48.8092287],[2.205987,48.8088984],[2.204522,48.8026541],[2.2043375,48.8026508],[2.2041559,48.802589],[2.2040378,48.8024824],[2.2040057,48.8023761],[2.2040615,48.8022406],[2.2042272,48.8021299],[2.2044156,48.8020945],[2.2046299,48.8021198],[2.2060527,48.7999375],[2.2048868,48.7995517],[2.2040684,48.7990447],[2.2026362,48.7984359],[2.202721,48.7983107],[2.2032602,48.7978137],[2.2034755,48.7976768],[2.204367,48.7972823],[2.2045268,48.7971442],[2.2047229,48.7967928],[2.2047247,48.796601],[2.2046647,48.7963951],[2.204362,48.7959233],[2.2043768,48.79581],[2.2044238,48.7957619],[2.2049293,48.7955556],[2.2053587,48.7952078],[2.2059409,48.7949783],[2.2061533,48.794945],[2.206992,48.7949149],[2.2098871,48.7938549],[2.2115355,48.7911229],[2.2116656,48.7912774],[2.2222535,48.7874439],[2.2224022,48.7874204],[2.2191336,48.7938008],[2.2194775,48.7937583],[2.2202577,48.7935783],[2.2249805,48.7909326],[2.2251758,48.7908484],[2.2280217,48.7905255],[2.229291,48.79026],[2.23028,48.7902297],[2.233369,48.7892179],[2.2354946,48.7889509],[2.2364104,48.7887865],[2.2365402,48.7888949],[2.2363882,48.7889815],[2.2348141,48.7952918]]]]},"properties":{"code_section":"920480000E","code_commune":"92048","section_courte":"E"}},{"type":"Feature","geometry":{"type":"MultiPolygon","coordinates":[[[[2.2206349,48.8152066],[2.2206657,48.8151695],[2.2213124,48.8152773],[2.2225659,48.8152072],[2.2232584,48.8152476],[2.2237655,48.8153219],[2.224975,48.8157831],[2.2261397,48.8162945],[2.2274667,48.816757],[2.228867,48.8173393],[2.2297765,48.81756],[2.2295558,48.8185882],[2.2291234,48.8201401],[2.2254018,48.8226921],[2.2225568,48.8208729],[2.2219593,48.8205233],[2.2219688,48.8204719],[2.2218164,48.8203697],[2.2219025,48.8203114],[2.2217722,48.8202253],[2.221328,48.8202625],[2.2212922,48.8199356],[2.2210303,48.8199467],[2.220995,48.8195914],[2.2205494,48.8196095],[2.220517,48.8192539],[2.2202166,48.8192662],[2.2202072,48.8192203],[2.2195797,48.8188991],[2.2194155,48.818941],[2.219072,48.8186608],[2.2189368,48.8187334],[2.2185999,48.8184523],[2.2185244,48.8184696],[2.2181948,48.8182036],[2.218028,48.818287],[2.2176554,48.8179793],[2.2175245,48.8180432],[2.2171502,48.8177374],[2.2178722,48.8174357],[2.2199514,48.816372],[2.2201645,48.8157175],[2.2206349,48.8152066]]]]},"properties":{"code_section":"92048000AB","code_commune":"92048","section_courte":"AB"}},{"type":"Feature","geometry":{"type":"MultiPolygon","coordinates":[[[[2.2278505,48.8101426],[2.2278108,48.8100262],[2.2301901,48.810261],[2.2302108,48.8101775],[2.2302736,48.8101838],[2.2305806,48.8089832],[2.2311156,48.8090408],[2.2310705,48.8092246],[2.231248,48.8092448],[2.2309848,48.8102828],[2.2311184,48.8103011],[2.2301367,48.8120514],[2.2299506,48.8127656],[2.2277643,48.815662],[2.2272033,48.8165611],[2.2271125,48.8166237],[2.2261397,48.8162945],[2.224975,48.8157831],[2.2237655,48.8153219],[2.2232584,48.8152476],[2.2225659,48.8152072],[2.221929,48.8152428],[2.2218649,48.814767],[2.2219022,48.8147825],[2.2222262,48.8145705],[2.2227059,48.8143336],[2.2235475,48.8137109],[2.2255652,48.8126026],[2.2267004,48.8117757],[2.2270981,48.8119655],[2.2280745,48.8109033],[2.2278505,48.8101426]]]]},"properties":{"code_section":"92048000AC","code_commune":"92048","section_courte":"AC"}},{"type":"Feature","geometry":{"type":"MultiPolygon","coordinates":[[[[2.2344907,48.8147426],[2.2296185,48.818296],[2.2297765,48.81756],[2.228867,48.8173393],[2.2271125,48.8166237],[2.2272033,48.8165611],[2.2277643,48.815662],[2.2299506,48.8127656],[2.2301367,48.8120514],[2.2311184,48.8103011],[2.2309848,48.8102828],[2.231222,48.80935],[2.2316976,48.8093951],[2.2318138,48.8093058],[2.231891,48.8093145],[2.2318872,48.8093639],[2.2319565,48.8094225],[2.2323635,48.8094724],[2.2323576,48.8095579],[2.2324055,48.8095871],[2.2322603,48.8096789],[2.2321917,48.8099297],[2.2370825,48.8118099],[2.2344907,48.8147426]]]]},"properties":{"code_section":"92048000AD","code_commune":"92048","section_courte":"AD"}},{"type":"Feature","geometry":{"type":"MultiPolygon","coordinates":[[[[2.234694,48.8187085],[2.2346068,48.8187606],[2.233804,48.8184164],[2.2333419,48.8182867],[2.2323794,48.8180839],[2.2324576,48.8180552],[2.2320941,48.8179797],[2.2320068,48.8180123],[2.2304407,48.8176958],[2.2344907,48.8147426],[2.2370825,48.8118099],[2.2407259,48.8132356],[2.2433048,48.8140889],[2.2437042,48.8144091],[2.2435198,48.8144184],[2.2426784,48.8146149],[2.2414595,48.8149465],[2.2412659,48.8149539],[2.2410876,48.8150101],[2.2409234,48.8151223],[2.2408618,48.8150338],[2.2404756,48.8151513],[2.2383832,48.8159254],[2.2381413,48.8160565],[2.2385756,48.8171708],[2.237788,48.8172632],[2.2367999,48.8174222],[2.2367164,48.8174699],[2.2364779,48.8177571],[2.2362661,48.8178845],[2.2360381,48.8179464],[2.2355335,48.8179653],[2.2354755,48.8180233],[2.2354129,48.8183262],[2.2353505,48.8183188],[2.2352504,48.8184747],[2.234694,48.8187085]]]]},"properties":{"code_section":"92048000AE","code_commune":"92048","section_courte":"AE"}},{"type":"Feature","geometry":{"type":"MultiPolygon","coordinates":[[[[2.2378604,48.8204247],[2.2381158,48.8209145],[2.236724,48.8213615],[2.2363559,48.8215331],[2.2350635,48.8218472],[2.2343595,48.8220551],[2.233405,48.8224347],[2.2327047,48.822804],[2.2320479,48.8222824],[2.2318281,48.8223851],[2.2316038,48.8221316],[2.2313531,48.821978],[2.2312614,48.821957],[2.2310519,48.8217747],[2.2307735,48.8215975],[2.2306393,48.821758],[2.2299682,48.8215428],[2.2298177,48.8220402],[2.229125,48.822402],[2.2285865,48.8227672],[2.2285362,48.8228972],[2.2284585,48.8228981],[2.2273397,48.82367],[2.2269138,48.8234102],[2.2260738,48.8239843],[2.2248268,48.8233618],[2.2253325,48.823022],[2.2251222,48.8228834],[2.2291234,48.8201401],[2.2296185,48.818296],[2.2304407,48.8176958],[2.2320068,48.8180123],[2.2320941,48.8179797],[2.2324576,48.8180552],[2.2323794,48.8180839],[2.2333419,48.8182867],[2.233804,48.8184164],[2.2346068,48.8187606],[2.2348479,48.8188286],[2.2357449,48.8188956],[2.2366456,48.8189075],[2.2368534,48.8194705],[2.237199,48.8198968],[2.2375147,48.8204841],[2.2378604,48.8204247]]]]},"properties":{"code_section":"92048000AH","code_commune":"92048","section_courte":"AH"}},{"type":"Feature","geometry":{"type":"MultiPolygon","coordinates":[[[[2.2426081,48.8194396],[2.2427524,48.8201807],[2.24286,48.8201902],[2.2429275,48.8205476],[2.2424305,48.8205658],[2.2414819,48.8204872],[2.2402886,48.82047],[2.2389896,48.820708],[2.2383049,48.8208491],[2.2381158,48.8209145],[2.2378604,48.8204247],[2.2375147,48.8204841],[2.237199,48.8198968],[2.2368534,48.8194705],[2.2366456,48.8189075],[2.2355948,48.8188887],[2.2348479,48.8188286],[2.2346068,48.8187606],[2.2352504,48.8184747],[2.2353505,48.8183188],[2.2354129,48.8183262],[2.2354755,48.8180233],[2.2355335,48.8179653],[2.2360381,48.8179464],[2.2362661,48.8178845],[2.2364779,48.8177571],[2.2367164,48.8174699],[2.2367999,48.8174222],[2.237788,48.8172632],[2.2385756,48.8171708],[2.2381413,48.8160565],[2.2383832,48.8159254],[2.2404756,48.8151513],[2.2408618,48.8150338],[2.2409234,48.8151223],[2.2410876,48.8150101],[2.2412659,48.8149539],[2.2414595,48.8149465],[2.2426784,48.8146149],[2.2435198,48.8144184],[2.2437042,48.8144091],[2.2441037,48.8145113],[2.244597,48.8147007],[2.2457016,48.8150026],[2.2460892,48.8151491],[2.2468381,48.8158539],[2.247372,48.8164982],[2.2484183,48.8171513],[2.2488637,48.817621],[2.24924,48.8178086],[2.2490955,48.8178924],[2.2465744,48.8183327],[2.2449315,48.8186933],[2.2435181,48.8188546],[2.2425665,48.8190129],[2.2426081,48.8194396]]]]},"properties":{"code_section":"92048000AI","code_commune":"92048","section_courte":"AI"}},{"type":"Feature","geometry":{"type":"MultiPolygon","coordinates":[[[[2.2543784,48.8128273],[2.2541632,48.8133274],[2.2536471,48.8141181],[2.2543448,48.8142778],[2.2534883,48.8150365],[2.2526327,48.8155403],[2.2518267,48.8163896],[2.2516483,48.8163929],[2.2510215,48.8162938],[2.2506864,48.8166132],[2.250375,48.8169947],[2.2503405,48.8169832],[2.2502555,48.8171317],[2.2502967,48.8171508],[2.2502523,48.8172226],[2.2502031,48.8171999],[2.2500832,48.8173049],[2.24924,48.8178086],[2.2488637,48.817621],[2.2484183,48.8171513],[2.247372,48.8164982],[2.2470779,48.8161581],[2.2476763,48.8151435],[2.2476399,48.815089],[2.2477009,48.8149764],[2.2477359,48.8150302],[2.2481679,48.8142347],[2.2482364,48.8141462],[2.2487061,48.8138874],[2.2489277,48.8137161],[2.2490077,48.8135216],[2.2487861,48.8130522],[2.2489027,48.8128795],[2.2490121,48.8124034],[2.249047,48.8121362],[2.2489958,48.8119545],[2.2489306,48.8118678],[2.2487042,48.8117253],[2.2478914,48.8114722],[2.2477092,48.81135],[2.2474914,48.8111306],[2.2474137,48.8109799],[2.2474164,48.8108884],[2.2474756,48.8105131],[2.2475356,48.8103764],[2.2487172,48.8111539],[2.2489692,48.8110896],[2.2527152,48.8096389],[2.2531946,48.8097708],[2.254974,48.8101387],[2.2548687,48.810568],[2.2547094,48.8108363],[2.2545918,48.812115],[2.2545382,48.812389],[2.2543784,48.8128273]]]]},"properties":{"code_section":"92048000AK","code_commune":"92048","section_courte":"AK"}},{"type":"Feature","geometry":{"type":"MultiPolygon","coordinates":[[[[2.2476434,48.8150825],[2.2476763,48.8151435],[2.2470779,48.8161581],[2.2468381,48.8158539],[2.2465192,48.8155363],[2.2461768,48.8152127],[2.2459812,48.815093],[2.244597,48.8147007],[2.2441037,48.8145113],[2.2437042,48.8144091],[2.2433048,48.8140889],[2.2407259,48.8132356],[2.2373714,48.8119232],[2.2377638,48.8117044],[2.2394147,48.8103318],[2.2396151,48.8102311],[2.241106,48.8110268],[2.241758,48.8107813],[2.2418484,48.8107276],[2.2422049,48.8101765],[2.2423972,48.809968],[2.2423934,48.809709],[2.2437594,48.8090433],[2.2440841,48.8091971],[2.2448884,48.8094262],[2.2467371,48.8102089],[2.2475356,48.8103764],[2.2474756,48.8105131],[2.2474164,48.8108884],[2.2474137,48.8109799],[2.2474914,48.8111306],[2.2477092,48.81135],[2.2478914,48.8114722],[2.2487042,48.8117253],[2.2489306,48.8118678],[2.2489958,48.8119545],[2.249047,48.8121362],[2.2490121,48.8124034],[2.2489027,48.8128795],[2.2487861,48.8130522],[2.2490077,48.8135216],[2.2489596,48.8136656],[2.2487061,48.8138874],[2.2482364,48.8141462],[2.2477359,48.8150302],[2.2477009,48.8149764],[2.2476434,48.8150825]]]]},"properties":{"code_section":"92048000AL","code_commune":"92048","section_courte":"AL"}},{"type":"Feature","geometry":{"type":"MultiPolygon","coordinates":[[[[2.2502568,48.8078084],[2.251695,48.8087191],[2.2526427,48.8096075],[2.2527152,48.8096389],[2.2489692,48.8110896],[2.2487172,48.8111539],[2.2475356,48.8103764],[2.2467371,48.8102089],[2.2448884,48.8094262],[2.2440841,48.8091971],[2.2437952,48.8090643],[2.242852,48.8082614],[2.2422558,48.8075995],[2.2429299,48.8072918],[2.2431972,48.8072082],[2.2437451,48.8069],[2.2441919,48.8065773],[2.2450971,48.8058104],[2.2447085,48.805659],[2.244437,48.805515],[2.2442313,48.8053434],[2.2440024,48.8046208],[2.2441985,48.8044569],[2.244233,48.8043161],[2.2450758,48.8047365],[2.2455101,48.8044889],[2.2457178,48.8042991],[2.2459716,48.8044169],[2.2461974,48.804605],[2.246304,48.8047918],[2.2482258,48.8039366],[2.2483117,48.8039706],[2.2484218,48.8040407],[2.2486723,48.8043051],[2.2488776,48.804646],[2.2492062,48.8056766],[2.2495509,48.8055846],[2.2492787,48.8060711],[2.2485765,48.8064736],[2.2483269,48.8074781],[2.2502568,48.8078084]]]]},"properties":{"code_section":"92048000AM","code_commune":"92048","section_courte":"AM"}},{"type":"Feature","geometry":{"type":"MultiPolygon","coordinates":[[[[2.2345221,48.803998],[2.2340597,48.8035808],[2.2340304,48.8032606],[2.2352499,48.803223],[2.2355836,48.8031577],[2.2368725,48.8026153],[2.2384609,48.802278],[2.2388144,48.8022207],[2.2390527,48.8022476],[2.2410672,48.8018607],[2.2415687,48.8029233],[2.2423346,48.8034504],[2.2423605,48.8032393],[2.2425976,48.8031025],[2.2433618,48.80387],[2.244233,48.8043161],[2.2441985,48.8044569],[2.2440024,48.8046208],[2.2442313,48.8053434],[2.244437,48.805515],[2.2447085,48.805659],[2.2450971,48.8058104],[2.2441919,48.8065773],[2.2437451,48.8069],[2.2432346,48.8071892],[2.2429299,48.8072918],[2.24141,48.807995],[2.2411565,48.8080796],[2.24077,48.8080878],[2.2384192,48.8063101],[2.2382124,48.8054795],[2.2357457,48.8058322],[2.2355926,48.8051098],[2.2349563,48.8043756],[2.2345221,48.803998]]]]},"properties":{"code_section":"92048000AN","code_commune":"92048","section_courte":"AN"}},{"type":"Feature","geometry":{"type":"MultiPolygon","coordinates":[[[[2.2412115,48.8018665],[2.2410795,48.801894],[2.2410672,48.8018607],[2.2408499,48.8018917],[2.2390527,48.8022476],[2.2388144,48.8022207],[2.2384609,48.802278],[2.2368725,48.8026153],[2.2356191,48.8031503],[2.2352499,48.803223],[2.2340304,48.8032606],[2.2339599,48.8025391],[2.2343302,48.8009835],[2.2323592,48.7976147],[2.232427,48.7975977],[2.232447,48.7974749],[2.2347744,48.7954493],[2.2361047,48.7956279],[2.2387571,48.7977659],[2.2389556,48.7984958],[2.2395889,48.799637],[2.2400678,48.7996242],[2.2405835,48.8007287],[2.2407744,48.8008108],[2.2410422,48.8007937],[2.2415751,48.8008971],[2.2418051,48.8016059],[2.2413557,48.8018371],[2.2412115,48.8018665]]]]},"properties":{"code_section":"92048000AO","code_commune":"92048","section_courte":"AO"}},{"type":"Feature","geometry":{"type":"MultiPolygon","coordinates":[[[[2.2373714,48.8119232],[2.2321917,48.8099297],[2.2322603,48.8096789],[2.2326459,48.809409],[2.2327241,48.8093128],[2.2328737,48.808503],[2.2333034,48.8068218],[2.2332706,48.8068172],[2.2336671,48.805364],[2.233688,48.8052103],[2.2334925,48.805187],[2.2338098,48.8042701],[2.2339859,48.8035967],[2.2340597,48.8035808],[2.2349563,48.8043756],[2.235475,48.8049504],[2.2355926,48.8051098],[2.2356547,48.8052958],[2.2357457,48.8058322],[2.2382124,48.8054795],[2.2384192,48.8063101],[2.24077,48.8080878],[2.2411565,48.8080796],[2.24141,48.807995],[2.2422558,48.8075995],[2.242852,48.8082614],[2.2437594,48.8090433],[2.2423934,48.809709],[2.2423972,48.809968],[2.2422049,48.8101765],[2.2418484,48.8107276],[2.241758,48.8107813],[2.241106,48.8110268],[2.2396151,48.8102311],[2.2394147,48.8103318],[2.2377638,48.8117044],[2.2373714,48.8119232]]]]},"properties":{"code_section":"92048000AP","code_commune":"92048","section_courte":"AP"}},{"type":"Feature","geometry":{"type":"MultiPolygon","coordinates":[[[[2.2349971,48.7850692],[2.2354115,48.7869537],[2.2356295,48.7873298],[2.2358643,48.7883056],[2.2359408,48.7884041],[2.2364104,48.7887865],[2.2354946,48.7889509],[2.233369,48.7892179],[2.23028,48.7902297],[2.229291,48.79026],[2.2280217,48.7905255],[2.2251758,48.7908484],[2.2249805,48.7909326],[2.2202577,48.7935783],[2.2194775,48.7937583],[2.2191336,48.7938008],[2.2222628,48.7877318],[2.2228656,48.7863907],[2.226635,48.7815836],[2.2278673,48.7820823],[2.2290918,48.7828024],[2.2297567,48.7831147],[2.2306448,48.7833988],[2.2335734,48.7841844],[2.2348679,48.7844957],[2.2349971,48.7850692]]]]},"properties":{"code_section":"92048000AR","code_commune":"92048","section_courte":"AR"}},{"type":"Feature","geometry":{"type":"MultiPolygon","coordinates":[[[[2.2228229,48.7864679],[2.2224022,48.7874204],[2.2222535,48.7874439],[2.2116656,48.7912774],[2.2062684,48.784886],[2.206509,48.7847016],[2.2070331,48.7853573],[2.2071179,48.7852343],[2.2089715,48.7876154],[2.2093168,48.7877237],[2.2113405,48.7881272],[2.2115079,48.7881356],[2.2192354,48.7853614],[2.220038,48.785523],[2.2213948,48.7859124],[2.2232038,48.7859538],[2.2228229,48.7864679]]]]},"properties":{"code_section":"92048000AS","code_commune":"92048","section_courte":"AS"}}]}