{"type":"FeatureCollection","features":[{"type":"Feature","geometry":{"type":"MultiPolygon","coordinates":[[[[2.2410109,48.8919051],[2.2405665,48.8950217],[2.2378897,48.8945937],[2.2378627,48.8942716],[2.2378064,48.894266],[2.237831,48.8941774],[2.2391092,48.8943163],[2.2384323,48.893818],[2.2378169,48.8932956],[2.2377243,48.8932047],[2.2377169,48.8931232],[2.2371513,48.8925192],[2.237557,48.8923901],[2.2373276,48.8921041],[2.2397937,48.8913218],[2.2400095,48.8916093],[2.2402438,48.8917467],[2.2406273,48.8918809],[2.2410109,48.8919051]]]]},"properties":{"code_section":"920620000A","code_commune":"92062","section_courte":"A"}},{"type":"Feature","geometry":{"type":"MultiPolygon","coordinates":[[[[2.2363593,48.8923394],[2.2363353,48.8922644],[2.2363806,48.8922644],[2.2362863,48.8917154],[2.2357787,48.8904892],[2.2354454,48.8888192],[2.2396262,48.890566],[2.2395741,48.8907782],[2.2395849,48.8910433],[2.2397937,48.8913218],[2.2373276,48.8921041],[2.237557,48.8923901],[2.2371513,48.8925192],[2.2369399,48.8922935],[2.2367119,48.8922998],[2.2367105,48.8923396],[2.2363593,48.8923394]]]]},"properties":{"code_section":"920620000B","code_commune":"92062","section_courte":"B"}},{"type":"Feature","geometry":{"type":"MultiPolygon","coordinates":[[[[2.2342821,48.8931722],[2.2363536,48.8924612],[2.2363008,48.8922844],[2.2363348,48.8922824],[2.2363334,48.8923393],[2.2367105,48.8923396],[2.2367119,48.8922998],[2.2369399,48.8922935],[2.2377169,48.8931232],[2.2377243,48.8932047],[2.2378169,48.8932956],[2.2384323,48.893818],[2.2391092,48.8943163],[2.237831,48.8941774],[2.2378064,48.894266],[2.2378627,48.8942716],[2.2378897,48.8945937],[2.2367996,48.8947749],[2.2359834,48.8949914],[2.2357378,48.8950797],[2.2356747,48.8951608],[2.2350756,48.8955155],[2.2337632,48.8956713],[2.2342511,48.8950471],[2.2326523,48.8937463],[2.2342102,48.8932486],[2.2342821,48.8931722]]]]},"properties":{"code_section":"920620000C","code_commune":"92062","section_courte":"C"}},{"type":"Feature","geometry":{"type":"MultiPolygon","coordinates":[[[[2.2341549,48.8925214],[2.2338704,48.8910668],[2.2344081,48.890428],[2.2349768,48.8900212],[2.2354507,48.8897311],[2.2356461,48.8898259],[2.2358324,48.8906491],[2.2362863,48.8917154],[2.2363806,48.8922644],[2.2363008,48.8922844],[2.2363536,48.8924612],[2.2342821,48.8931722],[2.2341549,48.8925214]]]]},"properties":{"code_section":"920620000D","code_commune":"92062","section_courte":"D"}},{"type":"Feature","geometry":{"type":"MultiPolygon","coordinates":[[[[2.2341549,48.8925214],[2.2342821,48.8931722],[2.2342102,48.8932486],[2.2326523,48.8937463],[2.2310967,48.8925],[2.2300769,48.8910916],[2.229951,48.8910375],[2.2307766,48.8901086],[2.2320001,48.8906465],[2.2328924,48.8909382],[2.2329527,48.8908576],[2.2337799,48.891127],[2.2338704,48.8910668],[2.2341549,48.8925214]]]]},"properties":{"code_section":"920620000E","code_commune":"92062","section_courte":"E"}},{"type":"Feature","geometry":{"type":"MultiPolygon","coordinates":[[[[2.235516,48.8891757],[2.2356461,48.8898259],[2.2354507,48.8897311],[2.2346118,48.8902691],[2.2343521,48.8904805],[2.2338704,48.8910668],[2.2337799,48.891127],[2.2329527,48.8908576],[2.2328924,48.8909382],[2.2320001,48.8906465],[2.2308596,48.8901504],[2.2307766,48.8901086],[2.2308095,48.8900716],[2.2304756,48.8899233],[2.2306996,48.8896428],[2.2306553,48.8896057],[2.2312611,48.888839],[2.2314116,48.8886975],[2.2313439,48.888687],[2.2312341,48.8884249],[2.2325054,48.8874513],[2.2350349,48.8884995],[2.2349927,48.8886315],[2.2354454,48.8888192],[2.235516,48.8891757]]]]},"properties":{"code_section":"920620000F","code_commune":"92062","section_courte":"F"}},{"type":"Feature","geometry":{"type":"MultiPolygon","coordinates":[[[[2.2326204,48.8873371],[2.2323997,48.8875562],[2.2312341,48.8884249],[2.2313439,48.888687],[2.2314116,48.8886975],[2.2312611,48.888839],[2.2306553,48.8896057],[2.230437,48.8894387],[2.2283962,48.8882827],[2.2284493,48.8882285],[2.2259609,48.8864528],[2.2268483,48.8860095],[2.2272215,48.8857083],[2.2274535,48.8856838],[2.2276755,48.8856231],[2.2278238,48.8855542],[2.2279866,48.8854126],[2.2326204,48.8873371]]]]},"properties":{"code_section":"920620000G","code_commune":"92062","section_courte":"G"}},{"type":"Feature","geometry":{"type":"MultiPolygon","coordinates":[[[[2.223498,48.8841384],[2.2224556,48.8831397],[2.2236113,48.8827632],[2.2250294,48.8819913],[2.2273002,48.8837601],[2.2275993,48.8836162],[2.2286695,48.8845253],[2.2279591,48.8846724],[2.2280952,48.8848351],[2.2281499,48.8850748],[2.2280484,48.8853413],[2.2278238,48.8855542],[2.2275514,48.885662],[2.2272215,48.8857083],[2.2268483,48.8860095],[2.2259609,48.8864528],[2.2244927,48.8854328],[2.2245315,48.8851289],[2.223498,48.8841384]]]]},"properties":{"code_section":"920620000H","code_commune":"92062","section_courte":"H"}},{"type":"Feature","geometry":{"type":"MultiPolygon","coordinates":[[[[2.2312139,48.8820992],[2.2311604,48.8821349],[2.2305967,48.8819996],[2.2297236,48.8829141],[2.2291246,48.8825259],[2.229167,48.8824821],[2.2290945,48.8824533],[2.228563,48.8830123],[2.2285224,48.8830161],[2.2280407,48.8827044],[2.2275826,48.8835276],[2.2275993,48.8836162],[2.2273002,48.8837601],[2.2250294,48.8819913],[2.2264953,48.8811831],[2.2292804,48.8804464],[2.2298573,48.8802482],[2.2311505,48.8813299],[2.231596,48.8816181],[2.2317052,48.8816145],[2.2317074,48.8816684],[2.2317917,48.8817224],[2.2312139,48.8820992]]]]},"properties":{"code_section":"920620000I","code_commune":"92062","section_courte":"I"}},{"type":"Feature","geometry":{"type":"MultiPolygon","coordinates":[[[[2.2296074,48.8856925],[2.2290985,48.8858744],[2.2279866,48.8854126],[2.2281196,48.8852071],[2.2281499,48.8850748],[2.2280952,48.8848351],[2.2279591,48.8846724],[2.2286695,48.8845253],[2.2275993,48.8836162],[2.2275826,48.8835276],[2.2280407,48.8827044],[2.2285224,48.8830161],[2.228563,48.8830123],[2.2290945,48.8824533],[2.229167,48.8824821],[2.2291246,48.8825259],[2.2297236,48.8829141],[2.2305967,48.8819996],[2.2311604,48.8821349],[2.2326239,48.8832887],[2.2332187,48.8838856],[2.231509,48.8841098],[2.2303769,48.8852919],[2.2300133,48.8855478],[2.2296074,48.8856925]]]]},"properties":{"code_section":"920620000J","code_commune":"92062","section_courte":"J"}},{"type":"Feature","geometry":{"type":"MultiPolygon","coordinates":[[[[2.2297034,48.8856584],[2.2300133,48.8855478],[2.2303769,48.8852919],[2.231509,48.8841098],[2.2326081,48.8839657],[2.2345294,48.8856017],[2.2345313,48.8858342],[2.2332559,48.8865772],[2.2325144,48.8872932],[2.2290985,48.8858744],[2.2297034,48.8856584]]]]},"properties":{"code_section":"920620000K","code_commune":"92062","section_courte":"K"}},{"type":"Feature","geometry":{"type":"MultiPolygon","coordinates":[[[[2.2350762,48.8883725],[2.2350349,48.8884995],[2.2325054,48.8874513],[2.2326204,48.8873371],[2.2325144,48.8872932],[2.2332559,48.8865772],[2.2345313,48.8858342],[2.2345294,48.8856017],[2.2342873,48.8853852],[2.2352282,48.8851936],[2.235048,48.8849569],[2.2353303,48.8848131],[2.2355972,48.8850005],[2.2359789,48.8847822],[2.2368417,48.8852894],[2.2371013,48.8852836],[2.2387835,48.8864244],[2.2380503,48.8868647],[2.2379732,48.8868134],[2.2375913,48.8868274],[2.237499,48.8868065],[2.237403,48.8868779],[2.2367194,48.8869892],[2.2366649,48.8869541],[2.2366839,48.8869331],[2.236435,48.8870281],[2.2361938,48.8868879],[2.2357377,48.8872159],[2.2357804,48.8883387],[2.2352277,48.8881108],[2.2350762,48.8883725]]]]},"properties":{"code_section":"920620000L","code_commune":"92062","section_courte":"L"}},{"type":"Feature","geometry":{"type":"MultiPolygon","coordinates":[[[[2.2384232,48.8899566],[2.2383499,48.8900328],[2.2349927,48.8886315],[2.235103,48.8883055],[2.2352277,48.8881108],[2.2357804,48.8883387],[2.2357377,48.8872159],[2.2361938,48.8868879],[2.236435,48.8870281],[2.2366839,48.8869331],[2.2366649,48.8869541],[2.2367194,48.8869892],[2.237403,48.8868779],[2.237499,48.8868065],[2.2375913,48.8868274],[2.2379732,48.8868134],[2.2380503,48.8868647],[2.2387835,48.8864244],[2.2390183,48.8862131],[2.2402647,48.8869255],[2.2411153,48.8874761],[2.2411562,48.8874745],[2.2410336,48.8876395],[2.2405017,48.8880496],[2.2402874,48.887715],[2.2383822,48.8883192],[2.2386126,48.8886413],[2.237407,48.8890162],[2.2387805,48.8895846],[2.2384232,48.8899566]]]]},"properties":{"code_section":"920620000M","code_commune":"92062","section_courte":"M"}},{"type":"Feature","geometry":{"type":"MultiPolygon","coordinates":[[[[2.2423119,48.8901537],[2.2425308,48.8904533],[2.2411666,48.8908861],[2.2410188,48.8919057],[2.2406273,48.8918809],[2.2402701,48.8917584],[2.2400095,48.8916093],[2.2395849,48.8910433],[2.2395741,48.8907782],[2.2396262,48.890566],[2.2383499,48.8900328],[2.2387805,48.8895846],[2.237407,48.8890162],[2.2386126,48.8886413],[2.2383822,48.8883192],[2.2402874,48.887715],[2.2405017,48.8880496],[2.2406835,48.8879095],[2.2414023,48.8888947],[2.2418262,48.8891534],[2.2417186,48.8899013],[2.2420084,48.8899947],[2.2423119,48.8901537]]]]},"properties":{"code_section":"920620000N","code_commune":"92062","section_courte":"N"}},{"type":"Feature","geometry":{"type":"MultiPolygon","coordinates":[[[[2.245499,48.8891619],[2.2453822,48.8891993],[2.2455897,48.8894843],[2.2425308,48.8904533],[2.2423119,48.8901537],[2.2420084,48.8899947],[2.2417186,48.8899013],[2.2418262,48.8891534],[2.2414023,48.8888947],[2.2406835,48.8879095],[2.2410336,48.8876395],[2.2411562,48.8874745],[2.2420331,48.8867913],[2.2421017,48.8868063],[2.2431586,48.8859863],[2.2448885,48.8866927],[2.2448369,48.886736],[2.2448544,48.886803],[2.2446395,48.8868989],[2.2444453,48.886933],[2.2441999,48.8869238],[2.2440059,48.8871276],[2.244207,48.8874477],[2.2446459,48.8876636],[2.2450379,48.8879788],[2.2449473,48.8880559],[2.2450021,48.8885661],[2.2446025,48.8883818],[2.2445263,48.8884559],[2.2457699,48.889033],[2.2457646,48.8890774],[2.245499,48.8891619]]]]},"properties":{"code_section":"920620000O","code_commune":"92062","section_courte":"O"}},{"type":"Feature","geometry":{"type":"MultiPolygon","coordinates":[[[[2.2483482,48.8868257],[2.248433,48.8868189],[2.2485307,48.8869434],[2.2502859,48.8873848],[2.2502519,48.8874359],[2.2505903,48.8875212],[2.2505922,48.8875488],[2.2504542,48.8875925],[2.2509483,48.8877857],[2.2455897,48.8894843],[2.2453822,48.8891993],[2.2457646,48.8890774],[2.2457699,48.889033],[2.2445263,48.8884559],[2.2446025,48.8883818],[2.2450021,48.8885661],[2.2449473,48.8880559],[2.2450379,48.8879788],[2.2446459,48.8876636],[2.244207,48.8874477],[2.2440059,48.8871276],[2.2441999,48.8869238],[2.2444453,48.886933],[2.2446395,48.8868989],[2.2448544,48.886803],[2.2448369,48.886736],[2.2448885,48.8866927],[2.2453135,48.8868645],[2.245355,48.8868205],[2.2458398,48.8870189],[2.2483482,48.8868257]]]]},"properties":{"code_section":"920620000P","code_commune":"92062","section_courte":"P"}},{"type":"Feature","geometry":{"type":"MultiPolygon","coordinates":[[[[2.245355,48.8868205],[2.2453135,48.8868645],[2.2431586,48.8859863],[2.2428702,48.8857914],[2.2425853,48.8851691],[2.2432983,48.8854622],[2.2433426,48.8854184],[2.2437548,48.8855911],[2.243944,48.8854137],[2.2440802,48.8854776],[2.2442193,48.8853354],[2.2439819,48.8852488],[2.2441813,48.8850563],[2.2441987,48.8849377],[2.2454007,48.8843363],[2.2470378,48.8852461],[2.2474815,48.8856079],[2.248433,48.8868189],[2.2458398,48.8870189],[2.245355,48.8868205]]]]},"properties":{"code_section":"920620000Q","code_commune":"92062","section_courte":"Q"}},{"type":"Feature","geometry":{"type":"MultiPolygon","coordinates":[[[[2.2390715,48.8862343],[2.2390183,48.8862131],[2.2391226,48.8859913],[2.2393232,48.8847746],[2.2397619,48.8829558],[2.2424812,48.8849393],[2.2428702,48.8857914],[2.2431586,48.8859863],[2.2421017,48.8868063],[2.2420331,48.8867913],[2.2411562,48.8874745],[2.2411153,48.8874761],[2.2402647,48.8869255],[2.2390715,48.8862343]]]]},"properties":{"code_section":"920620000R","code_commune":"92062","section_courte":"R"}},{"type":"Feature","geometry":{"type":"MultiPolygon","coordinates":[[[[2.243944,48.8854137],[2.2437548,48.8855911],[2.2433426,48.8854184],[2.2432983,48.8854622],[2.2425853,48.8851691],[2.2424812,48.8849393],[2.2397619,48.8829558],[2.2392699,48.882708],[2.2398534,48.8825172],[2.2417379,48.8815063],[2.243223,48.8826115],[2.2448474,48.8840287],[2.2454007,48.8843363],[2.2441987,48.8849377],[2.2441813,48.8850563],[2.2439819,48.8852488],[2.2442193,48.8853354],[2.2440802,48.8854776],[2.243944,48.8854137]]]]},"properties":{"code_section":"920620000S","code_commune":"92062","section_courte":"S"}},{"type":"Feature","geometry":{"type":"MultiPolygon","coordinates":[[[[2.2385807,48.8828734],[2.2392699,48.882708],[2.2397619,48.8829558],[2.2393232,48.8847746],[2.2391226,48.8859913],[2.2390183,48.8862131],[2.2387835,48.8864244],[2.2371013,48.8852836],[2.2368417,48.8852894],[2.2359789,48.8847822],[2.2363892,48.884528],[2.2364091,48.8841634],[2.2368622,48.88374],[2.2375712,48.8832793],[2.2379605,48.8830878],[2.2385807,48.8828734]]]]},"properties":{"code_section":"920620000T","code_commune":"92062","section_courte":"T"}},{"type":"Feature","geometry":{"type":"MultiPolygon","coordinates":[[[[2.2331824,48.882968],[2.2331621,48.8829496],[2.2333755,48.8828484],[2.2334308,48.8829042],[2.2356912,48.8818291],[2.2375712,48.8832793],[2.2368622,48.88374],[2.2364091,48.8841634],[2.2363892,48.884528],[2.2355972,48.8850005],[2.2353303,48.8848131],[2.235048,48.8849569],[2.2352282,48.8851936],[2.2342873,48.8853852],[2.2326081,48.8839657],[2.2332187,48.8838856],[2.2326239,48.8832887],[2.2331236,48.8830505],[2.2331024,48.8830279],[2.2331824,48.882968]]]]},"properties":{"code_section":"920620000U","code_commune":"92062","section_courte":"U"}},{"type":"Feature","geometry":{"type":"MultiPolygon","coordinates":[[[[2.2331236,48.8830505],[2.2326239,48.8832887],[2.2311604,48.8821349],[2.2317917,48.8817224],[2.2317074,48.8816684],[2.2317052,48.8816145],[2.231596,48.8816181],[2.2311505,48.8813299],[2.2298573,48.8802482],[2.2303308,48.8800214],[2.2305902,48.8799248],[2.2333098,48.879814],[2.2355846,48.8818785],[2.2334308,48.8829042],[2.2333755,48.8828484],[2.2331621,48.8829496],[2.2331906,48.8829752],[2.2331024,48.8830279],[2.2331236,48.8830505]]]]},"properties":{"code_section":"920620000V","code_commune":"92062","section_courte":"V"}},{"type":"Feature","geometry":{"type":"MultiPolygon","coordinates":[[[[2.2366618,48.8795688],[2.2390478,48.8784163],[2.2404744,48.8795666],[2.2355846,48.8818785],[2.2333098,48.879814],[2.2353645,48.8797198],[2.2366618,48.8795688]]]]},"properties":{"code_section":"920620000X","code_commune":"92062","section_courte":"X"}},{"type":"Feature","geometry":{"type":"MultiPolygon","coordinates":[[[[2.2410224,48.8799746],[2.2424104,48.8811415],[2.2398534,48.8825172],[2.2392699,48.882708],[2.2385807,48.8828734],[2.2379605,48.8830878],[2.2375712,48.8832793],[2.2356912,48.8818291],[2.2404744,48.8795666],[2.2410224,48.8799746]]]]},"properties":{"code_section":"920620000Y","code_commune":"92062","section_courte":"Y"}},{"type":"Feature","geometry":{"type":"MultiPolygon","coordinates":[[[[2.2344268,48.8746534],[2.2362615,48.8737547],[2.2382041,48.8751039],[2.2336505,48.8773186],[2.2319253,48.8758644],[2.2344268,48.8746534]]]]},"properties":{"code_section":"920620000Z","code_commune":"92062","section_courte":"Z"}},{"type":"Feature","geometry":{"type":"MultiPolygon","coordinates":[[[[2.2398659,48.8778453],[2.2390478,48.8784163],[2.2366618,48.8795688],[2.2363754,48.8796016],[2.2336505,48.8773186],[2.2382041,48.8751039],[2.2396079,48.8761034],[2.2410286,48.8771769],[2.2398659,48.8778453]]]]},"properties":{"code_section":"92062000AB","code_commune":"92062","section_courte":"AB"}},{"type":"Feature","geometry":{"type":"MultiPolygon","coordinates":[[[[2.2404744,48.8795666],[2.2390478,48.8784163],[2.2398659,48.8778453],[2.2410286,48.8771769],[2.2445205,48.8799693],[2.2424104,48.8811415],[2.2410224,48.8799746],[2.2404744,48.8795666]]]]},"properties":{"code_section":"92062000AC","code_commune":"92062","section_courte":"AC"}},{"type":"Feature","geometry":{"type":"MultiPolygon","coordinates":[[[[2.2471384,48.8828187],[2.2448474,48.8840287],[2.243223,48.8826115],[2.2417379,48.8815063],[2.2445205,48.8799693],[2.2477025,48.8825205],[2.2473312,48.8827162],[2.2473829,48.8827587],[2.2471902,48.8828606],[2.2471384,48.8828187]]]]},"properties":{"code_section":"92062000AD","code_commune":"92062","section_courte":"AD"}},{"type":"Feature","geometry":{"type":"MultiPolygon","coordinates":[[[[2.2498798,48.8866732],[2.2490401,48.8870755],[2.2485307,48.8869434],[2.2474815,48.8856079],[2.2470378,48.8852461],[2.2448474,48.8840287],[2.2471384,48.8828187],[2.2471902,48.8828606],[2.2473829,48.8827587],[2.2473312,48.8827162],[2.2477025,48.8825205],[2.2512355,48.8854022],[2.2516373,48.8858097],[2.2498798,48.8866732]]]]},"properties":{"code_section":"92062000AE","code_commune":"92062","section_courte":"AE"}},{"type":"Feature","geometry":{"type":"MultiPolygon","coordinates":[[[[2.2514429,48.8859102],[2.2516373,48.8858097],[2.252956,48.8871469],[2.2509483,48.8877857],[2.2504542,48.8875925],[2.2505922,48.8875488],[2.2505903,48.8875212],[2.2502519,48.8874359],[2.2502859,48.8873848],[2.2490401,48.8870755],[2.2514429,48.8859102]]]]},"properties":{"code_section":"92062000AF","code_commune":"92062","section_courte":"AF"}},{"type":"Feature","geometry":{"type":"MultiPolygon","coordinates":[[[[2.2530669,48.8853027],[2.2524457,48.885502],[2.2537328,48.8869033],[2.252956,48.8871469],[2.2512355,48.8854022],[2.2468483,48.881824],[2.249922,48.880244],[2.2510885,48.8812128],[2.2522575,48.8823552],[2.2533138,48.883511],[2.2543887,48.8848758],[2.2530669,48.8853027]]]]},"properties":{"code_section":"92062000AG","code_commune":"92062","section_courte":"AG"}},{"type":"Feature","geometry":{"type":"MultiPolygon","coordinates":[[[[2.2397956,48.8759909],[2.2431828,48.8739777],[2.2466436,48.8774017],[2.2476683,48.878372],[2.249922,48.880244],[2.2468483,48.881824],[2.2410286,48.8771769],[2.2396079,48.8761034],[2.2397956,48.8759909]]]]},"properties":{"code_section":"92062000AH","code_commune":"92062","section_courte":"AH"}},{"type":"Feature","geometry":{"type":"MultiPolygon","coordinates":[[[[2.2346353,48.8718936],[2.2325836,48.870054],[2.2321077,48.8695629],[2.2368436,48.8708811],[2.2398917,48.8716416],[2.2404364,48.8718873],[2.241104,48.8723261],[2.2431828,48.8739777],[2.2396079,48.8761034],[2.2362615,48.8737547],[2.2367933,48.873494],[2.2354886,48.872573],[2.2346353,48.8718936]]]]},"properties":{"code_section":"92062000AI","code_commune":"92062","section_courte":"AI"}}]}