{"type":"FeatureCollection","features":[{"type":"Feature","geometry":{"type":"MultiPolygon","coordinates":[[[[2.2735521,48.7876339],[2.2739727,48.7875833],[2.2739784,48.7877017],[2.2744422,48.7876786],[2.274824,48.787569],[2.2748573,48.7876739],[2.274772,48.7877859],[2.2745626,48.7878899],[2.2735867,48.7881462],[2.2731233,48.7883699],[2.2728439,48.7885307],[2.2720641,48.7891534],[2.2720322,48.789634],[2.2717428,48.7904623],[2.2716664,48.7904782],[2.2712334,48.7902232],[2.2690134,48.7893776],[2.2682589,48.7891908],[2.267036,48.7889836],[2.2677583,48.7875439],[2.2684505,48.7874873],[2.2686679,48.7875753],[2.2687448,48.7877024],[2.2689949,48.7877188],[2.269221,48.7874341],[2.2693324,48.7874466],[2.2696762,48.7873887],[2.2698165,48.7873934],[2.2699594,48.787443],[2.2702249,48.7876631],[2.2709878,48.7880026],[2.2709458,48.7880666],[2.2714214,48.7881181],[2.2714436,48.7879996],[2.2718772,48.788092],[2.2722786,48.7880999],[2.2724107,48.7877071],[2.2729224,48.7876502],[2.2729297,48.7877056],[2.2735521,48.7876339]]]]},"properties":{"code_section":"920600000A","code_commune":"92060","section_courte":"A"}},{"type":"Feature","geometry":{"type":"MultiPolygon","coordinates":[[[[2.2729224,48.7876502],[2.2724107,48.7877071],[2.2722786,48.7880999],[2.2718772,48.788092],[2.2714436,48.7879996],[2.2714214,48.7881181],[2.2709458,48.7880666],[2.2709878,48.7880026],[2.2702249,48.7876631],[2.2699594,48.787443],[2.2698165,48.7873934],[2.2696762,48.7873887],[2.2693324,48.7874466],[2.269221,48.7874341],[2.2689949,48.7877188],[2.2687448,48.7877024],[2.2686183,48.7875416],[2.2684505,48.7874873],[2.268353,48.7874885],[2.2682847,48.7871394],[2.2684298,48.7869164],[2.268525,48.786944],[2.2686575,48.786751],[2.2686818,48.7865556],[2.2693301,48.7865805],[2.2693518,48.7863744],[2.2696846,48.7864],[2.2698043,48.7854547],[2.2707776,48.7856022],[2.2713627,48.7858077],[2.2722703,48.7858635],[2.2731502,48.7855398],[2.273555,48.7854558],[2.2743005,48.7856902],[2.2748245,48.785773],[2.2746837,48.7859197],[2.2740179,48.7863803],[2.2738941,48.7865203],[2.2738572,48.7867645],[2.2739727,48.7875833],[2.2729297,48.7877056],[2.2729224,48.7876502]]]]},"properties":{"code_section":"920600000B","code_commune":"92060","section_courte":"B"}},{"type":"Feature","geometry":{"type":"MultiPolygon","coordinates":[[[[2.2713335,48.7835933],[2.2713133,48.7835467],[2.2735936,48.783085],[2.274887,48.7831835],[2.2750732,48.7839448],[2.2748024,48.7847078],[2.2747845,48.785769],[2.2743005,48.7856902],[2.273555,48.7854558],[2.2731502,48.7855398],[2.2722703,48.7858635],[2.2713627,48.7858077],[2.2707776,48.7856022],[2.2698926,48.7854681],[2.2696487,48.7848351],[2.269691,48.7845425],[2.2698586,48.7842219],[2.2700871,48.7840051],[2.2704009,48.7838257],[2.2707506,48.783707],[2.2713335,48.7835933]]]]},"properties":{"code_section":"920600000C","code_commune":"92060","section_courte":"C"}},{"type":"Feature","geometry":{"type":"MultiPolygon","coordinates":[[[[2.2801604,48.7854529],[2.2801607,48.7855436],[2.2797016,48.7855446],[2.2786979,48.7856533],[2.2784002,48.785655],[2.2773102,48.7859442],[2.2766502,48.7860523],[2.275914,48.7860221],[2.275433,48.7858649],[2.2747845,48.785769],[2.2748024,48.7847078],[2.2750732,48.7839448],[2.274887,48.7831835],[2.2771587,48.7834679],[2.280876,48.783562],[2.2808172,48.7836087],[2.2808014,48.7838783],[2.2798819,48.7840863],[2.2795414,48.7840919],[2.279489,48.7840493],[2.2790434,48.7841178],[2.2788358,48.7842521],[2.2787598,48.7842656],[2.2790667,48.7851809],[2.2801569,48.7850286],[2.2801604,48.7854529]]]]},"properties":{"code_section":"920600000D","code_commune":"92060","section_courte":"D"}},{"type":"Feature","geometry":{"type":"MultiPolygon","coordinates":[[[[2.2812587,48.783406],[2.2809774,48.78347],[2.280876,48.783562],[2.2771587,48.7834679],[2.274887,48.7831835],[2.274736,48.7826654],[2.2759341,48.7814389],[2.2761721,48.7813444],[2.2762942,48.7811855],[2.2764018,48.7813662],[2.2775085,48.7811063],[2.2775489,48.7812845],[2.2780711,48.7821015],[2.278275,48.7820447],[2.2789697,48.7827536],[2.2794938,48.7825399],[2.2805608,48.783324],[2.2808738,48.783172],[2.2817236,48.7826343],[2.2819167,48.7832056],[2.2818244,48.7832448],[2.2818368,48.7833893],[2.2817229,48.7834273],[2.2812587,48.783406]]]]},"properties":{"code_section":"920600000E","code_commune":"92060","section_courte":"E"}},{"type":"Feature","geometry":{"type":"MultiPolygon","coordinates":[[[[2.2730326,48.7815444],[2.2729846,48.7814976],[2.2731166,48.7814207],[2.2732308,48.7812962],[2.2733428,48.7810013],[2.27328,48.7803207],[2.2733756,48.7801191],[2.2738673,48.7798585],[2.2738715,48.7797615],[2.275064,48.7794752],[2.2753582,48.7794393],[2.2758706,48.780772],[2.2759228,48.7807625],[2.2762151,48.7813014],[2.2761134,48.7813819],[2.2759341,48.7814389],[2.274736,48.7826654],[2.274887,48.7831835],[2.2742327,48.7831169],[2.2733788,48.7819255],[2.2730326,48.7815444]]]]},"properties":{"code_section":"920600000F","code_commune":"92060","section_courte":"F"}},{"type":"Feature","geometry":{"type":"MultiPolygon","coordinates":[[[[2.2741634,48.7830201],[2.2742327,48.7831169],[2.2735936,48.783085],[2.2713133,48.7835467],[2.2699972,48.7835485],[2.2692628,48.7834668],[2.2693125,48.7826228],[2.2701001,48.7824267],[2.2703512,48.7822834],[2.2704143,48.7821996],[2.2705203,48.7816163],[2.2708443,48.781221],[2.2724309,48.7815594],[2.2727615,48.7815609],[2.2729846,48.7814976],[2.2733788,48.7819255],[2.2741634,48.7830201]]]]},"properties":{"code_section":"920600000G","code_commune":"92060","section_courte":"G"}},{"type":"Feature","geometry":{"type":"MultiPolygon","coordinates":[[[[2.2678856,48.7827867],[2.2693125,48.7826228],[2.2692628,48.7834668],[2.2699972,48.7835485],[2.2713133,48.7835467],[2.2713335,48.7835933],[2.2707506,48.783707],[2.2703578,48.7838445],[2.2700871,48.7840051],[2.2698394,48.784247],[2.269691,48.7845425],[2.2696487,48.7848351],[2.2698926,48.7854681],[2.2693877,48.7853916],[2.2685375,48.7851832],[2.265476,48.7842526],[2.2654957,48.7832095],[2.2655295,48.7832117],[2.2655958,48.7827589],[2.2663484,48.7829188],[2.2678856,48.7827867]]]]},"properties":{"code_section":"920600000H","code_commune":"92060","section_courte":"H"}},{"type":"Feature","geometry":{"type":"MultiPolygon","coordinates":[[[[2.2653673,48.7842187],[2.2685375,48.7851832],[2.2693877,48.7853916],[2.2698043,48.7854547],[2.2696846,48.7864],[2.2693518,48.7863744],[2.2693301,48.7865805],[2.2659418,48.7864395],[2.2649236,48.7863206],[2.2650836,48.7856719],[2.264974,48.7850433],[2.2651801,48.784638],[2.2652784,48.7842968],[2.2653318,48.784302],[2.2653673,48.7842187]]]]},"properties":{"code_section":"920600000I","code_commune":"92060","section_courte":"I"}},{"type":"Feature","geometry":{"type":"MultiPolygon","coordinates":[[[[2.2639906,48.7862614],[2.2640071,48.7862141],[2.2659418,48.7864395],[2.2686818,48.7865556],[2.2686575,48.786751],[2.268525,48.786944],[2.2684298,48.7869164],[2.2682847,48.7871394],[2.268353,48.7874885],[2.2677583,48.7875439],[2.267036,48.7889836],[2.2651547,48.7886262],[2.2641256,48.7884944],[2.2632184,48.7881331],[2.2638321,48.7874547],[2.2639372,48.7874424],[2.2639864,48.7873988],[2.2635995,48.7865389],[2.2639083,48.786531],[2.2639906,48.7862614]]]]},"properties":{"code_section":"920600000J","code_commune":"92060","section_courte":"J"}},{"type":"Feature","geometry":{"type":"MultiPolygon","coordinates":[[[[2.2606934,48.7859414],[2.2606953,48.7860382],[2.2619344,48.7860268],[2.2626387,48.7860534],[2.2640071,48.7862141],[2.2639083,48.786531],[2.2635995,48.7865389],[2.2639864,48.7873988],[2.2639372,48.7874424],[2.2638321,48.7874547],[2.2632184,48.7881331],[2.2587277,48.7862755],[2.2587472,48.7857857],[2.2591093,48.7857969],[2.2596079,48.7859226],[2.2595953,48.7857088],[2.2606934,48.7859414]]]]},"properties":{"code_section":"920600000K","code_commune":"92060","section_courte":"K"}},{"type":"Feature","geometry":{"type":"MultiPolygon","coordinates":[[[[2.2654957,48.7832095],[2.265476,48.7842526],[2.2653673,48.7842187],[2.2653318,48.784302],[2.2652784,48.7842968],[2.2651801,48.784638],[2.264974,48.7850433],[2.2650836,48.7856719],[2.2649236,48.7863206],[2.2626387,48.7860534],[2.2619344,48.7860268],[2.2606953,48.7860382],[2.2606934,48.7859414],[2.2595953,48.7857088],[2.2596079,48.7859226],[2.2591093,48.7857969],[2.2587472,48.7857857],[2.2589709,48.7823461],[2.261026,48.7824066],[2.260877,48.7819409],[2.2603316,48.7811774],[2.260027,48.7806062],[2.2599988,48.7799748],[2.2601262,48.7797878],[2.2602839,48.7796981],[2.2609227,48.7795824],[2.2616094,48.7796003],[2.2621123,48.7797566],[2.2627506,48.780113],[2.2630259,48.7803151],[2.2631533,48.78046],[2.2637413,48.781544],[2.2642179,48.7822021],[2.2651589,48.7826416],[2.2655958,48.7827589],[2.2655295,48.7832117],[2.2654957,48.7832095]]]]},"properties":{"code_section":"920600000L","code_commune":"92060","section_courte":"L"}},{"type":"Feature","geometry":{"type":"MultiPolygon","coordinates":[[[[2.273445,48.7795203],[2.2738715,48.7797615],[2.2738673,48.7798585],[2.2733756,48.7801191],[2.27328,48.7803207],[2.2733428,48.7810013],[2.2732308,48.7812962],[2.2731166,48.7814207],[2.2729846,48.7814976],[2.2727615,48.7815609],[2.2724309,48.7815594],[2.2708443,48.781221],[2.2705203,48.7816163],[2.2704143,48.7821996],[2.2703108,48.7823179],[2.27016,48.7824044],[2.2695692,48.7825775],[2.2693125,48.7826228],[2.2678856,48.7827867],[2.2663484,48.7829188],[2.2653163,48.7826988],[2.2648037,48.7824947],[2.2642179,48.7822021],[2.2637413,48.781544],[2.2631872,48.7805128],[2.2630259,48.7803151],[2.2627506,48.780113],[2.2621123,48.7797566],[2.261765,48.7796321],[2.2614505,48.7795812],[2.2605114,48.7789674],[2.2667198,48.7775724],[2.2669152,48.7774346],[2.2673089,48.7773043],[2.2694535,48.7781174],[2.269757,48.7781282],[2.2704089,48.7779966],[2.2707755,48.7779578],[2.2710933,48.7779995],[2.2713896,48.7780894],[2.271638,48.7781993],[2.2724574,48.7788812],[2.273445,48.7795203]]]]},"properties":{"code_section":"920600000M","code_commune":"92060","section_courte":"M"}},{"type":"Feature","geometry":{"type":"MultiPolygon","coordinates":[[[[2.2702559,48.7775823],[2.2704966,48.7773336],[2.2702814,48.7772409],[2.2707504,48.7767493],[2.2711725,48.7768095],[2.2716869,48.7769678],[2.2720826,48.7771448],[2.2723304,48.7773501],[2.274389,48.776999],[2.2745542,48.7774999],[2.2747453,48.7784526],[2.275064,48.7794752],[2.2738715,48.7797615],[2.2727914,48.7791159],[2.2722475,48.778715],[2.271638,48.7781993],[2.2710933,48.7779995],[2.2708769,48.7779598],[2.2705697,48.7779769],[2.2701012,48.7777379],[2.2702559,48.7775823]]]]},"properties":{"code_section":"920600000N","code_commune":"92060","section_courte":"N"}},{"type":"Feature","geometry":{"type":"MultiPolygon","coordinates":[[[[2.2701795,48.7777614],[2.2705697,48.7779769],[2.269757,48.7781282],[2.2694535,48.7781174],[2.2670389,48.777199],[2.2664732,48.7769513],[2.265795,48.7761647],[2.2651742,48.776042],[2.2659532,48.7755527],[2.2659283,48.7755351],[2.266316,48.7752929],[2.266377,48.7752102],[2.2664494,48.7752561],[2.2672254,48.7752758],[2.2670778,48.7756852],[2.2671229,48.7757771],[2.267298,48.7759163],[2.2672433,48.7761464],[2.2674416,48.7764783],[2.2680848,48.7762219],[2.2693245,48.7759678],[2.2694901,48.7762426],[2.2696842,48.7764431],[2.2700364,48.7766193],[2.270289,48.7766859],[2.2707504,48.7767493],[2.2702814,48.7772409],[2.2704966,48.7773336],[2.2701012,48.7777379],[2.2701795,48.7777614]]]]},"properties":{"code_section":"920600000O","code_commune":"92060","section_courte":"O"}},{"type":"Feature","geometry":{"type":"MultiPolygon","coordinates":[[[[2.2654779,48.7752175],[2.2659532,48.7755527],[2.2651742,48.776042],[2.265795,48.7761647],[2.2664732,48.7769513],[2.2673089,48.7773043],[2.2669152,48.7774346],[2.2667198,48.7775724],[2.2637255,48.7782558],[2.2631331,48.7755955],[2.2633828,48.7756507],[2.2638004,48.7746013],[2.2643105,48.7745908],[2.2643977,48.7746808],[2.2642868,48.7749351],[2.2645596,48.7749956],[2.2647324,48.7748538],[2.2649661,48.7750476],[2.2650986,48.77495],[2.2654779,48.7752175]]]]},"properties":{"code_section":"920600000P","code_commune":"92060","section_courte":"P"}},{"type":"Feature","geometry":{"type":"MultiPolygon","coordinates":[[[[2.2629677,48.775561],[2.2631331,48.7755955],[2.2637255,48.7782558],[2.2605114,48.7789674],[2.2587253,48.7777233],[2.262437,48.775387],[2.2626997,48.7754944],[2.2629677,48.775561]]]]},"properties":{"code_section":"920600000Q","code_commune":"92060","section_courte":"Q"}},{"type":"Feature","geometry":{"type":"MultiPolygon","coordinates":[[[[2.2564917,48.7732421],[2.2565878,48.7732429],[2.2564319,48.7730699],[2.2564672,48.7730522],[2.2572307,48.7733232],[2.2577678,48.7732053],[2.2585055,48.7731903],[2.2592087,48.7731262],[2.2599877,48.7732579],[2.2638004,48.7746013],[2.2633828,48.7756507],[2.2626997,48.7754944],[2.262437,48.775387],[2.2587253,48.7777233],[2.2513542,48.7725953],[2.2523436,48.7725957],[2.254063,48.7727526],[2.2541268,48.7730256],[2.2557153,48.7730497],[2.2557072,48.7732376],[2.2564917,48.7732421]]]]},"properties":{"code_section":"920600000R","code_commune":"92060","section_courte":"R"}},{"type":"Feature","geometry":{"type":"MultiPolygon","coordinates":[[[[2.261026,48.7824066],[2.2561688,48.7822634],[2.2545164,48.777495],[2.2542314,48.7774028],[2.2563455,48.7760654],[2.2605114,48.7789674],[2.2614505,48.7795812],[2.260845,48.7795885],[2.2603781,48.7796681],[2.2601262,48.7797878],[2.2599988,48.7799748],[2.260027,48.7806062],[2.2603316,48.7811774],[2.260877,48.7819409],[2.261026,48.7824066]]]]},"properties":{"code_section":"920600000S","code_commune":"92060","section_courte":"S"}},{"type":"Feature","geometry":{"type":"MultiPolygon","coordinates":[[[[2.2503948,48.7845008],[2.2485291,48.7826686],[2.2489436,48.782542],[2.2492519,48.7824838],[2.251166,48.7823068],[2.253156,48.7821744],[2.2589709,48.7823461],[2.2588699,48.7834966],[2.2587289,48.7861782],[2.2567792,48.7855091],[2.254525,48.7848663],[2.2528818,48.7845904],[2.2518774,48.784478],[2.2506529,48.7844981],[2.2505716,48.7846794],[2.2503948,48.7845008]]]]},"properties":{"code_section":"920600000T","code_commune":"92060","section_courte":"T"}},{"type":"Feature","geometry":{"type":"MultiPolygon","coordinates":[[[[2.2555527,48.7806687],[2.2556124,48.7806565],[2.2561688,48.7822634],[2.253156,48.7821744],[2.2507223,48.7823423],[2.2490401,48.7825237],[2.249009,48.7824252],[2.2506409,48.7817474],[2.2510494,48.7816102],[2.2555527,48.7806687]]]]},"properties":{"code_section":"920600000U","code_commune":"92060","section_courte":"U"}},{"type":"Feature","geometry":{"type":"MultiPolygon","coordinates":[[[[2.2500931,48.7819762],[2.249009,48.7824252],[2.2490401,48.7825237],[2.2485031,48.7826801],[2.2468188,48.7803421],[2.2465927,48.7799359],[2.2463316,48.7791157],[2.2462954,48.7791209],[2.2452759,48.7754428],[2.2473045,48.7752768],[2.2473474,48.7754729],[2.2484761,48.775798],[2.2500403,48.7761451],[2.2500759,48.7762848],[2.2513452,48.7760504],[2.2514553,48.7762487],[2.2516861,48.7764731],[2.252263,48.7767737],[2.2545164,48.777495],[2.2556124,48.7806565],[2.2514784,48.7815025],[2.2506409,48.7817474],[2.2500931,48.7819762]]]]},"properties":{"code_section":"920600000V","code_commune":"92060","section_courte":"V"}},{"type":"Feature","geometry":{"type":"MultiPolygon","coordinates":[[[[2.2454219,48.7754307],[2.2452759,48.7754428],[2.2448281,48.7737262],[2.244978,48.7728476],[2.24632,48.7727162],[2.2464777,48.773516],[2.2490888,48.7731264],[2.2496953,48.7730671],[2.2501967,48.7729751],[2.2513542,48.7725953],[2.2563455,48.7760654],[2.2542314,48.7774028],[2.252263,48.7767737],[2.2516861,48.7764731],[2.2514553,48.7762487],[2.2513452,48.7760504],[2.2500759,48.7762848],[2.2500403,48.7761451],[2.2484761,48.775798],[2.2473474,48.7754729],[2.2473045,48.7752768],[2.2454219,48.7754307]]]]},"properties":{"code_section":"920600000X","code_commune":"92060","section_courte":"X"}},{"type":"Feature","geometry":{"type":"MultiPolygon","coordinates":[[[[2.2461932,48.7791338],[2.2402171,48.7798496],[2.2392033,48.7762501],[2.2406649,48.7760756],[2.2403047,48.7747634],[2.2376857,48.7762807],[2.2374498,48.7762973],[2.237165,48.7758193],[2.2372405,48.7755439],[2.2364814,48.7749499],[2.236826,48.773726],[2.2372276,48.7736296],[2.2374595,48.7736417],[2.2382244,48.7738128],[2.2385138,48.7737811],[2.2387374,48.7732228],[2.2390236,48.7732636],[2.2391957,48.7726619],[2.2406482,48.7730441],[2.240995,48.7730776],[2.2420586,48.7730618],[2.2419187,48.7738318],[2.2426857,48.773387],[2.2438381,48.7730697],[2.2444231,48.7729919],[2.244951,48.7728005],[2.2449415,48.7728505],[2.244978,48.7728476],[2.2448281,48.7737262],[2.2462954,48.7791209],[2.2461932,48.7791338]]]]},"properties":{"code_section":"920600000Y","code_commune":"92060","section_courte":"Y"}}]}