{"type":"FeatureCollection","features":[{"type":"Feature","geometry":{"type":"MultiPolygon","coordinates":[[[[2.1590601,48.8598184],[2.1592666,48.8600441],[2.1575383,48.8607593],[2.15124,48.8565348],[2.1506584,48.856226],[2.1542506,48.8533174],[2.1543635,48.8527786],[2.1544777,48.8526921],[2.1544733,48.8527634],[2.154585,48.852762],[2.1545897,48.8526101],[2.1591678,48.8492447],[2.159171,48.8490717],[2.159276,48.8487189],[2.1592854,48.8484776],[2.1593674,48.8482174],[2.1594366,48.8481219],[2.1600497,48.8476849],[2.1601359,48.8476733],[2.1607359,48.8477742],[2.1647894,48.848552],[2.1648699,48.8486029],[2.1654338,48.8487022],[2.1666431,48.849098],[2.1681136,48.8494786],[2.1692574,48.8496896],[2.1713412,48.8497792],[2.1735854,48.8501431],[2.1765975,48.8516483],[2.1747687,48.8544796],[2.1712354,48.8617961],[2.1711272,48.8617839],[2.17064,48.8619238],[2.170056,48.8611593],[2.1689483,48.8617699],[2.168365,48.8619412],[2.1682704,48.8619172],[2.1678527,48.8617453],[2.1671458,48.8612441],[2.1668381,48.8605059],[2.1648297,48.8602724],[2.1643825,48.8602439],[2.1639617,48.8599747],[2.163134,48.8591471],[2.1629287,48.8592924],[2.1624238,48.8592354],[2.1618325,48.8591111],[2.1616578,48.8592567],[2.1607115,48.8586869],[2.15909,48.8595313],[2.1589833,48.8597111],[2.1590601,48.8598184]]]]},"properties":{"code_section":"920630000H","code_commune":"92063","section_courte":"H"}},{"type":"Feature","geometry":{"type":"MultiPolygon","coordinates":[[[[2.1764366,48.8915093],[2.1770388,48.8916142],[2.1761264,48.8919781],[2.1693029,48.8958295],[2.1683507,48.8950785],[2.1676665,48.8944094],[2.1673517,48.893807],[2.1670846,48.8930104],[2.166703,48.8922452],[2.1663837,48.8917742],[2.1657245,48.8910525],[2.1647256,48.8902099],[2.1644338,48.8899007],[2.1651866,48.8898169],[2.1654482,48.8900508],[2.1656781,48.8898065],[2.1657763,48.8897963],[2.1661856,48.8894628],[2.167414,48.8901082],[2.1678533,48.8897524],[2.1685865,48.8901433],[2.1764366,48.8915093]]]]},"properties":{"code_section":"92063000AB","code_commune":"92063","section_courte":"AB"}},{"type":"Feature","geometry":{"type":"MultiPolygon","coordinates":[[[[2.1764366,48.8915093],[2.1685865,48.8901433],[2.1678533,48.8897524],[2.167414,48.8901082],[2.1667374,48.8897436],[2.1682216,48.8885373],[2.1700168,48.8869946],[2.1704787,48.8869133],[2.1704952,48.8866769],[2.1806378,48.890111],[2.180032,48.8904243],[2.1770388,48.8916142],[2.1764366,48.8915093]]]]},"properties":{"code_section":"92063000AC","code_commune":"92063","section_courte":"AC"}},{"type":"Feature","geometry":{"type":"MultiPolygon","coordinates":[[[[2.1789111,48.8895266],[2.1704952,48.8866769],[2.1715976,48.8857367],[2.17631,48.8828382],[2.1800175,48.8855196],[2.17952,48.8871316],[2.1825529,48.8873866],[2.1839078,48.888432],[2.1806378,48.890111],[2.1789111,48.8895266]]]]},"properties":{"code_section":"92063000AD","code_commune":"92063","section_courte":"AD"}},{"type":"Feature","geometry":{"type":"MultiPolygon","coordinates":[[[[2.1856831,48.8875336],[2.1839078,48.888432],[2.1825529,48.8873866],[2.17952,48.8871316],[2.1800175,48.8855196],[2.17631,48.8828382],[2.1786306,48.8814077],[2.180652,48.8798969],[2.1814859,48.8801946],[2.1812851,48.8804153],[2.1823695,48.8810737],[2.1837248,48.881969],[2.184547,48.8825282],[2.1855872,48.8833208],[2.1894021,48.8856242],[2.1856831,48.8875336]]]]},"properties":{"code_section":"92063000AE","code_commune":"92063","section_courte":"AE"}},{"type":"Feature","geometry":{"type":"MultiPolygon","coordinates":[[[[2.1939371,48.8830189],[2.1921098,48.8840258],[2.1923566,48.8841144],[2.1894021,48.8856242],[2.1855872,48.8833208],[2.184547,48.8825282],[2.1837248,48.881969],[2.1823695,48.8810737],[2.1812851,48.8804153],[2.1814859,48.8801946],[2.1843923,48.8812435],[2.1867812,48.8784271],[2.1866405,48.8777216],[2.1874514,48.8780901],[2.1886178,48.8787882],[2.1894407,48.8789651],[2.1901324,48.8794631],[2.1895409,48.8799447],[2.1918666,48.8813717],[2.1920786,48.8812201],[2.1932357,48.8818414],[2.1935302,48.8820545],[2.1941834,48.8828765],[2.1939371,48.8830189]]]]},"properties":{"code_section":"92063000AH","code_commune":"92063","section_courte":"AH"}},{"type":"Feature","geometry":{"type":"MultiPolygon","coordinates":[[[[2.1992547,48.8799524],[2.1941834,48.8828765],[2.1935302,48.8820545],[2.1932357,48.8818414],[2.1920786,48.8812201],[2.1918666,48.8813717],[2.1895409,48.8799447],[2.1901324,48.8794631],[2.1894407,48.8789651],[2.1896753,48.8790112],[2.1906883,48.8786912],[2.1917445,48.8785319],[2.1934785,48.8784039],[2.1945764,48.8781181],[2.1954088,48.8779495],[2.1972641,48.8777641],[2.1978728,48.8776626],[2.1981823,48.8775835],[2.1989769,48.8772363],[2.2008842,48.8763429],[2.2018509,48.8769992],[2.2030031,48.8775202],[2.2001978,48.8793867],[2.1992547,48.8799524]]]]},"properties":{"code_section":"92063000AI","code_commune":"92063","section_courte":"AI"}},{"type":"Feature","geometry":{"type":"MultiPolygon","coordinates":[[[[2.2030553,48.8774821],[2.2030031,48.8775202],[2.2018509,48.8769992],[2.2008842,48.8763429],[2.1989769,48.8772363],[2.1965007,48.8748365],[2.1947865,48.8727521],[2.2030127,48.8713209],[2.2033164,48.8714805],[2.2055027,48.8727834],[2.2051395,48.8730962],[2.2057183,48.8733511],[2.2069587,48.8737842],[2.2077592,48.8742289],[2.2063099,48.8753205],[2.2047452,48.8763145],[2.2030553,48.8774821]]]]},"properties":{"code_section":"92063000AK","code_commune":"92063","section_courte":"AK"}},{"type":"Feature","geometry":{"type":"MultiPolygon","coordinates":[[[[2.2068074,48.873694],[2.2069587,48.8737842],[2.2057183,48.8733511],[2.2051395,48.8730962],[2.2055027,48.8727834],[2.2033164,48.8714805],[2.2037814,48.8711927],[2.2047127,48.8703974],[2.2055915,48.8695266],[2.2057148,48.8692292],[2.2057372,48.8688801],[2.2056497,48.8685729],[2.2054775,48.8683021],[2.2064185,48.867841],[2.2081655,48.8670648],[2.208348,48.8670955],[2.2086077,48.8673544],[2.2091497,48.8670918],[2.2099131,48.8668439],[2.2105212,48.8667533],[2.2114133,48.8666973],[2.211213,48.8681093],[2.2112217,48.8684893],[2.2112999,48.8687899],[2.2116559,48.8693629],[2.211873,48.8696018],[2.2122439,48.8698766],[2.2123706,48.8699043],[2.2129451,48.8704082],[2.2132793,48.8706495],[2.2109085,48.8699699],[2.2107867,48.8700137],[2.209302,48.8716817],[2.2087304,48.8718649],[2.2083078,48.8724641],[2.2068074,48.873694]]]]},"properties":{"code_section":"92063000AL","code_commune":"92063","section_courte":"AL"}},{"type":"Feature","geometry":{"type":"MultiPolygon","coordinates":[[[[2.2091327,48.8670577],[2.2091497,48.8670918],[2.2086077,48.8673544],[2.208348,48.8670955],[2.2081655,48.8670648],[2.2064185,48.867841],[2.2054775,48.8683021],[2.2056497,48.8685729],[2.2057372,48.8688801],[2.2057148,48.8692292],[2.2055915,48.8695266],[2.2047127,48.8703974],[2.2037814,48.8711927],[2.2033164,48.8714805],[2.2030127,48.8713209],[2.2008962,48.8716879],[2.1996056,48.8701448],[2.1983001,48.8687976],[2.1979058,48.8693158],[2.1977483,48.8692899],[2.1964062,48.8676863],[2.1974469,48.86754],[2.2005919,48.8667093],[2.2013356,48.8664945],[2.2020438,48.8661874],[2.2034877,48.8654179],[2.2046098,48.8651273],[2.2069667,48.8646788],[2.2074376,48.8645435],[2.2077653,48.8644069],[2.2082786,48.865346],[2.2091327,48.8670577]]]]},"properties":{"code_section":"92063000AM","code_commune":"92063","section_courte":"AM"}},{"type":"Feature","geometry":{"type":"MultiPolygon","coordinates":[[[[2.1979058,48.8693158],[2.1983001,48.8687976],[2.1996056,48.8701448],[2.2008962,48.8716879],[2.1937099,48.87294],[2.1917618,48.8734541],[2.190969,48.8735541],[2.190055,48.8735924],[2.1893792,48.8736713],[2.1907839,48.8730323],[2.1884019,48.8705632],[2.1893697,48.8703254],[2.1887161,48.86865],[2.1923594,48.8680936],[2.1964062,48.8676863],[2.1977483,48.8692899],[2.1979058,48.8693158]]]]},"properties":{"code_section":"92063000AN","code_commune":"92063","section_courte":"AN"}},{"type":"Feature","geometry":{"type":"MultiPolygon","coordinates":[[[[2.1866405,48.8777216],[2.1865362,48.877163],[2.1878805,48.8760848],[2.1888939,48.8764516],[2.1895089,48.8758857],[2.1896152,48.8759257],[2.1907147,48.8749695],[2.1904285,48.8747647],[2.1892264,48.8737394],[2.1893792,48.8736713],[2.190055,48.8735924],[2.190969,48.8735541],[2.1917618,48.8734541],[2.1937099,48.87294],[2.1947865,48.8727521],[2.1965007,48.8748365],[2.1989769,48.8772363],[2.1981823,48.8775835],[2.1978728,48.8776626],[2.1972641,48.8777641],[2.1954088,48.8779495],[2.1945764,48.8781181],[2.1934785,48.8784039],[2.1917445,48.8785319],[2.1906883,48.8786912],[2.1896753,48.8790112],[2.1886178,48.8787882],[2.1874514,48.8780901],[2.1866405,48.8777216]]]]},"properties":{"code_section":"92063000AO","code_commune":"92063","section_courte":"AO"}},{"type":"Feature","geometry":{"type":"MultiPolygon","coordinates":[[[[2.1862229,48.8691152],[2.1866863,48.868976],[2.1887161,48.86865],[2.1893697,48.8703254],[2.1884019,48.8705632],[2.1907839,48.8730323],[2.1892264,48.8737394],[2.1904285,48.8747647],[2.1907147,48.8749695],[2.1896152,48.8759257],[2.1895089,48.8758857],[2.1888939,48.8764516],[2.1878805,48.8760848],[2.1867025,48.8770345],[2.185785,48.8763162],[2.1856294,48.8762514],[2.1837389,48.874711],[2.1824589,48.8732577],[2.1826672,48.8726172],[2.1843099,48.8705059],[2.1847372,48.8701127],[2.1862229,48.8691152]]]]},"properties":{"code_section":"92063000AP","code_commune":"92063","section_courte":"AP"}},{"type":"Feature","geometry":{"type":"MultiPolygon","coordinates":[[[[2.185785,48.8763162],[2.1867025,48.8770345],[2.1865362,48.877163],[2.1867812,48.8784271],[2.1843923,48.8812435],[2.1775966,48.878796],[2.1783534,48.8781473],[2.1785117,48.878224],[2.1793026,48.877546],[2.1791855,48.8774572],[2.1807216,48.8760622],[2.1810524,48.8753153],[2.1810283,48.8745651],[2.1811106,48.8743287],[2.1813952,48.8738234],[2.1816232,48.8735923],[2.1824589,48.8732577],[2.1837389,48.874711],[2.1856294,48.8762514],[2.185785,48.8763162]]]]},"properties":{"code_section":"92063000AR","code_commune":"92063","section_courte":"AR"}},{"type":"Feature","geometry":{"type":"MultiPolygon","coordinates":[[[[2.1712392,48.8764924],[2.180652,48.8798969],[2.1786306,48.8814077],[2.1751025,48.8835747],[2.170861,48.8813461],[2.1699076,48.8806583],[2.1688982,48.8797444],[2.1680706,48.8799312],[2.1678468,48.8796076],[2.1674623,48.8788982],[2.1674349,48.8786673],[2.167533,48.8784699],[2.1676213,48.8783802],[2.1685825,48.8777908],[2.1676069,48.8772178],[2.1676578,48.8771794],[2.1673935,48.8770308],[2.1682977,48.8763617],[2.1683912,48.8764159],[2.1694359,48.8756091],[2.1712392,48.8764924]]]]},"properties":{"code_section":"92063000AS","code_commune":"92063","section_courte":"AS"}},{"type":"Feature","geometry":{"type":"MultiPolygon","coordinates":[[[[2.170861,48.8813461],[2.1751025,48.8835747],[2.1715976,48.8857367],[2.1707815,48.8864328],[2.1686726,48.884592],[2.1653474,48.880546],[2.1688982,48.8797444],[2.1699076,48.8806583],[2.170861,48.8813461]]]]},"properties":{"code_section":"92063000AT","code_commune":"92063","section_courte":"AT"}},{"type":"Feature","geometry":{"type":"MultiPolygon","coordinates":[[[[2.1618308,48.8813787],[2.1653474,48.880546],[2.1686726,48.884592],[2.1707815,48.8864328],[2.1704952,48.8866769],[2.1704787,48.8869133],[2.1700168,48.8869946],[2.1682216,48.8885373],[2.1667374,48.8897436],[2.1661856,48.8894628],[2.1657763,48.8897963],[2.1656781,48.8898065],[2.1654482,48.8900508],[2.1651866,48.8898169],[2.1644338,48.8899007],[2.1637453,48.8891054],[2.1633856,48.8885816],[2.1632627,48.888316],[2.1629976,48.8874785],[2.1629757,48.8870303],[2.1630822,48.8864883],[2.1633492,48.8857005],[2.1635961,48.8847363],[2.1636358,48.8841576],[2.1636115,48.883769],[2.1635048,48.8833956],[2.1632729,48.8829183],[2.1628625,48.8824395],[2.1625405,48.8821816],[2.1620532,48.8818949],[2.1611542,48.8815377],[2.1618308,48.8813787]]]]},"properties":{"code_section":"92063000AV","code_commune":"92063","section_courte":"AV"}},{"type":"Feature","geometry":{"type":"MultiPolygon","coordinates":[[[[2.1676578,48.8771794],[2.1676069,48.8772178],[2.1685825,48.8777908],[2.1676213,48.8783802],[2.167533,48.8784699],[2.1674349,48.8786673],[2.1674623,48.8788982],[2.1678468,48.8796076],[2.1680706,48.8799312],[2.1611542,48.8815377],[2.1585579,48.8807203],[2.1581515,48.8804703],[2.1577384,48.8800611],[2.1565965,48.8784726],[2.1612216,48.8768804],[2.1612875,48.876925],[2.1676384,48.8747307],[2.1694359,48.8756091],[2.1683912,48.8764159],[2.1682977,48.8763617],[2.1673935,48.8770308],[2.1676578,48.8771794]]]]},"properties":{"code_section":"92063000AW","code_commune":"92063","section_courte":"AW"}},{"type":"Feature","geometry":{"type":"MultiPolygon","coordinates":[[[[2.1780475,48.8744485],[2.1781206,48.8734399],[2.181435,48.8734821],[2.1816232,48.8735923],[2.1813952,48.8738234],[2.1811106,48.8743287],[2.1810283,48.8745651],[2.1810524,48.8753153],[2.1807216,48.8760622],[2.1791855,48.8774572],[2.1793026,48.877546],[2.1785117,48.878224],[2.1783534,48.8781473],[2.1775966,48.878796],[2.1712392,48.8764924],[2.1683412,48.8750725],[2.1684974,48.8749417],[2.1700958,48.8743365],[2.1761839,48.8749612],[2.1766132,48.8750178],[2.1775089,48.875195],[2.1780475,48.8744485]]]]},"properties":{"code_section":"92063000AX","code_commune":"92063","section_courte":"AX"}},{"type":"Feature","geometry":{"type":"MultiPolygon","coordinates":[[[[2.1782118,48.8725237],[2.1780475,48.8744485],[2.1775089,48.875195],[2.1766132,48.8750178],[2.1761839,48.8749612],[2.1700958,48.8743365],[2.1700416,48.874357],[2.168964,48.8733718],[2.1693629,48.8719614],[2.1693709,48.8716086],[2.1691133,48.8705318],[2.1699584,48.8695862],[2.1700796,48.8695152],[2.1708616,48.8695526],[2.1716264,48.8694108],[2.1727839,48.8693205],[2.173092,48.8692664],[2.1738011,48.8704578],[2.1743908,48.8708961],[2.1762547,48.8717364],[2.1774004,48.8721639],[2.1782118,48.8725237]]]]},"properties":{"code_section":"92063000AY","code_commune":"92063","section_courte":"AY"}},{"type":"Feature","geometry":{"type":"MultiPolygon","coordinates":[[[[2.1841266,48.8706126],[2.1841973,48.8706432],[2.1826672,48.8726172],[2.1824589,48.8732577],[2.1816232,48.8735923],[2.181435,48.8734821],[2.1781206,48.8734399],[2.1782118,48.8725237],[2.1774004,48.8721639],[2.1762547,48.8717364],[2.1743908,48.8708961],[2.1738011,48.8704578],[2.173092,48.8692664],[2.174176,48.8687874],[2.1756578,48.8676217],[2.1809731,48.8696872],[2.1810649,48.8695231],[2.1811453,48.8695219],[2.182933,48.8701554],[2.1830106,48.8702655],[2.1831293,48.8702843],[2.1832181,48.8702555],[2.1841068,48.8705715],[2.1841266,48.8706126]]]]},"properties":{"code_section":"92063000AZ","code_commune":"92063","section_courte":"AZ"}},{"type":"Feature","geometry":{"type":"MultiPolygon","coordinates":[[[[2.1860357,48.8682026],[2.1866863,48.868976],[2.1862229,48.8691152],[2.1847372,48.8701127],[2.1844746,48.8703282],[2.1841973,48.8706432],[2.1841068,48.8705715],[2.1832181,48.8702555],[2.1831293,48.8702843],[2.1830106,48.8702655],[2.182933,48.8701554],[2.1811453,48.8695219],[2.1810649,48.8695231],[2.1809731,48.8696872],[2.1756578,48.8676217],[2.1787791,48.8651837],[2.1794385,48.8647463],[2.1842201,48.8664479],[2.1844447,48.8664745],[2.1847171,48.8664354],[2.1848476,48.8667206],[2.1851129,48.8670768],[2.1860357,48.8682026]]]]},"properties":{"code_section":"92063000BC","code_commune":"92063","section_courte":"BC"}},{"type":"Feature","geometry":{"type":"MultiPolygon","coordinates":[[[[2.1923392,48.8656869],[2.1930834,48.8680316],[2.1923594,48.8680936],[2.1866863,48.868976],[2.1848476,48.8667206],[2.1846743,48.8662827],[2.1845204,48.8653644],[2.1855331,48.8652827],[2.1861806,48.8651818],[2.1864947,48.8649146],[2.1880584,48.8648611],[2.1896286,48.8642033],[2.1908943,48.8632767],[2.191901,48.8630682],[2.1923392,48.8656869]]]]},"properties":{"code_section":"92063000BD","code_commune":"92063","section_courte":"BD"}},{"type":"Feature","geometry":{"type":"MultiPolygon","coordinates":[[[[2.1924853,48.8661472],[2.1923392,48.8656869],[2.191901,48.8630682],[2.1997653,48.8613985],[2.2020438,48.8661874],[2.2013356,48.8664945],[2.1974469,48.86754],[2.1964062,48.8676863],[2.1930834,48.8680316],[2.1924853,48.8661472]]]]},"properties":{"code_section":"92063000BE","code_commune":"92063","section_courte":"BE"}},{"type":"Feature","geometry":{"type":"MultiPolygon","coordinates":[[[[2.1987951,48.8553679],[2.1988365,48.8553551],[2.2007631,48.8570368],[2.2012609,48.857328],[2.2018224,48.8575051],[2.2025416,48.8584458],[2.2036055,48.8605968],[2.1962807,48.8621443],[2.1943435,48.8589591],[2.1960619,48.858506],[2.1958457,48.8581275],[2.1975924,48.8576908],[2.1966763,48.8560953],[2.1967301,48.8560815],[2.196761,48.8561338],[2.1968427,48.8561127],[2.1967928,48.8560261],[2.1987951,48.8553679]]]]},"properties":{"code_section":"92063000BH","code_commune":"92063","section_courte":"BH"}},{"type":"Feature","geometry":{"type":"MultiPolygon","coordinates":[[[[2.1947094,48.8595609],[2.1962807,48.8621443],[2.1908943,48.8632767],[2.1903617,48.8598262],[2.1898188,48.85905],[2.1897633,48.8587413],[2.190087,48.8578094],[2.1903173,48.8573094],[2.1908547,48.8571031],[2.1911782,48.8570232],[2.1924533,48.8568293],[2.1930028,48.8567068],[2.1936905,48.8564556],[2.1941182,48.8562341],[2.1945817,48.8559242],[2.1951135,48.8556686],[2.1961365,48.8553053],[2.1978892,48.8547485],[2.1985905,48.855108],[2.198892,48.8553343],[2.1967928,48.8560261],[2.1968427,48.8561127],[2.196761,48.8561338],[2.1967301,48.8560815],[2.1966763,48.8560953],[2.1975924,48.8576908],[2.1958457,48.8581275],[2.1960619,48.858506],[2.1943435,48.8589591],[2.1947094,48.8595609]]]]},"properties":{"code_section":"92063000BI","code_commune":"92063","section_courte":"BI"}},{"type":"Feature","geometry":{"type":"MultiPolygon","coordinates":[[[[2.1905421,48.8610286],[2.1908943,48.8632767],[2.1896286,48.8642033],[2.1880584,48.8648611],[2.1864947,48.8649146],[2.1861806,48.8651818],[2.1855331,48.8652827],[2.1845204,48.8653644],[2.1844638,48.8650402],[2.1835934,48.8627664],[2.1835511,48.8625335],[2.1836322,48.8622903],[2.1833192,48.8593963],[2.1848776,48.8590885],[2.1879916,48.8585817],[2.1895087,48.8586088],[2.1897633,48.8587413],[2.1898188,48.85905],[2.1903617,48.8598262],[2.1905421,48.8610286]]]]},"properties":{"code_section":"92063000BK","code_commune":"92063","section_courte":"BK"}},{"type":"Feature","geometry":{"type":"MultiPolygon","coordinates":[[[[2.1823052,48.859455],[2.1833174,48.8592598],[2.1836322,48.8622903],[2.1835511,48.8625335],[2.1835934,48.8627664],[2.1844638,48.8650402],[2.1847171,48.8664354],[2.1844447,48.8664745],[2.1842201,48.8664479],[2.1804504,48.8651193],[2.1794385,48.8647463],[2.1793049,48.8646632],[2.1787972,48.8635233],[2.1780618,48.8621777],[2.1772065,48.8604639],[2.1823052,48.859455]]]]},"properties":{"code_section":"92063000BL","code_commune":"92063","section_courte":"BL"}},{"type":"Feature","geometry":{"type":"MultiPolygon","coordinates":[[[[2.1736939,48.8657287],[2.1715633,48.8633073],[2.172148,48.863011],[2.1739535,48.8622948],[2.1742193,48.8625367],[2.1759638,48.8618936],[2.1766208,48.8615682],[2.1775996,48.8612514],[2.1787972,48.8635233],[2.1793049,48.8646632],[2.1794385,48.8647463],[2.1787791,48.8651837],[2.1756077,48.8676683],[2.1744507,48.8665942],[2.1736939,48.8657287]]]]},"properties":{"code_section":"92063000BM","code_commune":"92063","section_courte":"BM"}},{"type":"Feature","geometry":{"type":"MultiPolygon","coordinates":[[[[2.1715171,48.8656566],[2.1729945,48.8649379],[2.1744507,48.8665942],[2.1756077,48.8676683],[2.174176,48.8687874],[2.173092,48.8692664],[2.1727839,48.8693205],[2.1716264,48.8694108],[2.1708616,48.8695526],[2.1700796,48.8695152],[2.1699584,48.8695862],[2.1691836,48.8704389],[2.1684278,48.8701666],[2.1674617,48.8699003],[2.1664976,48.8695855],[2.1631183,48.868269],[2.1630035,48.8683375],[2.1626345,48.8675588],[2.1626257,48.8672067],[2.1637056,48.8672008],[2.1636858,48.8664263],[2.1639316,48.8664177],[2.1639274,48.8663154],[2.1640752,48.8663174],[2.1641072,48.866276],[2.1640813,48.8662294],[2.1649123,48.866218],[2.1649457,48.8658149],[2.1654304,48.8657067],[2.1668013,48.8651513],[2.1671798,48.8656038],[2.1684007,48.8668363],[2.1687815,48.8671804],[2.1692026,48.8674267],[2.1705054,48.8669025],[2.170416,48.8662047],[2.1710109,48.8658815],[2.1715171,48.8656566]]]]},"properties":{"code_section":"92063000BN","code_commune":"92063","section_courte":"BN"}},{"type":"Feature","geometry":{"type":"MultiPolygon","coordinates":[[[[2.1615821,48.8697208],[2.1629798,48.8684721],[2.1630035,48.8683375],[2.1631183,48.868269],[2.1664976,48.8695855],[2.1674617,48.8699003],[2.1684278,48.8701666],[2.1691836,48.8704389],[2.1691133,48.8705318],[2.1693709,48.8716086],[2.1693629,48.8719614],[2.168964,48.8733718],[2.1700416,48.874357],[2.1684974,48.8749417],[2.1683412,48.8750725],[2.1600818,48.8710713],[2.1615821,48.8697208]]]]},"properties":{"code_section":"92063000BO","code_commune":"92063","section_courte":"BO"}},{"type":"Feature","geometry":{"type":"MultiPolygon","coordinates":[[[[2.1612216,48.8768804],[2.1565965,48.8784726],[2.1559064,48.8776227],[2.1547123,48.8758017],[2.1537182,48.8744789],[2.1544535,48.8742425],[2.1564736,48.8725522],[2.1567629,48.8726738],[2.1573685,48.8721933],[2.1573154,48.8721703],[2.157492,48.872092],[2.1576965,48.8721981],[2.1593555,48.8707224],[2.1676384,48.8747307],[2.1612875,48.876925],[2.1612216,48.8768804]]]]},"properties":{"code_section":"92063000BP","code_commune":"92063","section_courte":"BP"}},{"type":"Feature","geometry":{"type":"MultiPolygon","coordinates":[[[[2.1542092,48.874321],[2.1537182,48.8744789],[2.1527422,48.873117],[2.1518725,48.8721675],[2.1503019,48.8707736],[2.1497125,48.8702958],[2.1492289,48.8699565],[2.1487528,48.8696775],[2.1480126,48.8693019],[2.1481956,48.8689592],[2.1483009,48.8688378],[2.1484749,48.8684353],[2.1521375,48.8682306],[2.1522615,48.8682446],[2.1567423,48.869525],[2.1572738,48.8697147],[2.1593555,48.8707224],[2.1576965,48.8721981],[2.157492,48.872092],[2.1573154,48.8721703],[2.1573685,48.8721933],[2.1567629,48.8726738],[2.1564736,48.8725522],[2.1544535,48.8742425],[2.1542092,48.874321]]]]},"properties":{"code_section":"92063000BR","code_commune":"92063","section_courte":"BR"}},{"type":"Feature","geometry":{"type":"MultiPolygon","coordinates":[[[[2.1626226,48.8670746],[2.1626345,48.8675588],[2.1630035,48.8683375],[2.1629798,48.8684721],[2.1600818,48.8710713],[2.1572738,48.8697147],[2.1573625,48.8691999],[2.1572492,48.8688907],[2.1570895,48.8687435],[2.1565512,48.8684187],[2.1558997,48.8676762],[2.1553922,48.8669195],[2.1546959,48.8664996],[2.1544196,48.865947],[2.1541627,48.8649617],[2.1537668,48.8644614],[2.1555207,48.8634512],[2.1563671,48.8626139],[2.1572045,48.8620884],[2.1591977,48.8633085],[2.1589548,48.863496],[2.1585649,48.8639872],[2.1590119,48.8642456],[2.1596042,48.8639108],[2.1601031,48.8642691],[2.1603476,48.8643902],[2.1604832,48.8644232],[2.1611565,48.8647431],[2.1622459,48.8651082],[2.1620713,48.8665394],[2.1621021,48.8670274],[2.1621088,48.8670589],[2.162622,48.8670453],[2.1626226,48.8670746]]]]},"properties":{"code_section":"92063000BS","code_commune":"92063","section_courte":"BS"}},{"type":"Feature","geometry":{"type":"MultiPolygon","coordinates":[[[[2.153196,48.8613711],[2.1528421,48.8612746],[2.1527902,48.86122],[2.1527361,48.8612422],[2.1524803,48.861172],[2.1511807,48.860589],[2.1501499,48.8595227],[2.1515376,48.8591292],[2.1510145,48.8581615],[2.1506947,48.8582038],[2.1503216,48.8580287],[2.1503968,48.857648],[2.1501383,48.8570035],[2.15124,48.8565348],[2.1575447,48.8607659],[2.1575888,48.8607475],[2.1584754,48.8615892],[2.1572045,48.8620884],[2.156987,48.862204],[2.1563671,48.8626139],[2.1555487,48.86343],[2.1550404,48.8637505],[2.1549473,48.8637579],[2.1543096,48.8634231],[2.1533053,48.8625521],[2.1531765,48.8622996],[2.1530921,48.8620081],[2.1532936,48.8614119],[2.153196,48.8613711]]]]},"properties":{"code_section":"92063000BT","code_commune":"92063","section_courte":"BT"}},{"type":"Feature","geometry":{"type":"MultiPolygon","coordinates":[[[[2.1604025,48.8643922],[2.1601674,48.8643085],[2.1596042,48.8639108],[2.1590119,48.8642456],[2.1585649,48.8639872],[2.1589548,48.863496],[2.1591977,48.8633085],[2.1572045,48.8620884],[2.1584754,48.8615892],[2.1575888,48.8607475],[2.1575383,48.8607593],[2.1592666,48.8600441],[2.1589833,48.8597111],[2.15909,48.8595313],[2.1607115,48.8586869],[2.1616578,48.8592567],[2.1618325,48.8591111],[2.1624238,48.8592354],[2.1629287,48.8592924],[2.163134,48.8591471],[2.1639617,48.8599747],[2.1643825,48.8602439],[2.1651715,48.8603091],[2.1648335,48.8613547],[2.1649839,48.8622081],[2.1652231,48.863148],[2.1667923,48.8650891],[2.1668013,48.8651513],[2.1654304,48.8657067],[2.1649457,48.8658149],[2.1649123,48.866218],[2.1640813,48.8662294],[2.1641072,48.866276],[2.1640752,48.8663174],[2.1639274,48.8663154],[2.1639316,48.8664177],[2.1636858,48.8664263],[2.1637056,48.8672008],[2.1626257,48.8672067],[2.162622,48.8670453],[2.1621088,48.8670589],[2.1621021,48.8670274],[2.1620713,48.8665394],[2.1622459,48.8651082],[2.1611565,48.8647431],[2.1604025,48.8643922]]]]},"properties":{"code_section":"92063000BV","code_commune":"92063","section_courte":"BV"}},{"type":"Feature","geometry":{"type":"MultiPolygon","coordinates":[[[[2.1711272,48.8617839],[2.1711807,48.8617902],[2.1709407,48.8624184],[2.1710223,48.8626629],[2.1729945,48.8649379],[2.1710109,48.8658815],[2.170416,48.8662047],[2.1705054,48.8669025],[2.1692026,48.8674267],[2.1687815,48.8671804],[2.1671798,48.8656038],[2.1652231,48.863148],[2.1649839,48.8622081],[2.1648335,48.8613547],[2.1651715,48.8603091],[2.1668381,48.8605059],[2.1671458,48.8612441],[2.1678527,48.8617453],[2.168365,48.8619412],[2.1689483,48.8617699],[2.170056,48.8611593],[2.17064,48.8619238],[2.1711272,48.8617839]]]]},"properties":{"code_section":"92063000BW","code_commune":"92063","section_courte":"BW"}},{"type":"Feature","geometry":{"type":"MultiPolygon","coordinates":[[[[2.1709994,48.8622893],[2.1711807,48.8617902],[2.1712354,48.8617961],[2.1714595,48.8612749],[2.1727301,48.858734],[2.1748864,48.8591687],[2.1751693,48.8598777],[2.1741329,48.8600455],[2.1742036,48.8601431],[2.1757763,48.8598923],[2.1770326,48.8595908],[2.1773268,48.8604397],[2.1772065,48.8604639],[2.1775996,48.8612514],[2.1766208,48.8615682],[2.1759638,48.8618936],[2.1742193,48.8625367],[2.1739535,48.8622948],[2.172148,48.863011],[2.1715633,48.8633073],[2.1710223,48.8626629],[2.1709407,48.8624184],[2.1709994,48.8622893]]]]},"properties":{"code_section":"92063000BX","code_commune":"92063","section_courte":"BX"}},{"type":"Feature","geometry":{"type":"MultiPolygon","coordinates":[[[[2.1746008,48.8591106],[2.1727301,48.858734],[2.1740524,48.8560079],[2.1838515,48.8545517],[2.1845443,48.8558974],[2.1846303,48.8558811],[2.1849565,48.8565844],[2.1853163,48.8576196],[2.1853515,48.8579333],[2.1834101,48.8582137],[2.1832239,48.8583595],[2.1833174,48.8592598],[2.1773268,48.8604397],[2.1770326,48.8595908],[2.1757763,48.8598923],[2.1742036,48.8601431],[2.1741329,48.8600455],[2.1751693,48.8598777],[2.1748864,48.8591687],[2.1746008,48.8591106]]]]},"properties":{"code_section":"92063000BY","code_commune":"92063","section_courte":"BY"}},{"type":"Feature","geometry":{"type":"MultiPolygon","coordinates":[[[[2.1936868,48.8555164],[2.1942667,48.8561281],[2.1936905,48.8564556],[2.1930028,48.8567068],[2.1924533,48.8568293],[2.1911782,48.8570232],[2.1908547,48.8571031],[2.1903173,48.8573094],[2.190087,48.8578094],[2.1897633,48.8587413],[2.1895087,48.8586088],[2.1879916,48.8585817],[2.1848776,48.8590885],[2.1833192,48.8593963],[2.1832239,48.8583595],[2.1834101,48.8582137],[2.1853515,48.8579333],[2.1853163,48.8576196],[2.1849565,48.8565844],[2.1846303,48.8558811],[2.1865178,48.8555314],[2.1872754,48.8554752],[2.1872923,48.8555643],[2.1893981,48.8552435],[2.1893912,48.8552227],[2.1899124,48.8551424],[2.1898703,48.8550427],[2.1906231,48.8548997],[2.1902381,48.8539973],[2.1909016,48.8537361],[2.1910025,48.8538165],[2.1912288,48.8548539],[2.1914284,48.8548214],[2.1915949,48.8548892],[2.1919186,48.8543272],[2.1920523,48.8542141],[2.1920676,48.8543382],[2.1921534,48.8544328],[2.1924584,48.8546641],[2.1929171,48.8548685],[2.1934682,48.8552922],[2.1936868,48.8555164]]]]},"properties":{"code_section":"92063000BZ","code_commune":"92063","section_courte":"BZ"}},{"type":"Feature","geometry":{"type":"MultiPolygon","coordinates":[[[[2.1847168,48.8558645],[2.1845443,48.8558974],[2.1838515,48.8545517],[2.1740524,48.8560079],[2.1747687,48.8544796],[2.1765975,48.8516483],[2.1820709,48.8515636],[2.1825992,48.8515625],[2.1826108,48.851616],[2.1843452,48.8516296],[2.1868712,48.8521985],[2.1870191,48.8522851],[2.1873025,48.8525562],[2.1899997,48.8520793],[2.1903342,48.852059],[2.1923315,48.8540476],[2.1919186,48.8543272],[2.1915949,48.8548892],[2.1914284,48.8548214],[2.1912288,48.8548539],[2.1910025,48.8538165],[2.1909016,48.8537361],[2.1902381,48.8539973],[2.1906231,48.8548997],[2.1898703,48.8550427],[2.1899124,48.8551424],[2.1893912,48.8552227],[2.1893981,48.8552435],[2.1872923,48.8555643],[2.1872754,48.8554752],[2.1865178,48.8555314],[2.1847168,48.8558645]]]]},"properties":{"code_section":"92063000CD","code_commune":"92063","section_courte":"CD"}}]}