{"type":"FeatureCollection","features":[{"type":"Feature","geometry":{"type":"MultiPolygon","coordinates":[[[[2.1992625,48.8297999],[2.2006035,48.8298799],[2.2069487,48.8288691],[2.2110545,48.8276367],[2.2131532,48.8275998],[2.2140719,48.8276651],[2.2180994,48.8274065],[2.2186126,48.8269583],[2.2184481,48.8267332],[2.2188872,48.8263674],[2.2194329,48.8266218],[2.2216563,48.8270279],[2.220838,48.8284477],[2.2216855,48.8292179],[2.2218997,48.8292169],[2.2220542,48.8293078],[2.2238232,48.8297463],[2.2228918,48.8307273],[2.222756,48.8309259],[2.2225463,48.8313108],[2.2222068,48.8325803],[2.2220817,48.8353888],[2.2240785,48.8351058],[2.2234351,48.8358538],[2.2232061,48.8361885],[2.2230703,48.8366031],[2.2228344,48.8378583],[2.2228022,48.8383378],[2.2228494,48.8388166],[2.2233301,48.8402205],[2.2233338,48.8403207],[2.221125,48.8405989],[2.2210873,48.8404596],[2.2211371,48.840453],[2.220506,48.838298],[2.2191714,48.8384612],[2.2192649,48.8385191],[2.2191895,48.8385775],[2.2192421,48.8390938],[2.2189663,48.8388321],[2.2187893,48.8389195],[2.2187137,48.8389063],[2.2184765,48.8390278],[2.2184403,48.8390928],[2.2179048,48.8391312],[2.217772,48.8392116],[2.2178383,48.8393161],[2.2178358,48.8394723],[2.2179997,48.8395393],[2.2180355,48.8398314],[2.2179096,48.8398394],[2.2179252,48.8400251],[2.2179685,48.8400535],[2.2180572,48.8400479],[2.2181505,48.8406301],[2.2180628,48.8406373],[2.2180677,48.8406739],[2.2175133,48.8407724],[2.2174467,48.8407492],[2.216986,48.8408151],[2.2145233,48.8406997],[2.2144951,48.8409009],[2.2144437,48.8408922],[2.2145488,48.8401749],[2.2090299,48.8400385],[2.2080419,48.8394517],[2.2079759,48.839448],[2.2079157,48.8393723],[2.2075403,48.8395738],[2.2074049,48.8397641],[2.2072536,48.8398325],[2.1986887,48.8396366],[2.1985989,48.8396111],[2.1970724,48.839534],[2.1961963,48.8394428],[2.1945527,48.8391605],[2.1937428,48.8389672],[2.1927353,48.8386723],[2.1886608,48.8374189],[2.1866734,48.8368524],[2.1862928,48.8364813],[2.1853065,48.8339102],[2.1807965,48.8306241],[2.184795,48.8288685],[2.1849965,48.8292278],[2.1861693,48.8288461],[2.1867236,48.8287642],[2.1875286,48.8288686],[2.1875591,48.8287741],[2.1883429,48.828944],[2.1890104,48.8292136],[2.1901131,48.8293727],[2.1910283,48.8292401],[2.1932659,48.8293793],[2.1937663,48.8296281],[2.1939631,48.8295287],[2.1939936,48.8295566],[2.1942421,48.8294244],[2.1968893,48.8298071],[2.1982695,48.8297378],[2.1992625,48.8297999]]]]},"properties":{"code_section":"920640000E","code_commune":"92064","section_courte":"E"}},{"type":"Feature","geometry":{"type":"MultiPolygon","coordinates":[[[[2.2035603,48.8605001],[2.2025416,48.8584458],[2.2018224,48.8575051],[2.2012609,48.857328],[2.2007631,48.8570368],[2.1988365,48.8553551],[2.198892,48.8553343],[2.1985905,48.855108],[2.1978892,48.8547485],[2.1997014,48.854046],[2.2009237,48.8533444],[2.2013516,48.8531465],[2.2027053,48.8526681],[2.203863,48.8522112],[2.2055133,48.8518291],[2.2058759,48.8529575],[2.2066551,48.8544182],[2.2096756,48.8568615],[2.2103203,48.8577215],[2.2110656,48.858469],[2.2115206,48.8590706],[2.2056011,48.8602882],[2.2051522,48.8603089],[2.2036218,48.8605967],[2.2035603,48.8605001]]]]},"properties":{"code_section":"92064000AB","code_commune":"92064","section_courte":"AB"}},{"type":"Feature","geometry":{"type":"MultiPolygon","coordinates":[[[[2.2163047,48.859729],[2.2163044,48.8597848],[2.2156217,48.8597171],[2.2140299,48.8593886],[2.2137876,48.8593816],[2.2136989,48.8594435],[2.2130296,48.8608668],[2.2125838,48.8616491],[2.2104047,48.8610324],[2.2095738,48.8608734],[2.207564,48.8605791],[2.2063583,48.8603656],[2.2056011,48.8602882],[2.2115206,48.8590706],[2.2110656,48.858469],[2.2103203,48.8577215],[2.2097307,48.8569215],[2.2110349,48.8568056],[2.2116922,48.8567087],[2.2120073,48.85665],[2.2134374,48.8562392],[2.2152375,48.856333],[2.2152139,48.8564427],[2.2161982,48.8564536],[2.2161701,48.8573601],[2.2163054,48.8586467],[2.2163047,48.859729]]]]},"properties":{"code_section":"92064000AC","code_commune":"92064","section_courte":"AC"}},{"type":"Feature","geometry":{"type":"MultiPolygon","coordinates":[[[[2.2228703,48.8597993],[2.2215058,48.8599645],[2.2201374,48.859948],[2.2188675,48.8598258],[2.2163044,48.8597848],[2.2163074,48.8586965],[2.2161701,48.8573601],[2.216219,48.8565011],[2.2161794,48.856485],[2.2162426,48.8564542],[2.2164179,48.8554853],[2.2165255,48.8544305],[2.2166377,48.8539372],[2.2166786,48.853934],[2.2167676,48.8533651],[2.2173623,48.8534006],[2.2194394,48.8526786],[2.224328,48.8528669],[2.2241306,48.8534659],[2.2241223,48.8541994],[2.2241579,48.8546152],[2.2243706,48.8558106],[2.2245793,48.8566317],[2.2250012,48.8579799],[2.22569,48.8594424],[2.2228703,48.8597993]]]]},"properties":{"code_section":"92064000AD","code_commune":"92064","section_courte":"AD"}},{"type":"Feature","geometry":{"type":"MultiPolygon","coordinates":[[[[2.2199466,48.8526882],[2.2198808,48.8526913],[2.2199241,48.8519365],[2.2198096,48.8511748],[2.2197228,48.8508833],[2.2193264,48.8501864],[2.2190268,48.8501355],[2.2182546,48.8501753],[2.217805,48.8501696],[2.2175376,48.8507026],[2.2170151,48.8506689],[2.2170196,48.8505428],[2.216909,48.8502941],[2.2166194,48.8456898],[2.2165531,48.845564],[2.2170352,48.8451705],[2.2169479,48.8450191],[2.2170091,48.8450026],[2.2164979,48.8442165],[2.2166871,48.844157],[2.2167771,48.8441907],[2.2169495,48.8441244],[2.2169668,48.8442168],[2.2170994,48.844407],[2.217151,48.8444096],[2.2171952,48.844815],[2.2172892,48.8449345],[2.2174578,48.844883],[2.2176028,48.8453847],[2.2178704,48.8458665],[2.2200037,48.8460005],[2.2199334,48.8463285],[2.2223406,48.8465045],[2.2224813,48.8465123],[2.2224838,48.8464881],[2.2233699,48.8465484],[2.2253981,48.8467242],[2.2255326,48.8478882],[2.2254314,48.849488],[2.2252149,48.8504018],[2.2249904,48.8511123],[2.224328,48.8528669],[2.222576,48.8528136],[2.2199466,48.8526882]]]]},"properties":{"code_section":"92064000AE","code_commune":"92064","section_courte":"AE"}},{"type":"Feature","geometry":{"type":"MultiPolygon","coordinates":[[[[2.2222631,48.8404587],[2.2233338,48.8403207],[2.2237579,48.8412956],[2.2241975,48.8425273],[2.2244135,48.8435546],[2.2252586,48.8461266],[2.2253981,48.8467242],[2.2233699,48.8465484],[2.2224838,48.8464881],[2.2224813,48.8465123],[2.2223406,48.8465045],[2.2199334,48.8463285],[2.2200037,48.8460005],[2.2178704,48.8458665],[2.2176028,48.8453847],[2.2174578,48.844883],[2.2172892,48.8449345],[2.2171952,48.844815],[2.217151,48.8444096],[2.2170994,48.844407],[2.2169668,48.8442168],[2.2169495,48.8441244],[2.2169071,48.8441255],[2.2169036,48.8437418],[2.2169022,48.8435192],[2.2169664,48.8434157],[2.2171764,48.8427069],[2.2171394,48.8420973],[2.2171688,48.841715],[2.2177459,48.8415888],[2.2175106,48.8407626],[2.2180677,48.8406739],[2.2180628,48.8406373],[2.2181505,48.8406301],[2.2180572,48.8400479],[2.2179685,48.8400535],[2.2179252,48.8400251],[2.2179096,48.8398394],[2.2180355,48.8398314],[2.2179997,48.8395393],[2.2178358,48.8394723],[2.2178383,48.8393161],[2.217772,48.8392116],[2.2179048,48.8391312],[2.2184403,48.8390928],[2.2184765,48.8390278],[2.2187137,48.8389063],[2.2187893,48.8389195],[2.2189663,48.8388321],[2.2192421,48.8390938],[2.2191895,48.8385775],[2.2192649,48.8385191],[2.2191714,48.8384612],[2.220506,48.838298],[2.2211371,48.840453],[2.2210873,48.8404596],[2.221125,48.8405989],[2.2222631,48.8404587]]]]},"properties":{"code_section":"92064000AH","code_commune":"92064","section_courte":"AH"}},{"type":"Feature","geometry":{"type":"MultiPolygon","coordinates":[[[[2.2169052,48.8439081],[2.2168974,48.8441387],[2.2167771,48.8441907],[2.2166871,48.844157],[2.2164979,48.8442165],[2.2170091,48.8450026],[2.2169479,48.8450191],[2.2170352,48.8451705],[2.2165531,48.845564],[2.2161806,48.8448911],[2.2133427,48.8455119],[2.2130181,48.8452226],[2.2125627,48.8449172],[2.2120309,48.8446608],[2.2115973,48.8445273],[2.2111457,48.8444671],[2.2081833,48.8444009],[2.2078129,48.8443589],[2.2075273,48.8442718],[2.2072947,48.8441448],[2.2071329,48.8440065],[2.2069936,48.8437955],[2.2069418,48.8436344],[2.2072264,48.8401369],[2.2068826,48.8401114],[2.2068882,48.8400637],[2.2073543,48.8401015],[2.2074221,48.8398263],[2.2072536,48.8398325],[2.2074049,48.8397641],[2.2075403,48.8395738],[2.2079157,48.8393723],[2.2079759,48.839448],[2.2080419,48.8394517],[2.2090299,48.8400385],[2.2145488,48.8401749],[2.2144437,48.8408922],[2.2144951,48.8409009],[2.2145233,48.8406997],[2.216986,48.8408151],[2.2174467,48.8407492],[2.2175133,48.8407724],[2.2177459,48.8415888],[2.2171688,48.841715],[2.2171394,48.8420973],[2.2171764,48.8427069],[2.2169664,48.8434157],[2.2169022,48.8435192],[2.2169052,48.8439081]]]]},"properties":{"code_section":"92064000AI","code_commune":"92064","section_courte":"AI"}},{"type":"Feature","geometry":{"type":"MultiPolygon","coordinates":[[[[2.2068041,48.8437185],[2.2069364,48.8435831],[2.2070168,48.843838],[2.2072142,48.844084],[2.2075035,48.8442615],[2.2078424,48.8443641],[2.2082317,48.8444028],[2.2111457,48.8444671],[2.2114178,48.8444917],[2.2117363,48.8445642],[2.2121159,48.8446967],[2.2125627,48.8449172],[2.2130181,48.8452226],[2.2133427,48.8455119],[2.2161813,48.8448914],[2.2166194,48.8456898],[2.216909,48.8502941],[2.2168408,48.8502175],[2.2167013,48.8501507],[2.2139556,48.8494359],[2.2132069,48.8492702],[2.212563,48.8491787],[2.211797,48.8491172],[2.2114363,48.8491805],[2.2109944,48.8493718],[2.2106927,48.8475081],[2.2080839,48.8477255],[2.2078945,48.846728],[2.2043118,48.8466967],[2.2043553,48.8462501],[2.2043019,48.8449086],[2.2048892,48.8447486],[2.2055506,48.8447162],[2.2065338,48.8447482],[2.2066845,48.843709],[2.2068041,48.8437185]]]]},"properties":{"code_section":"92064000AK","code_commune":"92064","section_courte":"AK"}},{"type":"Feature","geometry":{"type":"MultiPolygon","coordinates":[[[[2.2162449,48.8564118],[2.2162426,48.8564542],[2.2152139,48.8564427],[2.2152375,48.856333],[2.2134374,48.8562392],[2.2120073,48.85665],[2.2112487,48.8567804],[2.2137644,48.849396],[2.2167387,48.8501651],[2.2168408,48.8502175],[2.2169318,48.8503201],[2.2170196,48.8505428],[2.2170151,48.8506689],[2.2175376,48.8507026],[2.217805,48.8501696],[2.2182546,48.8501753],[2.2190268,48.8501355],[2.2193264,48.8501864],[2.2197228,48.8508833],[2.2198096,48.8511748],[2.2199241,48.8519365],[2.2198808,48.8526913],[2.2194394,48.8526786],[2.2173623,48.8534006],[2.2167676,48.8533651],[2.2166786,48.853934],[2.2166377,48.8539372],[2.2165255,48.8544305],[2.2164179,48.8554853],[2.2162449,48.8564118]]]]},"properties":{"code_section":"92064000AL","code_commune":"92064","section_courte":"AL"}},{"type":"Feature","geometry":{"type":"MultiPolygon","coordinates":[[[[2.2119308,48.8547789],[2.2112487,48.8567804],[2.2097307,48.8569215],[2.2066551,48.8544182],[2.2058759,48.8529575],[2.2055133,48.8518291],[2.2061734,48.8516209],[2.2070412,48.8512678],[2.2079263,48.8509557],[2.2091298,48.850194],[2.2114363,48.8491805],[2.211797,48.8491172],[2.212861,48.8492174],[2.2137644,48.849396],[2.2119308,48.8547789]]]]},"properties":{"code_section":"92064000AM","code_commune":"92064","section_courte":"AM"}},{"type":"Feature","geometry":{"type":"MultiPolygon","coordinates":[[[[2.2106927,48.8475081],[2.2109944,48.8493718],[2.2091298,48.850194],[2.2079263,48.8509557],[2.2070412,48.8512678],[2.2061734,48.8516209],[2.2055334,48.8518245],[2.2052846,48.851203],[2.2051485,48.8510555],[2.2045137,48.8508161],[2.2038602,48.8504192],[2.2018643,48.8495822],[2.2007088,48.8488302],[2.1998453,48.8483347],[2.1991959,48.8479887],[2.1978601,48.847376],[2.1999371,48.8468828],[2.2001533,48.8468631],[2.2038273,48.8466917],[2.2078945,48.846728],[2.2080839,48.8477255],[2.2106927,48.8475081]]]]},"properties":{"code_section":"92064000AN","code_commune":"92064","section_courte":"AN"}},{"type":"Feature","geometry":{"type":"MultiPolygon","coordinates":[[[[2.1989193,48.839795],[2.1989058,48.8396432],[2.2074221,48.8398263],[2.2073543,48.8401015],[2.2068882,48.8400637],[2.2068826,48.8401114],[2.2072264,48.8401369],[2.2069364,48.8435831],[2.2068041,48.8437185],[2.2066845,48.843709],[2.2065338,48.8447482],[2.2055506,48.8447162],[2.2048892,48.8447486],[2.2043019,48.8449086],[2.2043553,48.8462501],[2.2043118,48.8466967],[2.2038273,48.8466917],[2.1999859,48.8468741],[2.1978601,48.847376],[2.1978012,48.846852],[2.1978136,48.8464617],[2.197897,48.8459047],[2.197992,48.8455722],[2.1984169,48.844738],[2.1988982,48.8442882],[2.1990013,48.8440312],[2.1991043,48.8428965],[2.1988106,48.841598],[2.1988192,48.8414906],[2.1986973,48.8414784],[2.1989196,48.8400011],[2.1989193,48.839795]]]]},"properties":{"code_section":"92064000AO","code_commune":"92064","section_courte":"AO"}},{"type":"Feature","geometry":{"type":"MultiPolygon","coordinates":[[[[2.1989193,48.839795],[2.1989196,48.8400011],[2.1986973,48.8414784],[2.1982607,48.8414196],[2.1939927,48.8405958],[2.1919587,48.8399996],[2.1894736,48.8394833],[2.1875553,48.8389115],[2.1881678,48.8383864],[2.1872092,48.837734],[2.1874236,48.8375561],[2.1866734,48.8368524],[2.1886608,48.8374189],[2.1939063,48.8390088],[2.1951778,48.8392853],[2.1961963,48.8394428],[2.1972902,48.8395506],[2.1989058,48.8396432],[2.1989193,48.839795]]]]},"properties":{"code_section":"92064000AP","code_commune":"92064","section_courte":"AP"}}]}