{"type":"FeatureCollection","features":[{"type":"Feature","geometry":{"type":"MultiPolygon","coordinates":[[[[2.1770697,48.8266064],[2.1768104,48.826649],[2.1765517,48.8264994],[2.1761215,48.8259708],[2.1756031,48.8263428],[2.1737913,48.8242709],[2.1715135,48.8239682],[2.1711666,48.8238795],[2.167049,48.8233171],[2.1646213,48.8231059],[2.1644113,48.8231098],[2.1640756,48.8231698],[2.1621946,48.8236721],[2.1620138,48.8236858],[2.1617281,48.8236355],[2.1606974,48.8225992],[2.1599436,48.8216425],[2.1598457,48.8213548],[2.1597414,48.8212086],[2.1596055,48.821072],[2.1594335,48.8209698],[2.1591381,48.8208676],[2.1587916,48.820857],[2.1578331,48.8209973],[2.1572468,48.8209346],[2.156153,48.821478],[2.1551985,48.8214837],[2.1545984,48.8214142],[2.1537325,48.8214697],[2.1532002,48.8213708],[2.1527917,48.8211463],[2.1524372,48.8208216],[2.1519293,48.820187],[2.1516825,48.8199802],[2.1513171,48.8195842],[2.1507829,48.8189137],[2.1507415,48.8186451],[2.1507954,48.8180307],[2.1508927,48.8178946],[2.1512284,48.8176167],[2.1515535,48.8170487],[2.1516778,48.8169361],[2.1519254,48.8167996],[2.1532722,48.8161271],[2.1535283,48.8160928],[2.1541898,48.8161303],[2.1544596,48.8160767],[2.1558518,48.815331],[2.1586806,48.8139168],[2.1593341,48.8137367],[2.1596518,48.8136075],[2.1601526,48.813325],[2.1605573,48.8130436],[2.1614362,48.8127116],[2.1621163,48.8125162],[2.1627064,48.8124049],[2.1666173,48.8123023],[2.1668323,48.8125739],[2.1674447,48.8128795],[2.1693158,48.8159128],[2.1741006,48.8151709],[2.1747931,48.8151254],[2.1767848,48.8139924],[2.1768702,48.8140567],[2.1776872,48.8144114],[2.1785874,48.8148621],[2.1792248,48.8153811],[2.1804581,48.8167269],[2.181316,48.8175453],[2.1816345,48.8177828],[2.1820745,48.8178892],[2.1825225,48.8176917],[2.1829937,48.8175375],[2.1834293,48.8174848],[2.1840918,48.8174937],[2.1843784,48.8175185],[2.1848739,48.8176139],[2.1858653,48.817953],[2.1848936,48.8202833],[2.1847296,48.8203176],[2.1846501,48.8204087],[2.1840015,48.820125],[2.1835876,48.8199954],[2.1827887,48.8201715],[2.1821615,48.8201548],[2.1814422,48.8199635],[2.180747,48.8196649],[2.18075,48.8195087],[2.1806498,48.8194337],[2.1805457,48.8194207],[2.1804179,48.8194478],[2.1797531,48.8192291],[2.1796486,48.8192186],[2.1794508,48.819241],[2.1778211,48.8198491],[2.1766856,48.8201845],[2.1755813,48.820364],[2.1750215,48.8203559],[2.1748987,48.8203356],[2.1748191,48.8202499],[2.1747269,48.8202437],[2.1746486,48.8202821],[2.1732251,48.8199135],[2.1726242,48.8195904],[2.1721276,48.819393],[2.1719744,48.8195527],[2.1711763,48.8191542],[2.1709944,48.8189555],[2.1708623,48.8187322],[2.1704938,48.8184733],[2.1702405,48.8185756],[2.1701433,48.8186673],[2.1694654,48.8188545],[2.1686515,48.8189859],[2.1683074,48.8190104],[2.1679909,48.8186941],[2.1680266,48.8186618],[2.1680005,48.8185622],[2.1677478,48.8182885],[2.1677978,48.8182481],[2.1674334,48.8179078],[2.1673106,48.817834],[2.1673451,48.8177976],[2.1671025,48.8174679],[2.1669338,48.8172951],[2.1663331,48.8168393],[2.1661894,48.8167609],[2.1660404,48.8168767],[2.1655746,48.8166752],[2.1653021,48.8169175],[2.1642207,48.8164839],[2.1637965,48.8160526],[2.1628907,48.8169106],[2.1622742,48.8170093],[2.162167,48.8171328],[2.1636951,48.817748],[2.165545,48.8185711],[2.163736,48.8198488],[2.1658843,48.8201618],[2.1659718,48.8202628],[2.1660891,48.8202763],[2.1661975,48.8202271],[2.1662394,48.8201599],[2.1661958,48.8200933],[2.1661061,48.820051],[2.166179,48.819042],[2.1674953,48.8192426],[2.167774,48.8193074],[2.167741,48.8193883],[2.1684281,48.8194791],[2.1685006,48.8195226],[2.1699042,48.8198574],[2.170008,48.8199807],[2.1698791,48.8201927],[2.170332,48.8202516],[2.1720726,48.8205831],[2.1721367,48.8205026],[2.1727611,48.8207037],[2.1744455,48.8210636],[2.1755686,48.8211692],[2.1773476,48.8212074],[2.1785877,48.8213748],[2.1797484,48.821337],[2.1816446,48.8217464],[2.1832456,48.8221617],[2.1837144,48.822366],[2.1840451,48.8225692],[2.1836739,48.8229603],[2.1827862,48.8235896],[2.1817675,48.8237528],[2.1815288,48.8233224],[2.1814714,48.8232794],[2.1803776,48.8235907],[2.1803638,48.8237852],[2.1803098,48.8237812],[2.1804004,48.8238984],[2.1808599,48.8243112],[2.1818534,48.8250455],[2.1818039,48.8250783],[2.1818379,48.8254216],[2.1810982,48.8266084],[2.1807471,48.8267722],[2.179708,48.8264808],[2.1796139,48.8264841],[2.178628,48.826859],[2.1784306,48.826763],[2.1777875,48.8263089],[2.177458,48.8265425],[2.1770697,48.8266064]]]]},"properties":{"code_section":"920770000B","code_commune":"92077","section_courte":"B"}},{"type":"Feature","geometry":{"type":"MultiPolygon","coordinates":[[[[2.1876566,48.8284612],[2.1875286,48.8288686],[2.1867236,48.8287642],[2.1861693,48.8288461],[2.1849965,48.8292278],[2.184795,48.8288685],[2.1807965,48.8306241],[2.179708,48.8303694],[2.1797941,48.830328],[2.179351,48.8299018],[2.1789286,48.8295163],[2.1784598,48.8291806],[2.1784746,48.8290565],[2.1782196,48.829037],[2.1774176,48.8286117],[2.1773727,48.8286157],[2.1768798,48.8282651],[2.176307,48.8282308],[2.1762536,48.8281529],[2.1761507,48.8281112],[2.1762027,48.827508],[2.1764135,48.8272407],[2.1756193,48.8263368],[2.1761215,48.8259708],[2.1765517,48.8264994],[2.1768104,48.826649],[2.177458,48.8265425],[2.1777875,48.8263089],[2.1784306,48.826763],[2.178628,48.826859],[2.1796139,48.8264841],[2.179708,48.8264808],[2.1807471,48.8267722],[2.1810982,48.8266084],[2.1818379,48.8254216],[2.1818039,48.8250783],[2.1818534,48.8250455],[2.1845847,48.8267186],[2.1849927,48.8269579],[2.1853621,48.8271094],[2.185698,48.8271612],[2.1887128,48.8269785],[2.1888803,48.8276212],[2.1890634,48.8277784],[2.1888552,48.8278517],[2.1877749,48.8278904],[2.1877785,48.8280276],[2.1876566,48.8284612]]]]},"properties":{"code_section":"92077000AB","code_commune":"92077","section_courte":"AB"}},{"type":"Feature","geometry":{"type":"MultiPolygon","coordinates":[[[[2.1942922,48.8294303],[2.1942129,48.8294361],[2.1939936,48.8295566],[2.1939631,48.8295287],[2.1937663,48.8296281],[2.1932659,48.8293793],[2.1910283,48.8292401],[2.1901131,48.8293727],[2.1890104,48.8292136],[2.1883429,48.828944],[2.1875591,48.8287741],[2.1877785,48.8280276],[2.1877749,48.8278904],[2.1888552,48.8278517],[2.1890634,48.8277784],[2.1888803,48.8276212],[2.1887128,48.8269785],[2.189051,48.8269446],[2.1917203,48.8263168],[2.1921251,48.826259],[2.1927891,48.8262221],[2.1982153,48.8260111],[2.199434,48.8298094],[2.1982695,48.8297378],[2.1968893,48.8298071],[2.1942922,48.8294303]]]]},"properties":{"code_section":"92077000AC","code_commune":"92077","section_courte":"AC"}},{"type":"Feature","geometry":{"type":"MultiPolygon","coordinates":[[[[2.2008525,48.82406],[2.2008572,48.8247563],[2.2009619,48.825898],[2.1956381,48.8261091],[2.1935394,48.8250372],[2.1926755,48.824291],[2.1913321,48.8237389],[2.1915958,48.8230293],[2.1925485,48.8231143],[2.194167,48.8234079],[2.1949615,48.8236105],[2.1950675,48.8233215],[2.1954771,48.8230386],[2.1957401,48.822808],[2.1956564,48.8226591],[2.1948666,48.8221882],[2.1938829,48.8218041],[2.1948301,48.8217583],[2.1953316,48.8217927],[2.1964191,48.8219902],[2.1988675,48.8221978],[2.1986639,48.8228375],[2.1984792,48.8231806],[2.1984072,48.8237454],[2.1993989,48.8237362],[2.1994271,48.8240366],[2.2003108,48.8239972],[2.2008523,48.8240289],[2.2008525,48.82406]]]]},"properties":{"code_section":"92077000AD","code_commune":"92077","section_courte":"AD"}},{"type":"Feature","geometry":{"type":"MultiPolygon","coordinates":[[[[2.1952513,48.8231944],[2.1950675,48.8233215],[2.1949615,48.8236105],[2.194167,48.8234079],[2.1925485,48.8231143],[2.1911179,48.8229888],[2.1908464,48.8228974],[2.190374,48.8226794],[2.1900454,48.8225855],[2.1896582,48.8225397],[2.1894038,48.8225502],[2.1892706,48.8225846],[2.1892104,48.8225572],[2.1888846,48.8227019],[2.1878076,48.8237028],[2.1876645,48.8238734],[2.1873972,48.8243511],[2.1868845,48.8248452],[2.186857,48.8249401],[2.1868975,48.8250074],[2.1863156,48.8245981],[2.1845932,48.8229429],[2.1840451,48.8225692],[2.1841341,48.8223987],[2.1842204,48.8219455],[2.184868,48.8205625],[2.1846096,48.8204572],[2.1847296,48.8203176],[2.1848936,48.8202833],[2.1858653,48.817953],[2.1862971,48.8181207],[2.1865938,48.8182802],[2.1872182,48.818714],[2.1875637,48.8188946],[2.1909429,48.8205675],[2.1915937,48.8208353],[2.1927148,48.8214373],[2.1932401,48.8216421],[2.1941709,48.8219037],[2.1950016,48.8222588],[2.1956564,48.8226591],[2.1957401,48.822808],[2.1952513,48.8231944]]]]},"properties":{"code_section":"92077000AE","code_commune":"92077","section_courte":"AE"}},{"type":"Feature","geometry":{"type":"MultiPolygon","coordinates":[[[[2.1869157,48.8250212],[2.186857,48.8249401],[2.1868845,48.8248452],[2.1873972,48.8243511],[2.1877314,48.8237871],[2.1888846,48.8227019],[2.1892104,48.8225572],[2.1892706,48.8225846],[2.189493,48.8225427],[2.189812,48.8225486],[2.1902525,48.8226376],[2.1910734,48.8229789],[2.1915958,48.8230293],[2.1913321,48.8237389],[2.1926755,48.824291],[2.1935394,48.8250372],[2.1956381,48.8261091],[2.1921251,48.826259],[2.1917203,48.8263168],[2.1909851,48.8264776],[2.189051,48.8269446],[2.1887128,48.8269785],[2.188561,48.8266485],[2.1877098,48.8260377],[2.1874213,48.8254046],[2.1869157,48.8250212]]]]},"properties":{"code_section":"92077000AH","code_commune":"92077","section_courte":"AH"}},{"type":"Feature","geometry":{"type":"MultiPolygon","coordinates":[[[[2.1840229,48.8226239],[2.1840451,48.8225692],[2.1845932,48.8229429],[2.1863156,48.8245981],[2.1874213,48.8254046],[2.1877098,48.8260377],[2.188561,48.8266485],[2.1887128,48.8269785],[2.185698,48.8271612],[2.1855039,48.8271432],[2.1852618,48.8270774],[2.1849927,48.8269579],[2.1845847,48.8267186],[2.1818259,48.8250312],[2.1808599,48.8243112],[2.1803098,48.8237812],[2.1803638,48.8237852],[2.1803776,48.8235907],[2.1814714,48.8232794],[2.1815288,48.8233224],[2.1817675,48.8237528],[2.1827862,48.8235896],[2.1836739,48.8229603],[2.1840229,48.8226239]]]]},"properties":{"code_section":"92077000AI","code_commune":"92077","section_courte":"AI"}},{"type":"Feature","geometry":{"type":"MultiPolygon","coordinates":[[[[2.1848129,48.8205464],[2.184868,48.8205625],[2.1842204,48.8219455],[2.1841341,48.8223987],[2.1840451,48.8225692],[2.1837144,48.822366],[2.1832456,48.8221617],[2.1816446,48.8217464],[2.1797484,48.821337],[2.1785877,48.8213748],[2.1773476,48.8212074],[2.1755686,48.8211692],[2.17451,48.8210706],[2.1746835,48.8204047],[2.1746308,48.8203475],[2.1746715,48.8202634],[2.1748191,48.8202499],[2.1748987,48.8203356],[2.1750215,48.8203559],[2.1754561,48.8203756],[2.1766856,48.8201845],[2.1778211,48.8198491],[2.1786284,48.8195363],[2.1795618,48.8192206],[2.1797531,48.8192291],[2.1804179,48.8194478],[2.1805457,48.8194207],[2.1806498,48.8194337],[2.18075,48.8195087],[2.180747,48.8196649],[2.1814422,48.8199635],[2.1817875,48.8200711],[2.1821951,48.8201598],[2.1827086,48.8201766],[2.1829859,48.8201401],[2.1835444,48.8199975],[2.1836535,48.8200052],[2.1840015,48.820125],[2.1846501,48.8204087],[2.1846096,48.8204572],[2.1848129,48.8205464]]]]},"properties":{"code_section":"92077000AK","code_commune":"92077","section_courte":"AK"}},{"type":"Feature","geometry":{"type":"MultiPolygon","coordinates":[[[[2.1674953,48.8192426],[2.166179,48.819042],[2.1661061,48.820051],[2.1661958,48.8200933],[2.1662394,48.8201599],[2.1661975,48.8202271],[2.1660891,48.8202763],[2.1659718,48.8202628],[2.1658843,48.8201618],[2.163736,48.8198488],[2.165545,48.8185711],[2.1636951,48.817748],[2.162167,48.8171328],[2.1622742,48.8170093],[2.1628907,48.8169106],[2.1637965,48.8160526],[2.1642207,48.8164839],[2.1653021,48.8169175],[2.1655746,48.8166752],[2.1660404,48.8168767],[2.1661894,48.8167609],[2.1665456,48.8169924],[2.1671025,48.8174679],[2.1673451,48.8177976],[2.1673106,48.817834],[2.1674334,48.8179078],[2.1677978,48.8182481],[2.1677478,48.8182885],[2.1680005,48.8185622],[2.1680266,48.8186618],[2.1679909,48.8186941],[2.1683074,48.8190104],[2.1686515,48.8189859],[2.1694654,48.8188545],[2.1701433,48.8186673],[2.1702405,48.8185756],[2.1704938,48.8184733],[2.1708623,48.8187322],[2.1709944,48.8189555],[2.1711763,48.8191542],[2.1719744,48.8195527],[2.1721276,48.819393],[2.1726242,48.8195904],[2.1732251,48.8199135],[2.1746486,48.8202821],[2.1746308,48.8203475],[2.1746835,48.8204047],[2.17451,48.8210706],[2.1727611,48.8207037],[2.1721367,48.8205026],[2.1720726,48.8205831],[2.170332,48.8202516],[2.1698791,48.8201927],[2.170008,48.8199807],[2.1699042,48.8198574],[2.1685006,48.8195226],[2.1684281,48.8194791],[2.167741,48.8193883],[2.167774,48.8193074],[2.1674953,48.8192426]]]]},"properties":{"code_section":"92077000AL","code_commune":"92077","section_courte":"AL"}}]}