{"type":"FeatureCollection","features":[{"type":"Feature","geometry":{"type":"MultiPolygon","coordinates":[[[[2.2822259,48.7831143],[2.2819167,48.7832056],[2.2817236,48.7826343],[2.2808738,48.783172],[2.2805608,48.783324],[2.2794938,48.7825399],[2.2797819,48.7823286],[2.2799264,48.7821304],[2.2801499,48.7812141],[2.2810321,48.7810329],[2.2808842,48.7808153],[2.2834887,48.7804279],[2.284611,48.7803535],[2.2848425,48.7815039],[2.2855169,48.7815102],[2.2855161,48.7815468],[2.2856728,48.7815847],[2.2857497,48.7816819],[2.2857403,48.7824613],[2.2852833,48.7824776],[2.2850934,48.7825489],[2.2844533,48.7826343],[2.2842944,48.7826986],[2.2831291,48.7828449],[2.2825586,48.7830176],[2.2823981,48.7830109],[2.2822259,48.7831143]]]]},"properties":{"code_section":"920710000A","code_commune":"92071","section_courte":"A"}},{"type":"Feature","geometry":{"type":"MultiPolygon","coordinates":[[[[2.2895978,48.7830765],[2.2892241,48.7829682],[2.2890591,48.7829609],[2.2888575,48.7828638],[2.2885828,48.7828197],[2.2879512,48.7825909],[2.2876806,48.7825298],[2.2866164,48.7824718],[2.2864635,48.782495],[2.2861687,48.7824548],[2.2857403,48.7824613],[2.2857497,48.7816819],[2.2856728,48.7815847],[2.2855161,48.7815468],[2.2855169,48.7815102],[2.2848425,48.7815039],[2.284611,48.7803535],[2.287712,48.7801957],[2.2878344,48.7810038],[2.2896031,48.7810605],[2.2895547,48.7816358],[2.2890175,48.7816024],[2.2894807,48.7821842],[2.2895935,48.7826475],[2.2898492,48.7829765],[2.2901041,48.7831632],[2.2900133,48.7832186],[2.2899335,48.7831561],[2.289777,48.7831431],[2.2895978,48.7830765]]]]},"properties":{"code_section":"920710000B","code_commune":"92071","section_courte":"B"}},{"type":"Feature","geometry":{"type":"MultiPolygon","coordinates":[[[[2.2895995,48.7811022],[2.2896031,48.7810605],[2.2932161,48.7811763],[2.2934809,48.781724],[2.2934535,48.7842144],[2.2914618,48.7838333],[2.2915604,48.7836001],[2.2905289,48.7833212],[2.2901275,48.7831478],[2.2901041,48.7831632],[2.2898492,48.7829765],[2.2895935,48.7826475],[2.2894807,48.7821842],[2.289407,48.7820608],[2.2890175,48.7816024],[2.2895547,48.7816358],[2.2895995,48.7811022]]]]},"properties":{"code_section":"920710000C","code_commune":"92071","section_courte":"C"}},{"type":"Feature","geometry":{"type":"MultiPolygon","coordinates":[[[[2.287712,48.7801957],[2.287501,48.7787962],[2.2900052,48.7791079],[2.2909452,48.7789816],[2.2915075,48.7787757],[2.2932161,48.7811763],[2.2878344,48.7810038],[2.287712,48.7801957]]]]},"properties":{"code_section":"920710000D","code_commune":"92071","section_courte":"D"}},{"type":"Feature","geometry":{"type":"MultiPolygon","coordinates":[[[[2.2841208,48.7792064],[2.2841016,48.7790305],[2.283749,48.7790475],[2.2835651,48.7777262],[2.2864053,48.7769926],[2.2870587,48.777917],[2.2874129,48.7787852],[2.287501,48.7787962],[2.287712,48.7801957],[2.2842487,48.780376],[2.2841208,48.7792064]]]]},"properties":{"code_section":"920710000E","code_commune":"92071","section_courte":"E"}},{"type":"Feature","geometry":{"type":"MultiPolygon","coordinates":[[[[2.2842442,48.7803372],[2.2842487,48.780376],[2.2834887,48.7804279],[2.2808842,48.7808153],[2.2810321,48.7810329],[2.2801499,48.7812141],[2.2804097,48.7800033],[2.2804084,48.7797612],[2.2801101,48.7789773],[2.2797157,48.7785037],[2.2835651,48.7777262],[2.283749,48.7790475],[2.2841016,48.7790305],[2.2842442,48.7803372]]]]},"properties":{"code_section":"920710000F","code_commune":"92071","section_courte":"F"}},{"type":"Feature","geometry":{"type":"MultiPolygon","coordinates":[[[[2.2831847,48.7769354],[2.2829467,48.7769355],[2.2829756,48.7778455],[2.2797339,48.7784998],[2.2793572,48.778028],[2.2782784,48.7764161],[2.2787619,48.7759912],[2.2835448,48.7762419],[2.2838054,48.7762919],[2.2837567,48.7769124],[2.283447,48.7768982],[2.2831847,48.7769354]]]]},"properties":{"code_section":"920710000G","code_commune":"92071","section_courte":"G"}},{"type":"Feature","geometry":{"type":"MultiPolygon","coordinates":[[[[2.2789637,48.7760037],[2.2787619,48.7759912],[2.2789391,48.7754359],[2.2790637,48.7751765],[2.2801342,48.7739127],[2.2813413,48.7743766],[2.2815455,48.7744992],[2.2827101,48.774779],[2.282902,48.7753913],[2.2831238,48.7755255],[2.2835338,48.7755741],[2.2835093,48.77624],[2.2789637,48.7760037]]]]},"properties":{"code_section":"920710000H","code_commune":"92071","section_courte":"H"}},{"type":"Feature","geometry":{"type":"MultiPolygon","coordinates":[[[[2.2835651,48.7777262],[2.2829756,48.7778455],[2.2829467,48.7769355],[2.283447,48.7768982],[2.2837567,48.7769124],[2.2838054,48.7762919],[2.2835093,48.77624],[2.2835338,48.7755741],[2.2831238,48.7755255],[2.282902,48.7753913],[2.2826601,48.7746448],[2.2825316,48.7744501],[2.2829396,48.7743503],[2.2831863,48.774323],[2.284526,48.7742993],[2.2845488,48.7742784],[2.2846771,48.7743203],[2.2848632,48.774313],[2.2850632,48.7744029],[2.2851806,48.7743669],[2.2852589,48.7742431],[2.2862914,48.7741586],[2.286387,48.7740762],[2.2864249,48.7749627],[2.2863589,48.7755249],[2.2863596,48.7759275],[2.2865213,48.7769628],[2.2835651,48.7777262]]]]},"properties":{"code_section":"920710000I","code_commune":"92071","section_courte":"I"}},{"type":"Feature","geometry":{"type":"MultiPolygon","coordinates":[[[[2.2867309,48.7769834],[2.2865213,48.7769628],[2.2863596,48.7759275],[2.2863589,48.7755249],[2.2864249,48.7749627],[2.286387,48.7740762],[2.2870766,48.7736874],[2.2872536,48.773771],[2.2895757,48.7742334],[2.2901825,48.7755391],[2.2902431,48.7755613],[2.2906957,48.7766772],[2.2894739,48.7770249],[2.2888316,48.7764875],[2.2867309,48.7769834]]]]},"properties":{"code_section":"920710000J","code_commune":"92071","section_courte":"J"}},{"type":"Feature","geometry":{"type":"MultiPolygon","coordinates":[[[[2.2885865,48.7765268],[2.2888316,48.7764875],[2.2894739,48.7770249],[2.2906957,48.7766772],[2.2918193,48.7764911],[2.2924802,48.7780718],[2.2920957,48.7782543],[2.2915075,48.7787757],[2.2909452,48.7789816],[2.290735,48.779022],[2.2900052,48.7791079],[2.2874129,48.7787852],[2.2870587,48.777917],[2.2864053,48.7769926],[2.2865213,48.7769628],[2.2867309,48.7769834],[2.2885865,48.7765268]]]]},"properties":{"code_section":"920710000K","code_commune":"92071","section_courte":"K"}},{"type":"Feature","geometry":{"type":"MultiPolygon","coordinates":[[[[2.2932622,48.7771937],[2.2922048,48.7774135],[2.2918193,48.7764911],[2.2906957,48.7766772],[2.2902431,48.7755613],[2.2901825,48.7755391],[2.2895757,48.7742334],[2.2951226,48.7753381],[2.2955038,48.7762695],[2.2942026,48.7765126],[2.2935684,48.7765923],[2.2937929,48.7770928],[2.2932622,48.7771937]]]]},"properties":{"code_section":"920710000L","code_commune":"92071","section_courte":"L"}},{"type":"Feature","geometry":{"type":"MultiPolygon","coordinates":[[[[2.2934834,48.7811465],[2.2932161,48.7811763],[2.2915075,48.7787757],[2.2920957,48.7782543],[2.2924802,48.7780718],[2.2922048,48.7774135],[2.2937929,48.7770928],[2.294035,48.7776253],[2.2941447,48.7775949],[2.2949186,48.7796123],[2.2950474,48.7801541],[2.2953476,48.7809631],[2.2934834,48.7811465]]]]},"properties":{"code_section":"920710000M","code_commune":"92071","section_courte":"M"}},{"type":"Feature","geometry":{"type":"MultiPolygon","coordinates":[[[[2.2986047,48.7784262],[2.2945823,48.7787449],[2.2941447,48.7775949],[2.294035,48.7776253],[2.2935684,48.7765923],[2.2942026,48.7765126],[2.2955038,48.7762695],[2.2957143,48.7771161],[2.2964723,48.7770023],[2.2993897,48.7772993],[2.2989908,48.7776878],[2.2990288,48.7778961],[2.2987473,48.7780636],[2.2986047,48.7784262]]]]},"properties":{"code_section":"920710000N","code_commune":"92071","section_courte":"N"}},{"type":"Feature","geometry":{"type":"MultiPolygon","coordinates":[[[[2.2983569,48.778446],[2.2995495,48.7802387],[2.2983542,48.7806082],[2.2953476,48.7809631],[2.2950474,48.7801541],[2.2949186,48.7796123],[2.2945823,48.7787449],[2.2983569,48.778446]]]]},"properties":{"code_section":"920710000O","code_commune":"92071","section_courte":"O"}},{"type":"Feature","geometry":{"type":"MultiPolygon","coordinates":[[[[2.303636,48.7785748],[2.3040084,48.77918],[2.2995495,48.7802387],[2.2983569,48.778446],[2.2986047,48.7784262],[2.2987473,48.7780636],[2.2990288,48.7778961],[2.2989908,48.7776878],[2.2993897,48.7772993],[2.303282,48.7779343],[2.303636,48.7785748]]]]},"properties":{"code_section":"920710000P","code_commune":"92071","section_courte":"P"}},{"type":"Feature","geometry":{"type":"MultiPolygon","coordinates":[[[[2.2985981,48.780676],[2.2984045,48.7805925],[2.2995495,48.7802387],[2.3040939,48.7791599],[2.304498,48.7798336],[2.3044146,48.7798565],[2.3045024,48.7798403],[2.3046041,48.7800465],[2.3048095,48.7800044],[2.305462,48.7810712],[2.2994605,48.7822815],[2.2992522,48.7815663],[2.2992252,48.7812885],[2.2989095,48.7812231],[2.2988247,48.7812391],[2.2986959,48.7811788],[2.2989113,48.7811948],[2.2988095,48.7807099],[2.2986808,48.7807134],[2.2985981,48.780676]]]]},"properties":{"code_section":"920710000Q","code_commune":"92071","section_courte":"Q"}},{"type":"Feature","geometry":{"type":"MultiPolygon","coordinates":[[[[2.2941894,48.7829848],[2.2934655,48.783131],[2.2934809,48.781724],[2.2932161,48.7811763],[2.2953476,48.7809631],[2.2984045,48.7805925],[2.2986808,48.7807134],[2.2988095,48.7807099],[2.2989113,48.7811948],[2.2986959,48.7811788],[2.2988247,48.7812391],[2.2989095,48.7812231],[2.2992252,48.7812885],[2.2992522,48.7815663],[2.2994605,48.7822815],[2.295729,48.7829916],[2.2955238,48.7829582],[2.2948325,48.7829327],[2.2941894,48.7829848]]]]},"properties":{"code_section":"920710000R","code_commune":"92071","section_courte":"R"}},{"type":"Feature","geometry":{"type":"MultiPolygon","coordinates":[[[[2.2940114,48.7842805],[2.2934535,48.7842144],[2.2934655,48.783131],[2.2941894,48.7829848],[2.2948325,48.7829327],[2.2955238,48.7829582],[2.295729,48.7829916],[2.29919,48.782333],[2.2993349,48.7828187],[2.2987278,48.782827],[2.299376,48.7847954],[2.2988938,48.7847037],[2.298891,48.78486],[2.2940114,48.7842805]]]]},"properties":{"code_section":"920710000S","code_commune":"92071","section_courte":"S"}},{"type":"Feature","geometry":{"type":"MultiPolygon","coordinates":[[[[2.298891,48.78486],[2.2988938,48.7847037],[2.299376,48.7847954],[2.2987278,48.782827],[2.2993349,48.7828187],[2.29919,48.782333],[2.3018038,48.7818237],[2.3020158,48.7828727],[2.3034075,48.7853966],[2.298891,48.78486]]]]},"properties":{"code_section":"920710000T","code_commune":"92071","section_courte":"T"}},{"type":"Feature","geometry":{"type":"MultiPolygon","coordinates":[[[[2.3059704,48.7834969],[2.3061487,48.7838106],[2.305596,48.7838814],[2.3057029,48.7841912],[2.3056376,48.7842005],[2.3059123,48.7849955],[2.3041026,48.7852002],[2.303699,48.785289],[2.3034075,48.7853966],[2.3020158,48.7828727],[2.3018038,48.7818237],[2.3045177,48.7812654],[2.3045877,48.7814232],[2.3046651,48.7814087],[2.3052753,48.782523],[2.3054105,48.7824993],[2.3059704,48.7834969]]]]},"properties":{"code_section":"920710000U","code_commune":"92071","section_courte":"U"}},{"type":"Feature","geometry":{"type":"MultiPolygon","coordinates":[[[[2.3104476,48.784826],[2.3104735,48.7848816],[2.3063337,48.7849652],[2.3059123,48.7849955],[2.3056376,48.7842005],[2.3057029,48.7841912],[2.305596,48.7838814],[2.3061487,48.7838106],[2.3060365,48.7836128],[2.306866,48.7839013],[2.3093132,48.7829121],[2.3101025,48.7842318],[2.3101608,48.7841954],[2.3104476,48.784826]]]]},"properties":{"code_section":"920710000V","code_commune":"92071","section_courte":"V"}},{"type":"Feature","geometry":{"type":"MultiPolygon","coordinates":[[[[2.3056405,48.782909],[2.3054105,48.7824993],[2.3052753,48.782523],[2.3046651,48.7814087],[2.3045877,48.7814232],[2.3045177,48.7812654],[2.3080342,48.780553],[2.3084503,48.7813377],[2.3093785,48.7828594],[2.3089802,48.7830505],[2.306866,48.7839013],[2.3060365,48.7836128],[2.3056405,48.782909]]]]},"properties":{"code_section":"920710000X","code_commune":"92071","section_courte":"X"}},{"type":"Feature","geometry":{"type":"MultiPolygon","coordinates":[[[[2.3075143,48.7795879],[2.3080342,48.780553],[2.305462,48.7810712],[2.3048095,48.7800044],[2.3046041,48.7800465],[2.3045024,48.7798403],[2.3044146,48.7798565],[2.304498,48.7798336],[2.3040939,48.7791599],[2.3040084,48.77918],[2.303282,48.7779343],[2.3044839,48.7780491],[2.3069291,48.7774669],[2.3074293,48.7782107],[2.3068352,48.7783281],[2.3075143,48.7795879]]]]},"properties":{"code_section":"920710000Y","code_commune":"92071","section_courte":"Y"}},{"type":"Feature","geometry":{"type":"MultiPolygon","coordinates":[[[[2.3094864,48.7736392],[2.3095135,48.7734889],[2.3131285,48.7738927],[2.3142724,48.7768222],[2.3124033,48.7765407],[2.3121433,48.7765292],[2.3108642,48.7768737],[2.3069291,48.7774669],[2.3044839,48.7780491],[2.303282,48.7779343],[2.3043063,48.7750189],[2.309308,48.7757889],[2.3093937,48.7752345],[2.3093836,48.7741647],[2.3094864,48.7736392]]]]},"properties":{"code_section":"920710000Z","code_commune":"92071","section_courte":"Z"}},{"type":"Feature","geometry":{"type":"MultiPolygon","coordinates":[[[[2.3095135,48.7734889],[2.3095103,48.7735167],[2.3090106,48.7734842],[2.309082,48.7730263],[2.3081788,48.7729598],[2.308517,48.7708948],[2.3093455,48.7709264],[2.3108432,48.770848],[2.3118157,48.7706861],[2.3131285,48.7738927],[2.3095135,48.7734889]]]]},"properties":{"code_section":"92071000AB","code_commune":"92071","section_courte":"AB"}},{"type":"Feature","geometry":{"type":"MultiPolygon","coordinates":[[[[2.304976,48.7727084],[2.3041824,48.7725872],[2.305438,48.7690084],[2.3065465,48.7692202],[2.3068018,48.7693309],[2.3070127,48.7694756],[2.3072166,48.7697262],[2.3073576,48.7700491],[2.3074297,48.7704007],[2.3074226,48.7707498],[2.308517,48.7708948],[2.3081788,48.7729598],[2.3071573,48.772869],[2.3071381,48.7729637],[2.3061638,48.7728657],[2.30624,48.7725646],[2.305811,48.7726216],[2.3051358,48.7726498],[2.3051078,48.7727286],[2.304976,48.7727084]]]]},"properties":{"code_section":"92071000AC","code_commune":"92071","section_courte":"AC"}},{"type":"Feature","geometry":{"type":"MultiPolygon","coordinates":[[[[2.309394,48.7752111],[2.309308,48.7757889],[2.3043063,48.7750189],[2.3045882,48.7742167],[2.303662,48.7740754],[2.3041824,48.7725872],[2.3051078,48.7727286],[2.3051358,48.7726498],[2.305811,48.7726216],[2.30624,48.7725646],[2.3061638,48.7728657],[2.3071381,48.7729637],[2.3071573,48.772869],[2.309082,48.7730263],[2.3090106,48.7734842],[2.3095103,48.7735167],[2.3093836,48.7741647],[2.309394,48.7752111]]]]},"properties":{"code_section":"92071000AD","code_commune":"92071","section_courte":"AD"}},{"type":"Feature","geometry":{"type":"MultiPolygon","coordinates":[[[[2.2930162,48.7748402],[2.2932346,48.7743535],[2.2931029,48.7743324],[2.2939748,48.771899],[2.2940131,48.771882],[2.3038913,48.773412],[2.303662,48.7740754],[2.3045882,48.7742167],[2.303282,48.7779343],[2.2993897,48.7772993],[2.2964723,48.7770023],[2.2957143,48.7771161],[2.2955038,48.7762695],[2.2951226,48.7753381],[2.2929851,48.7749125],[2.2930162,48.7748402]]]]},"properties":{"code_section":"92071000AE","code_commune":"92071","section_courte":"AE"}},{"type":"Feature","geometry":{"type":"MultiPolygon","coordinates":[[[[2.3042846,48.7722965],[2.3038913,48.773412],[2.2939823,48.7718841],[2.2955777,48.7674451],[2.305438,48.7690084],[2.3042846,48.7722965]]]]},"properties":{"code_section":"92071000AF","code_commune":"92071","section_courte":"AF"}},{"type":"Feature","geometry":{"type":"MultiPolygon","coordinates":[[[[2.2955777,48.7674451],[2.2931029,48.7743324],[2.2932346,48.7743535],[2.2929851,48.7749125],[2.2872536,48.773771],[2.2870766,48.7736874],[2.2870291,48.7737138],[2.2865829,48.7734737],[2.2863492,48.77323],[2.2862286,48.7729186],[2.2862859,48.7713006],[2.2902548,48.7666001],[2.2955777,48.7674451]]]]},"properties":{"code_section":"92071000AG","code_commune":"92071","section_courte":"AG"}}]}