{"type":"FeatureCollection","features":[{"type":"Feature","geometry":{"type":"MultiPolygon","coordinates":[[[[2.280104,48.825231],[2.2800513,48.8252024],[2.2808063,48.8247412],[2.2810139,48.8235041],[2.2810749,48.8235029],[2.281571,48.8230708],[2.282207,48.8233822],[2.2823526,48.8235366],[2.2830115,48.8238554],[2.2808435,48.8256301],[2.280104,48.825231]]]]},"properties":{"code_section":"920750000A","code_commune":"92075","section_courte":"A"}},{"type":"Feature","geometry":{"type":"MultiPolygon","coordinates":[[[[2.2823975,48.8235539],[2.282207,48.8233822],[2.281093,48.8228378],[2.2819286,48.8212954],[2.2813625,48.8211218],[2.2818646,48.8202442],[2.2826016,48.8205117],[2.2837935,48.8208429],[2.2839884,48.8211273],[2.2843661,48.8213439],[2.2843181,48.8216461],[2.2851949,48.8220649],[2.2830115,48.8238554],[2.2823975,48.8235539]]]]},"properties":{"code_section":"920750000B","code_commune":"92075","section_courte":"B"}},{"type":"Feature","geometry":{"type":"MultiPolygon","coordinates":[[[[2.2895145,48.8282675],[2.2893644,48.8283316],[2.2877883,48.8282505],[2.2866751,48.8284986],[2.28662,48.8284594],[2.2879293,48.8275549],[2.2878865,48.8275137],[2.2873089,48.8275198],[2.287171,48.8274712],[2.2853899,48.8274834],[2.284393,48.8275191],[2.2830525,48.8271127],[2.2804948,48.8259156],[2.2851949,48.8220649],[2.2864714,48.8226913],[2.2882356,48.8232053],[2.2870161,48.8252029],[2.2897056,48.825904],[2.2898901,48.8260391],[2.2906225,48.8272496],[2.2905543,48.8272469],[2.2908155,48.8277231],[2.2895145,48.8282675]]]]},"properties":{"code_section":"920750000C","code_commune":"92075","section_courte":"C"}},{"type":"Feature","geometry":{"type":"MultiPolygon","coordinates":[[[[2.2895642,48.8239153],[2.2924848,48.8254176],[2.28984,48.8260023],[2.2897056,48.825904],[2.2870161,48.8252029],[2.2882356,48.8232053],[2.2895642,48.8239153]]]]},"properties":{"code_section":"920750000D","code_commune":"92075","section_courte":"D"}},{"type":"Feature","geometry":{"type":"MultiPolygon","coordinates":[[[[2.29093,48.827673],[2.2908155,48.8277231],[2.2905543,48.8272469],[2.2906225,48.8272496],[2.28984,48.8260023],[2.2924848,48.8254176],[2.2938137,48.8267772],[2.2921992,48.8271416],[2.29093,48.827673]]]]},"properties":{"code_section":"920750000E","code_commune":"92075","section_courte":"E"}},{"type":"Feature","geometry":{"type":"MultiPolygon","coordinates":[[[[2.2941235,48.8243169],[2.2957204,48.8248809],[2.2965967,48.8252456],[2.296858,48.8258175],[2.296954,48.8258001],[2.2970252,48.8259612],[2.2970905,48.8259465],[2.2971899,48.8260221],[2.2938137,48.8267772],[2.2924848,48.8254176],[2.2925239,48.8251781],[2.293019,48.8238531],[2.2941235,48.8243169]]]]},"properties":{"code_section":"920750000F","code_commune":"92075","section_courte":"F"}},{"type":"Feature","geometry":{"type":"MultiPolygon","coordinates":[[[[2.2957204,48.8248809],[2.2955137,48.8248079],[2.2973158,48.8236865],[2.2970344,48.823552],[2.2975671,48.8230498],[2.297926,48.8233526],[2.298466,48.8228451],[2.3013164,48.8251255],[2.2971899,48.8260221],[2.2970905,48.8259465],[2.2970252,48.8259612],[2.296954,48.8258001],[2.296858,48.8258175],[2.2965967,48.8252456],[2.2957204,48.8248809]]]]},"properties":{"code_section":"920750000G","code_commune":"92075","section_courte":"G"}},{"type":"Feature","geometry":{"type":"MultiPolygon","coordinates":[[[[2.2973158,48.8236865],[2.2955137,48.8248079],[2.2941235,48.8243169],[2.2917218,48.8233084],[2.2938149,48.8219591],[2.2941551,48.8221541],[2.2959304,48.8207218],[2.298466,48.8228451],[2.297926,48.8233526],[2.2975671,48.8230498],[2.2970344,48.823552],[2.2973158,48.8236865]]]]},"properties":{"code_section":"920750000H","code_commune":"92075","section_courte":"H"}},{"type":"Feature","geometry":{"type":"MultiPolygon","coordinates":[[[[2.2913447,48.8231553],[2.293019,48.8238531],[2.2925239,48.8251781],[2.2924848,48.8254176],[2.2882356,48.8232053],[2.2892374,48.8219372],[2.2904672,48.8227448],[2.290828,48.8229377],[2.2913447,48.8231553]]]]},"properties":{"code_section":"920750000I","code_commune":"92075","section_courte":"I"}},{"type":"Feature","geometry":{"type":"MultiPolygon","coordinates":[[[[2.2940803,48.819497],[2.2940123,48.8194453],[2.2940257,48.8194106],[2.2954511,48.8203315],[2.2959304,48.8207218],[2.2941551,48.8221541],[2.2938149,48.8219591],[2.2917218,48.8233084],[2.2907112,48.8228821],[2.2901018,48.8225272],[2.2892374,48.8219372],[2.289832,48.8213527],[2.2906563,48.8203785],[2.293826,48.8195399],[2.2940803,48.819497]]]]},"properties":{"code_section":"920750000J","code_commune":"92075","section_courte":"J"}},{"type":"Feature","geometry":{"type":"MultiPolygon","coordinates":[[[[2.2891632,48.8214237],[2.288965,48.8213289],[2.289159,48.8210812],[2.2890682,48.8209592],[2.2880548,48.8212882],[2.2877575,48.8209544],[2.2876469,48.8207327],[2.2874368,48.8200457],[2.2878786,48.819967],[2.2883927,48.8194727],[2.2886432,48.8195596],[2.288715,48.8194529],[2.2893975,48.8188569],[2.2908944,48.8179122],[2.2909297,48.8179306],[2.2911413,48.8177699],[2.2920175,48.818195],[2.2929492,48.8187127],[2.2940257,48.8194106],[2.2940123,48.8194453],[2.2940803,48.819497],[2.293826,48.8195399],[2.2906563,48.8203785],[2.289832,48.8213527],[2.2895598,48.8216249],[2.2891632,48.8214237]]]]},"properties":{"code_section":"920750000K","code_commune":"92075","section_courte":"K"}},{"type":"Feature","geometry":{"type":"MultiPolygon","coordinates":[[[[2.2895001,48.8216031],[2.2895598,48.8216249],[2.2892374,48.8219372],[2.2882356,48.8232053],[2.2864714,48.8226913],[2.2843181,48.8216461],[2.2843661,48.8213439],[2.2839884,48.8211273],[2.2837935,48.8208429],[2.2849565,48.8205714],[2.2856972,48.8203038],[2.2863003,48.8202455],[2.2874368,48.8200457],[2.2876469,48.8207327],[2.2877575,48.8209544],[2.2880548,48.8212882],[2.2890682,48.8209592],[2.289159,48.8210812],[2.288965,48.8213289],[2.2895001,48.8216031]]]]},"properties":{"code_section":"920750000L","code_commune":"92075","section_courte":"L"}},{"type":"Feature","geometry":{"type":"MultiPolygon","coordinates":[[[[2.2849565,48.8205714],[2.2848374,48.8205999],[2.2840967,48.8201336],[2.2840626,48.8198341],[2.2844625,48.8188205],[2.2846327,48.8181632],[2.2857792,48.8184373],[2.2883927,48.8194727],[2.2878786,48.819967],[2.2863003,48.8202455],[2.2856972,48.8203038],[2.2849565,48.8205714]]]]},"properties":{"code_section":"920750000M","code_commune":"92075","section_courte":"M"}},{"type":"Feature","geometry":{"type":"MultiPolygon","coordinates":[[[[2.2886432,48.8195596],[2.2857792,48.8184373],[2.2846327,48.8181632],[2.2863798,48.8159795],[2.2866144,48.8160526],[2.2866361,48.8160242],[2.2866896,48.8160417],[2.288994,48.8168631],[2.2890036,48.8168982],[2.2911017,48.8177843],[2.2909297,48.8179306],[2.2908944,48.8179122],[2.2893975,48.8188569],[2.288715,48.8194529],[2.2886432,48.8195596]]]]},"properties":{"code_section":"920750000N","code_commune":"92075","section_courte":"N"}},{"type":"Feature","geometry":{"type":"MultiPolygon","coordinates":[[[[2.2812693,48.8149264],[2.2813246,48.8147879],[2.2835709,48.8152293],[2.2848305,48.8154951],[2.2864041,48.8159469],[2.2846327,48.8181632],[2.2842939,48.8180585],[2.2822312,48.817211],[2.2813406,48.8170196],[2.2805029,48.8166977],[2.2792147,48.8158134],[2.2801742,48.8153622],[2.2806467,48.8155918],[2.281135,48.8150989],[2.2810777,48.8150713],[2.2811727,48.8149564],[2.2812488,48.8149851],[2.2812693,48.8149264]]]]},"properties":{"code_section":"920750000O","code_commune":"92075","section_courte":"O"}},{"type":"Feature","geometry":{"type":"MultiPolygon","coordinates":[[[[2.2800747,48.8164674],[2.2801399,48.8164456],[2.2805029,48.8166977],[2.2811405,48.8169463],[2.2813406,48.8170196],[2.2822312,48.817211],[2.2842939,48.8180585],[2.2846327,48.8181632],[2.2844625,48.8188205],[2.2840626,48.8198341],[2.2840967,48.8201336],[2.2848374,48.8205999],[2.2837935,48.8208429],[2.2826016,48.8205117],[2.2816162,48.8201515],[2.2814321,48.8200651],[2.2795009,48.8188409],[2.2789026,48.8185944],[2.2780261,48.8181214],[2.2774246,48.8176912],[2.2789195,48.8168323],[2.2800747,48.8164674]]]]},"properties":{"code_section":"920750000P","code_commune":"92075","section_courte":"P"}},{"type":"Feature","geometry":{"type":"MultiPolygon","coordinates":[[[[2.2781359,48.8144256],[2.2781676,48.8142654],[2.2794252,48.8144453],[2.2813246,48.8147879],[2.2812488,48.8149851],[2.2811727,48.8149564],[2.2810777,48.8150713],[2.281135,48.8150989],[2.2806467,48.8155918],[2.2801742,48.8153622],[2.2792147,48.8158134],[2.2801399,48.8164456],[2.2789195,48.8168323],[2.2774246,48.8176912],[2.2770816,48.8174435],[2.2776565,48.8163895],[2.2773639,48.8152452],[2.2780528,48.8148473],[2.2781359,48.8144256]]]]},"properties":{"code_section":"920750000Q","code_commune":"92075","section_courte":"Q"}},{"type":"Feature","geometry":{"type":"MultiPolygon","coordinates":[[[[2.2770816,48.8174435],[2.2757897,48.817183],[2.2733844,48.8153321],[2.2730049,48.8149935],[2.2725782,48.814388],[2.2729888,48.8143984],[2.2742184,48.8145412],[2.2761437,48.8149687],[2.2771811,48.8153511],[2.2773639,48.8152452],[2.2776565,48.8163895],[2.2770816,48.8174435]]]]},"properties":{"code_section":"920750000R","code_commune":"92075","section_courte":"R"}}]}