{"type":"FeatureCollection","features":[{"type":"Feature","geometry":{"type":"MultiPolygon","coordinates":[[[[2.2088314,48.8748129],[2.2067978,48.8737017],[2.2083078,48.8724641],[2.2087304,48.8718649],[2.209302,48.8716817],[2.2107867,48.8700137],[2.2109085,48.8699699],[2.2132793,48.8706495],[2.2132543,48.8706995],[2.2146008,48.871055],[2.2156668,48.870828],[2.2164217,48.8707844],[2.2179879,48.8705165],[2.2180467,48.8705365],[2.2172696,48.8713765],[2.2164258,48.8733295],[2.2165154,48.873498],[2.2167506,48.8736155],[2.2173586,48.873864],[2.2175703,48.873867],[2.2178293,48.8755809],[2.2176159,48.8757817],[2.2175476,48.8760611],[2.2173597,48.876485],[2.2168835,48.8769645],[2.2166094,48.8767882],[2.2158371,48.8766777],[2.2148061,48.8766073],[2.2146261,48.8765048],[2.213138,48.8764336],[2.2119298,48.8769896],[2.2116463,48.8772839],[2.2115084,48.8772413],[2.2115287,48.8772081],[2.2108269,48.8772711],[2.210653,48.8767154],[2.2107824,48.8765265],[2.2104508,48.8758672],[2.2100992,48.8755312],[2.2088314,48.8748129]]]]},"properties":{"code_section":"920730000A","code_commune":"92073","section_courte":"A"}},{"type":"Feature","geometry":{"type":"MultiPolygon","coordinates":[[[[2.2208632,48.8722061],[2.2209167,48.8723052],[2.2203303,48.8727006],[2.2189929,48.8733186],[2.218764,48.8732261],[2.2181632,48.8731876],[2.2181093,48.8732041],[2.2177313,48.8728988],[2.2175337,48.8732334],[2.2175703,48.873867],[2.2173586,48.873864],[2.2165154,48.873498],[2.2164258,48.8733295],[2.2172696,48.8713765],[2.2181349,48.8704545],[2.218686,48.8704511],[2.2195641,48.8705838],[2.2203094,48.8707445],[2.2204896,48.8713073],[2.2205691,48.8714627],[2.2206118,48.8714611],[2.2204564,48.8715039],[2.2208632,48.8722061]]]]},"properties":{"code_section":"920730000B","code_commune":"92073","section_courte":"B"}},{"type":"Feature","geometry":{"type":"MultiPolygon","coordinates":[[[[2.2203303,48.8727006],[2.2209167,48.8723052],[2.2211664,48.8720786],[2.2218271,48.8730738],[2.2220007,48.8732568],[2.221511,48.8734189],[2.22171,48.8737658],[2.2215477,48.874055],[2.2206617,48.8743478],[2.2193866,48.8753058],[2.2178293,48.8755809],[2.2175703,48.873867],[2.2175337,48.8732334],[2.2177313,48.8728988],[2.2181093,48.8732041],[2.2181632,48.8731876],[2.218764,48.8732261],[2.2189929,48.8733186],[2.2203303,48.8727006]]]]},"properties":{"code_section":"920730000C","code_commune":"92073","section_courte":"C"}},{"type":"Feature","geometry":{"type":"MultiPolygon","coordinates":[[[[2.2228861,48.8763176],[2.221813,48.8769734],[2.2208069,48.8776401],[2.2199244,48.8769161],[2.2197059,48.8767927],[2.217853,48.8761184],[2.2177817,48.8756422],[2.2178293,48.8755809],[2.2193866,48.8753058],[2.2206617,48.8743478],[2.2215477,48.874055],[2.22171,48.8737658],[2.221511,48.8734189],[2.2219959,48.8732584],[2.2227002,48.8739179],[2.2234793,48.8745044],[2.2239813,48.8749294],[2.2235766,48.8751795],[2.2233869,48.8753737],[2.2232833,48.8755447],[2.2230822,48.8760747],[2.2228861,48.8763176]]]]},"properties":{"code_section":"920730000D","code_commune":"92073","section_courte":"D"}},{"type":"Feature","geometry":{"type":"MultiPolygon","coordinates":[[[[2.222587,48.880196],[2.2209094,48.8810226],[2.2188963,48.8797174],[2.2206709,48.8777423],[2.221813,48.8769734],[2.223549,48.878118],[2.2224879,48.8789039],[2.2225268,48.879128],[2.2230653,48.8795755],[2.2230998,48.8796517],[2.2230631,48.8797532],[2.222548,48.8801222],[2.222587,48.880196]]]]},"properties":{"code_section":"920730000E","code_commune":"92073","section_courte":"E"}},{"type":"Feature","geometry":{"type":"MultiPolygon","coordinates":[[[[2.223549,48.878118],[2.221813,48.8769734],[2.2228861,48.8763176],[2.2230822,48.8760747],[2.2232833,48.8755447],[2.2233869,48.8753737],[2.2235766,48.8751795],[2.2239813,48.8749294],[2.2258136,48.8765059],[2.2258755,48.8766083],[2.2247898,48.8771867],[2.2240627,48.8776207],[2.2240502,48.8777468],[2.223549,48.878118]]]]},"properties":{"code_section":"920730000F","code_commune":"92073","section_courte":"F"}},{"type":"Feature","geometry":{"type":"MultiPolygon","coordinates":[[[[2.2250304,48.8794233],[2.2236265,48.8802455],[2.222587,48.880196],[2.222548,48.8801222],[2.2230631,48.8797532],[2.2230998,48.8796517],[2.2230653,48.8795755],[2.2225268,48.879128],[2.2224879,48.8789039],[2.2240502,48.8777468],[2.2240627,48.8776207],[2.2247898,48.8771867],[2.2258755,48.8766083],[2.2275921,48.8781343],[2.2273121,48.87826],[2.2270791,48.878435],[2.2266501,48.8789572],[2.2265772,48.878981],[2.226275,48.878932],[2.2250304,48.8794233]]]]},"properties":{"code_section":"920730000G","code_commune":"92073","section_courte":"G"}},{"type":"Feature","geometry":{"type":"MultiPolygon","coordinates":[[[[2.2244972,48.8802938],[2.2236265,48.8802455],[2.2250304,48.8794233],[2.226275,48.878932],[2.2265772,48.878981],[2.2266501,48.8789572],[2.2270791,48.878435],[2.2273121,48.87826],[2.2275921,48.8781343],[2.2283693,48.8788783],[2.2293768,48.8799271],[2.2298573,48.8802482],[2.2292804,48.8804464],[2.2272295,48.8809811],[2.2263986,48.8807723],[2.2259836,48.8806995],[2.2252287,48.8804719],[2.2244972,48.8802938]]]]},"properties":{"code_section":"920730000H","code_commune":"92073","section_courte":"H"}},{"type":"Feature","geometry":{"type":"MultiPolygon","coordinates":[[[[2.232825,48.879245],[2.2333897,48.8798105],[2.2305902,48.8799248],[2.2298573,48.8802482],[2.2293768,48.8799271],[2.2283693,48.8788783],[2.2275643,48.87811],[2.2290362,48.8774183],[2.2291036,48.8773751],[2.2290166,48.8773064],[2.2303564,48.8766777],[2.2322386,48.8785135],[2.232825,48.879245]]]]},"properties":{"code_section":"920730000I","code_commune":"92073","section_courte":"I"}},{"type":"Feature","geometry":{"type":"MultiPolygon","coordinates":[[[[2.2276149,48.8780862],[2.2275643,48.87811],[2.2259476,48.8766741],[2.2269983,48.8761601],[2.2267139,48.8758856],[2.2282406,48.8752742],[2.2298449,48.8769177],[2.2290166,48.8773064],[2.2291036,48.8773751],[2.2290362,48.8774183],[2.2276149,48.8780862]]]]},"properties":{"code_section":"920730000J","code_commune":"92073","section_courte":"J"}},{"type":"Feature","geometry":{"type":"MultiPolygon","coordinates":[[[[2.2269889,48.8761519],[2.2259476,48.8766741],[2.2258136,48.8765059],[2.2234793,48.8745044],[2.2243542,48.8740393],[2.2245426,48.874161],[2.2248323,48.8737302],[2.2250136,48.8735779],[2.2263344,48.8730228],[2.2282406,48.8752742],[2.2267139,48.8758856],[2.2269889,48.8761519]]]]},"properties":{"code_section":"920730000K","code_commune":"92073","section_courte":"K"}},{"type":"Feature","geometry":{"type":"MultiPolygon","coordinates":[[[[2.223798,48.8743354],[2.2234793,48.8745044],[2.2227002,48.8739179],[2.2218271,48.8730738],[2.2211664,48.8720786],[2.2218408,48.8717322],[2.2241972,48.8711417],[2.224688,48.870981],[2.2263344,48.8730228],[2.2250136,48.8735779],[2.2248323,48.8737302],[2.2245426,48.874161],[2.2243542,48.8740393],[2.223798,48.8743354]]]]},"properties":{"code_section":"920730000L","code_commune":"92073","section_courte":"L"}},{"type":"Feature","geometry":{"type":"MultiPolygon","coordinates":[[[[2.2273819,48.8741504],[2.2273101,48.8741763],[2.224688,48.870981],[2.2272131,48.8701223],[2.22737,48.8701398],[2.227406,48.8708014],[2.2281863,48.8717048],[2.2282214,48.8718205],[2.2295049,48.8732484],[2.2273819,48.8741504]]]]},"properties":{"code_section":"920730000M","code_commune":"92073","section_courte":"M"}},{"type":"Feature","geometry":{"type":"MultiPolygon","coordinates":[[[[2.2282406,48.8752742],[2.2273101,48.8741763],[2.2295049,48.8732484],[2.2317158,48.8756682],[2.2326789,48.8764989],[2.2309916,48.8772974],[2.2303564,48.8766777],[2.2298449,48.8769177],[2.2282406,48.8752742]]]]},"properties":{"code_section":"920730000N","code_commune":"92073","section_courte":"N"}},{"type":"Feature","geometry":{"type":"MultiPolygon","coordinates":[[[[2.2336505,48.8773186],[2.2363754,48.8796016],[2.2353645,48.8797198],[2.2333897,48.8798105],[2.232825,48.879245],[2.2322386,48.8785135],[2.2309916,48.8772974],[2.2326789,48.8764989],[2.2336505,48.8773186]]]]},"properties":{"code_section":"920730000O","code_commune":"92073","section_courte":"O"}},{"type":"Feature","geometry":{"type":"MultiPolygon","coordinates":[[[[2.231526,48.8723111],[2.2344268,48.8746534],[2.2319253,48.8758644],[2.2294999,48.8732428],[2.231526,48.8723111]]]]},"properties":{"code_section":"920730000P","code_commune":"92073","section_courte":"P"}},{"type":"Feature","geometry":{"type":"MultiPolygon","coordinates":[[[[2.2336991,48.8713063],[2.2338798,48.8712221],[2.2351139,48.8722905],[2.2367933,48.873494],[2.2344268,48.8746534],[2.2315288,48.8723098],[2.2336991,48.8713063]]]]},"properties":{"code_section":"920730000Q","code_commune":"92073","section_courte":"Q"}},{"type":"Feature","geometry":{"type":"MultiPolygon","coordinates":[[[[2.2312469,48.8696973],[2.2319102,48.8693601],[2.2325836,48.870054],[2.2338798,48.8712221],[2.231526,48.8723111],[2.2291555,48.8706848],[2.2296187,48.8704858],[2.2297068,48.8705205],[2.2310891,48.8698167],[2.2312469,48.8696973]]]]},"properties":{"code_section":"920730000R","code_commune":"92073","section_courte":"R"}},{"type":"Feature","geometry":{"type":"MultiPolygon","coordinates":[[[[2.231526,48.8723111],[2.2294999,48.8732428],[2.2282214,48.8718205],[2.2281863,48.8717048],[2.227406,48.8708014],[2.22737,48.8701398],[2.2282637,48.8700247],[2.2291555,48.8706848],[2.231526,48.8723111]]]]},"properties":{"code_section":"920730000S","code_commune":"92073","section_courte":"S"}},{"type":"Feature","geometry":{"type":"MultiPolygon","coordinates":[[[[2.2246063,48.8685057],[2.2245199,48.8682863],[2.2262104,48.8677352],[2.2264334,48.8679017],[2.2266868,48.8682146],[2.2271068,48.8684508],[2.2275528,48.8687643],[2.2276761,48.8689692],[2.2277816,48.8692625],[2.2277494,48.870091],[2.22737,48.8701398],[2.2272131,48.8701223],[2.2241972,48.8711417],[2.2234993,48.8698754],[2.224048,48.8699652],[2.2244717,48.8699655],[2.2252323,48.8698771],[2.2249486,48.8691335],[2.2248753,48.8691584],[2.2246063,48.8685057]]]]},"properties":{"code_section":"920730000T","code_commune":"92073","section_courte":"T"}},{"type":"Feature","geometry":{"type":"MultiPolygon","coordinates":[[[[2.2243248,48.866207],[2.2251203,48.8669382],[2.2262104,48.8677352],[2.2245199,48.8682863],[2.2248753,48.8691584],[2.2249486,48.8691335],[2.2252323,48.8698771],[2.2244717,48.8699655],[2.224048,48.8699652],[2.2234993,48.8698754],[2.222372,48.8684673],[2.2218557,48.8680972],[2.222179,48.8679498],[2.2217489,48.8676543],[2.2217738,48.867535],[2.2219669,48.8673114],[2.2236121,48.8666986],[2.2242345,48.8663022],[2.2243248,48.866207]]]]},"properties":{"code_section":"920730000U","code_commune":"92073","section_courte":"U"}},{"type":"Feature","geometry":{"type":"MultiPolygon","coordinates":[[[[2.2293554,48.8705794],[2.2291555,48.8706848],[2.2282637,48.8700247],[2.2277494,48.870091],[2.2277816,48.8692625],[2.2276761,48.8689692],[2.2275528,48.8687643],[2.2271068,48.8684508],[2.2275216,48.8682141],[2.2285004,48.8678215],[2.2290071,48.8675362],[2.2297747,48.867226],[2.2319102,48.8693601],[2.2312469,48.8696973],[2.2310891,48.8698167],[2.2297068,48.8705205],[2.2296187,48.8704858],[2.2294282,48.8705829],[2.2293554,48.8705794]]]]},"properties":{"code_section":"920730000V","code_commune":"92073","section_courte":"V"}},{"type":"Feature","geometry":{"type":"MultiPolygon","coordinates":[[[[2.2294989,48.8669825],[2.2297747,48.867226],[2.2290071,48.8675362],[2.2285004,48.8678215],[2.2275216,48.8682141],[2.2271068,48.8684508],[2.2266868,48.8682146],[2.2264334,48.8679017],[2.2251203,48.8669382],[2.2259754,48.8667847],[2.2266077,48.8665696],[2.2284643,48.865842],[2.2294989,48.8669825]]]]},"properties":{"code_section":"920730000X","code_commune":"92073","section_courte":"X"}},{"type":"Feature","geometry":{"type":"MultiPolygon","coordinates":[[[[2.2226719,48.8608871],[2.2224629,48.8598499],[2.22569,48.8594424],[2.2269473,48.8619284],[2.2272841,48.862714],[2.2279772,48.8651244],[2.2281339,48.8654265],[2.2284643,48.865842],[2.2266077,48.8665696],[2.2259754,48.8667847],[2.2251203,48.8669382],[2.2242358,48.8661254],[2.2242175,48.8659642],[2.2246321,48.8649143],[2.2238296,48.8635094],[2.2226719,48.8608871]]]]},"properties":{"code_section":"920730000Y","code_commune":"92073","section_courte":"Y"}},{"type":"Feature","geometry":{"type":"MultiPolygon","coordinates":[[[[2.2202232,48.8637118],[2.2201582,48.8637203],[2.2194681,48.8609521],[2.2194247,48.860954],[2.219371,48.8598738],[2.2201374,48.859948],[2.2215058,48.8599645],[2.2224629,48.8598499],[2.2226719,48.8608871],[2.2235388,48.8628506],[2.2225588,48.8630569],[2.2214357,48.8632286],[2.2214254,48.8631886],[2.2203724,48.8633613],[2.2204357,48.8636798],[2.2202232,48.8637118]]]]},"properties":{"code_section":"920730000Z","code_commune":"92073","section_courte":"Z"}},{"type":"Feature","geometry":{"type":"MultiPolygon","coordinates":[[[[2.2210701,48.8632581],[2.2214254,48.8631886],[2.2214357,48.8632286],[2.2225588,48.8630569],[2.2235388,48.8628506],[2.2238296,48.8635094],[2.2246321,48.8649143],[2.2242175,48.8659642],[2.2242358,48.8661254],[2.2243248,48.866207],[2.2242345,48.8663022],[2.2236121,48.8666986],[2.2219669,48.8673114],[2.2219105,48.8673766],[2.2214927,48.867323],[2.2215455,48.866856],[2.2215321,48.8665256],[2.2214104,48.865984],[2.2207146,48.8645346],[2.2203179,48.8643162],[2.2201582,48.8637203],[2.2204357,48.8636798],[2.2203724,48.8633613],[2.2210701,48.8632581]]]]},"properties":{"code_section":"92073000AB","code_commune":"92073","section_courte":"AB"}},{"type":"Feature","geometry":{"type":"MultiPolygon","coordinates":[[[[2.2234993,48.8698754],[2.2241972,48.8711417],[2.2218408,48.8717322],[2.221151,48.8720877],[2.2209167,48.8723052],[2.2204564,48.8715039],[2.2206118,48.8714611],[2.2205691,48.8714627],[2.2204896,48.8713073],[2.2203094,48.8707445],[2.220375,48.8706229],[2.2200163,48.870047],[2.2198637,48.8697282],[2.2197021,48.8692797],[2.2196146,48.8688324],[2.221009,48.8685566],[2.2213241,48.8689959],[2.2213898,48.8689315],[2.2214934,48.8684631],[2.222177,48.8683274],[2.222372,48.8684673],[2.2234993,48.8698754]]]]},"properties":{"code_section":"92073000AC","code_commune":"92073","section_courte":"AC"}},{"type":"Feature","geometry":{"type":"MultiPolygon","coordinates":[[[[2.2217837,48.8673593],[2.2219105,48.8673766],[2.2217738,48.867535],[2.2217489,48.8676543],[2.222179,48.8679498],[2.2218557,48.8680972],[2.222177,48.8683274],[2.2214934,48.8684631],[2.2213898,48.8689315],[2.2213241,48.8689959],[2.221009,48.8685566],[2.2196146,48.8688324],[2.219514,48.8684181],[2.2187457,48.8667844],[2.2184627,48.8657861],[2.2193849,48.8653888],[2.219548,48.8655367],[2.2209108,48.8649536],[2.221306,48.8657256],[2.2214805,48.866225],[2.2215455,48.866856],[2.2214927,48.867323],[2.2217837,48.8673593]]]]},"properties":{"code_section":"92073000AD","code_commune":"92073","section_courte":"AD"}},{"type":"Feature","geometry":{"type":"MultiPolygon","coordinates":[[[[2.2184859,48.8657819],[2.2183029,48.8651536],[2.217835,48.86414],[2.2174266,48.8630627],[2.2174834,48.8630355],[2.2173253,48.862628],[2.2178628,48.8627274],[2.2177598,48.8624041],[2.21977,48.8621666],[2.2203179,48.8643162],[2.2207146,48.8645346],[2.2209108,48.8649536],[2.219548,48.8655367],[2.2193849,48.8653888],[2.2184859,48.8657819]]]]},"properties":{"code_section":"92073000AE","code_commune":"92073","section_courte":"AE"}},{"type":"Feature","geometry":{"type":"MultiPolygon","coordinates":[[[[2.217424,48.8626422],[2.2172185,48.8626124],[2.2165079,48.8605015],[2.2163044,48.8597848],[2.2188675,48.8598258],[2.219371,48.8598738],[2.2194247,48.860954],[2.2194681,48.8609521],[2.21977,48.8621666],[2.2177598,48.8624041],[2.2178628,48.8627274],[2.217424,48.8626422]]]]},"properties":{"code_section":"92073000AF","code_commune":"92073","section_courte":"AF"}},{"type":"Feature","geometry":{"type":"MultiPolygon","coordinates":[[[[2.2171907,48.8625029],[2.2172313,48.862662],[2.2151659,48.862505],[2.2146275,48.8623708],[2.2125838,48.8616491],[2.2130296,48.8608668],[2.2136989,48.8594435],[2.2137876,48.8593816],[2.2140299,48.8593886],[2.2155956,48.8597133],[2.2163044,48.8597848],[2.2165079,48.8605015],[2.2171907,48.8625029]]]]},"properties":{"code_section":"92073000AG","code_commune":"92073","section_courte":"AG"}},{"type":"Feature","geometry":{"type":"MultiPolygon","coordinates":[[[[2.2173613,48.8627336],[2.2174834,48.8630355],[2.2174266,48.8630627],[2.217835,48.86414],[2.2173204,48.8642311],[2.2168166,48.8642456],[2.2146968,48.8644803],[2.2136402,48.8645091],[2.2123142,48.8634322],[2.2124322,48.8620242],[2.2125838,48.8616491],[2.2146275,48.8623708],[2.2151659,48.862505],[2.2172313,48.862662],[2.2172185,48.8626124],[2.2173253,48.862628],[2.2173613,48.8627336]]]]},"properties":{"code_section":"92073000AH","code_commune":"92073","section_courte":"AH"}},{"type":"Feature","geometry":{"type":"MultiPolygon","coordinates":[[[[2.2136894,48.864558],[2.2136402,48.8645091],[2.2146968,48.8644803],[2.2168166,48.8642456],[2.2173204,48.8642311],[2.217835,48.86414],[2.2183029,48.8651536],[2.2185152,48.8660693],[2.2187457,48.8667844],[2.2168416,48.8670805],[2.2167294,48.8671209],[2.2166773,48.867015],[2.2136894,48.864558]]]]},"properties":{"code_section":"92073000AI","code_commune":"92073","section_courte":"AI"}},{"type":"Feature","geometry":{"type":"MultiPolygon","coordinates":[[[[2.2203267,48.8706825],[2.2203094,48.8707445],[2.2195641,48.8705838],[2.218686,48.8704511],[2.2181349,48.8704545],[2.2180747,48.8703297],[2.2174867,48.8698852],[2.2174954,48.8682292],[2.2167294,48.8671209],[2.2168416,48.8670805],[2.2187457,48.8667844],[2.219514,48.8684181],[2.2197021,48.8692797],[2.2198322,48.8696512],[2.2200163,48.870047],[2.220375,48.8706229],[2.2203267,48.8706825]]]]},"properties":{"code_section":"92073000AJ","code_commune":"92073","section_courte":"AJ"}},{"type":"Feature","geometry":{"type":"MultiPolygon","coordinates":[[[[2.2171103,48.8700416],[2.2174867,48.8698852],[2.2180747,48.8703297],[2.2181349,48.8704545],[2.2180467,48.8705365],[2.2179879,48.8705165],[2.2164217,48.8707844],[2.2156668,48.870828],[2.2146008,48.871055],[2.2132543,48.8706995],[2.2132793,48.8706495],[2.2129451,48.8704082],[2.2123706,48.8699043],[2.2122439,48.8698766],[2.211873,48.8696018],[2.2116559,48.8693629],[2.2113924,48.8689819],[2.2125525,48.8685488],[2.2132679,48.8680519],[2.213986,48.8677995],[2.2141389,48.8680452],[2.2145334,48.8679123],[2.2146727,48.8681112],[2.2147199,48.8681597],[2.21475,48.8681487],[2.2148333,48.8684313],[2.2153182,48.8695425],[2.2155974,48.8695188],[2.21583,48.8695508],[2.2164255,48.8698746],[2.2168785,48.8700775],[2.2171103,48.8700416]]]]},"properties":{"code_section":"92073000AK","code_commune":"92073","section_courte":"AK"}},{"type":"Feature","geometry":{"type":"MultiPolygon","coordinates":[[[[2.2140083,48.8678333],[2.213986,48.8677995],[2.214744,48.8675505],[2.2156634,48.8673125],[2.2159507,48.867338],[2.2167308,48.8671231],[2.2174954,48.8682292],[2.2174867,48.8698852],[2.2171103,48.8700416],[2.2169243,48.8700859],[2.2164255,48.8698746],[2.2159023,48.869575],[2.2155974,48.8695188],[2.2153182,48.8695425],[2.2148333,48.8684313],[2.21475,48.8681487],[2.2147199,48.8681597],[2.2146727,48.8681112],[2.2145334,48.8679123],[2.2141389,48.8680452],[2.2140083,48.8678333]]]]},"properties":{"code_section":"92073000AL","code_commune":"92073","section_courte":"AL"}},{"type":"Feature","geometry":{"type":"MultiPolygon","coordinates":[[[[2.2166773,48.867015],[2.2167308,48.8671231],[2.2159507,48.867338],[2.2156634,48.8673125],[2.214744,48.8675505],[2.2132679,48.8680519],[2.2125525,48.8685488],[2.2113924,48.8689819],[2.2112691,48.8687088],[2.2112217,48.8684893],[2.211213,48.8681093],[2.2114133,48.8666973],[2.2120511,48.8666702],[2.213749,48.8658869],[2.2152152,48.8658112],[2.2166773,48.867015]]]]},"properties":{"code_section":"92073000AM","code_commune":"92073","section_courte":"AM"}},{"type":"Feature","geometry":{"type":"MultiPolygon","coordinates":[[[[2.2084721,48.8657438],[2.2081799,48.86518],[2.2102488,48.8648403],[2.2105525,48.8647624],[2.210878,48.8646259],[2.213657,48.8645227],[2.2152152,48.8658112],[2.213749,48.8658869],[2.2120511,48.8666702],[2.2105212,48.8667533],[2.2099131,48.8668439],[2.2091497,48.8670918],[2.2084721,48.8657438]]]]},"properties":{"code_section":"92073000AN","code_commune":"92073","section_courte":"AN"}},{"type":"Feature","geometry":{"type":"MultiPolygon","coordinates":[[[[2.2078788,48.8646155],[2.2077653,48.8644069],[2.20832,48.8641704],[2.2098901,48.8629815],[2.2112628,48.8622228],[2.2125838,48.8616491],[2.2124322,48.8620242],[2.2123142,48.8634322],[2.213657,48.8645227],[2.210878,48.8646259],[2.2105525,48.8647624],[2.2102488,48.8648403],[2.2081799,48.86518],[2.2078788,48.8646155]]]]},"properties":{"code_section":"92073000AO","code_commune":"92073","section_courte":"AO"}},{"type":"Feature","geometry":{"type":"MultiPolygon","coordinates":[[[[2.2003398,48.8625991],[2.1997653,48.8613985],[2.2036055,48.8605968],[2.2052327,48.8602966],[2.2059069,48.8603022],[2.207564,48.8605791],[2.2095738,48.8608734],[2.2105263,48.8610603],[2.2125838,48.8616491],[2.2112628,48.8622228],[2.2098901,48.8629815],[2.20832,48.8641704],[2.2074376,48.8645435],[2.2069667,48.8646788],[2.2046098,48.8651273],[2.2034877,48.8654179],[2.2020438,48.8661874],[2.2003398,48.8625991]]]]},"properties":{"code_section":"92073000AP","code_commune":"92073","section_courte":"AP"}},{"type":"Feature","geometry":{"type":"MultiPolygon","coordinates":[[[[2.2162489,48.8779417],[2.2161897,48.8778094],[2.2162045,48.8776768],[2.2162999,48.8775422],[2.2173597,48.876485],[2.2175476,48.8760611],[2.2176159,48.8757817],[2.2177817,48.8756422],[2.217853,48.8761184],[2.2197059,48.8767927],[2.2199244,48.8769161],[2.2208069,48.8776401],[2.2206709,48.8777423],[2.2188963,48.8797174],[2.2164053,48.8781012],[2.2162489,48.8779417]]]]},"properties":{"code_section":"92073000AQ","code_commune":"92073","section_courte":"AQ"}},{"type":"Feature","geometry":{"type":"MultiPolygon","coordinates":[[[[2.222587,48.880196],[2.2244972,48.8802938],[2.2252287,48.8804719],[2.2259836,48.8806995],[2.2263986,48.8807723],[2.2272295,48.8809811],[2.2264953,48.8811831],[2.2236113,48.8827632],[2.2209094,48.8810226],[2.222587,48.880196]]]]},"properties":{"code_section":"92073000AR","code_commune":"92073","section_courte":"AR"}}]}