{"type":"FeatureCollection","features":[{"type":"Feature","geometry":{"type":"MultiPolygon","coordinates":[[[[2.3106823,48.9453036],[2.3104971,48.944807],[2.3150087,48.9436449],[2.3171862,48.9430428],[2.3192586,48.9426324],[2.3197609,48.9435143],[2.3204491,48.9434057],[2.3221166,48.9462395],[2.3133298,48.9476035],[2.3116736,48.9479251],[2.3106823,48.9453036]]]]},"properties":{"code_section":"920780000A","code_commune":"92078","section_courte":"A"}},{"type":"Feature","geometry":{"type":"MultiPolygon","coordinates":[[[[2.3198769,48.9425076],[2.3171862,48.9430428],[2.3150087,48.9436449],[2.3104971,48.944807],[2.3092546,48.9415133],[2.3099839,48.9413059],[2.3091993,48.9403002],[2.3109309,48.9397088],[2.3126027,48.9391965],[2.3145603,48.9381586],[2.3201365,48.9423632],[2.3198769,48.9425076]]]]},"properties":{"code_section":"920780000B","code_commune":"92078","section_courte":"B"}},{"type":"Feature","geometry":{"type":"MultiPolygon","coordinates":[[[[2.3147429,48.9382962],[2.3145603,48.9381586],[2.314833,48.938014],[2.3173597,48.9373307],[2.3178377,48.9371504],[2.3183195,48.9369035],[2.3185262,48.9367666],[2.3192327,48.9361726],[2.320574,48.9349175],[2.3226789,48.935804],[2.3226427,48.9360306],[2.3244438,48.9361876],[2.3247236,48.9362638],[2.3245278,48.9372326],[2.324187,48.9376072],[2.3229698,48.9386958],[2.3227065,48.9388093],[2.3222564,48.9388964],[2.32205,48.9389866],[2.3217178,48.9395885],[2.3233445,48.9406793],[2.3213933,48.9416671],[2.3201365,48.9423632],[2.3147429,48.9382962]]]]},"properties":{"code_section":"920780000C","code_commune":"92078","section_courte":"C"}},{"type":"Feature","geometry":{"type":"MultiPolygon","coordinates":[[[[2.3289914,48.9427119],[2.3293363,48.9424877],[2.3313337,48.9430874],[2.3305005,48.9434864],[2.330706,48.9436935],[2.3301564,48.9439519],[2.3305,48.9443417],[2.328965,48.944849],[2.3262176,48.9455439],[2.3248408,48.9458075],[2.3221166,48.9462395],[2.3204491,48.9434057],[2.3197609,48.9435143],[2.3192586,48.9426324],[2.3198769,48.9425076],[2.3213933,48.9416671],[2.3233445,48.9406793],[2.3233089,48.9406553],[2.3241558,48.9402262],[2.3248546,48.940387],[2.3248679,48.9408439],[2.3245428,48.9417736],[2.3245381,48.9420191],[2.3248251,48.9429401],[2.3251304,48.9429412],[2.3254898,48.943512],[2.3281883,48.9428561],[2.3289329,48.9427497],[2.3289914,48.9427119]]]]},"properties":{"code_section":"920780000D","code_commune":"92078","section_courte":"D"}},{"type":"Feature","geometry":{"type":"MultiPolygon","coordinates":[[[[2.3358835,48.937991],[2.3363366,48.9380229],[2.336215,48.9386808],[2.3359138,48.9397218],[2.3354763,48.9409111],[2.3353609,48.9411027],[2.3348837,48.9415659],[2.3337451,48.9425355],[2.3330416,48.9430802],[2.332693,48.943294],[2.3316685,48.9438286],[2.3305,48.9443417],[2.3301564,48.9439519],[2.330706,48.9436935],[2.3305005,48.9434864],[2.3313337,48.9430874],[2.3293363,48.9424877],[2.3311707,48.9412939],[2.3313785,48.9410464],[2.3315163,48.9407902],[2.331566,48.9405567],[2.3315595,48.9398532],[2.3319575,48.9398236],[2.332569,48.9388956],[2.3326465,48.9388502],[2.3328477,48.9388724],[2.3328265,48.9385615],[2.3326543,48.9377528],[2.3358835,48.937991]]]]},"properties":{"code_section":"920780000E","code_commune":"92078","section_courte":"E"}},{"type":"Feature","geometry":{"type":"MultiPolygon","coordinates":[[[[2.3301925,48.9419299],[2.3289329,48.9427497],[2.3281883,48.9428561],[2.3254898,48.943512],[2.3251304,48.9429412],[2.3248251,48.9429401],[2.3245381,48.9420191],[2.3245428,48.9417736],[2.3248679,48.9408439],[2.3248546,48.940387],[2.3241558,48.9402262],[2.3262614,48.9392266],[2.3294744,48.9373494],[2.3312018,48.9367666],[2.332327,48.9364417],[2.3327506,48.9381409],[2.3328477,48.9388724],[2.3326465,48.9388502],[2.332569,48.9388956],[2.3319575,48.9398236],[2.3315595,48.9398532],[2.331566,48.9405567],[2.3315163,48.9407902],[2.3313785,48.9410464],[2.3311707,48.9412939],[2.3301925,48.9419299]]]]},"properties":{"code_section":"920780000F","code_commune":"92078","section_courte":"F"}},{"type":"Feature","geometry":{"type":"MultiPolygon","coordinates":[[[[2.3245278,48.9372326],[2.3248692,48.9355476],[2.325283,48.9349209],[2.326195,48.9350027],[2.3261986,48.9350446],[2.3262517,48.9350489],[2.3263288,48.9349367],[2.3264319,48.9349413],[2.3315166,48.9353895],[2.3318773,48.9365638],[2.3294744,48.9373494],[2.3262614,48.9392266],[2.3233089,48.9406553],[2.3217178,48.9395885],[2.32205,48.9389866],[2.3222564,48.9388964],[2.3227065,48.9388093],[2.3229698,48.9386958],[2.324187,48.9376072],[2.3245278,48.9372326]]]]},"properties":{"code_section":"920780000G","code_commune":"92078","section_courte":"G"}},{"type":"Feature","geometry":{"type":"MultiPolygon","coordinates":[[[[2.3354174,48.9379564],[2.3326543,48.9377528],[2.332327,48.9364417],[2.3318773,48.9365638],[2.3315166,48.9353895],[2.3330125,48.9354952],[2.33682,48.9356525],[2.3364285,48.9374144],[2.3363366,48.9380229],[2.3354174,48.9379564]]]]},"properties":{"code_section":"920780000H","code_commune":"92078","section_courte":"H"}},{"type":"Feature","geometry":{"type":"MultiPolygon","coordinates":[[[[2.3359464,48.9328594],[2.3365521,48.9327497],[2.336857,48.9336372],[2.3369455,48.9340748],[2.3369676,48.9345152],[2.33682,48.9356525],[2.3330125,48.9354952],[2.3316517,48.9354013],[2.3313794,48.9345449],[2.3310594,48.933179],[2.3325767,48.9330618],[2.3326406,48.9334005],[2.3332528,48.9333517],[2.3359464,48.9328594]]]]},"properties":{"code_section":"920780000I","code_commune":"92078","section_courte":"I"}},{"type":"Feature","geometry":{"type":"MultiPolygon","coordinates":[[[[2.335148,48.9310274],[2.3357614,48.93105],[2.3365521,48.9327497],[2.3332528,48.9333517],[2.3326406,48.9334005],[2.3322078,48.9310108],[2.3339282,48.9309914],[2.3339398,48.9311587],[2.3347539,48.9310962],[2.3348052,48.9310147],[2.335148,48.9310274]]]]},"properties":{"code_section":"920780000J","code_commune":"92078","section_courte":"J"}},{"type":"Feature","geometry":{"type":"MultiPolygon","coordinates":[[[[2.3322934,48.9310095],[2.3322078,48.9310108],[2.3316534,48.9280492],[2.3333502,48.9273002],[2.3339707,48.9280264],[2.3346673,48.9290268],[2.3357614,48.93105],[2.3348052,48.9310147],[2.3347539,48.9310962],[2.3339398,48.9311587],[2.3339282,48.9309914],[2.3322934,48.9310095]]]]},"properties":{"code_section":"920780000K","code_commune":"92078","section_courte":"K"}},{"type":"Feature","geometry":{"type":"MultiPolygon","coordinates":[[[[2.3322078,48.9310108],[2.3325767,48.9330618],[2.3310594,48.933179],[2.3313794,48.9345449],[2.3316517,48.9354013],[2.3264319,48.9349413],[2.3269406,48.9340902],[2.327143,48.9332425],[2.3273665,48.9317017],[2.3272685,48.9307998],[2.3272139,48.9306309],[2.3267728,48.9298882],[2.3278738,48.9296501],[2.3295302,48.9291784],[2.3309758,48.9286953],[2.3317369,48.9283685],[2.3322078,48.9310108]]]]},"properties":{"code_section":"920780000L","code_commune":"92078","section_courte":"L"}},{"type":"Feature","geometry":{"type":"MultiPolygon","coordinates":[[[[2.3272518,48.9324858],[2.327143,48.9332425],[2.3269406,48.9340902],[2.3264319,48.9349413],[2.3263288,48.9349367],[2.3262517,48.9350489],[2.3261986,48.9350446],[2.326195,48.9350027],[2.325283,48.9349209],[2.3248692,48.9355476],[2.3247236,48.9362638],[2.3244438,48.9361876],[2.3226427,48.9360306],[2.3226789,48.935804],[2.320574,48.9349175],[2.3209786,48.9344959],[2.3210101,48.934396],[2.3220872,48.932859],[2.3220873,48.9327089],[2.3218326,48.9323489],[2.3232203,48.9311636],[2.3250111,48.9302954],[2.3260267,48.9300099],[2.3267728,48.9298882],[2.3272139,48.9306309],[2.3272685,48.9307998],[2.3273674,48.9316838],[2.3272518,48.9324858]]]]},"properties":{"code_section":"920780000M","code_commune":"92078","section_courte":"M"}},{"type":"Feature","geometry":{"type":"MultiPolygon","coordinates":[[[[2.3218326,48.9323489],[2.321101,48.9313178],[2.3208563,48.9312132],[2.3183375,48.9275166],[2.3254237,48.9249031],[2.3271533,48.9257701],[2.3311695,48.9276959],[2.3316534,48.9280492],[2.3317369,48.9283685],[2.3309758,48.9286953],[2.3295302,48.9291784],[2.3278738,48.9296501],[2.3267728,48.9298882],[2.3260267,48.9300099],[2.3250111,48.9302954],[2.3232203,48.9311636],[2.3218326,48.9323489]]]]},"properties":{"code_section":"920780000N","code_commune":"92078","section_courte":"N"}},{"type":"Feature","geometry":{"type":"MultiPolygon","coordinates":[[[[2.3271533,48.9257701],[2.3254237,48.9249031],[2.3285207,48.9226937],[2.329102,48.9231786],[2.3315624,48.9256156],[2.3328834,48.9268201],[2.3333502,48.9273002],[2.3316534,48.9280492],[2.3311695,48.9276959],[2.3271533,48.9257701]]]]},"properties":{"code_section":"920780000O","code_commune":"92078","section_courte":"O"}}]}