{"type":"FeatureCollection","features":[{"type":"Feature","geometry":{"type":"MultiPolygon","coordinates":[[[[2.586357,48.5368519],[2.5868592,48.5364546],[2.5884486,48.5360803],[2.5880463,48.5356299],[2.589629,48.5348449],[2.5907121,48.53422],[2.5910471,48.5339949],[2.591163,48.5342087],[2.5912855,48.5345818],[2.5913171,48.5345629],[2.5918474,48.5352362],[2.6092046,48.5309124],[2.6183055,48.5338103],[2.6145167,48.5354641],[2.6143535,48.5354446],[2.6136256,48.5356334],[2.6126133,48.5359723],[2.6114038,48.5366733],[2.6100756,48.5351792],[2.6082601,48.5373166],[2.6060671,48.5387823],[2.6055703,48.5393175],[2.6052009,48.539905],[2.6048651,48.5409668],[2.6046737,48.5413617],[2.6045255,48.541591],[2.6044088,48.5415734],[2.6030812,48.5434736],[2.6023849,48.5438578],[2.601937,48.5440186],[2.6007313,48.5443931],[2.6003767,48.5443784],[2.6010038,48.5451068],[2.5965293,48.5452813],[2.5889828,48.54805],[2.5735094,48.5452789],[2.5813619,48.5406024],[2.5859129,48.5369837],[2.586357,48.5368519]]]]},"properties":{"code_section":"770390000A","code_commune":"77039","section_courte":"A"}},{"type":"Feature","geometry":{"type":"MultiPolygon","coordinates":[[[[2.6087651,48.5307625],[2.6092069,48.5309117],[2.5918474,48.5352362],[2.5913171,48.5345629],[2.5912855,48.5345818],[2.591163,48.5342087],[2.5910471,48.5339949],[2.591001,48.5337871],[2.5904061,48.532882],[2.5898252,48.5321357],[2.5913926,48.5315594],[2.5919876,48.5311646],[2.5930137,48.5308515],[2.5938098,48.530652],[2.59406,48.5303438],[2.5943569,48.5301316],[2.5951079,48.52982],[2.5947411,48.5291084],[2.5945155,48.5287636],[2.5943799,48.5279852],[2.5941433,48.5271435],[2.5941901,48.5269419],[2.5943357,48.5267788],[2.5958321,48.5264146],[2.596137,48.5264749],[2.5963021,48.5264467],[2.5964243,48.5262817],[2.596391,48.5262409],[2.5968423,48.526082],[2.5972908,48.5258194],[2.5974967,48.5256314],[2.5975474,48.5253645],[2.5975831,48.525338],[2.5982791,48.5254268],[2.5985759,48.5254992],[2.5979569,48.5243689],[2.5992725,48.5238802],[2.5992306,48.5238184],[2.5995154,48.5237223],[2.5997456,48.5241159],[2.6001086,48.5241064],[2.6017399,48.5235329],[2.6019129,48.5239669],[2.6023471,48.5239025],[2.6048497,48.5236973],[2.6050143,48.523673],[2.6052061,48.5235991],[2.6052482,48.523641],[2.6064711,48.5234785],[2.6064837,48.5235137],[2.6065416,48.523522],[2.608003,48.5233464],[2.6088011,48.5233089],[2.6089634,48.5235503],[2.6090665,48.5236403],[2.6094574,48.5237739],[2.6095282,48.5236649],[2.609623,48.5236253],[2.6096504,48.5237471],[2.6097364,48.5238294],[2.6100918,48.5240135],[2.6106382,48.5240284],[2.610885,48.5241151],[2.6110472,48.523993],[2.6113953,48.5241098],[2.6119716,48.5241867],[2.6121817,48.524855],[2.6123272,48.5255481],[2.6122305,48.52574],[2.6122345,48.5276688],[2.6120753,48.5277237],[2.611917,48.5282929],[2.6111284,48.5285592],[2.6098577,48.5298967],[2.609154,48.5305363],[2.6087651,48.5307625]]]]},"properties":{"code_section":"770390000B","code_commune":"77039","section_courte":"B"}},{"type":"Feature","geometry":{"type":"MultiPolygon","coordinates":[[[[2.5650991,48.5386183],[2.5686355,48.5384589],[2.5683448,48.5379209],[2.5717705,48.537377],[2.57208,48.5357785],[2.5732868,48.5354524],[2.5739895,48.5351818],[2.5742198,48.5349867],[2.5739492,48.5346],[2.574495,48.5344243],[2.5752602,48.5342353],[2.575908,48.5342853],[2.5759596,48.5343391],[2.5759424,48.5345882],[2.5759848,48.5346307],[2.5784936,48.5352382],[2.5786367,48.535158],[2.5787215,48.534875],[2.5786711,48.5348375],[2.5788857,48.5348353],[2.5803956,48.5345093],[2.5806165,48.5344271],[2.5807855,48.534314],[2.5811469,48.5339612],[2.5812013,48.5339508],[2.5812483,48.5339708],[2.5813942,48.5341906],[2.5816361,48.5346949],[2.5818334,48.534959],[2.5818906,48.5349752],[2.5835453,48.5343702],[2.5835859,48.5344031],[2.5839012,48.5351862],[2.5844887,48.5362905],[2.5848468,48.5378422],[2.5813619,48.5406024],[2.5735094,48.5452789],[2.5626046,48.5432838],[2.5632312,48.5418546],[2.5631812,48.5418466],[2.5629566,48.5402134],[2.5622875,48.5385356],[2.5625937,48.5384907],[2.5626143,48.5385325],[2.5626768,48.5385223],[2.5627959,48.5387213],[2.5650991,48.5386183]]]]},"properties":{"code_section":"770390000C","code_commune":"77039","section_courte":"C"}},{"type":"Feature","geometry":{"type":"MultiPolygon","coordinates":[[[[2.5719127,48.5333295],[2.5719327,48.5334066],[2.5729309,48.5348099],[2.5728659,48.5348316],[2.5732868,48.5354524],[2.57208,48.5357785],[2.5717705,48.537377],[2.5683448,48.5379209],[2.5686355,48.5384589],[2.5627959,48.5387213],[2.5626768,48.5385223],[2.5626143,48.5385325],[2.5625747,48.5384562],[2.5626298,48.5384462],[2.5609285,48.5355527],[2.5632694,48.5351364],[2.5644457,48.5348824],[2.5653488,48.5346532],[2.5679856,48.533906],[2.5704507,48.53307],[2.5710462,48.5329221],[2.5716367,48.5328207],[2.5719127,48.5333295]]]]},"properties":{"code_section":"77039000AB","code_commune":"77039","section_courte":"AB"}},{"type":"Feature","geometry":{"type":"MultiPolygon","coordinates":[[[[2.582597,48.5332203],[2.5829678,48.5336114],[2.5835453,48.5343702],[2.5818906,48.5349752],[2.5818334,48.534959],[2.5816361,48.5346949],[2.5813942,48.5341906],[2.5812483,48.5339708],[2.5812013,48.5339508],[2.5811469,48.5339612],[2.5807855,48.534314],[2.5806165,48.5344271],[2.5803956,48.5345093],[2.5788857,48.5348353],[2.5786711,48.5348375],[2.5787215,48.534875],[2.5786367,48.535158],[2.5784936,48.5352382],[2.5759848,48.5346307],[2.5759424,48.5345882],[2.5759596,48.5343391],[2.575908,48.5342853],[2.5752602,48.5342353],[2.574495,48.5344243],[2.5739492,48.5346],[2.5742198,48.5349867],[2.5739378,48.5352095],[2.5732868,48.5354524],[2.5728659,48.5348316],[2.5729309,48.5348099],[2.5719327,48.5334066],[2.5716367,48.5328207],[2.5720851,48.5327389],[2.5728447,48.5325366],[2.5741287,48.5320174],[2.5782472,48.5297634],[2.5789026,48.5301334],[2.5797162,48.5307894],[2.5797558,48.5308891],[2.5802769,48.531251],[2.5812778,48.5318295],[2.58253,48.5326526],[2.5825489,48.5327266],[2.582371,48.5328927],[2.5823414,48.5329656],[2.582597,48.5332203]]]]},"properties":{"code_section":"77039000AC","code_commune":"77039","section_courte":"AC"}},{"type":"Feature","geometry":{"type":"MultiPolygon","coordinates":[[[[2.5817148,48.5285204],[2.5819543,48.5286136],[2.58222,48.5286218],[2.5827799,48.5285788],[2.5830735,48.528429],[2.5833556,48.528452],[2.5841856,48.5286176],[2.5843696,48.5286925],[2.5844258,48.5288107],[2.5841981,48.5292263],[2.5841487,48.5294134],[2.5843701,48.5297901],[2.5847946,48.530196],[2.5851621,48.5307454],[2.5860024,48.5315359],[2.5874978,48.5339598],[2.5879763,48.5346287],[2.5888159,48.5352627],[2.5880463,48.5356299],[2.5884486,48.5360803],[2.5868592,48.5364546],[2.586357,48.5368519],[2.5859129,48.5369837],[2.5848468,48.5378422],[2.5844887,48.5362905],[2.5839012,48.5351862],[2.5835859,48.5344031],[2.5829678,48.5336114],[2.5823414,48.5329656],[2.582371,48.5328927],[2.5825489,48.5327266],[2.58253,48.5326526],[2.5812778,48.5318295],[2.5802769,48.531251],[2.5797558,48.5308891],[2.5797162,48.5307894],[2.5789026,48.5301334],[2.5782472,48.5297634],[2.5810957,48.5282335],[2.5817148,48.5285204]]]]},"properties":{"code_section":"77039000AD","code_commune":"77039","section_courte":"AD"}},{"type":"Feature","geometry":{"type":"MultiPolygon","coordinates":[[[[2.5879054,48.5345285],[2.5874978,48.5339598],[2.5860024,48.5315359],[2.5851621,48.5307454],[2.5847067,48.530095],[2.5852765,48.5298521],[2.5865566,48.529179],[2.5873464,48.5288068],[2.5884502,48.5282289],[2.5887385,48.5280412],[2.5891568,48.5282941],[2.5893424,48.5283211],[2.5911048,48.5275852],[2.5917516,48.5274291],[2.5918278,48.5274211],[2.5919117,48.5274832],[2.5922212,48.5278963],[2.592685,48.5277441],[2.5942535,48.5275305],[2.5944113,48.5281284],[2.5945155,48.5287636],[2.5947411,48.5291084],[2.5951079,48.52982],[2.5943569,48.5301316],[2.59406,48.5303438],[2.5938098,48.530652],[2.5930137,48.5308515],[2.5919876,48.5311646],[2.5913926,48.5315594],[2.5898252,48.5321357],[2.5904061,48.532882],[2.591001,48.5337871],[2.5910471,48.5339949],[2.5908359,48.5341408],[2.589629,48.5348449],[2.5888159,48.5352627],[2.5879763,48.5346287],[2.5879054,48.5345285]]]]},"properties":{"code_section":"77039000AE","code_commune":"77039","section_courte":"AE"}},{"type":"Feature","geometry":{"type":"MultiPolygon","coordinates":[[[[2.5904772,48.5263364],[2.5908064,48.5262838],[2.5910664,48.5265823],[2.591499,48.5272281],[2.5918278,48.5274211],[2.5911048,48.5275852],[2.5893424,48.5283211],[2.5891568,48.5282941],[2.5887385,48.5280412],[2.5884502,48.5282289],[2.5873464,48.5288068],[2.5865566,48.529179],[2.5852765,48.5298521],[2.5847067,48.530095],[2.5843701,48.5297901],[2.5841487,48.5294134],[2.5841981,48.5292263],[2.5844258,48.5288107],[2.5843696,48.5286925],[2.5843155,48.5286613],[2.5833556,48.528452],[2.5830735,48.528429],[2.5827799,48.5285788],[2.58222,48.5286218],[2.5819543,48.5286136],[2.5810957,48.5282335],[2.5819014,48.5274335],[2.5833723,48.5258589],[2.5845071,48.5243969],[2.5867045,48.5219273],[2.5874283,48.5223944],[2.5896883,48.5235947],[2.5895768,48.5237131],[2.5889247,48.5241779],[2.5888768,48.5242456],[2.5891402,48.5247783],[2.5901433,48.5257683],[2.5901353,48.5259383],[2.5904772,48.5263364]]]]},"properties":{"code_section":"77039000AH","code_commune":"77039","section_courte":"AH"}},{"type":"Feature","geometry":{"type":"MultiPolygon","coordinates":[[[[2.5901433,48.5257683],[2.5891402,48.5247783],[2.5888768,48.5242456],[2.5889247,48.5241779],[2.5895768,48.5237131],[2.5897513,48.5235431],[2.590843,48.5226889],[2.5909104,48.5227153],[2.5912168,48.5230119],[2.5925891,48.524414],[2.5927598,48.5245325],[2.5942293,48.5239601],[2.5948393,48.5246048],[2.5948556,48.5246657],[2.5954511,48.5244115],[2.5984193,48.5234882],[2.5989543,48.5232464],[2.5993539,48.5230111],[2.6002196,48.5227361],[2.6008879,48.5225957],[2.6013555,48.5224543],[2.6013946,48.522509],[2.6017399,48.5235329],[2.6001086,48.5241064],[2.5997456,48.5241159],[2.5995154,48.5237223],[2.5992306,48.5238184],[2.5992725,48.5238802],[2.5979569,48.5243689],[2.5985759,48.5254992],[2.5982791,48.5254268],[2.5975831,48.525338],[2.5975474,48.5253645],[2.5974967,48.5256314],[2.5972908,48.5258194],[2.5968423,48.526082],[2.596391,48.5262409],[2.5964243,48.5262817],[2.5963021,48.5264467],[2.596137,48.5264749],[2.5958321,48.5264146],[2.5943357,48.5267788],[2.5941901,48.5269419],[2.5941433,48.5271435],[2.5942535,48.5275305],[2.592685,48.5277441],[2.5922212,48.5278963],[2.5919117,48.5274832],[2.591499,48.5272281],[2.5910664,48.5265823],[2.5908064,48.5262838],[2.5904772,48.5263364],[2.5904457,48.5263098],[2.5901134,48.5259001],[2.5901433,48.5257683]]]]},"properties":{"code_section":"77039000AI","code_commune":"77039","section_courte":"AI"}},{"type":"Feature","geometry":{"type":"MultiPolygon","coordinates":[[[[2.6007388,48.5158836],[2.6008092,48.5165231],[2.6008895,48.5187308],[2.6011612,48.5187458],[2.6018016,48.520912],[2.600796,48.5210831],[2.6013555,48.5224543],[2.6008879,48.5225957],[2.6002196,48.5227361],[2.5993539,48.5230111],[2.5989543,48.5232464],[2.5984193,48.5234882],[2.5954511,48.5244115],[2.5948556,48.5246657],[2.5948393,48.5246048],[2.5942293,48.5239601],[2.5927598,48.5245325],[2.5925891,48.524414],[2.5912168,48.5230119],[2.5909104,48.5227153],[2.590843,48.5226889],[2.5896883,48.5235947],[2.5874283,48.5223944],[2.5867045,48.5219273],[2.5877122,48.5208894],[2.5883176,48.5203513],[2.58906,48.5197627],[2.5916561,48.5181826],[2.5934636,48.5172006],[2.5939018,48.5169961],[2.5949874,48.5165735],[2.5960166,48.5163477],[2.5972223,48.5161665],[2.5982579,48.5160573],[2.6007388,48.5158836]]]]},"properties":{"code_section":"77039000AK","code_commune":"77039","section_courte":"AK"}}]}