{"type":"FeatureCollection","features":[{"type":"Feature","geometry":{"type":"MultiPolygon","coordinates":[[[[2.6989814,48.8492607],[2.6984777,48.8492259],[2.6987571,48.8481419],[2.6973429,48.8469073],[2.6953139,48.8466816],[2.6953882,48.846605],[2.6952854,48.8465953],[2.695399,48.8463171],[2.6949275,48.8461871],[2.6943769,48.8461593],[2.6938195,48.8459154],[2.693445,48.8456898],[2.6926718,48.8453779],[2.6915928,48.8447556],[2.6919378,48.8443196],[2.6917483,48.8442193],[2.6908305,48.8435045],[2.6905506,48.8434045],[2.6908638,48.8423194],[2.6909631,48.8420406],[2.6910497,48.8419887],[2.6907383,48.8417491],[2.6907723,48.8417008],[2.6909897,48.8416875],[2.6910292,48.8416496],[2.690978,48.8415604],[2.6905434,48.8413806],[2.6905479,48.8412409],[2.6906383,48.8411959],[2.6908705,48.8412146],[2.6913945,48.841009],[2.6914085,48.8409471],[2.6912725,48.8409303],[2.6911996,48.8408835],[2.6913427,48.8408774],[2.6913695,48.8408291],[2.6916065,48.8407791],[2.6916819,48.8406781],[2.6916489,48.8406277],[2.6913003,48.8405142],[2.6909697,48.8405441],[2.6918302,48.8399004],[2.6926577,48.8394755],[2.6925146,48.8394337],[2.6925808,48.8393268],[2.6927635,48.8391793],[2.6927681,48.8391231],[2.6926555,48.8389983],[2.69272,48.8389347],[2.6929647,48.8388276],[2.6930247,48.8386521],[2.6932719,48.8385525],[2.6933036,48.8385154],[2.6932629,48.8384053],[2.693303,48.8383705],[2.6937074,48.8382355],[2.6941217,48.8383116],[2.6942957,48.8381665],[2.6945959,48.8381299],[2.6948667,48.8378409],[2.6953441,48.8376714],[2.6959475,48.8371322],[2.6959346,48.837013],[2.6959738,48.836972],[2.6965912,48.8368069],[2.6966556,48.8367052],[2.6969127,48.8366668],[2.6969251,48.8366271],[2.6967884,48.8365178],[2.6968029,48.8363747],[2.6971068,48.8363008],[2.6972156,48.8361754],[2.6975609,48.8360128],[2.6975576,48.8359321],[2.6976663,48.8358788],[2.6979796,48.8358442],[2.6980263,48.8358109],[2.6980715,48.8358305],[2.698041,48.8391017],[2.6999114,48.8392348],[2.6997541,48.8398127],[2.6990731,48.8397686],[2.6990287,48.8403565],[2.6998441,48.8404776],[2.6993262,48.8415577],[2.7004881,48.841578],[2.7004971,48.8418875],[2.7010733,48.841852],[2.7012488,48.8419166],[2.7011727,48.8422166],[2.7013388,48.8422338],[2.7011003,48.8430539],[2.7009173,48.8430326],[2.7007989,48.8434593],[2.6987345,48.843339],[2.6985126,48.8440093],[2.6992783,48.8440423],[2.698685,48.8445526],[2.6987697,48.8445857],[2.698737,48.8446192],[2.6995597,48.844932],[2.7048604,48.8455525],[2.7049869,48.8455329],[2.7042781,48.8496446],[2.6989814,48.8492607]]]]},"properties":{"code_section":"770580000A","code_commune":"77058","section_courte":"A"}},{"type":"Feature","geometry":{"type":"MultiPolygon","coordinates":[[[[2.748935,48.8194319],[2.7469877,48.8256443],[2.7466928,48.8257422],[2.746681,48.8257917],[2.7461431,48.8257447],[2.7452354,48.825745],[2.7440928,48.8255355],[2.7439867,48.824951],[2.7434492,48.823621],[2.7422825,48.8232615],[2.7423327,48.8231211],[2.742424,48.8231077],[2.7423059,48.8229142],[2.7420464,48.8229792],[2.7415881,48.8231864],[2.7389173,48.8232895],[2.7385236,48.8232713],[2.7380535,48.8231944],[2.736851,48.8225765],[2.7352838,48.8217113],[2.7332798,48.8206819],[2.7325488,48.820227],[2.7280683,48.8164851],[2.7276691,48.8162766],[2.728325,48.8159255],[2.7295224,48.8141283],[2.7296034,48.8139543],[2.7284457,48.8082452],[2.7283481,48.8082228],[2.726103,48.8093717],[2.7234776,48.80823],[2.7221852,48.8094803],[2.721686,48.8093615],[2.7220425,48.8088505],[2.7214328,48.8074344],[2.7206726,48.806833],[2.7228638,48.8034268],[2.7237091,48.8019881],[2.7242854,48.8011492],[2.7259898,48.7999552],[2.7273776,48.7984255],[2.727916,48.7974006],[2.7278878,48.7973826],[2.7279949,48.7971797],[2.7338408,48.7995581],[2.7316453,48.8023238],[2.7327516,48.8025936],[2.7354153,48.8036272],[2.7380277,48.8046981],[2.7444518,48.8027367],[2.745401,48.8028205],[2.7461171,48.8027147],[2.746781,48.8030928],[2.7479198,48.803946],[2.7483322,48.804315],[2.7484456,48.8045012],[2.748448,48.8047805],[2.7486308,48.8053232],[2.7486828,48.8058237],[2.749649,48.8062499],[2.7508705,48.8068504],[2.7509893,48.8071162],[2.7511511,48.8073398],[2.7511182,48.8075106],[2.7508548,48.8079979],[2.7506198,48.808605],[2.7500368,48.8089044],[2.7498938,48.8090294],[2.7497719,48.809205],[2.7497265,48.8095148],[2.7494899,48.8099656],[2.7494641,48.8101393],[2.7494914,48.811249],[2.749543,48.8113864],[2.7502008,48.812404],[2.750291,48.8126372],[2.7503985,48.8127734],[2.7507226,48.8130225],[2.7510673,48.8138543],[2.7510817,48.8141015],[2.7512562,48.8143899],[2.7512924,48.8145884],[2.7502427,48.8151869],[2.748935,48.8194319]]]]},"properties":{"code_section":"770580000C","code_commune":"77058","section_courte":"C"}},{"type":"Feature","geometry":{"type":"MultiPolygon","coordinates":[[[[2.6988002,48.8444501],[2.6992783,48.8440423],[2.6985126,48.8440093],[2.6987345,48.843339],[2.7007989,48.8434593],[2.7009173,48.8430326],[2.7011003,48.8430539],[2.7013388,48.8422338],[2.7011727,48.8422166],[2.7012488,48.8419166],[2.7010733,48.841852],[2.7004971,48.8418875],[2.7004881,48.841578],[2.6993262,48.8415577],[2.6998441,48.8404776],[2.6990287,48.8403565],[2.6990731,48.8397686],[2.6997541,48.8398127],[2.6999114,48.8392348],[2.698041,48.8391017],[2.6980554,48.8377366],[2.7004967,48.837937],[2.7006046,48.8370113],[2.702268,48.8371179],[2.7030845,48.837411],[2.7056227,48.8377149],[2.7052857,48.8419542],[2.7053728,48.841968],[2.7053317,48.8425186],[2.7052428,48.8425112],[2.7049869,48.8455329],[2.7048604,48.8455525],[2.6995597,48.844932],[2.698737,48.8446192],[2.6987697,48.8445857],[2.698685,48.8445526],[2.6988002,48.8444501]]]]},"properties":{"code_section":"77058000AB","code_commune":"77058","section_courte":"AB"}},{"type":"Feature","geometry":{"type":"MultiPolygon","coordinates":[[[[2.7064092,48.8448514],[2.7105844,48.8453535],[2.7139942,48.8440799],[2.7144613,48.8441365],[2.7142299,48.8449772],[2.7143522,48.8449932],[2.7152363,48.8445437],[2.7150527,48.8463902],[2.7152527,48.849016],[2.7042936,48.8495309],[2.7049869,48.8455329],[2.7051014,48.8443742],[2.705315,48.844409],[2.7055053,48.844497],[2.7056312,48.8446194],[2.7056822,48.8447649],[2.7064092,48.8448514]]]]},"properties":{"code_section":"77058000AC","code_commune":"77058","section_courte":"AC"}},{"type":"Feature","geometry":{"type":"MultiPolygon","coordinates":[[[[2.7144613,48.8441365],[2.7139942,48.8440799],[2.7105844,48.8453535],[2.7056822,48.8447649],[2.7056312,48.8446194],[2.7055053,48.844497],[2.705315,48.844409],[2.7051014,48.8443742],[2.7052428,48.8425112],[2.7053317,48.8425186],[2.7053728,48.841968],[2.7052857,48.8419542],[2.7054378,48.8399704],[2.7174151,48.8414091],[2.7167743,48.8437088],[2.7153094,48.8435341],[2.7145506,48.8438167],[2.7144613,48.8441365]]]]},"properties":{"code_section":"77058000AD","code_commune":"77058","section_courte":"AD"}},{"type":"Feature","geometry":{"type":"MultiPolygon","coordinates":[[[[2.7150527,48.8463902],[2.7152363,48.8445437],[2.7143522,48.8449932],[2.7142299,48.8449772],[2.7145506,48.8438167],[2.7153094,48.8435341],[2.7167743,48.8437088],[2.7174151,48.8414091],[2.7218851,48.8419469],[2.7215864,48.8430522],[2.7220184,48.8431041],[2.7190014,48.8459782],[2.7190337,48.8460682],[2.719113,48.8460984],[2.7193374,48.8488322],[2.7152527,48.849016],[2.7150527,48.8463902]]]]},"properties":{"code_section":"77058000AE","code_commune":"77058","section_courte":"AE"}},{"type":"Feature","geometry":{"type":"MultiPolygon","coordinates":[[[[2.7076558,48.8363314],[2.70911,48.8365089],[2.7091217,48.8364851],[2.7092249,48.8364983],[2.7090864,48.8367011],[2.7092301,48.8367197],[2.7093808,48.8365159],[2.7095617,48.8365383],[2.7095798,48.8364757],[2.7099527,48.8365218],[2.709965,48.836486],[2.7100103,48.8364927],[2.7100035,48.8365278],[2.7107968,48.8366199],[2.7107917,48.8366529],[2.7112704,48.8367109],[2.711282,48.8366785],[2.711521,48.8367071],[2.7115069,48.8367693],[2.7127081,48.8369129],[2.7127024,48.8369396],[2.7128653,48.8369586],[2.7128977,48.8368941],[2.712998,48.8368596],[2.7142893,48.8369887],[2.7152972,48.8374803],[2.7160273,48.8375731],[2.7150506,48.8411258],[2.7054378,48.8399704],[2.7057478,48.8360941],[2.7058443,48.8360976],[2.7059211,48.8360211],[2.7060123,48.8360104],[2.7066239,48.8360891],[2.7066984,48.8361896],[2.7068297,48.8362035],[2.7068229,48.8362309],[2.7076558,48.8363314]]]]},"properties":{"code_section":"77058000AH","code_commune":"77058","section_courte":"AH"}},{"type":"Feature","geometry":{"type":"MultiPolygon","coordinates":[[[[2.720282,48.8377183],[2.7261993,48.8384558],[2.72657,48.8384551],[2.7270836,48.8385356],[2.726846,48.8388395],[2.7271739,48.8388795],[2.7269589,48.8396614],[2.7268451,48.8396483],[2.7267268,48.8400727],[2.726963,48.8400983],[2.7263095,48.8424725],[2.7150506,48.8411258],[2.7160273,48.8375731],[2.7157744,48.8375421],[2.7147756,48.8370455],[2.720282,48.8377183]]]]},"properties":{"code_section":"77058000AI","code_commune":"77058","section_courte":"AI"}},{"type":"Feature","geometry":{"type":"MultiPolygon","coordinates":[[[[2.7242197,48.8334593],[2.7229358,48.8380544],[2.7161058,48.8372019],[2.7169095,48.8344537],[2.7175748,48.831964],[2.7244069,48.8327862],[2.7242197,48.8334593]]]]},"properties":{"code_section":"77058000AL","code_commune":"77058","section_courte":"AL"}},{"type":"Feature","geometry":{"type":"MultiPolygon","coordinates":[[[[2.7175748,48.831964],[2.7169095,48.8344537],[2.7059943,48.8329552],[2.706242,48.8299249],[2.7158923,48.8293368],[2.715911,48.8296553],[2.7162947,48.8296321],[2.7157138,48.8317432],[2.7175748,48.831964]]]]},"properties":{"code_section":"77058000AM","code_commune":"77058","section_courte":"AM"}},{"type":"Feature","geometry":{"type":"MultiPolygon","coordinates":[[[[2.7210335,48.8279283],[2.7210659,48.8278926],[2.7256092,48.8282265],[2.7260228,48.8281898],[2.7257178,48.8284061],[2.7290414,48.8283504],[2.7302109,48.8283702],[2.7319733,48.8281474],[2.7330071,48.8284411],[2.7330861,48.8285107],[2.7332916,48.8288699],[2.7320136,48.8288166],[2.7314735,48.8312538],[2.7308406,48.8335557],[2.7157138,48.8317432],[2.7162947,48.8296321],[2.715911,48.8296553],[2.7158923,48.8293368],[2.7205788,48.8290589],[2.7210335,48.8279283]]]]},"properties":{"code_section":"77058000AN","code_commune":"77058","section_courte":"AN"}},{"type":"Feature","geometry":{"type":"MultiPolygon","coordinates":[[[[2.7410036,48.8306153],[2.7414754,48.8309878],[2.7415534,48.8309976],[2.7415377,48.8310638],[2.7414198,48.8310641],[2.74129,48.8311671],[2.7403243,48.8346824],[2.7308406,48.8335557],[2.7314735,48.8312538],[2.7320136,48.8288166],[2.7332916,48.8288699],[2.7394416,48.829262],[2.7402682,48.8300331],[2.7410036,48.8306153]]]]},"properties":{"code_section":"77058000AO","code_commune":"77058","section_courte":"AO"}},{"type":"Feature","geometry":{"type":"MultiPolygon","coordinates":[[[[2.698202,48.8336661],[2.7058678,48.8345886],[2.7056227,48.8377149],[2.7030845,48.837411],[2.702268,48.8371179],[2.7006046,48.8370113],[2.7004967,48.837937],[2.6980554,48.8377366],[2.6980715,48.8358305],[2.6980263,48.8358109],[2.6980115,48.8336357],[2.698202,48.8336661]]]]},"properties":{"code_section":"77058000AP","code_commune":"77058","section_courte":"AP"}},{"type":"Feature","geometry":{"type":"MultiPolygon","coordinates":[[[[2.6937978,48.8311279],[2.6937504,48.8306634],[2.706242,48.8299249],[2.7058678,48.8345886],[2.6980115,48.8336357],[2.6980182,48.8353968],[2.6962637,48.8350954],[2.694468,48.8349139],[2.6949186,48.8332702],[2.6940106,48.8331615],[2.694469,48.831464],[2.6938408,48.8314768],[2.6937978,48.8311279]]]]},"properties":{"code_section":"77058000AR","code_commune":"77058","section_courte":"AR"}},{"type":"Feature","geometry":{"type":"MultiPolygon","coordinates":[[[[2.6944835,48.8348553],[2.694468,48.8349139],[2.6929235,48.8346911],[2.6915413,48.834574],[2.6903517,48.8345465],[2.6891995,48.8345886],[2.6881524,48.8346994],[2.6873835,48.8348404],[2.6857127,48.8352183],[2.6847331,48.8355208],[2.6841818,48.83484],[2.6848467,48.8344564],[2.6853956,48.8340811],[2.6859648,48.8336183],[2.6864567,48.8331447],[2.6869258,48.8325926],[2.6872654,48.8321006],[2.6875844,48.8315116],[2.6877804,48.8310163],[2.6937504,48.8306634],[2.6938408,48.8314768],[2.694469,48.831464],[2.6940106,48.8331615],[2.6949186,48.8332702],[2.6944835,48.8348553]]]]},"properties":{"code_section":"77058000AS","code_commune":"77058","section_courte":"AS"}},{"type":"Feature","geometry":{"type":"MultiPolygon","coordinates":[[[[2.7265504,48.8485079],[2.7264216,48.8489487],[2.7193374,48.8488322],[2.719113,48.8460984],[2.7190337,48.8460682],[2.7190014,48.8459781],[2.7209495,48.8441204],[2.7277036,48.844929],[2.7269644,48.8476461],[2.7267857,48.8476256],[2.7265504,48.8485079]]]]},"properties":{"code_section":"77058000AT","code_commune":"77058","section_courte":"AT"}},{"type":"Feature","geometry":{"type":"MultiPolygon","coordinates":[[[[2.7215864,48.8430522],[2.7218851,48.8419469],[2.7284222,48.8427201],[2.7319508,48.8431081],[2.7313316,48.8453625],[2.7209495,48.8441204],[2.7220184,48.8431041],[2.7215864,48.8430522]]]]},"properties":{"code_section":"77058000AV","code_commune":"77058","section_courte":"AV"}},{"type":"Feature","geometry":{"type":"MultiPolygon","coordinates":[[[[2.7267961,48.8400803],[2.7267268,48.8400727],[2.7268451,48.8396483],[2.7269589,48.8396614],[2.7271739,48.8388795],[2.7303772,48.8392901],[2.731535,48.8394919],[2.7328583,48.8397747],[2.7319508,48.8431081],[2.7263095,48.8424725],[2.726963,48.8400983],[2.7267961,48.8400803]]]]},"properties":{"code_section":"77058000AW","code_commune":"77058","section_courte":"AW"}},{"type":"Feature","geometry":{"type":"MultiPolygon","coordinates":[[[[2.731418,48.8480782],[2.7338818,48.8483757],[2.7346441,48.8478939],[2.7357251,48.8487023],[2.7351669,48.8492301],[2.7345619,48.8496734],[2.7336101,48.8491865],[2.7334874,48.8492535],[2.7338532,48.8495621],[2.7340219,48.8494702],[2.7342658,48.8497989],[2.731594,48.8504767],[2.7322429,48.8519349],[2.7316736,48.8524803],[2.7307478,48.8520104],[2.7287664,48.8489865],[2.7264216,48.8489487],[2.7267857,48.8476256],[2.7272799,48.847683],[2.7273057,48.8475891],[2.731418,48.8480782]]]]},"properties":{"code_section":"77058000AX","code_commune":"77058","section_courte":"AX"}},{"type":"Feature","geometry":{"type":"MultiPolygon","coordinates":[[[[2.7277489,48.8476423],[2.7273057,48.8475891],[2.7272799,48.847683],[2.7269644,48.8476461],[2.7277036,48.844929],[2.7369624,48.8460366],[2.7363359,48.848301],[2.7357251,48.8487023],[2.7346441,48.8478939],[2.7338818,48.8483757],[2.7277489,48.8476423]]]]},"properties":{"code_section":"77058000AY","code_commune":"77058","section_courte":"AY"}},{"type":"Feature","geometry":{"type":"MultiPolygon","coordinates":[[[[2.7319508,48.8431081],[2.7328583,48.8397747],[2.7343201,48.8401639],[2.7354169,48.8405069],[2.7366468,48.8409477],[2.7380327,48.8415119],[2.7382037,48.8415903],[2.7380392,48.8420964],[2.7385225,48.8423095],[2.7376306,48.8455832],[2.7371043,48.8455203],[2.7369624,48.8460366],[2.7313316,48.8453625],[2.7319508,48.8431081]]]]},"properties":{"code_section":"77058000AZ","code_commune":"77058","section_courte":"AZ"}},{"type":"Feature","geometry":{"type":"MultiPolygon","coordinates":[[[[2.725371,48.8229212],[2.7212824,48.8186693],[2.7276545,48.8163156],[2.7276691,48.8162766],[2.7280683,48.8164851],[2.732571,48.8202444],[2.7332798,48.8206819],[2.7352838,48.8217113],[2.7286589,48.826347],[2.725371,48.8229212]]]]},"properties":{"code_section":"77058000YC","code_commune":"77058","section_courte":"YC"}},{"type":"Feature","geometry":{"type":"MultiPolygon","coordinates":[[[[2.7358045,48.8486369],[2.7361884,48.8484215],[2.7363359,48.848301],[2.7371043,48.8455203],[2.7376306,48.8455832],[2.7385225,48.8423095],[2.742981,48.8445099],[2.7440212,48.8450518],[2.7441087,48.8451345],[2.7440517,48.8452086],[2.7424401,48.8458256],[2.7425272,48.8459454],[2.7431987,48.8456795],[2.7447737,48.8452295],[2.7447925,48.8452696],[2.7444626,48.8459293],[2.7443465,48.8459097],[2.743923,48.8463488],[2.7438778,48.8465055],[2.7418112,48.8480063],[2.7399059,48.8488018],[2.7397849,48.848984],[2.7399994,48.8492282],[2.7399432,48.8492505],[2.7397777,48.8492303],[2.7392871,48.8493646],[2.7387462,48.8494637],[2.737876,48.8496738],[2.7378428,48.8497807],[2.7377579,48.8498215],[2.7375957,48.8498321],[2.7375764,48.8500346],[2.7368696,48.8503735],[2.7367229,48.8503722],[2.7364969,48.8504944],[2.7363967,48.8506387],[2.735743,48.8501682],[2.7345619,48.8496734],[2.7351669,48.8492301],[2.7358045,48.8486369]]]]},"properties":{"code_section":"77058000YD","code_commune":"77058","section_courte":"YD"}},{"type":"Feature","geometry":{"type":"MultiPolygon","coordinates":[[[[2.747651,48.8305163],[2.747019,48.8311657],[2.7462116,48.8324132],[2.7461006,48.8327093],[2.7487362,48.8332435],[2.7494317,48.8333464],[2.7501082,48.8334067],[2.75051,48.8335227],[2.7497828,48.8342458],[2.7493111,48.8348309],[2.748845,48.8355764],[2.7480166,48.8371076],[2.7479724,48.8373811],[2.748,48.8377439],[2.7476989,48.8394425],[2.7477534,48.8395654],[2.7478924,48.8396582],[2.7481247,48.8416415],[2.7478973,48.8417677],[2.747572,48.8425548],[2.7472639,48.8429844],[2.7453213,48.8443201],[2.7448529,48.8447203],[2.7447737,48.8452295],[2.7431987,48.8456795],[2.7425272,48.8459454],[2.7424401,48.8458256],[2.7440517,48.8452086],[2.7441087,48.8451345],[2.7440212,48.8450518],[2.7407195,48.8433857],[2.7380392,48.8420964],[2.7382037,48.8415903],[2.7380327,48.8415119],[2.738191,48.8411917],[2.7387556,48.8414486],[2.7399122,48.8372497],[2.7399112,48.8370956],[2.7405548,48.8347093],[2.7403243,48.8346824],[2.74129,48.8311671],[2.7414198,48.8310641],[2.7415377,48.8310638],[2.7415534,48.8309976],[2.7464514,48.8311375],[2.747651,48.8305163]]]]},"properties":{"code_section":"77058000YE","code_commune":"77058","section_courte":"YE"}},{"type":"Feature","geometry":{"type":"MultiPolygon","coordinates":[[[[2.7394416,48.829262],[2.7332916,48.8288699],[2.7330861,48.8285107],[2.7330071,48.8284411],[2.7319733,48.8281474],[2.7302109,48.8283702],[2.7290414,48.8283504],[2.7257178,48.8284061],[2.7352838,48.8217113],[2.737816,48.8230869],[2.7380535,48.8231944],[2.7382625,48.8232393],[2.7389173,48.8232895],[2.7415881,48.8231864],[2.7420464,48.8229792],[2.7423059,48.8229142],[2.742424,48.8231077],[2.7423327,48.8231211],[2.7422825,48.8232615],[2.7434492,48.823621],[2.7439867,48.824951],[2.7440928,48.8255355],[2.7452354,48.825745],[2.7461431,48.8257447],[2.746681,48.8257917],[2.7466928,48.8257422],[2.7476179,48.8254472],[2.7490014,48.8252781],[2.7494234,48.8251831],[2.7496557,48.8250694],[2.7499226,48.8267935],[2.7500632,48.8267889],[2.7500687,48.8268127],[2.7497344,48.828369],[2.7488042,48.8294183],[2.747651,48.8305163],[2.7464514,48.8311375],[2.7414754,48.8309878],[2.7402682,48.8300331],[2.7394416,48.829262]]]]},"properties":{"code_section":"77058000YH","code_commune":"77058","section_courte":"YH"}},{"type":"Feature","geometry":{"type":"MultiPolygon","coordinates":[[[[2.6980182,48.8353968],[2.6980263,48.8358109],[2.6979796,48.8358442],[2.6976663,48.8358788],[2.6975576,48.8359321],[2.6975609,48.8360128],[2.6972156,48.8361754],[2.6971068,48.8363008],[2.6968029,48.8363747],[2.6967884,48.8365178],[2.6969251,48.8366271],[2.6969127,48.8366668],[2.6966556,48.8367052],[2.6965912,48.8368069],[2.6959738,48.836972],[2.6959346,48.837013],[2.6959475,48.8371322],[2.6953441,48.8376714],[2.6948667,48.8378409],[2.6945959,48.8381299],[2.6942957,48.8381665],[2.6941217,48.8383116],[2.6937074,48.8382355],[2.693303,48.8383705],[2.6932629,48.8384053],[2.6933036,48.8385154],[2.6932719,48.8385525],[2.6930247,48.8386521],[2.6929647,48.8388276],[2.69272,48.8389347],[2.6926555,48.8389983],[2.6927176,48.8386447],[2.6926662,48.8385679],[2.6927168,48.8384567],[2.6925291,48.8378962],[2.6924336,48.8377811],[2.6921303,48.837554],[2.6919721,48.8368022],[2.6914785,48.8361904],[2.691381,48.8359693],[2.6911894,48.8357236],[2.6910228,48.8355785],[2.6907743,48.8351905],[2.6906516,48.8351176],[2.6905246,48.8349079],[2.6905624,48.8348142],[2.6904106,48.8345484],[2.6915413,48.834574],[2.6929235,48.8346911],[2.6949159,48.834971],[2.6962637,48.8350954],[2.6980182,48.8353968]]]]},"properties":{"code_section":"77058000ZA","code_commune":"77058","section_courte":"ZA"}},{"type":"Feature","geometry":{"type":"MultiPolygon","coordinates":[[[[2.7077125,48.8363388],[2.7068229,48.8362309],[2.7068297,48.8362035],[2.7066984,48.8361896],[2.7066239,48.8360891],[2.7060123,48.8360104],[2.7059211,48.8360211],[2.7058443,48.8360976],[2.7057478,48.8360941],[2.7059943,48.8329552],[2.7169095,48.8344537],[2.7161058,48.8372019],[2.7147756,48.8370455],[2.7157744,48.8375421],[2.7152972,48.8374803],[2.7142893,48.8369887],[2.712998,48.8368596],[2.7128977,48.8368941],[2.7128653,48.8369586],[2.7127024,48.8369396],[2.7127081,48.8369129],[2.7115069,48.8367693],[2.711521,48.8367071],[2.711282,48.8366785],[2.7112704,48.8367109],[2.7107917,48.8366529],[2.7107968,48.8366199],[2.7100035,48.8365278],[2.7100103,48.8364927],[2.709965,48.836486],[2.7099527,48.8365218],[2.7095798,48.8364757],[2.7095617,48.8365383],[2.7093808,48.8365159],[2.7092301,48.8367197],[2.7090864,48.8367011],[2.7092249,48.8364983],[2.7091217,48.8364851],[2.70911,48.8365089],[2.7077125,48.8363388]]]]},"properties":{"code_section":"77058000ZB","code_commune":"77058","section_courte":"ZB"}},{"type":"Feature","geometry":{"type":"MultiPolygon","coordinates":[[[[2.731594,48.8504767],[2.7342658,48.8497989],[2.7340219,48.8494702],[2.7338532,48.8495621],[2.7334874,48.8492535],[2.7336101,48.8491865],[2.7344202,48.8496174],[2.735743,48.8501682],[2.7365328,48.8507658],[2.7363476,48.8508849],[2.7363817,48.8509057],[2.7362936,48.8509753],[2.7363137,48.8509914],[2.7360554,48.8511493],[2.7359638,48.8513429],[2.7356462,48.8512801],[2.7353686,48.8515358],[2.7352723,48.8515499],[2.7350526,48.8514911],[2.7349742,48.8516088],[2.7348527,48.8516793],[2.7346638,48.8516082],[2.7343676,48.8516259],[2.7342556,48.8515935],[2.7339519,48.8517092],[2.7337827,48.8517338],[2.7332846,48.851973],[2.7331633,48.8520036],[2.7331159,48.8520517],[2.732917,48.8520927],[2.7323738,48.8524479],[2.7321949,48.8524975],[2.7322032,48.8525353],[2.7321477,48.8525821],[2.7320049,48.8526481],[2.7316736,48.8524803],[2.7322429,48.8519349],[2.731594,48.8504767]]]]},"properties":{"code_section":"77058000ZC","code_commune":"77058","section_courte":"ZC"}},{"type":"Feature","geometry":{"type":"MultiPolygon","coordinates":[[[[2.7399137,48.8372436],[2.7387556,48.8414486],[2.738191,48.8411917],[2.7380327,48.8415119],[2.736213,48.8407859],[2.7343201,48.8401639],[2.7328583,48.8397747],[2.731535,48.8394919],[2.7303772,48.8392901],[2.7307864,48.8390024],[2.734317,48.8367698],[2.7343242,48.8367098],[2.7353136,48.8368115],[2.7399037,48.8371632],[2.7399137,48.8372436]]]]},"properties":{"code_section":"77058000ZD","code_commune":"77058","section_courte":"ZD"}},{"type":"Feature","geometry":{"type":"MultiPolygon","coordinates":[[[[2.7302066,48.8361484],[2.7309273,48.8335668],[2.7405548,48.8347093],[2.7399037,48.8371632],[2.7353136,48.8368115],[2.7343242,48.8367098],[2.7301902,48.8362212],[2.7302066,48.8361484]]]]},"properties":{"code_section":"77058000ZE","code_commune":"77058","section_courte":"ZE"}},{"type":"Feature","geometry":{"type":"MultiPolygon","coordinates":[[[[2.7307702,48.8341269],[2.7301902,48.8362212],[2.7343242,48.8367098],[2.734317,48.8367698],[2.7307864,48.8390024],[2.7303772,48.8392901],[2.7268456,48.8388394],[2.7270836,48.8385356],[2.72657,48.8384551],[2.7261993,48.8384558],[2.7229358,48.8380544],[2.7244069,48.8327862],[2.7309273,48.8335668],[2.7307702,48.8341269]]]]},"properties":{"code_section":"77058000ZI","code_commune":"77058","section_courte":"ZI"}},{"type":"Feature","geometry":{"type":"MultiPolygon","coordinates":[[[[2.6845225,48.8352612],[2.6847331,48.8355208],[2.6860835,48.8351244],[2.6881524,48.8346994],[2.6888509,48.8346128],[2.6895221,48.8345669],[2.6904106,48.8345484],[2.6905624,48.8348142],[2.6905246,48.8349079],[2.6906516,48.8351176],[2.6907743,48.8351905],[2.6910228,48.8355785],[2.6911894,48.8357236],[2.691381,48.8359693],[2.6914785,48.8361904],[2.6919721,48.8368022],[2.6921303,48.837554],[2.6924336,48.8377811],[2.6925291,48.8378962],[2.6927168,48.8384567],[2.6926662,48.8385679],[2.6927176,48.8386447],[2.6926555,48.8389983],[2.6927681,48.8391231],[2.6927635,48.8391793],[2.6925808,48.8393268],[2.6925146,48.8394337],[2.6926577,48.8394755],[2.6918302,48.8399004],[2.6909697,48.8405441],[2.6876749,48.839637],[2.6846523,48.8387195],[2.684463,48.8391103],[2.6844144,48.8393808],[2.6844311,48.8403369],[2.6841717,48.8410264],[2.6838417,48.8416908],[2.6837242,48.8418026],[2.6828538,48.8420113],[2.680751,48.8426297],[2.6797729,48.8428502],[2.678121,48.8437482],[2.6776825,48.8439376],[2.6749841,48.8425385],[2.6745387,48.8423678],[2.6737448,48.8421689],[2.6729806,48.8418895],[2.6729305,48.8418312],[2.6718936,48.841434],[2.6718118,48.841452],[2.6710492,48.841128],[2.6723439,48.8408961],[2.6735385,48.8405318],[2.6743158,48.8402459],[2.6762105,48.8390704],[2.6763188,48.8391505],[2.6810492,48.8366211],[2.6814348,48.8364459],[2.6841818,48.83484],[2.6845225,48.8352612]]]]},"properties":{"code_section":"77058000ZL","code_commune":"77058","section_courte":"ZL"}},{"type":"Feature","geometry":{"type":"MultiPolygon","coordinates":[[[[2.6688704,48.8411021],[2.6694134,48.8405031],[2.6700495,48.840729],[2.6718118,48.841452],[2.6718936,48.841434],[2.6729305,48.8418312],[2.6712992,48.8436501],[2.6715671,48.843758],[2.6705539,48.8446451],[2.6729586,48.8464447],[2.6699414,48.8478563],[2.6665317,48.8447202],[2.6683692,48.8409305],[2.6688704,48.8411021]]]]},"properties":{"code_section":"77058000ZM","code_commune":"77058","section_courte":"ZM"}}]}