{"type":"FeatureCollection","features":[{"type":"Feature","geometry":{"type":"MultiPolygon","coordinates":[[[[2.6521495,48.8880546],[2.6519727,48.8890424],[2.6526792,48.889101],[2.6529131,48.8891616],[2.6562582,48.8911445],[2.6563678,48.893632],[2.6574685,48.8972875],[2.652373,48.8988538],[2.654135,48.8994827],[2.6550727,48.9003455],[2.6515234,48.9014968],[2.6492671,48.9021908],[2.6475258,48.9030672],[2.6472371,48.9031226],[2.6466632,48.9030223],[2.6449346,48.9035622],[2.6446077,48.9031323],[2.6436567,48.9029579],[2.6392436,48.9034053],[2.6380859,48.9004372],[2.6383429,48.897704],[2.632575,48.8981092],[2.6293127,48.8987095],[2.6296897,48.8982187],[2.6299524,48.897721],[2.6299682,48.8973937],[2.6298488,48.8970049],[2.6287049,48.8954462],[2.6281483,48.8956949],[2.626815,48.8943044],[2.6277515,48.8935579],[2.6289133,48.8930206],[2.6308766,48.8909725],[2.6315347,48.8902265],[2.6321418,48.890562],[2.6325009,48.8907006],[2.6361874,48.8869126],[2.6339472,48.885559],[2.6338886,48.8854177],[2.6330559,48.8843281],[2.6328578,48.8839727],[2.6328192,48.8837337],[2.6328923,48.8834714],[2.6332506,48.8829257],[2.6332833,48.8823679],[2.6488592,48.8833553],[2.6495875,48.8833772],[2.6501985,48.8833355],[2.6507998,48.8832663],[2.6513584,48.8830702],[2.651456,48.8833436],[2.6513018,48.8842942],[2.6509923,48.884737],[2.6509681,48.8852136],[2.6510728,48.8855629],[2.6510937,48.8859905],[2.6511303,48.8860639],[2.651734,48.8865136],[2.6519201,48.8869262],[2.6521185,48.887453],[2.6521495,48.8880546]]]]},"properties":{"code_section":"770550000A","code_commune":"77055","section_courte":"A"}},{"type":"Feature","geometry":{"type":"MultiPolygon","coordinates":[[[[2.6258611,48.8768865],[2.6263867,48.8772537],[2.6267481,48.8777855],[2.6270329,48.8780838],[2.6272907,48.8783096],[2.6276284,48.878522],[2.6283846,48.8789006],[2.629112,48.8790565],[2.630485,48.8794831],[2.631319,48.8797004],[2.6322835,48.8804313],[2.6324889,48.8806261],[2.6326034,48.8809801],[2.6327009,48.882337],[2.6332833,48.8823679],[2.6332506,48.8829257],[2.6328923,48.8834714],[2.6328192,48.8837337],[2.6328578,48.8839727],[2.6329773,48.8841981],[2.6338886,48.8854177],[2.6339472,48.885559],[2.6361874,48.8869126],[2.6325009,48.8907006],[2.6321418,48.890562],[2.630847,48.8898809],[2.6226416,48.8853804],[2.6235305,48.8850104],[2.6230505,48.88476],[2.6227692,48.8845014],[2.6213261,48.8836141],[2.6220154,48.8830252],[2.6227314,48.8821504],[2.6225112,48.8820279],[2.6223083,48.8818119],[2.6221869,48.8815352],[2.6222007,48.8813545],[2.6222928,48.8811287],[2.6224963,48.8809048],[2.6224108,48.880815],[2.6220994,48.8802306],[2.6230552,48.8800699],[2.622873,48.8791413],[2.6228939,48.8789769],[2.6232398,48.8779925],[2.6229897,48.8778108],[2.622146,48.8769243],[2.622038,48.8764407],[2.6220792,48.8757937],[2.6222538,48.8755465],[2.6224806,48.8753789],[2.6225702,48.875188],[2.6226415,48.874473],[2.6253762,48.8739648],[2.6255769,48.8742832],[2.6255675,48.8744823],[2.6253947,48.8750297],[2.6253141,48.8759231],[2.6255616,48.8764111],[2.6258611,48.8768865]]]]},"properties":{"code_section":"770550000B","code_commune":"77055","section_courte":"B"}}]}