{"type":"FeatureCollection","features":[{"type":"Feature","geometry":{"type":"MultiPolygon","coordinates":[[[[2.6938738,48.8528706],[2.6919019,48.8520871],[2.6919511,48.8520131],[2.6918658,48.8520449],[2.6918384,48.8521088],[2.6917746,48.8520952],[2.6918044,48.8520042],[2.6913756,48.8512764],[2.6899107,48.8508901],[2.6899171,48.85081],[2.6895013,48.8507949],[2.6886851,48.8508223],[2.6857994,48.8502949],[2.6844276,48.8498256],[2.684597,48.8495269],[2.6831725,48.8490792],[2.6831442,48.8488997],[2.6834526,48.8487806],[2.6837414,48.8485508],[2.6841219,48.8484093],[2.6842283,48.8482839],[2.6846387,48.8481108],[2.6850371,48.8478837],[2.6851471,48.8477532],[2.685236,48.8477598],[2.685404,48.8477025],[2.686012,48.8472964],[2.6862853,48.8471449],[2.6864556,48.8471007],[2.686603,48.8469549],[2.6870051,48.8467851],[2.6871524,48.8466398],[2.6872439,48.8466014],[2.6874489,48.846582],[2.6875103,48.8465464],[2.6876326,48.8464311],[2.6877295,48.8462056],[2.6877799,48.8462016],[2.68789,48.84632],[2.6880269,48.8462488],[2.6880783,48.846251],[2.6881495,48.8465061],[2.6883679,48.8465354],[2.6884564,48.8465192],[2.6887971,48.8462223],[2.6889255,48.8459632],[2.6892207,48.8457797],[2.689302,48.8456479],[2.6893555,48.8453775],[2.6897437,48.8451029],[2.6898055,48.8450034],[2.6901219,48.8449701],[2.6902137,48.8449167],[2.6902648,48.8448359],[2.6903404,48.8448514],[2.6909429,48.8446394],[2.6913692,48.8446347],[2.6926824,48.8453831],[2.6932152,48.8455824],[2.6935805,48.8457449],[2.6937396,48.8458688],[2.6943863,48.8461388],[2.6949655,48.8461812],[2.6954385,48.8463255],[2.6952117,48.8466421],[2.6973512,48.8468827],[2.6988817,48.848256],[2.6973178,48.8540612],[2.6967165,48.8540032],[2.6938738,48.8528706]]]]},"properties":{"code_section":"770590000A","code_commune":"77059","section_courte":"A"}},{"type":"Feature","geometry":{"type":"MultiPolygon","coordinates":[[[[2.6783284,48.8442504],[2.6782591,48.8443015],[2.6802796,48.8451651],[2.6811612,48.8456247],[2.6813809,48.8459587],[2.6816349,48.8466247],[2.6817889,48.8471709],[2.681924,48.8483209],[2.6819827,48.8484672],[2.6822378,48.8487283],[2.6825318,48.8489517],[2.6827895,48.849026],[2.6828896,48.8490856],[2.6753039,48.8499765],[2.6741508,48.8500765],[2.6725602,48.8501631],[2.6647134,48.8503259],[2.6623348,48.8500193],[2.6625583,48.8490584],[2.6625753,48.848746],[2.6623495,48.8479019],[2.6617062,48.847275],[2.6623654,48.8452374],[2.6626375,48.8440415],[2.6626551,48.8437824],[2.6626077,48.8434678],[2.6624765,48.8431724],[2.6614998,48.8415945],[2.6612005,48.8414039],[2.659772,48.8411633],[2.6590853,48.8411195],[2.6591239,48.8409704],[2.6578828,48.8408646],[2.6580661,48.8404491],[2.658081,48.8402689],[2.6579761,48.8394783],[2.658158,48.8390261],[2.6585417,48.8384321],[2.6642394,48.8406467],[2.6652899,48.8397067],[2.6673062,48.840771],[2.6676243,48.8404913],[2.6682025,48.8407454],[2.6681448,48.8408232],[2.6683396,48.8408959],[2.6675946,48.842549],[2.6665327,48.8447353],[2.666608,48.8447693],[2.6699414,48.8478563],[2.6728875,48.8464852],[2.6705167,48.8446623],[2.6712044,48.8441112],[2.6715921,48.8437464],[2.671318,48.8436402],[2.6729034,48.8418887],[2.6735554,48.8421348],[2.6742944,48.8422954],[2.6749317,48.8425113],[2.6772367,48.8437356],[2.6777341,48.8439529],[2.6776979,48.8439733],[2.6783284,48.8442504]]]]},"properties":{"code_section":"770590000B","code_commune":"77059","section_courte":"B"}},{"type":"Feature","geometry":{"type":"MultiPolygon","coordinates":[[[[2.6596805,48.8464976],[2.6605599,48.8432571],[2.6588486,48.8430573],[2.6586342,48.8430158],[2.6584712,48.8428895],[2.6587844,48.8417321],[2.6589722,48.8417544],[2.6590836,48.8413478],[2.6590221,48.8413412],[2.6590853,48.8411195],[2.659772,48.8411633],[2.6611348,48.8413844],[2.6614998,48.8415945],[2.6624765,48.8431724],[2.6626077,48.8434678],[2.6626551,48.8437824],[2.6626375,48.8440415],[2.6623654,48.8452374],[2.6617062,48.847275],[2.6615329,48.8470948],[2.6603663,48.8465885],[2.6596805,48.8464976]]]]},"properties":{"code_section":"77059000AB","code_commune":"77059","section_courte":"AB"}},{"type":"Feature","geometry":{"type":"MultiPolygon","coordinates":[[[[2.6831725,48.8490792],[2.6828896,48.8490856],[2.6827895,48.849026],[2.6825318,48.8489517],[2.6822378,48.8487283],[2.6819827,48.8484672],[2.681924,48.8483209],[2.6817889,48.8471709],[2.6816349,48.8466247],[2.6813809,48.8459587],[2.6811612,48.8456247],[2.6802796,48.8451651],[2.6782591,48.8443015],[2.6783284,48.8442504],[2.6776979,48.8439733],[2.679763,48.8428359],[2.6813397,48.8424634],[2.682926,48.8419886],[2.6836755,48.8418105],[2.683764,48.8417653],[2.6839102,48.8415306],[2.6843381,48.8405281],[2.684397,48.8403298],[2.6844206,48.8392328],[2.6844422,48.8391245],[2.6846704,48.8387151],[2.6860018,48.8391614],[2.6891308,48.8400768],[2.6910682,48.8405947],[2.6912314,48.8404939],[2.6912433,48.8405353],[2.6916413,48.8406355],[2.691692,48.8406914],[2.6916439,48.8407637],[2.6914584,48.8407555],[2.6914037,48.8407936],[2.6914412,48.8409943],[2.6914023,48.841039],[2.6912076,48.8411301],[2.6908433,48.8412413],[2.6906503,48.8412072],[2.690527,48.8412587],[2.6905904,48.8414365],[2.690893,48.8415571],[2.6910228,48.8416949],[2.6909937,48.8417255],[2.6906279,48.8418045],[2.6909679,48.8419989],[2.6908741,48.8422819],[2.6907583,48.8423926],[2.6907587,48.8427183],[2.6905711,48.8434444],[2.6908301,48.843512],[2.6910355,48.8436299],[2.6918755,48.8442911],[2.6915418,48.8447279],[2.6913692,48.8446347],[2.6909429,48.8446394],[2.6903404,48.8448514],[2.6902648,48.8448359],[2.6902137,48.8449167],[2.6901219,48.8449701],[2.6898055,48.8450034],[2.6897437,48.8451029],[2.6893555,48.8453775],[2.689302,48.8456479],[2.6892207,48.8457797],[2.6889255,48.8459632],[2.6887971,48.8462223],[2.6884564,48.8465192],[2.6883679,48.8465354],[2.6881495,48.8465061],[2.6880783,48.846251],[2.6880269,48.8462488],[2.68789,48.84632],[2.6877799,48.8462016],[2.6877295,48.8462056],[2.6876326,48.8464311],[2.6875103,48.8465464],[2.6874489,48.846582],[2.6872439,48.8466014],[2.6871524,48.8466398],[2.6870051,48.8467851],[2.686603,48.8469549],[2.6864556,48.8471007],[2.6862853,48.8471449],[2.686012,48.8472964],[2.685404,48.8477025],[2.685236,48.8477598],[2.6851471,48.8477532],[2.6850371,48.8478837],[2.6846387,48.8481108],[2.6842283,48.8482839],[2.6841219,48.8484093],[2.6837414,48.8485508],[2.6834526,48.8487806],[2.6831442,48.8488997],[2.6831725,48.8490792]]]]},"properties":{"code_section":"77059000ZA","code_commune":"77059","section_courte":"ZA"}}]}