{"type":"FeatureCollection","features":[{"type":"Feature","geometry":{"type":"MultiPolygon","coordinates":[[[[2.7296178,48.8690359],[2.7252407,48.865101],[2.7253235,48.8647809],[2.7274007,48.8641486],[2.727346,48.8639068],[2.7272575,48.8637588],[2.7270719,48.8634845],[2.726919,48.863369],[2.725831,48.8629674],[2.7261979,48.8626276],[2.7260087,48.8624287],[2.7259476,48.8622921],[2.7259007,48.8617045],[2.7260871,48.8609446],[2.7262832,48.8605587],[2.7268595,48.8598704],[2.7275631,48.8595815],[2.7279258,48.8592872],[2.7360337,48.8598795],[2.7344724,48.8621214],[2.7364806,48.8627695],[2.7355688,48.8639857],[2.7396556,48.865331],[2.7345802,48.8682336],[2.7297187,48.8690666],[2.7296596,48.8690738],[2.7296178,48.8690359]]]]},"properties":{"code_section":"770850000A","code_commune":"77085","section_courte":"A"}},{"type":"Feature","geometry":{"type":"MultiPolygon","coordinates":[[[[2.7464039,48.8614754],[2.7538469,48.8572525],[2.7535803,48.8591176],[2.7533815,48.8599241],[2.7533778,48.8601009],[2.7535788,48.8604816],[2.7536306,48.8608183],[2.7533947,48.8618814],[2.7532872,48.8644543],[2.7519326,48.8645598],[2.7507414,48.8644161],[2.7487612,48.8632127],[2.7454073,48.8620524],[2.7464039,48.8614754]]],[[[2.73654,48.8564884],[2.7365578,48.856179],[2.7366839,48.8561756],[2.7355026,48.8541523],[2.7362718,48.853591],[2.7383433,48.8530264],[2.7383072,48.8528473],[2.7379088,48.8520437],[2.7379953,48.85202],[2.7381643,48.8523392],[2.7391549,48.8521209],[2.7415637,48.8527329],[2.7427319,48.8541056],[2.7418076,48.8542688],[2.7421061,48.8557626],[2.7444096,48.8560743],[2.744506,48.8568826],[2.7438821,48.8568959],[2.7438862,48.8570922],[2.7414626,48.8571376],[2.7416159,48.8576881],[2.7413753,48.8577029],[2.741549,48.858185],[2.7407851,48.8583261],[2.7414361,48.8588937],[2.7419682,48.8591194],[2.7425674,48.8594495],[2.7427777,48.8596351],[2.7429945,48.8598952],[2.743176,48.8602067],[2.7432202,48.8604475],[2.7431345,48.8633729],[2.7396556,48.865331],[2.7355688,48.8639857],[2.7364806,48.8627695],[2.7344724,48.8621214],[2.7360337,48.8598795],[2.7381673,48.8576622],[2.7367869,48.8572914],[2.7362632,48.8572469],[2.7364507,48.8565249],[2.7365378,48.8565289],[2.73654,48.8564884]]]]},"properties":{"code_section":"770850000B","code_commune":"77085","section_courte":"B"}},{"type":"Feature","geometry":{"type":"MultiPolygon","coordinates":[[[[2.7303955,48.8542373],[2.7304924,48.8541042],[2.7306121,48.8540246],[2.7306331,48.8538999],[2.7308152,48.8537763],[2.7307926,48.8537103],[2.7308253,48.853673],[2.7310855,48.8535199],[2.7311293,48.8533884],[2.7312213,48.8533259],[2.7312578,48.8530893],[2.7314299,48.8531063],[2.731529,48.853067],[2.7313495,48.8529984],[2.7314006,48.8529335],[2.7315421,48.8529595],[2.7316869,48.8529099],[2.7317052,48.8528344],[2.7318428,48.8528132],[2.7318935,48.8527079],[2.731991,48.8526887],[2.7322245,48.8525534],[2.7322012,48.8524994],[2.7323611,48.8524662],[2.732523,48.8523776],[2.7329275,48.8520932],[2.7331322,48.8520567],[2.7331953,48.8519987],[2.7338018,48.8517308],[2.733968,48.8517035],[2.7342755,48.8515894],[2.7343811,48.8516185],[2.7345748,48.8515874],[2.7347437,48.8516185],[2.7348212,48.851667],[2.7348821,48.8516611],[2.7350013,48.8515848],[2.7350481,48.8514964],[2.7352908,48.8515429],[2.7354038,48.8515181],[2.735582,48.8513131],[2.7356614,48.8512707],[2.7359789,48.8513378],[2.7360838,48.8511402],[2.7363302,48.8509798],[2.7364249,48.8509019],[2.7363937,48.8508833],[2.7365765,48.8507593],[2.7371688,48.8511824],[2.7378223,48.8518693],[2.7383072,48.8528473],[2.7383433,48.8530264],[2.7362718,48.853591],[2.7344926,48.8549022],[2.7339217,48.8552513],[2.7336197,48.8553875],[2.7331003,48.8555133],[2.731717,48.8556778],[2.7310867,48.8557948],[2.7308338,48.8558152],[2.7295031,48.8547735],[2.7295436,48.8547344],[2.7296431,48.8547341],[2.7296521,48.8546717],[2.7297395,48.8546457],[2.7300144,48.8544498],[2.7301676,48.8544531],[2.7302399,48.8542919],[2.7303955,48.8542373]]]]},"properties":{"code_section":"770850000C","code_commune":"77085","section_courte":"C"}},{"type":"Feature","geometry":{"type":"MultiPolygon","coordinates":[[[[2.7355026,48.8541523],[2.7366839,48.8561756],[2.7365578,48.856179],[2.7365378,48.8565289],[2.7364507,48.8565249],[2.7362632,48.8572469],[2.7367869,48.8572914],[2.7381673,48.8576622],[2.7360337,48.8598795],[2.7279258,48.8592872],[2.7279773,48.8592431],[2.7291903,48.8567665],[2.7290868,48.856748],[2.7292081,48.8565049],[2.7298439,48.8561695],[2.7305975,48.8558676],[2.731717,48.8556778],[2.7331003,48.8555133],[2.7336197,48.8553875],[2.7339217,48.8552513],[2.7344926,48.8549022],[2.7355026,48.8541523]]]]},"properties":{"code_section":"77085000AB","code_commune":"77085","section_courte":"AB"}},{"type":"Feature","geometry":{"type":"MultiPolygon","coordinates":[[[[2.7363846,48.8506457],[2.7366806,48.850404],[2.7371781,48.8502706],[2.7374116,48.8500992],[2.7375815,48.8500308],[2.7376074,48.8498362],[2.7377447,48.8498333],[2.737859,48.8497792],[2.7378768,48.8496778],[2.7386938,48.8494777],[2.7393366,48.8493607],[2.7397703,48.849237],[2.7399433,48.8492563],[2.7400044,48.8492318],[2.7397819,48.8489811],[2.7399145,48.8487963],[2.7418404,48.8479718],[2.7428957,48.8472137],[2.7448405,48.8477107],[2.7448333,48.8477308],[2.7449177,48.8477395],[2.7449076,48.8477796],[2.7448274,48.8477755],[2.745802,48.8483728],[2.7460347,48.8484507],[2.7462571,48.8486871],[2.7468613,48.8488979],[2.7470184,48.8490676],[2.7474819,48.8492728],[2.7475026,48.8494441],[2.7476279,48.8494681],[2.7478138,48.8493725],[2.7479291,48.8493636],[2.7479042,48.8496132],[2.7479345,48.8497968],[2.747858,48.8498384],[2.747953,48.8499232],[2.7482958,48.8499426],[2.7484697,48.8500417],[2.7485487,48.85005],[2.7485926,48.8500218],[2.7487442,48.849671],[2.748863,48.8496198],[2.7498058,48.8498028],[2.7517657,48.8502419],[2.7523128,48.8503196],[2.7523221,48.8505903],[2.7525449,48.8516461],[2.7525448,48.8529335],[2.752619,48.8535057],[2.7530764,48.8548107],[2.7524244,48.8551808],[2.753438,48.8559584],[2.7546908,48.8567787],[2.7464039,48.8614754],[2.7431345,48.8633729],[2.7432202,48.8604475],[2.743176,48.8602067],[2.7429945,48.8598952],[2.7427777,48.8596351],[2.7425674,48.8594495],[2.7419682,48.8591194],[2.7414361,48.8588937],[2.7407851,48.8583261],[2.741549,48.858185],[2.7413753,48.8577029],[2.7416159,48.8576881],[2.7414626,48.8571376],[2.7438862,48.8570922],[2.7438821,48.8568959],[2.744506,48.8568826],[2.7444096,48.8560743],[2.7421061,48.8557626],[2.7418076,48.8542688],[2.7427319,48.8541056],[2.7415637,48.8527329],[2.7391549,48.8521209],[2.7381643,48.8523392],[2.7379953,48.85202],[2.7379088,48.8520437],[2.7378223,48.8518693],[2.7376552,48.8516638],[2.7371688,48.8511824],[2.7363846,48.8506457]]]]},"properties":{"code_section":"77085000YA","code_commune":"77085","section_courte":"YA"}}]}