{"type":"FeatureCollection","features":[{"type":"Feature","geometry":{"type":"MultiPolygon","coordinates":[[[[2.7478206,48.8836374],[2.7490579,48.8809722],[2.7492875,48.880012],[2.7494258,48.8796764],[2.7495072,48.879579],[2.749649,48.8794921],[2.7498561,48.8791439],[2.7503476,48.8781125],[2.7528833,48.8781486],[2.7555259,48.8782476],[2.7569634,48.8786534],[2.7564223,48.8795479],[2.7560766,48.8802603],[2.7559901,48.8802612],[2.7556861,48.880837],[2.7557561,48.8808463],[2.7554182,48.8814892],[2.7553992,48.8815061],[2.7552623,48.8814707],[2.7551606,48.8817218],[2.7546991,48.8816887],[2.7545658,48.8818994],[2.7544448,48.8823295],[2.7544527,48.8825186],[2.7550436,48.8823626],[2.7550727,48.8828803],[2.7544508,48.8829352],[2.7541304,48.8828945],[2.7540604,48.8828379],[2.7540074,48.8831432],[2.7536358,48.8831039],[2.7535845,48.8833063],[2.7537118,48.8833297],[2.7543508,48.8838163],[2.7541161,48.8840347],[2.7523204,48.8836834],[2.7518096,48.8836391],[2.7513802,48.8836692],[2.750861,48.8838157],[2.7504463,48.8838758],[2.7490492,48.8839013],[2.748605,48.8839944],[2.748379,48.8840122],[2.7476597,48.8839908],[2.7478206,48.8836374]]]]},"properties":{"code_section":"77111000AB","code_commune":"77111","section_courte":"AB"}},{"type":"Feature","geometry":{"type":"MultiPolygon","coordinates":[[[[2.7536235,48.8831676],[2.7536358,48.8831039],[2.7540074,48.8831432],[2.7540604,48.8828379],[2.7541304,48.8828945],[2.7544508,48.8829352],[2.7550727,48.8828803],[2.7550436,48.8823626],[2.7544527,48.8825186],[2.7544448,48.8823295],[2.7545658,48.8818994],[2.7546991,48.8816887],[2.7551606,48.8817218],[2.7552623,48.8814707],[2.7553992,48.8815061],[2.7554182,48.8814892],[2.7557561,48.8808463],[2.7556861,48.880837],[2.7559901,48.8802612],[2.7560766,48.8802603],[2.7564223,48.8795479],[2.7569634,48.8786534],[2.7618827,48.8798942],[2.7616295,48.8802003],[2.7613124,48.8807857],[2.7608903,48.8811801],[2.761487,48.8813231],[2.7622205,48.8814099],[2.7628996,48.8815382],[2.7630994,48.8815287],[2.7636037,48.8815848],[2.7637858,48.8812956],[2.7638419,48.8812604],[2.7640656,48.8812261],[2.7642667,48.881653],[2.764339,48.8819127],[2.7638656,48.8823743],[2.7638696,48.8831123],[2.763558,48.8831728],[2.7633307,48.8832574],[2.7624841,48.8837494],[2.7616808,48.8843026],[2.7613372,48.88438],[2.7612046,48.8844774],[2.7609659,48.8850489],[2.7602379,48.8854923],[2.7604762,48.8856814],[2.7598703,48.8861951],[2.7595411,48.8862614],[2.7591725,48.8864408],[2.7569884,48.8853695],[2.7563504,48.8849623],[2.7557032,48.8846273],[2.7549461,48.8842913],[2.7541161,48.8840347],[2.7543508,48.8838163],[2.7537118,48.8833297],[2.7535845,48.8833063],[2.7536235,48.8831676]]]]},"properties":{"code_section":"77111000AC","code_commune":"77111","section_courte":"AC"}},{"type":"Feature","geometry":{"type":"MultiPolygon","coordinates":[[[[2.7595411,48.8862614],[2.7598703,48.8861951],[2.7604762,48.8856814],[2.7602379,48.8854923],[2.7609659,48.8850489],[2.7612046,48.8844774],[2.7613372,48.88438],[2.7616808,48.8843026],[2.7624841,48.8837494],[2.7633307,48.8832574],[2.763558,48.8831728],[2.7638696,48.8831123],[2.7638656,48.8823743],[2.764339,48.8819127],[2.7644453,48.881969],[2.7652769,48.8829212],[2.7665459,48.8820108],[2.7683472,48.8832751],[2.7682898,48.8832909],[2.7684023,48.8833586],[2.7684593,48.8833432],[2.7686365,48.883461],[2.7697949,48.8840036],[2.7705721,48.884415],[2.77003,48.8847724],[2.7685579,48.8858456],[2.7702032,48.8871222],[2.7704374,48.8873497],[2.7699454,48.8875687],[2.7695733,48.8878547],[2.7692426,48.8879959],[2.7685554,48.8880599],[2.7678952,48.8880579],[2.7676307,48.8880222],[2.7671788,48.8878217],[2.766567,48.8877154],[2.7664136,48.8877747],[2.7663975,48.8879165],[2.766563,48.8881811],[2.7665582,48.8884564],[2.7664419,48.8884638],[2.7661291,48.8884114],[2.7658215,48.8882789],[2.7656333,48.8880599],[2.765577,48.8878781],[2.7653554,48.8876115],[2.7650772,48.8873972],[2.7647057,48.8870199],[2.7634261,48.8859057],[2.7624942,48.8852],[2.7605841,48.885776],[2.7605221,48.8857668],[2.7601411,48.886106],[2.7602076,48.88648],[2.759862,48.8867851],[2.7591725,48.8864408],[2.7595411,48.8862614]]]]},"properties":{"code_section":"77111000AD","code_commune":"77111","section_courte":"AD"}},{"type":"Feature","geometry":{"type":"MultiPolygon","coordinates":[[[[2.7609886,48.8810654],[2.7611939,48.8809192],[2.7613124,48.8807857],[2.7616295,48.8802003],[2.7618827,48.8798942],[2.761611,48.8798291],[2.7615917,48.8797747],[2.7625156,48.878649],[2.7625781,48.8786682],[2.7627766,48.8784879],[2.7629154,48.8784838],[2.7628862,48.8780752],[2.7645854,48.8782765],[2.7658285,48.8785434],[2.7661461,48.8784096],[2.7688466,48.8767663],[2.7703519,48.8775854],[2.7692812,48.8781992],[2.7689606,48.8784501],[2.7687904,48.8783509],[2.7673845,48.8792079],[2.7678723,48.8794065],[2.7678018,48.8794721],[2.7678717,48.8794988],[2.7678364,48.8795355],[2.770201,48.880474],[2.7692091,48.8811414],[2.7691719,48.8812414],[2.7703083,48.8814017],[2.769868,48.8818842],[2.7709661,48.8825454],[2.7717536,48.8830823],[2.7719026,48.8833069],[2.7718143,48.8836031],[2.7711887,48.8844869],[2.7708961,48.8844341],[2.7705721,48.884415],[2.7697949,48.8840036],[2.7686365,48.883461],[2.7684593,48.8833432],[2.7684023,48.8833586],[2.7682898,48.8832909],[2.7683472,48.8832751],[2.7665459,48.8820108],[2.7652769,48.8829212],[2.7644453,48.881969],[2.764339,48.8819127],[2.7642667,48.881653],[2.7640656,48.8812261],[2.7638419,48.8812604],[2.7637858,48.8812956],[2.7636037,48.8815848],[2.7630994,48.8815287],[2.7628996,48.8815382],[2.7622205,48.8814099],[2.761487,48.8813231],[2.7608903,48.8811801],[2.7609886,48.8810654]]]]},"properties":{"code_section":"77111000AE","code_commune":"77111","section_courte":"AE"}},{"type":"Feature","geometry":{"type":"MultiPolygon","coordinates":[[[[2.7505461,48.8780003],[2.763227,48.8706611],[2.7630901,48.8704493],[2.7650453,48.8693239],[2.7651118,48.8695733],[2.7653895,48.8694174],[2.7660612,48.870684],[2.7673577,48.8749094],[2.7694334,48.8745786],[2.7694795,48.8747351],[2.7697764,48.8746869],[2.7704501,48.8751951],[2.7717723,48.8760399],[2.7718517,48.8760339],[2.7718607,48.8760932],[2.7719276,48.8761325],[2.7710773,48.8762204],[2.7688106,48.8767445],[2.7688466,48.8767663],[2.7672317,48.8777669],[2.7661461,48.8784096],[2.7658285,48.8785434],[2.7645854,48.8782765],[2.7628862,48.8780752],[2.7629154,48.8784838],[2.7627766,48.8784879],[2.7625781,48.8786682],[2.7625156,48.878649],[2.7615917,48.8797747],[2.761611,48.8798291],[2.7569634,48.8786534],[2.7555259,48.8782476],[2.7528833,48.8781486],[2.7503476,48.8781125],[2.7505461,48.8780003]]]]},"properties":{"code_section":"77111000AH","code_commune":"77111","section_courte":"AH"}},{"type":"Feature","geometry":{"type":"MultiPolygon","coordinates":[[[[2.7660715,48.8702456],[2.7665138,48.870953],[2.7697796,48.8709417],[2.7699988,48.8710759],[2.7774327,48.8691608],[2.7783793,48.8684219],[2.7791703,48.8684381],[2.779992,48.8688936],[2.7800487,48.8693107],[2.7803843,48.8693252],[2.780644,48.8693814],[2.7808491,48.8693405],[2.7809795,48.8693783],[2.7810627,48.8694746],[2.7810472,48.8695607],[2.7813947,48.8697569],[2.7814656,48.8701727],[2.7817293,48.8701525],[2.7816856,48.8698808],[2.7820035,48.8698583],[2.7819506,48.8695522],[2.7823334,48.8695235],[2.7823859,48.8698297],[2.7830614,48.8697804],[2.782946,48.8690884],[2.783291,48.869062],[2.7835779,48.8681749],[2.7839323,48.8680144],[2.7841654,48.8682344],[2.784463,48.8680982],[2.7849993,48.8687144],[2.7861,48.8686081],[2.7861774,48.8689406],[2.7864669,48.8689134],[2.7865052,48.8692842],[2.7874271,48.8692599],[2.7873464,48.8695407],[2.7887037,48.8697198],[2.7889844,48.8687952],[2.7891917,48.8693791],[2.7897167,48.8696202],[2.7908814,48.8704104],[2.7914336,48.8708637],[2.791779,48.8712442],[2.7835083,48.8745518],[2.7822282,48.8748341],[2.7774654,48.8756056],[2.7774273,48.8761046],[2.7778215,48.8773618],[2.7779646,48.8786006],[2.7763612,48.8781128],[2.7755849,48.8778368],[2.774649,48.8774692],[2.7734688,48.8769366],[2.7719276,48.8761325],[2.7718607,48.8760932],[2.7718517,48.8760339],[2.7717723,48.8760399],[2.7715524,48.8759066],[2.7704501,48.8751951],[2.7697764,48.8746869],[2.7694795,48.8747351],[2.7694334,48.8745786],[2.7673577,48.8749094],[2.7660612,48.870684],[2.7660715,48.8702456]]]]},"properties":{"code_section":"77111000AI","code_commune":"77111","section_courte":"AI"}},{"type":"Feature","geometry":{"type":"MultiPolygon","coordinates":[[[[2.764503,48.8642712],[2.7645229,48.8637875],[2.7646181,48.8636715],[2.764807,48.8628056],[2.7652436,48.8615308],[2.7656426,48.8616635],[2.7650009,48.8637916],[2.7652166,48.8638023],[2.7709776,48.8637778],[2.7746292,48.860992],[2.7787776,48.8633451],[2.7798041,48.8630975],[2.7801094,48.8631028],[2.7803711,48.8632052],[2.7805396,48.8633211],[2.7806202,48.8637044],[2.7806112,48.8636406],[2.7807449,48.8633607],[2.7805689,48.8624029],[2.7806671,48.8623865],[2.7805423,48.8616849],[2.7812279,48.8618236],[2.7818008,48.8618751],[2.7817909,48.861822],[2.7822238,48.8618254],[2.7859618,48.8616575],[2.7866679,48.861657],[2.7866593,48.862137],[2.7889844,48.8687952],[2.7887037,48.8697198],[2.7873464,48.8695407],[2.7874271,48.8692599],[2.7865052,48.8692842],[2.7864669,48.8689134],[2.7861774,48.8689406],[2.7861,48.8686081],[2.7849993,48.8687144],[2.784463,48.8680982],[2.7841654,48.8682344],[2.7839323,48.8680144],[2.7835779,48.8681749],[2.783291,48.869062],[2.782946,48.8690884],[2.7830614,48.8697804],[2.7823859,48.8698297],[2.7823334,48.8695235],[2.7819506,48.8695522],[2.7820035,48.8698583],[2.7816856,48.8698808],[2.7817293,48.8701525],[2.7814656,48.8701727],[2.7813947,48.8697569],[2.7810472,48.8695607],[2.7810627,48.8694746],[2.7809795,48.8693783],[2.7808491,48.8693405],[2.780644,48.8693814],[2.7803843,48.8693252],[2.7800487,48.8693107],[2.779992,48.8688936],[2.7791703,48.8684381],[2.7783793,48.8684219],[2.7774327,48.8691608],[2.7699988,48.8710759],[2.7697796,48.8709417],[2.7665138,48.870953],[2.7660715,48.8702456],[2.7660612,48.870684],[2.7653895,48.8694174],[2.7651118,48.8695733],[2.7643988,48.8668904],[2.764503,48.8642712]]]]},"properties":{"code_section":"77111000AK","code_commune":"77111","section_courte":"AK"}},{"type":"Feature","geometry":{"type":"MultiPolygon","coordinates":[[[[2.7837934,48.8607952],[2.7837287,48.8601684],[2.7855545,48.8600774],[2.7855544,48.860224],[2.7859411,48.8608266],[2.7863096,48.8608118],[2.7862368,48.8600794],[2.7867133,48.8600486],[2.7866679,48.861657],[2.7859618,48.8616575],[2.7838919,48.8617492],[2.7837934,48.8607952]]],[[[2.7688575,48.8556411],[2.7690174,48.8557309],[2.7692706,48.8555091],[2.7695048,48.8554019],[2.769718,48.855351],[2.7700756,48.855331],[2.770467,48.855401],[2.7714306,48.8547601],[2.7721328,48.8543526],[2.7723736,48.8546282],[2.7726804,48.8546858],[2.7736846,48.8557655],[2.7737184,48.855745],[2.7739063,48.8558502],[2.7738778,48.8558683],[2.7769651,48.8576059],[2.778117,48.8583013],[2.778823,48.8588489],[2.7794645,48.8595058],[2.7799032,48.860128],[2.7802303,48.86074],[2.7804732,48.8613999],[2.7806671,48.8623865],[2.7805689,48.8624029],[2.7807449,48.8633607],[2.7806112,48.8636406],[2.7806202,48.8637044],[2.7805396,48.8633211],[2.7803711,48.8632052],[2.7801094,48.8631028],[2.7798041,48.8630975],[2.7787776,48.8633451],[2.7746292,48.860992],[2.7709776,48.8637778],[2.7650009,48.8637916],[2.7656426,48.8616635],[2.7652436,48.8615308],[2.7653303,48.8613278],[2.7650834,48.8611777],[2.7649467,48.8610319],[2.7648635,48.8608535],[2.7648558,48.8606516],[2.7628925,48.8602086],[2.7635731,48.8590046],[2.7653422,48.8567423],[2.7666789,48.8554593],[2.7677129,48.8560465],[2.7684653,48.855422],[2.7688575,48.8556411]]]]},"properties":{"code_section":"77111000AL","code_commune":"77111","section_courte":"AL"}},{"type":"Feature","geometry":{"type":"MultiPolygon","coordinates":[[[[2.7601775,48.8870341],[2.759862,48.8867851],[2.7602076,48.88648],[2.7601411,48.886106],[2.7605221,48.8857668],[2.7605841,48.885776],[2.7624942,48.8852],[2.7634261,48.8859057],[2.7647057,48.8870199],[2.7650772,48.8873972],[2.7653554,48.8876115],[2.765577,48.8878781],[2.7656333,48.8880599],[2.7658215,48.8882789],[2.7661291,48.8884114],[2.7664419,48.8884638],[2.7642603,48.8892478],[2.7638025,48.8888203],[2.7634482,48.888626],[2.7620648,48.8881196],[2.7613906,48.8878051],[2.7609293,48.8875619],[2.7601775,48.8870341]]],[[[2.7689079,48.8768033],[2.7688106,48.8767445],[2.7710773,48.8762204],[2.7719276,48.8761325],[2.7733562,48.8768819],[2.774649,48.8774692],[2.776203,48.8780607],[2.7779646,48.8786006],[2.7780176,48.8793691],[2.7779092,48.8800201],[2.7777936,48.8803793],[2.7773291,48.8812165],[2.7736636,48.8813946],[2.7720348,48.8832849],[2.7719026,48.8833069],[2.7717536,48.8830823],[2.7709661,48.8825454],[2.769868,48.8818842],[2.7703083,48.8814017],[2.7691719,48.8812414],[2.7692091,48.8811414],[2.770201,48.880474],[2.7678364,48.8795355],[2.7678717,48.8794988],[2.7678018,48.8794721],[2.7678723,48.8794065],[2.7673845,48.8792079],[2.7687904,48.8783509],[2.7689606,48.8784501],[2.7692812,48.8781992],[2.7703519,48.8775854],[2.7689079,48.8768033]]]]},"properties":{"code_section":"77111000YA","code_commune":"77111","section_courte":"YA"}}]}