{"type":"FeatureCollection","features":[{"type":"Feature","geometry":{"type":"MultiPolygon","coordinates":[[[[2.7305567,48.8536881],[2.7308243,48.8533874],[2.7317437,48.8525016],[2.7320435,48.8526529],[2.731872,48.852735],[2.7318488,48.8528182],[2.7317144,48.8528484],[2.7316341,48.8529502],[2.7315551,48.8529709],[2.7314422,48.852937],[2.7313416,48.8530095],[2.731349,48.8530376],[2.7314961,48.8530466],[2.7315304,48.8530939],[2.7314673,48.8531155],[2.7312628,48.8530949],[2.7312746,48.8531687],[2.7312004,48.8533642],[2.731116,48.8534178],[2.731064,48.8535378],[2.7307918,48.8536935],[2.7308,48.8537855],[2.7306186,48.853921],[2.7306202,48.854014],[2.7304602,48.8541449],[2.7304075,48.8542598],[2.7296622,48.854681],[2.7296458,48.8547368],[2.7295021,48.8547768],[2.7297306,48.8549892],[2.7308597,48.8558331],[2.7306649,48.8558732],[2.7300658,48.8561095],[2.7293619,48.856441],[2.7291668,48.8566173],[2.7290981,48.8567674],[2.7291714,48.8567846],[2.7280891,48.8591161],[2.7279044,48.8593164],[2.7275556,48.8595869],[2.726846,48.8598708],[2.7253701,48.8600682],[2.7252939,48.8600439],[2.7237406,48.8613401],[2.7228451,48.8618879],[2.720881,48.8629209],[2.718882,48.8642494],[2.7157278,48.8655932],[2.7153749,48.8656719],[2.714836,48.8657223],[2.7143492,48.8656995],[2.7138434,48.8655689],[2.7135603,48.8648052],[2.7115747,48.8649614],[2.7112817,48.864959],[2.7100497,48.8648373],[2.7095022,48.8648469],[2.7105339,48.8634554],[2.7107739,48.8630708],[2.7108431,48.8628574],[2.7108133,48.8625026],[2.7106891,48.8620946],[2.7099546,48.8610227],[2.7094131,48.8589781],[2.7093677,48.8582379],[2.70938,48.8571505],[2.7096144,48.8562808],[2.7097003,48.8552327],[2.7096931,48.8548007],[2.709833,48.8541358],[2.7114643,48.8539911],[2.7124342,48.8540617],[2.714303,48.8540787],[2.7218907,48.853484],[2.72194,48.8535064],[2.7222217,48.8559431],[2.7238624,48.8556882],[2.7246167,48.8556251],[2.7254604,48.8554271],[2.7266419,48.8550842],[2.7273737,48.8548179],[2.727657,48.854704],[2.7288633,48.8540919],[2.7303216,48.8536877],[2.7305567,48.8536881]],[[2.7150273,48.8556319],[2.7142781,48.8573986],[2.7149251,48.857517],[2.7147276,48.858045],[2.7137635,48.8579252],[2.7135987,48.8580922],[2.7133409,48.858171],[2.7103384,48.8582105],[2.7104803,48.8593097],[2.7108513,48.8592561],[2.7119399,48.8592231],[2.711739,48.8594553],[2.7119986,48.8596108],[2.7121607,48.8595678],[2.7122188,48.859594],[2.7123318,48.8595789],[2.7124637,48.8596589],[2.7125862,48.8596129],[2.7128048,48.8597401],[2.7130081,48.859723],[2.7131202,48.859806],[2.7133457,48.8598246],[2.7137191,48.8599185],[2.7139057,48.8599014],[2.7140581,48.8599354],[2.7144198,48.8599387],[2.7159747,48.859704],[2.7163624,48.8596014],[2.7164905,48.8595277],[2.7170841,48.8593411],[2.7173647,48.8593316],[2.7176474,48.8592678],[2.7178112,48.859261],[2.7184687,48.8588238],[2.7186778,48.8586494],[2.7189231,48.8586317],[2.7190849,48.8586771],[2.7192833,48.8586186],[2.7192607,48.8584213],[2.7193743,48.8574239],[2.7192947,48.8570867],[2.7190848,48.8568207],[2.7187491,48.8565745],[2.7179384,48.8563251],[2.7164747,48.856111],[2.7158055,48.8557775],[2.7156237,48.8557198],[2.7150273,48.8556319]]]]},"properties":{"code_section":"771240000A","code_commune":"77124","section_courte":"A"}},{"type":"Feature","geometry":{"type":"MultiPolygon","coordinates":[[[[2.7103435,48.8582525],[2.7103384,48.8582105],[2.7133409,48.858171],[2.7135987,48.8580922],[2.7137635,48.8579252],[2.7147276,48.858045],[2.7149251,48.857517],[2.7142781,48.8573986],[2.7150273,48.8556319],[2.7156237,48.8557198],[2.7158055,48.8557775],[2.7164747,48.856111],[2.7179384,48.8563251],[2.7187491,48.8565745],[2.7190848,48.8568207],[2.7192947,48.8570867],[2.7193743,48.8574239],[2.7192607,48.8584213],[2.7192833,48.8586186],[2.7190849,48.8586771],[2.7189231,48.8586317],[2.7186778,48.8586494],[2.7184687,48.8588238],[2.7178112,48.859261],[2.7176474,48.8592678],[2.7173647,48.8593316],[2.7170841,48.8593411],[2.7164905,48.8595277],[2.7163624,48.8596014],[2.7159747,48.859704],[2.7144198,48.8599387],[2.7140581,48.8599354],[2.7139057,48.8599014],[2.7137191,48.8599185],[2.7133457,48.8598246],[2.7131202,48.859806],[2.7130081,48.859723],[2.7128048,48.8597401],[2.7125862,48.8596129],[2.7124637,48.8596589],[2.7123318,48.8595789],[2.7122188,48.859594],[2.7121607,48.8595678],[2.7119986,48.8596108],[2.711739,48.8594553],[2.7119399,48.8592231],[2.7108513,48.8592561],[2.7104803,48.8593097],[2.7103435,48.8582525]]]]},"properties":{"code_section":"77124000AB","code_commune":"77124","section_courte":"AB"}},{"type":"Feature","geometry":{"type":"MultiPolygon","coordinates":[[[[2.7317437,48.8525016],[2.7308243,48.8533874],[2.7305567,48.8536881],[2.7303216,48.8536877],[2.7288633,48.8540919],[2.727657,48.854704],[2.7273737,48.8548179],[2.7266419,48.8550842],[2.7254604,48.8554271],[2.7246167,48.8556251],[2.7238624,48.8556882],[2.7222217,48.8559431],[2.72194,48.8535064],[2.7229199,48.8536803],[2.7240904,48.8537222],[2.7255387,48.8536132],[2.7267889,48.8532783],[2.7276191,48.8529889],[2.7290464,48.8522263],[2.7307396,48.8520227],[2.7317437,48.8525016]]]]},"properties":{"code_section":"77124000ZA","code_commune":"77124","section_courte":"ZA"}}]}