{"type":"FeatureCollection","features":[{"type":"Feature","geometry":{"type":"MultiPolygon","coordinates":[[[[2.6668787,48.8376366],[2.6667593,48.837218],[2.6675861,48.8362254],[2.6684951,48.8361043],[2.668915,48.8356371],[2.6689112,48.8355713],[2.6698769,48.8359367],[2.6710325,48.8348909],[2.6712635,48.8347488],[2.6714666,48.8346773],[2.6717872,48.8346249],[2.6722191,48.834614],[2.6723939,48.8351935],[2.6727815,48.8350944],[2.6730612,48.8350817],[2.6741811,48.8356887],[2.6743766,48.8356255],[2.6750073,48.8353251],[2.6753203,48.8352675],[2.6759088,48.8352274],[2.6763325,48.8352662],[2.676141,48.835566],[2.6747189,48.836001],[2.6745953,48.8361085],[2.6749677,48.836308],[2.6748539,48.8364233],[2.6748173,48.8364068],[2.6744465,48.8366941],[2.674757,48.8368538],[2.6744855,48.8370909],[2.6749383,48.8373601],[2.6747533,48.8375193],[2.6751397,48.8377388],[2.67455,48.838241],[2.6743947,48.8381719],[2.6743074,48.838257],[2.6733015,48.8388541],[2.6734941,48.8389425],[2.6735052,48.8390022],[2.672453,48.8397605],[2.6717666,48.839453],[2.6717129,48.8395021],[2.6714515,48.8393838],[2.671398,48.8395255],[2.6713335,48.839558],[2.6712335,48.8395523],[2.6711757,48.8395128],[2.6711699,48.8394605],[2.6713169,48.8393857],[2.6713435,48.8393318],[2.6710024,48.8391762],[2.6709093,48.8394635],[2.671049,48.8395184],[2.671075,48.8395862],[2.6700305,48.840729],[2.6694369,48.8404976],[2.6688708,48.8410958],[2.6681448,48.8408232],[2.6682025,48.8407454],[2.6676243,48.8404913],[2.6673038,48.8407683],[2.665296,48.8397073],[2.6651961,48.8396191],[2.6651684,48.8394348],[2.6652752,48.8391394],[2.6654326,48.8389336],[2.6658083,48.8385857],[2.6658428,48.8385596],[2.6662798,48.8387158],[2.666378,48.8385255],[2.6658328,48.8383278],[2.666441,48.8375885],[2.6666545,48.8375632],[2.6667102,48.8377597],[2.6682601,48.8382893],[2.6685199,48.8383367],[2.6686312,48.8381487],[2.6668787,48.8376366]]]]},"properties":{"code_section":"77121000AB","code_commune":"77121","section_courte":"AB"}},{"type":"Feature","geometry":{"type":"MultiPolygon","coordinates":[[[[2.6929971,48.81577],[2.6871387,48.8213831],[2.6862114,48.8210296],[2.6856385,48.8216456],[2.6803274,48.8195259],[2.6785679,48.8192672],[2.6780547,48.8194252],[2.6774432,48.8193808],[2.6802606,48.8111356],[2.6805914,48.8111183],[2.6806459,48.811077],[2.6818446,48.811026],[2.6843677,48.8122775],[2.6845667,48.8121077],[2.6847084,48.8119054],[2.6850436,48.8116892],[2.6851358,48.8114855],[2.6852825,48.8113101],[2.6854921,48.8111796],[2.6857398,48.8109393],[2.6858469,48.8107244],[2.6859813,48.8106174],[2.6862641,48.8104766],[2.6865147,48.8104327],[2.6869583,48.8101188],[2.6873306,48.8099763],[2.6877443,48.8096562],[2.6881229,48.8094614],[2.6890704,48.8086551],[2.6892106,48.8086728],[2.6891064,48.8098767],[2.6881836,48.8108599],[2.6874719,48.8117367],[2.6882454,48.8126613],[2.6905809,48.8153054],[2.6910013,48.8142785],[2.6911198,48.8140849],[2.6912806,48.8139502],[2.6918328,48.81458],[2.6929971,48.81577]]]]},"properties":{"code_section":"77121000AC","code_commune":"77121","section_courte":"AC"}},{"type":"Feature","geometry":{"type":"MultiPolygon","coordinates":[[[[2.6871387,48.8213831],[2.6810402,48.8272277],[2.6803052,48.8270766],[2.6789896,48.8272954],[2.6747499,48.8272624],[2.6774432,48.8193808],[2.6780547,48.8194252],[2.6785679,48.8192672],[2.6803274,48.8195259],[2.6856385,48.8216456],[2.6862114,48.8210296],[2.6871387,48.8213831]]]]},"properties":{"code_section":"77121000AD","code_commune":"77121","section_courte":"AD"}},{"type":"Feature","geometry":{"type":"MultiPolygon","coordinates":[[[[2.6817583,48.8341306],[2.6807946,48.8345253],[2.6800924,48.8347263],[2.6774431,48.8352328],[2.6770802,48.8352707],[2.6763325,48.8352662],[2.6759088,48.8352274],[2.6753203,48.8352675],[2.6750073,48.8353251],[2.6743766,48.8356255],[2.6741811,48.8356887],[2.6740984,48.8356494],[2.6748583,48.8346379],[2.6771979,48.8317046],[2.6813359,48.8314296],[2.6812618,48.8327154],[2.6816109,48.8340898],[2.6817583,48.8341306]]]]},"properties":{"code_section":"77121000AE","code_commune":"77121","section_courte":"AE"}},{"type":"Feature","geometry":{"type":"MultiPolygon","coordinates":[[[[2.6691033,48.827961],[2.6696665,48.827229],[2.6712153,48.8271743],[2.6720564,48.8272565],[2.672579,48.8272442],[2.6732144,48.8271787],[2.6747499,48.8272624],[2.6789896,48.8272954],[2.6803052,48.8270766],[2.6810402,48.8272277],[2.6796667,48.8285676],[2.6828479,48.8297236],[2.6836196,48.8298524],[2.6873636,48.8303675],[2.6879986,48.8301011],[2.6899477,48.8303995],[2.6899668,48.8306002],[2.6898782,48.8308987],[2.6771979,48.8317046],[2.6657257,48.8323245],[2.6691033,48.827961]]]]},"properties":{"code_section":"77121000AH","code_commune":"77121","section_courte":"AH"}},{"type":"Feature","geometry":{"type":"MultiPolygon","coordinates":[[[[2.671369,48.8347067],[2.6710325,48.8348909],[2.6698769,48.8359367],[2.6678792,48.8351639],[2.6663801,48.8346263],[2.6652716,48.8341294],[2.6647024,48.8336043],[2.6657257,48.8323245],[2.6771979,48.8317046],[2.6748583,48.8346379],[2.6740984,48.8356494],[2.6730612,48.8350817],[2.6727815,48.8350944],[2.6723939,48.8351935],[2.6722191,48.834614],[2.6717872,48.8346249],[2.671369,48.8347067]]]]},"properties":{"code_section":"77121000AI","code_commune":"77121","section_courte":"AI"}},{"type":"Feature","geometry":{"type":"MultiPolygon","coordinates":[[[[2.6619812,48.8333608],[2.6625847,48.8328082],[2.6641883,48.8334845],[2.6646143,48.8337076],[2.6647024,48.8336043],[2.6652716,48.8341294],[2.6663801,48.8346263],[2.6678792,48.8351639],[2.6689112,48.8355713],[2.668915,48.8356371],[2.6684951,48.8361043],[2.6675861,48.8362254],[2.6667593,48.837218],[2.6668787,48.8376366],[2.6686312,48.8381487],[2.6685199,48.8383367],[2.6682601,48.8382893],[2.6667102,48.8377597],[2.6666545,48.8375632],[2.666441,48.8375885],[2.6658328,48.8383278],[2.666378,48.8385255],[2.6662798,48.8387158],[2.6658428,48.8385596],[2.6654326,48.8389336],[2.6652752,48.8391394],[2.6651684,48.8394348],[2.6651701,48.8395656],[2.6652922,48.8397049],[2.6642386,48.8406474],[2.6585435,48.8384329],[2.6586475,48.8382408],[2.6600073,48.8365039],[2.6602385,48.836029],[2.6605194,48.8352396],[2.6609062,48.8345622],[2.6614377,48.833882],[2.6619812,48.8333608]]]]},"properties":{"code_section":"77121000AK","code_commune":"77121","section_courte":"AK"}},{"type":"Feature","geometry":{"type":"MultiPolygon","coordinates":[[[[2.6713169,48.8393857],[2.6711699,48.8394605],[2.6711757,48.8395128],[2.6712335,48.8395523],[2.6713335,48.839558],[2.671398,48.8395255],[2.6714515,48.8393838],[2.6717129,48.8395021],[2.6717666,48.839453],[2.672453,48.8397605],[2.6735052,48.8390022],[2.6734941,48.8389425],[2.6733015,48.8388541],[2.6743074,48.838257],[2.6743947,48.8381719],[2.67455,48.838241],[2.6751397,48.8377388],[2.6760668,48.8382564],[2.6762965,48.8380346],[2.6773064,48.8386166],[2.6762907,48.8391511],[2.6761974,48.8390779],[2.6743015,48.8402722],[2.673223,48.8406572],[2.6724768,48.8408599],[2.6710123,48.8411056],[2.6700305,48.840729],[2.671075,48.8395862],[2.671049,48.8395184],[2.6709093,48.8394635],[2.6710024,48.8391762],[2.6713435,48.8393318],[2.6713169,48.8393857]]]]},"properties":{"code_section":"77121000AL","code_commune":"77121","section_courte":"AL"}},{"type":"Feature","geometry":{"type":"MultiPolygon","coordinates":[[[[2.6763325,48.8352662],[2.6770802,48.8352707],[2.6774431,48.8352328],[2.6800924,48.8347263],[2.6807946,48.8345253],[2.6817583,48.8341306],[2.6816109,48.8340898],[2.6812618,48.8327154],[2.6813359,48.8314296],[2.6875493,48.8310324],[2.6872087,48.8318332],[2.6865864,48.8328057],[2.6860513,48.8334187],[2.6851189,48.8342289],[2.6840151,48.8349376],[2.6810586,48.8366214],[2.6803716,48.8369741],[2.679225,48.8374898],[2.6783577,48.8380635],[2.6773064,48.8386166],[2.6762965,48.8380346],[2.6760668,48.8382564],[2.6747533,48.8375193],[2.6749383,48.8373601],[2.6744855,48.8370909],[2.674757,48.8368538],[2.6744465,48.8366941],[2.6748173,48.8364068],[2.6748539,48.8364233],[2.6749677,48.836308],[2.6745953,48.8361085],[2.6747189,48.836001],[2.676141,48.835566],[2.6763325,48.8352662]]]]},"properties":{"code_section":"77121000ZC","code_commune":"77121","section_courte":"ZC"}}]}