{"type":"FeatureCollection","features":[{"type":"Feature","geometry":{"type":"MultiPolygon","coordinates":[[[[2.6586883,48.8317383],[2.6585674,48.8315339],[2.6580527,48.8308862],[2.6576883,48.8302116],[2.6583544,48.8300098],[2.658421,48.8298697],[2.6580751,48.829434],[2.6581568,48.8292916],[2.658017,48.8292469],[2.6589003,48.8277083],[2.6588813,48.8275071],[2.6587488,48.8274862],[2.6590664,48.8269332],[2.6583069,48.8267447],[2.6586329,48.8262987],[2.6593057,48.8265146],[2.65945,48.8262601],[2.6597019,48.8263326],[2.6597462,48.8266811],[2.6599029,48.8267363],[2.6604199,48.8267238],[2.6635063,48.8277205],[2.6634617,48.8282826],[2.6635273,48.828922],[2.6634613,48.8299081],[2.6632654,48.8302009],[2.6621428,48.8299981],[2.6618652,48.8299211],[2.6617616,48.8299642],[2.6616809,48.830828],[2.6600504,48.8309582],[2.6591152,48.8311385],[2.6593927,48.831702],[2.6586883,48.8317383]]]]},"properties":{"code_section":"771460000A","code_commune":"77146","section_courte":"A"}},{"type":"Feature","geometry":{"type":"MultiPolygon","coordinates":[[[[2.6497224,48.8236634],[2.6509701,48.8238226],[2.6529008,48.8238797],[2.6533062,48.8233401],[2.6539361,48.8223207],[2.6520407,48.8211505],[2.6524296,48.8202658],[2.6545127,48.8206859],[2.6565495,48.8212662],[2.6525098,48.8267792],[2.648229,48.8270432],[2.6481213,48.8270806],[2.6482214,48.8269365],[2.6474427,48.8266886],[2.6471688,48.8266955],[2.6467406,48.8266241],[2.6464165,48.8263422],[2.6464747,48.8261009],[2.6466302,48.8261162],[2.6466697,48.8259297],[2.6465773,48.8259193],[2.6465889,48.8258684],[2.646534,48.8258325],[2.6465611,48.8256774],[2.6463061,48.8256519],[2.6464482,48.8250234],[2.6451041,48.8248047],[2.644857,48.824689],[2.6470556,48.823217],[2.6488832,48.8235569],[2.6497224,48.8236634]]]]},"properties":{"code_section":"77146000AB","code_commune":"77146","section_courte":"AB"}},{"type":"Feature","geometry":{"type":"MultiPolygon","coordinates":[[[[2.65385,48.8224598],[2.6533062,48.8233401],[2.6529008,48.8238797],[2.6509701,48.8238226],[2.6488832,48.8235569],[2.6470556,48.823217],[2.644857,48.824689],[2.6442042,48.8244265],[2.6431262,48.8236598],[2.6415448,48.8232951],[2.6416545,48.8231508],[2.6454594,48.8221304],[2.6461062,48.822305],[2.6472199,48.8210236],[2.6443952,48.8175116],[2.6437302,48.8154972],[2.6574617,48.8200007],[2.6565495,48.8212662],[2.6545127,48.8206859],[2.6524296,48.8202658],[2.6520407,48.8211505],[2.6539361,48.8223207],[2.65385,48.8224598]]]]},"properties":{"code_section":"77146000AC","code_commune":"77146","section_courte":"AC"}},{"type":"Feature","geometry":{"type":"MultiPolygon","coordinates":[[[[2.6411529,48.8148374],[2.6410963,48.8149085],[2.6424012,48.8156335],[2.6421725,48.8160837],[2.6432859,48.8163874],[2.6434277,48.8163802],[2.6440807,48.8165433],[2.6443952,48.8175116],[2.6472199,48.8210236],[2.6461062,48.822305],[2.6454594,48.8221304],[2.6416545,48.8231508],[2.6414337,48.8226889],[2.6315941,48.8247384],[2.6308741,48.8248603],[2.6301382,48.8249301],[2.6298157,48.8245364],[2.6285813,48.8217768],[2.6283957,48.8211055],[2.6277239,48.8199792],[2.6273915,48.8195857],[2.6279807,48.8184717],[2.6282394,48.8177962],[2.6285674,48.8173253],[2.6288662,48.8170972],[2.6260832,48.8153694],[2.6257665,48.8151966],[2.6253146,48.815029],[2.626482,48.8144323],[2.6269809,48.8141318],[2.6277369,48.8135809],[2.6281646,48.8135455],[2.6358926,48.8140811],[2.638006,48.8126952],[2.6400172,48.8131821],[2.6401305,48.8131153],[2.6408108,48.81343],[2.6400418,48.8140794],[2.6411529,48.8148374]]]]},"properties":{"code_section":"77146000AD","code_commune":"77146","section_courte":"AD"}},{"type":"Feature","geometry":{"type":"MultiPolygon","coordinates":[[[[2.6417535,48.8249023],[2.6433538,48.8281388],[2.64464,48.8280667],[2.6455331,48.8280818],[2.6462961,48.828533],[2.6482167,48.8295377],[2.6489661,48.8299631],[2.6499945,48.8306486],[2.6501824,48.8306984],[2.6502004,48.8307622],[2.6497235,48.8308555],[2.6495197,48.8309479],[2.6487386,48.8314225],[2.6486461,48.8314953],[2.6485807,48.8318525],[2.6378374,48.8309809],[2.6375114,48.8306513],[2.6368794,48.8302001],[2.6346878,48.8290177],[2.633496,48.8283177],[2.6328956,48.8275407],[2.6324455,48.8271134],[2.6313478,48.8262852],[2.630743,48.8256681],[2.6301382,48.8249301],[2.6308741,48.8248603],[2.6315941,48.8247384],[2.6414337,48.8226889],[2.6416545,48.8231508],[2.6415448,48.8232951],[2.6410398,48.8234723],[2.6417535,48.8249023]]]]},"properties":{"code_section":"77146000AE","code_commune":"77146","section_courte":"AE"}},{"type":"Feature","geometry":{"type":"MultiPolygon","coordinates":[[[[2.6580527,48.8308862],[2.6585674,48.8315339],[2.6586883,48.8317383],[2.6593927,48.831702],[2.6591152,48.8311385],[2.6600504,48.8309582],[2.6616809,48.830828],[2.6617616,48.8299642],[2.6618652,48.8299211],[2.6621428,48.8299981],[2.6632654,48.8302009],[2.6634613,48.8299081],[2.6635091,48.8294867],[2.6635273,48.828922],[2.6634617,48.8282826],[2.6635063,48.8277205],[2.6638892,48.8277651],[2.6640256,48.8277399],[2.664283,48.827589],[2.6644065,48.8273453],[2.6646327,48.8266612],[2.666311,48.8267979],[2.6672161,48.8269934],[2.6679447,48.8272332],[2.6688131,48.8272987],[2.6696707,48.8272339],[2.6657762,48.8323074],[2.6629244,48.8324208],[2.6610427,48.832456],[2.6582675,48.8324405],[2.6554696,48.8323429],[2.6530031,48.8322031],[2.6485807,48.8318525],[2.6486461,48.8314953],[2.6487386,48.8314225],[2.6495197,48.8309479],[2.6497235,48.8308555],[2.6502004,48.8307622],[2.6501824,48.8306984],[2.6539251,48.8307062],[2.6552004,48.8309164],[2.655484,48.8308728],[2.6566005,48.8305149],[2.6576883,48.8302116],[2.6580527,48.8308862]]]]},"properties":{"code_section":"77146000AK","code_commune":"77146","section_courte":"AK"}},{"type":"Feature","geometry":{"type":"MultiPolygon","coordinates":[[[[2.6600173,48.8198924],[2.6661002,48.8218827],[2.6662373,48.8219287],[2.6662547,48.8219806],[2.6652381,48.824848],[2.6653152,48.8248595],[2.6644065,48.8273453],[2.664283,48.827589],[2.6640256,48.8277399],[2.6638892,48.8277651],[2.6635063,48.8277205],[2.6604199,48.8267238],[2.6599029,48.8267363],[2.6597462,48.8266811],[2.6597019,48.8263326],[2.65945,48.8262601],[2.6593057,48.8265146],[2.6586329,48.8262987],[2.6583069,48.8267447],[2.6590664,48.8269332],[2.6587488,48.8274862],[2.6588813,48.8275071],[2.6589003,48.8277083],[2.658017,48.8292469],[2.6581568,48.8292916],[2.6580751,48.829434],[2.658421,48.8298697],[2.6583544,48.8300098],[2.6581381,48.8299525],[2.6577853,48.8295072],[2.6574976,48.8294071],[2.6575917,48.82928],[2.6547905,48.8283654],[2.6548021,48.8283438],[2.6537636,48.8279879],[2.6536573,48.8281165],[2.6533653,48.8280269],[2.6524783,48.8280985],[2.652448,48.8267829],[2.6525098,48.8267792],[2.6580171,48.8192351],[2.6600173,48.8198924]]]]},"properties":{"code_section":"77146000AL","code_commune":"77146","section_courte":"AL"}},{"type":"Feature","geometry":{"type":"MultiPolygon","coordinates":[[[[2.6792093,48.814253],[2.6747785,48.8272296],[2.6734403,48.8271697],[2.6728937,48.8271978],[2.6724449,48.8272562],[2.6720345,48.8272612],[2.6712042,48.8271742],[2.6696707,48.8272339],[2.6688131,48.8272987],[2.6679447,48.8272332],[2.6672161,48.8269934],[2.666311,48.8267979],[2.6646327,48.8266612],[2.6653152,48.8248595],[2.6652381,48.824848],[2.6662547,48.8219806],[2.6662373,48.8219287],[2.6661002,48.8218827],[2.6664254,48.8211887],[2.6664997,48.8212016],[2.6674187,48.8186136],[2.6679586,48.8174088],[2.6680376,48.8174172],[2.6692895,48.8156692],[2.6692756,48.8135369],[2.6699994,48.8115852],[2.6700775,48.8114808],[2.6701909,48.8114155],[2.6737961,48.8105808],[2.6764877,48.8110722],[2.6778786,48.8113611],[2.680226,48.8112367],[2.6792093,48.814253]]]]},"properties":{"code_section":"77146000AM","code_commune":"77146","section_courte":"AM"}},{"type":"Feature","geometry":{"type":"MultiPolygon","coordinates":[[[[2.658173,48.802418],[2.6594876,48.8023582],[2.6597115,48.8023045],[2.6654278,48.8018864],[2.6677718,48.8017858],[2.6692493,48.8016916],[2.6696831,48.8015915],[2.6706071,48.8014945],[2.6761572,48.8010782],[2.6805494,48.8007777],[2.6807462,48.8008],[2.6820074,48.8006616],[2.684411,48.800576],[2.6854632,48.800611],[2.6891383,48.8002843],[2.6894264,48.8003072],[2.6895743,48.8004794],[2.6803606,48.8111498],[2.6802345,48.8111572],[2.680226,48.8112367],[2.6778786,48.8113611],[2.6764877,48.8110722],[2.6737961,48.8105808],[2.6701909,48.8114155],[2.6700775,48.8114808],[2.6699994,48.8115852],[2.6692756,48.8135369],[2.6692895,48.8156692],[2.6680376,48.8174172],[2.6679586,48.8174088],[2.6674187,48.8186136],[2.6664997,48.8212016],[2.6664254,48.8211887],[2.6661002,48.8218827],[2.6578224,48.8191725],[2.6579502,48.818999],[2.6579742,48.8118243],[2.6556685,48.8101368],[2.6558777,48.8100036],[2.6558209,48.8099603],[2.6558085,48.8098896],[2.6552229,48.8061309],[2.6550185,48.8026141],[2.658173,48.802418]]]]},"properties":{"code_section":"77146000AN","code_commune":"77146","section_courte":"AN"}},{"type":"Feature","geometry":{"type":"MultiPolygon","coordinates":[[[[2.6362759,48.8138275],[2.6358926,48.8140811],[2.6281646,48.8135455],[2.6277369,48.8135809],[2.628377,48.812986],[2.6289643,48.8123323],[2.629592,48.8113793],[2.629744,48.8110966],[2.6299887,48.8104539],[2.6301353,48.8099177],[2.6302191,48.8091388],[2.6301714,48.8082798],[2.6300509,48.8076899],[2.6297036,48.8067669],[2.6291996,48.8058857],[2.6289045,48.8054922],[2.6281164,48.8046199],[2.6281542,48.8045963],[2.6284894,48.8045285],[2.6291944,48.8044776],[2.6301904,48.8044969],[2.6313362,48.804605],[2.6321296,48.8045751],[2.6323598,48.8045962],[2.6324173,48.8052773],[2.6325188,48.805823],[2.633423,48.8063273],[2.6337934,48.8061529],[2.6339332,48.8061875],[2.6348452,48.8065747],[2.6349669,48.8065087],[2.6354814,48.8067958],[2.6365629,48.8073099],[2.6371478,48.8075385],[2.6373111,48.8075162],[2.6378983,48.8075829],[2.6379978,48.807527],[2.6380628,48.8075388],[2.6383612,48.8077816],[2.6419666,48.8057975],[2.6462833,48.8060273],[2.6475239,48.8065383],[2.6491599,48.8087399],[2.6506558,48.8089879],[2.6511665,48.8089213],[2.6530182,48.8092372],[2.654603,48.8095372],[2.6558085,48.8098896],[2.6558209,48.8099603],[2.6558777,48.8100036],[2.6556685,48.8101368],[2.6579742,48.8118243],[2.6579502,48.818999],[2.6578224,48.8191725],[2.6580171,48.8192351],[2.6574617,48.8200007],[2.6437302,48.8154972],[2.6440807,48.8165433],[2.6434277,48.8163802],[2.6432859,48.8163874],[2.6421725,48.8160837],[2.6424012,48.8156335],[2.6410963,48.8149085],[2.6411529,48.8148374],[2.6400418,48.8140794],[2.6408108,48.81343],[2.6401305,48.8131153],[2.6400172,48.8131821],[2.638006,48.8126952],[2.6362759,48.8138275]]]]},"properties":{"code_section":"77146000AO","code_commune":"77146","section_courte":"AO"}},{"type":"Feature","geometry":{"type":"MultiPolygon","coordinates":[[[[2.6485871,48.8270202],[2.652448,48.8267829],[2.6524783,48.8280985],[2.6533653,48.8280269],[2.6536573,48.8281165],[2.6537636,48.8279879],[2.6548021,48.8283438],[2.6547905,48.8283654],[2.6575917,48.82928],[2.6574976,48.8294071],[2.6577853,48.8295072],[2.6581381,48.8299525],[2.6583544,48.8300098],[2.6566005,48.8305149],[2.655484,48.8308728],[2.6552004,48.8309164],[2.6539251,48.8307062],[2.6501824,48.8306984],[2.6499945,48.8306486],[2.6489661,48.8299631],[2.6491141,48.8298979],[2.6477384,48.8275978],[2.6481213,48.8270806],[2.648229,48.8270432],[2.6485871,48.8270202]]]]},"properties":{"code_section":"77146000AP","code_commune":"77146","section_courte":"AP"}},{"type":"Feature","geometry":{"type":"MultiPolygon","coordinates":[[[[2.644821,48.8246779],[2.6451041,48.8248047],[2.6464482,48.8250234],[2.6463061,48.8256519],[2.6465611,48.8256774],[2.646534,48.8258325],[2.6465889,48.8258684],[2.6465773,48.8259193],[2.6466697,48.8259297],[2.6466302,48.8261162],[2.6464747,48.8261009],[2.6464165,48.8263422],[2.6467406,48.8266241],[2.6471688,48.8266955],[2.6474427,48.8266886],[2.6482214,48.8269365],[2.6477384,48.8275978],[2.6491141,48.8298979],[2.6489661,48.8299631],[2.6482167,48.8295377],[2.6462961,48.828533],[2.6455331,48.8280818],[2.64464,48.8280667],[2.6433538,48.8281388],[2.6410398,48.8234723],[2.6415448,48.8232951],[2.6431262,48.8236598],[2.6439923,48.8243003],[2.6442042,48.8244265],[2.644821,48.8246779]]]]},"properties":{"code_section":"77146000BC","code_commune":"77146","section_courte":"BC"}}]}