{"type":"FeatureCollection","features":[{"type":"Feature","geometry":{"type":"MultiPolygon","coordinates":[[[[2.6012232,48.8158246],[2.6017342,48.8156726],[2.6016159,48.8159027],[2.6014779,48.8163311],[2.6013718,48.8169581],[2.6013693,48.8181296],[2.6014894,48.8209095],[2.6014954,48.8242255],[2.6030305,48.8257451],[2.602005,48.8271575],[2.5991598,48.8274946],[2.5993316,48.8293159],[2.5987317,48.8292979],[2.5986682,48.829343],[2.5984738,48.8296936],[2.5984569,48.8297956],[2.5981419,48.830285],[2.5976666,48.8316828],[2.5958125,48.8314632],[2.595558,48.8313699],[2.5954207,48.8313875],[2.5953797,48.8312197],[2.5952679,48.8311566],[2.5947543,48.8310325],[2.5943151,48.8310252],[2.5943975,48.8313093],[2.5941417,48.8313029],[2.5939224,48.8307622],[2.5938678,48.8304757],[2.593444,48.8301405],[2.5937643,48.830051],[2.5940639,48.8299213],[2.5942592,48.8297471],[2.594346,48.8295402],[2.5943895,48.8290613],[2.5931297,48.8289648],[2.593062,48.8287496],[2.5931876,48.8280738],[2.593041,48.8276175],[2.5924323,48.8274971],[2.5924006,48.8274416],[2.5925769,48.8273458],[2.5921098,48.8272438],[2.5924333,48.8269625],[2.5925475,48.8267987],[2.5925424,48.8261077],[2.5926384,48.8256052],[2.5927485,48.8254347],[2.5926444,48.825404],[2.5926554,48.8253012],[2.5925219,48.8249884],[2.5925409,48.8245314],[2.592438,48.8241535],[2.5924117,48.8238424],[2.5924791,48.8236615],[2.5925804,48.8235524],[2.5938306,48.8224335],[2.5939489,48.8222652],[2.5940518,48.8219445],[2.5941681,48.8217378],[2.594673,48.8210368],[2.594705,48.8208701],[2.5945678,48.82036],[2.5945395,48.8199788],[2.5946608,48.8195748],[2.5947753,48.8188547],[2.5949845,48.8182725],[2.5949724,48.8180239],[2.5951823,48.8176246],[2.5951275,48.8171688],[2.5949994,48.8169206],[2.595148,48.8165355],[2.5954791,48.8152427],[2.5957709,48.8143829],[2.5957719,48.8141539],[2.5958327,48.8141468],[2.5963087,48.8142659],[2.5968903,48.8144456],[2.5978158,48.8145093],[2.5979783,48.8145448],[2.5988281,48.8148229],[2.5994531,48.8149861],[2.5999079,48.8152462],[2.6000913,48.815402],[2.6004402,48.8156163],[2.6006061,48.8157399],[2.6007947,48.8159556],[2.6012232,48.8158246]]]]},"properties":{"code_section":"771690000A","code_commune":"77169","section_courte":"A"}},{"type":"Feature","geometry":{"type":"MultiPolygon","coordinates":[[[[2.6143183,48.8099232],[2.6171497,48.8091102],[2.6172047,48.8089231],[2.6173928,48.8088164],[2.6176253,48.8088005],[2.6178786,48.8089044],[2.6203867,48.8081743],[2.6205447,48.8083559],[2.6207035,48.808678],[2.6213925,48.8107592],[2.6217829,48.8112749],[2.6220881,48.8115697],[2.622534,48.8118969],[2.6227653,48.8121266],[2.6229627,48.8123946],[2.6230805,48.8126966],[2.6231549,48.8132009],[2.6233396,48.8135764],[2.6253591,48.814857],[2.6223999,48.8160626],[2.6219021,48.816034],[2.6206252,48.8147662],[2.6202329,48.8141775],[2.6131749,48.8161035],[2.6117029,48.8137207],[2.6101583,48.8111175],[2.6143183,48.8099232]]]]},"properties":{"code_section":"771690000B","code_commune":"77169","section_courte":"B"}},{"type":"Feature","geometry":{"type":"MultiPolygon","coordinates":[[[[2.5868563,48.8307548],[2.5862534,48.8307118],[2.5860092,48.8306191],[2.5858357,48.8302359],[2.5858236,48.8298243],[2.5857348,48.8293801],[2.5857951,48.8289314],[2.5858989,48.8286073],[2.5863008,48.8276974],[2.5864363,48.8272645],[2.5865304,48.8273047],[2.5867564,48.827099],[2.5868332,48.8269812],[2.5871784,48.8261955],[2.5872304,48.8255836],[2.5874096,48.8253719],[2.5875158,48.825354],[2.5876652,48.8253924],[2.5879433,48.8255653],[2.5883028,48.8259242],[2.5889972,48.8261973],[2.5896255,48.8263529],[2.5898782,48.8264946],[2.5904617,48.8269569],[2.5909434,48.827432],[2.5912272,48.8276538],[2.5914504,48.8277118],[2.5915845,48.8276624],[2.5920641,48.8272344],[2.5925769,48.8273458],[2.5924006,48.8274416],[2.5924456,48.8275024],[2.593041,48.8276175],[2.5931876,48.8280738],[2.593062,48.8287496],[2.5931297,48.8289648],[2.5943895,48.8290613],[2.594346,48.8295402],[2.5942592,48.8297471],[2.5940639,48.8299213],[2.5937397,48.8300596],[2.593444,48.8301405],[2.5910876,48.8305671],[2.5903298,48.8306875],[2.5894991,48.8307286],[2.5890312,48.8307173],[2.5887501,48.8306814],[2.5870179,48.8306875],[2.5868563,48.8307548]]]]},"properties":{"code_section":"77169000AB","code_commune":"77169","section_courte":"AB"}},{"type":"Feature","geometry":{"type":"MultiPolygon","coordinates":[[[[2.5982252,48.8301513],[2.5984569,48.8297956],[2.5984685,48.829708],[2.5986543,48.8296339],[2.5986216,48.8323446],[2.5957246,48.8328816],[2.5916906,48.833699],[2.5897954,48.8339961],[2.5867551,48.8343623],[2.5869594,48.8340025],[2.5873081,48.8335453],[2.5865806,48.8326043],[2.5860092,48.8306191],[2.5862534,48.8307118],[2.5868563,48.8307548],[2.5870179,48.8306875],[2.5887501,48.8306814],[2.5890312,48.8307173],[2.5894991,48.8307286],[2.5903298,48.8306875],[2.593444,48.8301405],[2.5938678,48.8304757],[2.5939224,48.8307622],[2.5941417,48.8313029],[2.5943975,48.8313093],[2.5943151,48.8310252],[2.5947543,48.8310325],[2.5952679,48.8311566],[2.5953797,48.8312197],[2.5954207,48.8313875],[2.595558,48.8313699],[2.5958125,48.8314632],[2.5975914,48.8316919],[2.5976666,48.8316828],[2.5981419,48.830285],[2.5982252,48.8301513]]]]},"properties":{"code_section":"77169000AC","code_commune":"77169","section_courte":"AC"}},{"type":"Feature","geometry":{"type":"MultiPolygon","coordinates":[[[[2.5987611,48.8292988],[2.5993316,48.8293159],[2.5991598,48.8274946],[2.602005,48.8271575],[2.6019553,48.8272262],[2.6027542,48.8271356],[2.6034809,48.8269861],[2.6043548,48.8266518],[2.6051212,48.8264001],[2.6060007,48.8262701],[2.6073652,48.8261561],[2.6078009,48.8261635],[2.6086235,48.826332],[2.6090232,48.8263482],[2.6111459,48.8260931],[2.6111259,48.8261882],[2.6107842,48.8262066],[2.6103236,48.8269344],[2.6105544,48.8274896],[2.611177,48.8287589],[2.6112042,48.8289232],[2.6111689,48.8291395],[2.6109223,48.8297217],[2.6109072,48.8303217],[2.6062231,48.8309327],[2.6042258,48.8312705],[2.6012493,48.831822],[2.5986216,48.8323446],[2.5986543,48.8296339],[2.5984685,48.829708],[2.5986682,48.829343],[2.5987611,48.8292988]]]]},"properties":{"code_section":"77169000AD","code_commune":"77169","section_courte":"AD"}},{"type":"Feature","geometry":{"type":"MultiPolygon","coordinates":[[[[2.604505,48.8121907],[2.6057822,48.8127032],[2.6067873,48.8137362],[2.6091369,48.8111132],[2.6097755,48.8114571],[2.6095789,48.81202],[2.6094505,48.812583],[2.6094115,48.8131562],[2.6094643,48.813716],[2.6096122,48.8142778],[2.609834,48.8148293],[2.6129965,48.8206129],[2.6133752,48.820662],[2.6132927,48.820936],[2.6134056,48.8211696],[2.6133969,48.8215971],[2.6131,48.8226421],[2.6129215,48.8238651],[2.6124832,48.824538],[2.6111459,48.8260931],[2.6090232,48.8263482],[2.6086235,48.826332],[2.6078009,48.8261635],[2.6073652,48.8261561],[2.6060007,48.8262701],[2.6051212,48.8264001],[2.6043548,48.8266518],[2.6034809,48.8269861],[2.6027542,48.8271356],[2.6019553,48.8272262],[2.6030305,48.8257451],[2.6014954,48.8242255],[2.6014894,48.8209095],[2.6013693,48.8181296],[2.6013718,48.8169581],[2.6014287,48.8165324],[2.6016159,48.8159027],[2.6017723,48.8155964],[2.6024704,48.814857],[2.6029089,48.814658],[2.604505,48.8121907]]]]},"properties":{"code_section":"77169000AH","code_commune":"77169","section_courte":"AH"}},{"type":"Feature","geometry":{"type":"MultiPolygon","coordinates":[[[[2.6128817,48.8239355],[2.6129808,48.8235792],[2.6131,48.8226421],[2.6133969,48.8215971],[2.6134056,48.8211696],[2.6132927,48.820936],[2.6133752,48.820662],[2.6155842,48.8209496],[2.6158294,48.820537],[2.6157838,48.8204695],[2.6163731,48.8195579],[2.6175269,48.8184376],[2.6181766,48.8176839],[2.6186008,48.8174034],[2.6219021,48.816034],[2.6223999,48.8160626],[2.6253591,48.814857],[2.6288651,48.8170815],[2.6285703,48.8173261],[2.6282435,48.8177951],[2.6279707,48.8184814],[2.6273915,48.8195857],[2.6270883,48.8198431],[2.6267028,48.8200048],[2.6151685,48.8232874],[2.6152932,48.8238136],[2.615564,48.8245194],[2.6159784,48.8252762],[2.6164226,48.825922],[2.6159777,48.8259085],[2.6159589,48.8259666],[2.6149021,48.825898],[2.6150926,48.8259868],[2.6151199,48.8260276],[2.6135926,48.8258936],[2.6130646,48.8259048],[2.6120369,48.8260913],[2.6111259,48.8261882],[2.6111459,48.8260931],[2.6124832,48.824538],[2.6128817,48.8239355]]]]},"properties":{"code_section":"77169000AI","code_commune":"77169","section_courte":"AI"}},{"type":"Feature","geometry":{"type":"MultiPolygon","coordinates":[[[[2.6264266,48.8105375],[2.6265321,48.8105125],[2.6269545,48.8099977],[2.6284469,48.8097908],[2.6284073,48.810229],[2.6300024,48.8103276],[2.6297855,48.8109931],[2.6294058,48.8117311],[2.629139,48.8121185],[2.6285976,48.8127672],[2.6278555,48.8134783],[2.6274437,48.813806],[2.6266727,48.8143193],[2.62553,48.8149461],[2.6254609,48.8149279],[2.6233396,48.8135764],[2.6231549,48.8132009],[2.6230805,48.8126966],[2.6230238,48.8125579],[2.6231756,48.8125673],[2.6245979,48.8121845],[2.6235457,48.8104734],[2.6261277,48.8101139],[2.6264266,48.8105375]]]]},"properties":{"code_section":"77169000AK","code_commune":"77169","section_courte":"AK"}},{"type":"Feature","geometry":{"type":"MultiPolygon","coordinates":[[[[2.6279317,48.8048289],[2.6281298,48.8046162],[2.628864,48.8054239],[2.6294217,48.8062131],[2.6299248,48.8072545],[2.6301602,48.8080974],[2.6302404,48.8087158],[2.6301649,48.8098024],[2.6300024,48.8103276],[2.6284073,48.810229],[2.6284469,48.8097908],[2.6271601,48.8099685],[2.6270418,48.8098105],[2.6265604,48.8098748],[2.6263015,48.809524],[2.6261529,48.809569],[2.6256201,48.8088423],[2.6257784,48.8087901],[2.6249683,48.8076794],[2.6252787,48.8075742],[2.6250116,48.8072053],[2.6250591,48.8071895],[2.6232117,48.804669],[2.6226091,48.804865],[2.6227234,48.8047803],[2.6227099,48.8047596],[2.6225029,48.8048251],[2.6223877,48.8046191],[2.6267584,48.8031991],[2.6267876,48.8032382],[2.6275252,48.8030019],[2.6276426,48.8031583],[2.6276049,48.8032324],[2.6278332,48.8045877],[2.627895,48.8048353],[2.6279317,48.8048289]]]]},"properties":{"code_section":"77169000AL","code_commune":"77169","section_courte":"AL"}},{"type":"Feature","geometry":{"type":"MultiPolygon","coordinates":[[[[2.6227676,48.8048123],[2.6232117,48.804669],[2.6250591,48.8071895],[2.6250116,48.8072053],[2.6252787,48.8075742],[2.6249683,48.8076794],[2.6257784,48.8087901],[2.6256201,48.8088423],[2.6261529,48.809569],[2.6263015,48.809524],[2.6265604,48.8098748],[2.6270418,48.8098105],[2.6271601,48.8099685],[2.6269545,48.8099977],[2.6265321,48.8105125],[2.6264266,48.8105375],[2.6261277,48.8101139],[2.6235457,48.8104734],[2.6245979,48.8121845],[2.6231756,48.8125673],[2.6230238,48.8125579],[2.6229627,48.8123946],[2.6227653,48.8121266],[2.622534,48.8118969],[2.6220881,48.8115697],[2.6217829,48.8112749],[2.6213925,48.8107592],[2.6207035,48.808678],[2.6205447,48.8083559],[2.6203867,48.8081743],[2.6201248,48.8079902],[2.6182198,48.8070834],[2.6173923,48.806653],[2.6173459,48.8065543],[2.6171066,48.8064345],[2.6204803,48.805053],[2.6223877,48.8046191],[2.6225029,48.8048251],[2.6227099,48.8047596],[2.6227234,48.8047803],[2.6226091,48.804865],[2.6227676,48.8048123]]]]},"properties":{"code_section":"77169000AM","code_commune":"77169","section_courte":"AM"}},{"type":"Feature","geometry":{"type":"MultiPolygon","coordinates":[[[[2.6173923,48.806653],[2.6182198,48.8070834],[2.6201248,48.8079902],[2.6203867,48.8081743],[2.6178786,48.8089044],[2.6176253,48.8088005],[2.6173928,48.8088164],[2.6172047,48.8089231],[2.6171497,48.8091102],[2.6101583,48.8111175],[2.6117029,48.8137207],[2.6131749,48.8161035],[2.6202329,48.8141775],[2.6206252,48.8147662],[2.6219021,48.816034],[2.6186008,48.8174034],[2.6181766,48.8176839],[2.6175269,48.8184376],[2.6163731,48.8195579],[2.6157838,48.8204695],[2.6158294,48.820537],[2.6155842,48.8209496],[2.6129965,48.8206129],[2.609834,48.8148293],[2.6096122,48.8142778],[2.6094643,48.813716],[2.6094115,48.8131562],[2.6094505,48.812583],[2.6095789,48.81202],[2.6097755,48.8114571],[2.6091512,48.8111036],[2.6101452,48.8099846],[2.6169605,48.8064936],[2.6171066,48.8064345],[2.6173459,48.8065543],[2.6173923,48.806653]]]]},"properties":{"code_section":"77169000AO","code_commune":"77169","section_courte":"AO"}}]}