{"type":"FeatureCollection","features":[{"type":"Feature","geometry":{"type":"MultiPolygon","coordinates":[[[[2.6928123,48.8155941],[2.7019045,48.8155957],[2.7051721,48.8190394],[2.7060935,48.8201318],[2.7059563,48.8201889],[2.7051027,48.8204017],[2.7044123,48.8206638],[2.7043896,48.8206392],[2.7042326,48.8206862],[2.7041337,48.8205413],[2.7032531,48.8208258],[2.7019946,48.8216476],[2.7022522,48.8218291],[2.7019979,48.821942],[2.7023787,48.8223028],[2.7002991,48.8229796],[2.7002231,48.8230305],[2.7005301,48.8231603],[2.69997,48.8238636],[2.6997777,48.8238112],[2.6997108,48.8238242],[2.6992173,48.8245602],[2.6979932,48.8257546],[2.6988526,48.826051],[2.6992148,48.8261103],[2.6993403,48.8260693],[2.6994724,48.8259291],[2.7006095,48.8263746],[2.7006192,48.8269599],[2.7005041,48.827346],[2.7005977,48.8273937],[2.7005942,48.8274693],[2.7007251,48.827405],[2.7008559,48.8274234],[2.7066696,48.8245696],[2.7062206,48.8299016],[2.6898836,48.8308983],[2.6899668,48.8306002],[2.6899629,48.8303994],[2.6880032,48.8301106],[2.6874268,48.8303782],[2.6830632,48.8297728],[2.6827275,48.8296924],[2.6796069,48.8285617],[2.6798666,48.828278],[2.6799311,48.8283083],[2.6912103,48.8174578],[2.6929986,48.8157805],[2.6928123,48.8155941]]]]},"properties":{"code_section":"771810000A","code_commune":"77181","section_courte":"A"}},{"type":"Feature","geometry":{"type":"MultiPolygon","coordinates":[[[[2.7019045,48.8155957],[2.7026491,48.8155938],[2.7020793,48.8148197],[2.7017668,48.8143122],[2.7013711,48.8130135],[2.7168462,48.8052266],[2.7211161,48.8063366],[2.7207588,48.8069028],[2.7212796,48.8072625],[2.7216414,48.8077108],[2.7221065,48.8088659],[2.7217054,48.8093774],[2.7219403,48.8094541],[2.7222705,48.809456],[2.7234599,48.808239],[2.726068,48.8093518],[2.7282629,48.8082471],[2.7295972,48.8139964],[2.7283541,48.8158422],[2.727707,48.8162927],[2.7238189,48.8177399],[2.7214291,48.817355],[2.7111617,48.8223562],[2.7101911,48.8215321],[2.7099272,48.8216832],[2.7099186,48.8217314],[2.7092545,48.8221137],[2.7089213,48.8218546],[2.7088447,48.8217421],[2.7088513,48.8216767],[2.7078506,48.8222662],[2.7079549,48.822345],[2.7075833,48.8225553],[2.7085252,48.8236506],[2.7008559,48.8274234],[2.7007251,48.827405],[2.7005942,48.8274693],[2.7005977,48.8273937],[2.7005041,48.827346],[2.7006192,48.8269599],[2.7006095,48.8263746],[2.6994724,48.8259291],[2.6993403,48.8260693],[2.6992148,48.8261103],[2.6988526,48.826051],[2.6979932,48.8257546],[2.6992173,48.8245602],[2.6997108,48.8238242],[2.6997777,48.8238112],[2.69997,48.8238636],[2.7005301,48.8231603],[2.7002231,48.8230305],[2.7002991,48.8229796],[2.7023787,48.8223028],[2.7019979,48.821942],[2.7022522,48.8218291],[2.7019946,48.8216476],[2.7032531,48.8208258],[2.7041337,48.8205413],[2.7042326,48.8206862],[2.7043896,48.8206392],[2.7044123,48.8206638],[2.7051027,48.8204017],[2.7059563,48.8201889],[2.7060935,48.8201318],[2.7051721,48.8190394],[2.7019045,48.8155957]]]]},"properties":{"code_section":"771810000B","code_commune":"77181","section_courte":"B"}},{"type":"Feature","geometry":{"type":"MultiPolygon","coordinates":[[[[2.7122845,48.821795],[2.7135424,48.8211943],[2.7161061,48.8238638],[2.7128574,48.8252241],[2.7142385,48.8266359],[2.7140165,48.8266374],[2.7128762,48.8263885],[2.7115963,48.8260437],[2.7096151,48.8256638],[2.7088325,48.8254337],[2.7066696,48.8245696],[2.7085252,48.8236506],[2.7075833,48.8225553],[2.7079549,48.822345],[2.7078506,48.8222662],[2.7088513,48.8216767],[2.7088447,48.8217421],[2.7089213,48.8218546],[2.7092545,48.8221137],[2.7099186,48.8217314],[2.7099272,48.8216832],[2.7101911,48.8215321],[2.7111617,48.8223562],[2.7122845,48.821795]]]]},"properties":{"code_section":"77181000AB","code_commune":"77181","section_courte":"AB"}},{"type":"Feature","geometry":{"type":"MultiPolygon","coordinates":[[[[2.7135424,48.8211943],[2.7214291,48.817355],[2.7238189,48.8177399],[2.7212824,48.8186693],[2.7233467,48.8208315],[2.7161061,48.8238638],[2.7135424,48.8211943]]]]},"properties":{"code_section":"77181000AC","code_commune":"77181","section_courte":"AC"}},{"type":"Feature","geometry":{"type":"MultiPolygon","coordinates":[[[[2.7190954,48.8291252],[2.7062206,48.8299016],[2.7066696,48.8245696],[2.7088325,48.8254337],[2.7096151,48.8256638],[2.7115963,48.8260437],[2.7128762,48.8263885],[2.7140165,48.8266374],[2.7142385,48.8266359],[2.7128574,48.8252241],[2.7233467,48.8208315],[2.7286283,48.8263629],[2.7259868,48.8282269],[2.7210659,48.8278926],[2.7206929,48.8287278],[2.7205996,48.8290437],[2.7190954,48.8291252]]]]},"properties":{"code_section":"77181000ZA","code_commune":"77181","section_courte":"ZA"}}]}