{"type":"FeatureCollection","features":[{"type":"Feature","geometry":{"type":"MultiPolygon","coordinates":[[[[2.7094098,48.8591945],[2.7094657,48.8594359],[2.7097075,48.8599966],[2.709751,48.8602236],[2.7096965,48.8603013],[2.7098754,48.8608512],[2.7100008,48.8610983],[2.710454,48.8617122],[2.7106945,48.8621381],[2.7107956,48.8624232],[2.7108216,48.8628646],[2.7106783,48.8632559],[2.7095702,48.8647292],[2.7095273,48.8648394],[2.7056963,48.8651962],[2.7050334,48.8652767],[2.7050725,48.8653474],[2.7043908,48.8654515],[2.701967,48.8656113],[2.7011143,48.865629],[2.7008613,48.8656298],[2.6999674,48.8655221],[2.699962,48.864543],[2.7004183,48.8644856],[2.7003083,48.8635419],[2.7000822,48.8635545],[2.7000224,48.8630825],[2.7025012,48.8624862],[2.703775,48.8620712],[2.7039222,48.8619825],[2.7040045,48.8618641],[2.7040163,48.8617194],[2.703867,48.8613098],[2.7032033,48.8602372],[2.7032726,48.8600679],[2.703614,48.8580198],[2.7036745,48.8580214],[2.7042074,48.8549395],[2.7042731,48.8548383],[2.7047675,48.8547127],[2.705216,48.8546452],[2.7085658,48.8542619],[2.7098047,48.8541539],[2.7097278,48.8547398],[2.7096958,48.8563515],[2.7094049,48.8573694],[2.7093386,48.8581761],[2.7093361,48.8587532],[2.7094098,48.8591945]]]]},"properties":{"code_section":"772090000A","code_commune":"77209","section_courte":"A"}},{"type":"Feature","geometry":{"type":"MultiPolygon","coordinates":[[[[2.6864192,48.8558063],[2.6855534,48.855596],[2.6831177,48.8551861],[2.683138,48.8554292],[2.6830501,48.8558076],[2.6842171,48.8561512],[2.6842252,48.8568877],[2.6839995,48.8577431],[2.6839915,48.8581547],[2.6840267,48.8582502],[2.6839226,48.858816],[2.6840288,48.8594947],[2.6839357,48.8594773],[2.6838577,48.8593901],[2.6836906,48.8593187],[2.6831604,48.8592104],[2.6830576,48.8591249],[2.6827365,48.8591706],[2.6827475,48.8592841],[2.682575,48.8592511],[2.6824049,48.8593023],[2.6822074,48.8593192],[2.6820517,48.8592884],[2.6819348,48.8593179],[2.6818696,48.8592933],[2.6818126,48.8592083],[2.6818302,48.8591285],[2.6817633,48.8591253],[2.6817022,48.8591675],[2.6814716,48.859097],[2.6811436,48.8590662],[2.6811052,48.8589711],[2.680962,48.8589531],[2.6808599,48.8588534],[2.680789,48.8588983],[2.6802847,48.8588677],[2.6801854,48.8589722],[2.6799207,48.8587843],[2.6798122,48.8589111],[2.6797506,48.8588264],[2.6797011,48.8589342],[2.679398,48.8588313],[2.6793103,48.858835],[2.6792614,48.8589012],[2.6790569,48.8588853],[2.6788338,48.8587719],[2.6786513,48.8587617],[2.6777672,48.8585133],[2.677471,48.8585046],[2.6773715,48.8584122],[2.6770029,48.8582547],[2.6769725,48.8581827],[2.6767607,48.8581392],[2.6766356,48.8581961],[2.67659,48.8580651],[2.6764756,48.858099],[2.6764491,48.8580104],[2.676311,48.858067],[2.6761754,48.8579714],[2.6761785,48.8579315],[2.6767778,48.8574768],[2.6770083,48.8572395],[2.6770268,48.8571791],[2.6772743,48.8569604],[2.6772943,48.8568382],[2.6774337,48.856726],[2.6774898,48.8566322],[2.6776134,48.8565651],[2.6776515,48.856466],[2.6778324,48.8563508],[2.6779313,48.8563399],[2.6778084,48.8562856],[2.67788,48.856237],[2.6784019,48.8555346],[2.6787403,48.8550046],[2.6774249,48.8547945],[2.6773989,48.8548458],[2.6761304,48.8545734],[2.675752,48.8543058],[2.6755361,48.8543157],[2.6755353,48.8542813],[2.6761455,48.8538317],[2.6768024,48.8538769],[2.677142,48.8537231],[2.67749,48.8535133],[2.6777769,48.8534872],[2.6782651,48.8527928],[2.6794646,48.8515361],[2.6803452,48.8510725],[2.6809702,48.8508896],[2.6813208,48.8506978],[2.6816336,48.8502824],[2.6818017,48.8501858],[2.6819718,48.8501377],[2.6822525,48.849965],[2.6823474,48.8498006],[2.6824642,48.8497438],[2.6828481,48.8492915],[2.6829899,48.849243],[2.6829524,48.8490884],[2.6829933,48.8490915],[2.6830142,48.84905],[2.6845084,48.8495356],[2.6843506,48.8498583],[2.6857318,48.8503223],[2.6860072,48.8503706],[2.6860301,48.8503205],[2.6887209,48.8507698],[2.6892064,48.8507576],[2.6897406,48.8507034],[2.690432,48.8510114],[2.6914425,48.8513045],[2.6917865,48.8519541],[2.6918388,48.8520754],[2.6918159,48.8521224],[2.6967746,48.8540591],[2.6981119,48.8542073],[2.6988381,48.8544154],[2.6985877,48.8552268],[2.6985083,48.8553147],[2.6962212,48.854919],[2.6959194,48.8559638],[2.6956303,48.8566409],[2.6945103,48.8563594],[2.6941074,48.8571032],[2.6929015,48.856906],[2.6918928,48.8566731],[2.6920816,48.8563371],[2.6911055,48.8560491],[2.6913719,48.8556285],[2.6901823,48.8553367],[2.6898431,48.8562958],[2.6892512,48.8561263],[2.6886546,48.8561558],[2.6874222,48.8560826],[2.687249,48.8560998],[2.6864192,48.8558063]]]]},"properties":{"code_section":"772090000B","code_commune":"77209","section_courte":"B"}},{"type":"Feature","geometry":{"type":"MultiPolygon","coordinates":[[[[2.6916631,48.86041],[2.692533,48.8605498],[2.6923416,48.8612172],[2.6923774,48.8613617],[2.6929302,48.8619103],[2.6933297,48.8621582],[2.6932778,48.8625997],[2.6937418,48.8625619],[2.6943861,48.8625723],[2.6945261,48.8624584],[2.6945603,48.8623674],[2.6948724,48.8620582],[2.6952784,48.8621621],[2.6956006,48.8621634],[2.6957413,48.8620927],[2.6955281,48.8623126],[2.697624,48.8632629],[2.6975172,48.8633454],[2.6975786,48.8633801],[2.6980805,48.8634367],[2.6986344,48.8634582],[2.6986046,48.8632352],[2.7000224,48.8630825],[2.7000822,48.8635545],[2.7003083,48.8635419],[2.7004183,48.8644856],[2.699962,48.864543],[2.6999674,48.8655221],[2.6983738,48.8654484],[2.6980243,48.865492],[2.6984519,48.8661848],[2.6960415,48.8666106],[2.6961465,48.8662169],[2.6960304,48.8660936],[2.6952955,48.8660961],[2.6936738,48.8658168],[2.6921564,48.8654627],[2.6909629,48.8653376],[2.6914056,48.8639161],[2.6923767,48.8626452],[2.6923258,48.8625837],[2.6920585,48.8624484],[2.6914325,48.8623188],[2.691165,48.8621989],[2.6910733,48.8620215],[2.6909903,48.8616414],[2.6909271,48.8615552],[2.6904961,48.8612138],[2.6903207,48.8609366],[2.6902114,48.8604912],[2.6915499,48.8603968],[2.6916631,48.86041]]]]},"properties":{"code_section":"77209000AB","code_commune":"77209","section_courte":"AB"}},{"type":"Feature","geometry":{"type":"MultiPolygon","coordinates":[[[[2.6947213,48.8581851],[2.6957044,48.8564931],[2.6960087,48.8556942],[2.6962212,48.854919],[2.6985083,48.8553147],[2.6985877,48.8552268],[2.6988243,48.8544898],[2.6997538,48.8547103],[2.7016874,48.8549858],[2.7027385,48.855001],[2.703476,48.8549551],[2.7042731,48.8548383],[2.7042074,48.8549395],[2.7036745,48.8580214],[2.7006998,48.8579652],[2.6983183,48.857537],[2.6978229,48.8586046],[2.6976838,48.8590763],[2.695822,48.8587258],[2.6957047,48.859117],[2.6943605,48.8588089],[2.6947213,48.8581851]]]]},"properties":{"code_section":"77209000AE","code_commune":"77209","section_courte":"AE"}},{"type":"Feature","geometry":{"type":"MultiPolygon","coordinates":[[[[2.6955751,48.862167],[2.6952784,48.8621621],[2.6948724,48.8620582],[2.6945603,48.8623674],[2.6945261,48.8624584],[2.6943861,48.8625723],[2.6937418,48.8625619],[2.6932778,48.8625997],[2.6933297,48.8621582],[2.6929302,48.8619103],[2.6923774,48.8613617],[2.6923417,48.8612172],[2.692533,48.8605498],[2.6922071,48.8605145],[2.6917747,48.8604245],[2.6919087,48.8601764],[2.6918324,48.8599737],[2.6920779,48.8590634],[2.6932601,48.8594462],[2.6937324,48.8595584],[2.6940688,48.859594],[2.6940323,48.8594113],[2.6940608,48.8592852],[2.6943605,48.8588089],[2.6957047,48.859117],[2.695822,48.8587258],[2.6976838,48.8590763],[2.6978229,48.8586046],[2.6983183,48.857537],[2.7006998,48.8579652],[2.703614,48.8580198],[2.7032726,48.8600679],[2.7032033,48.8602372],[2.703867,48.8613098],[2.7040163,48.8617194],[2.7039849,48.8619064],[2.7038222,48.8620496],[2.7025012,48.8624862],[2.7001157,48.8630697],[2.6986046,48.8632352],[2.6986344,48.8634582],[2.6980805,48.8634367],[2.6975786,48.8633801],[2.6975172,48.8633454],[2.697624,48.8632629],[2.6955281,48.8623126],[2.6957496,48.8620967],[2.6955751,48.862167]]]]},"properties":{"code_section":"77209000AH","code_commune":"77209","section_courte":"AH"}},{"type":"Feature","geometry":{"type":"MultiPolygon","coordinates":[[[[2.6831338,48.8551505],[2.685891,48.8556352],[2.6868205,48.85593],[2.6872388,48.8560958],[2.6872704,48.8560648],[2.6887801,48.8561118],[2.6892537,48.8560987],[2.6898533,48.8562669],[2.6901921,48.8553094],[2.6913324,48.8556109],[2.6911002,48.8560335],[2.6920765,48.8562877],[2.6918997,48.8566262],[2.6929923,48.856872],[2.6940726,48.8570654],[2.6945009,48.8563572],[2.6956303,48.8566409],[2.6940608,48.8592852],[2.6940323,48.8594113],[2.6940688,48.859594],[2.6937324,48.8595584],[2.6932601,48.8594462],[2.6920779,48.8590634],[2.6918322,48.8599737],[2.6919087,48.8601764],[2.6917747,48.8604244],[2.6915499,48.8603968],[2.6909548,48.8604305],[2.6887041,48.860644],[2.6883853,48.8606244],[2.6867272,48.8603111],[2.6853193,48.8601193],[2.6846519,48.8601286],[2.6840263,48.8602006],[2.6840288,48.8594947],[2.6839226,48.858816],[2.6840267,48.8582502],[2.6839915,48.8581547],[2.6839995,48.8577431],[2.6842252,48.8568877],[2.6842171,48.8561512],[2.6830501,48.8558076],[2.683138,48.8554292],[2.6831338,48.8551505]]]]},"properties":{"code_section":"77209000AI","code_commune":"77209","section_courte":"AI"}}]}