{"type":"FeatureCollection","features":[{"type":"Feature","geometry":{"type":"MultiPolygon","coordinates":[[[[2.6860276,48.8791279],[2.6856743,48.8795501],[2.6835916,48.8791255],[2.6815264,48.87863],[2.6788629,48.877932],[2.678008,48.8776846],[2.676834,48.8772629],[2.6758795,48.8769986],[2.6743161,48.8766194],[2.6744962,48.8758583],[2.6775095,48.8729329],[2.680445,48.8755836],[2.6808447,48.8758782],[2.6811705,48.8760706],[2.6816723,48.8762855],[2.6821212,48.876408],[2.6867498,48.8774037],[2.6860276,48.8791279]]]]},"properties":{"code_section":"77243000AB","code_commune":"77243","section_courte":"AB"}},{"type":"Feature","geometry":{"type":"MultiPolygon","coordinates":[[[[2.6813327,48.8696501],[2.6829056,48.8702655],[2.6833329,48.8706098],[2.6861528,48.8720553],[2.6863303,48.872204],[2.6867159,48.8727587],[2.6867029,48.8728551],[2.6862681,48.8727222],[2.6855956,48.8724554],[2.6853276,48.8728929],[2.684842,48.8739],[2.6851744,48.8739776],[2.684835,48.8746789],[2.6843358,48.8756736],[2.6840611,48.8756158],[2.6835159,48.8767039],[2.6821212,48.876408],[2.6816723,48.8762855],[2.6811705,48.8760706],[2.6809013,48.8759153],[2.680445,48.8755836],[2.6775648,48.8729828],[2.6794272,48.870999],[2.6794317,48.870929],[2.6796541,48.870824],[2.680196,48.870434],[2.6811884,48.8695959],[2.6813327,48.8696501]]]]},"properties":{"code_section":"77243000AC","code_commune":"77243","section_courte":"AC"}},{"type":"Feature","geometry":{"type":"MultiPolygon","coordinates":[[[[2.6858887,48.872579],[2.6867029,48.8728551],[2.6871356,48.8730827],[2.6875594,48.8732567],[2.687732,48.873318],[2.6884155,48.8734473],[2.6886878,48.8735273],[2.6897971,48.874],[2.68939,48.8748273],[2.6903001,48.8749903],[2.6896702,48.8763085],[2.6892964,48.8761507],[2.6887445,48.8759689],[2.688709,48.8766868],[2.6887408,48.8773148],[2.6886937,48.8773057],[2.6884574,48.8777727],[2.6835159,48.8767039],[2.6840611,48.8756158],[2.6843358,48.8756736],[2.6851357,48.8740591],[2.6851744,48.8739776],[2.684842,48.8739],[2.6853276,48.8728929],[2.6855956,48.8724554],[2.6858887,48.872579]]]]},"properties":{"code_section":"77243000AD","code_commune":"77243","section_courte":"AD"}},{"type":"Feature","geometry":{"type":"MultiPolygon","coordinates":[[[[2.6896512,48.8742962],[2.6897971,48.874],[2.6917798,48.8745594],[2.6926834,48.8746535],[2.6927656,48.8746124],[2.6930146,48.8746693],[2.694673,48.8751592],[2.6940205,48.8760908],[2.6939224,48.8763487],[2.693836,48.8783828],[2.6928452,48.8783782],[2.6928546,48.8800381],[2.6909554,48.8802426],[2.6897045,48.8801982],[2.6883371,48.8800607],[2.6856743,48.8795501],[2.686055,48.8790742],[2.6867498,48.8774037],[2.6884574,48.8777727],[2.6886937,48.8773057],[2.6887408,48.8773148],[2.688709,48.8766868],[2.6887445,48.8759689],[2.6892964,48.8761507],[2.6896702,48.8763085],[2.6903001,48.8749903],[2.68939,48.8748273],[2.6896512,48.8742962]]]]},"properties":{"code_section":"77243000AE","code_commune":"77243","section_courte":"AE"}},{"type":"Feature","geometry":{"type":"MultiPolygon","coordinates":[[[[2.7013623,48.8804339],[2.6990632,48.8801798],[2.6973759,48.8800791],[2.6928546,48.8800381],[2.6928452,48.8783782],[2.693836,48.8783828],[2.6939224,48.8763487],[2.6940205,48.8760908],[2.694673,48.8751592],[2.6963038,48.8756596],[2.6997799,48.8766289],[2.701007,48.8767654],[2.701184,48.8767597],[2.7015588,48.8782143],[2.7016183,48.8789737],[2.7013623,48.8804339]]]]},"properties":{"code_section":"77243000AH","code_commune":"77243","section_courte":"AH"}},{"type":"Feature","geometry":{"type":"MultiPolygon","coordinates":[[[[2.6994835,48.8718845],[2.6994924,48.8718598],[2.70024,48.8718724],[2.7002676,48.8722431],[2.7013526,48.8723375],[2.7017397,48.8724175],[2.7035166,48.8729691],[2.7062577,48.8734287],[2.7058335,48.8756192],[2.7057366,48.8756293],[2.7053842,48.8762229],[2.7052185,48.8761935],[2.7047564,48.8771838],[2.7042809,48.8771208],[2.7029588,48.8768639],[2.7020653,48.8767373],[2.701007,48.8767654],[2.6997799,48.8766289],[2.6963038,48.8756596],[2.6941847,48.8750145],[2.6949045,48.8732475],[2.6951745,48.8724754],[2.6970443,48.8723967],[2.6981118,48.8725707],[2.6990136,48.8727733],[2.6992664,48.8722957],[2.6993353,48.8723075],[2.6994835,48.8718845]]]]},"properties":{"code_section":"77243000AI","code_commune":"77243","section_courte":"AI"}},{"type":"Feature","geometry":{"type":"MultiPolygon","coordinates":[[[[2.7033618,48.8805752],[2.7013623,48.8804339],[2.7016183,48.8789737],[2.7015588,48.8782143],[2.701184,48.8767597],[2.7020653,48.8767373],[2.7029588,48.8768639],[2.7042809,48.8771208],[2.7047564,48.8771838],[2.7048114,48.8781105],[2.7049974,48.878247],[2.705035,48.8784516],[2.704877,48.87897],[2.7048076,48.8798806],[2.7048023,48.8806499],[2.7033618,48.8805752]]]]},"properties":{"code_section":"77243000AK","code_commune":"77243","section_courte":"AK"}},{"type":"Feature","geometry":{"type":"MultiPolygon","coordinates":[[[[2.7120462,48.8809879],[2.7119532,48.8812884],[2.7097106,48.8812388],[2.7092267,48.8812111],[2.7074078,48.8809607],[2.70609,48.8807065],[2.7048023,48.8806499],[2.7048076,48.8798806],[2.704877,48.87897],[2.705035,48.8784516],[2.7049974,48.878247],[2.7048114,48.8781105],[2.7047564,48.8771838],[2.7052185,48.8761935],[2.7053842,48.8762229],[2.7057366,48.8756293],[2.7058335,48.8756192],[2.7074126,48.8760072],[2.7074451,48.8766064],[2.7074071,48.876934],[2.7081342,48.8771696],[2.7092257,48.8775773],[2.7099853,48.877925],[2.7107061,48.8784388],[2.7109901,48.8785918],[2.7113999,48.878734],[2.7124938,48.8789722],[2.7115842,48.8792051],[2.7116272,48.8792912],[2.7122752,48.8794277],[2.7123623,48.8799957],[2.7120462,48.8809879]]]]},"properties":{"code_section":"77243000AL","code_commune":"77243","section_courte":"AL"}},{"type":"Feature","geometry":{"type":"MultiPolygon","coordinates":[[[[2.7117369,48.8788132],[2.711333,48.8787153],[2.7108781,48.8785461],[2.710009,48.8779376],[2.7092257,48.8775773],[2.7081342,48.8771696],[2.7074071,48.876934],[2.7074451,48.8766064],[2.7074126,48.8760072],[2.7058335,48.8756192],[2.7062914,48.8733238],[2.7110108,48.8735386],[2.7126705,48.873919],[2.7142793,48.8740579],[2.7145498,48.8740562],[2.7149094,48.8740082],[2.7153091,48.8739316],[2.716401,48.8736194],[2.717452,48.8734692],[2.717497,48.8738457],[2.7176724,48.8743597],[2.7176331,48.8749822],[2.7165495,48.8778955],[2.7124938,48.8789722],[2.7117369,48.8788132]]]]},"properties":{"code_section":"77243000AM","code_commune":"77243","section_courte":"AM"}},{"type":"Feature","geometry":{"type":"MultiPolygon","coordinates":[[[[2.724128,48.8829336],[2.7233347,48.882896],[2.7210848,48.8826361],[2.7172328,48.8821255],[2.7134764,48.8814356],[2.7122954,48.8812991],[2.7119532,48.8812884],[2.7123459,48.8800727],[2.7123541,48.8798232],[2.7122752,48.8794277],[2.7116272,48.8792912],[2.7115842,48.8792051],[2.7184648,48.8773954],[2.7223346,48.8774871],[2.7224951,48.8775595],[2.7225354,48.877653],[2.7225739,48.8787205],[2.7219502,48.8789995],[2.7211684,48.8792322],[2.7210967,48.880168],[2.7223756,48.8802332],[2.7236497,48.8801321],[2.7236817,48.8802175],[2.7237121,48.8802142],[2.7237084,48.8807623],[2.7235192,48.881418],[2.7238347,48.8814872],[2.7235436,48.8824663],[2.7235864,48.8824966],[2.7242471,48.8825316],[2.7242437,48.8825777],[2.7241726,48.8825741],[2.724128,48.8829336]]]]},"properties":{"code_section":"77243000AN","code_commune":"77243","section_courte":"AN"}},{"type":"Feature","geometry":{"type":"MultiPolygon","coordinates":[[[[2.7337538,48.8826065],[2.7347168,48.882828],[2.7339292,48.8830766],[2.7332224,48.8831958],[2.7321664,48.8832929],[2.7307324,48.8833306],[2.7288099,48.8832389],[2.7260375,48.883014],[2.724128,48.8829336],[2.7241726,48.8825741],[2.7242437,48.8825777],[2.7242471,48.8825316],[2.7235864,48.8824966],[2.7235436,48.8824663],[2.7236854,48.8819227],[2.7242841,48.8821187],[2.7247175,48.8823125],[2.7255238,48.8824619],[2.7260283,48.8824689],[2.7273755,48.8824127],[2.7283803,48.8824624],[2.7286518,48.8824414],[2.7291062,48.882328],[2.7296592,48.8822493],[2.7303795,48.8822149],[2.7309523,48.8822731],[2.7319054,48.8824441],[2.7324615,48.8824914],[2.7328077,48.8826555],[2.7337538,48.8826065]]]]},"properties":{"code_section":"77243000AO","code_commune":"77243","section_courte":"AO"}},{"type":"Feature","geometry":{"type":"MultiPolygon","coordinates":[[[[2.7284142,48.8819471],[2.7283891,48.8821865],[2.7282357,48.8821899],[2.728214,48.8824652],[2.7273755,48.8824127],[2.7260283,48.8824689],[2.7255238,48.8824619],[2.7250723,48.882391],[2.7246199,48.8822766],[2.7242841,48.8821187],[2.7236854,48.8819227],[2.7238347,48.8814872],[2.7235192,48.881418],[2.7237084,48.8807623],[2.7237121,48.8802142],[2.7236817,48.8802175],[2.7236497,48.8801321],[2.7223756,48.8802332],[2.7210967,48.880168],[2.7211684,48.8792322],[2.7219502,48.8789995],[2.7225739,48.8787205],[2.7243189,48.8788051],[2.7250738,48.8787643],[2.7260676,48.8786153],[2.7264171,48.8786326],[2.7273707,48.8787523],[2.7287918,48.8787121],[2.7309362,48.8782917],[2.7307249,48.8784501],[2.7306521,48.8793346],[2.7312169,48.8793922],[2.7311733,48.88003],[2.7309906,48.880042],[2.730978,48.8806345],[2.7306179,48.8806453],[2.7308842,48.8817531],[2.7299569,48.8817014],[2.7284427,48.8816882],[2.7284142,48.8819471]]]]},"properties":{"code_section":"77243000AP","code_commune":"77243","section_courte":"AP"}},{"type":"Feature","geometry":{"type":"MultiPolygon","coordinates":[[[[2.7201923,48.8764011],[2.7203045,48.8757015],[2.7204933,48.8756079],[2.7206889,48.8756449],[2.7215001,48.875692],[2.7216276,48.8756605],[2.7248822,48.8738033],[2.7288197,48.8740213],[2.7288067,48.874105],[2.7305652,48.8742602],[2.7305241,48.8776511],[2.7314673,48.8776721],[2.7313999,48.8779068],[2.7312629,48.8781501],[2.7310886,48.878242],[2.7287918,48.8787121],[2.7273707,48.8787523],[2.7264171,48.8786326],[2.7260676,48.8786153],[2.7250738,48.8787643],[2.7243189,48.8788051],[2.7225739,48.8787205],[2.7225354,48.877653],[2.7224483,48.8775234],[2.7222654,48.8774688],[2.7184648,48.8773954],[2.7187856,48.8773032],[2.7198949,48.8766753],[2.7202626,48.8764441],[2.7201923,48.8764011]]]]},"properties":{"code_section":"77243000AR","code_commune":"77243","section_courte":"AR"}},{"type":"Feature","geometry":{"type":"MultiPolygon","coordinates":[[[[2.7201923,48.8764011],[2.7202626,48.8764441],[2.7187856,48.8773032],[2.7165495,48.8778955],[2.7176331,48.8749822],[2.7176724,48.8743597],[2.717497,48.8738457],[2.717452,48.8734692],[2.7175132,48.8733851],[2.7177722,48.8732985],[2.7179408,48.8734507],[2.7189036,48.8732798],[2.7190086,48.8731542],[2.7220344,48.873412],[2.7238825,48.8737861],[2.7248272,48.8738318],[2.7216276,48.8756605],[2.7215001,48.875692],[2.7206889,48.8756449],[2.7204933,48.8756079],[2.7203045,48.8757015],[2.7201923,48.8764011]]]]},"properties":{"code_section":"77243000AS","code_commune":"77243","section_courte":"AS"}},{"type":"Feature","geometry":{"type":"MultiPolygon","coordinates":[[[[2.7292981,48.8712517],[2.7288197,48.8740213],[2.725788,48.8738403],[2.7248822,48.8738033],[2.7248272,48.8738318],[2.7238825,48.8737861],[2.7220344,48.873412],[2.7190086,48.8731542],[2.7189036,48.8732798],[2.7179408,48.8734507],[2.7177722,48.8732985],[2.7175132,48.8733851],[2.717452,48.8734692],[2.7184876,48.8698816],[2.7187192,48.8698],[2.7225305,48.8698211],[2.7273435,48.8723958],[2.7292981,48.8712517]]]]},"properties":{"code_section":"77243000AT","code_commune":"77243","section_courte":"AT"}},{"type":"Feature","geometry":{"type":"MultiPolygon","coordinates":[[[[2.7248987,48.8664433],[2.7252553,48.8650868],[2.7296624,48.8690816],[2.7292981,48.8712517],[2.7273435,48.8723958],[2.7225305,48.8698211],[2.7222928,48.8698228],[2.72229,48.8683927],[2.7231343,48.8683274],[2.7243616,48.8676868],[2.724694,48.867221],[2.7248987,48.8664433]]]]},"properties":{"code_section":"77243000AV","code_commune":"77243","section_courte":"AV"}},{"type":"Feature","geometry":{"type":"MultiPolygon","coordinates":[[[[2.7258466,48.8629659],[2.7269367,48.863369],[2.727094,48.8634886],[2.7271806,48.8636063],[2.7273652,48.8639125],[2.727418,48.8641508],[2.7253364,48.8647782],[2.724694,48.867221],[2.7243616,48.8676868],[2.7231343,48.8683274],[2.7221764,48.8683985],[2.7189715,48.8649538],[2.7185466,48.8651476],[2.7181727,48.8645614],[2.7188158,48.8642799],[2.7207669,48.8629969],[2.7224626,48.8620917],[2.723454,48.8615173],[2.7238425,48.8612433],[2.7252543,48.8600855],[2.7268613,48.8598658],[2.7266012,48.8601354],[2.7262865,48.8605474],[2.7260902,48.8609278],[2.7259328,48.8614896],[2.7258978,48.8617638],[2.7259505,48.8622722],[2.7260191,48.8624323],[2.7262022,48.8626234],[2.7258466,48.8629659]]]]},"properties":{"code_section":"77243000AW","code_commune":"77243","section_courte":"AW"}},{"type":"Feature","geometry":{"type":"MultiPolygon","coordinates":[[[[2.7195264,48.8664333],[2.7214188,48.8684533],[2.72229,48.8683927],[2.7222928,48.8698228],[2.7187192,48.8698],[2.7184876,48.8698816],[2.7179506,48.8717163],[2.7174061,48.8716533],[2.7171688,48.8715131],[2.7169154,48.8711997],[2.7163912,48.8707898],[2.7166247,48.8691064],[2.7171976,48.869138],[2.7172419,48.8687188],[2.718833,48.8687551],[2.7194109,48.8666167],[2.7193673,48.8664427],[2.7192344,48.8662148],[2.7193043,48.8661931],[2.7195264,48.8664333]]]]},"properties":{"code_section":"77243000AX","code_commune":"77243","section_courte":"AX"}},{"type":"Feature","geometry":{"type":"MultiPolygon","coordinates":[[[[2.7154159,48.868035],[2.7149448,48.8659236],[2.718173,48.8645623],[2.7185466,48.8651476],[2.7189715,48.8649538],[2.7221764,48.8683985],[2.7214188,48.8684533],[2.7193043,48.8661931],[2.7192344,48.8662148],[2.7193752,48.8664693],[2.7194109,48.8666167],[2.7193805,48.8667992],[2.718833,48.8687551],[2.7172419,48.8687188],[2.7171976,48.869138],[2.7166247,48.8691064],[2.7164913,48.8700765],[2.7154558,48.8698711],[2.7156754,48.869348],[2.7147418,48.8691575],[2.7149995,48.8690811],[2.7151064,48.868943],[2.7153315,48.8684892],[2.7154611,48.8683294],[2.7154159,48.868035]]]]},"properties":{"code_section":"77243000AY","code_commune":"77243","section_courte":"AY"}},{"type":"Feature","geometry":{"type":"MultiPolygon","coordinates":[[[[2.7116959,48.8691494],[2.7126204,48.8693749],[2.7128721,48.8694887],[2.7133352,48.8693563],[2.7147418,48.8691575],[2.7156754,48.869348],[2.7154558,48.8698711],[2.7164913,48.8700765],[2.7163912,48.8707898],[2.7169154,48.8711997],[2.7171688,48.8715131],[2.7174061,48.8716533],[2.7179506,48.8717163],[2.717452,48.8734692],[2.716401,48.8736194],[2.7153091,48.8739316],[2.7144779,48.8740591],[2.7126705,48.873919],[2.7110108,48.8735386],[2.7096368,48.873467],[2.7109122,48.869334],[2.7100679,48.8692185],[2.710308,48.8688785],[2.7109618,48.8689719],[2.7116959,48.8691494]]]]},"properties":{"code_section":"77243000AZ","code_commune":"77243","section_courte":"AZ"}},{"type":"Feature","geometry":{"type":"MultiPolygon","coordinates":[[[[2.7116959,48.8691494],[2.7109618,48.8689719],[2.710308,48.8688785],[2.7100679,48.8692185],[2.7092194,48.8692808],[2.7089018,48.8692564],[2.7068523,48.8707755],[2.7067591,48.8707805],[2.7064152,48.8689813],[2.7061555,48.8686404],[2.706021,48.8683582],[2.7060575,48.8681252],[2.70622,48.8676463],[2.706136,48.8670007],[2.7061553,48.8668779],[2.7063747,48.8665822],[2.7065678,48.8659889],[2.7065631,48.865707],[2.7064699,48.8652376],[2.7065521,48.8651637],[2.7067424,48.8651147],[2.7076047,48.8650889],[2.7093031,48.864881],[2.7099716,48.8648717],[2.7114141,48.8649982],[2.7125411,48.8649384],[2.7127773,48.8648789],[2.7135907,48.8648033],[2.7138774,48.8656049],[2.714528,48.8657105],[2.7152467,48.8657061],[2.7152561,48.8657859],[2.7149448,48.8659236],[2.715469,48.8682716],[2.7149995,48.8690811],[2.7147418,48.8691575],[2.7141058,48.8692649],[2.7133352,48.8693563],[2.7128721,48.8694887],[2.7126204,48.8693749],[2.7116959,48.8691494]]]]},"properties":{"code_section":"77243000BC","code_commune":"77243","section_courte":"BC"}},{"type":"Feature","geometry":{"type":"MultiPolygon","coordinates":[[[[2.7007574,48.8677393],[2.6997453,48.8677322],[2.6990199,48.866989],[2.6986009,48.8664841],[2.6980231,48.865487],[2.6981317,48.8654128],[2.6993774,48.8654597],[2.700757,48.8655855],[2.7018433,48.8655888],[2.7043405,48.8654062],[2.705047,48.8652766],[2.7061658,48.8651264],[2.7064699,48.8652376],[2.7065631,48.865707],[2.7065678,48.8659889],[2.7063747,48.8665822],[2.7061553,48.8668779],[2.706136,48.8670007],[2.70622,48.8676463],[2.7060204,48.8682956],[2.706137,48.868609],[2.7064152,48.8689813],[2.704519,48.8682937],[2.7036596,48.868017],[2.7015754,48.8677739],[2.7007574,48.8677393]]]]},"properties":{"code_section":"77243000BD","code_commune":"77243","section_courte":"BD"}},{"type":"Feature","geometry":{"type":"MultiPolygon","coordinates":[[[[2.6984689,48.8662388],[2.6986009,48.8664841],[2.6988717,48.8668225],[2.6997453,48.8677322],[2.7006776,48.8691805],[2.7008713,48.8696037],[2.7009245,48.8699769],[2.7004754,48.8706743],[2.70024,48.8718724],[2.6994924,48.8718598],[2.6993353,48.8723075],[2.6992664,48.8722957],[2.6990136,48.8727733],[2.6981118,48.8725707],[2.6970443,48.8723967],[2.6951745,48.8724754],[2.6963837,48.8692995],[2.6966749,48.8664944],[2.6984355,48.8661742],[2.6984689,48.8662388]]]]},"properties":{"code_section":"77243000BE","code_commune":"77243","section_courte":"BE"}},{"type":"Feature","geometry":{"type":"MultiPolygon","coordinates":[[[[2.7035188,48.8680073],[2.7036596,48.868017],[2.704519,48.8682937],[2.7064152,48.8689813],[2.7067591,48.8707805],[2.7068523,48.8707755],[2.7089018,48.8692564],[2.7092194,48.8692808],[2.7100679,48.8692185],[2.7109122,48.869334],[2.7096368,48.873467],[2.7062914,48.8733238],[2.7062577,48.8734287],[2.7035166,48.8729691],[2.7017397,48.8724175],[2.7013526,48.8723375],[2.7002676,48.8722431],[2.70024,48.8718724],[2.7004201,48.870858],[2.7004754,48.8706743],[2.7009245,48.8699769],[2.7009329,48.8698569],[2.7007941,48.8693765],[2.6997453,48.8677322],[2.7015754,48.8677739],[2.7035188,48.8680073]]]]},"properties":{"code_section":"77243000BH","code_commune":"77243","section_courte":"BH"}}]}