{"type":"FeatureCollection","features":[{"type":"Feature","geometry":{"type":"MultiPolygon","coordinates":[[[[2.601847,48.7531364],[2.600132,48.7509267],[2.5985035,48.7498967],[2.598038,48.7501135],[2.5978194,48.7497325],[2.5975274,48.7494479],[2.5974446,48.7492529],[2.5961622,48.7471526],[2.604309,48.7464754],[2.6057392,48.7464924],[2.6087063,48.7454953],[2.6107509,48.7472733],[2.6120232,48.7458755],[2.6131671,48.7460663],[2.6133581,48.7471138],[2.613397,48.7485572],[2.6133326,48.7487555],[2.613204,48.7489286],[2.6126311,48.749335],[2.6124455,48.749513],[2.6123601,48.749916],[2.6128032,48.750396],[2.6140067,48.7498201],[2.6142609,48.7515125],[2.6146547,48.7535578],[2.6148401,48.7541011],[2.6153407,48.756039],[2.6155716,48.7583756],[2.6153722,48.7586699],[2.6147053,48.7594317],[2.6148679,48.76111],[2.614796,48.7610794],[2.6135367,48.7609975],[2.6112448,48.7613537],[2.6115502,48.7605166],[2.6048841,48.7591162],[2.6027299,48.759021],[2.5973816,48.7606696],[2.5993132,48.7554747],[2.5990936,48.7553237],[2.5998572,48.7551346],[2.6017585,48.754068],[2.6019449,48.7537511],[2.602222,48.7536008],[2.601847,48.7531364]]]]},"properties":{"code_section":"772490000A","code_commune":"77249","section_courte":"A"}},{"type":"Feature","geometry":{"type":"MultiPolygon","coordinates":[[[[2.6275897,48.759295],[2.6328115,48.7571318],[2.6328162,48.757351],[2.6368296,48.7578081],[2.6404507,48.7570439],[2.6447822,48.7552781],[2.6448782,48.755272],[2.6449705,48.7552696],[2.6453943,48.755365],[2.6456133,48.7553448],[2.6457792,48.7554175],[2.6458246,48.7554622],[2.6458081,48.755587],[2.6458481,48.7556758],[2.6459503,48.7557405],[2.6460675,48.7557603],[2.6460902,48.7559205],[2.6461809,48.7559503],[2.6461569,48.7560796],[2.6462723,48.7561104],[2.6462988,48.7560408],[2.6468322,48.7560081],[2.6468838,48.7560688],[2.6467439,48.7561771],[2.6467565,48.7562373],[2.6468807,48.7562419],[2.6470036,48.756314],[2.6473195,48.7563869],[2.6474483,48.7564884],[2.6476691,48.756487],[2.6477646,48.7565224],[2.6478428,48.7564608],[2.6480436,48.7565226],[2.6481707,48.7564565],[2.6486172,48.7567273],[2.6489944,48.75679],[2.6490886,48.7567458],[2.6493301,48.7567413],[2.6497261,48.756853],[2.6499105,48.7570291],[2.6497416,48.7571959],[2.6497419,48.7572598],[2.6500251,48.7572537],[2.6501076,48.7573912],[2.6500879,48.7575096],[2.6501243,48.7575578],[2.6504865,48.7577283],[2.65055,48.7577488],[2.6509848,48.7576675],[2.6509937,48.7579025],[2.651129,48.7579916],[2.6490238,48.7603777],[2.6470464,48.7617145],[2.6437219,48.7632664],[2.641771,48.7634772],[2.6412719,48.7628816],[2.637857,48.7639267],[2.6368085,48.7631466],[2.6367398,48.7631827],[2.6365987,48.7633435],[2.6365185,48.7635151],[2.6362341,48.7643942],[2.6370175,48.7655612],[2.6365941,48.7657608],[2.6365515,48.7658094],[2.6366006,48.7658846],[2.6370827,48.766476],[2.6394706,48.7664066],[2.6409644,48.7688071],[2.63111,48.7705254],[2.6332529,48.7683944],[2.6322848,48.7681886],[2.6262367,48.7673378],[2.6256285,48.7671699],[2.6255177,48.767095],[2.6241011,48.7652892],[2.6241153,48.7646192],[2.6224967,48.7640529],[2.6193587,48.7627303],[2.6179506,48.7618108],[2.6164268,48.7613051],[2.6148679,48.76111],[2.6147053,48.7594317],[2.6153722,48.7586699],[2.6155716,48.7583756],[2.6153407,48.756039],[2.6148401,48.7541011],[2.6146547,48.7535578],[2.6142609,48.7515125],[2.6153195,48.7513681],[2.614915,48.7502035],[2.6190392,48.7500045],[2.6189733,48.7494476],[2.6185738,48.7494606],[2.6185825,48.7491138],[2.6190378,48.7490996],[2.6190927,48.7488731],[2.6192649,48.7487587],[2.6194611,48.7487039],[2.6193539,48.7483978],[2.6194442,48.7483724],[2.6199083,48.7487547],[2.6211341,48.7493682],[2.6215233,48.7499329],[2.6224015,48.7505703],[2.6234302,48.7512565],[2.6229119,48.752017],[2.6241663,48.7565351],[2.6261332,48.7565545],[2.6275566,48.7593067],[2.6275897,48.759295]]]]},"properties":{"code_section":"772490000B","code_commune":"77249","section_courte":"B"}},{"type":"Feature","geometry":{"type":"MultiPolygon","coordinates":[[[[2.60692,48.7385905],[2.6052198,48.7356233],[2.6035831,48.7325874],[2.6020071,48.7298246],[2.6018314,48.7296333],[2.6001683,48.7285946],[2.5992905,48.727984],[2.6028379,48.7256882],[2.6033178,48.7258615],[2.6034836,48.7258942],[2.6037631,48.7260887],[2.6038804,48.7260183],[2.6039483,48.7260162],[2.6041848,48.7260708],[2.6046571,48.7262512],[2.6053155,48.7262658],[2.6059537,48.7262149],[2.6071451,48.7267644],[2.6090641,48.728431],[2.6091426,48.72846],[2.6092056,48.7286987],[2.609306,48.7288276],[2.6098863,48.7293438],[2.6103975,48.7297091],[2.6106986,48.7297931],[2.6107684,48.7298868],[2.6110146,48.7299272],[2.6110658,48.7299784],[2.61119,48.7299867],[2.6113288,48.7300743],[2.6119649,48.7302633],[2.6123065,48.7304489],[2.6125965,48.7304934],[2.6127023,48.7307014],[2.6128953,48.7306569],[2.6133268,48.7308989],[2.6136066,48.7311349],[2.6139016,48.7312746],[2.6142615,48.7313595],[2.6144533,48.7313556],[2.6145078,48.731383],[2.6145206,48.7314243],[2.6144074,48.7315323],[2.6143953,48.7316019],[2.6141619,48.7317898],[2.614134,48.7318488],[2.6142534,48.7319678],[2.6142425,48.7320947],[2.614277,48.7321494],[2.6144609,48.732202],[2.6145472,48.7323193],[2.6148061,48.732362],[2.6148226,48.7324837],[2.6149378,48.7326071],[2.614983,48.7326279],[2.615098,48.7326112],[2.6151482,48.7326443],[2.6154237,48.7331949],[2.6155982,48.7332005],[2.6156638,48.733249],[2.6155738,48.7334518],[2.6155702,48.7336316],[2.6156231,48.7336751],[2.6157516,48.7336813],[2.6158124,48.7337474],[2.6158204,48.7339233],[2.6159204,48.7342428],[2.6178149,48.7391094],[2.6183063,48.7390195],[2.6187494,48.740151],[2.618878,48.7403964],[2.6190739,48.7406291],[2.6208166,48.7415627],[2.6226077,48.7425889],[2.6228326,48.7427813],[2.6192779,48.7449794],[2.618797,48.7447355],[2.6187635,48.7447646],[2.6176418,48.7442],[2.6175322,48.7442128],[2.6174832,48.7440599],[2.6161882,48.7434161],[2.6161271,48.7434191],[2.6168317,48.7426015],[2.6147807,48.7418443],[2.6142244,48.7424475],[2.6140807,48.7423961],[2.6137751,48.7426962],[2.6133339,48.7427353],[2.6135333,48.7437505],[2.6127903,48.7445544],[2.6119714,48.743851],[2.6102843,48.7424926],[2.6079711,48.7404614],[2.60692,48.7385905]]]]},"properties":{"code_section":"772490000C","code_commune":"77249","section_courte":"C"}},{"type":"Feature","geometry":{"type":"MultiPolygon","coordinates":[[[[2.6328115,48.7571318],[2.6275566,48.7593067],[2.6261332,48.7565545],[2.6241663,48.7565351],[2.6229119,48.752017],[2.6234302,48.7512565],[2.624295,48.7516861],[2.6259936,48.7524406],[2.6328115,48.7571318]]]]},"properties":{"code_section":"77249000AD","code_commune":"77249","section_courte":"AD"}},{"type":"Feature","geometry":{"type":"MultiPolygon","coordinates":[[[[2.6329106,48.7571026],[2.6329045,48.7570033],[2.6339503,48.7561634],[2.6338071,48.7560831],[2.633948,48.7559688],[2.634842,48.7564545],[2.6361303,48.7555909],[2.6380127,48.7556891],[2.6392077,48.7548601],[2.6395858,48.7540598],[2.6402105,48.7544017],[2.6406627,48.7547608],[2.6409983,48.7547755],[2.6413717,48.7547381],[2.6414792,48.7548372],[2.6415801,48.7548337],[2.6416091,48.7549307],[2.641747,48.75503],[2.6418748,48.7549991],[2.6420305,48.7548972],[2.6422595,48.7548484],[2.6423324,48.7548767],[2.6423481,48.7549172],[2.6422932,48.7550442],[2.6423685,48.7550991],[2.6424617,48.7551117],[2.6425492,48.7550815],[2.6425707,48.7549639],[2.6426136,48.7549357],[2.6427421,48.7549468],[2.6428487,48.7550482],[2.6429081,48.7549999],[2.6430721,48.7550021],[2.643133,48.7549539],[2.6434032,48.7548768],[2.6434285,48.7549149],[2.6433766,48.7550298],[2.6434242,48.7550756],[2.6435791,48.7550421],[2.6436801,48.7551417],[2.6439619,48.7551684],[2.6441319,48.7550008],[2.6441984,48.7550043],[2.6444698,48.7551333],[2.6446051,48.7552773],[2.6447822,48.7552781],[2.6404507,48.7570439],[2.6368296,48.7578081],[2.6328162,48.757351],[2.6328115,48.7571318],[2.6329106,48.7571026]]]]},"properties":{"code_section":"77249000AE","code_commune":"77249","section_courte":"AE"}},{"type":"Feature","geometry":{"type":"MultiPolygon","coordinates":[[[[2.6329106,48.7571026],[2.6328115,48.7571318],[2.6284948,48.7541715],[2.6320635,48.7500059],[2.6323655,48.7501515],[2.6327402,48.7502213],[2.6331911,48.7501662],[2.6336542,48.7500494],[2.6345941,48.7504769],[2.6348154,48.7506471],[2.6349373,48.7508736],[2.6349342,48.7511463],[2.6347888,48.7513773],[2.6346703,48.751477],[2.6344471,48.7515962],[2.6334333,48.7519348],[2.6336353,48.7521463],[2.6347686,48.7522486],[2.6347911,48.7527423],[2.6347161,48.7527417],[2.6346427,48.7531277],[2.6347203,48.7532419],[2.6346262,48.7538352],[2.6344642,48.7538379],[2.6343458,48.754313],[2.6346384,48.7549882],[2.6343164,48.75505],[2.6344845,48.7554386],[2.6344667,48.7558866],[2.633948,48.7559688],[2.6338071,48.7560831],[2.6339503,48.7561634],[2.6329045,48.7570033],[2.6329106,48.7571026]]]]},"properties":{"code_section":"77249000AH","code_commune":"77249","section_courte":"AH"}},{"type":"Feature","geometry":{"type":"MultiPolygon","coordinates":[[[[2.6395776,48.7540755],[2.6392077,48.7548601],[2.6380127,48.7556891],[2.6361303,48.7555909],[2.634842,48.7564545],[2.6339611,48.755976],[2.6344667,48.7558866],[2.6344845,48.7554386],[2.6343164,48.75505],[2.6346384,48.7549882],[2.6343458,48.754313],[2.6344642,48.7538379],[2.6346262,48.7538352],[2.6347203,48.7532419],[2.6346427,48.7531277],[2.6347161,48.7527417],[2.6347911,48.7527423],[2.6347686,48.7522486],[2.6336353,48.7521463],[2.6334333,48.7519348],[2.6344471,48.7515962],[2.6346703,48.751477],[2.6348854,48.7512552],[2.6349535,48.7510094],[2.6348945,48.7507685],[2.6347261,48.7505624],[2.6344665,48.7504153],[2.6336542,48.7500494],[2.6344112,48.7498192],[2.6346568,48.7496888],[2.634745,48.7496107],[2.6350416,48.7490417],[2.6353237,48.7490808],[2.6360761,48.7494126],[2.6367906,48.7495702],[2.6369885,48.7496827],[2.6374018,48.7500263],[2.6377243,48.750751],[2.637785,48.7516479],[2.6380052,48.7520928],[2.638162,48.7525685],[2.6384283,48.7529011],[2.6385084,48.7532424],[2.6386066,48.7533575],[2.6391302,48.7535286],[2.6392183,48.7535901],[2.6392251,48.7536705],[2.6391482,48.7537594],[2.639253,48.7538639],[2.6394305,48.7539532],[2.6395776,48.7540755]]]]},"properties":{"code_section":"77249000AI","code_commune":"77249","section_courte":"AI"}},{"type":"Feature","geometry":{"type":"MultiPolygon","coordinates":[[[[2.6281423,48.7539161],[2.6259936,48.7524406],[2.624295,48.7516861],[2.6231752,48.7511058],[2.6215233,48.7499329],[2.6211341,48.7493682],[2.6199083,48.7487547],[2.6196407,48.748545],[2.6220497,48.7471374],[2.6231305,48.7477285],[2.6233831,48.7478159],[2.6238229,48.7478911],[2.6244586,48.7479054],[2.624865,48.7479905],[2.6257519,48.74827],[2.6266722,48.7486808],[2.6272049,48.7488302],[2.6298455,48.7491516],[2.6306017,48.7493226],[2.6313245,48.7495842],[2.6320635,48.7500059],[2.6284948,48.7541715],[2.6281423,48.7539161]]]]},"properties":{"code_section":"77249000AK","code_commune":"77249","section_courte":"AK"}},{"type":"Feature","geometry":{"type":"MultiPolygon","coordinates":[[[[2.6349884,48.7490311],[2.6350416,48.7490417],[2.634745,48.7496107],[2.6344112,48.7498192],[2.6331911,48.7501662],[2.6327402,48.7502213],[2.6323655,48.7501515],[2.6313245,48.7495842],[2.6306017,48.7493226],[2.6298455,48.7491516],[2.6272049,48.7488302],[2.6266722,48.7486808],[2.6257519,48.74827],[2.625912,48.7479014],[2.6261619,48.7475353],[2.6265813,48.7472185],[2.6271241,48.7467412],[2.6276635,48.7463533],[2.6279413,48.7466389],[2.628565,48.7470209],[2.6288765,48.7471432],[2.6296243,48.7472588],[2.6301299,48.7473811],[2.6303892,48.7472392],[2.6304681,48.7472491],[2.6335658,48.748708],[2.6342209,48.7489478],[2.6346396,48.7490164],[2.6349884,48.7490311]]]]},"properties":{"code_section":"77249000AL","code_commune":"77249","section_courte":"AL"}},{"type":"Feature","geometry":{"type":"MultiPolygon","coordinates":[[[[2.627638,48.746368],[2.6271241,48.7467412],[2.6265813,48.7472185],[2.6261619,48.7475353],[2.625912,48.7479014],[2.6257519,48.74827],[2.6246274,48.747933],[2.6244586,48.7479054],[2.6238229,48.7478911],[2.6233831,48.7478159],[2.6231305,48.7477285],[2.6216736,48.746935],[2.6212755,48.7468215],[2.6207321,48.7467892],[2.6203682,48.7466782],[2.620311,48.7465709],[2.6201341,48.7464902],[2.6200734,48.7463834],[2.6199645,48.7464081],[2.6195055,48.7461793],[2.6185204,48.7454529],[2.6228326,48.7427813],[2.6267914,48.7455264],[2.6271077,48.7458587],[2.6272679,48.7461206],[2.6274966,48.7462176],[2.6276635,48.7463533],[2.627638,48.746368]]]]},"properties":{"code_section":"77249000AM","code_commune":"77249","section_courte":"AM"}},{"type":"Feature","geometry":{"type":"MultiPolygon","coordinates":[[[[2.6202911,48.7481696],[2.6196407,48.748545],[2.6187564,48.7476729],[2.6168481,48.7485708],[2.6155383,48.747331],[2.6154134,48.7466886],[2.6146342,48.7454933],[2.6145046,48.7453843],[2.6142842,48.7452784],[2.6137732,48.7451422],[2.6136687,48.7450581],[2.6135259,48.7447615],[2.613405,48.7446642],[2.6131517,48.7445393],[2.6127903,48.7445544],[2.6135333,48.7437505],[2.6133339,48.7427353],[2.6137751,48.7426962],[2.6140807,48.7423961],[2.6142244,48.7424475],[2.6147807,48.7418443],[2.6168317,48.7426015],[2.6161271,48.7434191],[2.6161882,48.7434161],[2.6174832,48.7440599],[2.6175322,48.7442128],[2.6176418,48.7442],[2.6187635,48.7447646],[2.618797,48.7447355],[2.6192779,48.7449794],[2.6185204,48.7454529],[2.6195055,48.7461793],[2.6199645,48.7464081],[2.6200734,48.7463834],[2.6201341,48.7464902],[2.620311,48.7465709],[2.6203682,48.7466782],[2.6207321,48.7467892],[2.6210823,48.7467992],[2.6214764,48.7468629],[2.6216736,48.746935],[2.6220497,48.7471374],[2.6202911,48.7481696]]]]},"properties":{"code_section":"77249000AN","code_commune":"77249","section_courte":"AN"}},{"type":"Feature","geometry":{"type":"MultiPolygon","coordinates":[[[[2.613365,48.747194],[2.6131671,48.7460663],[2.6120232,48.7458755],[2.6107509,48.7472733],[2.6087063,48.7454953],[2.612424,48.7442335],[2.6127903,48.7445544],[2.6131517,48.7445393],[2.613405,48.7446642],[2.6135259,48.7447615],[2.6136687,48.7450581],[2.6137732,48.7451422],[2.6142842,48.7452784],[2.6145046,48.7453843],[2.6146342,48.7454933],[2.6154134,48.7466886],[2.6155383,48.747331],[2.6168481,48.7485708],[2.6187564,48.7476729],[2.6194442,48.7483724],[2.6193539,48.7483978],[2.6194611,48.7487039],[2.6192649,48.7487587],[2.6190927,48.7488731],[2.6190378,48.7490996],[2.6185825,48.7491138],[2.6185738,48.7494606],[2.6189733,48.7494476],[2.6190392,48.7500045],[2.614915,48.7502035],[2.6153195,48.7513681],[2.6142609,48.7515125],[2.6140067,48.7498201],[2.6128032,48.750396],[2.6123601,48.749916],[2.6124455,48.749513],[2.6126311,48.749335],[2.6131459,48.7489845],[2.6132751,48.748845],[2.6133737,48.7486563],[2.6134028,48.7478922],[2.613365,48.747194]]]]},"properties":{"code_section":"77249000AO","code_commune":"77249","section_courte":"AO"}},{"type":"Feature","geometry":{"type":"MultiPolygon","coordinates":[[[[2.6067067,48.7461841],[2.6057392,48.7464924],[2.604309,48.7464754],[2.6040946,48.746357],[2.6040058,48.7458443],[2.6018604,48.74412],[2.6020784,48.7435253],[2.601429,48.743021],[2.6013836,48.7428458],[2.6009425,48.7427879],[2.6009686,48.7425931],[2.6014683,48.7425995],[2.6013318,48.7415303],[2.6007794,48.7415494],[2.6007687,48.7413428],[2.6013076,48.741338],[2.6011649,48.7404275],[2.601416,48.7403141],[2.6015529,48.7404336],[2.6018963,48.7406234],[2.6031227,48.7410366],[2.6033704,48.7411975],[2.6034665,48.7413054],[2.6036578,48.7416478],[2.6037971,48.741809],[2.6039981,48.7419286],[2.6043964,48.7420111],[2.6055233,48.7420185],[2.6057425,48.7408779],[2.608254,48.7406977],[2.6102843,48.7424926],[2.612424,48.7442335],[2.6067067,48.7461841]]]]},"properties":{"code_section":"77249000AP","code_commune":"77249","section_courte":"AP"}},{"type":"Feature","geometry":{"type":"MultiPolygon","coordinates":[[[[2.6042101,48.7464223],[2.604309,48.7464754],[2.5958232,48.7471851],[2.5960968,48.7467451],[2.5959231,48.7466744],[2.5957841,48.7465369],[2.5954922,48.745943],[2.5957991,48.7450253],[2.5959055,48.7449119],[2.5964837,48.7432679],[2.5965406,48.7428582],[2.5963793,48.7428479],[2.5964313,48.7424994],[2.5967629,48.7424157],[2.5976613,48.7417969],[2.5983844,48.7417902],[2.5989429,48.7420056],[2.5991617,48.7420235],[2.599543,48.7420147],[2.6001151,48.7419195],[2.6007447,48.7418587],[2.6007677,48.7419796],[2.6013825,48.7419279],[2.6014683,48.7425995],[2.6009686,48.7425931],[2.6009425,48.7427879],[2.6013836,48.7428458],[2.601429,48.743021],[2.6020784,48.7435253],[2.6018604,48.74412],[2.6040058,48.7458443],[2.6040946,48.746357],[2.6042101,48.7464223]]]]},"properties":{"code_section":"77249000AR","code_commune":"77249","section_courte":"AR"}},{"type":"Feature","geometry":{"type":"MultiPolygon","coordinates":[[[[2.5901014,48.7452104],[2.5890057,48.743475],[2.5960194,48.744587],[2.5959055,48.7449119],[2.5957991,48.7450253],[2.5954922,48.745943],[2.5957841,48.7465369],[2.5959231,48.7466744],[2.5960968,48.7467451],[2.5958232,48.7471851],[2.5916523,48.747585],[2.5912744,48.747242],[2.5906301,48.7468726],[2.5899593,48.746197],[2.5905376,48.7454328],[2.5901279,48.7452545],[2.5901014,48.7452104]]]]},"properties":{"code_section":"77249000AS","code_commune":"77249","section_courte":"AS"}},{"type":"Feature","geometry":{"type":"MultiPolygon","coordinates":[[[[2.5964837,48.7432679],[2.5960194,48.744587],[2.5890057,48.743475],[2.5901279,48.7452545],[2.587776,48.7441787],[2.5876213,48.744228],[2.5850835,48.7418445],[2.5891132,48.740234],[2.5903171,48.7395565],[2.5911249,48.7388262],[2.5954947,48.739213],[2.5955025,48.7390202],[2.5956592,48.7390382],[2.5956544,48.7395575],[2.5958922,48.7394385],[2.5965712,48.7392894],[2.5969628,48.7392663],[2.5969449,48.7395749],[2.5967302,48.7395877],[2.5968146,48.7399137],[2.5969849,48.7402091],[2.5969485,48.7404976],[2.5965299,48.7404216],[2.5964547,48.7406257],[2.5964499,48.7407971],[2.5965122,48.7409779],[2.5970387,48.7408497],[2.5972897,48.7414681],[2.5973599,48.7417466],[2.5971928,48.7420066],[2.5969154,48.7422185],[2.5965891,48.7423822],[2.5961812,48.7424989],[2.5961335,48.7427411],[2.5963931,48.7427563],[2.5963793,48.7428479],[2.5965406,48.7428582],[2.5964837,48.7432679]]]]},"properties":{"code_section":"77249000AT","code_commune":"77249","section_courte":"AT"}},{"type":"Feature","geometry":{"type":"MultiPolygon","coordinates":[[[[2.5983844,48.7417902],[2.5976613,48.7417969],[2.5967629,48.7424157],[2.5964313,48.7424994],[2.5963931,48.7427563],[2.5961335,48.7427411],[2.5961812,48.7424989],[2.5965891,48.7423822],[2.5969154,48.7422185],[2.5971928,48.7420066],[2.5973599,48.7417466],[2.5972897,48.7414681],[2.5970387,48.7408497],[2.5965122,48.7409779],[2.5964499,48.7407971],[2.5964547,48.7406257],[2.5965299,48.7404216],[2.5969485,48.7404976],[2.5969849,48.7402091],[2.5968146,48.7399137],[2.5967302,48.7395877],[2.5969449,48.7395749],[2.5969628,48.7392663],[2.5965712,48.7392894],[2.5958922,48.7394385],[2.5956544,48.7395575],[2.5956592,48.7390382],[2.5955025,48.7390202],[2.5954947,48.739213],[2.5911249,48.7388262],[2.5914557,48.7385316],[2.591612,48.7385178],[2.5914474,48.7375103],[2.5957454,48.7364601],[2.5957882,48.7364791],[2.5956565,48.7383336],[2.5973618,48.7380045],[2.5978461,48.7381204],[2.5979998,48.7378305],[2.5984282,48.737879],[2.5982269,48.7383146],[2.5982606,48.7384591],[2.5983937,48.7385629],[2.5981333,48.738834],[2.5983539,48.7389092],[2.5986096,48.7385235],[2.5990643,48.7383616],[2.5998099,48.7383035],[2.6006539,48.7380629],[2.6008455,48.7382717],[2.601135,48.7384587],[2.6009025,48.7386608],[2.6008076,48.7387919],[2.6007351,48.7391619],[2.6008162,48.739392],[2.601416,48.7403141],[2.6011649,48.7404275],[2.6013076,48.741338],[2.6007687,48.7413428],[2.6007794,48.7415494],[2.6013318,48.7415303],[2.6013825,48.7419279],[2.6007677,48.7419796],[2.6007447,48.7418587],[2.6001151,48.7419195],[2.599543,48.7420147],[2.5991617,48.7420235],[2.5989429,48.7420056],[2.5983844,48.7417902]]]]},"properties":{"code_section":"77249000AV","code_commune":"77249","section_courte":"AV"}},{"type":"Feature","geometry":{"type":"MultiPolygon","coordinates":[[[[2.60692,48.7385905],[2.6079711,48.7404614],[2.608254,48.7406977],[2.6057425,48.7408779],[2.6055233,48.7420185],[2.6043964,48.7420111],[2.6041164,48.7419664],[2.6038826,48.7418692],[2.6037189,48.7417347],[2.6034665,48.7413054],[2.6032678,48.7411193],[2.6029677,48.7409735],[2.6018963,48.7406234],[2.6015529,48.7404336],[2.6012473,48.7400977],[2.6007533,48.7392485],[2.6007363,48.7390225],[2.6008076,48.7387919],[2.6010046,48.7385579],[2.6012591,48.7383861],[2.6014302,48.7383112],[2.6028821,48.7379931],[2.6042299,48.7379021],[2.6046003,48.7378461],[2.6049962,48.7376781],[2.605607,48.7371593],[2.6060193,48.7369927],[2.60692,48.7385905]]]]},"properties":{"code_section":"77249000AW","code_commune":"77249","section_courte":"AW"}},{"type":"Feature","geometry":{"type":"MultiPolygon","coordinates":[[[[2.5976801,48.7335181],[2.5980567,48.7335986],[2.5985442,48.7336552],[2.599169,48.7336719],[2.5999068,48.7336435],[2.600761,48.7335386],[2.6014127,48.7334029],[2.6021273,48.7331887],[2.6022567,48.733135],[2.6024742,48.7329772],[2.6037907,48.7329664],[2.6052198,48.7356233],[2.6060193,48.7369927],[2.605607,48.7371593],[2.6049962,48.7376781],[2.6046003,48.7378461],[2.6042299,48.7379021],[2.6031167,48.7379657],[2.6026631,48.7380307],[2.6016029,48.7382601],[2.6014302,48.7383112],[2.601135,48.7384587],[2.6008455,48.7382717],[2.6006539,48.7380629],[2.5998099,48.7383035],[2.5990643,48.7383616],[2.5986096,48.7385235],[2.5983539,48.7389092],[2.5981333,48.738834],[2.5983937,48.7385629],[2.5982606,48.7384591],[2.5982269,48.7383146],[2.5984282,48.737879],[2.5979998,48.7378305],[2.5978461,48.7381204],[2.5973618,48.7380045],[2.5956565,48.7383336],[2.5957882,48.7364791],[2.5944833,48.7359023],[2.5946264,48.7357363],[2.5946097,48.7356953],[2.593894,48.7355073],[2.5946798,48.7321868],[2.5950966,48.7322815],[2.5956472,48.7326745],[2.5962544,48.7329914],[2.5970708,48.7333162],[2.5976801,48.7335181]]]]},"properties":{"code_section":"77249000AX","code_commune":"77249","section_courte":"AX"}},{"type":"Feature","geometry":{"type":"MultiPolygon","coordinates":[[[[2.5976801,48.7335181],[2.5970708,48.7333162],[2.5962544,48.7329914],[2.5956472,48.7326745],[2.5950966,48.7322815],[2.5946798,48.7321868],[2.5947445,48.7319153],[2.595588,48.7303461],[2.5966328,48.7308411],[2.6001892,48.7286079],[2.6018314,48.7296333],[2.6020071,48.7298246],[2.6037907,48.7329664],[2.6024742,48.7329772],[2.6022567,48.733135],[2.6021273,48.7331887],[2.6014127,48.7334029],[2.600761,48.7335386],[2.5999068,48.7336435],[2.599169,48.7336719],[2.5985442,48.7336552],[2.5980567,48.7335986],[2.5976801,48.7335181]]]]},"properties":{"code_section":"77249000AY","code_commune":"77249","section_courte":"AY"}}]}