{"type":"FeatureCollection","features":[{"type":"Feature","geometry":{"type":"MultiPolygon","coordinates":[[[[2.6927418,48.5138669],[2.6917443,48.5144969],[2.6920696,48.514908],[2.6911732,48.5153797],[2.6911902,48.5154229],[2.6910364,48.5152836],[2.6888745,48.5163593],[2.6891289,48.5168171],[2.6895144,48.5172323],[2.6891285,48.5172472],[2.687862,48.5174216],[2.6875268,48.5174435],[2.6861071,48.5174419],[2.6858713,48.5156047],[2.6855948,48.5156164],[2.6855788,48.5155082],[2.685522,48.5154762],[2.685328,48.5138179],[2.6855318,48.5137519],[2.6862336,48.5134076],[2.6864803,48.5133382],[2.6869316,48.5132732],[2.687254,48.5131748],[2.688145,48.5128584],[2.6891038,48.5124682],[2.6894,48.5122459],[2.6897697,48.5117282],[2.6917544,48.5129028],[2.693865,48.5112996],[2.6957294,48.5114071],[2.6957279,48.5114843],[2.6953669,48.5117045],[2.6951161,48.5119794],[2.6949268,48.512521],[2.6945682,48.5130975],[2.6944231,48.5134193],[2.6941469,48.5137398],[2.6935409,48.5133645],[2.6927418,48.5138669]]]]},"properties":{"code_section":"772550000A","code_commune":"77255","section_courte":"A"}},{"type":"Feature","geometry":{"type":"MultiPolygon","coordinates":[[[[2.6900908,48.5060369],[2.6899055,48.5058482],[2.6859919,48.5074861],[2.6860726,48.5067308],[2.6836124,48.5063355],[2.6838046,48.5056011],[2.6829248,48.5054252],[2.6826973,48.5053028],[2.6823928,48.505231],[2.6835583,48.5038425],[2.6839824,48.5032384],[2.6842014,48.5027972],[2.6850652,48.501605],[2.685455,48.5012761],[2.6856828,48.5012001],[2.6857256,48.5012713],[2.6858924,48.5013035],[2.6861304,48.5012521],[2.6862256,48.501065],[2.6865207,48.5007845],[2.6874069,48.4994398],[2.6881062,48.4988615],[2.688449,48.4986983],[2.6888245,48.4984612],[2.6894162,48.4979805],[2.6904704,48.4987832],[2.691109,48.4993146],[2.6914866,48.4996609],[2.6922447,48.5005363],[2.6932485,48.5004113],[2.6940674,48.5002084],[2.6951837,48.4997976],[2.6957105,48.4995025],[2.6960094,48.4997426],[2.6978023,48.4986383],[2.7004854,48.5000842],[2.7017944,48.5007543],[2.7022328,48.500176],[2.7023923,48.5003135],[2.7039491,48.5011142],[2.7054767,48.5014998],[2.7050476,48.5048391],[2.7050044,48.50538],[2.7050563,48.506351],[2.7075561,48.5063745],[2.7079488,48.5068946],[2.7096412,48.5069144],[2.7094943,48.5077094],[2.7094209,48.5083782],[2.7091224,48.5085188],[2.7089353,48.508783],[2.7083567,48.5089131],[2.7076601,48.5089545],[2.7068197,48.5087595],[2.7059369,48.5086592],[2.7057859,48.5086849],[2.7054426,48.5088784],[2.7051586,48.508952],[2.7039947,48.5128763],[2.7036523,48.5127487],[2.7024394,48.5125737],[2.7027219,48.5118462],[2.7019718,48.5111697],[2.6994131,48.5105979],[2.6993619,48.5106508],[2.6975832,48.5103018],[2.6971463,48.5106306],[2.6962963,48.5110862],[2.6957279,48.5114843],[2.6957294,48.5114071],[2.6954595,48.5113743],[2.6946173,48.5095846],[2.6933681,48.5092892],[2.6932901,48.5092896],[2.693138,48.5094101],[2.693061,48.5094169],[2.693385,48.5088047],[2.6916327,48.5078519],[2.691666,48.5077179],[2.6914176,48.5074243],[2.6900908,48.5060369]]]]},"properties":{"code_section":"772550000B","code_commune":"77255","section_courte":"B"}},{"type":"Feature","geometry":{"type":"MultiPolygon","coordinates":[[[[2.6769486,48.4904449],[2.6845286,48.4941614],[2.6845632,48.4941722],[2.6846167,48.4939192],[2.68562,48.4944623],[2.6837281,48.4962849],[2.6836694,48.4966403],[2.686099,48.4976883],[2.686038,48.4946888],[2.6863811,48.49487],[2.6864699,48.4977265],[2.6865622,48.4978774],[2.686658,48.4979276],[2.688449,48.4986983],[2.6881062,48.4988615],[2.6874069,48.4994398],[2.6865207,48.5007845],[2.6862256,48.501065],[2.6861304,48.5012521],[2.6858924,48.5013035],[2.6857256,48.5012713],[2.6856828,48.5012001],[2.685455,48.5012761],[2.6850406,48.5016326],[2.6842014,48.5027972],[2.6839824,48.5032384],[2.6835285,48.5038815],[2.6823928,48.505231],[2.6810652,48.5069257],[2.6797793,48.5084859],[2.6778759,48.5112487],[2.6766116,48.5133516],[2.6763238,48.5137661],[2.6757728,48.514347],[2.6748053,48.5150763],[2.6748608,48.5152004],[2.6752553,48.5152422],[2.6753865,48.5152828],[2.6724077,48.5149677],[2.6723218,48.5149064],[2.6722945,48.51297],[2.6714716,48.5128893],[2.6700512,48.5130523],[2.6700474,48.5109363],[2.6702945,48.5080654],[2.670214,48.504207],[2.670365,48.5035599],[2.6705399,48.5023452],[2.670986,48.5008841],[2.6716184,48.4974714],[2.6717328,48.4965619],[2.6718242,48.4941269],[2.6719007,48.4936559],[2.6721444,48.4924292],[2.67226,48.4920759],[2.6725279,48.4914892],[2.6730279,48.4906006],[2.6760197,48.4916598],[2.6769486,48.4904449]]]]},"properties":{"code_section":"772550000C","code_commune":"77255","section_courte":"C"}},{"type":"Feature","geometry":{"type":"MultiPolygon","coordinates":[[[[2.6859403,48.5174391],[2.6853734,48.5174266],[2.684867,48.5173787],[2.6843237,48.517143],[2.6836927,48.5168066],[2.6836433,48.5166877],[2.683483,48.5165101],[2.6832877,48.5163582],[2.6823498,48.5161715],[2.6821384,48.5170016],[2.6803635,48.5168452],[2.6793304,48.5167861],[2.6793119,48.5168611],[2.6786578,48.5168119],[2.6772867,48.5165516],[2.6772497,48.5166316],[2.6762102,48.5163908],[2.6745824,48.5162714],[2.6747474,48.5159457],[2.6754705,48.5152922],[2.6748608,48.5152004],[2.6748053,48.5150763],[2.6757728,48.514347],[2.6763238,48.5137661],[2.6766116,48.5133516],[2.6777596,48.5135409],[2.6778108,48.5133956],[2.6798358,48.5136048],[2.6809376,48.5137736],[2.6822213,48.5139304],[2.6841656,48.5142529],[2.6843689,48.5139323],[2.685328,48.5138179],[2.685522,48.5154762],[2.6855788,48.5155082],[2.6855948,48.5156164],[2.6858713,48.5156047],[2.6861071,48.5174419],[2.6859403,48.5174391]]]]},"properties":{"code_section":"77255000AB","code_commune":"77255","section_courte":"AB"}},{"type":"Feature","geometry":{"type":"MultiPolygon","coordinates":[[[[2.6809376,48.5137736],[2.6798358,48.5136048],[2.6778108,48.5133956],[2.6777596,48.5135409],[2.6766116,48.5133516],[2.6778759,48.5112487],[2.6791956,48.5093341],[2.6795216,48.5094281],[2.679496,48.5094684],[2.6798205,48.5095687],[2.6814933,48.5098828],[2.6819264,48.5099066],[2.6833338,48.5098896],[2.684153,48.5104517],[2.6843031,48.510705],[2.6843232,48.511018],[2.6846144,48.5111572],[2.6848619,48.511226],[2.6856589,48.511098],[2.6869114,48.5112236],[2.6874601,48.5112599],[2.6877785,48.5112426],[2.688185,48.51119],[2.6891586,48.5108313],[2.6896068,48.5108578],[2.6900374,48.5109494],[2.6903703,48.5111127],[2.6902021,48.5111884],[2.6899548,48.5114694],[2.6894,48.5122459],[2.6891038,48.5124682],[2.688145,48.5128584],[2.687254,48.5131748],[2.6869316,48.5132732],[2.6864803,48.5133382],[2.6862336,48.5134076],[2.6855318,48.5137519],[2.685328,48.5138179],[2.6843689,48.5139323],[2.6841656,48.5142529],[2.6822213,48.5139304],[2.6809376,48.5137736]]]]},"properties":{"code_section":"77255000AC","code_commune":"77255","section_courte":"AC"}},{"type":"Feature","geometry":{"type":"MultiPolygon","coordinates":[[[[2.6846144,48.5111572],[2.6843232,48.511018],[2.6843031,48.510705],[2.684153,48.5104517],[2.6833338,48.5098896],[2.6819264,48.5099066],[2.6814933,48.5098828],[2.6798205,48.5095687],[2.679496,48.5094684],[2.6795216,48.5094281],[2.6791956,48.5093341],[2.6797793,48.5084859],[2.6810652,48.5069257],[2.6823928,48.505231],[2.6826973,48.5053028],[2.6829248,48.5054252],[2.6838046,48.5056011],[2.6836124,48.5063355],[2.6860726,48.5067308],[2.6859919,48.5074861],[2.6899055,48.5058482],[2.691666,48.5077179],[2.6913591,48.5082064],[2.6909056,48.5087895],[2.6908674,48.5091144],[2.6908012,48.5092593],[2.6905255,48.5096115],[2.6894064,48.5105486],[2.6891586,48.5108313],[2.688185,48.51119],[2.6874601,48.5112599],[2.6862872,48.5111743],[2.6856589,48.511098],[2.6848619,48.511226],[2.6846144,48.5111572]]]]},"properties":{"code_section":"77255000AD","code_commune":"77255","section_courte":"AD"}},{"type":"Feature","geometry":{"type":"MultiPolygon","coordinates":[[[[2.6894064,48.5105486],[2.6905255,48.5096115],[2.6908012,48.5092593],[2.6908674,48.5091144],[2.6909056,48.5087895],[2.691614,48.5078339],[2.693385,48.5088047],[2.693061,48.5094169],[2.693138,48.5094101],[2.6932901,48.5092896],[2.6933681,48.5092892],[2.6946173,48.5095846],[2.6954595,48.5113743],[2.693865,48.5112996],[2.6917544,48.5129028],[2.6897697,48.5117282],[2.6902021,48.5111884],[2.6903703,48.5111127],[2.6900374,48.5109494],[2.6896068,48.5108578],[2.6891586,48.5108313],[2.6894064,48.5105486]]]]},"properties":{"code_section":"77255000AE","code_commune":"77255","section_courte":"AE"}},{"type":"Feature","geometry":{"type":"MultiPolygon","coordinates":[[[[2.6864538,48.4973536],[2.6863811,48.49487],[2.686443,48.4949359],[2.6884697,48.4960628],[2.6885357,48.4960131],[2.6903605,48.4970324],[2.6894665,48.4979484],[2.6888245,48.4984612],[2.688449,48.4986983],[2.6865622,48.4978774],[2.6864699,48.4977265],[2.6864538,48.4973536]]],[[[2.6843552,48.495677],[2.6855983,48.4944698],[2.686038,48.4947126],[2.686099,48.4976883],[2.6836694,48.4966403],[2.6837281,48.4962849],[2.6843552,48.495677]]]]},"properties":{"code_section":"77255000ZA","code_commune":"77255","section_courte":"ZA"}},{"type":"Feature","geometry":{"type":"MultiPolygon","coordinates":[[[[2.7064206,48.5048724],[2.7075561,48.5063745],[2.7050563,48.506351],[2.7050044,48.50538],[2.7050476,48.5048391],[2.7054767,48.5014998],[2.7064594,48.5017472],[2.7065124,48.5020593],[2.706426,48.5023542],[2.7062149,48.502587],[2.7059261,48.5032156],[2.7062854,48.5046618],[2.7064206,48.5048724]]]]},"properties":{"code_section":"77255000ZB","code_commune":"77255","section_courte":"ZB"}}]}