{"type":"FeatureCollection","features":[{"type":"Feature","geometry":{"type":"MultiPolygon","coordinates":[[[[2.6181586,48.5444559],[2.6159568,48.5458118],[2.6111051,48.5424965],[2.6096902,48.5410285],[2.6099332,48.5408672],[2.6108297,48.5400819],[2.6111421,48.5397001],[2.6108902,48.5396331],[2.6108049,48.5392086],[2.6108491,48.5392099],[2.6108156,48.5391376],[2.6108519,48.5388975],[2.6109703,48.5384466],[2.6113897,48.5372003],[2.6114426,48.5368329],[2.6113876,48.5366828],[2.6127936,48.5359156],[2.6135416,48.5356601],[2.6141829,48.5354843],[2.6143489,48.535444],[2.6145273,48.535458],[2.6145943,48.5354342],[2.6159723,48.5348167],[2.6172623,48.5342933],[2.6187289,48.536177],[2.6187876,48.5361381],[2.6189168,48.5363016],[2.6204868,48.5394332],[2.620206,48.5396892],[2.6201011,48.5399352],[2.6197203,48.5402494],[2.6210944,48.5406402],[2.6215668,48.5407315],[2.622463,48.5401751],[2.6223838,48.5404271],[2.6223913,48.540589],[2.6225104,48.540719],[2.6228161,48.5409394],[2.6229091,48.5411292],[2.6228335,48.5413022],[2.6205371,48.5428905],[2.6181586,48.5444559]]]]},"properties":{"code_section":"772850000C","code_commune":"77285","section_courte":"C"}},{"type":"Feature","geometry":{"type":"MultiPolygon","coordinates":[[[[2.6354264,48.5508812],[2.6354049,48.5509222],[2.6331583,48.5508779],[2.6328122,48.5508927],[2.6323055,48.5509607],[2.6314572,48.5511328],[2.631218,48.5511533],[2.6305209,48.551088],[2.6299391,48.5511017],[2.6294885,48.5511444],[2.628076,48.5513098],[2.6281249,48.5513859],[2.6269475,48.5510525],[2.6249113,48.5508232],[2.6239673,48.550814],[2.6235996,48.5507836],[2.6228411,48.5505936],[2.6226681,48.5504901],[2.6225317,48.5503285],[2.6224915,48.5501752],[2.6225121,48.5499388],[2.6228981,48.5495176],[2.6231787,48.5491448],[2.6239177,48.5485956],[2.6239134,48.5485516],[2.624338,48.5483305],[2.6250684,48.5480587],[2.625492,48.5474682],[2.625894,48.547219],[2.6265211,48.5469799],[2.6268695,48.5467474],[2.6281073,48.5455512],[2.6282586,48.5453673],[2.6284355,48.5448204],[2.6286402,48.5446491],[2.6293764,48.5443562],[2.6306525,48.5443619],[2.6312767,48.5444594],[2.6317259,48.5444278],[2.6318371,48.5448734],[2.6321504,48.5455298],[2.6325047,48.5460312],[2.6330346,48.5465846],[2.6337875,48.5471497],[2.6344115,48.5474973],[2.635118,48.5478075],[2.6361845,48.5481408],[2.6362472,48.5482842],[2.6363045,48.5487139],[2.6363577,48.5495454],[2.6354264,48.5508812]]]]},"properties":{"code_section":"77285000BA","code_commune":"77285","section_courte":"BA"}},{"type":"Feature","geometry":{"type":"MultiPolygon","coordinates":[[[[2.6294592,48.5533654],[2.628076,48.5513098],[2.6299391,48.5511017],[2.6305209,48.551088],[2.631218,48.5511533],[2.6314572,48.5511328],[2.6323055,48.5509607],[2.6329926,48.5508813],[2.6354049,48.5509222],[2.6363577,48.5495454],[2.6363045,48.5487139],[2.6362472,48.5482842],[2.6361845,48.5481408],[2.6381555,48.5485678],[2.6397101,48.5488665],[2.639679,48.5490945],[2.639737,48.549347],[2.6398569,48.5495256],[2.6401117,48.5497227],[2.6404498,48.5498788],[2.6404544,48.5499525],[2.6402015,48.5500692],[2.6380523,48.5507203],[2.6360666,48.5512552],[2.6349492,48.5516151],[2.6320343,48.5524794],[2.6302189,48.5530503],[2.6294592,48.5533654]]]]},"properties":{"code_section":"77285000BC","code_commune":"77285","section_courte":"BC"}},{"type":"Feature","geometry":{"type":"MultiPolygon","coordinates":[[[[2.6323055,48.5429871],[2.6323165,48.5429445],[2.6357786,48.5433244],[2.6355145,48.5443887],[2.6331463,48.5441495],[2.6329478,48.5450241],[2.6335988,48.5451567],[2.6352771,48.5454231],[2.6351576,48.5459598],[2.6351753,48.546132],[2.635323,48.5463265],[2.6354705,48.5464166],[2.6356545,48.5464783],[2.6382334,48.5468364],[2.6384553,48.5467999],[2.6390845,48.5465291],[2.6396363,48.5465611],[2.6395747,48.546823],[2.6396121,48.5470945],[2.6403393,48.5483119],[2.6399048,48.5486224],[2.6397101,48.5488665],[2.6368713,48.5482981],[2.6355971,48.5479723],[2.634875,48.5477094],[2.6342823,48.5474316],[2.6337875,48.5471497],[2.6332139,48.5467327],[2.6327458,48.5462994],[2.6323063,48.5457805],[2.6319773,48.5452052],[2.6318371,48.5448734],[2.6317359,48.5444718],[2.6316158,48.5437657],[2.6315729,48.5428203],[2.6320389,48.5429136],[2.6320385,48.542953],[2.6323055,48.5429871]]]]},"properties":{"code_section":"77285000BD","code_commune":"77285","section_courte":"BD"}},{"type":"Feature","geometry":{"type":"MultiPolygon","coordinates":[[[[2.6316929,48.5442667],[2.6317259,48.5444278],[2.6312767,48.5444594],[2.6306525,48.5443619],[2.6293764,48.5443562],[2.6286402,48.5446491],[2.6284355,48.5448204],[2.6282586,48.5453673],[2.6281073,48.5455512],[2.6268695,48.5467474],[2.6265211,48.5469799],[2.625894,48.547219],[2.625492,48.5474682],[2.6250684,48.5480587],[2.624338,48.5483305],[2.6239134,48.5485516],[2.6236921,48.5462588],[2.6257136,48.5462268],[2.6259889,48.5461637],[2.6261938,48.5460501],[2.6263154,48.5459144],[2.6263753,48.5457301],[2.6263879,48.5441883],[2.6264629,48.5440823],[2.6269306,48.5437741],[2.6267202,48.543634],[2.6281767,48.5426719],[2.6283872,48.5424739],[2.629779,48.5424403],[2.6300134,48.5425617],[2.6302886,48.5426504],[2.6315729,48.5428203],[2.6316021,48.543603],[2.6316929,48.5442667]]]]},"properties":{"code_section":"77285000BE","code_commune":"77285","section_courte":"BE"}},{"type":"Feature","geometry":{"type":"MultiPolygon","coordinates":[[[[2.6209447,48.5467322],[2.6181702,48.5470896],[2.6176902,48.547093],[2.6159568,48.5458118],[2.6187417,48.5440867],[2.6205371,48.5428905],[2.6232058,48.541043],[2.6245915,48.5419678],[2.6248142,48.5421992],[2.6249163,48.5425394],[2.6249133,48.5434405],[2.6255493,48.5434436],[2.6255499,48.5432695],[2.6261775,48.5432724],[2.6269306,48.5437741],[2.6264629,48.5440823],[2.6263879,48.5441883],[2.6263761,48.545707],[2.6263351,48.5458794],[2.6262375,48.5460118],[2.6260861,48.5461205],[2.6259339,48.5461821],[2.625694,48.5462284],[2.6210954,48.5462951],[2.6209447,48.5467322]]]]},"properties":{"code_section":"77285000BH","code_commune":"77285","section_courte":"BH"}},{"type":"Feature","geometry":{"type":"MultiPolygon","coordinates":[[[[2.6269725,48.5406058],[2.629779,48.5424403],[2.6283872,48.5424739],[2.6281767,48.5426719],[2.6267202,48.543634],[2.6261775,48.5432724],[2.6255499,48.5432695],[2.6255493,48.5434436],[2.6249133,48.5434405],[2.6249163,48.5425394],[2.6248142,48.5421992],[2.6245915,48.5419678],[2.6232058,48.541043],[2.6242756,48.5402858],[2.6254464,48.5395865],[2.6269725,48.5406058]]]]},"properties":{"code_section":"77285000BI","code_commune":"77285","section_courte":"BI"}},{"type":"Feature","geometry":{"type":"MultiPolygon","coordinates":[[[[2.6333178,48.539724],[2.6332597,48.5399458],[2.6342715,48.5400878],[2.6342097,48.540298],[2.6337843,48.540246],[2.633579,48.5411322],[2.6327533,48.5410504],[2.6323055,48.5429871],[2.6320385,48.542953],[2.6320389,48.5429136],[2.6312991,48.542768],[2.6302886,48.5426504],[2.6298908,48.5425059],[2.6283459,48.5415209],[2.6254464,48.5395865],[2.6272955,48.5383511],[2.6283154,48.537542],[2.6289872,48.5378413],[2.6292115,48.5378929],[2.6296411,48.5377323],[2.6297889,48.5376232],[2.6302811,48.5377567],[2.6313859,48.5381444],[2.6336082,48.5386273],[2.6333178,48.539724]]]]},"properties":{"code_section":"77285000BK","code_commune":"77285","section_courte":"BK"}},{"type":"Feature","geometry":{"type":"MultiPolygon","coordinates":[[[[2.623915,48.538942],[2.6237921,48.539014],[2.6239781,48.5388913],[2.6239768,48.538803],[2.6229258,48.5380956],[2.6229935,48.5379748],[2.6228428,48.5378702],[2.6228042,48.5377828],[2.6235825,48.5368411],[2.6238598,48.53628],[2.6231465,48.5371154],[2.6230183,48.5371259],[2.6222312,48.5366013],[2.6220905,48.5366972],[2.62078,48.5358215],[2.6206786,48.5358836],[2.620185,48.5355545],[2.6200894,48.5356176],[2.6198026,48.5354246],[2.6200892,48.5352344],[2.6203025,48.5353792],[2.6210238,48.5349019],[2.6211725,48.5347646],[2.6229457,48.5353851],[2.6236554,48.5343852],[2.6242619,48.5344771],[2.6242818,48.5344235],[2.6244304,48.5344448],[2.6244875,48.5344535],[2.6244647,48.5345137],[2.6251446,48.5346364],[2.6252624,48.5346241],[2.6266567,48.5350538],[2.6264545,48.5351765],[2.626578,48.535211],[2.6264825,48.5353627],[2.6265313,48.535624],[2.6274192,48.5357223],[2.6273549,48.5360218],[2.6272078,48.5359921],[2.6268256,48.5365706],[2.6264808,48.5365709],[2.6263616,48.5366994],[2.6264197,48.5367588],[2.6272481,48.5371301],[2.6262578,48.5376525],[2.6241672,48.5390258],[2.623915,48.538942]]]]},"properties":{"code_section":"77285000BL","code_commune":"77285","section_courte":"BL"}},{"type":"Feature","geometry":{"type":"MultiPolygon","coordinates":[[[[2.6229804,48.5381317],[2.6239768,48.538803],[2.6239781,48.5388913],[2.6237921,48.539014],[2.623915,48.538942],[2.6241672,48.5390258],[2.6262578,48.5376525],[2.6273128,48.5370963],[2.6283904,48.5374967],[2.6280618,48.5377178],[2.6272955,48.5383511],[2.6254229,48.5396019],[2.6242756,48.5402858],[2.6228335,48.5413022],[2.6229056,48.5411578],[2.6228729,48.5410137],[2.6227812,48.5409103],[2.6225104,48.540719],[2.6223856,48.5405739],[2.6223838,48.5404271],[2.622463,48.5401751],[2.6215668,48.5407315],[2.6210944,48.5406402],[2.6197203,48.5402494],[2.6201011,48.5399352],[2.620206,48.5396892],[2.6204868,48.5394332],[2.6189168,48.5363016],[2.6187876,48.5361381],[2.6187289,48.536177],[2.6172623,48.5342933],[2.618281,48.5338211],[2.6211868,48.5347543],[2.6210238,48.5349019],[2.6203025,48.5353792],[2.6200892,48.5352344],[2.6198026,48.5354246],[2.6200894,48.5356176],[2.620185,48.5355545],[2.6206786,48.5358836],[2.62078,48.5358215],[2.6220905,48.5366972],[2.6222312,48.5366013],[2.6230183,48.5371259],[2.6231465,48.5371154],[2.6238598,48.53628],[2.6235825,48.5368411],[2.6228165,48.5377423],[2.6228245,48.5378494],[2.6229935,48.5379748],[2.6229258,48.5380956],[2.6229804,48.5381317]]]]},"properties":{"code_section":"77285000BM","code_commune":"77285","section_courte":"BM"}},{"type":"Feature","geometry":{"type":"MultiPolygon","coordinates":[[[[2.6187504,48.5276079],[2.6249516,48.5292327],[2.6252591,48.5294052],[2.6273161,48.5309913],[2.6276701,48.5312795],[2.6279573,48.5316053],[2.6277946,48.5317944],[2.6274375,48.5323768],[2.6272519,48.5325596],[2.6270131,48.532898],[2.6267874,48.5330352],[2.6262181,48.5331473],[2.6257306,48.5338548],[2.6252624,48.5346241],[2.6251446,48.5346364],[2.6244647,48.5345137],[2.6244875,48.5344535],[2.6244304,48.5344448],[2.6242818,48.5344235],[2.6242619,48.5344771],[2.6236554,48.5343852],[2.6229457,48.5353851],[2.6211868,48.5347543],[2.6097231,48.531058],[2.6087407,48.5307836],[2.6161878,48.5269716],[2.6162807,48.5269711],[2.6187504,48.5276079]]]]},"properties":{"code_section":"77285000BN","code_commune":"77285","section_courte":"BN"}},{"type":"Feature","geometry":{"type":"MultiPolygon","coordinates":[[[[2.6331463,48.5441495],[2.6355145,48.5443887],[2.6357786,48.5433244],[2.6401985,48.5437944],[2.6402264,48.5438874],[2.6396363,48.5465611],[2.6390845,48.5465291],[2.6384553,48.5467999],[2.6382334,48.5468364],[2.6359371,48.5465236],[2.635528,48.5464402],[2.6352777,48.5462893],[2.6351654,48.5461043],[2.6351576,48.5459598],[2.6352771,48.5454231],[2.6335988,48.5451567],[2.6329478,48.5450241],[2.6331463,48.5441495]]]]},"properties":{"code_section":"77285000BO","code_commune":"77285","section_courte":"BO"}},{"type":"Feature","geometry":{"type":"MultiPolygon","coordinates":[[[[2.6474927,48.545754],[2.6470305,48.545984],[2.6444528,48.5468027],[2.6453381,48.5482577],[2.6431946,48.5488292],[2.6410037,48.549664],[2.6404544,48.5499525],[2.6404498,48.5498788],[2.6401117,48.5497227],[2.6398569,48.5495256],[2.639737,48.549347],[2.639679,48.5490945],[2.6397101,48.5488665],[2.6399048,48.5486224],[2.6403393,48.5483119],[2.639661,48.5472108],[2.6395747,48.546823],[2.6402264,48.5438874],[2.6401985,48.5437944],[2.6435778,48.5441305],[2.6439593,48.5442164],[2.6449659,48.5446386],[2.6454752,48.5447915],[2.6469978,48.5450215],[2.6476791,48.5451729],[2.6476617,48.5452311],[2.6478407,48.5455772],[2.6474927,48.545754]]]]},"properties":{"code_section":"77285000BP","code_commune":"77285","section_courte":"BP"}},{"type":"Feature","geometry":{"type":"MultiPolygon","coordinates":[[[[2.6475321,48.5432094],[2.6477512,48.545069],[2.6476791,48.5451729],[2.6469978,48.5450215],[2.6454752,48.5447915],[2.6449659,48.5446386],[2.6439593,48.5442164],[2.6435778,48.5441305],[2.6401985,48.5437944],[2.640559,48.5424866],[2.6412113,48.5395984],[2.6448163,48.5395293],[2.6485701,48.5395102],[2.6490499,48.5407354],[2.646929,48.5412138],[2.6471658,48.5425878],[2.64715,48.5426795],[2.6475321,48.5432094]]]]},"properties":{"code_section":"77285000BR","code_commune":"77285","section_courte":"BR"}},{"type":"Feature","geometry":{"type":"MultiPolygon","coordinates":[[[[2.6342715,48.5400878],[2.6332597,48.5399458],[2.6336082,48.5386273],[2.6342292,48.5387686],[2.6361153,48.5392809],[2.6366659,48.5393812],[2.6387977,48.5393909],[2.6406071,48.5395862],[2.6412113,48.5395984],[2.640559,48.5424866],[2.6401985,48.5437944],[2.6364996,48.5434144],[2.6323165,48.5429445],[2.6327533,48.5410504],[2.633579,48.5411322],[2.6337843,48.540246],[2.6342097,48.540298],[2.6342715,48.5400878]]]]},"properties":{"code_section":"77285000BS","code_commune":"77285","section_courte":"BS"}},{"type":"Feature","geometry":{"type":"MultiPolygon","coordinates":[[[[2.6487429,48.539205],[2.6488149,48.5395109],[2.6454808,48.5395214],[2.6413444,48.5395954],[2.6419056,48.5387415],[2.6420855,48.5383586],[2.6421659,48.5380293],[2.6421607,48.5378785],[2.6420964,48.5378019],[2.6422279,48.5376409],[2.643164,48.5368589],[2.6443856,48.5359773],[2.6446992,48.5356711],[2.6454652,48.5353095],[2.6472056,48.5361389],[2.6482549,48.5365082],[2.6488909,48.5366967],[2.6501028,48.5369741],[2.6505156,48.5370375],[2.6516351,48.5371334],[2.6512348,48.5381765],[2.6507384,48.5389615],[2.6492598,48.5388788],[2.6486825,48.5388779],[2.6487429,48.539205]]]]},"properties":{"code_section":"77285000BT","code_commune":"77285","section_courte":"BT"}},{"type":"Feature","geometry":{"type":"MultiPolygon","coordinates":[[[[2.6412113,48.5395984],[2.6406071,48.5395862],[2.6387977,48.5393909],[2.6368669,48.5393891],[2.6362275,48.539308],[2.6342292,48.5387686],[2.6311428,48.5380794],[2.6302811,48.5377567],[2.6297889,48.5376232],[2.6298321,48.5373258],[2.6303244,48.5364873],[2.6304101,48.5363981],[2.6311926,48.535959],[2.6317322,48.535499],[2.6324158,48.5351764],[2.6342574,48.5344556],[2.6353916,48.5349367],[2.6362977,48.5351646],[2.6364409,48.5352441],[2.6366849,48.5355092],[2.6370308,48.535803],[2.6378686,48.5361723],[2.6389497,48.5364727],[2.6420964,48.5378019],[2.6421607,48.5378785],[2.642133,48.5382336],[2.6419056,48.5387415],[2.6413444,48.5395954],[2.6412113,48.5395984]]]]},"properties":{"code_section":"77285000BV","code_commune":"77285","section_courte":"BV"}},{"type":"Feature","geometry":{"type":"MultiPolygon","coordinates":[[[[2.6396459,48.5319806],[2.6417366,48.5334159],[2.6454652,48.5353095],[2.6446992,48.5356711],[2.6443184,48.5360305],[2.6431639,48.5368589],[2.6422279,48.5376409],[2.6420964,48.5378019],[2.6389497,48.5364727],[2.6378686,48.5361723],[2.6370308,48.535803],[2.6366849,48.5355092],[2.6364409,48.5352441],[2.6362977,48.5351646],[2.6353916,48.5349367],[2.6342574,48.5344556],[2.6354623,48.5340628],[2.63553,48.5340113],[2.6355565,48.5339471],[2.6353425,48.5337431],[2.6353456,48.5336877],[2.6351764,48.5334913],[2.6351728,48.5333901],[2.6362942,48.5324196],[2.6368758,48.5322904],[2.6381428,48.5319283],[2.6381998,48.5319106],[2.6382266,48.5318404],[2.6390912,48.5315728],[2.6396459,48.5319806]]]]},"properties":{"code_section":"77285000BW","code_commune":"77285","section_courte":"BW"}},{"type":"Feature","geometry":{"type":"MultiPolygon","coordinates":[[[[2.6355169,48.5339208],[2.6355565,48.5339471],[2.6354623,48.5340628],[2.6340386,48.5345209],[2.6338506,48.5343192],[2.6337029,48.534379],[2.633599,48.5342938],[2.633239,48.5342677],[2.6330811,48.5342223],[2.6330328,48.5341283],[2.6329237,48.5334952],[2.631708,48.5331377],[2.6310275,48.5328485],[2.6307438,48.5326489],[2.6302736,48.5324774],[2.629976,48.5324025],[2.6285579,48.5321559],[2.6280346,48.5319351],[2.6277946,48.5317944],[2.6279169,48.5316242],[2.6288576,48.5307077],[2.6289866,48.5304414],[2.6292704,48.5302473],[2.6291876,48.5300843],[2.6301999,48.5291223],[2.6319216,48.5276547],[2.6369238,48.5300474],[2.6379925,48.5307425],[2.6390912,48.5315728],[2.6382266,48.5318404],[2.6381998,48.5319106],[2.6381428,48.5319283],[2.6368758,48.5322904],[2.6362942,48.5324196],[2.6351728,48.5333901],[2.6351764,48.5334913],[2.6353456,48.5336877],[2.6353425,48.5337431],[2.6355169,48.5339208]]]]},"properties":{"code_section":"77285000BX","code_commune":"77285","section_courte":"BX"}},{"type":"Feature","geometry":{"type":"MultiPolygon","coordinates":[[[[2.6283299,48.5375293],[2.6283904,48.5374967],[2.6273664,48.5371065],[2.6273128,48.5370963],[2.6272481,48.5371301],[2.6263787,48.5367382],[2.6263809,48.5366498],[2.6264808,48.5365709],[2.6268256,48.5365706],[2.6272078,48.5359921],[2.6273549,48.5360218],[2.6274192,48.5357223],[2.6265313,48.535624],[2.6264825,48.5353627],[2.626578,48.535211],[2.6264545,48.5351765],[2.6266567,48.5350538],[2.6252624,48.5346241],[2.6257306,48.5338548],[2.6262181,48.5331473],[2.6267874,48.5330352],[2.6270131,48.532898],[2.6272519,48.5325596],[2.6274375,48.5323768],[2.6277946,48.5317944],[2.6280346,48.5319351],[2.6285579,48.5321559],[2.629976,48.5324025],[2.6302736,48.5324774],[2.6307438,48.5326489],[2.6310275,48.5328485],[2.631708,48.5331377],[2.6329237,48.5334952],[2.6330328,48.5341283],[2.6330811,48.5342223],[2.633239,48.5342677],[2.633599,48.5342938],[2.6337029,48.534379],[2.6338506,48.5343192],[2.6340386,48.5345209],[2.6342574,48.5344556],[2.6324158,48.5351764],[2.6317322,48.535499],[2.6311926,48.535959],[2.6304101,48.5363981],[2.6303244,48.5364873],[2.6298321,48.5373258],[2.6297889,48.5376232],[2.6296411,48.5377323],[2.6292005,48.5378919],[2.6289872,48.5378413],[2.6283299,48.5375293]]]]},"properties":{"code_section":"77285000BY","code_commune":"77285","section_courte":"BY"}}]}