{"type":"FeatureCollection","features":[{"type":"Feature","geometry":{"type":"MultiPolygon","coordinates":[[[[2.5703455,48.6270548],[2.5707132,48.6271141],[2.5707517,48.6270539],[2.5712671,48.6271909],[2.572458,48.627283],[2.5729763,48.6273808],[2.5737036,48.6274061],[2.5737766,48.6274815],[2.5736848,48.6275237],[2.57328,48.6282773],[2.5730877,48.6289784],[2.5730797,48.6324504],[2.5731615,48.6329399],[2.5856564,48.6311509],[2.5856868,48.6303038],[2.5861211,48.6273943],[2.5930895,48.6273498],[2.6001689,48.6282193],[2.6001971,48.6291362],[2.6003288,48.6301232],[2.6003466,48.6315588],[2.6004003,48.6321502],[2.6007398,48.6336617],[2.6028298,48.6393437],[2.5892302,48.639313],[2.5888113,48.6373642],[2.5868483,48.637431],[2.5870305,48.6385551],[2.5871156,48.6388502],[2.5872612,48.6391049],[2.5871744,48.639596],[2.58699,48.6399699],[2.5862791,48.6409647],[2.5856874,48.6419302],[2.5804393,48.6412974],[2.5800465,48.641293],[2.574116,48.641756],[2.573138,48.6405572],[2.572583,48.6396814],[2.5726869,48.6396283],[2.5726226,48.6394912],[2.5716577,48.6380781],[2.57104,48.6365951],[2.5719896,48.6364461],[2.5731791,48.6360095],[2.5739999,48.6361023],[2.574062,48.6360479],[2.5741119,48.6353716],[2.5734682,48.6354178],[2.572967,48.6354183],[2.5727616,48.633015],[2.5713421,48.6330339],[2.5710675,48.6315537],[2.5706593,48.6315432],[2.5705309,48.6313885],[2.5705454,48.6308737],[2.5705141,48.6307096],[2.5698238,48.6295937],[2.5696664,48.6292928],[2.569566,48.6289391],[2.5702614,48.627055],[2.5703455,48.6270548]]]]},"properties":{"code_section":"772960000A","code_commune":"77296","section_courte":"A"}},{"type":"Feature","geometry":{"type":"MultiPolygon","coordinates":[[[[2.6086824,48.6430057],[2.6084517,48.6430491],[2.6091438,48.6393226],[2.6028298,48.6393437],[2.6007398,48.6336617],[2.6004003,48.6321502],[2.6003466,48.6315588],[2.6003288,48.6301232],[2.6002463,48.6295511],[2.6013573,48.6297204],[2.6022405,48.6298914],[2.6028603,48.6300436],[2.6065177,48.6294865],[2.6064311,48.6289654],[2.6200832,48.6306013],[2.6201905,48.6321475],[2.6225476,48.6320666],[2.623233,48.6399371],[2.6192536,48.6410274],[2.6086824,48.6430057]]]]},"properties":{"code_section":"772960000B","code_commune":"77296","section_courte":"B"}},{"type":"Feature","geometry":{"type":"MultiPolygon","coordinates":[[[[2.5930895,48.6273498],[2.5861211,48.6273943],[2.5865607,48.6255621],[2.5871747,48.6256568],[2.5872842,48.6251935],[2.5876716,48.6252326],[2.5876564,48.6253128],[2.5881433,48.6253574],[2.5882096,48.6250943],[2.5889601,48.6251301],[2.588865,48.6256096],[2.5897537,48.6256076],[2.5897549,48.6258539],[2.5898048,48.6258621],[2.589775,48.6259717],[2.5905914,48.6261398],[2.5910071,48.6261852],[2.5915231,48.6261734],[2.591489,48.6252055],[2.5921853,48.6252117],[2.5921105,48.6243204],[2.5951917,48.6247705],[2.5964277,48.6245695],[2.5976105,48.6242826],[2.5982609,48.6240295],[2.599042,48.6234489],[2.6001534,48.6246971],[2.6007116,48.62562],[2.6006725,48.6256622],[2.6012494,48.6265885],[2.6010514,48.6266445],[2.6016402,48.6278372],[2.6014685,48.6279043],[2.601643,48.6283325],[2.6016291,48.6283871],[2.5930895,48.6273498]]],[[[2.606193,48.6239653],[2.6051602,48.623244],[2.6044485,48.6228279],[2.6029166,48.6220367],[2.6026531,48.6218729],[2.6020701,48.621666],[2.6017348,48.6214002],[2.5993298,48.620493],[2.5951141,48.6191793],[2.5938931,48.6189742],[2.5929416,48.6189101],[2.5864125,48.6189865],[2.5862905,48.617561],[2.5860668,48.6133937],[2.5860775,48.6129993],[2.586151,48.6129968],[2.5861586,48.60953],[2.586432,48.6079258],[2.5864434,48.6067413],[2.5860713,48.6062366],[2.5860875,48.606188],[2.5857397,48.6057023],[2.5856935,48.6056927],[2.5844589,48.6040073],[2.5863399,48.6023873],[2.5885696,48.6038014],[2.5885399,48.6047643],[2.5885546,48.6053186],[2.5886077,48.6055082],[2.5899974,48.6057583],[2.58977,48.607729],[2.5938609,48.6074729],[2.5938278,48.6104358],[2.5958607,48.6104413],[2.5957148,48.611984],[2.5943183,48.6119488],[2.5943148,48.6121798],[2.5939906,48.612197],[2.5938716,48.6129802],[2.5936635,48.6152103],[2.5959995,48.615083],[2.5964039,48.6150946],[2.5962244,48.6172731],[2.5970498,48.617229],[2.5984044,48.6172444],[2.5991205,48.6173017],[2.6012483,48.6172819],[2.6012853,48.6173606],[2.6038384,48.617339],[2.603848,48.6173938],[2.604406,48.6174495],[2.6061206,48.6175038],[2.6075898,48.617209],[2.6088599,48.6173534],[2.6096473,48.6173891],[2.6097359,48.6178841],[2.6133648,48.6178352],[2.6158306,48.6176303],[2.6157941,48.6179619],[2.6179032,48.6181658],[2.6178833,48.618758],[2.6181349,48.6195188],[2.6182902,48.6205279],[2.6182008,48.6210197],[2.618013,48.6213492],[2.6176247,48.6218083],[2.6176541,48.6223937],[2.6189188,48.6217722],[2.6201539,48.6217378],[2.6203063,48.6225077],[2.6224579,48.6223965],[2.6223833,48.6220592],[2.6257017,48.6216466],[2.6266794,48.6239522],[2.6273273,48.625175],[2.6278826,48.6245275],[2.6286443,48.6238533],[2.629532,48.6255532],[2.6293894,48.631873],[2.6264265,48.6319354],[2.6201905,48.6321475],[2.6200832,48.6306013],[2.6091862,48.6293066],[2.6088635,48.6260271],[2.606193,48.6239653]]]]},"properties":{"code_section":"772960000C","code_commune":"77296","section_courte":"C"}},{"type":"Feature","geometry":{"type":"MultiPolygon","coordinates":[[[[2.5730195,48.6196135],[2.5770194,48.6106239],[2.5779761,48.6102676],[2.5783155,48.6100422],[2.578482,48.6098633],[2.5797139,48.6080809],[2.5844589,48.6040073],[2.5856935,48.6056927],[2.5857397,48.6057023],[2.5860875,48.606188],[2.5860713,48.6062366],[2.5864434,48.6067413],[2.586432,48.6079258],[2.5861586,48.60953],[2.586151,48.6129968],[2.5860775,48.6129993],[2.5860668,48.6133937],[2.5862905,48.617561],[2.5864071,48.618961],[2.5854193,48.6190837],[2.5843278,48.6193438],[2.5833158,48.6197197],[2.5824115,48.6202014],[2.5816287,48.6207698],[2.5813091,48.6210719],[2.5804286,48.6219877],[2.5805687,48.6220056],[2.5784156,48.6242733],[2.5779435,48.6247],[2.5776241,48.6249511],[2.5769101,48.6253623],[2.5759843,48.6257467],[2.5745311,48.6261772],[2.5739335,48.6262367],[2.5738411,48.6264127],[2.5738641,48.6267004],[2.5735452,48.6272691],[2.5734315,48.6273959],[2.5729763,48.6273808],[2.572458,48.627283],[2.5712671,48.6271909],[2.5707517,48.6270539],[2.5707132,48.6271141],[2.5702664,48.6270432],[2.5704842,48.6265159],[2.5704234,48.6257671],[2.570454,48.6255382],[2.5726856,48.6205032],[2.5726348,48.620495],[2.5728567,48.6199791],[2.5727822,48.6199635],[2.572943,48.6196045],[2.5730195,48.6196135]]]]},"properties":{"code_section":"772960000D","code_commune":"77296","section_courte":"D"}},{"type":"Feature","geometry":{"type":"MultiPolygon","coordinates":[[[[2.6011816,48.6254653],[2.601368,48.6253824],[2.6019951,48.6249965],[2.6023717,48.6248396],[2.6031074,48.6247038],[2.6042664,48.6242729],[2.606193,48.6239653],[2.6088635,48.6260271],[2.6091862,48.6293066],[2.6064311,48.6289654],[2.6065177,48.6294865],[2.6028603,48.6300436],[2.6022405,48.6298914],[2.6013573,48.6297204],[2.6002463,48.6295511],[2.6001689,48.6282193],[2.6016291,48.6283871],[2.601643,48.6283325],[2.6014685,48.6279043],[2.6016402,48.6278372],[2.6010514,48.6266445],[2.6012494,48.6265885],[2.6006725,48.6256622],[2.6007116,48.62562],[2.6011816,48.6254653]]]]},"properties":{"code_section":"77296000AB","code_commune":"77296","section_courte":"AB"}},{"type":"Feature","geometry":{"type":"MultiPolygon","coordinates":[[[[2.595193,48.6246915],[2.5950037,48.623444],[2.5945504,48.6231853],[2.5944433,48.6230872],[2.5942536,48.6220486],[2.5939269,48.6217025],[2.5938683,48.6215809],[2.593818,48.6205633],[2.5946777,48.6205395],[2.5944457,48.6190495],[2.5951141,48.6191793],[2.5983263,48.6201653],[2.5993298,48.620493],[2.6017348,48.6214002],[2.6020701,48.621666],[2.6026531,48.6218729],[2.6029166,48.6220367],[2.6044485,48.6228279],[2.6051602,48.623244],[2.606193,48.6239653],[2.6042664,48.6242729],[2.6031074,48.6247038],[2.6023717,48.6248396],[2.6019951,48.6249965],[2.601368,48.6253824],[2.6007116,48.62562],[2.6001534,48.6246971],[2.599042,48.6234489],[2.5982609,48.6240295],[2.5976105,48.6242826],[2.5964277,48.6245695],[2.5951917,48.6247705],[2.595193,48.6246915]]]]},"properties":{"code_section":"77296000AC","code_commune":"77296","section_courte":"AC"}},{"type":"Feature","geometry":{"type":"MultiPolygon","coordinates":[[[[2.5619918,48.6232809],[2.5692856,48.6170114],[2.5697561,48.6175755],[2.5698343,48.6176172],[2.5712842,48.6179008],[2.5717198,48.6180347],[2.5717469,48.618338],[2.5734821,48.6185768],[2.5730195,48.6196135],[2.572943,48.6196045],[2.5727822,48.6199635],[2.5728567,48.6199791],[2.5726348,48.620495],[2.5726856,48.6205032],[2.570454,48.6255382],[2.570456,48.62542],[2.5696423,48.6246193],[2.5696374,48.6245424],[2.5699147,48.6243844],[2.569867,48.624308],[2.5694719,48.6240074],[2.5619918,48.6232809]]]]},"properties":{"code_section":"77296000AD","code_commune":"77296","section_courte":"AD"}},{"type":"Feature","geometry":{"type":"MultiPolygon","coordinates":[[[[2.5734024,48.6185641],[2.5717469,48.618338],[2.5717198,48.6180347],[2.5712842,48.6179008],[2.5698343,48.6176172],[2.5697561,48.6175755],[2.5692856,48.6170114],[2.5761614,48.6111195],[2.5765759,48.6108288],[2.5770194,48.6106239],[2.5734821,48.6185768],[2.5734024,48.6185641]]]]},"properties":{"code_section":"77296000AE","code_commune":"77296","section_courte":"AE"}},{"type":"Feature","geometry":{"type":"MultiPolygon","coordinates":[[[[2.5919519,48.6243588],[2.5908556,48.6243294],[2.5905381,48.6242972],[2.5902476,48.6242272],[2.58978,48.6240051],[2.5892127,48.6235785],[2.589057,48.6236151],[2.5889686,48.6233877],[2.5887821,48.6232423],[2.5889351,48.623636],[2.5877528,48.6238379],[2.587048,48.6237657],[2.5867392,48.6223821],[2.5866603,48.6216242],[2.5881731,48.6215194],[2.5884889,48.6215578],[2.5885749,48.6213703],[2.5883582,48.6211876],[2.5880376,48.6206021],[2.5879485,48.6191879],[2.5876598,48.6189569],[2.5929416,48.6189101],[2.5934307,48.61893],[2.5944457,48.6190495],[2.5946777,48.6205395],[2.593818,48.6205633],[2.5938683,48.6215809],[2.5939269,48.6217025],[2.5942536,48.6220486],[2.5944433,48.6230872],[2.5945504,48.6231853],[2.5950037,48.623444],[2.5951917,48.6247705],[2.5921105,48.6243204],[2.5919519,48.6243588]]]]},"properties":{"code_section":"77296000AH","code_commune":"77296","section_courte":"AH"}},{"type":"Feature","geometry":{"type":"MultiPolygon","coordinates":[[[[2.5867843,48.6249216],[2.5866696,48.625492],[2.5865607,48.6255621],[2.5861211,48.6273943],[2.5846196,48.6273782],[2.5845932,48.6253741],[2.5846734,48.625371],[2.5843768,48.6224617],[2.5810413,48.6220288],[2.5804286,48.6219877],[2.5816287,48.6207698],[2.5824115,48.6202014],[2.5833158,48.6197197],[2.5843278,48.6193438],[2.5854193,48.6190837],[2.5864071,48.618961],[2.5864125,48.6189865],[2.5876598,48.6189569],[2.5879485,48.6191879],[2.5880376,48.6206021],[2.5883582,48.6211876],[2.5885749,48.6213703],[2.5884889,48.6215578],[2.5881731,48.6215194],[2.5866603,48.6216242],[2.5867392,48.6223821],[2.5870601,48.6237425],[2.5867843,48.6249216]]]]},"properties":{"code_section":"77296000AI","code_commune":"77296","section_courte":"AI"}},{"type":"Feature","geometry":{"type":"MultiPolygon","coordinates":[[[[2.5868159,48.6255903],[2.5865607,48.6255621],[2.5866696,48.625492],[2.587048,48.6237657],[2.5877528,48.6238379],[2.5889351,48.623636],[2.5887821,48.6232423],[2.5889686,48.6233877],[2.589057,48.6236151],[2.5892127,48.6235785],[2.58978,48.6240051],[2.5902476,48.6242272],[2.5905381,48.6242972],[2.5908556,48.6243294],[2.5919519,48.6243588],[2.5921105,48.6243204],[2.5921853,48.6252117],[2.591489,48.6252055],[2.5915231,48.6261734],[2.5910071,48.6261852],[2.5905914,48.6261398],[2.589775,48.6259717],[2.5898048,48.6258621],[2.5897549,48.6258539],[2.5897537,48.6256076],[2.588865,48.6256096],[2.5889601,48.6251301],[2.5882096,48.6250943],[2.5881433,48.6253574],[2.5876564,48.6253128],[2.5876716,48.6252326],[2.5872842,48.6251935],[2.5871747,48.6256568],[2.5868159,48.6255903]]]]},"properties":{"code_section":"77296000AK","code_commune":"77296","section_courte":"AK"}},{"type":"Feature","geometry":{"type":"MultiPolygon","coordinates":[[[[2.5846147,48.6269339],[2.5846196,48.6273782],[2.5734315,48.6273959],[2.5735452,48.6272691],[2.5738641,48.6267004],[2.5738411,48.6264127],[2.5739335,48.6262367],[2.5745311,48.6261772],[2.5759843,48.6257467],[2.5769101,48.6253623],[2.5776241,48.6249511],[2.5784156,48.6242733],[2.5805687,48.6220056],[2.5810413,48.6220288],[2.5843768,48.6224617],[2.5846734,48.625371],[2.5845932,48.6253741],[2.5846147,48.6269339]]]]},"properties":{"code_section":"77296000AL","code_commune":"77296","section_courte":"AL"}},{"type":"Feature","geometry":{"type":"MultiPolygon","coordinates":[[[[2.5846196,48.6273782],[2.5861211,48.6273943],[2.5856868,48.6303038],[2.5856564,48.6311509],[2.5731615,48.6329399],[2.5730797,48.6324504],[2.5730877,48.6289784],[2.57328,48.6282773],[2.5736848,48.6275237],[2.5737766,48.6274815],[2.5737036,48.6274061],[2.5846196,48.6273782]]]]},"properties":{"code_section":"77296000AM","code_commune":"77296","section_courte":"AM"}},{"type":"Feature","geometry":{"type":"MultiPolygon","coordinates":[[[[2.5908671,48.6412452],[2.5925842,48.6436722],[2.594184,48.6461723],[2.5822154,48.6465241],[2.5742453,48.6466926],[2.5728551,48.6438642],[2.5733702,48.6432724],[2.5737928,48.6429218],[2.5740781,48.6427548],[2.5747645,48.642461],[2.574116,48.641756],[2.5800465,48.641293],[2.5804393,48.6412974],[2.5856874,48.6419302],[2.5862791,48.6409647],[2.58699,48.6399699],[2.5871744,48.639596],[2.5872612,48.6391049],[2.5871156,48.6388502],[2.5870305,48.6385551],[2.5868483,48.637431],[2.5888113,48.6373642],[2.5892302,48.639313],[2.5896637,48.6395636],[2.5908671,48.6412452]]]]},"properties":{"code_section":"77296000ZA","code_commune":"77296","section_courte":"ZA"}},{"type":"Feature","geometry":{"type":"MultiPolygon","coordinates":[[[[2.6028724,48.6393437],[2.6091438,48.6393226],[2.6084517,48.6430491],[2.5918056,48.6425568],[2.5896637,48.6395636],[2.5892302,48.639313],[2.6028724,48.6393437]]]]},"properties":{"code_section":"77296000ZB","code_commune":"77296","section_courte":"ZB"}},{"type":"Feature","geometry":{"type":"MultiPolygon","coordinates":[[[[2.6086824,48.6430057],[2.6193975,48.6409881],[2.6151583,48.6468979],[2.607508,48.6459929],[2.6084517,48.6430491],[2.6086824,48.6430057]]]]},"properties":{"code_section":"77296000ZC","code_commune":"77296","section_courte":"ZC"}},{"type":"Feature","geometry":{"type":"MultiPolygon","coordinates":[[[[2.6227534,48.6344342],[2.6225476,48.6320666],[2.6264265,48.6319354],[2.6293894,48.631873],[2.6293453,48.6377721],[2.6292837,48.6379977],[2.6290844,48.6383353],[2.623233,48.6399371],[2.6227534,48.6344342]]]]},"properties":{"code_section":"77296000ZD","code_commune":"77296","section_courte":"ZD"}}]}