{"type":"FeatureCollection","features":[{"type":"Feature","geometry":{"type":"MultiPolygon","coordinates":[[[[2.630194,48.8455003],[2.6308747,48.8461625],[2.6240592,48.8478173],[2.6207839,48.8484805],[2.6207064,48.8477387],[2.6206491,48.8477411],[2.620588,48.8474676],[2.6202561,48.8472402],[2.6201354,48.8471989],[2.6198093,48.8471615],[2.619418,48.8468533],[2.6192536,48.8465121],[2.6197314,48.8460367],[2.6199174,48.8455502],[2.6198908,48.845199],[2.619422,48.8438257],[2.6197769,48.8439272],[2.6199507,48.8443451],[2.6210966,48.8440638],[2.6252451,48.8448023],[2.6254564,48.8448071],[2.6256357,48.8447321],[2.6257767,48.8447261],[2.6266415,48.8436222],[2.627125,48.8431732],[2.6272662,48.8431796],[2.6279961,48.8435803],[2.6286665,48.8440958],[2.630194,48.8455003]]]]},"properties":{"code_section":"77337000AB","code_commune":"77337","section_courte":"AB"}},{"type":"Feature","geometry":{"type":"MultiPolygon","coordinates":[[[[2.6291575,48.8492906],[2.6292004,48.848661],[2.6290357,48.8480976],[2.6268727,48.8483674],[2.6269464,48.8471015],[2.6308747,48.8461625],[2.631346,48.8465926],[2.6316828,48.8469686],[2.6319474,48.8474283],[2.6321402,48.8480586],[2.6336123,48.8482671],[2.6329676,48.8485391],[2.6319263,48.85009],[2.6322559,48.8507919],[2.6317099,48.8513132],[2.6299245,48.8517745],[2.6296252,48.8523152],[2.6293581,48.8529795],[2.6292291,48.8529581],[2.6292959,48.8528182],[2.6291784,48.8528119],[2.6293017,48.850716],[2.6290739,48.8506237],[2.6291575,48.8492906]]]]},"properties":{"code_section":"77337000AC","code_commune":"77337","section_courte":"AC"}},{"type":"Feature","geometry":{"type":"MultiPolygon","coordinates":[[[[2.6311221,48.8424392],[2.6379636,48.8453864],[2.6364581,48.8470444],[2.6336123,48.8482671],[2.6321402,48.8480586],[2.6319474,48.8474283],[2.6316828,48.8469686],[2.6315289,48.846783],[2.6298868,48.8452032],[2.6286665,48.8440958],[2.6279961,48.8435803],[2.6293724,48.8429662],[2.6304459,48.8421424],[2.6311221,48.8424392]]]]},"properties":{"code_section":"77337000AD","code_commune":"77337","section_courte":"AD"}},{"type":"Feature","geometry":{"type":"MultiPolygon","coordinates":[[[[2.6181294,48.8411255],[2.617867,48.840788],[2.6179199,48.8407184],[2.6175799,48.8399735],[2.6177574,48.8399405],[2.6178985,48.8396702],[2.6181263,48.8394964],[2.6184456,48.8393796],[2.6191709,48.8392669],[2.619361,48.8391713],[2.6196734,48.8389088],[2.6272393,48.8407357],[2.6304459,48.8421424],[2.6293724,48.8429662],[2.6279961,48.8435803],[2.6272662,48.8431796],[2.627125,48.8431732],[2.6266415,48.8436222],[2.6257767,48.8447261],[2.6256357,48.8447321],[2.6254564,48.8448071],[2.6252451,48.8448023],[2.6210966,48.8440638],[2.6199507,48.8443451],[2.6197769,48.8439272],[2.6195989,48.8438756],[2.6184455,48.8411741],[2.6181794,48.841153],[2.6181294,48.8411255]]]]},"properties":{"code_section":"77337000AE","code_commune":"77337","section_courte":"AE"}},{"type":"Feature","geometry":{"type":"MultiPolygon","coordinates":[[[[2.6111317,48.842146],[2.6112079,48.8417461],[2.6111367,48.841735],[2.6116156,48.8393969],[2.6156354,48.8393147],[2.6164352,48.8391275],[2.6193315,48.8387958],[2.619328,48.8388261],[2.6196734,48.8389088],[2.619361,48.8391713],[2.6191709,48.8392669],[2.6184456,48.8393796],[2.6181263,48.8394964],[2.6178985,48.8396702],[2.6177574,48.8399405],[2.6175799,48.8399735],[2.6179199,48.8407184],[2.617867,48.840788],[2.6181447,48.8411399],[2.6184455,48.8411741],[2.6195989,48.8438756],[2.6193597,48.8438108],[2.6192361,48.8434748],[2.6176276,48.8435294],[2.6167068,48.8435127],[2.6166888,48.8434267],[2.6163551,48.8434183],[2.6161661,48.8434218],[2.6161596,48.8434992],[2.6155491,48.8434843],[2.6155506,48.8434088],[2.6145376,48.8433841],[2.6145329,48.8434142],[2.6134163,48.8433706],[2.6134134,48.8434322],[2.6109004,48.8433633],[2.6111317,48.842146]]]]},"properties":{"code_section":"77337000AH","code_commune":"77337","section_courte":"AH"}},{"type":"Feature","geometry":{"type":"MultiPolygon","coordinates":[[[[2.6161661,48.8434218],[2.6166888,48.8434267],[2.6167068,48.8435127],[2.6176276,48.8435294],[2.6192361,48.8434748],[2.6193597,48.8438108],[2.619422,48.8438257],[2.6198908,48.845199],[2.6199174,48.8455502],[2.6197314,48.8460367],[2.6192536,48.8465121],[2.619418,48.8468533],[2.6198093,48.8471615],[2.6178456,48.8471951],[2.6171318,48.8471773],[2.6155727,48.8472163],[2.6155902,48.8472929],[2.6139719,48.8473233],[2.6135596,48.847311],[2.6136317,48.8469926],[2.6115021,48.8470528],[2.6120128,48.8433963],[2.6134134,48.8434322],[2.6134163,48.8433706],[2.6145329,48.8434142],[2.6145376,48.8433841],[2.6153137,48.8434028],[2.6155506,48.8434088],[2.6155491,48.8434843],[2.6161596,48.8434992],[2.6161661,48.8434218]]]]},"properties":{"code_section":"77337000AI","code_commune":"77337","section_courte":"AI"}},{"type":"Feature","geometry":{"type":"MultiPolygon","coordinates":[[[[2.6154794,48.8524311],[2.6141321,48.852678],[2.6139121,48.8526421],[2.6138086,48.8504682],[2.613477,48.8483458],[2.6134575,48.8477562],[2.6135596,48.847311],[2.6155902,48.8472929],[2.6155727,48.8472163],[2.6171318,48.8471773],[2.6178456,48.8471951],[2.6198093,48.8471615],[2.6201354,48.8471989],[2.6202561,48.8472402],[2.620588,48.8474676],[2.6206491,48.8477411],[2.6207064,48.8477387],[2.6207839,48.8484805],[2.6206453,48.8491108],[2.6207159,48.8492053],[2.6207112,48.849482],[2.62061,48.8502294],[2.6206112,48.8506055],[2.6207322,48.8511469],[2.6204682,48.8513615],[2.6205034,48.8515045],[2.6154794,48.8524311]]]]},"properties":{"code_section":"77337000AK","code_commune":"77337","section_courte":"AK"}},{"type":"Feature","geometry":{"type":"MultiPolygon","coordinates":[[[[2.6269464,48.8471015],[2.6266947,48.8509073],[2.6215556,48.8514349],[2.6212934,48.8516983],[2.6212148,48.8515905],[2.6210899,48.8515172],[2.6209241,48.8515287],[2.6207803,48.8514753],[2.6205034,48.8515045],[2.6204682,48.8513615],[2.6207322,48.8511469],[2.6206112,48.8506055],[2.62061,48.8502294],[2.6207112,48.849482],[2.6207159,48.8492053],[2.6206453,48.8491108],[2.6207839,48.8484805],[2.6240592,48.8478173],[2.6269464,48.8471015]]]]},"properties":{"code_section":"77337000AL","code_commune":"77337","section_courte":"AL"}},{"type":"Feature","geometry":{"type":"MultiPolygon","coordinates":[[[[2.6181555,48.8262699],[2.6192817,48.826551],[2.6219431,48.8273563],[2.6235927,48.8277822],[2.6231695,48.8283179],[2.6223545,48.8289942],[2.6221364,48.8292789],[2.6220229,48.8298677],[2.6219283,48.8300419],[2.6218231,48.8301439],[2.6188774,48.8319786],[2.6189558,48.832651],[2.6193273,48.8341265],[2.6195881,48.8348078],[2.6199661,48.835285],[2.6201856,48.8357451],[2.6202427,48.8363412],[2.6203715,48.8367403],[2.619806,48.8379024],[2.6194749,48.838562],[2.6193676,48.8386565],[2.6193315,48.8387958],[2.6191486,48.8388336],[2.6164352,48.8391275],[2.6156354,48.8393147],[2.6116156,48.8393969],[2.6118407,48.8382459],[2.6120242,48.8382649],[2.6119703,48.8377268],[2.6120072,48.8370939],[2.612377,48.8366433],[2.6123996,48.8365155],[2.6121883,48.8360972],[2.6120285,48.8352167],[2.6120728,48.8346666],[2.6118223,48.8338852],[2.6118068,48.8333028],[2.6116048,48.8328931],[2.6110525,48.8321182],[2.6108434,48.8317534],[2.6109018,48.8298516],[2.6111855,48.8290545],[2.6111909,48.8288098],[2.6111573,48.828661],[2.610333,48.8269721],[2.6103731,48.8267983],[2.6108147,48.8261821],[2.6112546,48.8261483],[2.6113152,48.826074],[2.6120107,48.8259883],[2.6130405,48.8257997],[2.6135842,48.8257806],[2.6155328,48.8259549],[2.6170587,48.8259957],[2.6181555,48.8262699]]]]},"properties":{"code_section":"77337000AM","code_commune":"77337","section_courte":"AM"}},{"type":"Feature","geometry":{"type":"MultiPolygon","coordinates":[[[[2.6204649,48.857452],[2.6205021,48.8575011],[2.6204785,48.8575286],[2.6190067,48.8581532],[2.6189717,48.8587066],[2.6186208,48.8588549],[2.6171783,48.8589965],[2.6160166,48.8591828],[2.6153369,48.8593345],[2.6144223,48.8596565],[2.6130352,48.8603133],[2.612625,48.8605586],[2.6108159,48.8617797],[2.6092728,48.863012],[2.6088436,48.8633031],[2.6079335,48.8638057],[2.6063018,48.8646081],[2.6058243,48.8648042],[2.6047975,48.865133],[2.5996211,48.8666083],[2.5993193,48.8661142],[2.6004506,48.8653781],[2.6031568,48.8625202],[2.6061079,48.8605976],[2.6071452,48.8601366],[2.6074929,48.8599352],[2.6082914,48.8597646],[2.6099032,48.8592618],[2.6108328,48.8590433],[2.6109789,48.852597],[2.6139121,48.8526421],[2.6141321,48.852678],[2.6205034,48.8515045],[2.6207803,48.8514753],[2.6209241,48.8515287],[2.6210188,48.851512],[2.6211474,48.8515378],[2.6212934,48.8516983],[2.6211622,48.851878],[2.6210464,48.8522523],[2.6210428,48.8524072],[2.6212727,48.8529679],[2.6222902,48.8551083],[2.6224997,48.8554023],[2.622776,48.8556283],[2.6232865,48.8558294],[2.623419,48.8562706],[2.6233614,48.8563132],[2.6224857,48.8564397],[2.6213245,48.856543],[2.6211161,48.8565837],[2.6209153,48.8567375],[2.6207956,48.8571964],[2.6204704,48.8574007],[2.6204649,48.857452]]]]},"properties":{"code_section":"77337000AN","code_commune":"77337","section_courte":"AN"}},{"type":"Feature","geometry":{"type":"MultiPolygon","coordinates":[[[[2.6293096,48.8563425],[2.6294569,48.856935],[2.6294948,48.8572818],[2.6283847,48.8572984],[2.6275249,48.857382],[2.6272664,48.8574701],[2.6263463,48.85791],[2.6249758,48.8582379],[2.6242508,48.8583763],[2.6212302,48.8586279],[2.6195261,48.858726],[2.6189717,48.8587066],[2.6190067,48.8581532],[2.6204785,48.8575286],[2.6204704,48.8574007],[2.6207956,48.8571964],[2.6209153,48.8567375],[2.6210078,48.8566427],[2.6211161,48.8565837],[2.6213245,48.856543],[2.6224857,48.8564397],[2.6233614,48.8563132],[2.623419,48.8562706],[2.6232865,48.8558294],[2.622776,48.8556283],[2.6224997,48.8554023],[2.6222902,48.8551083],[2.6217499,48.853938],[2.6219006,48.8539994],[2.621925,48.8539712],[2.6238721,48.8535375],[2.6239493,48.8535609],[2.6242646,48.8541649],[2.6242117,48.8541768],[2.6242245,48.8541971],[2.6261344,48.853756],[2.6261619,48.8532566],[2.6261969,48.8532353],[2.6273622,48.853222],[2.6292664,48.853284],[2.6291231,48.8537577],[2.6290674,48.8541593],[2.6291086,48.8545754],[2.6290707,48.8553752],[2.6293096,48.8563425]]]]},"properties":{"code_section":"77337000BA","code_commune":"77337","section_courte":"BA"}},{"type":"Feature","geometry":{"type":"MultiPolygon","coordinates":[[[[2.6293084,48.8530914],[2.6292235,48.8532832],[2.6273622,48.853222],[2.6261969,48.8532353],[2.6261619,48.8532566],[2.6261344,48.853756],[2.6242245,48.8541971],[2.6242117,48.8541768],[2.6242646,48.8541649],[2.6239493,48.8535609],[2.6238721,48.8535375],[2.621925,48.8539712],[2.6219006,48.8539994],[2.6217499,48.853938],[2.6212727,48.8529679],[2.6210428,48.8524072],[2.6210464,48.8522523],[2.6211622,48.851878],[2.6215556,48.8514349],[2.6266947,48.8509073],[2.6268727,48.8483674],[2.6290357,48.8480976],[2.6292004,48.848661],[2.6290739,48.8506237],[2.6293017,48.850716],[2.6291784,48.8528119],[2.6292959,48.8528182],[2.6292291,48.8529581],[2.6293581,48.8529795],[2.6293084,48.8530914]]]]},"properties":{"code_section":"77337000BC","code_commune":"77337","section_courte":"BC"}}]}