{"type":"FeatureCollection","features":[{"type":"Feature","geometry":{"type":"MultiPolygon","coordinates":[[[[2.5508744,48.509101],[2.5509661,48.5093363],[2.5509648,48.5094888],[2.5512759,48.5097107],[2.5518157,48.5102591],[2.5520795,48.5104533],[2.5522157,48.5106384],[2.553122,48.5113428],[2.5533207,48.511665],[2.5537542,48.5115796],[2.5544691,48.5125759],[2.5544917,48.5126878],[2.5548711,48.5132046],[2.5551006,48.5137599],[2.5553413,48.5140658],[2.5555874,48.5145992],[2.5540092,48.5149593],[2.554008,48.5157471],[2.5541078,48.5163499],[2.5541636,48.5164763],[2.5533629,48.5166248],[2.5534425,48.5167461],[2.5533543,48.5167414],[2.5532923,48.5169285],[2.5532746,48.5173428],[2.5533993,48.5178789],[2.55267,48.5180362],[2.5525929,48.5180223],[2.5525561,48.517896],[2.552329,48.5177594],[2.5523784,48.517679],[2.5525807,48.5176574],[2.5526079,48.5176204],[2.5525603,48.5175027],[2.5523531,48.5174348],[2.5523452,48.5173495],[2.5525383,48.5172679],[2.5525622,48.5172086],[2.5524678,48.5171079],[2.5522808,48.5171046],[2.5522234,48.5170713],[2.5521553,48.5168426],[2.5519745,48.5166749],[2.5519791,48.5166308],[2.5520045,48.5165726],[2.5522189,48.5164873],[2.5523197,48.5163678],[2.5527163,48.5160885],[2.5529723,48.5158175],[2.5530528,48.5155936],[2.5532141,48.5154562],[2.5531122,48.5152978],[2.5531789,48.5150603],[2.5531048,48.5147012],[2.5527111,48.5145849],[2.5526018,48.5144155],[2.5522881,48.5143402],[2.5519955,48.5141086],[2.5517273,48.514097],[2.5515636,48.5139264],[2.5513643,48.5139088],[2.5510666,48.5137155],[2.5508544,48.5136847],[2.5503245,48.5134138],[2.550068,48.5131652],[2.5498738,48.513062],[2.5493591,48.5129427],[2.5489883,48.5126786],[2.5484369,48.5124655],[2.5480502,48.5122639],[2.5477597,48.5120972],[2.5474759,48.5117717],[2.5467343,48.5112412],[2.5465441,48.5110707],[2.5464148,48.5110332],[2.5463641,48.5110569],[2.5463604,48.5110256],[2.5465452,48.5109156],[2.54658,48.5108221],[2.5468216,48.5106853],[2.5472584,48.5105756],[2.5479009,48.510293],[2.5491297,48.5098701],[2.5499522,48.5094608],[2.5508744,48.509101]]]]},"properties":{"code_section":"773780000C","code_commune":"77378","section_courte":"C"}},{"type":"Feature","geometry":{"type":"MultiPolygon","coordinates":[[[[2.5421961,48.5050508],[2.5449956,48.5087421],[2.5451559,48.5091977],[2.5453076,48.5094427],[2.5459154,48.5101385],[2.546349,48.5107109],[2.5463801,48.5108592],[2.5463283,48.5109862],[2.5463641,48.5110569],[2.5464148,48.5110332],[2.5465441,48.5110707],[2.5467343,48.5112412],[2.5474759,48.5117717],[2.5477597,48.5120972],[2.5480502,48.5122639],[2.5484369,48.5124655],[2.5489883,48.5126786],[2.5493591,48.5129427],[2.5498738,48.513062],[2.550068,48.5131652],[2.5503245,48.5134138],[2.5508544,48.5136847],[2.5510666,48.5137155],[2.5513643,48.5139088],[2.5515636,48.5139264],[2.5517273,48.514097],[2.5519955,48.5141086],[2.5522881,48.5143402],[2.5526018,48.5144155],[2.5527111,48.5145849],[2.5531048,48.5147012],[2.5531789,48.5150603],[2.5531122,48.5152978],[2.5532141,48.5154562],[2.5530528,48.5155936],[2.5529723,48.5158175],[2.5527163,48.5160885],[2.5523197,48.5163678],[2.5522189,48.5164873],[2.5520045,48.5165726],[2.5519745,48.5166749],[2.5521553,48.5168426],[2.5522234,48.5170713],[2.5522808,48.5171046],[2.5524678,48.5171079],[2.5525622,48.5172086],[2.5525383,48.5172679],[2.5523452,48.5173495],[2.5523531,48.5174348],[2.5525603,48.5175027],[2.5526079,48.5176204],[2.5525807,48.5176574],[2.5523784,48.517679],[2.552329,48.5177594],[2.5525561,48.517896],[2.5525929,48.5180223],[2.55267,48.5180362],[2.5526373,48.5181745],[2.5526661,48.5183561],[2.5529863,48.51855],[2.5530909,48.5187633],[2.5533163,48.5188666],[2.5534871,48.5189895],[2.5535986,48.5192785],[2.5539712,48.5194934],[2.5537506,48.5196775],[2.5527753,48.5194985],[2.5516601,48.5188898],[2.5501057,48.5184225],[2.5498812,48.518301],[2.5498321,48.5183775],[2.5474403,48.5186919],[2.5474457,48.51876],[2.5473115,48.5187775],[2.547468,48.5207281],[2.5459356,48.5207323],[2.54512,48.520838],[2.5438384,48.5207865],[2.5432839,48.5207335],[2.5423051,48.5207214],[2.5413265,48.5207645],[2.540474,48.5177526],[2.5393889,48.517639],[2.5377567,48.5174031],[2.5371909,48.5173594],[2.537181,48.5173968],[2.5362692,48.5173113],[2.5362191,48.5172667],[2.5359959,48.5172092],[2.5354758,48.5168213],[2.5351371,48.5166719],[2.5351731,48.5166159],[2.5346272,48.5163331],[2.5334695,48.5154178],[2.5334694,48.5153865],[2.5320427,48.5151245],[2.5303242,48.5152413],[2.5285864,48.515463],[2.5284339,48.515465],[2.5282703,48.5154291],[2.5278628,48.5150337],[2.5273837,48.5144308],[2.5272888,48.5139945],[2.5273548,48.5133888],[2.5275243,48.5127464],[2.5277341,48.5120693],[2.5282317,48.5109173],[2.5285417,48.5100003],[2.528898,48.5092225],[2.5359408,48.5099562],[2.5365497,48.5077537],[2.5365609,48.507701],[2.5365126,48.5076451],[2.5386608,48.5070403],[2.5386542,48.5070103],[2.539378,48.506764],[2.539909,48.5065475],[2.5410753,48.5062411],[2.5411403,48.5063355],[2.54215,48.506047],[2.541943,48.505745],[2.5417006,48.5050988],[2.5421647,48.5049694],[2.5421961,48.5050508]]]]},"properties":{"code_section":"773780000D","code_commune":"77378","section_courte":"D"}},{"type":"Feature","geometry":{"type":"MultiPolygon","coordinates":[[[[2.5618578,48.5282129],[2.5608102,48.5284854],[2.5606992,48.5276991],[2.5584629,48.527769],[2.5583942,48.5275419],[2.5564427,48.5278298],[2.5569864,48.5299078],[2.5566103,48.5298931],[2.554313,48.5296162],[2.5524979,48.5293551],[2.5517413,48.5292173],[2.5511167,48.5290604],[2.5501785,48.5287238],[2.5493022,48.5282193],[2.5601938,48.5242386],[2.5608775,48.5255641],[2.5608445,48.5255995],[2.5613098,48.5268231],[2.5617352,48.5267713],[2.5619588,48.5281867],[2.5618578,48.5282129]]]]},"properties":{"code_section":"77378000AB","code_commune":"77378","section_courte":"AB"}},{"type":"Feature","geometry":{"type":"MultiPolygon","coordinates":[[[[2.5619481,48.5211012],[2.5612186,48.5219728],[2.5620956,48.5235138],[2.5633702,48.5230403],[2.5649585,48.5265499],[2.5643715,48.5266655],[2.5643394,48.5275746],[2.5619588,48.5281867],[2.5617352,48.5267713],[2.5613098,48.5268231],[2.5608445,48.5255995],[2.5608775,48.5255641],[2.5601938,48.5242386],[2.559005,48.5246921],[2.5594411,48.5241584],[2.5595105,48.5224932],[2.5594159,48.5219832],[2.5590626,48.5216001],[2.5590024,48.521175],[2.5590956,48.5210728],[2.5591059,48.5211135],[2.5593107,48.5212379],[2.5594789,48.5212706],[2.5605483,48.5210269],[2.5614912,48.5209058],[2.5622627,48.5207252],[2.5619481,48.5211012]]]]},"properties":{"code_section":"77378000AC","code_commune":"77378","section_courte":"AC"}},{"type":"Feature","geometry":{"type":"MultiPolygon","coordinates":[[[[2.568831,48.5160492],[2.5712001,48.5189773],[2.5715726,48.5188431],[2.5722666,48.5197029],[2.5620956,48.5235138],[2.5612186,48.5219728],[2.5624093,48.5205479],[2.561928,48.5196284],[2.5616699,48.5193669],[2.5615373,48.5190066],[2.5642389,48.5183171],[2.564031,48.5185584],[2.564506,48.5186022],[2.5649595,48.5184965],[2.5649793,48.5185347],[2.5684178,48.517772],[2.5687947,48.5160031],[2.568831,48.5160492]]]]},"properties":{"code_section":"77378000AD","code_commune":"77378","section_courte":"AD"}},{"type":"Feature","geometry":{"type":"MultiPolygon","coordinates":[[[[2.5658522,48.5125342],[2.5661529,48.5124492],[2.566846,48.5135788],[2.5687947,48.5160031],[2.5684178,48.517772],[2.5649793,48.5185347],[2.5649595,48.5184965],[2.564506,48.5186022],[2.564031,48.5185584],[2.5642389,48.5183171],[2.5615373,48.5190066],[2.5611412,48.5175138],[2.560897,48.5170312],[2.5605843,48.5166324],[2.5604653,48.5163626],[2.5603801,48.5160064],[2.5604414,48.5155661],[2.5609427,48.5138205],[2.565743,48.512442],[2.5658522,48.5125342]]]]},"properties":{"code_section":"77378000AE","code_commune":"77378","section_courte":"AE"}},{"type":"Feature","geometry":{"type":"MultiPolygon","coordinates":[[[[2.5608233,48.5142712],[2.5604262,48.5156268],[2.5603801,48.5160064],[2.5604185,48.516187],[2.5605843,48.5166324],[2.560897,48.5170312],[2.5611412,48.5175138],[2.5615969,48.5192117],[2.5616699,48.5193669],[2.561928,48.5196284],[2.5624093,48.5205479],[2.5622627,48.5207252],[2.5614912,48.5209058],[2.5605483,48.5210269],[2.5594789,48.5212706],[2.5593107,48.5212379],[2.5591059,48.5211135],[2.5590956,48.5210728],[2.5593162,48.5203784],[2.5593619,48.5200322],[2.5593256,48.5199799],[2.5592012,48.5199022],[2.5590578,48.5198647],[2.5584543,48.5197969],[2.5578695,48.5196634],[2.557004,48.5192877],[2.5559491,48.5190118],[2.5553603,48.5187327],[2.5545511,48.5179453],[2.5541511,48.5177079],[2.5533629,48.5166248],[2.5541636,48.5164763],[2.5541078,48.5163499],[2.554008,48.5157471],[2.5540092,48.5149593],[2.5555867,48.5146021],[2.5556021,48.5146207],[2.5567478,48.5144311],[2.5575735,48.5143334],[2.557599,48.5143841],[2.5594242,48.514018],[2.5594814,48.5140888],[2.560341,48.5138192],[2.5604256,48.5139694],[2.5609426,48.5138209],[2.5608233,48.5142712]]]]},"properties":{"code_section":"77378000AH","code_commune":"77378","section_courte":"AH"}},{"type":"Feature","geometry":{"type":"MultiPolygon","coordinates":[[[[2.5534425,48.5167461],[2.5541511,48.517708],[2.5545511,48.5179453],[2.5554368,48.5187756],[2.5559491,48.5190118],[2.557004,48.5192877],[2.5578695,48.5196634],[2.5584543,48.5197969],[2.5590578,48.5198647],[2.5592012,48.5199022],[2.5593258,48.5199799],[2.5593619,48.5200322],[2.5593162,48.5203784],[2.5590956,48.5210728],[2.5590024,48.521175],[2.5586284,48.5212036],[2.5574339,48.5211628],[2.5547467,48.5215929],[2.5531596,48.5212794],[2.5502156,48.5208415],[2.5489761,48.5207429],[2.547468,48.5207281],[2.5473115,48.5187775],[2.5474457,48.51876],[2.5474403,48.5186919],[2.5498321,48.5183775],[2.5498812,48.518301],[2.5501057,48.5184225],[2.5516601,48.5188898],[2.5527753,48.5194985],[2.5537506,48.5196775],[2.5539712,48.5194934],[2.5535986,48.5192785],[2.5534871,48.5189895],[2.5533163,48.5188666],[2.5530909,48.5187633],[2.5529863,48.51855],[2.5526661,48.5183561],[2.5526374,48.5182744],[2.55267,48.5180362],[2.5533993,48.5178789],[2.5532746,48.5173428],[2.5532923,48.5169285],[2.5533543,48.5167414],[2.5534425,48.5167461]]]]},"properties":{"code_section":"77378000AI","code_commune":"77378","section_courte":"AI"}},{"type":"Feature","geometry":{"type":"MultiPolygon","coordinates":[[[[2.5594411,48.5241584],[2.559005,48.5246921],[2.5499054,48.5280027],[2.5498201,48.5278881],[2.5503436,48.5257918],[2.5505908,48.5251625],[2.5508476,48.524687],[2.5510503,48.5244681],[2.5519539,48.5237167],[2.5520307,48.5234923],[2.5520351,48.5232021],[2.5520901,48.523123],[2.5545864,48.5216385],[2.5558652,48.5214054],[2.5574339,48.5211628],[2.5586284,48.5212036],[2.5590024,48.521175],[2.5590626,48.5216001],[2.5594159,48.5219832],[2.5595105,48.5224932],[2.5594411,48.5241584]]]]},"properties":{"code_section":"77378000AK","code_commune":"77378","section_courte":"AK"}},{"type":"Feature","geometry":{"type":"MultiPolygon","coordinates":[[[[2.5483985,48.520735],[2.5492603,48.5207562],[2.5502156,48.5208415],[2.5531596,48.5212794],[2.5547467,48.5215929],[2.5545864,48.5216385],[2.5520901,48.523123],[2.5520351,48.5232021],[2.5520312,48.5234937],[2.5519539,48.5237167],[2.5510503,48.5244681],[2.5508439,48.5246939],[2.5505908,48.5251625],[2.5503436,48.5257918],[2.5498201,48.5278881],[2.5499054,48.5280027],[2.5489367,48.5283507],[2.5486615,48.5281481],[2.5483349,48.5279638],[2.5473695,48.5278397],[2.5468552,48.5277403],[2.5473831,48.5240496],[2.5474792,48.5235663],[2.5477342,48.5227068],[2.5476762,48.5207296],[2.5483985,48.520735]]]]},"properties":{"code_section":"77378000AL","code_commune":"77378","section_courte":"AL"}}]}