{"type":"FeatureCollection","features":[{"type":"Feature","geometry":{"type":"MultiPolygon","coordinates":[[[[2.6409505,48.4945603],[2.654148,48.4895873],[2.6542958,48.4897511],[2.6577999,48.4884455],[2.6580985,48.4884615],[2.6598424,48.4878216],[2.6607542,48.4875619],[2.6610646,48.487446],[2.6612483,48.4875114],[2.6616707,48.4874403],[2.6624542,48.4875421],[2.6626201,48.4877062],[2.6632393,48.4879526],[2.6624856,48.4904687],[2.6617386,48.4939392],[2.6620287,48.4959263],[2.6618438,48.4970252],[2.6616695,48.4969995],[2.6613393,48.4979861],[2.6550843,48.5179209],[2.6511012,48.5179993],[2.6515008,48.5149702],[2.6505403,48.5149609],[2.6495689,48.5084846],[2.6493275,48.5065376],[2.6492106,48.5059723],[2.6478037,48.5035873],[2.6461913,48.5006299],[2.6457151,48.4999482],[2.6444811,48.49837],[2.6439839,48.4976314],[2.6413806,48.4950125],[2.641371,48.4949317],[2.6409505,48.4945603]]]]},"properties":{"code_section":"773890000B","code_commune":"77389","section_courte":"B"}},{"type":"Feature","geometry":{"type":"MultiPolygon","coordinates":[[[[2.6685817,48.4943256],[2.668926,48.4942826],[2.6693722,48.4944602],[2.669617,48.4944907],[2.669732,48.49418],[2.6697702,48.4939393],[2.6700654,48.4931743],[2.6700984,48.4928574],[2.6693713,48.4926069],[2.6693186,48.4924782],[2.6695828,48.4921779],[2.6703403,48.4922656],[2.6709226,48.4912704],[2.6710411,48.4910042],[2.6705443,48.4908485],[2.6711032,48.4898598],[2.6713312,48.4895379],[2.6715159,48.4893732],[2.6718579,48.4887931],[2.6720183,48.4886102],[2.6722384,48.488247],[2.6727015,48.4878877],[2.6731631,48.4873534],[2.6733615,48.4872329],[2.6735881,48.4870371],[2.6736847,48.4872475],[2.6736436,48.4878326],[2.6738282,48.4880729],[2.6747269,48.4884156],[2.673721,48.4896502],[2.6724213,48.4915683],[2.6719535,48.4926165],[2.6716985,48.4935216],[2.6715405,48.4946253],[2.6715913,48.496312],[2.6715382,48.4969535],[2.6711041,48.4996334],[2.6702687,48.5037922],[2.6700917,48.5081805],[2.6675725,48.5082415],[2.6656145,48.5077409],[2.6656149,48.5071719],[2.6655514,48.5066128],[2.6654885,48.5066095],[2.6655291,48.5062247],[2.6654865,48.5059716],[2.6651724,48.505226],[2.6649542,48.5049446],[2.6648562,48.5047509],[2.6648332,48.5046083],[2.6652487,48.5040496],[2.6652516,48.5040172],[2.6650378,48.5038347],[2.6651042,48.5028661],[2.6634553,48.5036333],[2.6609731,48.5034148],[2.6597044,48.5041156],[2.6595413,48.504194],[2.6593769,48.5041986],[2.6616695,48.4969995],[2.6618438,48.4970252],[2.6617799,48.4978048],[2.6611667,48.5013291],[2.6608103,48.5022719],[2.6618531,48.5021956],[2.6645192,48.502095],[2.6646297,48.5018334],[2.6646333,48.501634],[2.6648237,48.5010891],[2.6650624,48.4994491],[2.6652411,48.4991511],[2.6654789,48.499113],[2.6657354,48.4991468],[2.6659836,48.499264],[2.6667396,48.4993225],[2.666747,48.4992314],[2.6666675,48.4991306],[2.6666859,48.4990322],[2.6666169,48.4988253],[2.6665505,48.4987807],[2.6666287,48.4984774],[2.6665076,48.4981186],[2.6666552,48.4978426],[2.6667719,48.4978407],[2.6667816,48.4975907],[2.6668922,48.4972778],[2.6668686,48.4970129],[2.6670207,48.4965394],[2.66708,48.4965208],[2.6670551,48.49628],[2.6669505,48.4960699],[2.6670678,48.4956501],[2.667285,48.4952673],[2.6673886,48.4947731],[2.6675295,48.4946614],[2.6677672,48.4945518],[2.6679849,48.4945913],[2.6683909,48.4946125],[2.6685817,48.4943256]]]]},"properties":{"code_section":"773890000C","code_commune":"77389","section_courte":"C"}},{"type":"Feature","geometry":{"type":"MultiPolygon","coordinates":[[[[2.6576532,48.5255267],[2.6570827,48.5251709],[2.6567794,48.5253861],[2.6567526,48.5253669],[2.6565663,48.5254608],[2.6566307,48.5255165],[2.6563496,48.5256107],[2.6561147,48.5253633],[2.656032,48.5248795],[2.6561915,48.5243734],[2.6557275,48.5243112],[2.6557744,48.5241599],[2.6558407,48.5241694],[2.6559053,48.5239683],[2.6558352,48.5239589],[2.655869,48.5238538],[2.6559367,48.5238629],[2.6560023,48.5236507],[2.6559387,48.5236419],[2.6559023,48.523523],[2.6554684,48.523599],[2.6551308,48.5236246],[2.6545028,48.5235892],[2.6544239,48.52384],[2.6532733,48.5236841],[2.6551356,48.5177572],[2.6563407,48.5177456],[2.6563157,48.5178247],[2.6613749,48.5177285],[2.6611221,48.5217974],[2.6613763,48.5215444],[2.6620607,48.5218008],[2.6596135,48.5246856],[2.6587138,48.5250238],[2.6585313,48.5249095],[2.6576532,48.5255267]]]]},"properties":{"code_section":"77389000AB","code_commune":"77389","section_courte":"AB"}},{"type":"Feature","geometry":{"type":"MultiPolygon","coordinates":[[[[2.6662004,48.5205561],[2.6645654,48.5239876],[2.6644533,48.5239391],[2.6642229,48.5239147],[2.6621071,48.5243298],[2.660754,48.5244597],[2.6600779,48.5245579],[2.6596135,48.5246856],[2.6620607,48.5218008],[2.6613763,48.5215444],[2.6611221,48.5217974],[2.6613749,48.5177285],[2.6658847,48.5176625],[2.6654976,48.5188615],[2.6651075,48.5195523],[2.6661536,48.5192501],[2.6662774,48.5204096],[2.6662004,48.5205561]]]]},"properties":{"code_section":"77389000AC","code_commune":"77389","section_courte":"AC"}},{"type":"Feature","geometry":{"type":"MultiPolygon","coordinates":[[[[2.6692632,48.5185844],[2.6702759,48.5184185],[2.6704001,48.5202304],[2.6704994,48.5247691],[2.6704292,48.5254198],[2.6702896,48.5260647],[2.6699888,48.5267827],[2.6689437,48.5265281],[2.6639482,48.5254693],[2.6646396,48.5241093],[2.6645654,48.5239876],[2.6647305,48.5236121],[2.6662774,48.5204096],[2.6661536,48.5192501],[2.6671695,48.5189509],[2.6679697,48.5187867],[2.6692632,48.5185844]]]]},"properties":{"code_section":"77389000AD","code_commune":"77389","section_courte":"AD"}},{"type":"Feature","geometry":{"type":"MultiPolygon","coordinates":[[[[2.6703276,48.5175343],[2.6702759,48.5184185],[2.6679697,48.5187867],[2.6671695,48.5189509],[2.6651075,48.5195523],[2.6654976,48.5188615],[2.6658847,48.5176625],[2.6613749,48.5177285],[2.6616909,48.5123078],[2.662933,48.5123179],[2.6629272,48.5138242],[2.6665423,48.5138434],[2.6663816,48.5151406],[2.6701133,48.5151677],[2.6703276,48.5175343]]]]},"properties":{"code_section":"77389000AE","code_commune":"77389","section_courte":"AE"}},{"type":"Feature","geometry":{"type":"MultiPolygon","coordinates":[[[[2.6574896,48.51241],[2.6574912,48.5122968],[2.6616909,48.5123078],[2.6613749,48.5177285],[2.6563157,48.5178247],[2.6563407,48.5177456],[2.6551356,48.5177572],[2.6568122,48.5124012],[2.6574896,48.51241]]]]},"properties":{"code_section":"77389000AH","code_commune":"77389","section_courte":"AH"}},{"type":"Feature","geometry":{"type":"MultiPolygon","coordinates":[[[[2.6590048,48.507963],[2.6591218,48.5077527],[2.6607836,48.5077367],[2.6616356,48.5076123],[2.6617356,48.5075394],[2.6617847,48.50714],[2.6623123,48.5075211],[2.6624841,48.507963],[2.6628845,48.5084278],[2.6632082,48.5090261],[2.6637439,48.5097006],[2.6640544,48.5103945],[2.6642798,48.5106084],[2.6638523,48.5107608],[2.6629454,48.510886],[2.662933,48.5123179],[2.6574912,48.5122968],[2.6574896,48.51241],[2.6568122,48.5124012],[2.6582213,48.5079771],[2.6589204,48.5079917],[2.6590048,48.507963]]]]},"properties":{"code_section":"77389000AI","code_commune":"77389","section_courte":"AI"}},{"type":"Feature","geometry":{"type":"MultiPolygon","coordinates":[[[[2.6629222,48.5084838],[2.6626741,48.5081858],[2.6656145,48.5077409],[2.6675725,48.5082415],[2.6700917,48.5081805],[2.6698774,48.5118913],[2.6699423,48.5138327],[2.6701133,48.5151677],[2.6663816,48.5151406],[2.6665423,48.5138434],[2.6629272,48.5138242],[2.6629454,48.510886],[2.6638523,48.5107608],[2.6642798,48.5106084],[2.6640544,48.5103945],[2.6637439,48.5097006],[2.6632082,48.5090261],[2.6629222,48.5084838]]]]},"properties":{"code_section":"77389000AK","code_commune":"77389","section_courte":"AK"}},{"type":"Feature","geometry":{"type":"MultiPolygon","coordinates":[[[[2.659155,48.5077511],[2.6590836,48.5077746],[2.6590048,48.507963],[2.658938,48.50799],[2.6582213,48.5079771],[2.6593769,48.5041986],[2.6595413,48.504194],[2.6597044,48.5041156],[2.6609731,48.5034148],[2.6634553,48.5036333],[2.6651042,48.5028661],[2.6650378,48.5038347],[2.6652516,48.5040172],[2.6652487,48.5040496],[2.6648332,48.5046083],[2.6648562,48.5047509],[2.6649542,48.5049446],[2.6651724,48.505226],[2.6654865,48.5059716],[2.6655291,48.5062247],[2.6654885,48.5066095],[2.6655514,48.5066128],[2.6656149,48.5071719],[2.6656145,48.5077409],[2.6626741,48.5081858],[2.6624841,48.507963],[2.6623123,48.5075211],[2.6617847,48.50714],[2.6617356,48.5075394],[2.6616356,48.5076123],[2.6607836,48.5077367],[2.659155,48.5077511]]]]},"properties":{"code_section":"77389000AL","code_commune":"77389","section_courte":"AL"}}]}