{"type":"FeatureCollection","features":[{"type":"Feature","geometry":{"type":"MultiPolygon","coordinates":[[[[2.5094287,48.5237289],[2.509401,48.5234437],[2.5097391,48.5228717],[2.5099874,48.5221394],[2.5118198,48.5223741],[2.5118052,48.5224406],[2.5136503,48.5225107],[2.5142677,48.5225627],[2.5144745,48.5226125],[2.5145943,48.5226822],[2.5165572,48.5239179],[2.5165766,48.5239565],[2.5199211,48.5255099],[2.5247146,48.5243876],[2.5246856,48.5243324],[2.5247495,48.5243178],[2.5247685,48.5243527],[2.5317055,48.5227422],[2.5327264,48.5269929],[2.5329947,48.5286283],[2.532135,48.5290334],[2.5318307,48.5290481],[2.5318765,48.5297141],[2.5310108,48.5296753],[2.5285644,48.5297247],[2.5285489,48.5296289],[2.5284949,48.5296056],[2.528455,48.5292746],[2.5283241,48.5288526],[2.5284149,48.5288374],[2.528502,48.52888],[2.5285203,48.5289495],[2.5285568,48.5289463],[2.5284152,48.5286943],[2.5278223,48.5288752],[2.5258271,48.5289484],[2.5244492,48.5290889],[2.5237957,48.5294331],[2.5234028,48.5294177],[2.5228984,48.5293499],[2.5227125,48.5293843],[2.5224573,48.5294819],[2.52232,48.5293065],[2.5217816,48.5290341],[2.5211201,48.5289636],[2.5208356,48.5293426],[2.5196193,48.5298132],[2.5193672,48.5297743],[2.5173215,48.5289487],[2.5157011,48.5279707],[2.5152425,48.5272806],[2.5140864,48.5258657],[2.5149237,48.5254766],[2.5144562,48.5251707],[2.5143199,48.5251334],[2.5139727,48.5249366],[2.5138018,48.5248882],[2.5136817,48.5248023],[2.5129373,48.5245367],[2.5128527,48.5245616],[2.5124611,48.5245189],[2.5121386,48.5245993],[2.5112705,48.5244109],[2.5094287,48.5237289]]]]},"properties":{"code_section":"774070000D","code_commune":"77407","section_courte":"D"}},{"type":"Feature","geometry":{"type":"MultiPolygon","coordinates":[[[[2.5437482,48.5276595],[2.543005,48.5279903],[2.5399441,48.5286897],[2.5364263,48.5299359],[2.5360885,48.530015],[2.5358842,48.5300321],[2.5354647,48.5299788],[2.5318765,48.5297141],[2.5318307,48.5290481],[2.532135,48.5290334],[2.5329947,48.5286283],[2.5327264,48.5269929],[2.5317055,48.5227422],[2.5375709,48.5213801],[2.5377205,48.5213667],[2.5379953,48.5216233],[2.5386431,48.5219686],[2.5388274,48.522013],[2.5390338,48.5220178],[2.5392073,48.5221253],[2.5413738,48.5244447],[2.542972,48.5258435],[2.54306,48.5241166],[2.5428354,48.5231779],[2.5427881,48.5231757],[2.542671,48.5226446],[2.5423352,48.5216018],[2.5421063,48.5207324],[2.543212,48.5207411],[2.545183,48.5208347],[2.5458442,48.5207239],[2.5476376,48.5206512],[2.5477689,48.522673],[2.5475497,48.5234869],[2.5469274,48.5277694],[2.5446596,48.5273269],[2.5444626,48.5273309],[2.5437482,48.5276595]]]]},"properties":{"code_section":"774070000E","code_commune":"77407","section_courte":"E"}},{"type":"Feature","geometry":{"type":"MultiPolygon","coordinates":[[[[2.5378261,48.5212813],[2.5377205,48.5213667],[2.5375709,48.5213801],[2.5247685,48.5243527],[2.524295,48.5235879],[2.5241609,48.5232495],[2.5241343,48.5228978],[2.5242132,48.5224074],[2.5245727,48.5207048],[2.5254144,48.5189743],[2.5261375,48.5178712],[2.5262087,48.517621],[2.5263592,48.5176131],[2.5262961,48.5173669],[2.5263301,48.5161968],[2.5242635,48.5163536],[2.5242377,48.5153639],[2.5234751,48.515384],[2.5227243,48.5152757],[2.522637,48.5138124],[2.5228247,48.5137961],[2.5224983,48.5116746],[2.522694,48.5115028],[2.5226764,48.5114433],[2.5236319,48.5115886],[2.5252406,48.5119578],[2.5252857,48.5119884],[2.5256052,48.5133796],[2.5258866,48.5155229],[2.527946,48.5151474],[2.5282135,48.5153928],[2.528477,48.5154237],[2.5320951,48.5151159],[2.5334423,48.5153735],[2.5346992,48.5163439],[2.5350153,48.5165002],[2.535167,48.5166203],[2.5351678,48.5166628],[2.5354038,48.516724],[2.5359489,48.5171294],[2.5362809,48.517259],[2.5362774,48.5173027],[2.5379669,48.517429],[2.5380996,48.5174737],[2.5405376,48.5177662],[2.5411321,48.520056],[2.5408846,48.5201132],[2.5409153,48.5202252],[2.5397505,48.5204928],[2.5397116,48.5204382],[2.5385809,48.5206622],[2.5385131,48.5205131],[2.5375599,48.5207666],[2.5376856,48.5209453],[2.5378261,48.5212813]]]]},"properties":{"code_section":"774070000F","code_commune":"77407","section_courte":"F"}},{"type":"Feature","geometry":{"type":"MultiPolygon","coordinates":[[[[2.5103432,48.5431325],[2.5105678,48.5430928],[2.5107486,48.5431094],[2.510948,48.5431543],[2.5111142,48.5432445],[2.5123874,48.5442628],[2.5130585,48.5449236],[2.5060823,48.551434],[2.506076,48.5512538],[2.5054848,48.5490087],[2.5053327,48.5489918],[2.5052793,48.5489538],[2.5052614,48.5485927],[2.5051837,48.5483814],[2.5050687,48.5481856],[2.504822,48.548054],[2.5047724,48.5479365],[2.5043257,48.5477311],[2.5039609,48.5476838],[2.5036923,48.5475504],[2.503635,48.5473335],[2.5032252,48.5467873],[2.5030743,48.5461533],[2.5029821,48.5460581],[2.5024102,48.5461295],[2.5019738,48.5461178],[2.5008723,48.5461535],[2.5005284,48.5462432],[2.4996396,48.5465489],[2.4993062,48.5453166],[2.4996263,48.544627],[2.4996577,48.544241],[2.4998428,48.5441721],[2.4996731,48.543678],[2.4995034,48.5428922],[2.5003534,48.5427788],[2.5023279,48.5428319],[2.502652,48.5428616],[2.5032808,48.5430365],[2.5038369,48.5431537],[2.5046055,48.5432482],[2.5087547,48.5432644],[2.5095998,48.5432165],[2.5103432,48.5431325]]]]},"properties":{"code_section":"774070000G","code_commune":"77407","section_courte":"G"}},{"type":"Feature","geometry":{"type":"MultiPolygon","coordinates":[[[[2.5307791,48.5710252],[2.5308616,48.5712712],[2.5289498,48.5713566],[2.5270615,48.5715109],[2.5257444,48.5714499],[2.5249018,48.5712491],[2.5240506,48.5708862],[2.5228417,48.5707769],[2.5192313,48.5701946],[2.5195478,48.5696923],[2.5197879,48.5692135],[2.5198536,48.5692153],[2.5201514,48.5685639],[2.5202984,48.5679438],[2.5203647,48.5674369],[2.52058,48.5668895],[2.5209549,48.5661726],[2.5207329,48.5654902],[2.5206399,48.5654782],[2.5205875,48.5651785],[2.5256327,48.5659288],[2.5256304,48.5658962],[2.525681,48.5659018],[2.5256817,48.5659691],[2.5258726,48.5659987],[2.5258701,48.5659361],[2.529341,48.5664325],[2.5308651,48.5710195],[2.5307791,48.5710252]]]]},"properties":{"code_section":"77407000AB","code_commune":"77407","section_courte":"AB"}},{"type":"Feature","geometry":{"type":"MultiPolygon","coordinates":[[[[2.5394151,48.5680214],[2.5395101,48.5680415],[2.5401428,48.5685092],[2.5394343,48.568892],[2.5387753,48.5691836],[2.536778,48.5698527],[2.5348848,48.5703443],[2.533381,48.5707907],[2.5335046,48.5710978],[2.5310414,48.5714372],[2.5309011,48.5710164],[2.5308651,48.5710195],[2.5307861,48.5708413],[2.529341,48.5664325],[2.5330484,48.567058],[2.5394151,48.5680214]]]]},"properties":{"code_section":"77407000AC","code_commune":"77407","section_courte":"AC"}},{"type":"Feature","geometry":{"type":"MultiPolygon","coordinates":[[[[2.5424349,48.5661047],[2.5420399,48.5667959],[2.5415848,48.5673445],[2.5407672,48.568088],[2.5401428,48.5685092],[2.5395101,48.5680415],[2.5394151,48.5680214],[2.5330484,48.567058],[2.5334242,48.5627795],[2.5346743,48.5629592],[2.5373336,48.5629302],[2.5377738,48.5631438],[2.5381639,48.563277],[2.5397155,48.5633795],[2.5409729,48.5636064],[2.5424843,48.563642],[2.5427387,48.5636089],[2.5427834,48.5636914],[2.5428497,48.5645768],[2.5427001,48.5653923],[2.5424349,48.5661047]]]]},"properties":{"code_section":"77407000AD","code_commune":"77407","section_courte":"AD"}},{"type":"Feature","geometry":{"type":"MultiPolygon","coordinates":[[[[2.528894,48.562186],[2.5334242,48.5627795],[2.5330484,48.567058],[2.529341,48.5664325],[2.5266631,48.5660439],[2.5265013,48.561863],[2.528894,48.562186]]]]},"properties":{"code_section":"77407000AE","code_commune":"77407","section_courte":"AE"}},{"type":"Feature","geometry":{"type":"MultiPolygon","coordinates":[[[[2.5159014,48.560894],[2.5158781,48.5608326],[2.5190206,48.5608913],[2.5265013,48.561863],[2.5266631,48.5660439],[2.5258701,48.5659361],[2.5258726,48.5659987],[2.5256817,48.5659691],[2.525681,48.5659018],[2.5256304,48.5658962],[2.5256327,48.5659288],[2.5205875,48.5651785],[2.5204668,48.564477],[2.5201818,48.5644265],[2.5201642,48.5637174],[2.5199442,48.5637126],[2.5198959,48.5626829],[2.5159014,48.560894]]]]},"properties":{"code_section":"77407000AH","code_commune":"77407","section_courte":"AH"}},{"type":"Feature","geometry":{"type":"MultiPolygon","coordinates":[[[[2.5142179,48.5590437],[2.5146957,48.5586707],[2.5151158,48.558422],[2.5158833,48.5580572],[2.5175726,48.5573542],[2.5179869,48.5571326],[2.5187176,48.5566247],[2.5195559,48.5558415],[2.5198653,48.5556707],[2.5202131,48.5555258],[2.5206323,48.5554135],[2.5224787,48.5550549],[2.5230853,48.5549054],[2.5235901,48.5547575],[2.5245645,48.5543934],[2.5248013,48.555028],[2.5249223,48.555543],[2.5250776,48.5559728],[2.5251683,48.5564522],[2.5251099,48.5571161],[2.5249536,48.5574917],[2.5254413,48.5574181],[2.5254113,48.5590313],[2.5262728,48.5593733],[2.5266243,48.5593485],[2.5290547,48.5603328],[2.5290996,48.5605568],[2.5289963,48.5609576],[2.528894,48.562186],[2.5190206,48.5608913],[2.5154339,48.5608202],[2.5153505,48.5605915],[2.5150287,48.5600406],[2.514681,48.5595715],[2.5142179,48.5590437]]]]},"properties":{"code_section":"77407000AI","code_commune":"77407","section_courte":"AI"}},{"type":"Feature","geometry":{"type":"MultiPolygon","coordinates":[[[[2.5346743,48.5629592],[2.528894,48.562186],[2.5289963,48.5609576],[2.5290996,48.5605568],[2.5289566,48.5598437],[2.5332117,48.5588334],[2.5344644,48.5602876],[2.5348817,48.5609816],[2.5373336,48.5629302],[2.5346743,48.5629592]]]]},"properties":{"code_section":"77407000AK","code_commune":"77407","section_courte":"AK"}},{"type":"Feature","geometry":{"type":"MultiPolygon","coordinates":[[[[2.5344691,48.5585652],[2.53568,48.5577608],[2.5361977,48.5581085],[2.5367643,48.5577253],[2.5376853,48.5572245],[2.538237,48.5575034],[2.5402214,48.5588012],[2.5441154,48.5614829],[2.5434492,48.5621013],[2.5428937,48.5630536],[2.5428178,48.563278],[2.5428499,48.5635008],[2.5427908,48.5635842],[2.5427086,48.5636234],[2.5424843,48.563642],[2.5409729,48.5636064],[2.5397155,48.5633795],[2.5381639,48.563277],[2.5377738,48.5631438],[2.5373336,48.5629302],[2.5348817,48.5609816],[2.5344644,48.5602876],[2.5329818,48.5585255],[2.5343183,48.5585128],[2.5344445,48.5585833],[2.5344691,48.5585652]]]]},"properties":{"code_section":"77407000AL","code_commune":"77407","section_courte":"AL"}},{"type":"Feature","geometry":{"type":"MultiPolygon","coordinates":[[[[2.5277465,48.5557252],[2.5279816,48.5559966],[2.5283346,48.5568713],[2.5309647,48.5563007],[2.531894,48.5558531],[2.5338343,48.5547645],[2.5341416,48.5549518],[2.5359722,48.5562742],[2.5365467,48.5566343],[2.5370128,48.5569947],[2.5376853,48.5572245],[2.5367643,48.5577253],[2.5361977,48.5581085],[2.53568,48.5577608],[2.5344445,48.5585833],[2.5343183,48.5585128],[2.5329818,48.5585255],[2.5332117,48.5588334],[2.5289566,48.5598437],[2.5290547,48.5603328],[2.5266243,48.5593485],[2.5262728,48.5593733],[2.5254113,48.5590313],[2.5254413,48.5574181],[2.5249536,48.5574917],[2.5251099,48.5571161],[2.5251683,48.5564522],[2.5251243,48.5562016],[2.5277465,48.5557252]]]]},"properties":{"code_section":"77407000AM","code_commune":"77407","section_courte":"AM"}},{"type":"Feature","geometry":{"type":"MultiPolygon","coordinates":[[[[2.5268385,48.5524326],[2.5269672,48.5524503],[2.5275364,48.5533191],[2.5285023,48.5530453],[2.5292149,48.5526799],[2.5292763,48.5524378],[2.5294051,48.5521885],[2.529048,48.5515537],[2.5290702,48.5514407],[2.5291683,48.5513643],[2.5301924,48.5510902],[2.530648,48.5518917],[2.5311683,48.5525855],[2.5321689,48.5534587],[2.533097,48.5542148],[2.5338343,48.5547645],[2.531894,48.5558531],[2.5309647,48.5563007],[2.5283346,48.5568713],[2.5279816,48.5559966],[2.5277465,48.5557252],[2.5251243,48.5562016],[2.5247788,48.5549567],[2.5245856,48.5544166],[2.5245332,48.5543586],[2.5242673,48.5535165],[2.5239939,48.5522502],[2.5248366,48.5521721],[2.5255367,48.5520713],[2.5257393,48.5526043],[2.5265841,48.5524574],[2.5266119,48.5525018],[2.5268385,48.5524326]]]]},"properties":{"code_section":"77407000AN","code_commune":"77407","section_courte":"AN"}},{"type":"Feature","geometry":{"type":"MultiPolygon","coordinates":[[[[2.5269672,48.5524503],[2.5268608,48.5524257],[2.5266119,48.5525018],[2.5265841,48.5524574],[2.5257393,48.5526043],[2.5254342,48.5518021],[2.5252465,48.5514236],[2.5245661,48.5504397],[2.5240856,48.5491915],[2.5240752,48.5490644],[2.5251395,48.5446963],[2.5271637,48.544806],[2.5279437,48.5449871],[2.5282987,48.5450344],[2.528492,48.5445037],[2.5285095,48.5442976],[2.5287137,48.5440502],[2.5285357,48.5442894],[2.5285181,48.544399],[2.5285579,48.5444283],[2.5287078,48.5444449],[2.5290442,48.544605],[2.5290673,48.5448395],[2.5292392,48.5445532],[2.5303676,48.5448266],[2.5299811,48.5455254],[2.5297794,48.5460116],[2.5296491,48.5464331],[2.5295831,48.5469515],[2.5295952,48.547404],[2.5297505,48.5488457],[2.5299698,48.5504094],[2.5301652,48.5509081],[2.5301924,48.5510902],[2.5291683,48.5513643],[2.5290702,48.5514407],[2.529048,48.5515537],[2.5294051,48.5521885],[2.5292763,48.5524378],[2.5292149,48.5526799],[2.5285023,48.5530453],[2.5275364,48.5533191],[2.5269672,48.5524503]]]]},"properties":{"code_section":"77407000AO","code_commune":"77407","section_courte":"AO"}},{"type":"Feature","geometry":{"type":"MultiPolygon","coordinates":[[[[2.5251395,48.5446963],[2.5240752,48.5490644],[2.5240856,48.5491915],[2.5245661,48.5504397],[2.5252465,48.5514236],[2.5255367,48.5520713],[2.5248366,48.5521721],[2.5239939,48.5522502],[2.5242673,48.5535165],[2.5245645,48.5543934],[2.5235901,48.5547575],[2.5230853,48.5549054],[2.5224787,48.5550549],[2.5206323,48.5554135],[2.5202131,48.5555258],[2.5198653,48.5556707],[2.5195559,48.5558415],[2.5187176,48.5566247],[2.5179869,48.5571326],[2.5175726,48.5573542],[2.5158833,48.5580572],[2.5151158,48.558422],[2.5146957,48.5586707],[2.5142179,48.5590437],[2.512421,48.5568557],[2.5060823,48.551434],[2.5105124,48.5473079],[2.5247385,48.5448298],[2.5251395,48.5446963]]]]},"properties":{"code_section":"77407000AP","code_commune":"77407","section_courte":"AP"}},{"type":"Feature","geometry":{"type":"MultiPolygon","coordinates":[[[[2.5194781,48.5390598],[2.5201947,48.5387701],[2.5307255,48.534944],[2.5308199,48.5350857],[2.5306762,48.5354733],[2.5304674,48.5358946],[2.5301099,48.5363924],[2.529755,48.5367238],[2.5292835,48.537356],[2.5289639,48.5376508],[2.5280026,48.538169],[2.5277092,48.5384109],[2.5269032,48.5393483],[2.5266252,48.5397752],[2.5265516,48.5401951],[2.5265669,48.5409922],[2.5264472,48.5418438],[2.5259516,48.5437059],[2.5251395,48.5446963],[2.5247385,48.5448298],[2.5105124,48.5473079],[2.5182137,48.5401103],[2.5191224,48.5392959],[2.5194781,48.5390598]]]]},"properties":{"code_section":"77407000AR","code_commune":"77407","section_courte":"AR"}},{"type":"Feature","geometry":{"type":"MultiPolygon","coordinates":[[[[2.5259516,48.5437059],[2.5264472,48.5418438],[2.5265669,48.5409922],[2.5276073,48.5410315],[2.5291148,48.5413022],[2.5293395,48.5412457],[2.5305627,48.5404697],[2.5316376,48.540102],[2.53262,48.5393492],[2.5330235,48.5392353],[2.5343726,48.5390447],[2.5351755,48.5386457],[2.5355183,48.538991],[2.5353669,48.5393593],[2.5353825,48.5395182],[2.5359985,48.5401073],[2.5351173,48.5404964],[2.534118,48.5410789],[2.5321785,48.5425082],[2.5316113,48.5430385],[2.5303676,48.5448266],[2.5292392,48.5445532],[2.5290673,48.5448395],[2.5290442,48.544605],[2.5287078,48.5444449],[2.5285579,48.5444283],[2.5285181,48.544399],[2.5285357,48.5442894],[2.5287137,48.5440502],[2.5285095,48.5442976],[2.528492,48.5445037],[2.5282987,48.5450344],[2.5279437,48.5449871],[2.5271637,48.544806],[2.5251395,48.5446963],[2.5259516,48.5437059]]]]},"properties":{"code_section":"77407000AS","code_commune":"77407","section_courte":"AS"}},{"type":"Feature","geometry":{"type":"MultiPolygon","coordinates":[[[[2.5353987,48.5385133],[2.5343726,48.5390447],[2.5330235,48.5392353],[2.53262,48.5393492],[2.5316376,48.540102],[2.5305627,48.5404697],[2.5293395,48.5412457],[2.5291148,48.5413022],[2.5276073,48.5410315],[2.5265669,48.5409922],[2.5265679,48.5399569],[2.5266252,48.5397752],[2.5269032,48.5393483],[2.5277092,48.5384109],[2.5280026,48.538169],[2.5289639,48.5376508],[2.5292835,48.537356],[2.529755,48.5367238],[2.5301099,48.5363924],[2.5302589,48.5362025],[2.5304674,48.5358946],[2.5306762,48.5354733],[2.5308749,48.5354324],[2.5321158,48.5353939],[2.532588,48.5354414],[2.5330932,48.5354521],[2.534064,48.5352717],[2.5352105,48.5350169],[2.5356338,48.5349731],[2.5355632,48.5348512],[2.5356501,48.5348151],[2.5359134,48.5348851],[2.5361243,48.5348759],[2.5362355,48.5354558],[2.5358416,48.5356904],[2.5349921,48.5359098],[2.5340601,48.5362199],[2.5336188,48.5363046],[2.5339273,48.5366833],[2.5345623,48.5371146],[2.5353994,48.5378315],[2.5358881,48.5381752],[2.5353987,48.5385133]]]]},"properties":{"code_section":"77407000AT","code_commune":"77407","section_courte":"AT"}},{"type":"Feature","geometry":{"type":"MultiPolygon","coordinates":[[[[2.5364025,48.5399684],[2.5359985,48.5401073],[2.5353825,48.5395182],[2.5353669,48.5393593],[2.5355183,48.538991],[2.5351755,48.5386457],[2.5358881,48.5381752],[2.5353994,48.5378315],[2.5345623,48.5371146],[2.5339273,48.5366833],[2.5336188,48.5363046],[2.5340601,48.5362198],[2.5349921,48.5359098],[2.5358416,48.5356904],[2.5362355,48.5354558],[2.5361243,48.5348759],[2.5375478,48.5348598],[2.5379602,48.5349281],[2.5382913,48.5350092],[2.5397151,48.5356261],[2.5408389,48.536022],[2.5418828,48.535655],[2.5442682,48.534884],[2.5463214,48.5343496],[2.5478657,48.5374427],[2.5418706,48.5386063],[2.5377352,48.5395855],[2.5364025,48.5399684]]]]},"properties":{"code_section":"77407000AV","code_commune":"77407","section_courte":"AV"}},{"type":"Feature","geometry":{"type":"MultiPolygon","coordinates":[[[[2.5361243,48.5348759],[2.5359134,48.5348851],[2.5356501,48.5348151],[2.5355835,48.534703],[2.5352217,48.5333197],[2.5441854,48.5300698],[2.5449657,48.5315305],[2.5463214,48.5343496],[2.5442682,48.5348841],[2.5418828,48.535655],[2.5408389,48.536022],[2.5397151,48.5356261],[2.5382913,48.5350092],[2.5379602,48.5349281],[2.5375478,48.5348598],[2.5361243,48.5348759]]]]},"properties":{"code_section":"77407000AW","code_commune":"77407","section_courte":"AW"}},{"type":"Feature","geometry":{"type":"MultiPolygon","coordinates":[[[[2.550058,48.5350298],[2.5491974,48.5349751],[2.5489561,48.5350615],[2.5488193,48.5351537],[2.5488467,48.5356314],[2.5486639,48.5361162],[2.548694,48.5364636],[2.548646,48.5365291],[2.548555,48.5365593],[2.5488896,48.5372461],[2.5478657,48.5374427],[2.5449657,48.5315305],[2.5441854,48.5300698],[2.5472241,48.5289457],[2.5489708,48.5283603],[2.5494662,48.5283019],[2.5500273,48.5286431],[2.5506079,48.528882],[2.5505811,48.5303591],[2.5509963,48.5308855],[2.5511783,48.5311997],[2.5512542,48.5313785],[2.5513029,48.5316712],[2.5513021,48.5319161],[2.5512331,48.5321773],[2.5514223,48.5322096],[2.5510983,48.5331834],[2.5501378,48.5350385],[2.550058,48.5350298]]]]},"properties":{"code_section":"77407000AX","code_commune":"77407","section_courte":"AX"}},{"type":"Feature","geometry":{"type":"MultiPolygon","coordinates":[[[[2.5579132,48.5334131],[2.554093,48.5340472],[2.5541694,48.5342768],[2.5502423,48.5348131],[2.5510983,48.5331834],[2.5514223,48.5322096],[2.5512331,48.5321773],[2.5513021,48.5319161],[2.5513029,48.5316712],[2.5512542,48.5313785],[2.5511783,48.5311997],[2.5509963,48.5308855],[2.5505811,48.5303591],[2.5506079,48.528882],[2.5510778,48.5290492],[2.5519835,48.529274],[2.554445,48.5296372],[2.5564165,48.5298705],[2.5570074,48.5299094],[2.5573085,48.5312589],[2.556755,48.5313491],[2.5571131,48.5321318],[2.5606856,48.5315325],[2.5612228,48.5328408],[2.5579132,48.5334131]]]]},"properties":{"code_section":"77407000AY","code_commune":"77407","section_courte":"AY"}},{"type":"Feature","geometry":{"type":"MultiPolygon","coordinates":[[[[2.5473627,48.5278449],[2.5482924,48.527976],[2.5485615,48.5280935],[2.5489708,48.5283603],[2.5472241,48.5289457],[2.5433385,48.5303831],[2.5372052,48.5325954],[2.5353976,48.531514],[2.5355344,48.5312085],[2.5358842,48.5300321],[2.5360885,48.530015],[2.5364263,48.5299359],[2.5399441,48.5286897],[2.543005,48.5279903],[2.5444626,48.5273309],[2.5446596,48.5273269],[2.5448781,48.5273638],[2.5473627,48.5278449]]]]},"properties":{"code_section":"77407000AZ","code_commune":"77407","section_courte":"AZ"}},{"type":"Feature","geometry":{"type":"MultiPolygon","coordinates":[[[[2.5353976,48.531514],[2.5372052,48.5325954],[2.5352217,48.5333197],[2.5355835,48.534703],[2.5356501,48.5348151],[2.5355632,48.5348512],[2.5356338,48.5349731],[2.5352105,48.5350169],[2.534064,48.5352717],[2.5330932,48.5354521],[2.532588,48.5354414],[2.5321158,48.5353939],[2.5308749,48.5354324],[2.5306762,48.5354733],[2.5308199,48.5350857],[2.5307255,48.534944],[2.5271756,48.533734],[2.526881,48.5336743],[2.5264724,48.5336789],[2.526172,48.5327457],[2.5269718,48.5326143],[2.5275933,48.5325501],[2.5295759,48.5322274],[2.5293379,48.5315255],[2.529422,48.5315106],[2.5290879,48.530572],[2.5288507,48.5297344],[2.5314166,48.5296838],[2.5354647,48.5299788],[2.5358842,48.5300321],[2.5355344,48.5312085],[2.5353976,48.531514]]]]},"properties":{"code_section":"77407000BC","code_commune":"77407","section_courte":"BC"}},{"type":"Feature","geometry":{"type":"MultiPolygon","coordinates":[[[[2.5283672,48.5288361],[2.5283241,48.5288526],[2.528455,48.5292746],[2.5284949,48.5296056],[2.5285489,48.5296289],[2.5285644,48.5297247],[2.5288507,48.5297344],[2.5290879,48.530572],[2.5282537,48.5307074],[2.5275724,48.5307789],[2.5270952,48.5308797],[2.526027,48.53101],[2.5253861,48.5311386],[2.5251543,48.5312966],[2.5250249,48.5313276],[2.5247136,48.5315027],[2.524573,48.5316177],[2.524261,48.532143],[2.5227572,48.5318526],[2.5229756,48.5311506],[2.5222618,48.530988],[2.5213525,48.5304852],[2.5208206,48.5303427],[2.5196193,48.5298132],[2.5208356,48.5293426],[2.5211201,48.5289636],[2.5217816,48.5290341],[2.52232,48.5293065],[2.5224573,48.5294819],[2.5227125,48.5293843],[2.5228984,48.5293499],[2.5234028,48.5294177],[2.5238576,48.5294225],[2.5244492,48.5290889],[2.5249899,48.529027],[2.5258271,48.5289484],[2.5278223,48.5288752],[2.5284152,48.5286943],[2.5284767,48.5287893],[2.5283672,48.5288361]]]]},"properties":{"code_section":"77407000BD","code_commune":"77407","section_courte":"BD"}},{"type":"Feature","geometry":{"type":"MultiPolygon","coordinates":[[[[2.5196193,48.5298132],[2.5208206,48.5303427],[2.5213525,48.5304852],[2.5222618,48.530988],[2.5229756,48.5311506],[2.5227572,48.5318526],[2.524261,48.532143],[2.524573,48.5316177],[2.5247136,48.5315027],[2.5250249,48.5313276],[2.5251543,48.5312966],[2.5253861,48.5311386],[2.526027,48.53101],[2.5270952,48.5308797],[2.5275724,48.5307789],[2.5282537,48.5307074],[2.5290879,48.530572],[2.529422,48.5315106],[2.5293379,48.5315255],[2.5295759,48.5322274],[2.5275933,48.5325501],[2.5269718,48.5326143],[2.526172,48.5327457],[2.5264724,48.5336789],[2.526881,48.5336743],[2.5271756,48.533734],[2.5307255,48.534944],[2.5212379,48.5383939],[2.5213247,48.5372147],[2.5212117,48.5350064],[2.521275,48.5346649],[2.5214938,48.5341026],[2.5211378,48.5340838],[2.5204739,48.5339637],[2.5196263,48.5336245],[2.5176366,48.5327537],[2.5167644,48.5324822],[2.5171313,48.532644],[2.5155234,48.5321736],[2.515475,48.5322166],[2.5154008,48.5321394],[2.5149229,48.5310396],[2.5141749,48.5298392],[2.5131811,48.5290748],[2.5147257,48.5284016],[2.5153899,48.5289068],[2.5162758,48.5283171],[2.5174774,48.5290243],[2.5191859,48.5297078],[2.5193672,48.5297743],[2.5196193,48.5298132]]]]},"properties":{"code_section":"77407000BE","code_commune":"77407","section_courte":"BE"}},{"type":"Feature","geometry":{"type":"MultiPolygon","coordinates":[[[[2.5095029,48.5239969],[2.5094391,48.5237493],[2.5112705,48.5244109],[2.5121386,48.5245993],[2.5124611,48.5245189],[2.5128527,48.5245616],[2.5129373,48.5245367],[2.5136817,48.5248023],[2.5138018,48.5248882],[2.5139727,48.5249366],[2.5143199,48.5251334],[2.5144562,48.5251707],[2.5149237,48.5254766],[2.5140864,48.5258657],[2.5152425,48.5272806],[2.5157011,48.5279707],[2.5162758,48.5283171],[2.5153965,48.5289034],[2.5147257,48.5284016],[2.5131811,48.5290748],[2.5123903,48.5283922],[2.5122239,48.5283744],[2.5121637,48.5283416],[2.510724,48.5273647],[2.509699,48.5264995],[2.509546,48.526555],[2.5090458,48.5261258],[2.5090127,48.5259942],[2.5093543,48.525473],[2.5095036,48.5251668],[2.5095774,48.5248996],[2.5096315,48.5244655],[2.5094359,48.5240898],[2.5095029,48.5239969]]]]},"properties":{"code_section":"77407000BH","code_commune":"77407","section_courte":"BH"}},{"type":"Feature","geometry":{"type":"MultiPolygon","coordinates":[[[[2.5427881,48.5231757],[2.5428354,48.5231779],[2.5430639,48.5241501],[2.5430083,48.5246697],[2.542972,48.5258435],[2.5413738,48.5244447],[2.5392073,48.5221253],[2.5390338,48.5220178],[2.5388274,48.522013],[2.5386431,48.5219686],[2.5379953,48.5216233],[2.5377205,48.5213667],[2.5378298,48.5212899],[2.5376856,48.5209453],[2.5375599,48.5207666],[2.5385131,48.5205131],[2.5385809,48.5206622],[2.5397116,48.5204382],[2.5397505,48.5204928],[2.5409153,48.5202252],[2.5408846,48.5201132],[2.5411321,48.520056],[2.5413358,48.5207907],[2.5414102,48.5208092],[2.542004,48.5207241],[2.5421063,48.5207324],[2.5423352,48.5216018],[2.542671,48.5226446],[2.5427881,48.5231757]]]]},"properties":{"code_section":"77407000BI","code_commune":"77407","section_courte":"BI"}},{"type":"Feature","geometry":{"type":"MultiPolygon","coordinates":[[[[2.5387957,48.5694575],[2.5408049,48.5713139],[2.5408579,48.5714781],[2.5408309,48.5716329],[2.5407272,48.5717803],[2.540552,48.5719036],[2.540622,48.5719756],[2.5408665,48.5726785],[2.5384806,48.5732095],[2.5368085,48.5734571],[2.5357428,48.5735782],[2.5324704,48.5737962],[2.5314833,48.5738094],[2.5306698,48.571281],[2.5308616,48.5712712],[2.5307791,48.5710252],[2.5309011,48.5710164],[2.5310414,48.5714372],[2.5335046,48.5710978],[2.533381,48.5707907],[2.5348848,48.5703443],[2.536778,48.5698527],[2.5385792,48.5692595],[2.5387957,48.5694575]]]]},"properties":{"code_section":"77407000BK","code_commune":"77407","section_courte":"BK"}},{"type":"Feature","geometry":{"type":"MultiPolygon","coordinates":[[[[2.5426858,48.5663714],[2.5471211,48.5681822],[2.548171,48.568397],[2.5472238,48.569391],[2.5465239,48.5699795],[2.5452422,48.5709999],[2.5442636,48.5716187],[2.543322,48.572026],[2.5408665,48.5726785],[2.540622,48.5719756],[2.540552,48.5719036],[2.5407322,48.5717754],[2.5408355,48.5716217],[2.5408563,48.5714597],[2.540798,48.5713032],[2.5385792,48.5692595],[2.5392324,48.5689903],[2.5397794,48.5687194],[2.5406656,48.5681614],[2.5412869,48.5676376],[2.5418007,48.5671031],[2.5420812,48.5667344],[2.5423763,48.5662447],[2.5426858,48.5663714]]]]},"properties":{"code_section":"77407000BL","code_commune":"77407","section_courte":"BL"}},{"type":"Feature","geometry":{"type":"MultiPolygon","coordinates":[[[[2.5427908,48.5635842],[2.5428499,48.5635008],[2.5428178,48.563278],[2.5428937,48.5630536],[2.5434492,48.5621013],[2.5441154,48.5614829],[2.5464726,48.5632143],[2.5472707,48.5640017],[2.5477658,48.5647139],[2.5480047,48.5651359],[2.5483913,48.5660804],[2.5486011,48.5669823],[2.5484804,48.5677275],[2.548171,48.568397],[2.5471211,48.5681822],[2.5423763,48.5662447],[2.5427001,48.5653923],[2.5428497,48.5645768],[2.5427834,48.5636914],[2.5427387,48.5636089],[2.5427908,48.5635842]]]]},"properties":{"code_section":"77407000BM","code_commune":"77407","section_courte":"BM"}},{"type":"Feature","geometry":{"type":"MultiPolygon","coordinates":[[[[2.5109429,48.5430291],[2.51099,48.5430211],[2.5100184,48.5414437],[2.5092213,48.5397263],[2.5081883,48.538795],[2.5074701,48.5380438],[2.508118,48.5377911],[2.5065495,48.5363069],[2.5072924,48.5359209],[2.5060349,48.5349086],[2.5051389,48.5358233],[2.5046931,48.5356064],[2.5038183,48.5349974],[2.5024129,48.5341691],[2.5033255,48.5337836],[2.5054219,48.5327153],[2.5048346,48.5322246],[2.5038583,48.53127],[2.5026003,48.5315886],[2.5016059,48.5303637],[2.5016776,48.5303312],[2.5011698,48.5294509],[2.5017616,48.5293378],[2.5011552,48.5280543],[2.5061598,48.5273407],[2.5088404,48.5267942],[2.509699,48.5264995],[2.510724,48.5273647],[2.5112136,48.5277188],[2.5121635,48.5283416],[2.5122239,48.5283744],[2.5123903,48.5283922],[2.5131811,48.5290748],[2.5141749,48.5298392],[2.5149229,48.5310396],[2.5154008,48.5321394],[2.515475,48.5322166],[2.5155234,48.5321736],[2.5171313,48.532644],[2.5167644,48.5324822],[2.5176366,48.5327537],[2.5196263,48.5336245],[2.5204739,48.5339637],[2.5211378,48.5340838],[2.5214938,48.5341026],[2.521275,48.5346649],[2.5212117,48.5350064],[2.5213247,48.5372147],[2.5212379,48.5383939],[2.5194781,48.5390598],[2.5191224,48.5392959],[2.5130585,48.5449236],[2.5123874,48.5442628],[2.5111142,48.5432445],[2.5108872,48.5431359],[2.5105678,48.5430928],[2.5109429,48.5430291]]]]},"properties":{"code_section":"77407000ZA","code_commune":"77407","section_courte":"ZA"}},{"type":"Feature","geometry":{"type":"MultiPolygon","coordinates":[[[[2.5008858,48.5272381],[2.499928,48.5274152],[2.4980027,48.5275476],[2.497274,48.5253091],[2.4995196,48.5250304],[2.4992783,48.5240618],[2.4991106,48.5240792],[2.4986302,48.5220342],[2.4979514,48.5219974],[2.4981535,48.5208922],[2.4970167,48.5207318],[2.4978446,48.518821],[2.4975818,48.5188078],[2.497635,48.5172822],[2.4979074,48.5172092],[2.4982736,48.5170509],[2.4990311,48.5169473],[2.5000872,48.5169445],[2.5012784,48.5169843],[2.5019517,48.5170499],[2.5023759,48.5165728],[2.5042296,48.5164347],[2.5043773,48.5163963],[2.5053491,48.516781],[2.5051252,48.5168095],[2.5057942,48.5170693],[2.5056433,48.5180932],[2.5057837,48.5185255],[2.5063444,48.5198115],[2.506729,48.5208169],[2.5070931,48.5220615],[2.5099874,48.5221394],[2.5097391,48.5228717],[2.5093878,48.5235084],[2.5095029,48.5239969],[2.5094359,48.5240898],[2.5096315,48.5244655],[2.5095774,48.5248996],[2.5095036,48.5251668],[2.5093543,48.525473],[2.5090127,48.5259942],[2.5090458,48.5261258],[2.509546,48.526555],[2.5088404,48.5267942],[2.5061598,48.5273407],[2.5011552,48.5280543],[2.5010601,48.5278702],[2.5008858,48.5272381]]]]},"properties":{"code_section":"77407000ZB","code_commune":"77407","section_courte":"ZB"}},{"type":"Feature","geometry":{"type":"MultiPolygon","coordinates":[[[[2.5112285,48.5223066],[2.50985,48.5221213],[2.5070931,48.5220615],[2.506729,48.5208169],[2.5063444,48.5198115],[2.5057837,48.5185255],[2.5056432,48.5180932],[2.5057942,48.5170693],[2.5066479,48.5174316],[2.5072382,48.5173107],[2.5078119,48.5168597],[2.5081206,48.5169699],[2.5088407,48.516659],[2.509024,48.5162136],[2.5085726,48.5160451],[2.508763,48.5152659],[2.5086986,48.5152271],[2.5087572,48.514974],[2.5080127,48.5147319],[2.5083174,48.5139332],[2.5071538,48.5136957],[2.507692,48.5126919],[2.5077322,48.5124391],[2.509545,48.5093349],[2.5080888,48.5089986],[2.5085841,48.5083328],[2.5135854,48.5094818],[2.5134086,48.5099782],[2.5133203,48.5104005],[2.5133545,48.5109519],[2.513496,48.5117266],[2.513536,48.5117422],[2.5145717,48.5119923],[2.5148151,48.5120126],[2.5166633,48.5119241],[2.5179656,48.5119332],[2.5184702,48.511868],[2.5193576,48.5118371],[2.5201117,48.5117168],[2.5202314,48.5123377],[2.5203412,48.512948],[2.5189629,48.5138326],[2.5177325,48.5147856],[2.5152769,48.5174087],[2.5136672,48.5189506],[2.5130048,48.519792],[2.5121191,48.5214239],[2.511868,48.5218921],[2.5117841,48.5223399],[2.5118266,48.5223425],[2.5118198,48.5223741],[2.5112285,48.5223066]]]]},"properties":{"code_section":"77407000ZC","code_commune":"77407","section_courte":"ZC"}},{"type":"Feature","geometry":{"type":"MultiPolygon","coordinates":[[[[2.5117841,48.5223399],[2.511868,48.5218921],[2.5130048,48.519792],[2.5136672,48.5189506],[2.5152769,48.5174087],[2.5177325,48.5147856],[2.5189629,48.5138326],[2.5203412,48.512948],[2.5201199,48.5117601],[2.5204732,48.5117211],[2.5207014,48.5116388],[2.5207503,48.5114933],[2.5207315,48.5114277],[2.5211695,48.5113594],[2.5226886,48.511474],[2.522694,48.5115028],[2.5224983,48.5116746],[2.5228247,48.5137961],[2.522637,48.5138124],[2.5227243,48.5152757],[2.5234751,48.515384],[2.5242377,48.5153639],[2.5242635,48.5163536],[2.5263301,48.5161968],[2.5262961,48.5173669],[2.5263592,48.5176131],[2.5262087,48.517621],[2.5261375,48.5178712],[2.5254144,48.5189743],[2.5245727,48.5207048],[2.5242132,48.5224074],[2.5241343,48.5228978],[2.5241609,48.5232495],[2.524295,48.5235879],[2.5247495,48.5243178],[2.5246856,48.5243324],[2.5247146,48.5243876],[2.5199211,48.5255099],[2.5165766,48.5239565],[2.5165572,48.5239179],[2.5144745,48.5226125],[2.5140807,48.5225349],[2.5118052,48.5224406],[2.5118266,48.5223425],[2.5117841,48.5223399]]]]},"properties":{"code_section":"77407000ZD","code_commune":"77407","section_courte":"ZD"}}]}