{"type":"FeatureCollection","features":[{"type":"Feature","geometry":{"type":"MultiPolygon","coordinates":[[[[2.678851,48.8587812],[2.6789381,48.8587913],[2.6791326,48.858892],[2.6793242,48.8588986],[2.6793678,48.8588379],[2.6794211,48.8588283],[2.679732,48.8589373],[2.6797757,48.8589145],[2.6797978,48.8588311],[2.6798531,48.858908],[2.6799392,48.8588008],[2.6799938,48.8587881],[2.6800604,48.8588711],[2.680127,48.8588785],[2.6802349,48.8589709],[2.6803305,48.8588661],[2.6808224,48.8588947],[2.6808989,48.8588501],[2.6809862,48.8589439],[2.6811493,48.8589676],[2.6811827,48.8590641],[2.6815371,48.8590986],[2.6817206,48.8591629],[2.6818223,48.8591171],[2.681885,48.85913],[2.681832,48.8591782],[2.6819389,48.8593077],[2.6821414,48.8592804],[2.6822694,48.8593123],[2.6826306,48.8592388],[2.6827918,48.8592724],[2.6827787,48.8591584],[2.6830925,48.8591171],[2.6832108,48.8592102],[2.683371,48.8592239],[2.6836515,48.8593139],[2.6837152,48.8593061],[2.6838895,48.8593801],[2.6840234,48.8594913],[2.6840139,48.8601572],[2.6851983,48.8600904],[2.685494,48.8600981],[2.686416,48.8602291],[2.6877054,48.8604804],[2.6874486,48.8610455],[2.6873982,48.8610375],[2.6873724,48.8610659],[2.6871974,48.8616143],[2.6873909,48.8616241],[2.687559,48.8615595],[2.6879813,48.8615674],[2.6880895,48.8610032],[2.6883967,48.8610244],[2.6883424,48.8612789],[2.6884346,48.8612752],[2.6884461,48.8613514],[2.6892513,48.8613677],[2.689259,48.8619816],[2.6892122,48.862374],[2.6900006,48.8624535],[2.6898776,48.8629494],[2.6896876,48.8628993],[2.6886714,48.8628178],[2.6881404,48.8634709],[2.6874045,48.8632172],[2.6872736,48.8631991],[2.6872053,48.8634559],[2.6864309,48.8635259],[2.6865385,48.8631597],[2.6864138,48.8631533],[2.6864731,48.862811],[2.6862909,48.8628081],[2.686283,48.862854],[2.6861761,48.8628467],[2.6861525,48.8629408],[2.6860657,48.8629373],[2.6860506,48.8629833],[2.6857657,48.8629666],[2.6857812,48.8628997],[2.6856676,48.8628932],[2.6856531,48.8629602],[2.6854614,48.8629495],[2.6855278,48.8626562],[2.6854567,48.8626539],[2.6853716,48.8630579],[2.6851817,48.8630382],[2.6851537,48.8632312],[2.6850773,48.8632278],[2.6850935,48.8630624],[2.6845778,48.863092],[2.6845447,48.8635808],[2.6854663,48.8635913],[2.6857738,48.863629],[2.6866258,48.8638957],[2.6871002,48.8639937],[2.6874526,48.8641549],[2.6871306,48.8644533],[2.6871922,48.8644986],[2.6870472,48.8646327],[2.6871872,48.8647027],[2.6871755,48.864729],[2.6874781,48.864844],[2.6875579,48.8647698],[2.6876732,48.8648253],[2.687715,48.8647846],[2.6877423,48.8647946],[2.6876746,48.8648645],[2.6877712,48.8649149],[2.6877217,48.8649869],[2.6878029,48.865024],[2.6878363,48.8649895],[2.6878882,48.8650162],[2.6876069,48.8652707],[2.6875439,48.8652394],[2.6870866,48.8656872],[2.6865654,48.8654069],[2.6864324,48.8654994],[2.6861472,48.8652683],[2.6852414,48.8658921],[2.6851859,48.8660975],[2.6875152,48.8662787],[2.6874885,48.8664384],[2.6876459,48.8665258],[2.6863807,48.8673058],[2.6863732,48.8673564],[2.6861222,48.8671102],[2.6858248,48.8672831],[2.6857797,48.8672613],[2.6852436,48.8675728],[2.6853097,48.8676197],[2.6850325,48.8677908],[2.6850026,48.8677727],[2.6848456,48.8678875],[2.684915,48.8679231],[2.6850537,48.867831],[2.6859279,48.8683528],[2.6854959,48.868736],[2.6855574,48.8687688],[2.6851895,48.8691237],[2.6845153,48.8687848],[2.6839494,48.8685691],[2.6831145,48.8683768],[2.6829798,48.8683225],[2.6825983,48.8687959],[2.6809598,48.8671941],[2.6805074,48.8672925],[2.6796531,48.8673736],[2.6796293,48.8674675],[2.6797604,48.867626],[2.6797515,48.8677518],[2.6796867,48.8677818],[2.6784693,48.8664919],[2.6770987,48.8651836],[2.6751989,48.863237],[2.6766827,48.861932],[2.6774393,48.8607857],[2.6776125,48.8606303],[2.677757,48.8605401],[2.6779758,48.8604661],[2.6787457,48.8603252],[2.6788067,48.8588173],[2.678849,48.8588171],[2.678851,48.8587812]]]]},"properties":{"code_section":"774380000C","code_commune":"77438","section_courte":"C"}},{"type":"Feature","geometry":{"type":"MultiPolygon","coordinates":[[[[2.6687444,48.8650294],[2.6715865,48.8672266],[2.6784693,48.8664919],[2.6799957,48.8681091],[2.6813137,48.8694355],[2.6811884,48.8695959],[2.6812499,48.869619],[2.6811098,48.8696086],[2.6802468,48.8704076],[2.6796146,48.8708781],[2.6794809,48.870931],[2.6776293,48.8729202],[2.677452,48.873004],[2.6745001,48.8758613],[2.674341,48.8765812],[2.6726093,48.8762555],[2.6709983,48.8758671],[2.6704064,48.8756994],[2.6691872,48.8752334],[2.6681489,48.8749544],[2.6676154,48.8748909],[2.6663499,48.8748196],[2.6657452,48.8747515],[2.6647611,48.8748331],[2.663276,48.8747886],[2.6625751,48.8746192],[2.662065,48.8744401],[2.665803,48.8623626],[2.6687444,48.8650294]]]]},"properties":{"code_section":"77438000AB","code_commune":"77438","section_courte":"AB"}},{"type":"Feature","geometry":{"type":"MultiPolygon","coordinates":[[[[2.6660252,48.8616398],[2.6661237,48.861319],[2.6685859,48.8612923],[2.6705122,48.8611992],[2.6717557,48.8610033],[2.6726922,48.8606782],[2.6770987,48.8651836],[2.6784693,48.8664919],[2.6715865,48.8672266],[2.6687444,48.8650294],[2.665803,48.8623626],[2.6660252,48.8616398]]]]},"properties":{"code_section":"77438000AC","code_commune":"77438","section_courte":"AC"}},{"type":"Feature","geometry":{"type":"MultiPolygon","coordinates":[[[[2.6634822,48.8604917],[2.6630641,48.8601215],[2.6629156,48.8599096],[2.6634498,48.8586554],[2.6635075,48.8577003],[2.6634312,48.8564451],[2.6633051,48.8563312],[2.6620102,48.8559032],[2.6618209,48.8555018],[2.6618735,48.85415],[2.6625916,48.8539105],[2.6638845,48.8537472],[2.6656116,48.8535913],[2.6657283,48.8536064],[2.6726922,48.8606782],[2.6717557,48.8610033],[2.6705122,48.8611992],[2.6685859,48.8612923],[2.6661237,48.861319],[2.6640074,48.8610857],[2.6634822,48.8604917]]]]},"properties":{"code_section":"77438000AD","code_commune":"77438","section_courte":"AD"}},{"type":"Feature","geometry":{"type":"MultiPolygon","coordinates":[[[[2.6690243,48.8541201],[2.6720802,48.8545217],[2.6724044,48.8545364],[2.6727645,48.8544805],[2.6734149,48.8543025],[2.6737231,48.854251],[2.6741431,48.8548386],[2.6742049,48.8551121],[2.6741532,48.8556288],[2.6739753,48.8561546],[2.6737448,48.8566529],[2.6731456,48.8576481],[2.6716415,48.8596143],[2.6657283,48.8536064],[2.6666613,48.8536791],[2.6679977,48.8539027],[2.6690243,48.8541201]]]]},"properties":{"code_section":"77438000AE","code_commune":"77438","section_courte":"AE"}},{"type":"Feature","geometry":{"type":"MultiPolygon","coordinates":[[[[2.6654123,48.8536094],[2.6638845,48.8537472],[2.6628874,48.8521231],[2.6630395,48.8520037],[2.6631062,48.851767],[2.6629518,48.8508888],[2.6630368,48.8508453],[2.6626817,48.8504187],[2.6626301,48.8502351],[2.6626636,48.850097],[2.6650027,48.8503649],[2.6703886,48.8502006],[2.6737231,48.854251],[2.6734149,48.8543025],[2.6727645,48.8544805],[2.6724044,48.8545364],[2.6720802,48.8545217],[2.6690243,48.8541201],[2.6679977,48.8539027],[2.6666613,48.8536791],[2.6656116,48.8535913],[2.6654123,48.8536094]]]]},"properties":{"code_section":"77438000AH","code_commune":"77438","section_courte":"AH"}},{"type":"Feature","geometry":{"type":"MultiPolygon","coordinates":[[[[2.6737231,48.854251],[2.6703886,48.8502006],[2.6729733,48.8501408],[2.673706,48.850094],[2.6764402,48.8497969],[2.682892,48.849019],[2.6829447,48.8491916],[2.6828095,48.8492425],[2.6824388,48.8496955],[2.6823222,48.8497545],[2.6822292,48.8499134],[2.6819648,48.8500854],[2.6817861,48.8501397],[2.6816235,48.8502401],[2.6813256,48.8506502],[2.6809765,48.8508418],[2.6803655,48.8510357],[2.6794888,48.8515021],[2.6782102,48.8528932],[2.6779215,48.8534072],[2.677758,48.8534858],[2.6775733,48.8534899],[2.6772429,48.8536956],[2.6768845,48.8538502],[2.6762263,48.8538141],[2.6757128,48.8542618],[2.6757122,48.8543057],[2.6737231,48.854251]]]]},"properties":{"code_section":"77438000AI","code_commune":"77438","section_courte":"AI"}},{"type":"Feature","geometry":{"type":"MultiPolygon","coordinates":[[[[2.6754361,48.8542982],[2.6758898,48.8543204],[2.6758431,48.8544049],[2.6761318,48.854596],[2.6773207,48.8548664],[2.6773515,48.8548258],[2.6787531,48.8550419],[2.6777722,48.8564381],[2.6776254,48.8564989],[2.677644,48.8566085],[2.6774698,48.8566549],[2.6775071,48.8567267],[2.6774232,48.8568025],[2.6773009,48.8568514],[2.6773262,48.8569773],[2.6772284,48.8570325],[2.6764976,48.8577792],[2.6762114,48.857986],[2.6763758,48.858097],[2.6765116,48.8580282],[2.6765164,48.8581343],[2.6766279,48.8580873],[2.6766729,48.858115],[2.6766559,48.8582077],[2.6767174,48.8582256],[2.6768054,48.8581623],[2.6770306,48.8582137],[2.6770407,48.8582803],[2.6774304,48.8584509],[2.6775005,48.8585361],[2.6777717,48.8585461],[2.6786908,48.8588176],[2.6788067,48.8588173],[2.6787457,48.8603252],[2.6779758,48.8604661],[2.677757,48.8605401],[2.6776125,48.8606303],[2.6774393,48.8607857],[2.6766827,48.861932],[2.6751989,48.863237],[2.6716415,48.8596143],[2.6728159,48.858101],[2.6733119,48.8574036],[2.6737448,48.8566529],[2.6739753,48.8561546],[2.6741532,48.8556288],[2.6742049,48.8551121],[2.6741431,48.8548386],[2.6737231,48.854251],[2.6754361,48.8542982]]]]},"properties":{"code_section":"77438000AK","code_commune":"77438","section_courte":"AK"}},{"type":"Feature","geometry":{"type":"MultiPolygon","coordinates":[[[[2.6829798,48.8683225],[2.6831145,48.8683768],[2.6839494,48.8685691],[2.6845153,48.8687848],[2.6851895,48.8691237],[2.6855574,48.8687688],[2.6854959,48.868736],[2.6859279,48.8683528],[2.6850537,48.867831],[2.6848931,48.867923],[2.6848339,48.8679024],[2.6853303,48.8676344],[2.6852675,48.8675897],[2.6857771,48.8672951],[2.6858117,48.8673111],[2.686141,48.8671265],[2.6869007,48.8679084],[2.6867933,48.8683191],[2.6868422,48.868391],[2.6869935,48.8685052],[2.6873409,48.868656],[2.6873489,48.868705],[2.6858552,48.8696558],[2.6850992,48.8699977],[2.6847359,48.8700883],[2.6840688,48.8700779],[2.6829056,48.8702655],[2.6811884,48.8695959],[2.6813137,48.8694355],[2.6796867,48.8677818],[2.6797515,48.8677518],[2.6797604,48.867626],[2.6796293,48.8674675],[2.6796531,48.8673736],[2.6805074,48.8672925],[2.6809598,48.8671941],[2.6825983,48.8687959],[2.6829798,48.8683225]]]]},"properties":{"code_section":"77438000BA","code_commune":"77438","section_courte":"BA"}},{"type":"Feature","geometry":{"type":"MultiPolygon","coordinates":[[[[2.6872752,48.8731312],[2.6867751,48.8728451],[2.6863303,48.872204],[2.6861528,48.8720553],[2.6833329,48.8706098],[2.6829056,48.8702655],[2.6840688,48.8700779],[2.6847359,48.8700883],[2.6850992,48.8699977],[2.6858552,48.8696558],[2.6873245,48.868736],[2.6873534,48.8686815],[2.6875701,48.8686299],[2.6878664,48.8686127],[2.6879826,48.8685668],[2.6887656,48.8689818],[2.6887065,48.8692862],[2.6887509,48.869399],[2.6893197,48.8700861],[2.6898971,48.8706002],[2.6900411,48.8707027],[2.6911616,48.87128],[2.691415,48.8715051],[2.690055,48.8735963],[2.689837,48.8740106],[2.6886878,48.8735273],[2.6884155,48.8734473],[2.687732,48.873318],[2.6872752,48.8731312]]]]},"properties":{"code_section":"77438000BB","code_commune":"77438","section_courte":"BB"}},{"type":"Feature","geometry":{"type":"MultiPolygon","coordinates":[[[[2.6898368,48.874011],[2.690055,48.8735963],[2.691415,48.8715051],[2.6911616,48.87128],[2.6900411,48.8707027],[2.6893197,48.8700861],[2.6887184,48.869341],[2.688771,48.8689575],[2.6892136,48.8690282],[2.6896961,48.8694906],[2.6898516,48.8695647],[2.6907811,48.8695475],[2.6910666,48.8693112],[2.6911352,48.8692897],[2.6913347,48.8692987],[2.692131,48.8695209],[2.6921508,48.8694928],[2.692399,48.8695774],[2.6923799,48.8696048],[2.6930111,48.8698092],[2.6943713,48.8700847],[2.6943302,48.8701908],[2.6959593,48.8703934],[2.6949016,48.8732558],[2.6942025,48.8750223],[2.6927933,48.8745993],[2.6926919,48.8746513],[2.6925881,48.8746529],[2.6917596,48.8745581],[2.6917673,48.8745377],[2.6898368,48.874011]]]]},"properties":{"code_section":"77438000BC","code_commune":"77438","section_courte":"BC"}},{"type":"Feature","geometry":{"type":"MultiPolygon","coordinates":[[[[2.692131,48.8695209],[2.691468,48.8693279],[2.6911352,48.8692897],[2.6910058,48.8693471],[2.6908778,48.8694935],[2.6907811,48.8695475],[2.6898516,48.8695647],[2.6896961,48.8694906],[2.6892136,48.8690282],[2.688771,48.8689575],[2.6887656,48.8689818],[2.6879826,48.8685668],[2.6884738,48.868273],[2.6892019,48.8679735],[2.689678,48.8677315],[2.6901474,48.8674326],[2.6905549,48.8670845],[2.6906443,48.8668729],[2.6907894,48.8659346],[2.6909644,48.8653373],[2.6922093,48.8654755],[2.6938118,48.8658461],[2.6951206,48.8660686],[2.695647,48.8660987],[2.6959539,48.8660875],[2.6960825,48.8661272],[2.696136,48.866218],[2.6960287,48.8665991],[2.6966749,48.8664944],[2.6963771,48.8693077],[2.6959593,48.8703934],[2.6943302,48.8701908],[2.6943713,48.8700847],[2.6930111,48.8698092],[2.6923799,48.8696048],[2.692399,48.8695774],[2.6921508,48.8694928],[2.692131,48.8695209]]]]},"properties":{"code_section":"77438000BD","code_commune":"77438","section_courte":"BD"}},{"type":"Feature","geometry":{"type":"MultiPolygon","coordinates":[[[[2.6876809,48.8665451],[2.6874885,48.8664384],[2.6875152,48.8662787],[2.6851859,48.8660975],[2.6852548,48.8658952],[2.6861871,48.8652816],[2.6864335,48.8655151],[2.6865654,48.8654069],[2.6871054,48.8656967],[2.6875781,48.8652655],[2.6876427,48.8652923],[2.6879217,48.8650334],[2.6878363,48.8649895],[2.6878029,48.865024],[2.6877217,48.8649869],[2.6877875,48.8649226],[2.6876875,48.8648754],[2.6877591,48.8648006],[2.687715,48.8647846],[2.6876732,48.8648253],[2.6875579,48.8647698],[2.6874781,48.864844],[2.6871755,48.864729],[2.6871971,48.8647065],[2.6870732,48.8646603],[2.6872055,48.8645045],[2.6871378,48.8644745],[2.6874499,48.8641606],[2.6890357,48.8645825],[2.6888738,48.8648911],[2.6893011,48.8650423],[2.6892796,48.8654416],[2.6907894,48.8659346],[2.6906443,48.8668729],[2.6905549,48.8670845],[2.6901474,48.8674326],[2.689678,48.8677315],[2.6892019,48.8679735],[2.6884738,48.868273],[2.687939,48.8685968],[2.6875701,48.8686299],[2.6873534,48.8686815],[2.6869935,48.8685052],[2.6868422,48.868391],[2.6867933,48.8683191],[2.6869007,48.8679084],[2.6863732,48.8673564],[2.6876809,48.8665451]]]]},"properties":{"code_section":"77438000BE","code_commune":"77438","section_courte":"BE"}},{"type":"Feature","geometry":{"type":"MultiPolygon","coordinates":[[[[2.6845067,48.8631046],[2.6850637,48.8630859],[2.6850478,48.8632466],[2.6851171,48.8632497],[2.6851453,48.8630674],[2.6853374,48.8630824],[2.6854346,48.8626546],[2.6855042,48.8626557],[2.6854378,48.8629776],[2.685626,48.8629761],[2.6856434,48.8629169],[2.6857498,48.8629161],[2.6857302,48.8629942],[2.6860193,48.8630168],[2.6860378,48.862966],[2.6861222,48.8629685],[2.686158,48.8628699],[2.6862534,48.8628752],[2.6862605,48.8628287],[2.6864358,48.8628401],[2.686385,48.8631729],[2.6865172,48.8631756],[2.6865042,48.8633033],[2.6864506,48.8633078],[2.6864309,48.8635259],[2.6872053,48.8634559],[2.6872736,48.8631991],[2.6874045,48.8632172],[2.6875691,48.8632948],[2.6881404,48.8634709],[2.6886714,48.8628178],[2.6896876,48.8628993],[2.6898776,48.8629494],[2.6900006,48.8624535],[2.6892122,48.862374],[2.6892748,48.8620016],[2.6892795,48.8613908],[2.6884626,48.8613728],[2.6884518,48.8613062],[2.6883617,48.8613096],[2.688417,48.8610523],[2.6881009,48.861028],[2.6879813,48.8615674],[2.687559,48.8615595],[2.6873909,48.8616241],[2.6871974,48.8616143],[2.6873724,48.8610659],[2.6874429,48.8610779],[2.6876976,48.8604993],[2.6884234,48.8606337],[2.6886772,48.860645],[2.6902111,48.8604876],[2.6903198,48.8609351],[2.6905157,48.8612404],[2.6909278,48.861556],[2.6909903,48.8616414],[2.6910733,48.8620215],[2.691166,48.8622001],[2.6914299,48.8623192],[2.6920563,48.8624482],[2.6922869,48.8625704],[2.6923299,48.8626903],[2.6923053,48.8627729],[2.6914187,48.8638941],[2.6913027,48.86433],[2.6910195,48.8650904],[2.6907894,48.8659346],[2.6892796,48.8654416],[2.6893011,48.8650423],[2.6888738,48.8648911],[2.6890357,48.8645825],[2.6874226,48.8641538],[2.6871002,48.8639937],[2.686342,48.8638451],[2.6857738,48.863629],[2.6854663,48.8635913],[2.6845086,48.8635889],[2.6845067,48.8631046]]]]},"properties":{"code_section":"77438000BH","code_commune":"77438","section_courte":"BH"}}]}