{"type":"FeatureCollection","features":[{"type":"Feature","geometry":{"type":"MultiPolygon","coordinates":[[[[2.791951,48.850964],[2.795119,48.850678],[2.7970556,48.850424],[2.7970595,48.8515267],[2.7960166,48.8524175],[2.7969896,48.8527495],[2.7968348,48.8552218],[2.7974128,48.8553101],[2.7976512,48.8553875],[2.7980975,48.8557789],[2.7965439,48.8569776],[2.7940587,48.8555258],[2.7939137,48.8555188],[2.7875583,48.8583819],[2.7877461,48.8583935],[2.789598,48.8594023],[2.7910548,48.8597804],[2.7919557,48.8601767],[2.7916555,48.8606191],[2.7913927,48.8608958],[2.7867029,48.860015],[2.7871337,48.8580296],[2.7877569,48.8579834],[2.7875909,48.8570112],[2.7873509,48.8570292],[2.7873765,48.856911],[2.7878152,48.8568783],[2.7878373,48.8570072],[2.7889206,48.8569266],[2.788849,48.8565068],[2.7892896,48.856517],[2.7891837,48.8558972],[2.7887503,48.8559294],[2.7884845,48.8543727],[2.7879708,48.8544109],[2.7878243,48.8535525],[2.7881589,48.8535276],[2.7879939,48.8525605],[2.7873175,48.8525437],[2.7872318,48.8524067],[2.7883463,48.8524342],[2.7883571,48.8522419],[2.7887384,48.8522514],[2.7887507,48.8520349],[2.7890351,48.852042],[2.7890696,48.8514328],[2.7892183,48.8514461],[2.7916551,48.8509901],[2.791951,48.850964]]]]},"properties":{"code_section":"774490000A","code_commune":"77449","section_courte":"A"}},{"type":"Feature","geometry":{"type":"MultiPolygon","coordinates":[[[[2.7970556,48.850424],[2.795119,48.850678],[2.7916551,48.8509901],[2.7905726,48.8511941],[2.7902665,48.8511338],[2.7888653,48.8510083],[2.7888861,48.8496639],[2.7887785,48.84969],[2.7888184,48.8494581],[2.7898686,48.849201],[2.7894875,48.8485215],[2.7889533,48.8486508],[2.788802,48.8485184],[2.7870074,48.8489569],[2.7870168,48.8484932],[2.7869734,48.848135],[2.7868421,48.8480615],[2.78543,48.8482408],[2.7828714,48.8482182],[2.7826881,48.8475995],[2.7827568,48.8474734],[2.7834712,48.8472775],[2.7845187,48.8456797],[2.784826,48.8434793],[2.7840936,48.8433035],[2.7842649,48.8429528],[2.7840388,48.8428932],[2.7844514,48.8420401],[2.7843358,48.8419763],[2.7843896,48.8419154],[2.784666,48.8420717],[2.7855341,48.8412516],[2.7864486,48.8416119],[2.7870645,48.8408793],[2.7874495,48.8410152],[2.7879902,48.8411311],[2.7878903,48.8412723],[2.7888926,48.8415568],[2.7891133,48.8416465],[2.7893447,48.8416707],[2.7895374,48.8417522],[2.788825,48.842516],[2.7892176,48.8426607],[2.7900247,48.8418291],[2.7907667,48.8420798],[2.7904848,48.84239],[2.7907685,48.8425098],[2.7910338,48.8421696],[2.7919644,48.8424707],[2.7915319,48.8430926],[2.7917976,48.8430407],[2.7919766,48.8432422],[2.7924433,48.8430302],[2.7924544,48.8430524],[2.7931285,48.8428248],[2.7932928,48.842872],[2.7930855,48.8433893],[2.7932567,48.8434088],[2.7931952,48.8436025],[2.7932784,48.8436185],[2.7931989,48.8437446],[2.796419,48.8440636],[2.7964645,48.8440188],[2.7965219,48.8440245],[2.7966055,48.8436754],[2.7969701,48.8437918],[2.7977643,48.8441485],[2.7972803,48.84863],[2.7971313,48.8504036],[2.7970556,48.850424]]]]},"properties":{"code_section":"774490000B","code_commune":"77449","section_courte":"B"}},{"type":"Feature","geometry":{"type":"MultiPolygon","coordinates":[[[[2.7913927,48.8608958],[2.7916555,48.8606191],[2.7919557,48.8601767],[2.7910548,48.8597804],[2.789598,48.8594023],[2.7877461,48.8583935],[2.7875583,48.8583819],[2.7939137,48.8555188],[2.7940587,48.8555258],[2.7965439,48.8569776],[2.7980975,48.8557789],[2.7984433,48.8561517],[2.7991146,48.857448],[2.8011918,48.8596166],[2.8019758,48.8600514],[2.8010588,48.8609485],[2.8008506,48.8611789],[2.8004455,48.8617443],[2.8003221,48.8620257],[2.8003343,48.8625182],[2.7913927,48.8608958]]],[[[2.7968569,48.8527041],[2.7960166,48.8524175],[2.7970595,48.8515267],[2.7969896,48.8527495],[2.7968569,48.8527041]]]]},"properties":{"code_section":"77449000AB","code_commune":"77449","section_courte":"AB"}},{"type":"Feature","geometry":{"type":"MultiPolygon","coordinates":[[[[2.7837333,48.8601681],[2.7838919,48.8617492],[2.7822238,48.8618254],[2.7817909,48.861822],[2.7818008,48.8618751],[2.7812279,48.8618236],[2.7805423,48.8616849],[2.7802926,48.8608847],[2.7799032,48.860128],[2.7794645,48.8595058],[2.778823,48.8588489],[2.7783024,48.8584332],[2.7777298,48.8580481],[2.7738608,48.8558648],[2.7738877,48.8558495],[2.7736997,48.8557429],[2.7736659,48.8557541],[2.7726068,48.8546177],[2.7724231,48.854623],[2.7723501,48.8545741],[2.7721924,48.8544296],[2.7720897,48.8542686],[2.7720582,48.8540682],[2.7721429,48.8538654],[2.7733511,48.8527666],[2.7734462,48.8526068],[2.7740557,48.8510276],[2.7741804,48.8496146],[2.7745655,48.848481],[2.7752171,48.8470221],[2.7761116,48.8447281],[2.777862,48.8437404],[2.7780967,48.8449214],[2.7784113,48.8470764],[2.7790942,48.8507339],[2.7792324,48.851682],[2.7805471,48.8514155],[2.7818399,48.8512092],[2.781822,48.851149],[2.7827152,48.8510385],[2.782732,48.851099],[2.7848754,48.8509377],[2.7864161,48.8509077],[2.7877967,48.8509418],[2.7902665,48.8511338],[2.7905726,48.8511941],[2.7892183,48.8514461],[2.7890696,48.8514328],[2.7890351,48.852042],[2.7887507,48.8520349],[2.7887384,48.8522514],[2.7883571,48.8522419],[2.7883463,48.8524342],[2.7872318,48.8524067],[2.7873175,48.8525437],[2.7879939,48.8525605],[2.7881589,48.8535276],[2.7878243,48.8535525],[2.7879708,48.8544109],[2.7884845,48.8543727],[2.7887503,48.8559294],[2.7891837,48.8558972],[2.7892896,48.856517],[2.788849,48.8565068],[2.7889206,48.8569266],[2.7878373,48.8570072],[2.7878152,48.8568783],[2.7873765,48.856911],[2.7873509,48.8570292],[2.7875909,48.8570112],[2.7877569,48.8579834],[2.7871337,48.8580296],[2.7867127,48.8600532],[2.7862377,48.8600825],[2.7863096,48.8608118],[2.7859411,48.8608266],[2.7855544,48.860224],[2.7855545,48.8600774],[2.7837333,48.8601681]]]]},"properties":{"code_section":"77449000AC","code_commune":"77449","section_courte":"AC"}},{"type":"Feature","geometry":{"type":"MultiPolygon","coordinates":[[[[2.7831894,48.8510537],[2.782732,48.851099],[2.7827152,48.8510385],[2.781822,48.851149],[2.7818399,48.8512092],[2.7805471,48.8514155],[2.7792324,48.851682],[2.7790942,48.8507339],[2.7782454,48.846075],[2.7791764,48.846742],[2.7804857,48.8466175],[2.7806844,48.8467206],[2.7810313,48.8468097],[2.7817255,48.8468358],[2.7817865,48.846882],[2.7820334,48.8468728],[2.78203,48.8470773],[2.7821212,48.8475215],[2.7821821,48.8475457],[2.782627,48.8474434],[2.7826784,48.8475348],[2.7827454,48.8475185],[2.7826881,48.8475995],[2.7828714,48.8482182],[2.78543,48.8482408],[2.7868421,48.8480615],[2.7869734,48.848135],[2.7870168,48.8484932],[2.7870074,48.8489569],[2.788802,48.8485184],[2.7889533,48.8486508],[2.7894875,48.8485215],[2.7898686,48.849201],[2.7888184,48.8494581],[2.7887785,48.84969],[2.7888861,48.8496639],[2.7888653,48.8510083],[2.7873408,48.8509241],[2.7859536,48.850909],[2.7845681,48.8509524],[2.7831894,48.8510537]]]]},"properties":{"code_section":"77449000AD","code_commune":"77449","section_courte":"AD"}},{"type":"Feature","geometry":{"type":"MultiPolygon","coordinates":[[[[2.7801742,48.8466489],[2.7791764,48.846742],[2.7782454,48.846075],[2.7780967,48.8449214],[2.777862,48.8437404],[2.7777578,48.8437041],[2.7841071,48.8401232],[2.7851028,48.8408993],[2.7845394,48.841023],[2.7842178,48.8411376],[2.7839566,48.84129],[2.783701,48.8415489],[2.7843896,48.8419154],[2.7843358,48.8419763],[2.7844514,48.8420401],[2.7840388,48.8428932],[2.7842649,48.8429528],[2.7840936,48.8433035],[2.784826,48.8434793],[2.7845187,48.8456797],[2.7843807,48.8459113],[2.7834712,48.8472775],[2.7827568,48.8474734],[2.7827454,48.8475185],[2.7826784,48.8475348],[2.782627,48.8474434],[2.7821821,48.8475457],[2.7821212,48.8475215],[2.78203,48.8470773],[2.7820334,48.8468728],[2.7817865,48.846882],[2.7817255,48.8468358],[2.7810313,48.8468097],[2.7806844,48.8467206],[2.7804857,48.8466175],[2.7801742,48.8466489]]]]},"properties":{"code_section":"77449000AE","code_commune":"77449","section_courte":"AE"}},{"type":"Feature","geometry":{"type":"MultiPolygon","coordinates":[[[[2.7963837,48.8362888],[2.7953804,48.8358765],[2.7948387,48.8355856],[2.7937142,48.8346493],[2.7929482,48.8350863],[2.7930614,48.8351881],[2.7924206,48.8356616],[2.7924212,48.8360626],[2.7918438,48.8364038],[2.7912316,48.8363249],[2.7902764,48.8367589],[2.7900371,48.8367391],[2.7904167,48.8362875],[2.7908242,48.8360011],[2.7908617,48.8355162],[2.791097,48.834382],[2.7909285,48.8337666],[2.7902709,48.8334412],[2.7902951,48.8333753],[2.790226,48.8333685],[2.7903505,48.8328535],[2.7906454,48.8326491],[2.7910699,48.8312747],[2.791025,48.831085],[2.7908866,48.8308867],[2.7908508,48.8307269],[2.7909267,48.8303886],[2.7912875,48.8296392],[2.7913902,48.8291407],[2.7913869,48.8287788],[2.7915988,48.8288477],[2.7923058,48.8294046],[2.7926451,48.8296123],[2.7931949,48.8298794],[2.7941999,48.8302261],[2.7972607,48.8311748],[2.7976637,48.8313464],[2.7988632,48.8291752],[2.7996677,48.8282853],[2.8018481,48.8293967],[2.8022521,48.8295455],[2.8024645,48.8295417],[2.8025165,48.8295772],[2.8019406,48.8304337],[2.8014982,48.8312853],[2.8012751,48.8320358],[2.8007293,48.8330585],[2.8005986,48.8334847],[2.8004472,48.8336805],[2.8001026,48.8339215],[2.7990391,48.8345099],[2.7976872,48.8351149],[2.797012,48.8359569],[2.7966295,48.8362096],[2.7964305,48.8364253],[2.7963837,48.8362888]]]]},"properties":{"code_section":"77449000AF","code_commune":"77449","section_courte":"AF"}},{"type":"Feature","geometry":{"type":"MultiPolygon","coordinates":[[[[2.7888926,48.8415568],[2.7878903,48.8412723],[2.7879902,48.8411311],[2.7874495,48.8410152],[2.7870645,48.8408793],[2.7864486,48.8416119],[2.7855341,48.8412516],[2.784666,48.8420717],[2.783701,48.8415489],[2.7839566,48.84129],[2.7842178,48.8411376],[2.7845394,48.841023],[2.7851028,48.8408993],[2.7841071,48.8401232],[2.7860741,48.8389301],[2.7862195,48.8390903],[2.7888468,48.837578],[2.7889564,48.8381604],[2.7898412,48.8384895],[2.7900689,48.8383023],[2.7904815,48.8381544],[2.7908414,48.8381283],[2.7912104,48.8381883],[2.7931344,48.838903],[2.7930281,48.8389754],[2.7967728,48.840356],[2.7944393,48.8430158],[2.7949505,48.8430583],[2.7956398,48.8430615],[2.7955347,48.8434014],[2.7962013,48.8435447],[2.7966055,48.8436754],[2.7965219,48.8440245],[2.7964645,48.8440188],[2.796419,48.8440636],[2.7931989,48.8437446],[2.7932784,48.8436185],[2.7931952,48.8436025],[2.7932567,48.8434088],[2.7930855,48.8433893],[2.7932928,48.842872],[2.7931285,48.8428248],[2.7924544,48.8430524],[2.7924433,48.8430302],[2.7919766,48.8432422],[2.7917976,48.8430407],[2.7915319,48.8430926],[2.7919644,48.8424707],[2.7910338,48.8421696],[2.7907685,48.8425098],[2.7904848,48.84239],[2.7907667,48.8420798],[2.7900247,48.8418291],[2.7892176,48.8426607],[2.788825,48.842516],[2.7895374,48.8417522],[2.7893447,48.8416707],[2.7891133,48.8416465],[2.7888926,48.8415568]]]]},"properties":{"code_section":"77449000AH","code_commune":"77449","section_courte":"AH"}},{"type":"Feature","geometry":{"type":"MultiPolygon","coordinates":[[[[2.792593,48.8386989],[2.7912104,48.8381883],[2.7908414,48.8381283],[2.7905967,48.8381372],[2.7902629,48.8382133],[2.7899842,48.8383566],[2.7898412,48.8384895],[2.7889564,48.8381604],[2.7888468,48.837578],[2.7862195,48.8390903],[2.7860741,48.8389301],[2.7900371,48.8367391],[2.7902764,48.8367589],[2.7912316,48.8363249],[2.7918438,48.8364038],[2.7924212,48.8360626],[2.7924206,48.8356616],[2.7930614,48.8351881],[2.7929482,48.8350863],[2.7937142,48.8346493],[2.7948387,48.8355856],[2.7953804,48.8358765],[2.7963837,48.8362888],[2.7964305,48.8364253],[2.7966295,48.8362096],[2.797012,48.8359569],[2.7966143,48.8365768],[2.7966213,48.8367967],[2.7968572,48.8370902],[2.797491,48.8383929],[2.7975133,48.838685],[2.7973524,48.8392055],[2.7972763,48.8397739],[2.7967728,48.840356],[2.7930281,48.8389754],[2.7931344,48.838903],[2.792593,48.8386989]]]]},"properties":{"code_section":"77449000AI","code_commune":"77449","section_courte":"AI"}},{"type":"Feature","geometry":{"type":"MultiPolygon","coordinates":[[[[2.7801819,48.8423357],[2.7777578,48.8437041],[2.777641,48.843661],[2.7776118,48.8422186],[2.7756028,48.8421374],[2.7749952,48.8421871],[2.7723213,48.8384979],[2.7723403,48.8383875],[2.7735184,48.8377781],[2.7749574,48.8371766],[2.775134,48.8371279],[2.776333,48.8360583],[2.7762997,48.8360442],[2.7769394,48.8354652],[2.782907,48.8301476],[2.7848996,48.828175],[2.7853765,48.8286991],[2.7864658,48.8280897],[2.7879013,48.8291442],[2.7885505,48.8298501],[2.7888613,48.8300964],[2.7898233,48.8305936],[2.7903182,48.8307542],[2.7908866,48.8308867],[2.791025,48.831085],[2.7910699,48.8312747],[2.7906454,48.8326491],[2.7903505,48.8328535],[2.7902258,48.8333719],[2.7902951,48.8333753],[2.7902709,48.8334412],[2.7909285,48.8337666],[2.791097,48.834382],[2.7908617,48.8355162],[2.7908242,48.8360011],[2.7904167,48.8362875],[2.7900371,48.8367391],[2.7860741,48.8389301],[2.7841071,48.8401232],[2.7801819,48.8423357]]]]},"properties":{"code_section":"77449000YB","code_commune":"77449","section_courte":"YB"}}]}