{"type":"FeatureCollection","features":[{"type":"Feature","geometry":{"type":"MultiPolygon","coordinates":[[[[2.6294945,48.8560116],[2.630463,48.8559192],[2.6326225,48.8557825],[2.6342343,48.8557483],[2.6350911,48.8558304],[2.6347518,48.8574169],[2.6325911,48.8574147],[2.6295412,48.8573079],[2.6290569,48.8553061],[2.6291183,48.854429],[2.6290538,48.8540401],[2.6292569,48.8533989],[2.6293141,48.8533214],[2.6296187,48.8533316],[2.6296429,48.8541718],[2.6297,48.8541965],[2.6297894,48.8550979],[2.6297494,48.8554185],[2.6296146,48.8557397],[2.6294709,48.8559249],[2.6294945,48.8560116]]]]},"properties":{"code_section":"774680000A","code_commune":"77468","section_courte":"A"}},{"type":"Feature","geometry":{"type":"MultiPolygon","coordinates":[[[[2.6345562,48.8522593],[2.6345009,48.852253],[2.6344797,48.8523389],[2.6350255,48.8523961],[2.6349765,48.8526056],[2.6354455,48.8527031],[2.6358794,48.8527483],[2.6358964,48.852677],[2.6363954,48.8527288],[2.6364054,48.8526849],[2.636681,48.8527132],[2.6367332,48.8525004],[2.6375019,48.8525799],[2.6375162,48.8526422],[2.6375873,48.8526836],[2.6379986,48.8527203],[2.6404967,48.8525986],[2.6405671,48.8526562],[2.6418409,48.8529837],[2.6414035,48.8540255],[2.6412522,48.8540077],[2.6409013,48.8551308],[2.6407877,48.8551914],[2.6406229,48.8558711],[2.6416594,48.8560271],[2.6415585,48.8563516],[2.6412576,48.8563109],[2.641112,48.8569254],[2.6412449,48.8569451],[2.6413245,48.8566673],[2.6415414,48.8566924],[2.6412724,48.8572484],[2.6396735,48.8569195],[2.6369321,48.8561308],[2.6362715,48.8560065],[2.6346108,48.8557735],[2.6342343,48.8557483],[2.6326225,48.8557825],[2.630463,48.8559192],[2.6294945,48.8560116],[2.6294709,48.8559249],[2.6296146,48.8557397],[2.6297494,48.8554185],[2.6297894,48.8550979],[2.6297026,48.8542398],[2.630271,48.8542641],[2.6304028,48.8541416],[2.6305127,48.8540925],[2.6308568,48.854008],[2.6310662,48.8540058],[2.6321338,48.8541145],[2.6322772,48.853518],[2.6320407,48.8533237],[2.6333147,48.8526425],[2.6334425,48.8527477],[2.6338736,48.8525188],[2.6337804,48.8524426],[2.6340414,48.8523031],[2.634175,48.8524136],[2.6343417,48.8523254],[2.6343994,48.8522423],[2.6343323,48.8522348],[2.6343895,48.8519939],[2.6346643,48.8520221],[2.6346465,48.8520908],[2.6345981,48.8520855],[2.634591,48.8521157],[2.6346394,48.8521211],[2.6346099,48.8522388],[2.6345626,48.8522342],[2.6345562,48.8522593]]]]},"properties":{"code_section":"77468000AB","code_commune":"77468","section_courte":"AB"}},{"type":"Feature","geometry":{"type":"MultiPolygon","coordinates":[[[[2.6397944,48.8520494],[2.6396389,48.8526468],[2.6379097,48.8527177],[2.6375873,48.8526836],[2.6375162,48.8526422],[2.6375019,48.8525799],[2.6367332,48.8525004],[2.636681,48.8527132],[2.6364054,48.8526849],[2.6363954,48.8527288],[2.6358964,48.852677],[2.6358794,48.8527483],[2.6354455,48.8527031],[2.6349765,48.8526056],[2.6350255,48.8523961],[2.6344797,48.8523389],[2.6345009,48.852253],[2.6346099,48.8522388],[2.6346394,48.8521211],[2.634591,48.8521157],[2.6345981,48.8520855],[2.6346465,48.8520908],[2.6346643,48.8520221],[2.6343895,48.8519939],[2.6343323,48.8522348],[2.6343994,48.8522423],[2.6343417,48.8523254],[2.634175,48.8524136],[2.6340414,48.8523031],[2.6337804,48.8524426],[2.6338736,48.8525188],[2.6334425,48.8527477],[2.6333147,48.8526425],[2.6320407,48.8533237],[2.6322772,48.853518],[2.6321338,48.8541145],[2.6310662,48.8540058],[2.6308568,48.854008],[2.6305127,48.8540925],[2.6304028,48.8541416],[2.630271,48.8542641],[2.6297026,48.8542398],[2.6297,48.8541965],[2.6296429,48.8541718],[2.6296187,48.8533316],[2.6293141,48.8533214],[2.6296168,48.8523235],[2.6299182,48.8517761],[2.6317047,48.8513104],[2.6322611,48.8507882],[2.6320711,48.8503924],[2.6397935,48.8496418],[2.6397136,48.8497441],[2.6400237,48.8511339],[2.6397944,48.8520494]]]]},"properties":{"code_section":"77468000AC","code_commune":"77468","section_courte":"AC"}},{"type":"Feature","geometry":{"type":"MultiPolygon","coordinates":[[[[2.6375882,48.8457996],[2.6376485,48.8457336],[2.6403414,48.8458369],[2.6415596,48.8458526],[2.6414753,48.8458869],[2.6414939,48.8460164],[2.6416399,48.8460601],[2.641764,48.8461598],[2.6406205,48.8472686],[2.6405719,48.8474462],[2.6407281,48.8475284],[2.6406968,48.8476859],[2.6385418,48.848678],[2.6384831,48.8487771],[2.6382856,48.849542],[2.6384163,48.8495843],[2.6385431,48.8497629],[2.6320711,48.8503924],[2.6319311,48.8500938],[2.6329511,48.8485399],[2.6364581,48.8470444],[2.6375882,48.8457996]]]]},"properties":{"code_section":"77468000AD","code_commune":"77468","section_courte":"AD"}},{"type":"Feature","geometry":{"type":"MultiPolygon","coordinates":[[[[2.644067,48.8496996],[2.6429446,48.8495264],[2.642124,48.8494403],[2.6417395,48.849447],[2.6385431,48.8497629],[2.6384163,48.8495843],[2.6382856,48.849542],[2.6384831,48.8487771],[2.6385418,48.848678],[2.6406968,48.8476859],[2.6407281,48.8475284],[2.6405719,48.8474462],[2.6406205,48.8472686],[2.641764,48.8461598],[2.6416399,48.8460601],[2.6414939,48.8460164],[2.6414753,48.8458869],[2.6415596,48.8458526],[2.6403414,48.8458369],[2.6376485,48.8457336],[2.6382029,48.8450884],[2.6394121,48.843363],[2.6398516,48.843184],[2.6453722,48.8428439],[2.6457168,48.842569],[2.6458705,48.8427691],[2.6461028,48.8428646],[2.6459135,48.8459572],[2.6465473,48.8459737],[2.6460522,48.8464501],[2.6447086,48.8460306],[2.6445833,48.8462543],[2.645371,48.8463722],[2.6455392,48.8465587],[2.6449905,48.8472192],[2.6445472,48.8479042],[2.6442961,48.8484346],[2.6439331,48.8494314],[2.643606,48.8495661],[2.644067,48.8496996]]]]},"properties":{"code_section":"77468000AE","code_commune":"77468","section_courte":"AE"}},{"type":"Feature","geometry":{"type":"MultiPolygon","coordinates":[[[[2.6460936,48.8430385],[2.6461028,48.8428646],[2.6458705,48.8427691],[2.6457168,48.842569],[2.6480671,48.8421945],[2.6485263,48.8419962],[2.6486089,48.8417936],[2.6488972,48.8398826],[2.6501591,48.8401008],[2.6506184,48.8403442],[2.6509301,48.8407318],[2.6509999,48.8420536],[2.6511842,48.8423409],[2.6516344,48.8426498],[2.6508667,48.8436358],[2.648805,48.8445975],[2.6484935,48.844416],[2.6473553,48.8451924],[2.6465473,48.8459737],[2.6459135,48.8459572],[2.6460936,48.8430385]]]]},"properties":{"code_section":"77468000AF","code_commune":"77468","section_courte":"AF"}},{"type":"Feature","geometry":{"type":"MultiPolygon","coordinates":[[[[2.6484975,48.8444184],[2.648805,48.8445975],[2.6508667,48.8436358],[2.6516344,48.8426498],[2.6543529,48.8435609],[2.6544466,48.8434408],[2.654486,48.8434542],[2.6549214,48.8433619],[2.6550576,48.8434184],[2.6552026,48.8437197],[2.6550888,48.843867],[2.6547414,48.8439396],[2.6531311,48.8460046],[2.6530695,48.845997],[2.652194,48.8471339],[2.6516179,48.8477064],[2.6514967,48.8474739],[2.6499156,48.8472224],[2.6491758,48.8470302],[2.6477014,48.8467902],[2.6469367,48.8467264],[2.6460522,48.8464501],[2.6473553,48.8451924],[2.6484975,48.8444184]]]]},"properties":{"code_section":"77468000AI","code_commune":"77468","section_courte":"AI"}},{"type":"Feature","geometry":{"type":"MultiPolygon","coordinates":[[[[2.6531311,48.8460046],[2.6547414,48.8439396],[2.6550888,48.843867],[2.6552026,48.8437197],[2.6550768,48.8434581],[2.6561566,48.8425289],[2.6562163,48.8425325],[2.6566989,48.842118],[2.657076,48.8417439],[2.6577113,48.841198],[2.658005,48.8408748],[2.6591239,48.8409704],[2.6590213,48.841339],[2.6590759,48.8413456],[2.6589689,48.8417513],[2.6587828,48.841731],[2.6584683,48.8428929],[2.6586056,48.8430145],[2.6588369,48.8430558],[2.6605565,48.843262],[2.6596787,48.8464971],[2.65879,48.8463885],[2.6559952,48.8463175],[2.6530727,48.8460828],[2.6531311,48.8460046]]]]},"properties":{"code_section":"77468000AK","code_commune":"77468","section_courte":"AK"}},{"type":"Feature","geometry":{"type":"MultiPolygon","coordinates":[[[[2.6557299,48.8353218],[2.6558536,48.8352758],[2.6567501,48.8341293],[2.6582762,48.832427],[2.6610356,48.8324626],[2.6638496,48.8323899],[2.6657656,48.8323064],[2.6646574,48.8337612],[2.6640607,48.8334131],[2.6626552,48.8328001],[2.6617196,48.8335924],[2.6611057,48.8343044],[2.66068,48.8349266],[2.6602177,48.8361054],[2.6599976,48.836528],[2.6591458,48.8375767],[2.6581592,48.839027],[2.658082,48.8390035],[2.6579156,48.8392483],[2.6578548,48.8396529],[2.6579417,48.8400978],[2.6578629,48.8401685],[2.6576172,48.8401534],[2.6575957,48.8402435],[2.6572204,48.8402039],[2.6570568,48.8401551],[2.6570752,48.8400869],[2.656721,48.8400805],[2.6550753,48.8398794],[2.6536307,48.8396677],[2.6536463,48.839575],[2.653584,48.8395355],[2.6535962,48.8394888],[2.6535156,48.8394798],[2.6535034,48.8395262],[2.6532306,48.839495],[2.653238,48.8394662],[2.6528603,48.8394053],[2.6499779,48.8390792],[2.6501332,48.8381539],[2.6511942,48.8382477],[2.6516062,48.8381165],[2.6521517,48.8376555],[2.6523199,48.8373303],[2.652734,48.837311],[2.6527607,48.8372086],[2.6529458,48.8371411],[2.6530483,48.8373082],[2.6531999,48.8373354],[2.6533776,48.8372465],[2.6533858,48.8370496],[2.6535939,48.8371292],[2.6538283,48.8370771],[2.6541102,48.8367619],[2.6546995,48.8363566],[2.6548188,48.8364336],[2.6549762,48.836342],[2.654873,48.8363097],[2.6552592,48.8361254],[2.6555975,48.8358722],[2.6555229,48.8356822],[2.6556186,48.8355861],[2.6557299,48.8353218]]]]},"properties":{"code_section":"77468000AL","code_commune":"77468","section_courte":"AL"}},{"type":"Feature","geometry":{"type":"MultiPolygon","coordinates":[[[[2.656985,48.8463412],[2.65879,48.8463885],[2.6603676,48.8465917],[2.6615288,48.8470953],[2.6623353,48.8478458],[2.6625787,48.8487458],[2.6625583,48.8490584],[2.6623111,48.8501255],[2.6610943,48.8502368],[2.6579621,48.8506274],[2.6571996,48.8490171],[2.6569507,48.8487228],[2.6566032,48.8484634],[2.6563165,48.8483058],[2.6557775,48.8481083],[2.6553936,48.8480245],[2.6518536,48.8474578],[2.652194,48.8471339],[2.6530695,48.845997],[2.6531311,48.8460046],[2.6530727,48.8460828],[2.6559952,48.8463175],[2.656985,48.8463412]]]]},"properties":{"code_section":"77468000AM","code_commune":"77468","section_courte":"AM"}},{"type":"Feature","geometry":{"type":"MultiPolygon","coordinates":[[[[2.6536307,48.8396677],[2.6550753,48.8398794],[2.656721,48.8400805],[2.6570752,48.8400869],[2.6570568,48.8401551],[2.6571699,48.8401937],[2.6575957,48.8402435],[2.6576172,48.8401534],[2.6578427,48.8401748],[2.6579417,48.8400978],[2.6578548,48.8396529],[2.6578758,48.8393805],[2.6579156,48.8392483],[2.658082,48.8390035],[2.6581592,48.839027],[2.6580721,48.8391728],[2.6579779,48.8394782],[2.6580785,48.8402773],[2.6580462,48.8405456],[2.6578828,48.8408646],[2.658005,48.8408748],[2.6579673,48.8409303],[2.6566989,48.842118],[2.6562163,48.8425325],[2.6561566,48.8425289],[2.6550768,48.8434581],[2.6550576,48.8434184],[2.6549214,48.8433619],[2.654486,48.8434542],[2.6544466,48.8434408],[2.6543529,48.8435609],[2.6516344,48.8426498],[2.6511842,48.8423409],[2.6509999,48.8420536],[2.6509301,48.8407318],[2.6506184,48.8403442],[2.6501591,48.8401008],[2.6488972,48.8398826],[2.6490664,48.8387619],[2.6500304,48.8388718],[2.6499779,48.8390792],[2.6528603,48.8394053],[2.653238,48.8394662],[2.6532306,48.839495],[2.6535034,48.8395262],[2.6535156,48.8394798],[2.6535962,48.8394888],[2.653584,48.8395355],[2.6536463,48.839575],[2.6536307,48.8396677]]]]},"properties":{"code_section":"77468000AN","code_commune":"77468","section_courte":"AN"}},{"type":"Feature","geometry":{"type":"MultiPolygon","coordinates":[[[[2.6444576,48.8622249],[2.6452681,48.8610811],[2.6462547,48.8598186],[2.6463552,48.8595857],[2.6463462,48.8594273],[2.6456266,48.8581777],[2.6463485,48.8584467],[2.6487585,48.859246],[2.6491903,48.859323],[2.6495551,48.8593561],[2.6503949,48.8592876],[2.6523235,48.8589517],[2.6525328,48.858947],[2.6529993,48.8590059],[2.6550938,48.8593127],[2.6573594,48.8598655],[2.6590883,48.8602172],[2.660803,48.8601332],[2.6614531,48.8601854],[2.6621661,48.8602985],[2.6627311,48.8604411],[2.6632969,48.8606808],[2.6648387,48.8614667],[2.6652978,48.8614827],[2.6655483,48.8614464],[2.6660613,48.8614725],[2.6646235,48.8661239],[2.6634892,48.8700251],[2.6622231,48.8741784],[2.6617084,48.8742442],[2.6597862,48.8730345],[2.6578069,48.8720403],[2.6567342,48.8718124],[2.655018,48.871091],[2.6540091,48.870569],[2.6531794,48.8700187],[2.6528071,48.8697101],[2.6517236,48.8686571],[2.6508861,48.86776],[2.6491423,48.8662565],[2.6469276,48.8637587],[2.6463937,48.8633341],[2.6456073,48.8628309],[2.6444576,48.8622249]]]]},"properties":{"code_section":"77468000AR","code_commune":"77468","section_courte":"AR"}},{"type":"Feature","geometry":{"type":"MultiPolygon","coordinates":[[[[2.6412724,48.8572484],[2.6448021,48.8579793],[2.6456266,48.8581777],[2.6463462,48.8594273],[2.6463552,48.8595857],[2.6462547,48.8598186],[2.6452681,48.8610811],[2.6444576,48.8622249],[2.643946,48.8619735],[2.6431075,48.8617654],[2.6425261,48.8614631],[2.6417629,48.8608494],[2.640155,48.859822],[2.639837,48.8595533],[2.6390575,48.8587817],[2.6386741,48.8585072],[2.6382363,48.8582698],[2.6372667,48.8578305],[2.6365065,48.8575691],[2.6358374,48.8574519],[2.6347518,48.8574169],[2.6350911,48.8558304],[2.6369321,48.8561308],[2.6396735,48.8569195],[2.6412724,48.8572484]]]]},"properties":{"code_section":"77468000AS","code_commune":"77468","section_courte":"AS"}},{"type":"Feature","geometry":{"type":"MultiPolygon","coordinates":[[[[2.6480127,48.8571244],[2.647594,48.8575905],[2.6470044,48.8586495],[2.6463485,48.8584467],[2.6456266,48.8581777],[2.6448021,48.8579793],[2.6412724,48.8572484],[2.6415414,48.8566924],[2.6413245,48.8566673],[2.6412449,48.8569451],[2.641112,48.8569254],[2.6412576,48.8563109],[2.6415585,48.8563516],[2.6416594,48.8560271],[2.6406229,48.8558711],[2.6407877,48.8551914],[2.6409013,48.8551308],[2.6412522,48.8540077],[2.6414035,48.8540255],[2.6418409,48.8529837],[2.6484003,48.8545221],[2.6488883,48.8537796],[2.6502342,48.8540693],[2.6493505,48.8553328],[2.6493584,48.8554684],[2.6491834,48.8557929],[2.6487383,48.8563448],[2.6480127,48.8571244]]]]},"properties":{"code_section":"77468000BC","code_commune":"77468","section_courte":"BC"}},{"type":"Feature","geometry":{"type":"MultiPolygon","coordinates":[[[[2.6550314,48.8539558],[2.6553677,48.8541939],[2.6555972,48.8551833],[2.6556815,48.855213],[2.6557266,48.8554948],[2.6556752,48.8555438],[2.6558565,48.8566197],[2.6559896,48.8571144],[2.6559973,48.8573108],[2.6555955,48.8594396],[2.6550938,48.8593127],[2.6525328,48.858947],[2.6523235,48.8589517],[2.6503949,48.8592876],[2.6495551,48.8593561],[2.6491903,48.859323],[2.6487585,48.859246],[2.6470044,48.8586495],[2.647594,48.8575905],[2.6487383,48.8563448],[2.6491834,48.8557929],[2.6493584,48.8554684],[2.6493505,48.8553328],[2.6509427,48.8530963],[2.6509417,48.8529387],[2.6505702,48.8528444],[2.6508163,48.8523353],[2.6521418,48.8525473],[2.6526182,48.8527328],[2.6540689,48.8534199],[2.6542198,48.8531275],[2.6545016,48.8520912],[2.6547406,48.8516448],[2.6547887,48.8516583],[2.6552597,48.8536835],[2.6551844,48.8536987],[2.6552633,48.8538651],[2.6551046,48.8538957],[2.6550314,48.8539558]]]]},"properties":{"code_section":"77468000BD","code_commune":"77468","section_courte":"BD"}},{"type":"Feature","geometry":{"type":"MultiPolygon","coordinates":[[[[2.6630667,48.8601245],[2.6634794,48.8604854],[2.6639989,48.8610258],[2.6627311,48.8604411],[2.6621661,48.8602985],[2.6614531,48.8601854],[2.660803,48.8601332],[2.6590883,48.8602172],[2.6573594,48.8598655],[2.6555955,48.8594396],[2.6559973,48.8573108],[2.6559896,48.8571144],[2.6558565,48.8566197],[2.6556752,48.8555438],[2.6557266,48.8554948],[2.6559497,48.8554882],[2.6562188,48.8557036],[2.6564576,48.8555647],[2.657035,48.8553511],[2.657721,48.8552363],[2.657786,48.8552635],[2.6586209,48.8551263],[2.6588507,48.8550812],[2.6591902,48.8549449],[2.6600895,48.8550071],[2.6600361,48.8556523],[2.6618405,48.8555385],[2.6620196,48.8559042],[2.6633371,48.8563471],[2.663439,48.8564614],[2.6634883,48.8573211],[2.6635094,48.8577988],[2.6634507,48.858645],[2.6629196,48.8599114],[2.6630667,48.8601245]]]]},"properties":{"code_section":"77468000BE","code_commune":"77468","section_courte":"BE"}},{"type":"Feature","geometry":{"type":"MultiPolygon","coordinates":[[[[2.6629965,48.8511312],[2.6631104,48.8517692],[2.6630438,48.8520045],[2.6629677,48.8520836],[2.6623344,48.8523749],[2.6624826,48.8525543],[2.6628794,48.85322],[2.6631612,48.8537891],[2.6625998,48.8539081],[2.6619071,48.8541316],[2.6618769,48.8541659],[2.6618405,48.8555385],[2.6600361,48.8556523],[2.6600895,48.8550071],[2.6591902,48.8549449],[2.6588507,48.8550812],[2.6586209,48.8551263],[2.657786,48.8552635],[2.657721,48.8552363],[2.657035,48.8553511],[2.6564576,48.8555647],[2.6562188,48.8557036],[2.6559497,48.8554882],[2.6557266,48.8554948],[2.6556815,48.855213],[2.6555972,48.8551833],[2.6553677,48.8541939],[2.6550314,48.8539558],[2.6551046,48.8538957],[2.6552633,48.8538651],[2.6551844,48.8536987],[2.6552597,48.8536835],[2.6547887,48.8516583],[2.6547406,48.8516448],[2.6548204,48.8514999],[2.6547181,48.8509132],[2.6562248,48.8508188],[2.656664,48.8488954],[2.6569507,48.8487228],[2.6571996,48.8490171],[2.6579621,48.8506274],[2.6610943,48.8502368],[2.6625362,48.8501144],[2.6626237,48.8504021],[2.6629476,48.8507458],[2.6629965,48.8511312]]]]},"properties":{"code_section":"77468000BH","code_commune":"77468","section_courte":"BH"}},{"type":"Feature","geometry":{"type":"MultiPolygon","coordinates":[[[[2.6398947,48.8526372],[2.6396389,48.8526468],[2.6400237,48.8511339],[2.6397136,48.8497441],[2.6397935,48.8496418],[2.6417395,48.849447],[2.6421491,48.8494415],[2.6429446,48.8495264],[2.6504394,48.8507018],[2.6507993,48.8507244],[2.6499387,48.852049],[2.6508163,48.8523353],[2.6505702,48.8528444],[2.6509417,48.8529387],[2.6509427,48.8530963],[2.6502342,48.8540693],[2.6488883,48.8537796],[2.6484003,48.8545221],[2.6417913,48.852972],[2.6405671,48.8526562],[2.6404967,48.8525986],[2.6398947,48.8526372]]]]},"properties":{"code_section":"77468000BI","code_commune":"77468","section_courte":"BI"}},{"type":"Feature","geometry":{"type":"MultiPolygon","coordinates":[[[[2.6515603,48.8475957],[2.6516179,48.8477064],[2.6518536,48.8474578],[2.6553936,48.8480245],[2.6557775,48.8481083],[2.6563165,48.8483058],[2.6566032,48.8484634],[2.6569507,48.8487228],[2.656664,48.8488954],[2.6562248,48.8508188],[2.6547181,48.8509132],[2.6548204,48.8514999],[2.6545016,48.8520912],[2.6542198,48.8531275],[2.6540689,48.8534199],[2.6526182,48.8527328],[2.6521418,48.8525473],[2.6508163,48.8523353],[2.6499387,48.852049],[2.6507993,48.8507244],[2.6504394,48.8507018],[2.644067,48.8496996],[2.643606,48.8495661],[2.6439331,48.8494314],[2.6442961,48.8484346],[2.6445472,48.8479042],[2.6449905,48.8472192],[2.6455392,48.8465587],[2.645371,48.8463722],[2.6445833,48.8462543],[2.6447086,48.8460306],[2.6469367,48.8467264],[2.6477014,48.8467902],[2.6491758,48.8470302],[2.6499156,48.8472224],[2.6514967,48.8474739],[2.6515603,48.8475957]]]]},"properties":{"code_section":"77468000BK","code_commune":"77468","section_courte":"BK"}}]}