{"type":"FeatureCollection","features":[{"type":"Feature","geometry":{"type":"MultiPolygon","coordinates":[[[[2.6441181,48.8759128],[2.6439661,48.8774499],[2.6423129,48.8774033],[2.6416083,48.877747],[2.6417142,48.8778239],[2.6410303,48.8781569],[2.6410568,48.8782296],[2.6404241,48.8783252],[2.6377234,48.87964],[2.636553,48.8791287],[2.6367645,48.8789155],[2.6344609,48.877903],[2.6338759,48.8780468],[2.6332231,48.8770762],[2.6345069,48.8768997],[2.634319,48.8760981],[2.6369927,48.8759446],[2.6379597,48.8757577],[2.6380411,48.8756654],[2.6386892,48.8758995],[2.6389328,48.8755119],[2.6441339,48.8757354],[2.6441181,48.8759128]]]]},"properties":{"code_section":"77479000AA","code_commune":"77479","section_courte":"AA"}},{"type":"Feature","geometry":{"type":"MultiPolygon","coordinates":[[[[2.6497185,48.8759372],[2.6543576,48.8761535],[2.6513938,48.8794567],[2.6516942,48.8810944],[2.6520788,48.8827859],[2.6513335,48.8830412],[2.6507722,48.8831856],[2.6500946,48.8832901],[2.6496161,48.8833165],[2.6435197,48.8829876],[2.636845,48.8825858],[2.6362846,48.8817375],[2.6367229,48.8816133],[2.6364767,48.8812381],[2.6367208,48.8811687],[2.6358418,48.879832],[2.636553,48.8791287],[2.6377234,48.87964],[2.6404241,48.8783252],[2.6410568,48.8782296],[2.6410303,48.8781569],[2.6417142,48.8778239],[2.6416083,48.877747],[2.6423129,48.8774033],[2.6439661,48.8774499],[2.6441339,48.8757354],[2.6480693,48.8759301],[2.6480347,48.8758761],[2.6497185,48.8759372]]]]},"properties":{"code_section":"77479000AC","code_commune":"77479","section_courte":"AC"}},{"type":"Feature","geometry":{"type":"MultiPolygon","coordinates":[[[[2.6466659,48.8724756],[2.647343,48.8725173],[2.6470729,48.8721049],[2.6495198,48.8708439],[2.6526533,48.8695707],[2.6535513,48.8702805],[2.6543713,48.8707757],[2.6556058,48.8713473],[2.6564458,48.8716877],[2.6579688,48.8722341],[2.6594085,48.8728754],[2.6600488,48.8732325],[2.6610984,48.8740403],[2.6603221,48.8744604],[2.6598875,48.8745128],[2.6595573,48.8744365],[2.659463,48.8744427],[2.6594428,48.8745128],[2.6590228,48.8748298],[2.658821,48.8752302],[2.65823,48.8753193],[2.6579707,48.8754177],[2.6573308,48.8758994],[2.657114,48.8759298],[2.6570886,48.8762641],[2.648436,48.8758898],[2.6482976,48.8758747],[2.646957,48.8739132],[2.6464682,48.8728218],[2.6463532,48.8724613],[2.6466659,48.8724756]]]]},"properties":{"code_section":"77479000AD","code_commune":"77479","section_courte":"AD"}},{"type":"Feature","geometry":{"type":"MultiPolygon","coordinates":[[[[2.6499323,48.8684509],[2.650023,48.8683576],[2.6509935,48.8687689],[2.651574,48.8685173],[2.6526533,48.8695707],[2.6495198,48.8708439],[2.6480485,48.8716039],[2.6474125,48.8709775],[2.6477991,48.8707008],[2.6473462,48.870154],[2.6468216,48.8703087],[2.6457804,48.8688632],[2.6411762,48.8697726],[2.6425833,48.8658776],[2.6431138,48.8659675],[2.6454587,48.8666653],[2.6499056,48.8685243],[2.6499323,48.8684509]]]]},"properties":{"code_section":"77479000AE","code_commune":"77479","section_courte":"AE"}},{"type":"Feature","geometry":{"type":"MultiPolygon","coordinates":[[[[2.6389459,48.8587379],[2.6391636,48.8589177],[2.639777,48.8595669],[2.640193,48.859903],[2.6414387,48.8606896],[2.6424278,48.8614854],[2.6427145,48.8616598],[2.6430613,48.8618128],[2.6438575,48.8619982],[2.6445055,48.8622429],[2.6456067,48.8628266],[2.6463187,48.8632945],[2.6469532,48.8638158],[2.647528,48.8644247],[2.6485764,48.8657097],[2.6507316,48.8676567],[2.651574,48.8685173],[2.6509935,48.8687689],[2.650023,48.8683576],[2.6499056,48.8685243],[2.6454587,48.8666653],[2.6431138,48.8659675],[2.6415691,48.8657072],[2.6394836,48.8655806],[2.6374705,48.8656773],[2.6337583,48.8659594],[2.6336983,48.8657383],[2.6310941,48.8659482],[2.6310497,48.8655965],[2.6308717,48.8649368],[2.6299852,48.8600202],[2.6293034,48.8577369],[2.6292715,48.8573362],[2.6327318,48.8574435],[2.6351925,48.857432],[2.6358281,48.8574647],[2.6363872,48.8575536],[2.6372293,48.8578354],[2.6380137,48.8581829],[2.6389459,48.8587379]]]]},"properties":{"code_section":"77479000AH","code_commune":"77479","section_courte":"AH"}},{"type":"Feature","geometry":{"type":"MultiPolygon","coordinates":[[[[2.6180682,48.8594136],[2.6180032,48.8588813],[2.6210118,48.8586591],[2.6246073,48.8582723],[2.6265038,48.8578042],[2.6269428,48.8574733],[2.6272697,48.8572998],[2.6292715,48.8573362],[2.6293034,48.8577369],[2.6299852,48.8600202],[2.6308717,48.8649368],[2.6310497,48.8655965],[2.6310941,48.8659482],[2.6222918,48.8666876],[2.6219448,48.8663695],[2.6211472,48.8659224],[2.6209953,48.8658056],[2.6205383,48.8657676],[2.6201442,48.8650199],[2.6183784,48.8610589],[2.6178378,48.8610941],[2.6174774,48.8611785],[2.6170164,48.8612172],[2.6174674,48.8608891],[2.6176067,48.8606881],[2.6181513,48.859427],[2.6180682,48.8594136]]]]},"properties":{"code_section":"77479000AI","code_commune":"77479","section_courte":"AI"}},{"type":"Feature","geometry":{"type":"MultiPolygon","coordinates":[[[[2.6186507,48.861658],[2.6201442,48.8650199],[2.6205383,48.8657676],[2.6209953,48.8658056],[2.6211472,48.8659224],[2.6219448,48.8663695],[2.6222918,48.8666876],[2.622352,48.8668945],[2.613263,48.867631],[2.613267,48.8676842],[2.6126214,48.8679677],[2.6121102,48.8680295],[2.6120749,48.8680116],[2.6120758,48.8674857],[2.61198,48.867065],[2.6121318,48.8666891],[2.6125623,48.8661167],[2.6128007,48.8658781],[2.6144792,48.8652017],[2.6148561,48.8642337],[2.6161434,48.8624783],[2.6170142,48.8612162],[2.6169755,48.8612044],[2.6164515,48.8615572],[2.6160674,48.8616575],[2.614777,48.8618925],[2.6143094,48.862118],[2.6137031,48.862517],[2.6131557,48.862718],[2.6103353,48.8636134],[2.6054554,48.8662023],[2.6053598,48.8660663],[2.6060113,48.8657179],[2.6061278,48.865625],[2.6061507,48.865532],[2.6059771,48.8651917],[2.6057407,48.8649254],[2.6065279,48.8645468],[2.6076166,48.863947],[2.6084653,48.8636207],[2.6091353,48.863263],[2.6102223,48.8623078],[2.6121805,48.860861],[2.6127488,48.8605191],[2.6141339,48.8597792],[2.6145395,48.8596389],[2.6157349,48.859329],[2.6180032,48.8588813],[2.6180682,48.8594136],[2.6181513,48.859427],[2.6176067,48.8606881],[2.6174674,48.8608891],[2.6170164,48.8612172],[2.6174774,48.8611785],[2.6178378,48.8610941],[2.6183784,48.8610589],[2.6186507,48.861658]]]]},"properties":{"code_section":"77479000AK","code_commune":"77479","section_courte":"AK"}},{"type":"Feature","geometry":{"type":"MultiPolygon","coordinates":[[[[2.6234178,48.8706447],[2.6232264,48.8704994],[2.6230905,48.8704766],[2.6218298,48.8693269],[2.6217082,48.8690783],[2.6215451,48.868859],[2.6214305,48.8687126],[2.6213227,48.8686659],[2.6211264,48.8686311],[2.6208551,48.8686623],[2.6197488,48.8689298],[2.6192659,48.8690121],[2.6183223,48.8690662],[2.6172942,48.869066],[2.617,48.8690104],[2.6159139,48.8690617],[2.6149718,48.8689536],[2.614361,48.8689859],[2.6138532,48.8689633],[2.6136445,48.8688556],[2.6133463,48.8677601],[2.613267,48.8676842],[2.613263,48.867631],[2.622352,48.8668945],[2.6225103,48.8673722],[2.6227261,48.8677481],[2.6230998,48.8685911],[2.6234666,48.8689948],[2.6234038,48.8692738],[2.6237744,48.8701095],[2.6240282,48.8710021],[2.6239197,48.8710161],[2.6234178,48.8706447]]]]},"properties":{"code_section":"77479000AL","code_commune":"77479","section_courte":"AL"}},{"type":"Feature","geometry":{"type":"MultiPolygon","coordinates":[[[[2.6334968,48.8682892],[2.6322341,48.8687371],[2.6276127,48.8698929],[2.6272958,48.8700085],[2.6266486,48.8704566],[2.6240498,48.8710903],[2.6237744,48.8701095],[2.6234038,48.8692738],[2.6234666,48.8689948],[2.6230998,48.8685911],[2.6227261,48.8677481],[2.6225103,48.8673722],[2.6222918,48.8666876],[2.6336983,48.8657383],[2.6337902,48.8660599],[2.6342997,48.8672313],[2.6330446,48.8676972],[2.6334968,48.8682892]]]]},"properties":{"code_section":"77479000AM","code_commune":"77479","section_courte":"AM"}},{"type":"Feature","geometry":{"type":"MultiPolygon","coordinates":[[[[2.626147,48.8737293],[2.6256692,48.8735701],[2.6250109,48.873195],[2.6242703,48.8719514],[2.6240148,48.8712006],[2.6240498,48.8710903],[2.6266486,48.8704566],[2.6272958,48.8700085],[2.6276127,48.8698929],[2.6322341,48.8687371],[2.6348417,48.8710932],[2.6270501,48.8738789],[2.6268431,48.873892],[2.626147,48.8737293]]]]},"properties":{"code_section":"77479000AN","code_commune":"77479","section_courte":"AN"}},{"type":"Feature","geometry":{"type":"MultiPolygon","coordinates":[[[[2.6344422,48.876624],[2.6345069,48.8768997],[2.6326028,48.8771638],[2.6320307,48.8772108],[2.6314278,48.8771864],[2.6309688,48.8771107],[2.6304465,48.8769608],[2.6292052,48.8764662],[2.6290112,48.8764262],[2.62805,48.8764865],[2.6280011,48.8764338],[2.6269979,48.8764942],[2.6270541,48.8765578],[2.626868,48.8765689],[2.6265896,48.8766802],[2.6265187,48.8766007],[2.6258139,48.8768486],[2.6253169,48.8759484],[2.6253945,48.8750344],[2.6255642,48.8744965],[2.6255694,48.8742938],[2.6250109,48.873195],[2.6256692,48.8735701],[2.6263538,48.8737903],[2.6268431,48.873892],[2.6270501,48.8738789],[2.6279757,48.8739418],[2.6279806,48.8740952],[2.6289078,48.8742499],[2.6295899,48.8743191],[2.6312889,48.8743811],[2.6312777,48.874487],[2.6345396,48.874656],[2.6345475,48.8745908],[2.635865,48.8746496],[2.63586,48.8747155],[2.6359573,48.8747198],[2.6358196,48.8760072],[2.634319,48.8760981],[2.6344422,48.876624]]]]},"properties":{"code_section":"77479000AO","code_commune":"77479","section_courte":"AO"}},{"type":"Feature","geometry":{"type":"MultiPolygon","coordinates":[[[[2.6363132,48.8793677],[2.6358418,48.879832],[2.6367208,48.8811687],[2.6364767,48.8812381],[2.6367229,48.8816133],[2.6362846,48.8817375],[2.636845,48.8825858],[2.632682,48.8823455],[2.6326189,48.8810563],[2.6324974,48.8806296],[2.6316591,48.8799181],[2.6313694,48.8797185],[2.6296485,48.8792425],[2.6295055,48.8791562],[2.6283637,48.8788854],[2.6279122,48.8786849],[2.6271053,48.8781748],[2.6266971,48.8777372],[2.6263568,48.8772385],[2.6257987,48.876862],[2.6263014,48.8766568],[2.6263253,48.8766782],[2.6265187,48.8766007],[2.6265896,48.8766802],[2.626868,48.8765689],[2.6270541,48.8765578],[2.6269979,48.8764942],[2.6280011,48.8764338],[2.62805,48.8764865],[2.6290112,48.8764262],[2.6292052,48.8764662],[2.6304465,48.8769608],[2.6309688,48.8771107],[2.6314278,48.8771864],[2.6320307,48.8772108],[2.6332231,48.8770762],[2.6338759,48.8780468],[2.6344609,48.877903],[2.6367645,48.8789156],[2.6363132,48.8793677]]]]},"properties":{"code_section":"77479000AP","code_commune":"77479","section_courte":"AP"}},{"type":"Feature","geometry":{"type":"MultiPolygon","coordinates":[[[[2.6392305,48.8750126],[2.6403795,48.8719499],[2.6448599,48.8726553],[2.6463155,48.8722243],[2.6464682,48.8728218],[2.646957,48.8739132],[2.6482976,48.8758747],[2.6480347,48.8758761],[2.6480693,48.8759301],[2.6389328,48.8755119],[2.6386892,48.8758995],[2.6380411,48.8756654],[2.6379597,48.8757577],[2.6369927,48.8759446],[2.6358196,48.8760072],[2.6359573,48.8747198],[2.6368007,48.8747601],[2.6368093,48.8746929],[2.6371944,48.8747447],[2.6371986,48.8747099],[2.6381456,48.8747534],[2.6385707,48.8748088],[2.6390349,48.8749323],[2.6392305,48.8750126]]]]},"properties":{"code_section":"77479000AR","code_commune":"77479","section_courte":"AR"}},{"type":"Feature","geometry":{"type":"MultiPolygon","coordinates":[[[[2.6470729,48.8721049],[2.647343,48.8725173],[2.6463532,48.8724613],[2.6463155,48.8722243],[2.6448599,48.8726553],[2.6403795,48.8719499],[2.6411762,48.8697726],[2.6457804,48.8688632],[2.6468216,48.8703087],[2.6473462,48.870154],[2.6477991,48.8707008],[2.6474125,48.8709775],[2.6480485,48.8716039],[2.6470729,48.8721049]]]]},"properties":{"code_section":"77479000AS","code_commune":"77479","section_courte":"AS"}},{"type":"Feature","geometry":{"type":"MultiPolygon","coordinates":[[[[2.6339801,48.8673502],[2.6342997,48.8672313],[2.6337583,48.8659594],[2.6374705,48.8656773],[2.6394836,48.8655806],[2.6415691,48.8657072],[2.6425833,48.8658776],[2.6411762,48.8697726],[2.6366777,48.8690591],[2.6331409,48.868423],[2.6334968,48.8682892],[2.6330446,48.8676972],[2.6339801,48.8673502]]]]},"properties":{"code_section":"77479000AT","code_commune":"77479","section_courte":"AT"}},{"type":"Feature","geometry":{"type":"MultiPolygon","coordinates":[[[[2.6348417,48.8710932],[2.6322341,48.8687371],[2.6331409,48.868423],[2.6366777,48.8690591],[2.6411762,48.8697726],[2.6392305,48.8750126],[2.6348417,48.8710932]]]]},"properties":{"code_section":"77479000AV","code_commune":"77479","section_courte":"AV"}},{"type":"Feature","geometry":{"type":"MultiPolygon","coordinates":[[[[2.6279757,48.8739418],[2.6270501,48.8738789],[2.6348417,48.8710932],[2.6392305,48.8750126],[2.6390349,48.8749323],[2.6385707,48.8748088],[2.6381456,48.8747535],[2.6371986,48.8747099],[2.6371944,48.8747447],[2.6368093,48.8746929],[2.6368007,48.8747601],[2.63586,48.8747155],[2.635865,48.8746496],[2.6345475,48.8745908],[2.6345396,48.874656],[2.6312777,48.874487],[2.6312889,48.8743811],[2.6294122,48.8743082],[2.6282151,48.874147],[2.6279806,48.8740952],[2.6279757,48.8739418]]]]},"properties":{"code_section":"77479000AW","code_commune":"77479","section_courte":"AW"}}]}