{"type":"FeatureCollection","features":[{"type":"Feature","geometry":{"type":"MultiPolygon","coordinates":[[[[2.6534194,48.5611052],[2.6537047,48.5612727],[2.653868,48.5615185],[2.654248,48.5625406],[2.6542025,48.5625664],[2.6546793,48.5637753],[2.6550557,48.5649828],[2.6532952,48.5654433],[2.6517138,48.566122],[2.6514333,48.5664203],[2.6507113,48.5677144],[2.650562,48.5682518],[2.6505777,48.568644],[2.6512895,48.5690681],[2.6523463,48.5695985],[2.6524682,48.5696129],[2.6533946,48.5695277],[2.6542874,48.5696537],[2.6552391,48.5700004],[2.6553994,48.5703153],[2.6552545,48.5705417],[2.654545,48.5709304],[2.6538541,48.5712173],[2.6548503,48.5722716],[2.6552016,48.5722284],[2.6567575,48.5725459],[2.6513448,48.5741581],[2.6512127,48.5741812],[2.6511195,48.5739869],[2.6497263,48.5742388],[2.6484694,48.5745027],[2.6477899,48.5714026],[2.647287,48.5715041],[2.6468166,48.5715431],[2.6448193,48.5716004],[2.6432786,48.5715493],[2.6418971,48.5714276],[2.640648,48.5714348],[2.64541,48.5607368],[2.6470035,48.5607691],[2.6492593,48.5607642],[2.6502263,48.5607144],[2.6533001,48.5604395],[2.6534194,48.5611052]]]]},"properties":{"code_section":"774950000A","code_commune":"77495","section_courte":"A"}},{"type":"Feature","geometry":{"type":"MultiPolygon","coordinates":[[[[2.6103215,48.5817165],[2.6124187,48.5799507],[2.621021,48.5725135],[2.6284767,48.5659106],[2.6287499,48.5657217],[2.6288243,48.5656051],[2.6287945,48.5654662],[2.6290677,48.5652111],[2.6292036,48.565207],[2.6320792,48.5627368],[2.6375639,48.557879],[2.6391686,48.5592915],[2.6412846,48.5589865],[2.6446365,48.5587121],[2.6465524,48.5582602],[2.633642,48.5869505],[2.6332176,48.5867935],[2.6329713,48.5872805],[2.6305588,48.587092],[2.6306361,48.5866203],[2.63036,48.5868068],[2.6303067,48.586804],[2.6301885,48.5869185],[2.6279126,48.5867311],[2.6277667,48.5866841],[2.6252128,48.5854172],[2.6239736,48.5852902],[2.6237688,48.5845537],[2.6233842,48.584589],[2.6224113,48.5844708],[2.6198315,48.5838201],[2.6188159,48.5836368],[2.6182677,48.5835704],[2.6161113,48.5834002],[2.6147949,48.5831516],[2.6131525,48.5829193],[2.6113406,48.5828224],[2.6108989,48.5825853],[2.6107074,48.582392],[2.6103215,48.5817165]]]]},"properties":{"code_section":"774950000B","code_commune":"77495","section_courte":"B"}},{"type":"Feature","geometry":{"type":"MultiPolygon","coordinates":[[[[2.6154567,48.5723647],[2.6155476,48.572353],[2.6156247,48.5722408],[2.6157477,48.5718844],[2.6156934,48.5716493],[2.6158119,48.5709499],[2.6161374,48.5702405],[2.616702,48.5693818],[2.6171879,48.5694714],[2.6182217,48.5697377],[2.6187095,48.5699565],[2.6192553,48.5704245],[2.6194004,48.5703876],[2.6194191,48.5699766],[2.6194828,48.5696508],[2.6197837,48.5684988],[2.6197833,48.5679553],[2.6192658,48.5669546],[2.6187949,48.5663771],[2.6189226,48.5663257],[2.6191599,48.5662891],[2.619685,48.5662415],[2.6204036,48.5662435],[2.6213278,48.5663366],[2.6223763,48.5665111],[2.622619,48.5661388],[2.6222574,48.5655306],[2.6227915,48.5653935],[2.6229434,48.5656442],[2.6232852,48.5651926],[2.6235199,48.56512],[2.624672,48.5649409],[2.6266086,48.5647434],[2.6262381,48.5650718],[2.6282931,48.5661025],[2.621021,48.5725135],[2.6124187,48.5799507],[2.6091263,48.5719343],[2.6077319,48.5674201],[2.6091023,48.5677701],[2.6099179,48.5679411],[2.6094587,48.5702865],[2.6129948,48.5704729],[2.612634,48.5713345],[2.6125161,48.5717336],[2.6123567,48.5726339],[2.6154567,48.5723647]]],[[[2.6375639,48.557879],[2.6320792,48.5627368],[2.6307177,48.5617211],[2.6303993,48.5615482],[2.6303766,48.561567],[2.6288533,48.5607463],[2.6277676,48.5599165],[2.6267703,48.5600083],[2.6253231,48.5604656],[2.6245833,48.5608823],[2.6226618,48.5620823],[2.6225686,48.5620157],[2.6219383,48.562407],[2.621404,48.5619135],[2.6210972,48.5620207],[2.620913,48.5618679],[2.6168694,48.5601641],[2.6162604,48.560011],[2.6158908,48.5599668],[2.615321,48.5599876],[2.6152172,48.5598547],[2.6152734,48.5594569],[2.6138461,48.5590175],[2.6128117,48.5585876],[2.6122781,48.5582306],[2.6098829,48.5563699],[2.6092226,48.5559672],[2.6086571,48.5556918],[2.6080267,48.5554643],[2.6073072,48.5552759],[2.6065226,48.5551553],[2.6056028,48.5551131],[2.6052585,48.5542147],[2.6051183,48.5539863],[2.5965014,48.5452719],[2.6009798,48.5451295],[2.6003257,48.5443558],[2.6007653,48.5443562],[2.6015466,48.5441235],[2.602409,48.5438292],[2.60306,48.5434677],[2.6046801,48.5411381],[2.6048275,48.5407943],[2.6051465,48.5397597],[2.6053549,48.5394013],[2.6059506,48.5387554],[2.6082232,48.5372594],[2.6100403,48.5351123],[2.6114227,48.5366207],[2.6114601,48.5368263],[2.6113736,48.5372157],[2.6107978,48.5389455],[2.6108103,48.5391046],[2.6111283,48.5396083],[2.6108827,48.5398979],[2.6098357,48.5407836],[2.6096102,48.5409392],[2.6110745,48.5424422],[2.6177392,48.5470449],[2.6182732,48.5470169],[2.6210121,48.546662],[2.621164,48.546247],[2.6238206,48.546174],[2.6240354,48.548466],[2.6232619,48.5490471],[2.6225225,48.5499004],[2.6225196,48.5501559],[2.6226314,48.5504146],[2.6228249,48.5505615],[2.6237035,48.5508138],[2.6259307,48.5509831],[2.6259403,48.5509476],[2.6269879,48.5510726],[2.6281398,48.5513962],[2.6293902,48.5532131],[2.628556,48.5535537],[2.6290735,48.5537825],[2.6309304,48.5544323],[2.6316651,48.5547281],[2.6322351,48.5549995],[2.6348253,48.5558389],[2.6349479,48.5559042],[2.6364735,48.5572884],[2.6374573,48.5577961],[2.6375639,48.557879]]]]},"properties":{"code_section":"774950000C","code_commune":"77495","section_courte":"C"}},{"type":"Feature","geometry":{"type":"MultiPolygon","coordinates":[[[[2.6215901,48.5626624],[2.620067,48.5634815],[2.6184672,48.5639936],[2.6179707,48.5641262],[2.617505,48.5642067],[2.6175287,48.5642312],[2.6157198,48.5644149],[2.6155891,48.5645334],[2.6155992,48.5647988],[2.6143494,48.564785],[2.6142921,48.5637884],[2.6130602,48.563824],[2.6130775,48.5637653],[2.6113581,48.5636227],[2.6113586,48.5636767],[2.61119,48.5636573],[2.6111962,48.5637005],[2.6109158,48.5636639],[2.61086,48.5633858],[2.6104888,48.5633766],[2.6103778,48.5627047],[2.610137,48.5620134],[2.6117222,48.5613962],[2.6124546,48.5610429],[2.6133852,48.5605088],[2.6141392,48.5602161],[2.6151303,48.5600451],[2.615321,48.5599876],[2.6158908,48.5599668],[2.6166398,48.5600905],[2.6171885,48.5602869],[2.620913,48.5618679],[2.6210972,48.5620207],[2.621404,48.5619135],[2.6219383,48.562407],[2.621673,48.5625716],[2.6216785,48.562614],[2.6215901,48.5626624]]]]},"properties":{"code_section":"77495000AB","code_commune":"77495","section_courte":"AB"}},{"type":"Feature","geometry":{"type":"MultiPolygon","coordinates":[[[[2.6217847,48.5627532],[2.6216061,48.562817],[2.6205534,48.5633577],[2.6206994,48.5634854],[2.6212778,48.5633332],[2.6218746,48.5633599],[2.6221212,48.5632807],[2.6225817,48.5633143],[2.6233783,48.5631533],[2.6242458,48.5634606],[2.6244748,48.5636009],[2.6250371,48.5634007],[2.626848,48.5642256],[2.6269997,48.5642361],[2.6272128,48.564333],[2.6272788,48.5644246],[2.628187,48.5648385],[2.6282998,48.5647282],[2.6290677,48.5652111],[2.6287945,48.5654662],[2.6288243,48.5656051],[2.6287499,48.5657217],[2.6284767,48.5659106],[2.6282931,48.5661025],[2.6262381,48.5650718],[2.6266086,48.5647434],[2.624672,48.5649409],[2.6235199,48.56512],[2.6232852,48.5651926],[2.6229434,48.5656442],[2.6227915,48.5653935],[2.6222574,48.5655306],[2.622619,48.5661388],[2.6223763,48.5665111],[2.6213278,48.5663366],[2.6204036,48.5662435],[2.619775,48.5651908],[2.6199492,48.5649996],[2.6200628,48.5649402],[2.6200239,48.5649059],[2.6203935,48.5647052],[2.6208888,48.5645071],[2.6199527,48.563518],[2.620067,48.5634815],[2.6216785,48.562614],[2.6217847,48.5627532]]]]},"properties":{"code_section":"77495000AC","code_commune":"77495","section_courte":"AC"}},{"type":"Feature","geometry":{"type":"MultiPolygon","coordinates":[[[[2.6217847,48.5627532],[2.621673,48.5625716],[2.6225686,48.5620157],[2.6226618,48.5620823],[2.6245833,48.5608823],[2.6253231,48.5604656],[2.6267703,48.5600083],[2.6277676,48.5599165],[2.6288533,48.5607463],[2.6303766,48.561567],[2.6303993,48.5615482],[2.6307177,48.5617211],[2.6320792,48.5627368],[2.6292036,48.565207],[2.6290677,48.5652111],[2.6282998,48.5647282],[2.628187,48.5648385],[2.6272788,48.5644246],[2.6272128,48.564333],[2.6269997,48.5642361],[2.626848,48.5642256],[2.6250371,48.5634007],[2.6244748,48.5636009],[2.6242458,48.5634606],[2.6233783,48.5631533],[2.6225817,48.5633143],[2.6221212,48.5632807],[2.6218746,48.5633599],[2.6212778,48.5633332],[2.6206994,48.5634854],[2.6205534,48.5633577],[2.6216061,48.562817],[2.6217847,48.5627532]]]]},"properties":{"code_section":"77495000AD","code_commune":"77495","section_courte":"AD"}},{"type":"Feature","geometry":{"type":"MultiPolygon","coordinates":[[[[2.6109799,48.5682099],[2.6112273,48.5682619],[2.6113535,48.568349],[2.611758,48.5688602],[2.6121902,48.5689365],[2.6133965,48.569011],[2.6141131,48.5689901],[2.6144366,48.5690208],[2.616702,48.5693818],[2.6161374,48.5702405],[2.6158119,48.5709499],[2.6156934,48.5716493],[2.6157477,48.5718844],[2.6156247,48.5722408],[2.6155476,48.572353],[2.6123567,48.5726339],[2.6125161,48.5717336],[2.612634,48.5713345],[2.6129948,48.5704729],[2.6094587,48.5702865],[2.6099179,48.5679411],[2.6109799,48.5682099]]]]},"properties":{"code_section":"77495000BA","code_commune":"77495","section_courte":"BA"}},{"type":"Feature","geometry":{"type":"MultiPolygon","coordinates":[[[[2.6108787,48.5647706],[2.6130896,48.5650364],[2.6141267,48.565392],[2.6147294,48.565394],[2.6152173,48.5654356],[2.6159141,48.5656434],[2.6175881,48.5662988],[2.618022,48.5663748],[2.6187949,48.5663771],[2.6192658,48.5669546],[2.6197833,48.5679553],[2.6197837,48.5684988],[2.6194828,48.5696508],[2.6194191,48.5699766],[2.6194004,48.5703876],[2.6192553,48.5704245],[2.6187095,48.5699565],[2.618426,48.5698142],[2.6182217,48.5697377],[2.6171879,48.5694714],[2.6144366,48.5690208],[2.6141131,48.5689901],[2.6133965,48.569011],[2.6121902,48.5689365],[2.611758,48.5688602],[2.6115732,48.5686484],[2.6114487,48.5684332],[2.6112273,48.5682619],[2.6091023,48.5677701],[2.6076191,48.5673934],[2.608314,48.5654264],[2.6088374,48.5642218],[2.6108787,48.5647706]]]]},"properties":{"code_section":"77495000BC","code_commune":"77495","section_courte":"BC"}},{"type":"Feature","geometry":{"type":"MultiPolygon","coordinates":[[[[2.6104764,48.5638166],[2.6104888,48.5633766],[2.61086,48.5633858],[2.6109158,48.5636639],[2.6110766,48.5636881],[2.6111962,48.5637005],[2.61119,48.5636573],[2.6113586,48.5636767],[2.6113581,48.5636227],[2.6130775,48.5637653],[2.6130602,48.563824],[2.6142921,48.5637884],[2.6143494,48.564785],[2.6155992,48.5647988],[2.6155891,48.5645334],[2.6157198,48.5644149],[2.6175287,48.5642312],[2.617505,48.5642067],[2.6179707,48.5641262],[2.6184672,48.5639936],[2.6199527,48.563518],[2.6208888,48.5645071],[2.6203935,48.5647052],[2.6200239,48.5649059],[2.6200628,48.5649402],[2.6199492,48.5649996],[2.619775,48.5651908],[2.6204036,48.5662435],[2.619685,48.5662415],[2.6191599,48.5662891],[2.6189226,48.5663257],[2.6187949,48.5663771],[2.618022,48.5663748],[2.6178057,48.5663454],[2.6173879,48.5662339],[2.6159141,48.5656434],[2.6152173,48.5654356],[2.6147294,48.565394],[2.6141267,48.565392],[2.6130896,48.5650364],[2.6108787,48.5647706],[2.6104494,48.5646513],[2.6104217,48.5642756],[2.6104616,48.5642706],[2.6104764,48.5638166]]]]},"properties":{"code_section":"77495000BD","code_commune":"77495","section_courte":"BD"}},{"type":"Feature","geometry":{"type":"MultiPolygon","coordinates":[[[[2.6152172,48.5598547],[2.615321,48.5599876],[2.6151303,48.5600451],[2.6141392,48.5602161],[2.6133852,48.5605088],[2.6124546,48.5610429],[2.6117222,48.5613962],[2.6091913,48.5624014],[2.6087495,48.5603394],[2.6085709,48.559937],[2.608255,48.5587613],[2.6076446,48.5588652],[2.6074959,48.5583155],[2.6066794,48.5584545],[2.606272,48.5567189],[2.6056028,48.5551131],[2.6065226,48.5551553],[2.6073072,48.5552759],[2.6083503,48.555569],[2.6089061,48.555807],[2.6098829,48.5563699],[2.6122781,48.5582306],[2.6128117,48.5585876],[2.6138461,48.5590175],[2.6152734,48.5594569],[2.6152172,48.5598547]]]]},"properties":{"code_section":"77495000BE","code_commune":"77495","section_courte":"BE"}},{"type":"Feature","geometry":{"type":"MultiPolygon","coordinates":[[[[2.652258,48.5910343],[2.6524606,48.5914839],[2.652337,48.5915033],[2.6523775,48.591617],[2.64814,48.592277],[2.6465216,48.5926207],[2.6458068,48.592844],[2.6446122,48.5934736],[2.643937,48.5929911],[2.6439433,48.5927718],[2.6484628,48.5910279],[2.6514861,48.5901843],[2.6519401,48.5903484],[2.652258,48.5910343]]]]},"properties":{"code_section":"77495000YB","code_commune":"77495","section_courte":"YB"}},{"type":"Feature","geometry":{"type":"MultiPolygon","coordinates":[[[[2.6233087,48.5868886],[2.6210142,48.5887351],[2.6200614,48.5894617],[2.6192126,48.5900384],[2.6181797,48.5905867],[2.6143599,48.5921155],[2.6143775,48.5921399],[2.6131133,48.5924512],[2.6115574,48.5933029],[2.6097257,48.5944761],[2.6063096,48.5934618],[2.6054868,48.5937693],[2.6051144,48.5929592],[2.6005655,48.5901277],[2.6103215,48.5817165],[2.6107074,48.582392],[2.6108989,48.5825853],[2.6113406,48.5828224],[2.6131525,48.5829193],[2.6147949,48.5831516],[2.6161113,48.5834002],[2.6182677,48.5835704],[2.6188159,48.5836368],[2.6198315,48.5838201],[2.6224113,48.5844708],[2.6233842,48.584589],[2.6237688,48.5845537],[2.6239736,48.5852902],[2.6252128,48.5854172],[2.6233087,48.5868886]]]]},"properties":{"code_section":"77495000ZA","code_commune":"77495","section_courte":"ZA"}},{"type":"Feature","geometry":{"type":"MultiPolygon","coordinates":[[[[2.6316013,48.5918776],[2.6314525,48.592207],[2.6312487,48.592282],[2.6300114,48.5950212],[2.6294081,48.5949017],[2.6293856,48.5948499],[2.6251229,48.5948075],[2.621741,48.5948172],[2.6149032,48.5947804],[2.613514,48.5934704],[2.6135383,48.5934143],[2.6137505,48.5933202],[2.6134995,48.5930753],[2.6131133,48.5924512],[2.6143775,48.5921399],[2.6143599,48.5921155],[2.6181797,48.5905867],[2.6192126,48.5900384],[2.6200614,48.5894617],[2.6210142,48.5887351],[2.6233087,48.5868886],[2.6252128,48.5854172],[2.6277667,48.5866841],[2.6279126,48.5867311],[2.6301885,48.5869185],[2.6303067,48.586804],[2.63036,48.5868068],[2.6306389,48.586615],[2.6305588,48.587092],[2.6329713,48.5872805],[2.6332176,48.5867935],[2.633642,48.5869505],[2.6314389,48.5918642],[2.6316013,48.5918776]]]]},"properties":{"code_section":"77495000ZB","code_commune":"77495","section_courte":"ZB"}},{"type":"Feature","geometry":{"type":"MultiPolygon","coordinates":[[[[2.6314768,48.5921533],[2.6316013,48.5918776],[2.6325627,48.5915916],[2.6346247,48.5910692],[2.637477,48.5904092],[2.6432706,48.5891468],[2.6465142,48.5885422],[2.6508411,48.5879505],[2.6519401,48.5903484],[2.6514861,48.5901843],[2.6484628,48.5910279],[2.6439433,48.5927718],[2.643937,48.5929911],[2.6429475,48.5922336],[2.6429254,48.5922626],[2.642202,48.5918062],[2.6373149,48.5936545],[2.6338625,48.5954149],[2.6333477,48.5955438],[2.632639,48.5955397],[2.6314986,48.595411],[2.6308232,48.5951666],[2.6300114,48.5950212],[2.6312487,48.592282],[2.6314525,48.592207],[2.6314768,48.5921533]]]]},"properties":{"code_section":"77495000ZC","code_commune":"77495","section_courte":"ZC"}},{"type":"Feature","geometry":{"type":"MultiPolygon","coordinates":[[[[2.6369011,48.582454],[2.636894,48.5824833],[2.6371835,48.5824667],[2.6403398,48.5825243],[2.640347,48.5824934],[2.6428433,48.5825656],[2.6439452,48.5826584],[2.6482177,48.5831976],[2.6536945,48.5835643],[2.6536496,48.5876182],[2.6520275,48.5877867],[2.6465142,48.5885422],[2.6446706,48.5888678],[2.6432706,48.5891468],[2.637477,48.5904092],[2.6346247,48.5910692],[2.6325627,48.5915916],[2.6318289,48.5918236],[2.6316013,48.5918776],[2.6314389,48.5918642],[2.6356529,48.5825083],[2.6369011,48.582454]]]]},"properties":{"code_section":"77495000ZD","code_commune":"77495","section_courte":"ZD"}},{"type":"Feature","geometry":{"type":"MultiPolygon","coordinates":[[[[2.6375537,48.5786534],[2.6375653,48.5786274],[2.637702,48.5786357],[2.6388265,48.5787042],[2.6388228,48.578732],[2.6415579,48.5788972],[2.6428914,48.5785329],[2.643751,48.5782048],[2.6440573,48.5780545],[2.6447602,48.5776817],[2.6455195,48.5771881],[2.6482081,48.575743],[2.6507111,48.5745051],[2.6511871,48.5742266],[2.6512586,48.5742724],[2.6515224,48.5750884],[2.6518671,48.5768407],[2.6519385,48.5770196],[2.6523227,48.5776647],[2.6528823,48.578221],[2.6530841,48.5785563],[2.6535352,48.5796758],[2.6537309,48.5803776],[2.6554265,48.5802409],[2.6566207,48.5834923],[2.6551259,48.5836639],[2.6482177,48.5831976],[2.6439452,48.5826584],[2.6428433,48.5825656],[2.640347,48.5824934],[2.6403398,48.5825243],[2.6371835,48.5824667],[2.636894,48.5824833],[2.6369011,48.582454],[2.6356529,48.5825083],[2.6373883,48.5786438],[2.6375537,48.5786534]]]]},"properties":{"code_section":"77495000ZE","code_commune":"77495","section_courte":"ZE"}},{"type":"Feature","geometry":{"type":"MultiPolygon","coordinates":[[[[2.6375537,48.5786534],[2.6373883,48.5786438],[2.640648,48.5714348],[2.6418971,48.5714276],[2.6432786,48.5715493],[2.6448193,48.5716004],[2.6468166,48.5715431],[2.647287,48.5715041],[2.6477899,48.5714026],[2.6484694,48.5745027],[2.6497263,48.5742388],[2.6511195,48.5739869],[2.6512127,48.5741812],[2.6511871,48.5742266],[2.6507111,48.5745051],[2.6482081,48.575743],[2.6455195,48.5771881],[2.6447602,48.5776817],[2.6440573,48.5780545],[2.643751,48.5782048],[2.6428914,48.5785329],[2.6415579,48.5788972],[2.6388228,48.578732],[2.6388265,48.5787042],[2.637702,48.5786357],[2.6375653,48.5786274],[2.6375537,48.5786534]]]]},"properties":{"code_section":"77495000ZH","code_commune":"77495","section_courte":"ZH"}}]}