{"type":"FeatureCollection","features":[{"type":"Feature","geometry":{"type":"MultiPolygon","coordinates":[[[[2.4070098,48.7260143],[2.4063248,48.7260105],[2.4063198,48.7260986],[2.4040952,48.7261851],[2.4041909,48.7264499],[2.4017125,48.7265888],[2.4010803,48.7245866],[2.3990243,48.7248284],[2.3986238,48.7238277],[2.3972618,48.7211839],[2.3914202,48.722739],[2.3895608,48.7205787],[2.3885949,48.7210527],[2.3880742,48.7203831],[2.3862644,48.7209569],[2.3849839,48.7188718],[2.3826082,48.7196151],[2.3771763,48.7205501],[2.3764288,48.7194621],[2.3754082,48.7196491],[2.3735806,48.7198938],[2.3708371,48.7201387],[2.3708794,48.7178156],[2.368226,48.7182512],[2.3677742,48.7175193],[2.367528,48.7169215],[2.3674595,48.7139626],[2.3711188,48.713634],[2.3712602,48.714085],[2.3724829,48.7150741],[2.3822085,48.7112769],[2.3839427,48.7148348],[2.3889062,48.7161005],[2.3894426,48.7151792],[2.3897088,48.7152436],[2.3899277,48.7151925],[2.3901636,48.7148231],[2.3937893,48.7145422],[2.3943594,48.7150233],[2.3961924,48.7140886],[2.3985346,48.7157743],[2.3987496,48.7157151],[2.4000357,48.7182032],[2.400731,48.7188058],[2.4020971,48.719504],[2.4044994,48.7184302],[2.4052031,48.7190481],[2.4055317,48.7188848],[2.4062021,48.7194706],[2.4068353,48.7192094],[2.4083936,48.7206636],[2.4093273,48.721098],[2.4098601,48.7209777],[2.4106875,48.7219969],[2.4110181,48.7224446],[2.4111064,48.7226602],[2.4111576,48.7229602],[2.4111138,48.7240922],[2.4108523,48.7260694],[2.4085949,48.7259488],[2.4085877,48.7260252],[2.4070098,48.7260143]]]]},"properties":{"code_section":"910270000A","code_commune":"91027","section_courte":"A"}},{"type":"Feature","geometry":{"type":"MultiPolygon","coordinates":[[[[2.3711188,48.713634],[2.3713859,48.7087323],[2.3761908,48.7094623],[2.3788823,48.7125757],[2.3724829,48.7150741],[2.3712602,48.714085],[2.3711188,48.713634]]]]},"properties":{"code_section":"910270000B","code_commune":"91027","section_courte":"B"}},{"type":"Feature","geometry":{"type":"MultiPolygon","coordinates":[[[[2.3761908,48.7094623],[2.377426,48.7073918],[2.3823535,48.7086931],[2.3830263,48.7073776],[2.3846066,48.7058832],[2.3872163,48.7070103],[2.3875417,48.7072],[2.387923,48.7075935],[2.3885369,48.7079339],[2.3874079,48.7088838],[2.386845,48.7094661],[2.3788823,48.7125757],[2.3761908,48.7094623]]]]},"properties":{"code_section":"910270000C","code_commune":"91027","section_courte":"C"}},{"type":"Feature","geometry":{"type":"MultiPolygon","coordinates":[[[[2.3931488,48.7138693],[2.3937893,48.7145422],[2.3901636,48.7148231],[2.3899277,48.7151925],[2.3897088,48.7152436],[2.3894426,48.7151792],[2.3889062,48.7161005],[2.3839427,48.7148348],[2.3822085,48.7112769],[2.386845,48.7094661],[2.3873724,48.70976],[2.3884904,48.7104629],[2.3905466,48.7113045],[2.3912696,48.7119751],[2.3931488,48.7138693]]]]},"properties":{"code_section":"910270000D","code_commune":"91027","section_courte":"D"}},{"type":"Feature","geometry":{"type":"MultiPolygon","coordinates":[[[[2.3917591,48.7058727],[2.3948772,48.7074196],[2.3961816,48.7083485],[2.3976141,48.7095473],[2.3949053,48.7107713],[2.3947148,48.7110209],[2.3940876,48.7115827],[2.3940592,48.7116328],[2.3970186,48.7137536],[2.3961629,48.7141018],[2.3943594,48.7150233],[2.3937946,48.7145476],[2.3912696,48.7119751],[2.3905466,48.7113045],[2.3884904,48.7104629],[2.3873724,48.70976],[2.386845,48.7094661],[2.3874079,48.7088838],[2.3885369,48.7079339],[2.388636,48.7079794],[2.3886035,48.7079986],[2.3886807,48.7080472],[2.3891031,48.7082585],[2.3893776,48.7081211],[2.3899032,48.7079641],[2.3902469,48.7077116],[2.3907023,48.7073097],[2.3905089,48.7068356],[2.3906878,48.7066323],[2.3912962,48.7060273],[2.3916681,48.7058095],[2.3917591,48.7058727]]]]},"properties":{"code_section":"910270000E","code_commune":"91027","section_courte":"E"}},{"type":"Feature","geometry":{"type":"MultiPolygon","coordinates":[[[[2.3989602,48.7161517],[2.3987496,48.7157151],[2.3985346,48.7157743],[2.3961924,48.7140886],[2.397162,48.7137016],[2.3976262,48.7138066],[2.3977442,48.7135294],[2.3979079,48.7134721],[2.3986792,48.7133457],[2.4001705,48.7132454],[2.4003211,48.7136962],[2.4004944,48.7139431],[2.4003086,48.7143735],[2.4003363,48.7145994],[2.4005593,48.714933],[2.4007144,48.7150897],[2.4009193,48.7155736],[2.4011426,48.7158326],[2.4015926,48.7161235],[2.4019476,48.7162681],[2.4032432,48.7164175],[2.4040027,48.7166094],[2.4043662,48.7167622],[2.4047349,48.7169635],[2.4059179,48.717688],[2.4044994,48.7184302],[2.4020971,48.719504],[2.400731,48.7188058],[2.4000357,48.7182032],[2.3989602,48.7161517]]]]},"properties":{"code_section":"910270000H","code_commune":"91027","section_courte":"H"}},{"type":"Feature","geometry":{"type":"MultiPolygon","coordinates":[[[[2.4157787,48.7208927],[2.4153511,48.7209508],[2.4149244,48.7210489],[2.414537,48.7211969],[2.4133594,48.7215602],[2.413419,48.7220674],[2.4132659,48.7220507],[2.412974,48.7218916],[2.4125653,48.7219526],[2.4122657,48.721914],[2.4120473,48.7214977],[2.4114402,48.7216844],[2.4114972,48.7217658],[2.4106875,48.7219969],[2.4098601,48.7209777],[2.4093273,48.721098],[2.4083936,48.7206636],[2.4068353,48.7192094],[2.4062021,48.7194706],[2.4055317,48.7188848],[2.4052031,48.7190481],[2.4044994,48.7184302],[2.4059179,48.717688],[2.4069779,48.7182088],[2.407136,48.7182469],[2.4079341,48.7181238],[2.4078337,48.7180333],[2.4084155,48.7172203],[2.4088753,48.7174503],[2.4096107,48.7179199],[2.4103431,48.7174737],[2.4097476,48.7171051],[2.4097669,48.7170007],[2.4101535,48.7167608],[2.4112837,48.7162461],[2.4129829,48.7170829],[2.4143803,48.7178401],[2.4132556,48.7186733],[2.4141536,48.7193232],[2.4149226,48.7199676],[2.4154567,48.7204872],[2.4154186,48.7205059],[2.4157787,48.7208927]]]]},"properties":{"code_section":"910270000I","code_commune":"91027","section_courte":"I"}},{"type":"Feature","geometry":{"type":"MultiPolygon","coordinates":[[[[2.4096755,48.7178761],[2.4096107,48.7179199],[2.4088753,48.7174503],[2.4084155,48.7172203],[2.4078337,48.7180333],[2.4079341,48.7181238],[2.407136,48.7182469],[2.4069779,48.7182088],[2.4059179,48.717688],[2.4047349,48.7169635],[2.4043662,48.7167622],[2.4040027,48.7166094],[2.4032432,48.7164175],[2.4019476,48.7162681],[2.4015926,48.7161235],[2.4011426,48.7158326],[2.4009193,48.7155736],[2.4007144,48.7150897],[2.4005593,48.714933],[2.4003363,48.7145994],[2.4003086,48.7143735],[2.4004944,48.7139431],[2.4003211,48.7136962],[2.4001705,48.7132454],[2.4008054,48.7132018],[2.4013626,48.7132256],[2.40167,48.7132079],[2.4020074,48.7130699],[2.4024837,48.7126873],[2.4026679,48.7126831],[2.4027296,48.7132957],[2.4029913,48.7132619],[2.403244,48.7133358],[2.4036519,48.7132617],[2.4039412,48.7134813],[2.4048991,48.7134672],[2.4049875,48.7134365],[2.4050677,48.7134661],[2.4059073,48.712955],[2.4064919,48.7135015],[2.4075259,48.7142277],[2.4081354,48.7146088],[2.4098238,48.7154625],[2.4112837,48.7162461],[2.4101535,48.7167608],[2.4097669,48.7170007],[2.4097476,48.7171051],[2.4103431,48.7174737],[2.4096755,48.7178761]]]]},"properties":{"code_section":"910270000K","code_commune":"91027","section_courte":"K"}},{"type":"Feature","geometry":{"type":"MultiPolygon","coordinates":[[[[2.4028144,48.7132851],[2.4027296,48.7132957],[2.4026679,48.7126831],[2.4024837,48.7126873],[2.4020074,48.7130699],[2.40167,48.7132079],[2.4013626,48.7132256],[2.4008054,48.7132018],[2.3986792,48.7133457],[2.3979079,48.7134721],[2.3977442,48.7135294],[2.3976262,48.7138066],[2.397162,48.7137016],[2.3970186,48.7137536],[2.3940592,48.7116328],[2.3947148,48.7110209],[2.3949053,48.7107713],[2.3976141,48.7095473],[2.3984209,48.710499],[2.3987505,48.7104391],[2.3993932,48.7104476],[2.3995788,48.71041],[2.3995443,48.7103662],[2.3999372,48.7098923],[2.4001346,48.7098051],[2.4024659,48.7089343],[2.4024671,48.7088742],[2.4035976,48.708638],[2.4039712,48.7096599],[2.4045385,48.7108519],[2.4047879,48.7111883],[2.4053135,48.7121752],[2.4059073,48.712955],[2.4050677,48.7134661],[2.4049875,48.7134365],[2.4048991,48.7134672],[2.4039412,48.7134813],[2.4036519,48.7132617],[2.403244,48.7133358],[2.4029913,48.7132619],[2.4028144,48.7132851]]]]},"properties":{"code_section":"910270000L","code_commune":"91027","section_courte":"L"}},{"type":"Feature","geometry":{"type":"MultiPolygon","coordinates":[[[[2.4023497,48.7089781],[2.3999449,48.7098869],[2.3995443,48.7103662],[2.3995788,48.71041],[2.3992898,48.7104537],[2.3987505,48.7104391],[2.3984209,48.710499],[2.3976141,48.7095473],[2.3961816,48.7083485],[2.3955688,48.7078951],[2.3948772,48.7074196],[2.39299,48.7065014],[2.3916681,48.7058095],[2.392367,48.7052534],[2.3950342,48.7065117],[2.3977982,48.7054816],[2.3980614,48.7054996],[2.4016325,48.7060943],[2.4027671,48.7062466],[2.4035976,48.708638],[2.4024671,48.7088742],[2.4024659,48.7089343],[2.4023497,48.7089781]]]]},"properties":{"code_section":"910270000M","code_commune":"91027","section_courte":"M"}},{"type":"Feature","geometry":{"type":"MultiPolygon","coordinates":[[[[2.4016325,48.7060943],[2.3980614,48.7054996],[2.3977982,48.7054816],[2.3950342,48.7065117],[2.392367,48.7052534],[2.3939256,48.7041145],[2.3917758,48.7026632],[2.3910427,48.7023378],[2.3911437,48.7023237],[2.395818,48.7027039],[2.3962415,48.702741],[2.3963085,48.7027896],[2.3980358,48.7017617],[2.3980325,48.7017218],[2.398622,48.7013759],[2.3995742,48.7009333],[2.4002181,48.7016021],[2.40087,48.7024542],[2.4014792,48.7033576],[2.4018917,48.7041222],[2.4027671,48.7062466],[2.4016325,48.7060943]]]]},"properties":{"code_section":"910270000N","code_commune":"91027","section_courte":"N"}},{"type":"Feature","geometry":{"type":"MultiPolygon","coordinates":[[[[2.3980325,48.7017218],[2.3980358,48.7017617],[2.3963085,48.7027896],[2.3962415,48.702741],[2.395818,48.7027039],[2.3911437,48.7023237],[2.3910427,48.7023378],[2.389688,48.7018245],[2.3883873,48.7008825],[2.387799,48.7001769],[2.3866641,48.6983822],[2.3870115,48.6982895],[2.3868587,48.6979507],[2.3865613,48.6975085],[2.3913409,48.6975356],[2.3915681,48.697438],[2.3917692,48.6975729],[2.393556,48.6967394],[2.3945893,48.6962115],[2.3971962,48.6986048],[2.3995742,48.7009333],[2.398622,48.7013759],[2.3980325,48.7017218]]]]},"properties":{"code_section":"910270000O","code_commune":"91027","section_courte":"O"}},{"type":"Feature","geometry":{"type":"MultiPolygon","coordinates":[[[[2.3935577,48.6967382],[2.3917692,48.6975729],[2.3915681,48.697438],[2.3913409,48.6975356],[2.3865613,48.6975085],[2.3868587,48.6979507],[2.3870115,48.6982895],[2.3866641,48.6983822],[2.3858212,48.6970984],[2.3843823,48.6950721],[2.3839336,48.6945098],[2.3827617,48.6932781],[2.3821507,48.6921083],[2.3868027,48.6923826],[2.3872499,48.6927898],[2.3875167,48.6926601],[2.3899206,48.6918417],[2.3904869,48.6925268],[2.3914633,48.6934608],[2.3929059,48.694764],[2.3936336,48.6953517],[2.3945893,48.6962115],[2.3935577,48.6967382]]]]},"properties":{"code_section":"910270000P","code_commune":"91027","section_courte":"P"}},{"type":"Feature","geometry":{"type":"MultiPolygon","coordinates":[[[[2.3825914,48.7010385],[2.3821608,48.7004175],[2.3815399,48.7000169],[2.3813397,48.6997961],[2.3812879,48.6995634],[2.3813085,48.6989221],[2.3808754,48.6985158],[2.3793295,48.6974978],[2.379182,48.6973186],[2.3790909,48.6970516],[2.3791487,48.6967355],[2.379255,48.6967201],[2.3791819,48.6965672],[2.3797945,48.6964403],[2.3796143,48.6960251],[2.3813574,48.6957196],[2.3808339,48.6941037],[2.3812666,48.6935196],[2.381392,48.6932567],[2.3814085,48.6927092],[2.3812051,48.6927505],[2.3811387,48.692631],[2.3815845,48.6925435],[2.3814419,48.6922584],[2.3820823,48.6920546],[2.3821052,48.6921057],[2.3821507,48.6921083],[2.3827617,48.6932781],[2.3839336,48.6945098],[2.3843823,48.6950721],[2.3864035,48.697967],[2.387799,48.7001769],[2.3883873,48.7008825],[2.389688,48.7018245],[2.3912945,48.7024332],[2.3917758,48.7026632],[2.3939256,48.7041145],[2.392367,48.7052534],[2.3916681,48.7058095],[2.3914433,48.705701],[2.3908688,48.7055883],[2.3901891,48.7053719],[2.390018,48.7050442],[2.3894494,48.7045584],[2.3887539,48.7039851],[2.3883531,48.7038063],[2.3877001,48.7036415],[2.3869209,48.7035834],[2.3856526,48.7031462],[2.3848052,48.7030273],[2.3843439,48.7028047],[2.3829555,48.7017701],[2.3827553,48.7014952],[2.3825914,48.7010385]]]]},"properties":{"code_section":"910270000R","code_commune":"91027","section_courte":"R"}},{"type":"Feature","geometry":{"type":"MultiPolygon","coordinates":[[[[2.3916681,48.7058095],[2.3912962,48.7060273],[2.3905089,48.7068356],[2.3907023,48.7073097],[2.3902469,48.7077116],[2.3899032,48.7079641],[2.3893776,48.7081211],[2.3891031,48.7082585],[2.3886807,48.7080472],[2.3886035,48.7079986],[2.388636,48.7079794],[2.387923,48.7075935],[2.3875417,48.7072],[2.3872163,48.7070103],[2.3845946,48.7058781],[2.3815869,48.7049455],[2.3807756,48.7044691],[2.3802391,48.7040894],[2.3810403,48.7037247],[2.3817034,48.7034657],[2.382378,48.7031109],[2.3826053,48.7029523],[2.3827504,48.7027641],[2.3832583,48.7025218],[2.3836551,48.7022827],[2.3843439,48.7028047],[2.3848052,48.7030273],[2.3856526,48.7031462],[2.3869209,48.7035834],[2.3877001,48.7036415],[2.3883531,48.7038063],[2.3887539,48.7039851],[2.3894494,48.7045584],[2.390018,48.7050442],[2.3901891,48.7053719],[2.3908688,48.7055883],[2.3914433,48.705701],[2.3916681,48.7058095]]]]},"properties":{"code_section":"910270000S","code_commune":"91027","section_courte":"S"}},{"type":"Feature","geometry":{"type":"MultiPolygon","coordinates":[[[[2.3832583,48.7025218],[2.3827504,48.7027641],[2.3826053,48.7029523],[2.382378,48.7031109],[2.3817034,48.7034657],[2.3810403,48.7037247],[2.3802391,48.7040894],[2.3793121,48.7032175],[2.3780819,48.7019567],[2.3772482,48.7012209],[2.3753854,48.6996905],[2.3719541,48.6981842],[2.3722103,48.6981885],[2.3723868,48.6981548],[2.3723836,48.6981058],[2.3751254,48.6975896],[2.3770658,48.6970585],[2.3773238,48.6974688],[2.3777481,48.6973751],[2.3776212,48.6971259],[2.3791487,48.6967355],[2.3790909,48.6970516],[2.379182,48.6973186],[2.3793295,48.6974978],[2.3808754,48.6985158],[2.3813085,48.6989221],[2.3812879,48.6995634],[2.3813397,48.6997961],[2.3815399,48.7000169],[2.3821608,48.7004175],[2.3825914,48.7010385],[2.3827553,48.7014952],[2.3829555,48.7017701],[2.3836551,48.7022827],[2.3832583,48.7025218]]]]},"properties":{"code_section":"910270000T","code_commune":"91027","section_courte":"T"}},{"type":"Feature","geometry":{"type":"MultiPolygon","coordinates":[[[[2.3763866,48.7071235],[2.3764879,48.7051373],[2.3786127,48.7052099],[2.3776048,48.7047964],[2.376123,48.7038637],[2.3765421,48.7038962],[2.3790221,48.7029202],[2.3802391,48.7040894],[2.3807756,48.7044691],[2.3815869,48.7049455],[2.3846066,48.7058832],[2.3830263,48.7073776],[2.3823535,48.7086931],[2.3763866,48.7071235]]]]},"properties":{"code_section":"910270000V","code_commune":"91027","section_courte":"V"}},{"type":"Feature","geometry":{"type":"MultiPolygon","coordinates":[[[[2.3714584,48.7075373],[2.3716532,48.7037559],[2.376123,48.7038637],[2.3776048,48.7047964],[2.3786127,48.7052099],[2.3764879,48.7051373],[2.3763866,48.7071235],[2.377426,48.7073918],[2.3761908,48.7094623],[2.3713859,48.7087323],[2.3714584,48.7075373]]]]},"properties":{"code_section":"910270000W","code_commune":"91027","section_courte":"W"}},{"type":"Feature","geometry":{"type":"MultiPolygon","coordinates":[[[[2.376123,48.7038637],[2.3716532,48.7037559],[2.3719541,48.6981842],[2.3753854,48.6996905],[2.3772482,48.7012209],[2.3780819,48.7019567],[2.3790221,48.7029202],[2.3765421,48.7038962],[2.376123,48.7038637]]]]},"properties":{"code_section":"910270000X","code_commune":"91027","section_courte":"X"}},{"type":"Feature","geometry":{"type":"MultiPolygon","coordinates":[[[[2.3593815,48.7022428],[2.3593027,48.7022549],[2.3589515,48.6999824],[2.3618569,48.6989138],[2.3629298,48.6985988],[2.3658147,48.6978935],[2.3682201,48.6972377],[2.3688964,48.6969676],[2.3693022,48.6967327],[2.3718331,48.6981659],[2.3719541,48.6981842],[2.3717025,48.7026892],[2.3690312,48.7026403],[2.3678881,48.7033468],[2.3663505,48.7034039],[2.3663135,48.701872],[2.3652409,48.7018759],[2.3652135,48.7019103],[2.3623265,48.7019415],[2.362331,48.701887],[2.3605443,48.7018841],[2.3606545,48.7020803],[2.3593815,48.7022428]]]]},"properties":{"code_section":"910270000Y","code_commune":"91027","section_courte":"Y"}},{"type":"Feature","geometry":{"type":"MultiPolygon","coordinates":[[[[2.3676069,48.7068264],[2.3673333,48.7057832],[2.3663567,48.7057623],[2.3662665,48.7034066],[2.3678881,48.7033468],[2.3690312,48.7026403],[2.3717025,48.7026892],[2.3714584,48.7075373],[2.3678522,48.7077861],[2.3676069,48.7068264]]]]},"properties":{"code_section":"910270000Z","code_commune":"91027","section_courte":"Z"}},{"type":"Feature","geometry":{"type":"MultiPolygon","coordinates":[[[[2.3594177,48.7044529],[2.3600355,48.7056495],[2.356319,48.7055899],[2.3538057,48.7017414],[2.3549308,48.7013049],[2.3572629,48.7005795],[2.3589515,48.6999824],[2.3593027,48.7022549],[2.3578605,48.7024425],[2.358473,48.7036215],[2.3586249,48.7036205],[2.3589504,48.7035525],[2.3594177,48.7044529]]]]},"properties":{"code_section":"91027000AB","code_commune":"91027","section_courte":"AB"}},{"type":"Feature","geometry":{"type":"MultiPolygon","coordinates":[[[[2.3663466,48.7033485],[2.3663505,48.7034039],[2.3662665,48.7034066],[2.3663567,48.7057623],[2.3600355,48.7056495],[2.3589504,48.7035525],[2.3586249,48.7036205],[2.358473,48.7036215],[2.3578605,48.7024425],[2.3606545,48.7020803],[2.3605443,48.7018841],[2.362331,48.701887],[2.3623265,48.7019415],[2.3652135,48.7019103],[2.3652409,48.7018759],[2.3663135,48.701872],[2.3663466,48.7033485]]]]},"properties":{"code_section":"91027000AC","code_commune":"91027","section_courte":"AC"}}]}