{"type":"FeatureCollection","features":[{"type":"Feature","geometry":{"type":"MultiPolygon","coordinates":[[[[2.2816785,48.6748508],[2.2824907,48.676946],[2.2826383,48.6769244],[2.2867889,48.6750452],[2.2869271,48.6750421],[2.287639,48.6755692],[2.289165,48.6764553],[2.2896136,48.6768448],[2.2900056,48.6777435],[2.2910295,48.6784008],[2.2907291,48.67894],[2.2906867,48.6793336],[2.2908975,48.6804661],[2.2912014,48.6817386],[2.2914411,48.6816358],[2.2915496,48.6815537],[2.2915792,48.681571],[2.2940841,48.6803946],[2.2943151,48.6802269],[2.2940386,48.6798003],[2.2966256,48.6783386],[2.2980913,48.6787233],[2.2984382,48.6787637],[2.2984647,48.6787234],[2.2994195,48.6788507],[2.2993296,48.6792073],[2.2994446,48.6798052],[2.2995665,48.6800398],[2.3000244,48.6806558],[2.2964203,48.6822788],[2.2952492,48.6813366],[2.2924888,48.6834061],[2.2921903,48.6832194],[2.2915938,48.6836296],[2.2915909,48.6837086],[2.2895458,48.6851051],[2.2889623,48.6841594],[2.2860761,48.6861192],[2.2853057,48.6842311],[2.2859193,48.6838828],[2.2858802,48.6838536],[2.2879306,48.6824922],[2.2870182,48.6809959],[2.287232,48.680856],[2.2856003,48.679644],[2.2853259,48.6798048],[2.2858397,48.6802066],[2.2841638,48.6812928],[2.2846216,48.6824745],[2.284299,48.6826929],[2.283017,48.6832789],[2.2815995,48.6816961],[2.2809052,48.6806211],[2.2810958,48.6805514],[2.2807239,48.6794472],[2.2802847,48.6779377],[2.2797658,48.6756216],[2.2798146,48.6755941],[2.2796955,48.6751976],[2.2816544,48.6747886],[2.2816785,48.6748508]]]]},"properties":{"code_section":"910440000A","code_commune":"91044","section_courte":"A"}},{"type":"Feature","geometry":{"type":"MultiPolygon","coordinates":[[[[2.2943976,48.6650374],[2.2946695,48.6653876],[2.2960064,48.6649246],[2.2969795,48.6659199],[2.2980365,48.6670837],[2.3002448,48.6697562],[2.3002786,48.6698097],[2.3002175,48.6698537],[2.3005401,48.6703336],[2.3000913,48.6713674],[2.2998139,48.6718361],[2.2996968,48.6721139],[2.2996209,48.6724204],[2.2996524,48.6728203],[2.2988322,48.6719534],[2.2970238,48.6702629],[2.2968117,48.6700231],[2.2961083,48.6703142],[2.2920562,48.6721539],[2.2916131,48.6717494],[2.2889437,48.6704734],[2.290951,48.6698004],[2.2911411,48.6696897],[2.2913328,48.6694071],[2.2913315,48.6692103],[2.2908483,48.6681449],[2.2901975,48.6672603],[2.2895527,48.6665127],[2.2941122,48.6646585],[2.2943976,48.6650374]]]]},"properties":{"code_section":"910440000C","code_commune":"91044","section_courte":"C"}},{"type":"Feature","geometry":{"type":"MultiPolygon","coordinates":[[[[2.2914717,48.6576248],[2.2916032,48.6577366],[2.2922382,48.6591615],[2.293038,48.6603678],[2.2933483,48.6616159],[2.2933627,48.6625399],[2.293661,48.6637848],[2.2938447,48.6643342],[2.2941122,48.6646585],[2.2895527,48.6665127],[2.2901975,48.6672603],[2.2908483,48.6681449],[2.2913315,48.6692103],[2.2913328,48.6694071],[2.2911411,48.6696897],[2.290951,48.6698004],[2.2889437,48.6704734],[2.2916131,48.6717494],[2.2918064,48.6718984],[2.2923608,48.6725026],[2.2922718,48.672503],[2.2899274,48.6735641],[2.2898512,48.6735604],[2.2898677,48.672698],[2.2897879,48.6726906],[2.2875519,48.6737362],[2.2875033,48.6738099],[2.2861979,48.6744115],[2.2861532,48.6745022],[2.2858152,48.6742999],[2.2853278,48.6740814],[2.2848035,48.6739038],[2.2844229,48.6738531],[2.2833363,48.6738602],[2.2833014,48.6738195],[2.283374,48.6737861],[2.2845505,48.6717939],[2.2845506,48.6717079],[2.2847796,48.6713191],[2.2851192,48.6711746],[2.2852837,48.6708951],[2.284944,48.6710395],[2.2861478,48.6688718],[2.2858128,48.6686413],[2.2853942,48.6684417],[2.2851173,48.6680571],[2.2839329,48.6671184],[2.2835642,48.6669104],[2.2832158,48.6667679],[2.2821481,48.6664515],[2.2850195,48.6649722],[2.2851319,48.664931],[2.285584,48.6652781],[2.2874899,48.6644423],[2.287103,48.6639428],[2.2856094,48.6623771],[2.2851151,48.6620283],[2.2845773,48.6617238],[2.2836824,48.660952],[2.2836875,48.6609238],[2.2861852,48.6602674],[2.2862722,48.6603849],[2.287222,48.6600525],[2.2871466,48.6599545],[2.2873152,48.6599319],[2.2870431,48.6594747],[2.2864651,48.6582836],[2.2885686,48.6576428],[2.2887565,48.6576139],[2.2889757,48.6575989],[2.2900232,48.657673],[2.2912103,48.6576031],[2.2913916,48.6575992],[2.2914717,48.6576248]]]]},"properties":{"code_section":"910440000D","code_commune":"91044","section_courte":"D"}},{"type":"Feature","geometry":{"type":"MultiPolygon","coordinates":[[[[2.283035,48.6604104],[2.2836875,48.6609238],[2.2836824,48.660952],[2.284508,48.661671],[2.2851151,48.6620283],[2.2856094,48.6623771],[2.287103,48.6639428],[2.2874899,48.6644423],[2.285584,48.6652781],[2.2851319,48.664931],[2.2840223,48.6654765],[2.2825317,48.664558],[2.2813957,48.6634494],[2.2809478,48.6628683],[2.280719,48.6626233],[2.2804416,48.662413],[2.2800751,48.6619869],[2.281243,48.6612769],[2.2812639,48.6612301],[2.2816701,48.6609777],[2.283035,48.6604104]]]]},"properties":{"code_section":"910440000E","code_commune":"91044","section_courte":"E"}},{"type":"Feature","geometry":{"type":"MultiPolygon","coordinates":[[[[2.2858397,48.6802066],[2.2853259,48.6798048],[2.2856003,48.679644],[2.287232,48.680856],[2.2870182,48.6809959],[2.2879306,48.6824922],[2.2858802,48.6838536],[2.2859193,48.6838828],[2.2853057,48.6842311],[2.2856676,48.6851454],[2.2852715,48.6849033],[2.2848712,48.6845136],[2.2845255,48.684267],[2.2833157,48.6835409],[2.283017,48.6832789],[2.284299,48.6826929],[2.2846216,48.6824745],[2.2841638,48.6812928],[2.2858397,48.6802066]]]]},"properties":{"code_section":"91044000AA","code_commune":"91044","section_courte":"AA"}},{"type":"Feature","geometry":{"type":"MultiPolygon","coordinates":[[[[2.2945165,48.6795296],[2.2940386,48.6798003],[2.2943151,48.6802269],[2.2940841,48.6803946],[2.2915792,48.681571],[2.2915496,48.6815537],[2.2914411,48.6816358],[2.2912014,48.6817386],[2.2908975,48.6804661],[2.2906867,48.6793336],[2.2907291,48.67894],[2.2910295,48.6784008],[2.2900056,48.6777435],[2.2896136,48.6768448],[2.2895417,48.6767591],[2.2900524,48.6766221],[2.2913976,48.6759512],[2.2923912,48.6761961],[2.2925041,48.6761902],[2.2930989,48.6759217],[2.2952425,48.6752482],[2.29568,48.6751596],[2.2964603,48.67611],[2.2966391,48.6762551],[2.2970859,48.676482],[2.2976703,48.6768576],[2.2981987,48.6772953],[2.298759,48.6779969],[2.2995316,48.6787259],[2.2995425,48.6788078],[2.2994195,48.6788507],[2.2984627,48.678723],[2.2984382,48.6787637],[2.2980913,48.6787233],[2.2966256,48.6783386],[2.2945165,48.6795296]]]]},"properties":{"code_section":"91044000AB","code_commune":"91044","section_courte":"AB"}},{"type":"Feature","geometry":{"type":"MultiPolygon","coordinates":[[[[2.3050975,48.6765398],[2.3060339,48.6778339],[2.3048452,48.6786306],[2.3036127,48.6787856],[2.3028256,48.6786898],[2.3027652,48.6785831],[2.3025266,48.6785584],[2.3024114,48.6784311],[2.3020295,48.6785794],[2.301853,48.6785107],[2.3016854,48.6787269],[2.3014584,48.6788193],[2.3011834,48.6788239],[2.3010528,48.6787429],[2.3007324,48.6786928],[2.3002975,48.6787868],[2.3002073,48.678862],[2.2999914,48.6788998],[2.2997267,48.6787024],[2.2996292,48.6786924],[2.2995316,48.6787259],[2.298759,48.6779969],[2.2982655,48.6773661],[2.2978624,48.6769982],[2.2970859,48.676482],[2.2966391,48.6762551],[2.2964603,48.67611],[2.29568,48.6751596],[2.2960253,48.6750473],[2.298731,48.6737274],[2.299205,48.6734421],[2.2996263,48.6730992],[2.3020116,48.6722678],[2.3050975,48.6765398]]]]},"properties":{"code_section":"91044000AC","code_commune":"91044","section_courte":"AC"}},{"type":"Feature","geometry":{"type":"MultiPolygon","coordinates":[[[[2.2948004,48.6709138],[2.2968117,48.6700231],[2.2970238,48.6702629],[2.2988322,48.6719534],[2.2996524,48.6728203],[2.2996263,48.6730992],[2.2994088,48.6732957],[2.2989494,48.673606],[2.2960253,48.6750473],[2.29568,48.6751596],[2.2946588,48.673799],[2.2945847,48.6737504],[2.2939694,48.673548],[2.2931599,48.6729314],[2.2923614,48.6725032],[2.2920472,48.672158],[2.2948004,48.6709138]]]]},"properties":{"code_section":"91044000AD","code_commune":"91044","section_courte":"AD"}},{"type":"Feature","geometry":{"type":"MultiPolygon","coordinates":[[[[2.2955193,48.6751772],[2.2930989,48.6759217],[2.2925041,48.6761902],[2.2923912,48.6761961],[2.2913976,48.6759512],[2.2900524,48.6766221],[2.2895417,48.6767591],[2.289165,48.6764553],[2.287639,48.6755692],[2.2869271,48.6750421],[2.2867889,48.6750452],[2.2826383,48.6769244],[2.2824907,48.676946],[2.2812639,48.6737819],[2.2813991,48.6737433],[2.2819516,48.6738126],[2.2828393,48.6738652],[2.2842106,48.673848],[2.2846295,48.673875],[2.2848035,48.6739038],[2.2853278,48.6740814],[2.2858152,48.6742999],[2.2861532,48.6745022],[2.2861979,48.6744115],[2.2875033,48.6738099],[2.2875519,48.6737362],[2.2897879,48.6726906],[2.2898677,48.672698],[2.2898512,48.6735604],[2.2899274,48.6735641],[2.2922718,48.672503],[2.2923614,48.6725032],[2.2931599,48.6729314],[2.2939694,48.673548],[2.2945847,48.6737504],[2.2946588,48.673799],[2.29568,48.6751596],[2.2955193,48.6751772]]]]},"properties":{"code_section":"91044000AE","code_commune":"91044","section_courte":"AE"}},{"type":"Feature","geometry":{"type":"MultiPolygon","coordinates":[[[[2.2845505,48.6717939],[2.283374,48.6737861],[2.2833014,48.6738195],[2.2833363,48.6738602],[2.2823551,48.6738418],[2.2813991,48.6737433],[2.2812639,48.6737819],[2.2816544,48.6747886],[2.2796955,48.6751976],[2.2795903,48.6745402],[2.279342,48.6735084],[2.2791041,48.6735079],[2.2790779,48.6733934],[2.2791707,48.6733432],[2.2783861,48.6709999],[2.2770641,48.6709419],[2.2769989,48.6702129],[2.2779482,48.6702294],[2.2787238,48.6701974],[2.2795869,48.670404],[2.2798323,48.6704402],[2.2800171,48.670424],[2.2799788,48.670328],[2.2805551,48.6702052],[2.2816506,48.669855],[2.2829669,48.6692529],[2.2843962,48.6686724],[2.2853942,48.6684417],[2.2858128,48.6686413],[2.2861478,48.6688718],[2.284944,48.6710395],[2.2852837,48.6708951],[2.2851192,48.6711746],[2.2847796,48.6713191],[2.2845506,48.6717079],[2.2845505,48.6717939]]]]},"properties":{"code_section":"91044000AH","code_commune":"91044","section_courte":"AH"}},{"type":"Feature","geometry":{"type":"MultiPolygon","coordinates":[[[[2.2832894,48.6650267],[2.2840223,48.6654765],[2.2821481,48.6664515],[2.2832158,48.6667679],[2.2835642,48.6669104],[2.2839329,48.6671184],[2.2851173,48.6680571],[2.2853942,48.6684417],[2.2843962,48.6686724],[2.2829669,48.6692529],[2.2816506,48.669855],[2.2805551,48.6702052],[2.2799788,48.670328],[2.2776955,48.6645489],[2.279029,48.6643142],[2.2789852,48.6642207],[2.2799637,48.6639476],[2.2799509,48.6639206],[2.2806018,48.6637595],[2.2813957,48.6634494],[2.2825317,48.664558],[2.2832894,48.6650267]]]]},"properties":{"code_section":"91044000AI","code_commune":"91044","section_courte":"AI"}},{"type":"Feature","geometry":{"type":"MultiPolygon","coordinates":[[[[2.2789852,48.6642207],[2.279029,48.6643142],[2.2776955,48.6645489],[2.276073,48.6604343],[2.2784318,48.6601546],[2.2805371,48.659703],[2.282695,48.6594647],[2.2830825,48.6592454],[2.2833558,48.6591951],[2.2864649,48.6582831],[2.2870431,48.6594747],[2.2873152,48.6599319],[2.2871466,48.6599545],[2.287222,48.6600525],[2.2862722,48.6603849],[2.2861852,48.6602674],[2.2836875,48.6609238],[2.2830262,48.6604017],[2.2816701,48.6609777],[2.2812639,48.6612301],[2.281243,48.6612769],[2.2800751,48.6619869],[2.2804416,48.662413],[2.280719,48.6626233],[2.2809478,48.6628683],[2.2813957,48.6634494],[2.2806018,48.6637595],[2.2799509,48.6639206],[2.2799637,48.6639476],[2.2789852,48.6642207]]]]},"properties":{"code_section":"91044000AK","code_commune":"91044","section_courte":"AK"}}]}