{"type":"FeatureCollection","features":[{"type":"Feature","geometry":{"type":"MultiPolygon","coordinates":[[[[2.2108961,48.7625388],[2.211031,48.7629748],[2.2111097,48.763087],[2.2117125,48.7635677],[2.2119837,48.7640088],[2.2121549,48.7653068],[2.2121091,48.7654341],[2.2118669,48.7657059],[2.2117158,48.7659556],[2.2116103,48.7662612],[2.2120266,48.7688263],[2.2125773,48.7701378],[2.2126954,48.7706242],[2.2127187,48.7708148],[2.2126823,48.7711011],[2.2124227,48.7717558],[2.2122576,48.7717683],[2.2113121,48.7706819],[2.2099173,48.7692016],[2.206216,48.7699996],[2.2052636,48.769673],[2.2039322,48.7707848],[2.2033959,48.7711289],[2.2030763,48.7712913],[2.2006661,48.7721223],[2.2011202,48.7757339],[2.1985455,48.7756581],[2.1966,48.775523],[2.1954701,48.775534],[2.1946766,48.7755045],[2.1920371,48.7751696],[2.1904479,48.7751564],[2.1897979,48.7745087],[2.1889754,48.7739938],[2.1868914,48.7729774],[2.1860552,48.7726114],[2.1867651,48.7722649],[2.1893118,48.7716919],[2.190251,48.7711362],[2.1915073,48.7685436],[2.1915501,48.7675345],[2.1917558,48.7675282],[2.1917925,48.7673249],[2.192242,48.7670063],[2.1927826,48.7668797],[2.198292,48.7664454],[2.1988646,48.766264],[2.2010105,48.7648902],[2.2015218,48.7645184],[2.2023481,48.7633478],[2.2048863,48.7637668],[2.2056889,48.763729],[2.2058848,48.7636831],[2.207618,48.7624834],[2.2079934,48.7623067],[2.2083062,48.76222],[2.2091983,48.7621747],[2.209391,48.7621948],[2.2108374,48.762427],[2.2108031,48.7624739],[2.2108961,48.7625388]]]]},"properties":{"code_section":"910640000A","code_commune":"91064","section_courte":"A"}},{"type":"Feature","geometry":{"type":"MultiPolygon","coordinates":[[[[2.2181539,48.7603905],[2.2199777,48.7594778],[2.2204376,48.7599167],[2.2193348,48.7607683],[2.219673,48.7609415],[2.2199135,48.7608714],[2.2198367,48.7610488],[2.2196941,48.7612098],[2.2198312,48.7612682],[2.2199884,48.761241],[2.2200631,48.7612577],[2.22015,48.7613649],[2.2203536,48.7614443],[2.2205455,48.76143],[2.2211065,48.7619511],[2.2216146,48.7623427],[2.2222336,48.7621229],[2.2218637,48.7623584],[2.2227779,48.7632178],[2.2242297,48.7643671],[2.2248939,48.765015],[2.2254453,48.7654425],[2.2255084,48.7654241],[2.2264144,48.7661528],[2.2261507,48.766269],[2.2265734,48.7672461],[2.2254373,48.767288],[2.2256079,48.767411],[2.2259061,48.7674626],[2.2264484,48.7678327],[2.2267281,48.7679192],[2.2271783,48.7679483],[2.2278406,48.7678961],[2.2278587,48.7679158],[2.228118,48.7678728],[2.2281036,48.7683842],[2.2278541,48.768465],[2.2273718,48.7685238],[2.2254736,48.7689425],[2.226132,48.7701946],[2.2242964,48.7702033],[2.2238634,48.7712591],[2.222581,48.7710586],[2.2208588,48.7709273],[2.2182831,48.7713586],[2.2174155,48.771457],[2.2156915,48.7715415],[2.2124227,48.7717558],[2.2126823,48.7711011],[2.2127187,48.7708148],[2.2126954,48.7706242],[2.2125773,48.7701378],[2.2120266,48.7688263],[2.2116103,48.7662612],[2.2117158,48.7659556],[2.2118669,48.7657059],[2.2121091,48.7654341],[2.2121549,48.7653068],[2.2119837,48.7640088],[2.2117125,48.7635677],[2.2111097,48.763087],[2.211031,48.7629748],[2.2108961,48.7625388],[2.2108031,48.7624739],[2.2108374,48.762427],[2.2109772,48.7624026],[2.2111874,48.7622687],[2.2116655,48.7619056],[2.2123776,48.7612203],[2.2130993,48.7603471],[2.2133722,48.7601389],[2.2143247,48.7596263],[2.2149299,48.7592322],[2.2150321,48.759139],[2.2151809,48.7587969],[2.2155296,48.7586615],[2.2159959,48.7584022],[2.2163359,48.7586674],[2.2160478,48.7588545],[2.216263,48.7591814],[2.2160205,48.7593229],[2.2162726,48.7596319],[2.2160597,48.7597559],[2.2161228,48.7598042],[2.2155511,48.7600882],[2.2153993,48.7601239],[2.2151317,48.7603964],[2.2155978,48.7605022],[2.2156975,48.7604327],[2.2159586,48.7605487],[2.2160914,48.7604559],[2.2166517,48.7606073],[2.2167371,48.7605925],[2.216722,48.7605103],[2.2167618,48.7604655],[2.2172121,48.7606056],[2.2173078,48.7605197],[2.2179274,48.7604253],[2.217996,48.7604689],[2.2181539,48.7603905]]]]},"properties":{"code_section":"910640000B","code_commune":"91064","section_courte":"B"}},{"type":"Feature","geometry":{"type":"MultiPolygon","coordinates":[[[[2.2308986,48.7664107],[2.232875,48.7659458],[2.2330277,48.766146],[2.2327946,48.7661978],[2.2328385,48.7663756],[2.2327529,48.7678414],[2.2331413,48.7691216],[2.2330847,48.7693968],[2.2327383,48.7700894],[2.2323093,48.7704703],[2.2319225,48.7709392],[2.2314719,48.7711112],[2.2309221,48.7711606],[2.2306353,48.7713021],[2.2305224,48.7714024],[2.2303287,48.7719779],[2.2303387,48.7722811],[2.2304009,48.7725439],[2.2306852,48.7731134],[2.2307469,48.7733321],[2.2307024,48.7735074],[2.2303972,48.7739423],[2.2301707,48.7740926],[2.2287226,48.7745105],[2.2286511,48.7747016],[2.2284192,48.7748621],[2.2282602,48.7750477],[2.2281513,48.7753408],[2.2279637,48.775608],[2.2272666,48.7760184],[2.2270997,48.7761483],[2.2266074,48.7761249],[2.2264452,48.7759713],[2.2264415,48.7756677],[2.2273386,48.7741308],[2.227693,48.7722331],[2.2283593,48.7712532],[2.2292354,48.7704913],[2.226132,48.7701946],[2.2254736,48.7689425],[2.2273718,48.7685238],[2.2278541,48.768465],[2.2281036,48.7683842],[2.228118,48.7678728],[2.2278587,48.7679158],[2.2278406,48.7678961],[2.2271783,48.7679483],[2.2267281,48.7679192],[2.2264484,48.7678327],[2.2259061,48.7674626],[2.2256079,48.767411],[2.2254373,48.767288],[2.2270521,48.7672381],[2.2293066,48.7669041],[2.2308986,48.7664107]]]]},"properties":{"code_section":"910640000C","code_commune":"91064","section_courte":"C"}},{"type":"Feature","geometry":{"type":"MultiPolygon","coordinates":[[[[2.2228504,48.7632765],[2.2218637,48.7623584],[2.2222336,48.7621229],[2.2234072,48.7617154],[2.2235726,48.7616815],[2.2258483,48.7608754],[2.2266558,48.7613987],[2.227785,48.7622513],[2.2296527,48.7631831],[2.2301223,48.7639413],[2.2306013,48.7642969],[2.2310493,48.7645779],[2.2317733,48.7649305],[2.2323074,48.7652453],[2.2325537,48.7654645],[2.232875,48.7659458],[2.2308986,48.7664107],[2.2293066,48.7669041],[2.2270521,48.7672381],[2.2265734,48.7672461],[2.2261507,48.766269],[2.2264144,48.7661528],[2.2255084,48.7654241],[2.2254453,48.7654425],[2.2248939,48.765015],[2.2242297,48.7643671],[2.2228504,48.7632765]]]]},"properties":{"code_section":"910640000D","code_commune":"91064","section_courte":"D"}},{"type":"Feature","geometry":{"type":"MultiPolygon","coordinates":[[[[2.2248938,48.7600607],[2.2249224,48.7600935],[2.225067,48.7600312],[2.2252727,48.7602636],[2.2256591,48.7604745],[2.2258722,48.7606704],[2.2257499,48.7608021],[2.2258483,48.7608754],[2.2216146,48.7623427],[2.2211065,48.7619511],[2.2205455,48.76143],[2.2203536,48.7614443],[2.22015,48.7613649],[2.2200631,48.7612577],[2.2199884,48.761241],[2.2198312,48.7612682],[2.2196941,48.7612098],[2.2198367,48.7610488],[2.2199135,48.7608714],[2.219673,48.7609415],[2.2193348,48.7607683],[2.2204376,48.7599167],[2.2199777,48.7594778],[2.217996,48.7604689],[2.2179274,48.7604253],[2.2173078,48.7605197],[2.2172121,48.7606056],[2.2167618,48.7604655],[2.216722,48.7605103],[2.2167371,48.7605925],[2.2166517,48.7606073],[2.2160914,48.7604559],[2.2159586,48.7605487],[2.2156975,48.7604327],[2.2155978,48.7605022],[2.2151317,48.7603964],[2.2153993,48.7601239],[2.2155511,48.7600882],[2.2161228,48.7598042],[2.2160597,48.7597559],[2.2162726,48.7596319],[2.2160205,48.7593229],[2.216263,48.7591814],[2.2160478,48.7588545],[2.2163359,48.7586674],[2.2159959,48.7584022],[2.2155296,48.7586615],[2.2152114,48.7587872],[2.2151809,48.7587969],[2.215122,48.7587351],[2.2145856,48.7581362],[2.214256,48.7575418],[2.2141996,48.7570631],[2.2144525,48.7566573],[2.214582,48.756579],[2.2151151,48.7568321],[2.2153589,48.7568623],[2.215519,48.7568478],[2.2157093,48.756787],[2.2172726,48.7558456],[2.2177445,48.75614],[2.2185793,48.7571448],[2.2235353,48.756737],[2.2238103,48.7567415],[2.2236894,48.7569194],[2.2236421,48.7571656],[2.2236529,48.7574386],[2.2240768,48.7585626],[2.2241451,48.7590249],[2.2242584,48.7593018],[2.2248938,48.7600607]]]]},"properties":{"code_section":"910640000E","code_commune":"91064","section_courte":"E"}},{"type":"Feature","geometry":{"type":"MultiPolygon","coordinates":[[[[2.2107014,48.7573407],[2.2105436,48.7571478],[2.2114268,48.7566565],[2.2113492,48.7565936],[2.2103883,48.7569001],[2.208465,48.755381],[2.2069336,48.7536816],[2.2068737,48.7536971],[2.2067898,48.7535099],[2.2056582,48.7521662],[2.2114785,48.7504169],[2.2124695,48.7508228],[2.2139254,48.7517583],[2.2138887,48.7517762],[2.2139894,48.7518321],[2.2140262,48.7518188],[2.2155972,48.7530999],[2.2158922,48.7534477],[2.2158468,48.7538292],[2.2151482,48.7548977],[2.2172726,48.7558456],[2.2157093,48.756787],[2.215519,48.7568478],[2.2153589,48.7568623],[2.2151151,48.7568321],[2.214582,48.756579],[2.2144525,48.7566573],[2.2141996,48.7570631],[2.214256,48.7575418],[2.2145856,48.7581362],[2.2149255,48.7584908],[2.2145915,48.7585944],[2.2144488,48.7586114],[2.2141271,48.7585487],[2.2139649,48.7585758],[2.2133496,48.7584967],[2.2134277,48.7580185],[2.2130831,48.7579158],[2.2131341,48.7574481],[2.2123913,48.7575599],[2.21122,48.75803],[2.2110916,48.7579115],[2.2107014,48.7573407]]]]},"properties":{"code_section":"910640000F","code_commune":"91064","section_courte":"F"}},{"type":"Feature","geometry":{"type":"MultiPolygon","coordinates":[[[[2.2175768,48.7525195],[2.2178377,48.7527793],[2.2182606,48.7526179],[2.2184554,48.752479],[2.2193377,48.7531657],[2.2195684,48.7534584],[2.2198731,48.7532883],[2.220571,48.7531917],[2.2208229,48.7533446],[2.2210981,48.753381],[2.221656,48.7533563],[2.2218502,48.7532231],[2.2224907,48.7518206],[2.2226524,48.7513722],[2.2236625,48.7512107],[2.2244319,48.7511659],[2.2252067,48.7521458],[2.2245089,48.7537285],[2.2243216,48.754611],[2.2239082,48.7551129],[2.2236088,48.7553854],[2.2239847,48.7561426],[2.2240445,48.7563889],[2.2238103,48.7567415],[2.2235353,48.756737],[2.2185793,48.7571448],[2.2177445,48.75614],[2.2172726,48.7558456],[2.2151482,48.7548977],[2.2158468,48.7538292],[2.2158922,48.7534477],[2.215655,48.7531543],[2.2153359,48.7528923],[2.2155665,48.7528367],[2.2172102,48.7521468],[2.2175768,48.7525195]]]]},"properties":{"code_section":"910640000G","code_commune":"91064","section_courte":"G"}},{"type":"Feature","geometry":{"type":"MultiPolygon","coordinates":[[[[2.2149442,48.7525611],[2.2140262,48.7518188],[2.2139894,48.7518321],[2.2138887,48.7517762],[2.2139254,48.7517583],[2.2124695,48.7508228],[2.2114785,48.7504169],[2.2159127,48.7490634],[2.2171004,48.748587],[2.217638,48.7482983],[2.2189751,48.7472473],[2.2200358,48.7466912],[2.2207337,48.7471754],[2.2224088,48.7487182],[2.2263718,48.7501393],[2.2254806,48.7510751],[2.2251929,48.7512087],[2.2247605,48.7512053],[2.2244319,48.7511659],[2.2236945,48.7512077],[2.2226524,48.7513722],[2.2224907,48.7518206],[2.2218502,48.7532231],[2.221656,48.7533563],[2.2210981,48.753381],[2.2208229,48.7533446],[2.220571,48.7531917],[2.2198731,48.7532883],[2.2195684,48.7534584],[2.2193377,48.7531657],[2.2184554,48.752479],[2.2182606,48.7526179],[2.2178377,48.7527793],[2.2172102,48.7521468],[2.2155665,48.7528367],[2.2153359,48.7528923],[2.2149442,48.7525611]]]]},"properties":{"code_section":"910640000H","code_commune":"91064","section_courte":"H"}},{"type":"Feature","geometry":{"type":"MultiPolygon","coordinates":[[[[2.2189751,48.7472473],[2.2175968,48.7483237],[2.2171004,48.748587],[2.2159127,48.7490634],[2.2117105,48.7503586],[2.204489,48.7525221],[2.2012498,48.7536681],[2.2012005,48.7536094],[2.2010153,48.7533484],[2.201117,48.7531684],[2.2011566,48.7526434],[2.2012249,48.7525403],[2.2016397,48.7522428],[2.2024619,48.752049],[2.203591,48.7520165],[2.2045231,48.7518819],[2.2053317,48.7518105],[2.2045455,48.7508974],[2.2043539,48.7508954],[2.2035436,48.7506664],[2.2024951,48.750305],[2.1989623,48.7481411],[2.2003883,48.7479514],[2.2010998,48.7479781],[2.2020806,48.7482632],[2.2036445,48.7478293],[2.2068233,48.7467334],[2.2079903,48.746437],[2.2086981,48.7459064],[2.2088522,48.7457508],[2.2089621,48.7455726],[2.2091411,48.7446823],[2.2091668,48.7442542],[2.2090885,48.7437909],[2.209409,48.7429128],[2.2095738,48.7426537],[2.2098704,48.7424044],[2.2104735,48.7420134],[2.211196,48.7417298],[2.2112954,48.7419015],[2.211644,48.7422465],[2.2111862,48.7427792],[2.2105762,48.7432913],[2.2183085,48.7456101],[2.2182974,48.7456557],[2.2190558,48.7460319],[2.2200358,48.7466912],[2.2189751,48.7472473]]]]},"properties":{"code_section":"910640000I","code_commune":"91064","section_courte":"I"}},{"type":"Feature","geometry":{"type":"MultiPolygon","coordinates":[[[[2.204078,48.7375349],[2.2057854,48.7378005],[2.2063771,48.7381411],[2.2068341,48.7384279],[2.2078974,48.7392194],[2.209498,48.7402165],[2.2104334,48.7406891],[2.2102359,48.7407113],[2.210932,48.7412287],[2.211196,48.7417298],[2.2104735,48.7420134],[2.2098704,48.7424044],[2.2095738,48.7426537],[2.209409,48.7429128],[2.2090885,48.7437909],[2.2091668,48.7442542],[2.2091411,48.7446823],[2.2089621,48.7455726],[2.2088522,48.7457508],[2.2086981,48.7459064],[2.2079903,48.746437],[2.2068233,48.7467334],[2.2036445,48.7478293],[2.2020806,48.7482632],[2.2010998,48.7479781],[2.2003883,48.7479514],[2.1989623,48.7481411],[2.1839934,48.7407674],[2.1855103,48.7402162],[2.187078,48.7398915],[2.188384,48.7396659],[2.1895817,48.7393678],[2.1903698,48.7393302],[2.190721,48.7392117],[2.1919253,48.7385952],[2.1943493,48.7377563],[2.1955676,48.7374061],[2.1963317,48.7372883],[2.2011616,48.7369943],[2.2021182,48.7369886],[2.2027984,48.7370312],[2.2033861,48.7370252],[2.2036461,48.7370173],[2.2040668,48.736954],[2.204078,48.7375349]]]]},"properties":{"code_section":"910640000J","code_commune":"91064","section_courte":"J"}},{"type":"Feature","geometry":{"type":"MultiPolygon","coordinates":[[[[2.1892878,48.753612],[2.1890886,48.7526771],[2.1890167,48.7525117],[2.1889849,48.7519826],[2.1887981,48.7512602],[2.1877125,48.7497451],[2.1867477,48.7483158],[2.1864021,48.7478519],[2.1856489,48.7469785],[2.1854391,48.7465859],[2.1849608,48.745229],[2.1848022,48.7446205],[2.1845884,48.7440992],[2.1841028,48.7433961],[2.1834889,48.7426688],[2.1825939,48.7413046],[2.1839934,48.7407674],[2.1989623,48.7481411],[2.2024951,48.750305],[2.2035436,48.7506664],[2.2043539,48.7508954],[2.2045455,48.7508974],[2.2053317,48.7518105],[2.2045231,48.7518819],[2.203591,48.7520165],[2.2024619,48.752049],[2.2016397,48.7522428],[2.2012249,48.7525403],[2.2011566,48.7526434],[2.201117,48.7531684],[2.2010153,48.7533484],[2.2012498,48.7536681],[2.1926053,48.7567911],[2.1909693,48.7575865],[2.1907351,48.7574596],[2.1903448,48.7570733],[2.1901233,48.7567013],[2.1908887,48.7554012],[2.190919,48.7553288],[2.1908679,48.7551688],[2.1906753,48.7550343],[2.1898857,48.7546085],[2.1897455,48.7545005],[2.1894676,48.7540624],[2.1892878,48.753612]]]]},"properties":{"code_section":"910640000K","code_commune":"91064","section_courte":"K"}},{"type":"Feature","geometry":{"type":"MultiPolygon","coordinates":[[[[2.2024376,48.7567347],[2.2022483,48.756068],[2.201965,48.7560114],[2.2014683,48.7556082],[2.2008123,48.7554154],[2.1999165,48.7555319],[2.2004858,48.7553376],[2.201024,48.7551989],[2.200045,48.754097],[2.204489,48.7525221],[2.2056582,48.7521662],[2.2067898,48.7535099],[2.2068737,48.7536971],[2.2069336,48.7536816],[2.208465,48.755381],[2.2103883,48.7569001],[2.2113492,48.7565936],[2.2114268,48.7566565],[2.2096866,48.7576113],[2.2078782,48.758218],[2.2057772,48.7588255],[2.2048764,48.7590568],[2.2035131,48.7593151],[2.203036,48.7586645],[2.2024342,48.758851],[2.202268,48.758633],[2.2019514,48.7587156],[2.2019538,48.7584485],[2.2014811,48.7579159],[2.2015241,48.7578702],[2.2018772,48.7578511],[2.2017779,48.7575723],[2.2016923,48.7575017],[2.2017291,48.7573586],[2.2016974,48.7569504],[2.2024376,48.7567347]]]]},"properties":{"code_section":"910640000L","code_commune":"91064","section_courte":"L"}},{"type":"Feature","geometry":{"type":"MultiPolygon","coordinates":[[[[2.1920066,48.7622],[2.1916216,48.7613294],[2.1912568,48.7614559],[2.1908683,48.7605539],[2.1925727,48.7602737],[2.1930403,48.7604306],[2.1930829,48.7604372],[2.1932062,48.760373],[2.1927116,48.7599325],[2.192477,48.7595705],[2.1919272,48.7581552],[2.1917763,48.7579805],[2.1915541,48.75783],[2.1912112,48.7577241],[2.1909693,48.7575865],[2.1926053,48.7567911],[2.200045,48.754097],[2.201024,48.7551989],[2.2004858,48.7553376],[2.1999165,48.7555319],[2.2008123,48.7554154],[2.2014683,48.7556082],[2.201965,48.7560114],[2.2022483,48.756068],[2.2024376,48.7567347],[2.2016974,48.7569504],[2.2017291,48.7573586],[2.2016923,48.7575017],[2.2017779,48.7575723],[2.2018772,48.7578511],[2.2015241,48.7578702],[2.2014811,48.7579159],[2.2019538,48.7584485],[2.2019514,48.7587156],[2.2018066,48.7588014],[2.2016851,48.7589916],[2.2014217,48.7591934],[2.2009972,48.759415],[2.200628,48.7596775],[2.2005118,48.7598861],[2.2004643,48.7600702],[2.1996314,48.7607287],[2.1993774,48.7608549],[2.1992004,48.760875],[2.1990478,48.7608463],[2.1988877,48.760774],[2.1985783,48.7604901],[2.1984481,48.7604377],[2.1981512,48.7603756],[2.197857,48.7604158],[2.1975752,48.7604832],[2.1976568,48.7609253],[2.197505,48.7611667],[2.1966317,48.7614658],[2.1963307,48.7614822],[2.1957579,48.7614101],[2.1941367,48.761893],[2.1929745,48.7623651],[2.1922751,48.7625744],[2.1920066,48.7622]]]]},"properties":{"code_section":"910640000M","code_commune":"91064","section_courte":"M"}},{"type":"Feature","geometry":{"type":"MultiPolygon","coordinates":[[[[2.2123913,48.7575599],[2.2131341,48.7574481],[2.2130831,48.7579158],[2.2134277,48.7580185],[2.2133496,48.7584967],[2.2139649,48.7585758],[2.2141271,48.7585487],[2.2144488,48.7586114],[2.2149255,48.7584908],[2.2151809,48.7587969],[2.2150321,48.759139],[2.2149299,48.7592322],[2.2143247,48.7596263],[2.2133722,48.7601389],[2.2130993,48.7603471],[2.2122757,48.7613263],[2.2114589,48.7620836],[2.2109772,48.7624026],[2.2108374,48.762427],[2.2091983,48.7621747],[2.2083062,48.76222],[2.2079934,48.7623067],[2.207618,48.7624834],[2.2058848,48.7636831],[2.2056889,48.763729],[2.2048863,48.7637668],[2.2023481,48.7633478],[2.2015218,48.7645184],[2.2010105,48.7648902],[2.1988646,48.766264],[2.198292,48.7664454],[2.1927826,48.7668797],[2.192242,48.7670063],[2.1917925,48.7673249],[2.1917558,48.7675282],[2.1915501,48.7675345],[2.1915637,48.7664754],[2.1928981,48.7646125],[2.1925961,48.764404],[2.1924628,48.7643796],[2.1916408,48.7638747],[2.1919754,48.7637226],[2.1930026,48.7635471],[2.1922751,48.7625744],[2.1929745,48.7623651],[2.1941367,48.761893],[2.1957579,48.7614101],[2.1963307,48.7614822],[2.1966317,48.7614658],[2.197505,48.7611667],[2.1976568,48.7609253],[2.1975752,48.7604832],[2.1981512,48.7603756],[2.1985783,48.7604901],[2.1988877,48.760774],[2.1990478,48.7608463],[2.1992004,48.760875],[2.1994788,48.7608183],[2.2004643,48.7600702],[2.2005118,48.7598861],[2.200628,48.7596775],[2.2009972,48.759415],[2.2014217,48.7591934],[2.2016851,48.7589916],[2.2018066,48.7588014],[2.2019514,48.7587156],[2.202268,48.758633],[2.2024342,48.758851],[2.203036,48.7586645],[2.2035131,48.7593151],[2.2048764,48.7590568],[2.2053546,48.7589389],[2.2078782,48.758218],[2.2096866,48.7576113],[2.2105436,48.7571478],[2.210838,48.7575006],[2.2110916,48.7579115],[2.21122,48.75803],[2.2123913,48.7575599]]]]},"properties":{"code_section":"910640000N","code_commune":"91064","section_courte":"N"}}]}