{"type":"FeatureCollection","features":[{"type":"Feature","geometry":{"type":"MultiPolygon","coordinates":[[[[2.3674018,48.6155051],[2.3674096,48.6155876],[2.3751002,48.6164499],[2.3724377,48.617246],[2.3721588,48.6173544],[2.3715925,48.6176613],[2.3715931,48.6176393],[2.3711373,48.6178556],[2.3705075,48.618026],[2.3695908,48.6182039],[2.3689577,48.6184],[2.3684696,48.6186686],[2.3677846,48.6191706],[2.3671922,48.6194802],[2.3660879,48.6174223],[2.3650728,48.6174395],[2.3633725,48.6175456],[2.3628284,48.6176213],[2.3619043,48.6176487],[2.3600965,48.6179888],[2.3594725,48.6181394],[2.3576152,48.6141908],[2.35828,48.6142267],[2.3588691,48.6141923],[2.3574272,48.6108094],[2.358928,48.6104863],[2.3589449,48.6103577],[2.3592822,48.6102169],[2.3600334,48.6099476],[2.3611504,48.6096201],[2.3620083,48.6093953],[2.3631103,48.6092965],[2.363448,48.6091956],[2.3633588,48.6099517],[2.3635465,48.6102195],[2.363518,48.6104277],[2.3635475,48.6105445],[2.3636593,48.6106654],[2.3637765,48.6107296],[2.3640682,48.6107634],[2.36427,48.6107282],[2.3644549,48.61061],[2.364533,48.6104774],[2.3644913,48.6102826],[2.3642817,48.6101343],[2.3645118,48.6097541],[2.3653669,48.6086712],[2.3657506,48.6082455],[2.3658794,48.6082096],[2.3662519,48.6100315],[2.3666319,48.611587],[2.3666914,48.611609],[2.3668168,48.6118957],[2.3666939,48.6119194],[2.3667396,48.6123726],[2.367069,48.6122722],[2.3673079,48.6142957],[2.367265,48.6142978],[2.3674018,48.6155051]]]]},"properties":{"code_section":"910860000B","code_commune":"91086","section_courte":"B"}},{"type":"Feature","geometry":{"type":"MultiPolygon","coordinates":[[[[2.393396,48.6084323],[2.3950505,48.6081157],[2.3967079,48.607572],[2.3985324,48.6071507],[2.3999758,48.6098116],[2.4000168,48.6098043],[2.4018182,48.6146438],[2.3996869,48.6149282],[2.398166,48.6149478],[2.3979415,48.6149843],[2.3978678,48.6150576],[2.3974387,48.6150661],[2.3976505,48.6147835],[2.3911094,48.6148407],[2.3911072,48.6149015],[2.3907138,48.6149084],[2.390732,48.614866],[2.3900557,48.6148537],[2.3900789,48.6145734],[2.3903266,48.6143898],[2.3903648,48.6142884],[2.3904013,48.6136541],[2.3905148,48.6131351],[2.3907126,48.6127157],[2.3907905,48.6127054],[2.3908332,48.6124873],[2.3907939,48.61248],[2.3908238,48.6110845],[2.3908672,48.6108641],[2.3910745,48.6107953],[2.3912206,48.6106354],[2.391457,48.6104949],[2.3915091,48.6104092],[2.3913687,48.6087455],[2.3920898,48.6086935],[2.393396,48.6084323]]]]},"properties":{"code_section":"910860000C","code_commune":"91086","section_courte":"C"}},{"type":"Feature","geometry":{"type":"MultiPolygon","coordinates":[[[[2.378487,48.6107625],[2.3785129,48.6107861],[2.3786687,48.6107592],[2.3796741,48.6105343],[2.3801139,48.6113029],[2.3802652,48.6112709],[2.3818686,48.6134918],[2.382417,48.6145955],[2.3833271,48.6144321],[2.3835142,48.6150408],[2.3823014,48.6151347],[2.3816692,48.6152633],[2.3811115,48.6154273],[2.3786694,48.6157851],[2.3786797,48.6158098],[2.3781607,48.6158848],[2.3781486,48.6158525],[2.3775274,48.6159441],[2.3772802,48.6152278],[2.3772466,48.6143349],[2.3770763,48.6136884],[2.3762983,48.6124578],[2.3757288,48.6111693],[2.378487,48.6107625]]]]},"properties":{"code_section":"91086000AA","code_commune":"91086","section_courte":"AA"}},{"type":"Feature","geometry":{"type":"MultiPolygon","coordinates":[[[[2.3750972,48.610373],[2.374853,48.6103772],[2.3743884,48.6105452],[2.3738649,48.6103081],[2.3732299,48.6105371],[2.3731432,48.6111749],[2.3724322,48.6115165],[2.3712872,48.6109806],[2.3667396,48.6123726],[2.3666939,48.6119194],[2.3668168,48.6118957],[2.3666914,48.611609],[2.3666319,48.611587],[2.3662519,48.6100315],[2.3658794,48.6082096],[2.3682226,48.6080621],[2.3681451,48.6076948],[2.3683794,48.6075626],[2.3695126,48.6074735],[2.3695241,48.607094],[2.3704739,48.6069229],[2.3707909,48.6067779],[2.3718435,48.6066163],[2.3729593,48.6062822],[2.3740749,48.6076082],[2.3745702,48.6080971],[2.3749013,48.6086207],[2.3754794,48.6103666],[2.3750972,48.610373]]]]},"properties":{"code_section":"91086000AB","code_commune":"91086","section_courte":"AB"}},{"type":"Feature","geometry":{"type":"MultiPolygon","coordinates":[[[[2.3674492,48.6144317],[2.3672794,48.6144401],[2.367265,48.6142978],[2.3673079,48.6142957],[2.367069,48.6122722],[2.3712872,48.6109806],[2.3724322,48.6115165],[2.3731432,48.6111749],[2.3732299,48.6105371],[2.3738649,48.6103081],[2.3743884,48.6105452],[2.374853,48.6103772],[2.3754794,48.6103666],[2.3759236,48.611666],[2.3762983,48.6124578],[2.3767183,48.6131223],[2.3766098,48.6131503],[2.3763568,48.6130806],[2.3722225,48.6142048],[2.3680804,48.6144032],[2.3677483,48.6143596],[2.3676264,48.6144236],[2.3674492,48.6144317]]]]},"properties":{"code_section":"91086000AC","code_commune":"91086","section_courte":"AC"}},{"type":"Feature","geometry":{"type":"MultiPolygon","coordinates":[[[[2.3765499,48.6131338],[2.3766098,48.6131503],[2.3767183,48.6131223],[2.3770763,48.6136884],[2.3772466,48.6143349],[2.3772802,48.6152278],[2.3775274,48.6159441],[2.3751002,48.6164499],[2.3674096,48.6155876],[2.3672794,48.6144401],[2.3676264,48.6144236],[2.3677483,48.6143596],[2.3680804,48.6144032],[2.3722225,48.6142048],[2.3763568,48.6130806],[2.3765499,48.6131338]]]]},"properties":{"code_section":"91086000AD","code_commune":"91086","section_courte":"AD"}},{"type":"Feature","geometry":{"type":"MultiPolygon","coordinates":[[[[2.3715887,48.6176635],[2.3719461,48.6174573],[2.3724377,48.617246],[2.3751002,48.6164499],[2.3775274,48.6159441],[2.3787112,48.6188449],[2.377398,48.6190634],[2.3774378,48.6192985],[2.3745079,48.6195194],[2.3744917,48.6193767],[2.3719958,48.6196052],[2.3715887,48.6176635]]]]},"properties":{"code_section":"91086000AE","code_commune":"91086","section_courte":"AE"}},{"type":"Feature","geometry":{"type":"MultiPolygon","coordinates":[[[[2.3733131,48.6246114],[2.3732586,48.6237691],[2.372039,48.623747],[2.3720865,48.6235469],[2.3724498,48.6226975],[2.3725037,48.6217566],[2.3723901,48.620989],[2.3719958,48.6196052],[2.3744917,48.6193767],[2.3745079,48.6195194],[2.3774378,48.6192985],[2.377398,48.6190634],[2.3783484,48.6189074],[2.3787066,48.6197715],[2.3789383,48.6204692],[2.3800107,48.620347],[2.3803572,48.6220305],[2.3804302,48.6222202],[2.3806942,48.6221946],[2.380903,48.6230054],[2.3806195,48.62303],[2.3808783,48.6241298],[2.378619,48.6243383],[2.3733131,48.6246114]]]]},"properties":{"code_section":"91086000AH","code_commune":"91086","section_courte":"AH"}},{"type":"Feature","geometry":{"type":"MultiPolygon","coordinates":[[[[2.3908419,48.6225718],[2.3909518,48.6228366],[2.3912239,48.6230554],[2.3913862,48.6233105],[2.3916979,48.6235076],[2.3911858,48.6242309],[2.3878582,48.6237514],[2.3874624,48.6237279],[2.3862975,48.6237415],[2.3851819,48.6237983],[2.383463,48.6239514],[2.3834607,48.6238971],[2.3808897,48.6241504],[2.3806195,48.62303],[2.380903,48.6230054],[2.3806942,48.6221946],[2.3804302,48.6222202],[2.3803572,48.6220305],[2.3800107,48.620347],[2.3821975,48.6200302],[2.382782,48.6199688],[2.3834166,48.6199695],[2.3851897,48.6200454],[2.385324,48.6201687],[2.3854019,48.6201437],[2.3855893,48.619869],[2.3893717,48.6191218],[2.3894777,48.6191958],[2.3894402,48.6191087],[2.3911581,48.6187696],[2.3913719,48.6192405],[2.3912339,48.6199862],[2.3908406,48.6210041],[2.390888,48.6211809],[2.3908419,48.6225718]]]]},"properties":{"code_section":"91086000AI","code_commune":"91086","section_courte":"AI"}},{"type":"Feature","geometry":{"type":"MultiPolygon","coordinates":[[[[2.391664,48.6187022],[2.3920159,48.6186528],[2.3923999,48.6192746],[2.3933967,48.620389],[2.3936871,48.6206211],[2.3959449,48.6213951],[2.3966411,48.6216059],[2.3980906,48.622244],[2.3989922,48.6224319],[2.4004052,48.6231677],[2.400836,48.6235301],[2.3990482,48.6238283],[2.3985553,48.6238817],[2.3979674,48.6239989],[2.3977119,48.6239906],[2.3975542,48.6240161],[2.3964029,48.6247354],[2.396509,48.6249177],[2.3964949,48.6249753],[2.3963113,48.6251682],[2.3954395,48.6256385],[2.3945342,48.6251888],[2.3934193,48.6247233],[2.3923672,48.6244343],[2.3919933,48.6243657],[2.3916155,48.6243337],[2.3911848,48.6242321],[2.3916979,48.6235076],[2.3913862,48.6233105],[2.3912239,48.6230554],[2.3909518,48.6228366],[2.3908419,48.6225718],[2.390888,48.6211809],[2.3908406,48.6210041],[2.3912339,48.6199862],[2.3913719,48.6192405],[2.3911591,48.6187717],[2.391664,48.6187022]]]]},"properties":{"code_section":"91086000AK","code_commune":"91086","section_courte":"AK"}},{"type":"Feature","geometry":{"type":"MultiPolygon","coordinates":[[[[2.3971484,48.6157732],[2.396551,48.6164055],[2.3957045,48.6175711],[2.3953809,48.6179493],[2.3952537,48.6179593],[2.3949667,48.6178565],[2.3937801,48.6179327],[2.3937516,48.6183774],[2.393387,48.6184653],[2.3921732,48.6186093],[2.3920159,48.6186528],[2.3911581,48.6187696],[2.3894402,48.6191087],[2.3884517,48.6169919],[2.3882612,48.6170179],[2.3872064,48.6147674],[2.3876202,48.6147209],[2.3882768,48.614707],[2.3900458,48.6148536],[2.390732,48.614866],[2.3907138,48.6149084],[2.3911072,48.6149015],[2.3911094,48.6148407],[2.3976505,48.6147835],[2.3974387,48.6150661],[2.3978678,48.6150576],[2.3971484,48.6157732]]]]},"properties":{"code_section":"91086000AL","code_commune":"91086","section_courte":"AL"}},{"type":"Feature","geometry":{"type":"MultiPolygon","coordinates":[[[[2.3848707,48.6200436],[2.3834166,48.6199695],[2.382782,48.6199688],[2.3821817,48.6200324],[2.3807647,48.6202501],[2.3789383,48.6204692],[2.3787066,48.6197715],[2.3783484,48.6189074],[2.3787112,48.6188449],[2.3775274,48.6159441],[2.3781486,48.6158525],[2.3781607,48.6158848],[2.3786797,48.6158098],[2.3786694,48.6157851],[2.3811115,48.6154273],[2.3816692,48.6152633],[2.3825434,48.6151034],[2.3872064,48.6147674],[2.3882612,48.6170179],[2.3884517,48.6169919],[2.3894777,48.6191958],[2.3893717,48.6191218],[2.3855893,48.619869],[2.3854019,48.6201437],[2.385324,48.6201687],[2.3851897,48.6200454],[2.3848707,48.6200436]]]]},"properties":{"code_section":"91086000AM","code_commune":"91086","section_courte":"AM"}},{"type":"Feature","geometry":{"type":"MultiPolygon","coordinates":[[[[2.3830872,48.6300787],[2.381577,48.6296457],[2.3812224,48.6298565],[2.3801004,48.62881],[2.3798089,48.6284515],[2.3796042,48.6279602],[2.3793437,48.6275663],[2.377646,48.6278176],[2.3773501,48.6269151],[2.3761244,48.627069],[2.3746484,48.6271217],[2.3742986,48.6272423],[2.3738632,48.6254768],[2.3733727,48.625482],[2.3733131,48.6246114],[2.378619,48.6243383],[2.3808783,48.6241298],[2.3808897,48.6241504],[2.3834607,48.6238971],[2.383463,48.6239514],[2.3851819,48.6237983],[2.3862975,48.6237415],[2.3877546,48.6237392],[2.3911775,48.6242293],[2.3915041,48.6243146],[2.3923672,48.6244343],[2.3930238,48.6245986],[2.393757,48.6248482],[2.3945342,48.6251888],[2.3954395,48.6256385],[2.3945688,48.6261665],[2.3945176,48.6262608],[2.3941962,48.6264737],[2.3940101,48.6263859],[2.3938037,48.6264633],[2.3932111,48.626497],[2.3929208,48.6264637],[2.3928225,48.626477],[2.3912864,48.6270137],[2.3911526,48.6270247],[2.3908997,48.626943],[2.3903434,48.6269841],[2.389807,48.6269839],[2.3893735,48.6268974],[2.3890878,48.6269475],[2.3889187,48.6270456],[2.3884047,48.6271398],[2.3877958,48.6312571],[2.3876415,48.6313328],[2.3830872,48.6300787]]]]},"properties":{"code_section":"91086000AN","code_commune":"91086","section_courte":"AN"}},{"type":"Feature","geometry":{"type":"MultiPolygon","coordinates":[[[[2.3815511,48.6130485],[2.383,48.612491],[2.3831193,48.6124044],[2.3837923,48.6115622],[2.384087,48.611294],[2.3844395,48.6110902],[2.3852116,48.6108599],[2.3858868,48.6119386],[2.3866352,48.6133806],[2.3880731,48.6131514],[2.3881511,48.6135464],[2.3882611,48.6147074],[2.3876202,48.6147209],[2.3835142,48.6150408],[2.3833271,48.6144321],[2.382417,48.6145955],[2.3818686,48.6134918],[2.3815511,48.6130485]]]]},"properties":{"code_section":"91086000AO","code_commune":"91086","section_courte":"AO"}},{"type":"Feature","geometry":{"type":"MultiPolygon","coordinates":[[[[2.3846933,48.6106214],[2.3848012,48.6106503],[2.3848992,48.6109465],[2.3844395,48.6110902],[2.384087,48.611294],[2.3837923,48.6115622],[2.3831193,48.6124044],[2.383,48.612491],[2.3827427,48.612604],[2.3821696,48.6127959],[2.3815511,48.6130485],[2.3802652,48.6112709],[2.3801139,48.6113029],[2.3796741,48.6105343],[2.3785129,48.6107861],[2.378487,48.6107625],[2.3757288,48.6111693],[2.3752087,48.6094841],[2.3749013,48.6086207],[2.3747547,48.6083707],[2.3753205,48.608429],[2.3754696,48.6083232],[2.3846933,48.6106214]]]]},"properties":{"code_section":"91086000AP","code_commune":"91086","section_courte":"AP"}},{"type":"Feature","geometry":{"type":"MultiPolygon","coordinates":[[[[2.3732312,48.6021415],[2.3741283,48.6021634],[2.3756196,48.6024518],[2.3758437,48.6025055],[2.3758722,48.6026669],[2.3772018,48.6024349],[2.3772511,48.6027151],[2.3773775,48.6029827],[2.3782046,48.6029319],[2.3782671,48.6029503],[2.379972,48.602812],[2.3799484,48.6032669],[2.3804671,48.6032067],[2.3816452,48.6098634],[2.3754696,48.6083232],[2.3753205,48.608429],[2.3747547,48.6083707],[2.3745702,48.6080971],[2.3740749,48.6076082],[2.3724673,48.6056971],[2.3723685,48.6055331],[2.3722903,48.6051887],[2.372375,48.604867],[2.3728365,48.6042135],[2.3733308,48.6032595],[2.3733274,48.6031979],[2.3731834,48.6029785],[2.373053,48.6023998],[2.3729392,48.6021568],[2.3732312,48.6021415]]]]},"properties":{"code_section":"91086000AS","code_commune":"91086","section_courte":"AS"}},{"type":"Feature","geometry":{"type":"MultiPolygon","coordinates":[[[[2.391379,48.6087836],[2.3900123,48.6088538],[2.3893953,48.6089986],[2.3889391,48.6092099],[2.3881707,48.6096784],[2.3873953,48.6099514],[2.3852702,48.6108437],[2.3848992,48.6109465],[2.3847992,48.6106483],[2.3816452,48.6098634],[2.3809777,48.6061013],[2.3893331,48.6047741],[2.3897383,48.6051499],[2.3901842,48.6056633],[2.3897108,48.603977],[2.390551,48.6038739],[2.3916765,48.6046561],[2.3925275,48.6047692],[2.393071,48.6062926],[2.3928764,48.6063441],[2.393396,48.6084323],[2.3920898,48.6086935],[2.3913687,48.6087455],[2.391379,48.6087836]]]]},"properties":{"code_section":"91086000AT","code_commune":"91086","section_courte":"AT"}},{"type":"Feature","geometry":{"type":"MultiPolygon","coordinates":[[[[2.390551,48.6038739],[2.3897108,48.603977],[2.3901842,48.6056633],[2.3897383,48.6051499],[2.3893331,48.6047741],[2.3809777,48.6061013],[2.3804671,48.6032067],[2.3799484,48.6032669],[2.379972,48.602812],[2.3799421,48.6028143],[2.3800161,48.6024862],[2.3829472,48.6022761],[2.3844059,48.6023154],[2.3857204,48.6026018],[2.3867619,48.6024188],[2.3895926,48.601641],[2.3902048,48.6036243],[2.390551,48.6038739]]]]},"properties":{"code_section":"91086000AV","code_commune":"91086","section_courte":"AV"}},{"type":"Feature","geometry":{"type":"MultiPolygon","coordinates":[[[[2.3900621,48.6147766],[2.3900458,48.6148536],[2.3882611,48.6147074],[2.3881511,48.6135464],[2.3880731,48.6131514],[2.3866352,48.6133806],[2.3858868,48.6119386],[2.3852116,48.6108599],[2.3860778,48.6105225],[2.3873953,48.6099514],[2.3881707,48.6096784],[2.3889391,48.6092099],[2.3893953,48.6089986],[2.3900123,48.6088538],[2.391379,48.6087836],[2.3915091,48.6104092],[2.391457,48.6104949],[2.3912206,48.6106354],[2.3910745,48.6107953],[2.3908672,48.6108641],[2.3908238,48.6110845],[2.3907939,48.61248],[2.3908332,48.6124873],[2.3907905,48.6127054],[2.3907126,48.6127157],[2.3905093,48.6131528],[2.3904013,48.6136541],[2.3903492,48.6143429],[2.3900789,48.6145734],[2.3900621,48.6147766]]]]},"properties":{"code_section":"91086000AW","code_commune":"91086","section_courte":"AW"}},{"type":"Feature","geometry":{"type":"MultiPolygon","coordinates":[[[[2.3718838,48.5996243],[2.3723726,48.6014051],[2.3725466,48.6017157],[2.3729392,48.6021568],[2.373053,48.6023998],[2.3731834,48.6029785],[2.3733274,48.6031979],[2.3733308,48.6032595],[2.3728365,48.6042135],[2.372375,48.604867],[2.3722903,48.6051887],[2.3723685,48.6055331],[2.3724673,48.6056971],[2.3729593,48.6062822],[2.3718435,48.6066163],[2.3707909,48.6067779],[2.3705557,48.6068879],[2.3619803,48.6022726],[2.3620876,48.6019433],[2.3623366,48.6014388],[2.3636341,48.6013034],[2.3645422,48.6011763],[2.3647275,48.6011193],[2.365313,48.6008152],[2.3657483,48.6006791],[2.3665453,48.6005162],[2.3676337,48.6003472],[2.3702271,48.5997308],[2.3718838,48.5996243]]]]},"properties":{"code_section":"91086000AZ","code_commune":"91086","section_courte":"AZ"}},{"type":"Feature","geometry":{"type":"MultiPolygon","coordinates":[[[[2.3637104,48.610697],[2.3635475,48.6105445],[2.363518,48.6104277],[2.3635465,48.6102195],[2.3633588,48.6099517],[2.363448,48.6091956],[2.3631103,48.6092965],[2.3620083,48.6093953],[2.3606088,48.6068283],[2.3609492,48.6067182],[2.3602206,48.6047511],[2.3604265,48.6045297],[2.36053,48.6042832],[2.3605552,48.6040591],[2.360286,48.6035919],[2.361967,48.6028189],[2.3619472,48.6023734],[2.3619783,48.6022715],[2.3705529,48.6068864],[2.3703037,48.6069611],[2.3695241,48.607094],[2.3695126,48.6074735],[2.3683794,48.6075626],[2.3681451,48.6076948],[2.3682226,48.6080621],[2.365818,48.6082098],[2.3657506,48.6082455],[2.3653669,48.6086712],[2.3645118,48.6097541],[2.3642817,48.6101343],[2.3644354,48.6102214],[2.3645184,48.6103295],[2.3645403,48.6104476],[2.3644795,48.6105809],[2.3643785,48.6106666],[2.3641854,48.6107499],[2.36389,48.610754],[2.3637104,48.610697]]]]},"properties":{"code_section":"91086000BA","code_commune":"91086","section_courte":"BA"}}]}