{"type":"FeatureCollection","features":[{"type":"Feature","geometry":{"type":"MultiPolygon","coordinates":[[[[2.1403647,48.5625678],[2.14151,48.5607021],[2.1443253,48.5563096],[2.1443996,48.5562572],[2.1453538,48.5564394],[2.1457828,48.5565928],[2.1468251,48.5571232],[2.1508688,48.5589055],[2.1519211,48.5593974],[2.1505504,48.5600623],[2.1500661,48.5602392],[2.1501128,48.5609225],[2.1503214,48.5619955],[2.1505506,48.5626002],[2.1506298,48.5627125],[2.152285,48.5637566],[2.1525089,48.5639395],[2.1523632,48.5639485],[2.1519782,48.5640617],[2.1516472,48.5640984],[2.1500821,48.5639917],[2.1496068,48.5639919],[2.1490324,48.5640916],[2.1458521,48.5643415],[2.1452577,48.564448],[2.1446229,48.5644214],[2.1427155,48.5645138],[2.1420579,48.564634],[2.1390248,48.565364],[2.1386986,48.565291],[2.1403647,48.5625678]]],[[[2.1478785,48.5528672],[2.1483487,48.5518271],[2.149025,48.5517623],[2.1496237,48.5516131],[2.149805,48.5512239],[2.1502077,48.5512059],[2.150415,48.5510938],[2.1505612,48.5510602],[2.1516896,48.5510207],[2.1521205,48.5510582],[2.1523761,48.5511176],[2.1540802,48.5516594],[2.1557941,48.5520194],[2.1572516,48.5523671],[2.158004,48.5526045],[2.1583532,48.5527565],[2.1583909,48.5528198],[2.1579084,48.5533097],[2.1576912,48.5536592],[2.1573244,48.5547157],[2.1562003,48.5564112],[2.1550722,48.5558822],[2.154077,48.555686],[2.1518337,48.5550201],[2.1515653,48.5548727],[2.1509248,48.5543761],[2.1500677,48.5540003],[2.1493968,48.5536204],[2.1490555,48.5534712],[2.1487768,48.5534002],[2.1484077,48.5533765],[2.147614,48.553503],[2.1478785,48.5528672]]]]},"properties":{"code_section":"911060000A","code_commune":"91106","section_courte":"A"}},{"type":"Feature","geometry":{"type":"MultiPolygon","coordinates":[[[[2.1709551,48.5568567],[2.1711551,48.5570615],[2.1715586,48.5569018],[2.1720882,48.5566635],[2.1726078,48.5563338],[2.1736094,48.5557857],[2.1741204,48.5554349],[2.1743589,48.5553781],[2.1745244,48.5556203],[2.1747485,48.5557431],[2.1756494,48.5560235],[2.1757333,48.5561257],[2.1758713,48.556478],[2.1761475,48.556828],[2.1769764,48.5573235],[2.1771884,48.5574982],[2.1778714,48.5579007],[2.17811,48.5580814],[2.1782876,48.5584563],[2.1777096,48.5588372],[2.1784948,48.5595996],[2.1776883,48.5599315],[2.1770517,48.5601517],[2.1770768,48.560176],[2.1757141,48.5606699],[2.1761008,48.5611323],[2.175912,48.561216],[2.1759574,48.561319],[2.1753206,48.5614825],[2.1754484,48.5625088],[2.1742575,48.562435],[2.1742921,48.5625022],[2.1738842,48.5626266],[2.1735508,48.562876],[2.1735285,48.5629263],[2.1732073,48.5628827],[2.1726582,48.5629122],[2.1721382,48.5627256],[2.1719202,48.5625585],[2.1718709,48.5626007],[2.171724,48.5625174],[2.1719122,48.5623365],[2.1717945,48.5622746],[2.171472,48.5625617],[2.1714022,48.5625795],[2.171291,48.5625374],[2.1712353,48.5625646],[2.17126,48.5625267],[2.1705371,48.5623018],[2.16986,48.563242],[2.1692015,48.5630587],[2.168887,48.5630165],[2.1684639,48.5628417],[2.1679617,48.5625815],[2.167538,48.5624636],[2.1670619,48.5623745],[2.1667033,48.5622283],[2.16641,48.5621787],[2.1664115,48.5621212],[2.1668756,48.5619051],[2.1658512,48.5611586],[2.1647811,48.5601552],[2.1647608,48.5601692],[2.1641467,48.5596454],[2.1636074,48.5592638],[2.1632365,48.5591589],[2.1627123,48.5589546],[2.1622697,48.5589298],[2.1611942,48.5587944],[2.1596211,48.5585312],[2.158977,48.5583461],[2.1583189,48.5580738],[2.1572644,48.5575632],[2.1566898,48.5574928],[2.1556584,48.5572217],[2.1572201,48.5549076],[2.1573244,48.5547157],[2.1576912,48.5536592],[2.1579084,48.5533097],[2.1583909,48.5528198],[2.1598768,48.5531705],[2.1624051,48.5539778],[2.1630755,48.5541135],[2.1652636,48.5538719],[2.1664588,48.553691],[2.1671653,48.5536511],[2.1676807,48.5536711],[2.167985,48.553713],[2.1681464,48.5537729],[2.1682918,48.5539097],[2.1683594,48.5540509],[2.1686025,48.5542563],[2.1695268,48.5549367],[2.1703679,48.5561161],[2.1709551,48.5568567]]]]},"properties":{"code_section":"911060000B","code_commune":"91106","section_courte":"B"}},{"type":"Feature","geometry":{"type":"MultiPolygon","coordinates":[[[[2.1736048,48.5514158],[2.1737,48.5516259],[2.1739497,48.5518632],[2.1739094,48.5520099],[2.1740315,48.5523988],[2.1739728,48.5526461],[2.1739699,48.5529189],[2.1742381,48.5533114],[2.1742772,48.553505],[2.174238,48.5537831],[2.1741435,48.553982],[2.1740168,48.5541019],[2.1737523,48.554221],[2.1737055,48.5543999],[2.1739298,48.5548917],[2.1743589,48.5553781],[2.1741204,48.5554349],[2.1736094,48.5557857],[2.1726078,48.5563338],[2.1720882,48.5566635],[2.1711551,48.5570615],[2.1703679,48.5561161],[2.1695268,48.5549367],[2.1686025,48.5542563],[2.1683594,48.5540509],[2.1682918,48.5539097],[2.1681464,48.5537729],[2.167985,48.553713],[2.1676807,48.5536711],[2.1671653,48.5536511],[2.1664588,48.553691],[2.1652636,48.5538719],[2.1633719,48.5540985],[2.1629859,48.5541022],[2.1624051,48.5539778],[2.1598768,48.5531705],[2.1583909,48.5528198],[2.1583532,48.5527565],[2.158004,48.5526045],[2.1574721,48.5524306],[2.1557941,48.5520194],[2.1559906,48.5502569],[2.155458,48.5502118],[2.1554571,48.5501885],[2.1559694,48.5485061],[2.1563416,48.5484297],[2.1566651,48.5468641],[2.1562525,48.5465061],[2.1554823,48.5461514],[2.1556987,48.5458543],[2.1558592,48.5455003],[2.1561575,48.5451283],[2.1561676,48.5448929],[2.1563409,48.5444502],[2.1563833,48.5441856],[2.1564709,48.5440998],[2.1552209,48.543242],[2.1541923,48.5427508],[2.1542825,48.5416],[2.1542515,48.5413366],[2.1541846,48.541179],[2.1538317,48.5407405],[2.1560298,48.5397896],[2.1560035,48.5396181],[2.1557701,48.5395579],[2.1554356,48.5394083],[2.1550313,48.5390736],[2.1555815,48.5388155],[2.1551463,48.5384535],[2.1558845,48.5365087],[2.1561014,48.5367048],[2.1564401,48.5371293],[2.1566512,48.5372946],[2.1567691,48.5373348],[2.1571562,48.5368967],[2.1573426,48.5368554],[2.157601,48.5370555],[2.1578358,48.5371119],[2.1580781,48.5370762],[2.1583418,48.537226],[2.1585131,48.5372681],[2.1586243,48.5373604],[2.1586621,48.5374464],[2.1587964,48.5374979],[2.1588554,48.5376569],[2.1591174,48.5377819],[2.1608815,48.5382963],[2.1613165,48.5386428],[2.1615886,48.5391873],[2.1617512,48.5396972],[2.1621359,48.5401649],[2.162231,48.5402347],[2.1622374,48.5403232],[2.1629073,48.5407894],[2.1635863,48.5414894],[2.1639699,48.5416272],[2.1642767,48.5416751],[2.1647488,48.5417982],[2.1648021,48.5418826],[2.1647865,48.542151],[2.1648431,48.5421761],[2.16484,48.5421538],[2.1656653,48.5427085],[2.167007,48.5435217],[2.1672631,48.5437318],[2.1676676,48.543586],[2.1679968,48.5439096],[2.1686111,48.5439326],[2.1688441,48.543967],[2.1690316,48.5441588],[2.1692896,48.5447019],[2.1696564,48.5449716],[2.1697268,48.5451688],[2.1697289,48.5453524],[2.1699809,48.5454895],[2.1700683,48.5455801],[2.170142,48.54598],[2.1715363,48.5490601],[2.1717526,48.5491045],[2.1718293,48.5492033],[2.1717897,48.5492989],[2.1719786,48.5493429],[2.1719941,48.5494651],[2.1723202,48.5495126],[2.1724586,48.5496704],[2.1727125,48.5498456],[2.1726935,48.5498903],[2.1715446,48.550223],[2.171861,48.5504802],[2.1719315,48.5505757],[2.1719816,48.550785],[2.1723363,48.5515311],[2.1735607,48.5514013],[2.1736048,48.5514158]]]]},"properties":{"code_section":"911060000C","code_commune":"91106","section_courte":"C"}},{"type":"Feature","geometry":{"type":"MultiPolygon","coordinates":[[[[2.1791072,48.5608262],[2.1794281,48.5610397],[2.1794511,48.5612199],[2.1796515,48.5613023],[2.1798732,48.5615311],[2.1799834,48.5617351],[2.1799037,48.5619031],[2.180123,48.5620446],[2.180127,48.5621641],[2.1803756,48.5623578],[2.1809122,48.5626697],[2.1811655,48.5630559],[2.1811681,48.5632836],[2.1813152,48.5634323],[2.1814706,48.5637999],[2.1816711,48.5639316],[2.1817352,48.5640184],[2.1817325,48.5641583],[2.1780832,48.564213],[2.1779118,48.5629619],[2.1777195,48.5620811],[2.1776296,48.5618442],[2.177548,48.5617899],[2.1771721,48.5617027],[2.177021,48.5616298],[2.1766216,48.5613371],[2.1761008,48.5611323],[2.1757141,48.5606699],[2.1770768,48.560176],[2.1770517,48.5601517],[2.1776883,48.5599315],[2.1784948,48.5595996],[2.1777096,48.5588372],[2.1782533,48.558472],[2.1784178,48.5586971],[2.1789479,48.5591609],[2.179763,48.5600061],[2.1796982,48.5601629],[2.1792543,48.5603104],[2.1790934,48.5604302],[2.1790422,48.5606518],[2.1791072,48.5608262]]]]},"properties":{"code_section":"91106000AA","code_commune":"91106","section_courte":"AA"}},{"type":"Feature","geometry":{"type":"MultiPolygon","coordinates":[[[[2.1698895,48.5631686],[2.1705371,48.5623018],[2.17126,48.5625267],[2.1712353,48.5625646],[2.171291,48.5625374],[2.1714022,48.5625795],[2.171472,48.5625617],[2.1717945,48.5622746],[2.1719122,48.5623365],[2.171724,48.5625174],[2.1718709,48.5626007],[2.1719202,48.5625585],[2.1721382,48.5627256],[2.1726582,48.5629122],[2.1732073,48.5628827],[2.1735285,48.5629263],[2.1735508,48.562876],[2.1738842,48.5626266],[2.1742921,48.5625022],[2.1742575,48.562435],[2.1754484,48.5625088],[2.1753206,48.5614825],[2.1759574,48.561319],[2.175912,48.561216],[2.1761008,48.5611323],[2.1766216,48.5613371],[2.177021,48.5616298],[2.1771721,48.5617027],[2.177548,48.5617899],[2.1776296,48.5618442],[2.1777195,48.5620811],[2.1779118,48.5629619],[2.1780847,48.564223],[2.1752283,48.564369],[2.1743991,48.5642968],[2.1727916,48.5639714],[2.1725835,48.5639596],[2.1724275,48.5640213],[2.1721287,48.5638628],[2.1718602,48.5638257],[2.1709217,48.5634896],[2.1698409,48.5632292],[2.1698895,48.5631686]]]]},"properties":{"code_section":"91106000AB","code_commune":"91106","section_courte":"AB"}},{"type":"Feature","geometry":{"type":"MultiPolygon","coordinates":[[[[2.1647963,48.5601686],[2.1658512,48.5611586],[2.1668756,48.5619051],[2.1664115,48.5621212],[2.1663395,48.562095],[2.1661214,48.5622367],[2.1659797,48.5624198],[2.1658015,48.562491],[2.1652323,48.5625877],[2.164025,48.5628563],[2.1634091,48.5628234],[2.1623587,48.562226],[2.1577889,48.5597619],[2.1580579,48.5593728],[2.1582728,48.5589045],[2.1582008,48.5587093],[2.1581826,48.5584964],[2.1583034,48.5583666],[2.1586105,48.5581932],[2.159155,48.5584079],[2.1597699,48.5585631],[2.1611942,48.5587944],[2.1622697,48.5589298],[2.1627123,48.5589546],[2.1632365,48.5591589],[2.1636074,48.5592638],[2.1638327,48.5594058],[2.1647608,48.5601692],[2.1647963,48.5601686]]]]},"properties":{"code_section":"91106000AC","code_commune":"91106","section_courte":"AC"}},{"type":"Feature","geometry":{"type":"MultiPolygon","coordinates":[[[[2.1585787,48.5582112],[2.1583034,48.5583666],[2.1581826,48.5584964],[2.1582008,48.5587093],[2.1582728,48.5589045],[2.1580579,48.5593728],[2.157789,48.5597619],[2.1575525,48.5596442],[2.1569184,48.5597293],[2.1559709,48.5597216],[2.1555492,48.5596838],[2.1535211,48.5594325],[2.152565,48.559262],[2.1532345,48.5586648],[2.1533809,48.5584699],[2.1538267,48.5582078],[2.1541431,48.5580852],[2.1543088,48.5580799],[2.1545545,48.558119],[2.1547474,48.5578968],[2.1551883,48.557759],[2.1553795,48.557618],[2.1556584,48.5572217],[2.1566898,48.5574928],[2.1572644,48.5575632],[2.1586105,48.5581932],[2.1585787,48.5582112]]]]},"properties":{"code_section":"91106000AD","code_commune":"91106","section_courte":"AD"}},{"type":"Feature","geometry":{"type":"MultiPolygon","coordinates":[[[[2.1545545,48.558119],[2.1542229,48.5580743],[2.153997,48.5581295],[2.1538267,48.5582078],[2.1533809,48.5584699],[2.1532345,48.5586648],[2.152565,48.559262],[2.1520768,48.5593358],[2.1519211,48.5593974],[2.1508688,48.5589055],[2.1468251,48.5571232],[2.1457828,48.5565928],[2.1453538,48.5564394],[2.1443996,48.5562572],[2.1444041,48.5561665],[2.1469931,48.5546991],[2.1475196,48.5535203],[2.1484077,48.5533765],[2.1487768,48.5534002],[2.14916,48.5535078],[2.1500677,48.5540003],[2.1508552,48.5543373],[2.1515653,48.5548727],[2.1518337,48.5550201],[2.154077,48.555686],[2.1550722,48.5558822],[2.1562003,48.5564112],[2.1553795,48.557618],[2.1551883,48.557759],[2.1547474,48.5578968],[2.1545545,48.558119]]]]},"properties":{"code_section":"91106000AE","code_commune":"91106","section_courte":"AE"}},{"type":"Feature","geometry":{"type":"MultiPolygon","coordinates":[[[[2.1564279,48.5638653],[2.1560297,48.5635178],[2.1557498,48.5635366],[2.1544132,48.5637468],[2.1540257,48.5638552],[2.1538805,48.5638656],[2.1538412,48.563927],[2.1533885,48.5639694],[2.1525089,48.5639395],[2.152285,48.5637566],[2.1513117,48.5631265],[2.1506855,48.5627692],[2.1505506,48.5626002],[2.1503214,48.5619955],[2.1501128,48.5609225],[2.1500661,48.5602392],[2.1505504,48.5600623],[2.1520768,48.5593358],[2.152565,48.559262],[2.1535211,48.5594325],[2.1547968,48.5596073],[2.1559709,48.5597216],[2.1563288,48.559991],[2.1563919,48.5600748],[2.1563508,48.5602156],[2.1563752,48.5604538],[2.1569305,48.5607474],[2.1577385,48.5617415],[2.1579571,48.5621375],[2.1579115,48.5629282],[2.1581069,48.5635112],[2.1580542,48.563898],[2.1566337,48.5640453],[2.1564279,48.5638653]]]]},"properties":{"code_section":"91106000AH","code_commune":"91106","section_courte":"AH"}},{"type":"Feature","geometry":{"type":"MultiPolygon","coordinates":[[[[2.15638,48.5597223],[2.1569184,48.5597293],[2.1575525,48.5596442],[2.1623587,48.562226],[2.1634855,48.5628716],[2.1619944,48.5634549],[2.161692,48.5635161],[2.1614052,48.5635284],[2.1604873,48.5637494],[2.1598983,48.5638133],[2.1580542,48.563898],[2.1581137,48.5635927],[2.1579115,48.5629282],[2.1579568,48.5622638],[2.1579226,48.56203],[2.1574573,48.5613765],[2.1569305,48.5607474],[2.1563752,48.5604538],[2.1563508,48.5602156],[2.1563919,48.5600748],[2.1563288,48.559991],[2.1559709,48.5597216],[2.15638,48.5597223]]]]},"properties":{"code_section":"91106000AI","code_commune":"91106","section_courte":"AI"}}]}