{"type":"FeatureCollection","features":[{"type":"Feature","geometry":{"type":"MultiPolygon","coordinates":[[[[2.3005821,48.6260042],[2.2985386,48.6261854],[2.2971349,48.6262601],[2.2924855,48.6261491],[2.2924415,48.6258362],[2.2921821,48.6251656],[2.2923918,48.6247669],[2.2926275,48.6246055],[2.292685,48.6244915],[2.2926483,48.6243921],[2.2923684,48.6240791],[2.2923661,48.6235455],[2.2926417,48.6234047],[2.2929059,48.6233509],[2.2929443,48.6232822],[2.2926359,48.6226904],[2.2923275,48.6223817],[2.2923136,48.6221526],[2.2927616,48.6219353],[2.2927838,48.6218492],[2.2923398,48.6213274],[2.29193,48.6205878],[2.291603,48.6200969],[2.2916191,48.6200202],[2.2917387,48.6199132],[2.2918222,48.6198912],[2.2919466,48.6199239],[2.2916216,48.6188613],[2.2916955,48.6186642],[2.2916432,48.6185314],[2.2915353,48.6184064],[2.2915188,48.6182914],[2.291578,48.618189],[2.2918556,48.6179528],[2.2919808,48.6176119],[2.2919582,48.6174578],[2.2916689,48.6170995],[2.2915411,48.61701],[2.2916032,48.6169744],[2.2919763,48.6170743],[2.2922405,48.6170841],[2.2928442,48.6169763],[2.2934892,48.6175554],[2.2937829,48.6177009],[2.2947049,48.6176072],[2.2950388,48.6176765],[2.2953857,48.617993],[2.2957215,48.6188881],[2.2961319,48.6196441],[2.2963188,48.6199012],[2.2970473,48.6204482],[2.297295,48.6207311],[2.2975644,48.6214259],[2.2976657,48.6216084],[2.2979482,48.6219213],[2.2983573,48.6227195],[2.2984519,48.6226527],[2.2993829,48.6214188],[2.3000732,48.6208848],[2.3010236,48.6198832],[2.3012518,48.6195832],[2.3011483,48.6179101],[2.3011647,48.6176726],[2.3012372,48.6174597],[2.3014586,48.6170928],[2.3021551,48.6164407],[2.3026139,48.6162518],[2.3035029,48.616035],[2.3039065,48.6158465],[2.3041605,48.6155598],[2.3043907,48.6151325],[2.3051017,48.6155868],[2.3076222,48.6148531],[2.3087745,48.6145956],[2.3108771,48.6142374],[2.3144504,48.6132365],[2.3166845,48.612795],[2.3172592,48.6126559],[2.3184513,48.612296],[2.3198077,48.6144331],[2.3205138,48.6154198],[2.3213355,48.6154733],[2.3220763,48.6156309],[2.3228571,48.6160074],[2.329367,48.6195764],[2.3289753,48.6196355],[2.3278881,48.6196493],[2.3267495,48.619704],[2.32597,48.6196507],[2.3256442,48.6196681],[2.3228137,48.6200944],[2.322312,48.620191],[2.3216206,48.6203738],[2.3197859,48.6209039],[2.3180946,48.6214667],[2.316898,48.6218339],[2.3164081,48.6219555],[2.3156397,48.6213597],[2.3151682,48.6209199],[2.3148463,48.62056],[2.3138532,48.6186454],[2.3129952,48.6171757],[2.3114344,48.6175181],[2.3107691,48.6162081],[2.3078469,48.6169282],[2.308133,48.6174764],[2.3080591,48.6175022],[2.3075646,48.6174506],[2.3078583,48.6180486],[2.308129,48.618879],[2.3084174,48.6200919],[2.308501,48.6214689],[2.3084313,48.6226267],[2.3082224,48.6242562],[2.307554,48.6243619],[2.3065699,48.6246074],[2.3052327,48.6250638],[2.3037333,48.6256245],[2.3034407,48.6257062],[2.3022883,48.6257648],[2.3005821,48.6260042]]]]},"properties":{"code_section":"911030000A","code_commune":"91103","section_courte":"A"}},{"type":"Feature","geometry":{"type":"MultiPolygon","coordinates":[[[[2.2775944,48.6145588],[2.277413,48.6143563],[2.2772808,48.6138177],[2.277233,48.6137629],[2.2770021,48.6136414],[2.2763441,48.6133791],[2.2749434,48.6119932],[2.2749512,48.6115332],[2.2749135,48.6114961],[2.2745715,48.6115357],[2.2743552,48.6114895],[2.2743833,48.6112248],[2.2743097,48.6110857],[2.2736839,48.6110979],[2.2735037,48.6110695],[2.2734198,48.6110177],[2.2734122,48.6109385],[2.27357,48.6107504],[2.2734249,48.6105134],[2.2734451,48.6101283],[2.2730881,48.609611],[2.2729963,48.6094249],[2.2729506,48.6090703],[2.2728297,48.6088847],[2.2724965,48.6087078],[2.2719679,48.608262],[2.2717406,48.6081658],[2.2710242,48.6080289],[2.2705982,48.6078607],[2.2694877,48.607571],[2.2692387,48.6074532],[2.2687483,48.6070328],[2.2682729,48.6065408],[2.2682341,48.6065688],[2.2681064,48.6064696],[2.268246,48.6062658],[2.2683557,48.6061987],[2.2712011,48.6048871],[2.2723741,48.6042066],[2.2732593,48.6036262],[2.2737358,48.6034323],[2.2767337,48.6020316],[2.2765652,48.6019671],[2.2797819,48.599613],[2.2811407,48.6000048],[2.2817985,48.6002548],[2.2825164,48.6005827],[2.2830857,48.600974],[2.2842068,48.6015089],[2.2854438,48.6021634],[2.2866624,48.6027406],[2.2868743,48.6028838],[2.2889106,48.604999],[2.2913403,48.6067095],[2.2940848,48.6089554],[2.2946351,48.6092431],[2.2954451,48.60993],[2.2968102,48.6111962],[2.2971052,48.6115893],[2.2987642,48.6129081],[2.2993967,48.6132576],[2.2988352,48.6136171],[2.297761,48.6139103],[2.2972365,48.6141685],[2.2962485,48.6148424],[2.2956583,48.615145],[2.2952391,48.6154714],[2.2948322,48.6160333],[2.2944456,48.616336],[2.2940924,48.6165569],[2.293449,48.6168374],[2.2922405,48.6170841],[2.2919763,48.6170743],[2.2916032,48.6169744],[2.2915411,48.61701],[2.2916689,48.6170995],[2.2919582,48.6174578],[2.2919808,48.6176119],[2.2918556,48.6179528],[2.291578,48.618189],[2.2915188,48.6182914],[2.2915353,48.6184064],[2.2916432,48.6185314],[2.2916955,48.6186642],[2.2916216,48.6188613],[2.2916499,48.618961],[2.2915148,48.6190178],[2.2912649,48.6187158],[2.2902572,48.6182256],[2.2901568,48.618211],[2.2900839,48.6182433],[2.2899501,48.6183906],[2.2893674,48.6185306],[2.2882225,48.6185748],[2.2881561,48.6185115],[2.2883438,48.6181671],[2.2883269,48.6181256],[2.2876978,48.6179943],[2.2876553,48.6180061],[2.2876606,48.6180526],[2.2877297,48.618229],[2.2876587,48.6182664],[2.2874044,48.6181873],[2.2873201,48.6180016],[2.2869584,48.6179647],[2.2864708,48.6181989],[2.286401,48.6181939],[2.2860089,48.6179577],[2.2858346,48.6179068],[2.2857534,48.6180664],[2.2856501,48.6180998],[2.2853783,48.6178767],[2.2851152,48.617886],[2.2850576,48.6178638],[2.2850181,48.617724],[2.2846752,48.6176408],[2.2844242,48.6175131],[2.2843745,48.6172872],[2.2843074,48.6172846],[2.2842415,48.6174713],[2.2838412,48.6174433],[2.2827842,48.6175111],[2.2819145,48.6173656],[2.2818993,48.6172262],[2.2828891,48.6172853],[2.2830716,48.6172478],[2.2834581,48.6168551],[2.2837029,48.6167136],[2.2788592,48.615015],[2.2780756,48.6145878],[2.277808,48.614652],[2.2775944,48.6145588]]]]},"properties":{"code_section":"911030000C","code_commune":"91103","section_courte":"C"}},{"type":"Feature","geometry":{"type":"MultiPolygon","coordinates":[[[[2.31321,48.5942427],[2.3130432,48.5963214],[2.312999,48.5963098],[2.3129599,48.5968117],[2.3105637,48.5935742],[2.3106043,48.5935593],[2.30942,48.5919563],[2.30845,48.5903436],[2.3080563,48.5895376],[2.3079615,48.5892424],[2.3084071,48.5891987],[2.3110589,48.5884092],[2.3129881,48.5881074],[2.3135663,48.5879718],[2.3142988,48.5877605],[2.315883,48.5871854],[2.3158872,48.5877027],[2.3159798,48.5882451],[2.3156393,48.589749],[2.3155375,48.5899745],[2.3147852,48.5912013],[2.3143083,48.5914751],[2.3140298,48.5917749],[2.3136528,48.5926346],[2.3133717,48.593111],[2.3133166,48.5932706],[2.3131991,48.5939915],[2.31321,48.5942427]]]]},"properties":{"code_section":"911030000D","code_commune":"91103","section_courte":"D"}},{"type":"Feature","geometry":{"type":"MultiPolygon","coordinates":[[[[2.3220307,48.5859261],[2.3226473,48.5869352],[2.3217999,48.5871525],[2.3225756,48.5885501],[2.3219942,48.5887148],[2.3226109,48.5896359],[2.3238335,48.5892717],[2.3251711,48.5910917],[2.3255338,48.5909584],[2.3258186,48.5912171],[2.3258276,48.5914847],[2.3257605,48.5917612],[2.3253095,48.5920602],[2.3251101,48.5922371],[2.3260062,48.5931921],[2.3264552,48.5930455],[2.3285272,48.5953244],[2.3285835,48.5953005],[2.329197,48.5959961],[2.3284024,48.5962942],[2.329509,48.5973175],[2.3299804,48.5978017],[2.3280393,48.5987559],[2.3277936,48.5985889],[2.3272293,48.5988696],[2.3269655,48.5990499],[2.3260066,48.6000781],[2.3260707,48.6001135],[2.3256615,48.6006155],[2.325927,48.6007688],[2.3256343,48.6019299],[2.3254636,48.6021693],[2.3249303,48.602527],[2.3249622,48.6026486],[2.3245246,48.6029699],[2.3239127,48.6035055],[2.3235019,48.6036851],[2.3232311,48.6036863],[2.3229371,48.6037276],[2.3227801,48.6037824],[2.322802,48.6039378],[2.3236127,48.6037443],[2.3239373,48.6040609],[2.3237959,48.6041198],[2.3240288,48.6045351],[2.3242645,48.6048226],[2.3245056,48.6049557],[2.3249474,48.605732],[2.3250649,48.6060315],[2.324609,48.6060787],[2.3217256,48.6048406],[2.3216083,48.6047585],[2.3206562,48.6045773],[2.3198547,48.6038893],[2.3188627,48.6028121],[2.3157631,48.6001242],[2.3133728,48.6015703],[2.3135041,48.6007745],[2.3135107,48.6003059],[2.3134569,48.6000519],[2.3131156,48.5993098],[2.3129893,48.59881],[2.3129822,48.5980116],[2.3129204,48.5979525],[2.3129319,48.5971978],[2.312999,48.5963098],[2.3130432,48.5963214],[2.31321,48.5942427],[2.3131991,48.5939915],[2.3133166,48.5932706],[2.3133717,48.593111],[2.3136528,48.5926346],[2.3140298,48.5917749],[2.3143083,48.5914751],[2.3147852,48.5912013],[2.3155375,48.5899745],[2.3156393,48.589749],[2.3159798,48.5882451],[2.3158872,48.5877027],[2.315883,48.5871854],[2.3186151,48.5865132],[2.3217033,48.585334],[2.3220307,48.5859261]]]]},"properties":{"code_section":"911030000E","code_commune":"91103","section_courte":"E"}},{"type":"Feature","geometry":{"type":"MultiPolygon","coordinates":[[[[2.2989307,48.5806332],[2.2988295,48.5806278],[2.2989726,48.5791964],[2.2988451,48.5787558],[2.2985998,48.5784378],[2.2993841,48.5780151],[2.2999567,48.5777988],[2.3008793,48.5775702],[2.3014089,48.577477],[2.3044132,48.5771581],[2.3054333,48.576842],[2.3078913,48.5762167],[2.3088762,48.576541],[2.3130313,48.5756528],[2.3148888,48.5788605],[2.3149445,48.5801888],[2.3152604,48.5815318],[2.3154634,48.5831054],[2.3159026,48.585013],[2.315883,48.5871854],[2.3142988,48.5877605],[2.3135663,48.5879718],[2.3129881,48.5881074],[2.3110589,48.5884092],[2.3084071,48.5891987],[2.3077286,48.5892896],[2.3073202,48.5883626],[2.3071501,48.5881023],[2.3065196,48.5877536],[2.3064569,48.5876883],[2.3064176,48.5875918],[2.3065963,48.5872553],[2.3066415,48.5868591],[2.3064943,48.586467],[2.3048945,48.5828543],[2.3044967,48.5821852],[2.303823,48.5813448],[2.3021945,48.581686],[2.3017453,48.581643],[2.3012591,48.58174],[2.3005495,48.5818035],[2.2993761,48.5803842],[2.2989307,48.5806332]]]]},"properties":{"code_section":"911030000F","code_commune":"91103","section_courte":"F"}},{"type":"Feature","geometry":{"type":"MultiPolygon","coordinates":[[[[2.3114344,48.6175181],[2.3129952,48.6171757],[2.3138532,48.6186454],[2.3148463,48.62056],[2.3151682,48.6209199],[2.3156397,48.6213597],[2.3164265,48.6219703],[2.3144518,48.6224135],[2.3129011,48.6228368],[2.3120498,48.6231161],[2.3116565,48.6232751],[2.3112598,48.6234801],[2.3103133,48.6237966],[2.3091288,48.6241433],[2.3082294,48.6243282],[2.3084313,48.6226267],[2.308501,48.6214689],[2.3084174,48.6200919],[2.308129,48.618879],[2.3078583,48.6180486],[2.3075646,48.6174506],[2.3080591,48.6175022],[2.308133,48.6174764],[2.3078469,48.6169282],[2.3107691,48.6162081],[2.3114344,48.6175181]]]]},"properties":{"code_section":"91103000AB","code_commune":"91103","section_courte":"AB"}},{"type":"Feature","geometry":{"type":"MultiPolygon","coordinates":[[[[2.3049583,48.6117656],[2.3049033,48.6116372],[2.3049797,48.6115302],[2.3048847,48.6111744],[2.3049019,48.6111189],[2.3044495,48.6102462],[2.3038111,48.6093591],[2.3043831,48.6094589],[2.3048835,48.6094177],[2.3050217,48.6094323],[2.3053744,48.6096036],[2.3056789,48.6097066],[2.3073076,48.6096726],[2.3078253,48.6095215],[2.30883,48.6090238],[2.3125041,48.6087336],[2.312644,48.6090007],[2.312701,48.6092853],[2.312685,48.6103721],[2.3127643,48.6105928],[2.3134554,48.6117828],[2.3142442,48.612588],[2.3144232,48.6129141],[2.3145271,48.6132214],[2.3108771,48.6142374],[2.3087745,48.6145956],[2.3076222,48.6148531],[2.306374,48.6152064],[2.3053987,48.6135987],[2.305036,48.6137989],[2.3047678,48.6133373],[2.3045007,48.6127419],[2.3044326,48.6125506],[2.3044867,48.6125462],[2.3045866,48.612353],[2.3047355,48.6123178],[2.3046899,48.612271],[2.3047433,48.6122405],[2.304569,48.6120846],[2.3049583,48.6117656]]]]},"properties":{"code_section":"91103000AC","code_commune":"91103","section_courte":"AC"}},{"type":"Feature","geometry":{"type":"MultiPolygon","coordinates":[[[[2.3103471,48.6088976],[2.30883,48.6090238],[2.3078253,48.6095215],[2.3073076,48.6096726],[2.3056789,48.6097066],[2.3053744,48.6096036],[2.3050217,48.6094323],[2.3048835,48.6094177],[2.3043831,48.6094589],[2.3039317,48.6093838],[2.3036011,48.6090243],[2.303414,48.6086722],[2.3034339,48.6084487],[2.3038834,48.6078642],[2.3039033,48.6075254],[2.3037863,48.6072145],[2.3046446,48.6054142],[2.3055721,48.6049524],[2.3059176,48.6031504],[2.3059544,48.6026165],[2.3072873,48.6026132],[2.3079243,48.6026518],[2.3085479,48.6027318],[2.309758,48.6030971],[2.3110582,48.6037219],[2.3133019,48.6050672],[2.3127925,48.6065211],[2.3124075,48.6077963],[2.312279,48.6083746],[2.312319,48.6087512],[2.3103471,48.6088976]]]]},"properties":{"code_section":"91103000AD","code_commune":"91103","section_courte":"AD"}},{"type":"Feature","geometry":{"type":"MultiPolygon","coordinates":[[[[2.3041404,48.6064795],[2.3037863,48.6072145],[2.3039033,48.6075254],[2.3038834,48.6078642],[2.3034339,48.6084487],[2.303414,48.6086722],[2.3027819,48.6088405],[2.3016891,48.6093656],[2.3015476,48.6093023],[2.3004821,48.6086115],[2.2994858,48.607435],[2.2992188,48.60719],[2.3006264,48.6063253],[2.2997899,48.6047538],[2.2985869,48.6012416],[2.2980483,48.6004535],[2.2981063,48.6003952],[2.2989121,48.6001937],[2.2991514,48.6002063],[2.2993931,48.6002861],[2.2994633,48.6002737],[2.3003292,48.6016859],[2.3008247,48.6016547],[2.3014751,48.601571],[2.3024671,48.6013166],[2.3047938,48.6005708],[2.3056094,48.6018336],[2.3058844,48.6023598],[2.3059544,48.6026165],[2.3059176,48.6031504],[2.3055721,48.6049524],[2.3046446,48.6054142],[2.3041404,48.6064795]]]]},"properties":{"code_section":"91103000AE","code_commune":"91103","section_courte":"AE"}},{"type":"Feature","geometry":{"type":"MultiPolygon","coordinates":[[[[2.3036101,48.5955762],[2.303991,48.5962905],[2.3041847,48.5970507],[2.3041965,48.5989751],[2.3042376,48.5993765],[2.3044685,48.6000244],[2.3047938,48.6005708],[2.3024671,48.6013166],[2.3014751,48.601571],[2.3008247,48.6016547],[2.3003292,48.6016859],[2.2994589,48.6002745],[2.2992262,48.5998249],[2.2990328,48.599321],[2.2989891,48.5981951],[2.2988759,48.597638],[2.2987271,48.5972565],[2.2983393,48.5965199],[2.3004335,48.595986],[2.3007686,48.5964292],[2.3036101,48.5955762]]]]},"properties":{"code_section":"91103000AH","code_commune":"91103","section_courte":"AH"}},{"type":"Feature","geometry":{"type":"MultiPolygon","coordinates":[[[[2.2919077,48.5867753],[2.2922367,48.586681],[2.2925575,48.5871754],[2.2930516,48.587769],[2.2939141,48.5886853],[2.2946749,48.5900966],[2.2949278,48.5911038],[2.2948093,48.5911273],[2.295056,48.591477],[2.2951136,48.5916994],[2.2957446,48.5929335],[2.2962129,48.5937498],[2.2964253,48.5940423],[2.2966225,48.5941892],[2.2966913,48.5941933],[2.2972817,48.5950186],[2.2978375,48.5957052],[2.2984602,48.5967187],[2.2988759,48.597638],[2.2989891,48.5981951],[2.2990328,48.599321],[2.2992262,48.5998249],[2.2994589,48.6002745],[2.2993931,48.6002861],[2.2991514,48.6002063],[2.2989121,48.6001937],[2.2981063,48.6003952],[2.2948667,48.5975885],[2.2928882,48.5968219],[2.2929159,48.5966987],[2.2928414,48.5966839],[2.2928164,48.5967352],[2.2927197,48.5967669],[2.2923465,48.596676],[2.286868,48.5963295],[2.287568,48.5960991],[2.2872711,48.5957521],[2.2876448,48.5955448],[2.2873908,48.5951665],[2.2875752,48.5950059],[2.2896955,48.5944505],[2.2913534,48.5939044],[2.2903275,48.592242],[2.290473,48.592196],[2.2894289,48.5904497],[2.2887082,48.5906578],[2.2886063,48.5905748],[2.2870409,48.5880549],[2.2919077,48.5867753]]]]},"properties":{"code_section":"91103000AI","code_commune":"91103","section_courte":"AI"}},{"type":"Feature","geometry":{"type":"MultiPolygon","coordinates":[[[[2.2932767,48.5969736],[2.2948667,48.5975885],[2.2981063,48.6003952],[2.2980483,48.6004535],[2.2985869,48.6012416],[2.299553,48.6040719],[2.299417,48.604097],[2.2989356,48.6038196],[2.2984863,48.6036084],[2.2976289,48.6033688],[2.2971922,48.6031966],[2.2951452,48.6023012],[2.2945176,48.6019724],[2.2942065,48.6017684],[2.2932418,48.6021515],[2.2927662,48.6021998],[2.2919509,48.6021596],[2.2917975,48.6021788],[2.2914762,48.601919],[2.2912897,48.6019261],[2.289666,48.6014451],[2.2900082,48.6003221],[2.2878905,48.5999478],[2.2879733,48.5990317],[2.2883819,48.5981882],[2.2883726,48.5980917],[2.2901419,48.5971665],[2.290311,48.5973125],[2.2906387,48.597334],[2.2911298,48.5976526],[2.2919703,48.5971124],[2.2924032,48.5967096],[2.2927547,48.5968165],[2.2928414,48.5966839],[2.2929159,48.5966987],[2.2928882,48.5968219],[2.2932767,48.5969736]]]]},"properties":{"code_section":"91103000AK","code_commune":"91103","section_courte":"AK"}},{"type":"Feature","geometry":{"type":"MultiPolygon","coordinates":[[[[2.306374,48.6152064],[2.3051017,48.6155868],[2.3028638,48.6140868],[2.3023848,48.6141343],[2.3022787,48.6141122],[2.3018095,48.6144337],[2.3010434,48.6140606],[2.2998909,48.6133815],[2.2993967,48.6132576],[2.2987642,48.6129081],[2.2971052,48.6115893],[2.2968102,48.6111962],[2.2949948,48.6095286],[2.2967081,48.6087539],[2.2992188,48.60719],[2.2994858,48.607435],[2.3004821,48.6086115],[2.3015476,48.6093023],[2.3016891,48.6093656],[2.3027819,48.6088405],[2.303414,48.6086722],[2.3036011,48.6090243],[2.3039317,48.6093838],[2.3038111,48.6093591],[2.3044495,48.6102462],[2.3049019,48.6111189],[2.3048847,48.6111744],[2.3049797,48.6115302],[2.3049033,48.6116372],[2.3049583,48.6117656],[2.304569,48.6120846],[2.3047433,48.6122405],[2.30469,48.6122709],[2.3047355,48.6123178],[2.3045866,48.612353],[2.3044867,48.6125462],[2.3044326,48.6125506],[2.3047678,48.6133373],[2.305036,48.6137989],[2.3053987,48.6135987],[2.306374,48.6152064]]]]},"properties":{"code_section":"91103000AM","code_commune":"91103","section_courte":"AM"}},{"type":"Feature","geometry":{"type":"MultiPolygon","coordinates":[[[[2.2996329,48.6133024],[2.2998909,48.6133815],[2.3000988,48.6134868],[2.3010434,48.6140606],[2.3018095,48.6144337],[2.3022787,48.6141122],[2.3023848,48.6141343],[2.3028638,48.6140868],[2.3043907,48.6151325],[2.3041605,48.6155598],[2.3039065,48.6158465],[2.3035029,48.616035],[2.3026139,48.6162518],[2.3021551,48.6164407],[2.3014586,48.6170928],[2.3012372,48.6174597],[2.3011647,48.6176726],[2.3011483,48.6179101],[2.3012518,48.6195832],[2.3010236,48.6198832],[2.3000732,48.6208848],[2.2993829,48.6214188],[2.2984519,48.6226527],[2.2983573,48.6227195],[2.2979482,48.6219213],[2.2976657,48.6216084],[2.2975644,48.6214259],[2.297295,48.6207311],[2.2970473,48.6204482],[2.2963188,48.6199012],[2.2961319,48.6196441],[2.2957215,48.6188881],[2.2953857,48.617993],[2.2950388,48.6176765],[2.2949133,48.6176357],[2.2947049,48.6176072],[2.2937829,48.6177009],[2.2934892,48.6175554],[2.2928442,48.6169763],[2.293449,48.6168374],[2.2940924,48.6165569],[2.2944456,48.616336],[2.2948322,48.6160333],[2.2952391,48.6154714],[2.2956583,48.615145],[2.2962485,48.6148424],[2.2972365,48.6141685],[2.297761,48.6139103],[2.2988352,48.6136171],[2.2993967,48.6132576],[2.2996329,48.6133024]]]]},"properties":{"code_section":"91103000AN","code_commune":"91103","section_courte":"AN"}},{"type":"Feature","geometry":{"type":"MultiPolygon","coordinates":[[[[2.3166845,48.612795],[2.3145271,48.6132214],[2.3144232,48.6129141],[2.3142442,48.612588],[2.3134554,48.6117828],[2.3127643,48.6105928],[2.312685,48.6103721],[2.312701,48.6092853],[2.312644,48.6090007],[2.3125041,48.6087336],[2.315452,48.6084339],[2.3164591,48.608555],[2.3200268,48.6091652],[2.3202602,48.6094418],[2.318791,48.6100111],[2.3200959,48.6117085],[2.3189894,48.6121286],[2.3172592,48.6126559],[2.3166845,48.612795]]]]},"properties":{"code_section":"91103000AO","code_commune":"91103","section_courte":"AO"}},{"type":"Feature","geometry":{"type":"MultiPolygon","coordinates":[[[[2.3188576,48.6087726],[2.319146,48.6090095],[2.3164591,48.608555],[2.315452,48.6084339],[2.312319,48.6087512],[2.312279,48.6083746],[2.3124075,48.6077963],[2.3127925,48.6065211],[2.3133019,48.6050672],[2.3134139,48.6051813],[2.3133516,48.6052155],[2.3147394,48.6060796],[2.3147302,48.6059837],[2.3159153,48.6067117],[2.3158206,48.6067583],[2.3167437,48.6073467],[2.3167882,48.6073013],[2.3188576,48.6087726]]]]},"properties":{"code_section":"91103000AP","code_commune":"91103","section_courte":"AP"}},{"type":"Feature","geometry":{"type":"MultiPolygon","coordinates":[[[[2.3123648,48.6045268],[2.3110582,48.6037219],[2.309758,48.6030971],[2.3085479,48.6027318],[2.3079243,48.6026518],[2.3069167,48.6026141],[2.3096348,48.6007106],[2.3101722,48.6003772],[2.3129896,48.5987938],[2.3131156,48.5993098],[2.3134569,48.6000519],[2.3135107,48.6003059],[2.3134576,48.6011995],[2.313298,48.6018987],[2.3131804,48.6027453],[2.3133019,48.6050672],[2.3123648,48.6045268]]]]},"properties":{"code_section":"91103000AR","code_commune":"91103","section_courte":"AR"}},{"type":"Feature","geometry":{"type":"MultiPolygon","coordinates":[[[[2.2858036,48.5973318],[2.2857377,48.597144],[2.2856132,48.5969908],[2.2856785,48.5967025],[2.2868596,48.5963282],[2.2922153,48.5966664],[2.2927782,48.5967603],[2.2927547,48.5968165],[2.2924032,48.5967096],[2.2919703,48.5971124],[2.2911298,48.5976526],[2.2906387,48.597334],[2.290311,48.5973125],[2.2901419,48.5971665],[2.2883726,48.5980917],[2.2883819,48.5981882],[2.2879733,48.5990317],[2.2878905,48.5999477],[2.2875271,48.5998924],[2.2869262,48.5997272],[2.2855194,48.599247],[2.2844445,48.599004],[2.2839933,48.5988697],[2.2836242,48.5986789],[2.2824853,48.5979344],[2.2823719,48.5967635],[2.2848695,48.597002],[2.285359,48.5971189],[2.2858036,48.5973318]]]]},"properties":{"code_section":"91103000AS","code_commune":"91103","section_courte":"AS"}},{"type":"Feature","geometry":{"type":"MultiPolygon","coordinates":[[[[2.3202078,48.6090919],[2.3200268,48.6091652],[2.319146,48.6090095],[2.3176343,48.6078883],[2.3167882,48.6073013],[2.3167437,48.6073467],[2.316525,48.6071895],[2.3173864,48.6066165],[2.3176704,48.6061371],[2.3180067,48.6060148],[2.3181525,48.6058225],[2.3190109,48.6055683],[2.3205567,48.6050021],[2.3216083,48.6047585],[2.3217256,48.6048406],[2.324609,48.6060787],[2.3250649,48.6060315],[2.3249279,48.6063842],[2.3236283,48.6072339],[2.3234226,48.6070282],[2.3202078,48.6090919]]]]},"properties":{"code_section":"91103000AT","code_commune":"91103","section_courte":"AT"}},{"type":"Feature","geometry":{"type":"MultiPolygon","coordinates":[[[[2.3134848,48.6052977],[2.3133516,48.6052155],[2.3134139,48.6051813],[2.3133019,48.6050672],[2.3131804,48.6027453],[2.3133728,48.6015703],[2.3157631,48.6001242],[2.3188627,48.6028121],[2.3198547,48.6038893],[2.3206562,48.6045773],[2.3216083,48.6047585],[2.3205567,48.6050021],[2.3190109,48.6055683],[2.3181771,48.6058085],[2.3180067,48.6060148],[2.3176704,48.6061371],[2.3173864,48.6066165],[2.316525,48.6071895],[2.3158206,48.6067583],[2.3159153,48.6067117],[2.3147302,48.6059837],[2.3147394,48.6060796],[2.3134848,48.6052977]]]]},"properties":{"code_section":"91103000AV","code_commune":"91103","section_courte":"AV"}},{"type":"Feature","geometry":{"type":"MultiPolygon","coordinates":[[[[2.282475,48.5979394],[2.2836242,48.5986789],[2.2839933,48.5988697],[2.2844445,48.599004],[2.2855194,48.599247],[2.2869262,48.5997272],[2.2875271,48.5998924],[2.2900082,48.6003221],[2.289666,48.6014451],[2.2912897,48.6019261],[2.2914762,48.601919],[2.2917975,48.6021788],[2.2908961,48.6023104],[2.2901373,48.6023156],[2.2888235,48.6023994],[2.2868799,48.6026575],[2.2866624,48.6027406],[2.2854438,48.6021634],[2.2842068,48.6015089],[2.2830857,48.600974],[2.2825164,48.6005827],[2.2817985,48.6002548],[2.2811407,48.6000048],[2.2797819,48.599613],[2.2822506,48.5978786],[2.2824131,48.5979541],[2.282475,48.5979394]]]]},"properties":{"code_section":"91103000AW","code_commune":"91103","section_courte":"AW"}},{"type":"Feature","geometry":{"type":"MultiPolygon","coordinates":[[[[2.3105637,48.5935742],[2.3129599,48.5968117],[2.3129204,48.5979525],[2.3129822,48.5980116],[2.3129896,48.5987938],[2.3101722,48.6003772],[2.3096348,48.6007106],[2.3069167,48.6026141],[2.3059544,48.6026165],[2.3058844,48.6023598],[2.3056094,48.6018336],[2.3044685,48.6000244],[2.3042861,48.5995436],[2.3042083,48.5992249],[2.3041965,48.5989751],[2.3041847,48.5970507],[2.303991,48.5962905],[2.3036101,48.5955762],[2.3078817,48.5942937],[2.3079493,48.5944114],[2.3088023,48.5941664],[2.3105637,48.5935742]]]]},"properties":{"code_section":"91103000BA","code_commune":"91103","section_courte":"BA"}},{"type":"Feature","geometry":{"type":"MultiPolygon","coordinates":[[[[2.3099442,48.5937889],[2.3088023,48.5941664],[2.3079493,48.5944114],[2.3078817,48.5942937],[2.3007686,48.5964292],[2.3004335,48.595986],[2.2983393,48.5965199],[2.2978375,48.5957052],[2.2972817,48.5950186],[2.2966913,48.5941933],[2.2989416,48.5906216],[2.3000685,48.5906093],[2.3009886,48.5905651],[2.3018602,48.5904639],[2.3043726,48.589846],[2.3058646,48.5896738],[2.3079615,48.5892424],[2.3080563,48.5895376],[2.3087509,48.5908755],[2.30942,48.5919563],[2.3106043,48.5935593],[2.3099442,48.5937889]]]]},"properties":{"code_section":"91103000BB","code_commune":"91103","section_courte":"BB"}},{"type":"Feature","geometry":{"type":"MultiPolygon","coordinates":[[[[2.2903605,48.5810286],[2.2905438,48.580997],[2.2905574,48.5810383],[2.2921931,48.5805873],[2.2941289,48.5798373],[2.295833,48.579238],[2.2976596,48.5787722],[2.2985998,48.5784378],[2.2988451,48.5787558],[2.2989726,48.5791964],[2.2988295,48.5806278],[2.2989307,48.5806332],[2.2993761,48.5803842],[2.3005495,48.5818035],[2.3012591,48.58174],[2.3017453,48.581643],[2.3021945,48.581686],[2.303823,48.5813448],[2.3040099,48.5815445],[2.3044967,48.5821852],[2.3048945,48.5828543],[2.3064943,48.586467],[2.3066415,48.5868591],[2.3065963,48.5872553],[2.3064176,48.5875918],[2.3064569,48.5876883],[2.3065196,48.5877536],[2.3071501,48.5881023],[2.3073202,48.5883626],[2.3077286,48.5892896],[2.3058646,48.5896738],[2.3043726,48.589846],[2.3018602,48.5904639],[2.3009886,48.5905651],[2.3000685,48.5906093],[2.2989416,48.5906216],[2.2969843,48.5937453],[2.2966913,48.5941933],[2.2966225,48.5941892],[2.2964253,48.5940423],[2.2962129,48.5937498],[2.2957446,48.5929335],[2.2951136,48.5916994],[2.295056,48.591477],[2.2948093,48.5911273],[2.2949278,48.5911038],[2.2946749,48.5900966],[2.2939141,48.5886853],[2.2930516,48.587769],[2.2925575,48.5871754],[2.2922367,48.586681],[2.2922844,48.5866674],[2.2922686,48.5866381],[2.2916097,48.585866],[2.2919617,48.5857121],[2.2916788,48.5854334],[2.2916283,48.5851873],[2.2904437,48.5839575],[2.2912244,48.5836926],[2.2906502,48.5827213],[2.289633,48.5811987],[2.2903605,48.5810286]]]]},"properties":{"code_section":"91103000BC","code_commune":"91103","section_courte":"BC"}},{"type":"Feature","geometry":{"type":"MultiPolygon","coordinates":[[[[2.2868743,48.6028838],[2.2866624,48.6027406],[2.2868799,48.6026575],[2.2888235,48.6023994],[2.2901373,48.6023156],[2.2908961,48.6023104],[2.2919509,48.6021596],[2.2930082,48.6021894],[2.2932418,48.6021515],[2.2942065,48.6017684],[2.2945176,48.6019724],[2.2951452,48.6023012],[2.2971922,48.6031966],[2.2976289,48.6033688],[2.2984863,48.6036084],[2.2989356,48.6038196],[2.299417,48.604097],[2.299553,48.6040719],[2.2997899,48.6047538],[2.3006264,48.6063253],[2.2967081,48.6087539],[2.2949948,48.6095286],[2.2946351,48.6092431],[2.2940848,48.6089554],[2.2913403,48.6067095],[2.2889106,48.604999],[2.2868743,48.6028838]]]]},"properties":{"code_section":"91103000BD","code_commune":"91103","section_courte":"BD"}}]}