{"type":"FeatureCollection","features":[{"type":"Feature","geometry":{"type":"MultiPolygon","coordinates":[[[[2.5095764,48.6962708],[2.5094566,48.6963983],[2.5096801,48.696386],[2.5099417,48.6964486],[2.5080501,48.6980344],[2.5080996,48.6980735],[2.5078604,48.6982664],[2.50782,48.6983441],[2.5074877,48.6993198],[2.5070138,48.6992399],[2.5066418,48.6996276],[2.5067255,48.6996748],[2.5065294,48.6998739],[2.5060521,48.7002449],[2.5057325,48.7005749],[2.5049714,48.7002684],[2.5023382,48.6987265],[2.5019906,48.6981725],[2.5018814,48.6980625],[2.5015213,48.6982128],[2.5014662,48.6983266],[2.5013808,48.6983658],[2.5012492,48.698259],[2.5013847,48.6981959],[2.5008691,48.697821],[2.5001363,48.6982384],[2.4993385,48.6976576],[2.4992475,48.6977243],[2.4981274,48.6965595],[2.4982392,48.6964809],[2.4982314,48.6963955],[2.500135,48.6955973],[2.5023984,48.694745],[2.5043778,48.6943583],[2.5078196,48.69423],[2.5090983,48.6939926],[2.509739,48.6939058],[2.5098886,48.694315],[2.5100718,48.6944056],[2.5100475,48.6944963],[2.5101915,48.6947076],[2.5103619,48.6948157],[2.5104801,48.6949649],[2.5107105,48.6950846],[2.5095764,48.6962708]]]]},"properties":{"code_section":"91114000AB","code_commune":"91114","section_courte":"AB"}},{"type":"Feature","geometry":{"type":"MultiPolygon","coordinates":[[[[2.5094483,48.6902897],[2.5096488,48.6917249],[2.5097024,48.6924043],[2.5098514,48.6930871],[2.5098533,48.693666],[2.509739,48.6939058],[2.5090983,48.6939926],[2.5078196,48.69423],[2.5043778,48.6943583],[2.5023984,48.694745],[2.5021633,48.693856],[2.5024015,48.6936763],[2.50251,48.692723],[2.5020028,48.6917788],[2.5014635,48.6913591],[2.5012911,48.6910214],[2.5012846,48.6907903],[2.5014107,48.6904594],[2.5010628,48.6897619],[2.5011497,48.6894536],[2.5012699,48.689315],[2.5015916,48.6890959],[2.503684,48.688591],[2.5039171,48.6884475],[2.5048381,48.6880914],[2.5060816,48.6877607],[2.5098362,48.6897889],[2.5094123,48.6902074],[2.5094483,48.6902897]]]]},"properties":{"code_section":"91114000AC","code_commune":"91114","section_courte":"AC"}},{"type":"Feature","geometry":{"type":"MultiPolygon","coordinates":[[[[2.4991412,48.6770185],[2.507429,48.6815904],[2.5140871,48.6853717],[2.5061325,48.6877478],[2.5048381,48.6880914],[2.5039171,48.6884475],[2.503684,48.688591],[2.5037734,48.6884179],[2.5037232,48.6865429],[2.5027291,48.6833984],[2.4965282,48.6781228],[2.4983879,48.6766042],[2.4991412,48.6770185]]]]},"properties":{"code_section":"91114000AD","code_commune":"91114","section_courte":"AD"}},{"type":"Feature","geometry":{"type":"MultiPolygon","coordinates":[[[[2.4982833,48.6834465],[2.4954224,48.6855995],[2.490652,48.6838497],[2.489906,48.6835227],[2.4965282,48.6781228],[2.5006828,48.6816429],[2.4982833,48.6834465]]]]},"properties":{"code_section":"91114000AE","code_commune":"91114","section_courte":"AE"}},{"type":"Feature","geometry":{"type":"MultiPolygon","coordinates":[[[[2.4972877,48.6841943],[2.5006828,48.6816429],[2.5027291,48.6833984],[2.5037232,48.6865429],[2.5037734,48.6884179],[2.503684,48.688591],[2.5015916,48.6890959],[2.5012699,48.689315],[2.5011497,48.6894536],[2.4993343,48.6893881],[2.498705,48.6895146],[2.4954224,48.6855995],[2.4972877,48.6841943]]]]},"properties":{"code_section":"91114000AH","code_commune":"91114","section_courte":"AH"}},{"type":"Feature","geometry":{"type":"MultiPolygon","coordinates":[[[[2.4980589,48.6896339],[2.4965282,48.6903933],[2.4960203,48.690525],[2.4956257,48.6901408],[2.495021,48.6905357],[2.4942636,48.6911073],[2.4900597,48.6886114],[2.4893147,48.6881199],[2.4889311,48.6872582],[2.4868127,48.6860868],[2.4883829,48.6848181],[2.489906,48.6835227],[2.490652,48.6838497],[2.4954224,48.6855995],[2.498705,48.6895146],[2.4980589,48.6896339]]]]},"properties":{"code_section":"91114000AI","code_commune":"91114","section_courte":"AI"}},{"type":"Feature","geometry":{"type":"MultiPolygon","coordinates":[[[[2.4898626,48.694295],[2.4822577,48.6898259],[2.4868127,48.6860868],[2.4889311,48.6872582],[2.4893147,48.6881199],[2.4900597,48.6886114],[2.4942636,48.6911073],[2.4899865,48.6943648],[2.4898626,48.694295]]]]},"properties":{"code_section":"91114000AK","code_commune":"91114","section_courte":"AK"}},{"type":"Feature","geometry":{"type":"MultiPolygon","coordinates":[[[[2.4942636,48.6911073],[2.495021,48.6905357],[2.4956257,48.6901408],[2.4960203,48.690525],[2.4965282,48.6903933],[2.4980589,48.6896339],[2.4993343,48.6893881],[2.5011497,48.6894536],[2.5010628,48.6897619],[2.5014107,48.6904594],[2.5012846,48.6907903],[2.5012911,48.6910214],[2.5014635,48.6913591],[2.5020028,48.6917788],[2.50251,48.692723],[2.5024015,48.6936763],[2.5021633,48.693856],[2.5023984,48.694745],[2.500135,48.6955973],[2.4982314,48.6963955],[2.4935408,48.6916694],[2.4942636,48.6911073]]]]},"properties":{"code_section":"91114000AL","code_commune":"91114","section_courte":"AL"}},{"type":"Feature","geometry":{"type":"MultiPolygon","coordinates":[[[[2.4896369,48.6946358],[2.4935408,48.6916694],[2.4982314,48.6963955],[2.4982392,48.6964809],[2.4969342,48.6972995],[2.4957684,48.6979347],[2.4942579,48.6989119],[2.4936253,48.6997607],[2.4884325,48.6981758],[2.4876402,48.6980304],[2.4882231,48.6966725],[2.488389,48.6961086],[2.4882676,48.6956725],[2.4896369,48.6946358]]]]},"properties":{"code_section":"91114000AM","code_commune":"91114","section_courte":"AM"}},{"type":"Feature","geometry":{"type":"MultiPolygon","coordinates":[[[[2.4962918,48.699984],[2.4959176,48.7003919],[2.495245,48.7006959],[2.4941122,48.7016261],[2.4938369,48.702191],[2.4939497,48.7026222],[2.4942634,48.7032751],[2.4935433,48.7033442],[2.4934924,48.7031315],[2.4927849,48.703288],[2.4923384,48.7034285],[2.4916095,48.7034364],[2.489846,48.703312],[2.4888771,48.7033285],[2.4874921,48.7035525],[2.4871413,48.70324],[2.4870175,48.7029339],[2.4869332,48.7025179],[2.4867369,48.7012168],[2.4904125,48.698793],[2.4936253,48.6997607],[2.4942579,48.6989119],[2.4957684,48.6979347],[2.4969342,48.6972995],[2.4981274,48.6965595],[2.4992475,48.6977243],[2.4970879,48.6990532],[2.4968866,48.6993535],[2.4967987,48.6995842],[2.4962918,48.699984]]]]},"properties":{"code_section":"91114000AN","code_commune":"91114","section_courte":"AN"}},{"type":"Feature","geometry":{"type":"MultiPolygon","coordinates":[[[[2.4982014,48.7048283],[2.497837,48.7049081],[2.4977644,48.7047193],[2.4972578,48.7046972],[2.4970054,48.7047746],[2.4967037,48.7052162],[2.4963053,48.7053352],[2.4959666,48.7049818],[2.495306,48.7047246],[2.4943593,48.7037683],[2.4942634,48.7032751],[2.4939497,48.7026222],[2.4938369,48.702191],[2.4941122,48.7016261],[2.495245,48.7006959],[2.4959176,48.7003919],[2.4962918,48.699984],[2.4967987,48.6995842],[2.4968866,48.6993535],[2.4970879,48.6990532],[2.4972959,48.698913],[2.4993385,48.6976576],[2.5001363,48.6982384],[2.5008691,48.697821],[2.5013847,48.6981959],[2.5012492,48.698259],[2.5013808,48.6983658],[2.5014662,48.6983266],[2.5015213,48.6982128],[2.5018814,48.6980625],[2.5019906,48.6981725],[2.5023382,48.6987265],[2.5049714,48.7002684],[2.5047928,48.70045],[2.5048403,48.7004672],[2.5036564,48.7015815],[2.5034511,48.701894],[2.5029986,48.7022615],[2.5020229,48.7029647],[2.4996346,48.7043679],[2.4987408,48.7047402],[2.498732,48.7047128],[2.4982014,48.7048283]]]]},"properties":{"code_section":"91114000AO","code_commune":"91114","section_courte":"AO"}},{"type":"Feature","geometry":{"type":"MultiPolygon","coordinates":[[[[2.5001062,48.7072189],[2.499121,48.7070181],[2.4985425,48.7070267],[2.4981933,48.706966],[2.4977959,48.706801],[2.4975829,48.7066724],[2.4973772,48.7064512],[2.4966694,48.7066111],[2.4966191,48.7059362],[2.4965165,48.7056621],[2.4963053,48.7053352],[2.4967037,48.7052162],[2.4970054,48.7047746],[2.4972578,48.7046972],[2.4977644,48.7047193],[2.497837,48.7049081],[2.498732,48.7047128],[2.4987408,48.7047402],[2.4996346,48.7043679],[2.5019797,48.7029931],[2.5029986,48.7022615],[2.5034511,48.701894],[2.5036564,48.7015815],[2.5048403,48.7004672],[2.5047928,48.70045],[2.5049714,48.7002684],[2.5057881,48.7006167],[2.5056654,48.7007746],[2.5069269,48.7017965],[2.5085289,48.7036312],[2.5037897,48.7070752],[2.5008722,48.7073579],[2.5001062,48.7072189]]]]},"properties":{"code_section":"91114000AP","code_commune":"91114","section_courte":"AP"}},{"type":"Feature","geometry":{"type":"MultiPolygon","coordinates":[[[[2.5062756,48.705253],[2.5085289,48.7036312],[2.5096431,48.7045438],[2.5105013,48.7051461],[2.5130101,48.7063577],[2.5160321,48.707358],[2.5163941,48.7074512],[2.5160065,48.7074541],[2.5144103,48.7076407],[2.5128531,48.7079615],[2.5069161,48.7074375],[2.5045838,48.7070577],[2.5037897,48.7070752],[2.5062756,48.705253]]]]},"properties":{"code_section":"91114000AR","code_commune":"91114","section_courte":"AR"}},{"type":"Feature","geometry":{"type":"MultiPolygon","coordinates":[[[[2.5034593,48.709009],[2.5040099,48.7087091],[2.5025636,48.7072034],[2.5037897,48.7070752],[2.5045838,48.7070577],[2.5069161,48.7074375],[2.5128531,48.7079615],[2.5094854,48.7121244],[2.5091045,48.7120004],[2.5089793,48.7117989],[2.5089786,48.7115298],[2.508868,48.7114498],[2.5086999,48.7114612],[2.5085648,48.7115216],[2.5081927,48.7115196],[2.5076048,48.7112636],[2.5072754,48.711171],[2.5063889,48.7110548],[2.506231,48.7112348],[2.5058709,48.7111318],[2.5049365,48.710438],[2.5045421,48.7102083],[2.5041943,48.7100818],[2.503605,48.7099575],[2.5033038,48.7098443],[2.5027295,48.7094066],[2.5034593,48.709009]]]]},"properties":{"code_section":"91114000AS","code_commune":"91114","section_courte":"AS"}},{"type":"Feature","geometry":{"type":"MultiPolygon","coordinates":[[[[2.5186468,48.7082439],[2.5179522,48.7123392],[2.5190054,48.7126067],[2.5189954,48.7127232],[2.5188352,48.7127421],[2.5186978,48.7127108],[2.518525,48.7127469],[2.518442,48.7128046],[2.5184502,48.712846],[2.5182999,48.7129388],[2.5181444,48.7129148],[2.5180147,48.7128317],[2.517643,48.7130782],[2.5136449,48.7120114],[2.5124254,48.7120568],[2.5122699,48.7121216],[2.512083,48.7122844],[2.5117051,48.7124907],[2.5113968,48.7124487],[2.5109445,48.7122893],[2.5105241,48.7120844],[2.5100773,48.712126],[2.5094854,48.7121244],[2.5128531,48.7079615],[2.5144103,48.7076407],[2.5160065,48.7074541],[2.5163941,48.7074512],[2.5174631,48.707616],[2.5187217,48.7078767],[2.5186468,48.7082439]]]]},"properties":{"code_section":"91114000AT","code_commune":"91114","section_courte":"AT"}},{"type":"Feature","geometry":{"type":"MultiPolygon","coordinates":[[[[2.518957,48.7043885],[2.519403,48.7037681],[2.5196363,48.703591],[2.5207889,48.7029387],[2.5216931,48.7027678],[2.5217127,48.7032279],[2.5217708,48.7034392],[2.5221146,48.7040174],[2.5223007,48.7045632],[2.5224126,48.7046738],[2.5225498,48.7047348],[2.5240398,48.705153],[2.5245034,48.7052193],[2.525445,48.7051082],[2.5260343,48.7048009],[2.5264664,48.7047101],[2.5268095,48.7046824],[2.5268427,48.705103],[2.52758,48.7050353],[2.5276723,48.7050617],[2.5280121,48.70499],[2.5282598,48.7051984],[2.5290988,48.7052432],[2.5294591,48.705479],[2.5295211,48.705579],[2.5296029,48.7061668],[2.5290431,48.7062975],[2.5291908,48.7070975],[2.5292968,48.7079844],[2.5280486,48.7079513],[2.5268795,48.7079671],[2.526499,48.708015],[2.5264952,48.7080475],[2.5239578,48.7083219],[2.5227649,48.7083833],[2.5218704,48.7083883],[2.5213433,48.7083582],[2.5208158,48.7082909],[2.5191582,48.7079766],[2.5174631,48.707616],[2.5182416,48.7065134],[2.518946,48.7056283],[2.518242,48.7052067],[2.518957,48.7043885]]]]},"properties":{"code_section":"91114000AV","code_commune":"91114","section_courte":"AV"}},{"type":"Feature","geometry":{"type":"MultiPolygon","coordinates":[[[[2.5185019,48.7049039],[2.518242,48.7052067],[2.518946,48.7056283],[2.5182416,48.7065134],[2.5174631,48.707616],[2.5163941,48.7074512],[2.5160321,48.707358],[2.5130101,48.7063577],[2.5105013,48.7051461],[2.5096431,48.7045438],[2.5085289,48.7036312],[2.5106022,48.7021286],[2.5113239,48.7026023],[2.5126023,48.7005537],[2.5195588,48.7036429],[2.519403,48.7037681],[2.5188842,48.704499],[2.5188546,48.704492],[2.5185019,48.7049039]]]]},"properties":{"code_section":"91114000AW","code_commune":"91114","section_courte":"AW"}},{"type":"Feature","geometry":{"type":"MultiPolygon","coordinates":[[[[2.5146071,48.6990476],[2.5156909,48.6976182],[2.5163824,48.6976866],[2.5168582,48.6978245],[2.5171131,48.6980162],[2.5176821,48.6982862],[2.5180206,48.6985034],[2.5190216,48.6992461],[2.5195007,48.6995227],[2.5215038,48.7009905],[2.5215526,48.7011905],[2.5213562,48.7014479],[2.521538,48.7020787],[2.521674,48.7027714],[2.5207889,48.7029387],[2.5195588,48.7036429],[2.5126023,48.7005537],[2.513352,48.6993386],[2.5141823,48.6996067],[2.5146071,48.6990476]]]]},"properties":{"code_section":"91114000AX","code_commune":"91114","section_courte":"AX"}},{"type":"Feature","geometry":{"type":"MultiPolygon","coordinates":[[[[2.5088272,48.6973949],[2.5099163,48.6964817],[2.5099417,48.6964486],[2.5096801,48.696386],[2.5094566,48.6963983],[2.5106629,48.6951307],[2.5106982,48.6951514],[2.5106912,48.6952715],[2.5109261,48.6954824],[2.5110796,48.6957463],[2.5113734,48.695899],[2.5117899,48.6963303],[2.5120641,48.6965294],[2.5123858,48.6966608],[2.5133239,48.6968999],[2.5138824,48.6969827],[2.5134965,48.697362],[2.5156909,48.6976182],[2.5141823,48.6996067],[2.513352,48.6993386],[2.5113239,48.7026023],[2.5106022,48.7021286],[2.5085289,48.7036312],[2.5069269,48.7017965],[2.5056654,48.7007746],[2.5057881,48.7006167],[2.5057325,48.7005749],[2.5060521,48.7002449],[2.5065294,48.6998739],[2.5067255,48.6996748],[2.5066418,48.6996276],[2.5070138,48.6992399],[2.5074877,48.6993198],[2.5078604,48.6982664],[2.5080996,48.6980735],[2.5080501,48.6980344],[2.5088272,48.6973949]]]]},"properties":{"code_section":"91114000AY","code_commune":"91114","section_courte":"AY"}},{"type":"Feature","geometry":{"type":"MultiPolygon","coordinates":[[[[2.526462,48.708593],[2.5263967,48.7096195],[2.524341,48.7099057],[2.5243192,48.70995],[2.5225456,48.7098834],[2.5219543,48.7112356],[2.5220242,48.7112445],[2.5214706,48.7123044],[2.5205958,48.7121575],[2.5197359,48.7120669],[2.5191227,48.7120514],[2.5185595,48.7120706],[2.5179555,48.7123261],[2.5187217,48.7078767],[2.5208158,48.7082909],[2.5213433,48.7083582],[2.5218704,48.7083883],[2.5227649,48.7083833],[2.5239578,48.7083219],[2.5264488,48.7080376],[2.5264952,48.7080475],[2.526462,48.708593]]]]},"properties":{"code_section":"91114000AZ","code_commune":"91114","section_courte":"AZ"}}]}