{"type":"FeatureCollection","features":[{"type":"Feature","geometry":{"type":"MultiPolygon","coordinates":[[[[2.2747939,48.7121625],[2.2750786,48.7127224],[2.2747906,48.7147816],[2.2742487,48.7161472],[2.2731209,48.7163026],[2.2716586,48.7165548],[2.2697389,48.7171654],[2.2677903,48.7179571],[2.2669168,48.7183607],[2.2666402,48.7176339],[2.2658778,48.7160334],[2.2655009,48.7153482],[2.2651947,48.7149967],[2.265016,48.7148845],[2.2660781,48.7144928],[2.2663167,48.7144997],[2.2664339,48.7144725],[2.2671065,48.7142179],[2.267225,48.7141321],[2.2686078,48.7140858],[2.269394,48.714169],[2.2705442,48.7138878],[2.2705872,48.7139864],[2.2712623,48.71386],[2.2713011,48.713574],[2.2716383,48.7135069],[2.2715903,48.7133661],[2.2720734,48.7131553],[2.2725254,48.7130565],[2.2724648,48.7128277],[2.2747939,48.7121625]]]]},"properties":{"code_section":"911360000A","code_commune":"91136","section_courte":"A"}},{"type":"Feature","geometry":{"type":"MultiPolygon","coordinates":[[[[2.2784695,48.7098923],[2.2809831,48.7113879],[2.2839225,48.7130799],[2.2860796,48.7138803],[2.2845657,48.7142891],[2.2833507,48.7144814],[2.2825046,48.7147228],[2.2807842,48.715115],[2.2783077,48.7155559],[2.2767779,48.7160505],[2.2765058,48.7160814],[2.2742504,48.7161366],[2.2747906,48.7147816],[2.2750786,48.7127224],[2.2747894,48.7121518],[2.2751615,48.7126259],[2.2761383,48.7117774],[2.2775422,48.7107151],[2.2784695,48.7098923]]]]},"properties":{"code_section":"911360000B","code_commune":"91136","section_courte":"B"}},{"type":"Feature","geometry":{"type":"MultiPolygon","coordinates":[[[[2.2931118,48.710088],[2.2936025,48.7102601],[2.2938755,48.7103948],[2.2943016,48.71046],[2.2950708,48.710378],[2.2959167,48.7103438],[2.296173,48.7107995],[2.2937846,48.7112515],[2.294025,48.7119887],[2.2918645,48.712237],[2.2898296,48.7126725],[2.2884771,48.7130521],[2.2860796,48.7138803],[2.2839225,48.7130799],[2.2809831,48.7113879],[2.2784593,48.7098878],[2.2802906,48.7082742],[2.2801309,48.7078488],[2.2811899,48.7076413],[2.2814245,48.7076166],[2.281394,48.7076776],[2.2818706,48.7075532],[2.2836948,48.7073194],[2.2846789,48.7070503],[2.2851935,48.7069969],[2.2866897,48.7069422],[2.288663,48.7065581],[2.2931118,48.710088]]]]},"properties":{"code_section":"911360000C","code_commune":"91136","section_courte":"C"}},{"type":"Feature","geometry":{"type":"MultiPolygon","coordinates":[[[[2.2864681,48.7044639],[2.2864158,48.7044803],[2.2866613,48.7047812],[2.2867215,48.7047549],[2.286665,48.7046533],[2.2867444,48.7046175],[2.2874878,48.7056606],[2.2878881,48.7067139],[2.2866897,48.7069422],[2.2849495,48.707012],[2.2846789,48.7070503],[2.2836948,48.7073194],[2.2818706,48.7075532],[2.281394,48.7076776],[2.2814245,48.7076166],[2.2805792,48.707744],[2.2811604,48.7076083],[2.2821157,48.7069124],[2.2829251,48.7063649],[2.2835352,48.705998],[2.2861364,48.7045848],[2.2864681,48.7044639]]],[[[2.2848013,48.6993687],[2.2853293,48.6992695],[2.2852603,48.7004211],[2.2853364,48.7016663],[2.283711,48.7024752],[2.2833546,48.7025418],[2.2827667,48.7018323],[2.282658,48.7018728],[2.2809005,48.7027842],[2.2804164,48.7031503],[2.2802493,48.7034537],[2.2791826,48.7040494],[2.2791329,48.7040141],[2.2782143,48.704506],[2.2781343,48.7044125],[2.2772669,48.7047932],[2.2769707,48.7043064],[2.2768941,48.7043322],[2.2767159,48.7041131],[2.2759973,48.704385],[2.2757132,48.7040603],[2.275019,48.7034446],[2.2740254,48.7023057],[2.2739311,48.7022653],[2.2735227,48.7017877],[2.2736839,48.7016551],[2.2733027,48.7013385],[2.27354,48.701169],[2.2733288,48.7010416],[2.2732716,48.7009063],[2.2733142,48.7008217],[2.2734515,48.7007222],[2.273592,48.7006937],[2.2737502,48.7007795],[2.2741648,48.7008342],[2.2742577,48.7008205],[2.2742975,48.7007365],[2.2744069,48.7007014],[2.2745966,48.7007465],[2.2746775,48.7008116],[2.2747486,48.7008069],[2.2750107,48.7005913],[2.2754713,48.7005975],[2.2757663,48.700523],[2.2759694,48.7004317],[2.2762738,48.7004122],[2.2774314,48.7000614],[2.277843,48.7000059],[2.2779997,48.6999409],[2.2781745,48.6999186],[2.2783399,48.6997117],[2.2785076,48.6997302],[2.2786212,48.6997904],[2.2788704,48.6998089],[2.2788684,48.6996655],[2.2789302,48.6995411],[2.2791316,48.6994394],[2.2792718,48.6994818],[2.2793136,48.6995846],[2.2793773,48.6996197],[2.2794969,48.6996353],[2.2796094,48.6996888],[2.280014,48.6997005],[2.2802686,48.6997563],[2.2804134,48.6996677],[2.2805032,48.6996604],[2.2805856,48.6996826],[2.280698,48.6997902],[2.2809429,48.6998309],[2.2810237,48.6996944],[2.2811286,48.6996742],[2.2812634,48.6997187],[2.2814771,48.6997279],[2.2816007,48.6998324],[2.2816822,48.6998525],[2.2818668,48.6997662],[2.2822429,48.6998417],[2.2823762,48.6998307],[2.2824461,48.699806],[2.2825393,48.6996962],[2.2827141,48.6996731],[2.2829945,48.6995105],[2.2831002,48.6995152],[2.2832322,48.6994585],[2.2833608,48.6994926],[2.2839866,48.699415],[2.2847071,48.6991702],[2.2848013,48.6993687]]]]},"properties":{"code_section":"911360000E","code_commune":"91136","section_courte":"E"}},{"type":"Feature","geometry":{"type":"MultiPolygon","coordinates":[[[[2.2733559,48.7010482],[2.27354,48.701169],[2.2733027,48.7013385],[2.2736839,48.7016551],[2.2735227,48.7017877],[2.2750488,48.7034662],[2.2742697,48.7038042],[2.2731,48.7023791],[2.2719886,48.7024552],[2.2709253,48.7029183],[2.2708513,48.7028998],[2.2713612,48.7025497],[2.2712655,48.702483],[2.2710648,48.7024808],[2.2709384,48.7024289],[2.2706831,48.7024027],[2.2706068,48.7023022],[2.270631,48.7021946],[2.2707428,48.7021452],[2.2713058,48.7022539],[2.2715636,48.702203],[2.2717232,48.7019955],[2.271588,48.7018372],[2.271598,48.7017078],[2.2716488,48.7016488],[2.2720294,48.7014869],[2.2724116,48.7014241],[2.2725665,48.7013353],[2.2728156,48.7011162],[2.2733559,48.7010482]]]]},"properties":{"code_section":"911360000F","code_commune":"91136","section_courte":"F"}},{"type":"Feature","geometry":{"type":"MultiPolygon","coordinates":[[[[2.2594352,48.7081179],[2.260606,48.7086406],[2.2611719,48.708939],[2.2616552,48.7092417],[2.2621442,48.7096044],[2.2627492,48.7101348],[2.2629708,48.7103818],[2.263316,48.7108202],[2.2636856,48.7113939],[2.2627515,48.7116949],[2.2619647,48.710799],[2.2607381,48.7111052],[2.2601595,48.7107443],[2.2591845,48.7103006],[2.259069,48.7102023],[2.2589916,48.7100649],[2.2588057,48.7079212],[2.2594352,48.7081179]]]]},"properties":{"code_section":"911360000G","code_commune":"91136","section_courte":"G"}},{"type":"Feature","geometry":{"type":"MultiPolygon","coordinates":[[[[2.2941323,48.704874],[2.2949485,48.7072804],[2.2944704,48.70739],[2.2947929,48.7080727],[2.2946889,48.7080878],[2.2948767,48.7084953],[2.2959167,48.7103438],[2.2950708,48.710378],[2.2943016,48.71046],[2.2938755,48.7103948],[2.2936025,48.7102601],[2.2931118,48.710088],[2.288663,48.7065581],[2.289273,48.7063877],[2.29151,48.7056287],[2.2940562,48.7048356],[2.2941218,48.7048435],[2.2941323,48.704874]]]]},"properties":{"code_section":"91136000AC","code_commune":"91136","section_courte":"AC"}},{"type":"Feature","geometry":{"type":"MultiPolygon","coordinates":[[[[2.2868736,48.7043143],[2.2875823,48.704016],[2.2900888,48.7031584],[2.2908177,48.7028503],[2.292542,48.7019929],[2.2929306,48.7030579],[2.2929693,48.7030546],[2.2932247,48.7039977],[2.2933986,48.7039866],[2.2940562,48.7048356],[2.29151,48.7056287],[2.289273,48.7063877],[2.2884987,48.706604],[2.2878881,48.7067139],[2.2874878,48.7056606],[2.2867444,48.7046175],[2.286665,48.7046533],[2.2867215,48.7047549],[2.2866613,48.7047812],[2.2864527,48.7044925],[2.2865145,48.7044732],[2.2865993,48.704566],[2.2868059,48.7044739],[2.2867422,48.7043725],[2.2868736,48.7043143]]]]},"properties":{"code_section":"91136000AD","code_commune":"91136","section_courte":"AD"}},{"type":"Feature","geometry":{"type":"MultiPolygon","coordinates":[[[[2.2919023,48.6990424],[2.2920411,48.6993035],[2.2920952,48.6992916],[2.2923927,48.700172],[2.2925375,48.7002502],[2.2929848,48.701076],[2.2927618,48.7011556],[2.2928986,48.7014629],[2.2923112,48.701634],[2.292542,48.7019929],[2.2908177,48.7028503],[2.2900888,48.7031584],[2.2875823,48.704016],[2.2868736,48.7043143],[2.2867422,48.7043725],[2.2868059,48.7044739],[2.2865993,48.704566],[2.2865145,48.7044732],[2.2864491,48.7044601],[2.2863229,48.7042947],[2.2858545,48.7035753],[2.2856113,48.7030365],[2.2852518,48.7018519],[2.2853364,48.7016663],[2.2852603,48.7004211],[2.2853293,48.6992695],[2.2861461,48.6991239],[2.2866081,48.6989621],[2.2877158,48.6986877],[2.2892393,48.6983644],[2.2898192,48.6991685],[2.2909537,48.6988609],[2.2910322,48.6989634],[2.2917054,48.6986818],[2.2919023,48.6990424]]]]},"properties":{"code_section":"91136000AE","code_commune":"91136","section_courte":"AE"}},{"type":"Feature","geometry":{"type":"MultiPolygon","coordinates":[[[[2.2839348,48.7057752],[2.2829251,48.7063649],[2.2811604,48.7076083],[2.2801309,48.7078488],[2.2776088,48.7081085],[2.2762828,48.7082911],[2.2766816,48.7078376],[2.2769291,48.7076461],[2.2778102,48.7071595],[2.2782454,48.7067508],[2.2785144,48.7063602],[2.2787422,48.7058365],[2.2791759,48.705452],[2.2794527,48.7051279],[2.2797219,48.7044293],[2.2796574,48.7043805],[2.2785492,48.7048966],[2.2782143,48.704506],[2.2791329,48.7040141],[2.2791826,48.7040494],[2.2802493,48.7034537],[2.2804164,48.7031503],[2.2809005,48.7027842],[2.282658,48.7018728],[2.2827667,48.7018323],[2.2833546,48.7025418],[2.283711,48.7024752],[2.2851685,48.7017725],[2.2852518,48.7018519],[2.285437,48.7025225],[2.2857306,48.7033163],[2.2858545,48.7035753],[2.2864491,48.7044601],[2.2861364,48.7045848],[2.2839348,48.7057752]]]]},"properties":{"code_section":"91136000AI","code_commune":"91136","section_courte":"AI"}},{"type":"Feature","geometry":{"type":"MultiPolygon","coordinates":[[[[2.2761383,48.7117774],[2.2751615,48.7126259],[2.2748076,48.7121457],[2.2746738,48.7118373],[2.2746031,48.7106238],[2.2745094,48.7101123],[2.2743501,48.7096304],[2.2741017,48.7090993],[2.2739651,48.7085792],[2.2742075,48.7085147],[2.2746154,48.7085009],[2.2757372,48.7083736],[2.2776088,48.7081085],[2.2801309,48.7078488],[2.2802906,48.7082742],[2.2796208,48.7088374],[2.2775422,48.7107151],[2.2761383,48.7117774]]]]},"properties":{"code_section":"91136000AK","code_commune":"91136","section_courte":"AK"}},{"type":"Feature","geometry":{"type":"MultiPolygon","coordinates":[[[[2.2784999,48.7048415],[2.2785492,48.7048966],[2.2796574,48.7043805],[2.2797219,48.7044293],[2.2794527,48.7051279],[2.2791759,48.705452],[2.2787422,48.7058365],[2.2785144,48.7063602],[2.2782454,48.7067508],[2.2778102,48.7071595],[2.2769291,48.7076461],[2.2766816,48.7078376],[2.2762828,48.7082911],[2.2746154,48.7085009],[2.2742075,48.7085147],[2.2713616,48.7092392],[2.2698273,48.7093358],[2.2687047,48.7094586],[2.2689025,48.7093513],[2.2699133,48.7089861],[2.2715091,48.7082183],[2.2717519,48.7080214],[2.2724139,48.7072126],[2.2727448,48.7069763],[2.2730011,48.7068449],[2.276505,48.7058369],[2.2769209,48.7056663],[2.2762127,48.7047964],[2.2758672,48.7044342],[2.2767159,48.7041131],[2.2768941,48.7043322],[2.2769707,48.7043064],[2.2772669,48.7047932],[2.2781343,48.7044125],[2.2784999,48.7048415]]]]},"properties":{"code_section":"91136000AL","code_commune":"91136","section_courte":"AL"}},{"type":"Feature","geometry":{"type":"MultiPolygon","coordinates":[[[[2.2683559,48.7039866],[2.2688188,48.7038972],[2.2694169,48.7035551],[2.2700567,48.7033301],[2.2708406,48.7028972],[2.2709253,48.7029183],[2.2719886,48.7024552],[2.2731,48.7023791],[2.2742697,48.7038042],[2.2750488,48.7034662],[2.2757132,48.7040603],[2.2759973,48.704385],[2.2758672,48.7044342],[2.2762127,48.7047964],[2.2769209,48.7056663],[2.276505,48.7058369],[2.2733218,48.706735],[2.2728796,48.7069024],[2.2725238,48.7071246],[2.2723407,48.7072839],[2.2717519,48.7080214],[2.2715974,48.7081637],[2.2700439,48.708921],[2.2701,48.7085728],[2.2701958,48.7084494],[2.2703429,48.7083438],[2.2696768,48.7077077],[2.2695154,48.707427],[2.2687692,48.7066387],[2.2679898,48.7059684],[2.2676283,48.7055133],[2.2683661,48.7051535],[2.2690403,48.7048905],[2.2690424,48.704831],[2.2686402,48.7043951],[2.268431,48.7041803],[2.2683437,48.7041492],[2.2682237,48.7040282],[2.2683559,48.7039866]]]]},"properties":{"code_section":"91136000AM","code_commune":"91136","section_courte":"AM"}},{"type":"Feature","geometry":{"type":"MultiPolygon","coordinates":[[[[2.2659001,48.7050533],[2.2664488,48.7050097],[2.2669323,48.7047969],[2.2673615,48.7047264],[2.2675171,48.7046004],[2.2680632,48.7042762],[2.2681323,48.7040877],[2.2682237,48.7040282],[2.2683437,48.7041492],[2.268431,48.7041803],[2.2690424,48.704831],[2.2690403,48.7048905],[2.2683661,48.7051535],[2.2676283,48.7055133],[2.2679898,48.7059684],[2.2687692,48.7066387],[2.2695154,48.707427],[2.2696768,48.7077077],[2.2703429,48.7083438],[2.2701958,48.7084494],[2.2701,48.7085728],[2.2700439,48.708921],[2.2699133,48.7089861],[2.2689025,48.7093513],[2.2687047,48.7094586],[2.2681942,48.7095949],[2.2677612,48.7097802],[2.262573,48.7121935],[2.2622737,48.71193],[2.2613856,48.711529],[2.2607381,48.7111052],[2.2619647,48.710799],[2.2627515,48.7116949],[2.2636856,48.7113939],[2.263316,48.7108202],[2.2627492,48.7101348],[2.2623913,48.7098041],[2.2616552,48.7092417],[2.2611719,48.708939],[2.260606,48.7086406],[2.2595316,48.7081523],[2.2588057,48.7079212],[2.2589463,48.7071919],[2.2593126,48.7065247],[2.2603597,48.7064732],[2.2607557,48.7064938],[2.2609086,48.7063835],[2.2613664,48.7062709],[2.2619083,48.7060671],[2.2622439,48.7057715],[2.2627478,48.7054969],[2.2629183,48.7054648],[2.2632235,48.7054835],[2.2634596,48.7054627],[2.2636898,48.7053678],[2.264018,48.7051515],[2.2647545,48.7049236],[2.2648379,48.7049137],[2.2648568,48.7049693],[2.2652424,48.7051461],[2.2652536,48.7052995],[2.2653486,48.7053468],[2.2656575,48.7052865],[2.2658086,48.7051952],[2.2658972,48.7051054],[2.2659001,48.7050533]]]]},"properties":{"code_section":"91136000AN","code_commune":"91136","section_courte":"AN"}},{"type":"Feature","geometry":{"type":"MultiPolygon","coordinates":[[[[2.2672364,48.7141444],[2.2664339,48.7144725],[2.2663167,48.7144997],[2.2660781,48.7144928],[2.2649947,48.7148923],[2.2646122,48.7146162],[2.264313,48.7141758],[2.262617,48.7122341],[2.2626226,48.7121914],[2.2681942,48.7095949],[2.2687047,48.7094586],[2.2698273,48.7093358],[2.2714731,48.7092215],[2.2739651,48.7085792],[2.2741017,48.7090993],[2.2743501,48.7096304],[2.2745094,48.7101123],[2.2746031,48.7106238],[2.2746424,48.7116771],[2.2748076,48.7121457],[2.2744527,48.7122762],[2.2724648,48.7128277],[2.2725254,48.7130565],[2.2720734,48.7131553],[2.2715903,48.7133661],[2.2716383,48.7135069],[2.2713011,48.713574],[2.2712623,48.71386],[2.2705872,48.7139864],[2.2705442,48.7138878],[2.269394,48.714169],[2.2686078,48.7140858],[2.2672364,48.7141444]]]]},"properties":{"code_section":"91136000AO","code_commune":"91136","section_courte":"AO"}}]}