{"type":"FeatureCollection","features":[{"type":"Feature","geometry":{"type":"MultiPolygon","coordinates":[[[[2.3025463,48.7195875],[2.3014997,48.7197247],[2.3010119,48.7184637],[2.3001114,48.7159152],[2.2986459,48.7161219],[2.2971775,48.7163664],[2.2971169,48.7160155],[2.2987422,48.7150666],[2.3019799,48.7130659],[2.3071492,48.7099547],[2.3116793,48.7219507],[2.3109374,48.7220383],[2.3109277,48.721942],[2.3087813,48.72205],[2.3081626,48.7190848],[2.3047497,48.7194963],[2.3046864,48.7193149],[2.3025463,48.7195875]]]]},"properties":{"code_section":"91161000AB","code_commune":"91161","section_courte":"AB"}},{"type":"Feature","geometry":{"type":"MultiPolygon","coordinates":[[[[2.3240129,48.7177405],[2.3240543,48.7183427],[2.3236368,48.7181175],[2.32394,48.720863],[2.3208207,48.7211064],[2.3207811,48.7210056],[2.3173457,48.7212188],[2.3137052,48.7216284],[2.3137111,48.7216798],[2.3116793,48.7219507],[2.3071492,48.7099547],[2.3113455,48.7074357],[2.3122354,48.708776],[2.3131031,48.7096244],[2.313492,48.7099205],[2.3145144,48.7098252],[2.3144127,48.7098178],[2.3159508,48.7095128],[2.3197678,48.7085304],[2.3205229,48.708279],[2.3217942,48.7077935],[2.3230176,48.7072755],[2.3244183,48.708111],[2.32582,48.7084887],[2.3255301,48.7090921],[2.3252328,48.7098438],[2.3245088,48.7118227],[2.324136,48.7140482],[2.3239162,48.7147708],[2.323855,48.7154694],[2.3239344,48.7159271],[2.3240129,48.7177405]]]]},"properties":{"code_section":"91161000AC","code_commune":"91161","section_courte":"AC"}},{"type":"Feature","geometry":{"type":"MultiPolygon","coordinates":[[[[2.3145144,48.7098252],[2.313492,48.7099205],[2.3131031,48.7096244],[2.3122354,48.708776],[2.3113455,48.7074357],[2.3146528,48.7054279],[2.3172996,48.7041389],[2.320967,48.7062931],[2.3223969,48.7065109],[2.3228832,48.7066449],[2.32316,48.7068672],[2.3232218,48.707013],[2.3232032,48.707173],[2.3230176,48.7072755],[2.3218218,48.7077824],[2.3205229,48.708279],[2.3197678,48.7085304],[2.31866,48.7088313],[2.3159508,48.7095128],[2.3144127,48.7098178],[2.3145144,48.7098252]]]]},"properties":{"code_section":"91161000AD","code_commune":"91161","section_courte":"AD"}},{"type":"Feature","geometry":{"type":"MultiPolygon","coordinates":[[[[2.3061522,48.7050419],[2.3064734,48.7038542],[2.3070036,48.7031969],[2.3092393,48.7011707],[2.3102748,48.7006403],[2.3112228,48.7006107],[2.3120067,48.7007735],[2.3141151,48.7020304],[2.3140296,48.7020817],[2.3150423,48.7027662],[2.3172996,48.7041389],[2.3146901,48.7054075],[2.3103764,48.7080082],[2.3102794,48.7079634],[2.3101401,48.7080476],[2.3095323,48.707606],[2.3080948,48.7058969],[2.3082584,48.7057611],[2.3070189,48.7050657],[2.3066718,48.7050135],[2.3064887,48.7050369],[2.3064219,48.7050864],[2.3061522,48.7050419]]]]},"properties":{"code_section":"91161000AE","code_commune":"91161","section_courte":"AE"}},{"type":"Feature","geometry":{"type":"MultiPolygon","coordinates":[[[[2.3172996,48.7041389],[2.3224528,48.7016253],[2.323131,48.7022733],[2.3230285,48.7023227],[2.3236605,48.7029302],[2.3234422,48.7030303],[2.3253847,48.7047411],[2.3269537,48.7064134],[2.3266876,48.7066048],[2.3264354,48.7068775],[2.32582,48.7084887],[2.3244183,48.708111],[2.3230176,48.7072755],[2.3232032,48.707173],[2.3232218,48.707013],[2.32316,48.7068672],[2.3228832,48.7066449],[2.3223969,48.7065109],[2.320967,48.7062931],[2.3172996,48.7041389]]]]},"properties":{"code_section":"91161000AH","code_commune":"91161","section_courte":"AH"}},{"type":"Feature","geometry":{"type":"MultiPolygon","coordinates":[[[[2.3234826,48.6982712],[2.322564,48.6984718],[2.3203392,48.6995415],[2.3217685,48.7009898],[2.3224528,48.7016253],[2.3172996,48.7041389],[2.3150423,48.7027662],[2.3140296,48.7020817],[2.3141151,48.7020304],[2.3120067,48.7007735],[2.3112228,48.7006107],[2.3102748,48.7006403],[2.3144329,48.6978364],[2.3146552,48.6979832],[2.3148236,48.6981942],[2.3156326,48.6994703],[2.316188,48.6997095],[2.318915,48.6977145],[2.319623,48.6970642],[2.3201766,48.6976342],[2.3222318,48.6965498],[2.3228214,48.6972342],[2.3234826,48.6982712]]]]},"properties":{"code_section":"91161000AI","code_commune":"91161","section_courte":"AI"}},{"type":"Feature","geometry":{"type":"MultiPolygon","coordinates":[[[[2.3141921,48.6976842],[2.3135247,48.6973121],[2.313011,48.6969241],[2.3119506,48.695801],[2.3106004,48.6941944],[2.3124522,48.6937898],[2.3136974,48.6934069],[2.3147188,48.6929465],[2.3159611,48.6922889],[2.3161991,48.6922049],[2.3162141,48.6922682],[2.3163355,48.6923592],[2.3169948,48.6926563],[2.3174019,48.6930713],[2.3174673,48.6930867],[2.3176492,48.6930313],[2.3183424,48.6932811],[2.3183804,48.6933351],[2.3184929,48.6933101],[2.3186525,48.6934013],[2.3191791,48.6938204],[2.3194006,48.6939093],[2.3195752,48.6940362],[2.3197106,48.6940706],[2.3198496,48.6941505],[2.3199142,48.6942405],[2.3201398,48.6943305],[2.3205218,48.6943183],[2.3206212,48.6943522],[2.3208746,48.6946004],[2.320992,48.6948226],[2.3211389,48.6949945],[2.3213008,48.6954767],[2.321574,48.6958048],[2.3217114,48.695862],[2.3217346,48.6959479],[2.3220525,48.6963803],[2.3222318,48.6965498],[2.3201766,48.6976342],[2.319623,48.6970642],[2.318915,48.6977145],[2.316188,48.6997095],[2.3156326,48.6994703],[2.3148367,48.6982124],[2.3146552,48.6979832],[2.3141921,48.6976842]]]]},"properties":{"code_section":"91161000AK","code_commune":"91161","section_courte":"AK"}},{"type":"Feature","geometry":{"type":"MultiPolygon","coordinates":[[[[2.3162318,48.688243],[2.3161728,48.6882449],[2.3160445,48.6888022],[2.3158005,48.6911147],[2.3160167,48.691359],[2.3160205,48.6915504],[2.3161991,48.6922049],[2.3159611,48.6922889],[2.3147188,48.6929465],[2.3136974,48.6934069],[2.3124522,48.6937898],[2.3106004,48.6941944],[2.3098443,48.6943853],[2.3094154,48.694528],[2.3087987,48.6948222],[2.3069002,48.6959494],[2.3059066,48.6947453],[2.3053724,48.6943849],[2.3054096,48.694256],[2.3053766,48.6937899],[2.3055639,48.693328],[2.3055198,48.6929526],[2.3071209,48.6917867],[2.3081331,48.6912724],[2.3088176,48.6912231],[2.3090512,48.6910276],[2.3092356,48.690933],[2.3098393,48.6907829],[2.3100793,48.690624],[2.3101178,48.6906203],[2.310193,48.6907093],[2.3102623,48.6907292],[2.3104901,48.690716],[2.3105704,48.6906243],[2.310516,48.6903726],[2.3105381,48.6903231],[2.3110991,48.690023],[2.3113722,48.6899792],[2.3121068,48.6896372],[2.3128095,48.6895337],[2.3131281,48.6895501],[2.3135199,48.6893867],[2.3141764,48.6891971],[2.3145963,48.688951],[2.3149415,48.6889365],[2.3150825,48.6888927],[2.3153904,48.6886587],[2.3156819,48.68837],[2.3162593,48.6881554],[2.3162318,48.688243]]]]},"properties":{"code_section":"91161000AL","code_commune":"91161","section_courte":"AL"}},{"type":"Feature","geometry":{"type":"MultiPolygon","coordinates":[[[[2.3020794,48.6983965],[2.3049904,48.697136],[2.3067023,48.6964314],[2.3069002,48.6959494],[2.3087987,48.6948222],[2.3094154,48.694528],[2.3098443,48.6943853],[2.3106004,48.6941944],[2.3119506,48.695801],[2.313011,48.6969241],[2.3135247,48.6973121],[2.31398,48.6975471],[2.3144329,48.6978364],[2.3102748,48.7006403],[2.3093412,48.700686],[2.3087116,48.7006393],[2.3082132,48.7007928],[2.3071597,48.7009319],[2.3052147,48.7012852],[2.3043832,48.7015239],[2.3038576,48.7016051],[2.3029225,48.7016492],[2.3012721,48.6985931],[2.3020794,48.6983965]]]]},"properties":{"code_section":"91161000AM","code_commune":"91161","section_courte":"AM"}},{"type":"Feature","geometry":{"type":"MultiPolygon","coordinates":[[[[2.3028319,48.705492],[2.303639,48.7054454],[2.3036962,48.7046036],[2.3042536,48.7039129],[2.3042771,48.7034939],[2.3041383,48.7024696],[2.3040555,48.7024799],[2.3039324,48.70159],[2.3043832,48.7015239],[2.3053456,48.7012608],[2.3071597,48.7009319],[2.3083542,48.7007665],[2.3087116,48.7006393],[2.3093412,48.700686],[2.3102748,48.7006403],[2.3092393,48.7011707],[2.3070036,48.7031969],[2.3064734,48.7038542],[2.3061522,48.7050419],[2.3064219,48.7050864],[2.3064887,48.7050369],[2.3066718,48.7050135],[2.3070189,48.7050657],[2.3082584,48.7057611],[2.3080948,48.7058969],[2.3095323,48.707606],[2.3101401,48.7080476],[2.3102794,48.7079634],[2.3103764,48.7080082],[2.3068856,48.7101171],[2.3053307,48.7091708],[2.3052884,48.7091994],[2.3044899,48.708701],[2.3040488,48.7092699],[2.3041643,48.7089252],[2.3040901,48.7083158],[2.3038922,48.7081711],[2.3039559,48.7086372],[2.3026083,48.7087125],[2.3022165,48.7055259],[2.3028319,48.705492]]]]},"properties":{"code_section":"91161000AN","code_commune":"91161","section_courte":"AN"}},{"type":"Feature","geometry":{"type":"MultiPolygon","coordinates":[[[[2.2967756,48.7107014],[2.2976311,48.7105658],[2.2977449,48.7114067],[2.2983879,48.7113267],[2.3003948,48.7109479],[2.3007285,48.7109102],[2.3015306,48.7109164],[2.3065278,48.7098884],[2.3068856,48.7101171],[2.2969269,48.716146],[2.2966144,48.7152427],[2.2960055,48.7153677],[2.2943417,48.7119482],[2.2939729,48.7119936],[2.2937296,48.7112539],[2.2967756,48.7107014]]]]},"properties":{"code_section":"91161000AO","code_commune":"91161","section_courte":"AO"}},{"type":"Feature","geometry":{"type":"MultiPolygon","coordinates":[[[[2.2976265,48.7041633],[2.2995468,48.7041706],[2.2997727,48.7041992],[2.3001252,48.7043485],[2.300318,48.7045132],[2.3005296,48.7051993],[2.3008273,48.706218],[2.3009135,48.7069047],[2.302364,48.7068305],[2.3026083,48.7087125],[2.3039559,48.7086372],[2.3038922,48.7081711],[2.3040901,48.7083158],[2.3041643,48.7089252],[2.3040488,48.7092699],[2.3044899,48.708701],[2.3052884,48.7091994],[2.3053307,48.7091708],[2.3065278,48.7098884],[2.3015306,48.7109164],[2.3007285,48.7109102],[2.3003948,48.7109479],[2.2983879,48.7113267],[2.2977449,48.7114067],[2.2976311,48.7105658],[2.296179,48.7108086],[2.2948798,48.708502],[2.2946889,48.7080878],[2.2947929,48.7080727],[2.2944704,48.70739],[2.2949485,48.7072804],[2.2941065,48.7048109],[2.2950476,48.7045354],[2.2958158,48.7042584],[2.2964882,48.7041523],[2.2976265,48.7041633]]]]},"properties":{"code_section":"91161000AP","code_commune":"91161","section_courte":"AP"}}]}