{"type":"FeatureCollection","features":[{"type":"Feature","geometry":{"type":"MultiPolygon","coordinates":[[[[2.4690682,48.6150006],[2.4678865,48.6156241],[2.4673576,48.6159712],[2.4671676,48.6160524],[2.4669621,48.6160931],[2.4659122,48.615966],[2.4638673,48.6159589],[2.4613535,48.6154795],[2.4608855,48.6153664],[2.4608698,48.6153144],[2.4610463,48.6150848],[2.4610327,48.6150256],[2.460478,48.6147039],[2.45974,48.6144693],[2.4596222,48.6145027],[2.459322,48.6149469],[2.4592757,48.6149593],[2.4580177,48.6145666],[2.4613272,48.6116227],[2.4620217,48.6111946],[2.4626012,48.6104657],[2.4629383,48.6106094],[2.4629599,48.6106578],[2.4655536,48.6115339],[2.4659481,48.6116237],[2.466369,48.6116868],[2.4677834,48.6117929],[2.4686775,48.6116248],[2.4699495,48.6115707],[2.47146,48.6128614],[2.4700623,48.6152487],[2.4690682,48.6150006]]]]},"properties":{"code_section":"91174000AC","code_commune":"91174","section_courte":"AC"}},{"type":"Feature","geometry":{"type":"MultiPolygon","coordinates":[[[[2.4689446,48.6100154],[2.4687141,48.6101358],[2.4687021,48.6102532],[2.4699495,48.6115707],[2.4686775,48.6116248],[2.4677834,48.6117929],[2.466369,48.6116868],[2.4659481,48.6116237],[2.4655536,48.6115339],[2.4629599,48.6106578],[2.4629383,48.6106094],[2.4626012,48.6104657],[2.4652625,48.607271],[2.4656813,48.6068252],[2.4670772,48.6051166],[2.4674151,48.6052504],[2.467799,48.6054736],[2.4695617,48.6072531],[2.4703386,48.6076413],[2.4713013,48.6076631],[2.4729393,48.608726],[2.4715354,48.6097185],[2.4717559,48.6101044],[2.4704718,48.6105906],[2.4696852,48.609646],[2.4689446,48.6100154]]]]},"properties":{"code_section":"91174000AD","code_commune":"91174","section_courte":"AD"}},{"type":"Feature","geometry":{"type":"MultiPolygon","coordinates":[[[[2.4717559,48.6101044],[2.4715354,48.6097185],[2.4729393,48.608726],[2.4746392,48.6096989],[2.4765183,48.6109067],[2.4773479,48.6114867],[2.4758958,48.6125119],[2.4754172,48.6127598],[2.4757836,48.6131161],[2.4760903,48.6132889],[2.4753302,48.6140668],[2.4762941,48.6145301],[2.4747996,48.6161031],[2.4743201,48.6160985],[2.4732245,48.6156674],[2.4728991,48.6154979],[2.4702248,48.6149579],[2.47146,48.6128614],[2.4699495,48.6115707],[2.4687021,48.6102532],[2.4687141,48.6101358],[2.4696852,48.609646],[2.4704718,48.6105906],[2.4717559,48.6101044]]]]},"properties":{"code_section":"91174000AE","code_commune":"91174","section_courte":"AE"}},{"type":"Feature","geometry":{"type":"MultiPolygon","coordinates":[[[[2.4762941,48.6145301],[2.4753302,48.6140668],[2.4760903,48.6132889],[2.4757836,48.6131161],[2.4754172,48.6127598],[2.4758958,48.6125119],[2.4773479,48.6114867],[2.4786398,48.6105025],[2.4815091,48.6121986],[2.4815104,48.612338],[2.4827634,48.6128554],[2.4829172,48.6128715],[2.4834922,48.6130606],[2.4842053,48.6134384],[2.4829795,48.6143573],[2.482129,48.6148071],[2.4800082,48.6161894],[2.4785533,48.6174485],[2.4752439,48.6156437],[2.4762941,48.6145301]]]]},"properties":{"code_section":"91174000AH","code_commune":"91174","section_courte":"AH"}},{"type":"Feature","geometry":{"type":"MultiPolygon","coordinates":[[[[2.4827634,48.6128554],[2.4815104,48.612338],[2.4815091,48.6121986],[2.4794894,48.6110052],[2.4802358,48.6092402],[2.4805675,48.6083007],[2.4835034,48.606835],[2.4862658,48.6074394],[2.4898294,48.6081501],[2.489552,48.6088389],[2.4885703,48.609971],[2.4872663,48.6113746],[2.4851716,48.6126147],[2.4842053,48.6134384],[2.4834922,48.6130606],[2.4829172,48.6128715],[2.4827634,48.6128554]]]]},"properties":{"code_section":"91174000AL","code_commune":"91174","section_courte":"AL"}},{"type":"Feature","geometry":{"type":"MultiPolygon","coordinates":[[[[2.4773479,48.6114867],[2.4765183,48.6109067],[2.4746392,48.6096989],[2.4729393,48.608726],[2.4779709,48.6056359],[2.477909,48.6054203],[2.4787299,48.6056743],[2.478999,48.6058447],[2.4791989,48.6068265],[2.4793944,48.6070271],[2.4801826,48.6076047],[2.480766,48.6081933],[2.4805675,48.6083007],[2.4802358,48.6092402],[2.4794894,48.6110052],[2.4786398,48.6105025],[2.4773479,48.6114867]]]]},"properties":{"code_section":"91174000AM","code_commune":"91174","section_courte":"AM"}},{"type":"Feature","geometry":{"type":"MultiPolygon","coordinates":[[[[2.4762799,48.6066614],[2.4754117,48.60723],[2.4729393,48.608726],[2.4713013,48.6076631],[2.4703386,48.6076413],[2.4695617,48.6072531],[2.467799,48.6054736],[2.4674151,48.6052504],[2.4670772,48.6051166],[2.4692069,48.6025807],[2.4701216,48.6026836],[2.470594,48.602688],[2.4709185,48.6026534],[2.4716428,48.6024856],[2.4720393,48.6024457],[2.4729071,48.6025225],[2.4754885,48.6037182],[2.4753961,48.6040321],[2.4750878,48.6044126],[2.4748091,48.6043233],[2.474734,48.6043682],[2.4744334,48.6044065],[2.4742213,48.6046782],[2.4749263,48.6049225],[2.4756319,48.6052951],[2.4767533,48.6053326],[2.477909,48.6054203],[2.4779709,48.6056359],[2.4762799,48.6066614]]]]},"properties":{"code_section":"91174000AN","code_commune":"91174","section_courte":"AN"}},{"type":"Feature","geometry":{"type":"MultiPolygon","coordinates":[[[[2.480766,48.6081933],[2.4801826,48.6076047],[2.4793944,48.6070271],[2.4791989,48.6068265],[2.478999,48.6058447],[2.4787299,48.6056743],[2.4780068,48.6054442],[2.4776281,48.6053821],[2.4756319,48.6052951],[2.4749263,48.6049225],[2.4742213,48.6046782],[2.4744334,48.6044065],[2.474734,48.6043682],[2.4748091,48.6043233],[2.4750878,48.6044126],[2.4753961,48.6040321],[2.4757909,48.6027793],[2.4765428,48.6029306],[2.4771804,48.6028782],[2.4776655,48.6020811],[2.4792701,48.6028206],[2.4800821,48.6030954],[2.4809127,48.6028355],[2.4811253,48.602812],[2.481399,48.6028256],[2.4815954,48.6028764],[2.4828138,48.6058691],[2.4829738,48.6061672],[2.4835034,48.606835],[2.480766,48.6081933]]]]},"properties":{"code_section":"91174000AO","code_commune":"91174","section_courte":"AO"}},{"type":"Feature","geometry":{"type":"MultiPolygon","coordinates":[[[[2.4842851,48.6070155],[2.4835034,48.606835],[2.4829738,48.6061672],[2.4828138,48.6058691],[2.4815954,48.6028764],[2.4840048,48.6034675],[2.4854725,48.6035443],[2.489938,48.6038602],[2.4909343,48.6038695],[2.4910548,48.6052139],[2.4906432,48.6068329],[2.4902479,48.6075281],[2.4900771,48.6077034],[2.4898294,48.6081501],[2.4881995,48.6078354],[2.4842851,48.6070155]]]]},"properties":{"code_section":"91174000AP","code_commune":"91174","section_courte":"AP"}},{"type":"Feature","geometry":{"type":"MultiPolygon","coordinates":[[[[2.4840048,48.6034675],[2.4815954,48.6028764],[2.480224,48.599321],[2.4798448,48.5984308],[2.4799478,48.5984057],[2.4822558,48.5983846],[2.4822754,48.5985688],[2.4831915,48.598551],[2.483352,48.5985961],[2.4833582,48.5987255],[2.4842168,48.5986844],[2.4846989,48.5986115],[2.4851001,48.5985889],[2.4852686,48.5987622],[2.4862636,48.5984615],[2.4866429,48.5988699],[2.4890676,48.6007513],[2.4895518,48.6011801],[2.4898518,48.6015055],[2.4902468,48.6020815],[2.4905731,48.6027293],[2.4909343,48.6038695],[2.489938,48.6038602],[2.4854725,48.6035443],[2.4840048,48.6034675]]]]},"properties":{"code_section":"91174000AR","code_commune":"91174","section_courte":"AR"}},{"type":"Feature","geometry":{"type":"MultiPolygon","coordinates":[[[[2.4811761,48.6017772],[2.4815954,48.6028764],[2.481399,48.6028256],[2.4811253,48.602812],[2.4809127,48.6028355],[2.4800821,48.6030954],[2.4792701,48.6028206],[2.4776655,48.6020811],[2.4771804,48.6028782],[2.4765428,48.6029306],[2.4757909,48.6027793],[2.4754885,48.6037182],[2.4729071,48.6025225],[2.4720393,48.6024457],[2.4716428,48.6024856],[2.4709185,48.6026534],[2.470594,48.602688],[2.4701216,48.6026836],[2.4692069,48.6025807],[2.4708307,48.6006988],[2.4715213,48.5998016],[2.4729715,48.5981454],[2.476118,48.5989735],[2.476487,48.5979779],[2.4779707,48.5981134],[2.4797369,48.5981205],[2.4811761,48.6017772]]]]},"properties":{"code_section":"91174000AS","code_commune":"91174","section_courte":"AS"}},{"type":"Feature","geometry":{"type":"MultiPolygon","coordinates":[[[[2.4775165,48.5925467],[2.4797369,48.5981205],[2.4779707,48.5981134],[2.476487,48.5979779],[2.476118,48.5989735],[2.4729715,48.5981454],[2.4765583,48.5938979],[2.4775165,48.5925467]]]]},"properties":{"code_section":"91174000AT","code_commune":"91174","section_courte":"AT"}},{"type":"Feature","geometry":{"type":"MultiPolygon","coordinates":[[[[2.4815631,48.59383],[2.4819985,48.5938295],[2.4819015,48.5936522],[2.4823977,48.5936281],[2.4824584,48.5934034],[2.4836681,48.5933734],[2.4848737,48.5933967],[2.4849887,48.5955466],[2.4852146,48.5967614],[2.485463,48.5973501],[2.4856653,48.5976885],[2.4862636,48.5984615],[2.4852686,48.5987622],[2.4851001,48.5985889],[2.4846989,48.5986115],[2.4842168,48.5986844],[2.4833582,48.5987255],[2.483352,48.5985961],[2.4831915,48.598551],[2.4822754,48.5985688],[2.4822558,48.5983846],[2.4799478,48.5984057],[2.4798448,48.5984308],[2.479577,48.5976625],[2.4777129,48.5930291],[2.4811392,48.5928529],[2.4814149,48.5932241],[2.4815631,48.59383]]]]},"properties":{"code_section":"91174000AV","code_commune":"91174","section_courte":"AV"}},{"type":"Feature","geometry":{"type":"MultiPolygon","coordinates":[[[[2.4798528,48.5894837],[2.4797212,48.5886852],[2.4798622,48.5885286],[2.4798713,48.5880043],[2.4798287,48.5877625],[2.4797687,48.587575],[2.4790234,48.5876566],[2.4789483,48.5876265],[2.478938,48.5871235],[2.4787313,48.5855614],[2.4806036,48.5853952],[2.4805602,48.5852516],[2.4823294,48.5850179],[2.4833533,48.5847739],[2.4839256,48.5856691],[2.4847557,48.5871649],[2.4852265,48.5881504],[2.485407,48.5887117],[2.485306,48.5911528],[2.4848737,48.5933967],[2.4836681,48.5933734],[2.4824584,48.5934034],[2.4823977,48.5936281],[2.4819015,48.5936522],[2.4819014,48.5935665],[2.4806149,48.5915697],[2.4804682,48.5911047],[2.4804387,48.5906882],[2.4802748,48.5903609],[2.4801193,48.5902708],[2.4801847,48.5900668],[2.4801725,48.5896966],[2.4798378,48.589713],[2.4798528,48.5894837]]]]},"properties":{"code_section":"91174000AW","code_commune":"91174","section_courte":"AW"}},{"type":"Feature","geometry":{"type":"MultiPolygon","coordinates":[[[[2.4762631,48.5807863],[2.4758977,48.5780766],[2.4780793,48.5778915],[2.4781051,48.5779857],[2.478193,48.5780108],[2.4781954,48.5781907],[2.4781401,48.5782022],[2.4783193,48.5786908],[2.4786173,48.5792815],[2.4785894,48.5795182],[2.478674,48.5796726],[2.4789127,48.5796825],[2.4791591,48.5801111],[2.4792856,48.5802136],[2.479376,48.5803993],[2.4794679,48.5804828],[2.4795526,48.5806955],[2.4798059,48.5809608],[2.4798326,48.5809518],[2.479719,48.5805973],[2.4797717,48.5803229],[2.4808967,48.5800542],[2.4829372,48.5842276],[2.4830885,48.5844984],[2.4833533,48.5847739],[2.4823294,48.5850179],[2.4805602,48.5852516],[2.4806036,48.5853952],[2.4787313,48.5855614],[2.4786834,48.5849759],[2.478507,48.5845859],[2.4782025,48.5841198],[2.4780226,48.5832097],[2.4780197,48.5829198],[2.4765245,48.5831328],[2.4762631,48.5807863]]]]},"properties":{"code_section":"91174000AX","code_commune":"91174","section_courte":"AX"}},{"type":"Feature","geometry":{"type":"MultiPolygon","coordinates":[[[[2.4797691,48.5696958],[2.4800143,48.569296],[2.4804455,48.5694173],[2.4810531,48.5691009],[2.481156,48.5690773],[2.4817277,48.5698293],[2.4822494,48.5701093],[2.4823217,48.5701595],[2.482317,48.570209],[2.4822194,48.5703202],[2.4816347,48.5706673],[2.480338,48.5718929],[2.4794501,48.5730287],[2.4792114,48.5735571],[2.4789529,48.5740077],[2.4786879,48.5747422],[2.4781491,48.5766311],[2.4780405,48.5773105],[2.4778205,48.5776239],[2.4778145,48.5776912],[2.4780793,48.5778915],[2.4758977,48.5780766],[2.4757381,48.5765242],[2.4758281,48.5760943],[2.4758587,48.5751724],[2.4757509,48.5729803],[2.4756513,48.5722912],[2.4755857,48.5720867],[2.4753994,48.571834],[2.4754326,48.5718186],[2.475395,48.5717692],[2.4784061,48.5702441],[2.4790434,48.5708401],[2.4797691,48.5696958]]]]},"properties":{"code_section":"91174000AY","code_commune":"91174","section_courte":"AY"}},{"type":"Feature","geometry":{"type":"MultiPolygon","coordinates":[[[[2.4758977,48.5780766],[2.4762631,48.5807863],[2.4765164,48.5830609],[2.4758647,48.5830882],[2.4757526,48.5833346],[2.4756566,48.5834461],[2.4752128,48.5836155],[2.4740566,48.5839717],[2.4738396,48.5840943],[2.4735264,48.5844018],[2.4734409,48.5845589],[2.4736752,48.585438],[2.4730997,48.5854377],[2.4729757,48.5846522],[2.470954,48.5813499],[2.4709436,48.5810279],[2.4705752,48.5811196],[2.4703941,48.5811203],[2.4701882,48.5809306],[2.4697599,48.5809609],[2.4696961,48.5809286],[2.469638,48.5807576],[2.4696642,48.5806719],[2.4701654,48.5804331],[2.4702578,48.5802385],[2.470371,48.5801451],[2.4704818,48.5798216],[2.4704137,48.5797175],[2.4702213,48.5795875],[2.4698092,48.5795564],[2.4695758,48.579426],[2.4694662,48.5793272],[2.4694194,48.5789556],[2.4695712,48.5783685],[2.4696455,48.5782047],[2.4697619,48.5787374],[2.4702946,48.5786747],[2.4704778,48.5790483],[2.4709239,48.5789451],[2.4709155,48.5788636],[2.4711224,48.5785542],[2.4717271,48.5783578],[2.4725693,48.5779739],[2.4738016,48.5777852],[2.4737864,48.5776971],[2.4758435,48.5776039],[2.4758977,48.5780766]]]]},"properties":{"code_section":"91174000AZ","code_commune":"91174","section_courte":"AZ"}},{"type":"Feature","geometry":{"type":"MultiPolygon","coordinates":[[[[2.4730997,48.5854377],[2.4728529,48.5860658],[2.4725404,48.5866794],[2.4722675,48.5877551],[2.4719405,48.588488],[2.4694753,48.5882053],[2.4690641,48.5881954],[2.469092,48.5879723],[2.4692153,48.5877526],[2.4697933,48.5872926],[2.4691472,48.5863158],[2.4690838,48.586132],[2.4690646,48.5858369],[2.4690012,48.5856844],[2.46902,48.5853486],[2.4688536,48.5846324],[2.4690523,48.5841575],[2.4691748,48.5840351],[2.4693247,48.583961],[2.4697578,48.583833],[2.470189,48.5837993],[2.4703293,48.5837636],[2.4704818,48.5836585],[2.4705975,48.5835018],[2.4705649,48.5833592],[2.4703148,48.5831153],[2.4702847,48.5830193],[2.4703637,48.5828302],[2.4706849,48.5824045],[2.4707613,48.582023],[2.4706046,48.5816763],[2.47052,48.5812879],[2.4703941,48.5811203],[2.4705752,48.5811196],[2.4709436,48.5810279],[2.470954,48.5813499],[2.4729757,48.5846522],[2.4730997,48.5854377]]]]},"properties":{"code_section":"91174000BC","code_commune":"91174","section_courte":"BC"}},{"type":"Feature","geometry":{"type":"MultiPolygon","coordinates":[[[[2.4766772,48.5831119],[2.4780197,48.5829198],[2.4780226,48.5832097],[2.4782025,48.5841198],[2.478507,48.5845859],[2.4787064,48.5850883],[2.4787313,48.5855614],[2.478938,48.5871235],[2.4789483,48.5876265],[2.4790234,48.5876566],[2.4797687,48.587575],[2.4798713,48.5880043],[2.4798622,48.5885286],[2.4797212,48.5886852],[2.4798166,48.5891132],[2.4798378,48.589713],[2.4790874,48.5897246],[2.4790359,48.5897019],[2.4783259,48.5897969],[2.4774916,48.589816],[2.4774013,48.5898756],[2.4773352,48.5902982],[2.4769843,48.5901289],[2.4766004,48.5896374],[2.4762104,48.5892878],[2.4757144,48.588953],[2.4753398,48.588632],[2.4748988,48.588001],[2.4746665,48.5875795],[2.4741437,48.5869813],[2.4740062,48.5867712],[2.4738923,48.5864664],[2.4736026,48.5851016],[2.4734409,48.5845589],[2.4735264,48.5844018],[2.4738396,48.5840943],[2.4740566,48.5839717],[2.4752128,48.5836155],[2.4756566,48.5834461],[2.4757526,48.5833346],[2.4758647,48.5830882],[2.4765164,48.5830609],[2.4765245,48.5831328],[2.4766772,48.5831119]]]]},"properties":{"code_section":"91174000BD","code_commune":"91174","section_courte":"BD"}},{"type":"Feature","geometry":{"type":"MultiPolygon","coordinates":[[[[2.4775165,48.5925467],[2.4765583,48.5938979],[2.4757186,48.5949053],[2.4728312,48.5937854],[2.4732709,48.5934807],[2.4737807,48.5926216],[2.4754155,48.5911779],[2.4757451,48.5905342],[2.475879,48.5899905],[2.4769843,48.5901289],[2.4773352,48.5902982],[2.4774013,48.5898756],[2.4774916,48.589816],[2.4783259,48.5897969],[2.4790359,48.5897019],[2.4790874,48.5897246],[2.4801725,48.5896966],[2.4801847,48.5900668],[2.4801193,48.5902708],[2.4802748,48.5903609],[2.4804387,48.5906882],[2.4804682,48.5911047],[2.4806149,48.5915697],[2.4819014,48.5935665],[2.4819015,48.5936522],[2.4819985,48.5938295],[2.4815631,48.59383],[2.4814149,48.5932241],[2.4811392,48.5928529],[2.4777129,48.5930291],[2.4775165,48.5925467]]]]},"properties":{"code_section":"91174000BE","code_commune":"91174","section_courte":"BE"}},{"type":"Feature","geometry":{"type":"MultiPolygon","coordinates":[[[[2.4728529,48.5860658],[2.4730997,48.5854377],[2.4736752,48.585438],[2.4738923,48.5864664],[2.4740062,48.5867712],[2.4741437,48.5869813],[2.4746665,48.5875795],[2.4748988,48.588001],[2.4753398,48.588632],[2.4757144,48.588953],[2.4762104,48.5892878],[2.4766004,48.5896374],[2.4769843,48.5901289],[2.475879,48.5899905],[2.4757451,48.5905342],[2.4754155,48.5911779],[2.4737807,48.5926216],[2.4732709,48.5934807],[2.4726185,48.5939107],[2.4715881,48.5935643],[2.4716119,48.5935173],[2.4712118,48.5934228],[2.4707926,48.5933469],[2.4705827,48.5935703],[2.4694712,48.5932285],[2.4699562,48.592715],[2.4708109,48.5913822],[2.4714907,48.5895822],[2.4722675,48.5877551],[2.4725404,48.5866794],[2.4728529,48.5860658]]]]},"properties":{"code_section":"91174000BH","code_commune":"91174","section_courte":"BH"}},{"type":"Feature","geometry":{"type":"MultiPolygon","coordinates":[[[[2.4694712,48.5932285],[2.4689629,48.5937656],[2.4679459,48.595228],[2.4671172,48.5960668],[2.4664863,48.5957068],[2.4664698,48.5956423],[2.4661153,48.5956401],[2.4652568,48.5953258],[2.464438,48.5952686],[2.4636996,48.5953345],[2.4657741,48.5928202],[2.4663778,48.590664],[2.4665329,48.5902987],[2.4679015,48.5906276],[2.4679437,48.5904572],[2.4682329,48.5898688],[2.4682784,48.5896114],[2.4682287,48.5892855],[2.4682675,48.589107],[2.4684527,48.5889593],[2.4690785,48.5887585],[2.4691891,48.5885718],[2.4690641,48.5881954],[2.4694753,48.5882053],[2.4719405,48.588488],[2.4708109,48.5913822],[2.4699562,48.592715],[2.4694712,48.5932285]]]]},"properties":{"code_section":"91174000BI","code_commune":"91174","section_courte":"BI"}},{"type":"Feature","geometry":{"type":"MultiPolygon","coordinates":[[[[2.4729715,48.5981454],[2.4719241,48.5993516],[2.4692945,48.5985645],[2.4681922,48.5979871],[2.4682668,48.59792],[2.4662441,48.59696],[2.4679459,48.595228],[2.4689629,48.5937656],[2.4694712,48.5932285],[2.4705827,48.5935703],[2.4707926,48.5933469],[2.4712118,48.5934228],[2.4716119,48.5935173],[2.4715881,48.5935643],[2.4726185,48.5939107],[2.4728312,48.5937854],[2.4757186,48.5949053],[2.4749784,48.595736],[2.4729715,48.5981454]]]]},"properties":{"code_section":"91174000BK","code_commune":"91174","section_courte":"BK"}},{"type":"Feature","geometry":{"type":"MultiPolygon","coordinates":[[[[2.4681922,48.5979871],[2.4692945,48.5985645],[2.4719241,48.5993516],[2.4715213,48.5998016],[2.4708307,48.6006988],[2.4687548,48.6031113],[2.4683435,48.6029547],[2.4680808,48.602926],[2.4671662,48.6030991],[2.4659193,48.602971],[2.4654815,48.60288],[2.4649073,48.6026688],[2.464647,48.6025249],[2.4644279,48.6022119],[2.464287,48.6021358],[2.4640514,48.602078],[2.4642715,48.6015018],[2.4641178,48.6014229],[2.4642977,48.6011561],[2.4641937,48.6011255],[2.4643554,48.6008668],[2.46428,48.6008449],[2.4649644,48.599895],[2.464937,48.5997682],[2.465247,48.5993673],[2.4654824,48.5992099],[2.4655602,48.5991945],[2.4663006,48.5983273],[2.4663316,48.59834],[2.4665189,48.598159],[2.4668116,48.5977404],[2.4671181,48.5973888],[2.4682668,48.59792],[2.4681922,48.5979871]]]]},"properties":{"code_section":"91174000BL","code_commune":"91174","section_courte":"BL"}},{"type":"Feature","geometry":{"type":"MultiPolygon","coordinates":[[[[2.4648002,48.6001226],[2.46428,48.6008449],[2.4643554,48.6008668],[2.4641937,48.6011255],[2.4642977,48.6011561],[2.4641178,48.6014229],[2.4642715,48.6015018],[2.4640514,48.602078],[2.4637954,48.6020878],[2.4637579,48.6021514],[2.463672,48.6021559],[2.4636795,48.6020918],[2.4623078,48.6021811],[2.4618352,48.6021285],[2.4613797,48.6019452],[2.461198,48.6019555],[2.4611158,48.6020455],[2.4609114,48.6026907],[2.4594537,48.6023734],[2.4594006,48.6018022],[2.4594953,48.6018067],[2.4599193,48.5956908],[2.4605757,48.5956514],[2.4608403,48.5954985],[2.461313,48.5953374],[2.4616688,48.5950332],[2.4617462,48.5950137],[2.4623563,48.5951742],[2.4636219,48.5954305],[2.4636996,48.5953345],[2.464438,48.5952686],[2.4652568,48.5953258],[2.4661153,48.5956401],[2.4664698,48.5956423],[2.4664863,48.5957068],[2.4671172,48.5960668],[2.4662441,48.59696],[2.4671181,48.5973888],[2.4668116,48.5977404],[2.4665189,48.598159],[2.4663316,48.59834],[2.4663006,48.5983273],[2.4655602,48.5991945],[2.4654824,48.5992099],[2.465247,48.5993673],[2.464937,48.5997682],[2.4649644,48.599895],[2.4648002,48.6001226]]]]},"properties":{"code_section":"91174000BM","code_commune":"91174","section_courte":"BM"}},{"type":"Feature","geometry":{"type":"MultiPolygon","coordinates":[[[[2.4496224,48.6017176],[2.4494269,48.6009077],[2.4490449,48.6002675],[2.4489371,48.6000005],[2.4489209,48.5990014],[2.4493256,48.5985122],[2.4494328,48.597848],[2.4496103,48.5971645],[2.4499286,48.5964024],[2.4501996,48.5959611],[2.4510516,48.5949519],[2.452719,48.5957016],[2.4528337,48.5955843],[2.4544975,48.5963427],[2.4547422,48.5961059],[2.4557942,48.5965672],[2.4564539,48.5959891],[2.4571435,48.5963705],[2.4574537,48.5960098],[2.458947,48.5957031],[2.4592655,48.5957483],[2.4595565,48.5956859],[2.4599193,48.5956908],[2.4594953,48.6018067],[2.4594006,48.6018022],[2.4594448,48.6024172],[2.4588853,48.602379],[2.4588348,48.6028096],[2.4581149,48.6043812],[2.4573428,48.6042351],[2.4565664,48.6042639],[2.4562594,48.6042095],[2.455886,48.60405],[2.4553972,48.6037602],[2.4546108,48.6033965],[2.4540381,48.6032358],[2.4535978,48.6031721],[2.4520385,48.6031436],[2.4516208,48.6030705],[2.4507575,48.6027991],[2.4501725,48.6025294],[2.450009,48.60241],[2.4498463,48.6022101],[2.4496224,48.6017176]]]]},"properties":{"code_section":"91174000BN","code_commune":"91174","section_courte":"BN"}},{"type":"Feature","geometry":{"type":"MultiPolygon","coordinates":[[[[2.4592394,48.6024163],[2.4594448,48.6024172],[2.4594537,48.6023734],[2.4609114,48.6026907],[2.4611158,48.6020455],[2.461198,48.6019555],[2.4613797,48.6019452],[2.4618352,48.6021285],[2.4623078,48.6021811],[2.4636795,48.6020918],[2.463672,48.6021559],[2.4637579,48.6021514],[2.4637954,48.6020878],[2.4640514,48.602078],[2.464287,48.6021358],[2.4644279,48.6022119],[2.464647,48.6025249],[2.4649073,48.6026688],[2.4654815,48.60288],[2.4659193,48.602971],[2.4671662,48.6030991],[2.4680808,48.602926],[2.4683435,48.6029547],[2.4687548,48.6031113],[2.4656813,48.6068252],[2.4652625,48.607271],[2.4650173,48.6072034],[2.4645872,48.6067053],[2.4637621,48.6062801],[2.4634537,48.606207],[2.4615743,48.6055478],[2.4604935,48.6049713],[2.4589304,48.6045568],[2.4581103,48.6044],[2.4588348,48.6028096],[2.4588853,48.602379],[2.4591807,48.6023842],[2.4592394,48.6024163]]]]},"properties":{"code_section":"91174000BO","code_commune":"91174","section_courte":"BO"}},{"type":"Feature","geometry":{"type":"MultiPolygon","coordinates":[[[[2.4562955,48.6046515],[2.4566406,48.6046474],[2.458286,48.6044655],[2.4581103,48.6044],[2.4589304,48.6045568],[2.4604935,48.6049713],[2.4615743,48.6055478],[2.4610444,48.6062145],[2.4608986,48.606463],[2.460779,48.6064348],[2.4601776,48.6073259],[2.461417,48.6078544],[2.4610674,48.6081169],[2.4608454,48.6081909],[2.4603274,48.6082866],[2.4597858,48.6087064],[2.4592951,48.6092493],[2.458758,48.6090289],[2.4564756,48.6079235],[2.4558709,48.6077007],[2.4536954,48.6073267],[2.4522759,48.6068718],[2.4515457,48.6065791],[2.4503361,48.6062256],[2.4494734,48.6059273],[2.4500766,48.6053073],[2.4505081,48.6051279],[2.4505849,48.6050523],[2.4507086,48.6050066],[2.4513799,48.6048594],[2.4516836,48.6048228],[2.4517742,48.6047065],[2.4524348,48.6048429],[2.452868,48.6048997],[2.4530743,48.6047571],[2.4537615,48.6043908],[2.4537981,48.6043286],[2.454454,48.6043859],[2.4559851,48.6046521],[2.4562955,48.6046515]]]]},"properties":{"code_section":"91174000BP","code_commune":"91174","section_courte":"BP"}},{"type":"Feature","geometry":{"type":"MultiPolygon","coordinates":[[[[2.460779,48.6064348],[2.4608986,48.606463],[2.4610444,48.6062145],[2.4615743,48.6055478],[2.4634537,48.606207],[2.4637621,48.6062801],[2.4640269,48.6063958],[2.4645872,48.6067053],[2.4650173,48.6072034],[2.4652625,48.607271],[2.4633205,48.6095766],[2.4620217,48.6111946],[2.4610982,48.6110977],[2.4601333,48.6109036],[2.4591594,48.6108319],[2.456485,48.6109783],[2.4545779,48.6109936],[2.4546152,48.6108766],[2.4564756,48.6079235],[2.458758,48.6090289],[2.4592951,48.6092493],[2.4597858,48.6087064],[2.4603274,48.6082866],[2.4608454,48.6081909],[2.4610674,48.6081169],[2.461417,48.6078544],[2.4601776,48.6073259],[2.460779,48.6064348]]]]},"properties":{"code_section":"91174000BR","code_commune":"91174","section_courte":"BR"}},{"type":"Feature","geometry":{"type":"MultiPolygon","coordinates":[[[[2.4620217,48.6111946],[2.4613272,48.6116227],[2.4580177,48.6145666],[2.4544245,48.6175539],[2.4528265,48.6189616],[2.4487078,48.6165768],[2.448043,48.6171699],[2.4441731,48.6142104],[2.4422164,48.6133073],[2.4415514,48.6131155],[2.4408607,48.6129626],[2.4399268,48.6133907],[2.4396818,48.6137598],[2.4394144,48.6140404],[2.4387171,48.6142239],[2.4380801,48.6143385],[2.4375831,48.6130274],[2.4376211,48.6129589],[2.4380356,48.6127807],[2.4380333,48.6127498],[2.437842,48.6124299],[2.4374693,48.6119622],[2.4366079,48.6110795],[2.4362815,48.6109709],[2.4362709,48.6109238],[2.4374291,48.6107471],[2.4385894,48.6106405],[2.4393767,48.6106147],[2.4405653,48.610654],[2.4428411,48.6108025],[2.4430288,48.6098007],[2.4432834,48.6088644],[2.4445701,48.6093989],[2.4456287,48.6084378],[2.4463324,48.6085324],[2.4487244,48.6056352],[2.4494807,48.6059348],[2.4503361,48.6062256],[2.4515457,48.6065791],[2.4522759,48.6068718],[2.4536954,48.6073267],[2.4558709,48.6077007],[2.4564756,48.6079235],[2.4546152,48.6108766],[2.4545779,48.6109936],[2.456485,48.6109783],[2.4591594,48.6108319],[2.4601333,48.6109036],[2.4610982,48.6110977],[2.4620217,48.6111946]]]]},"properties":{"code_section":"91174000BS","code_commune":"91174","section_courte":"BS"}},{"type":"Feature","geometry":{"type":"MultiPolygon","coordinates":[[[[2.4615941,48.6225625],[2.4597511,48.6219893],[2.4595386,48.6222931],[2.4591067,48.6227444],[2.457777,48.6222572],[2.4565669,48.6217351],[2.4571351,48.6211729],[2.4528265,48.6189616],[2.4544245,48.6175539],[2.4580177,48.6145666],[2.4592757,48.6149593],[2.459322,48.6149469],[2.4596222,48.6145027],[2.45974,48.6144693],[2.460478,48.6147039],[2.4610327,48.6150256],[2.4610463,48.6150848],[2.4608698,48.6153144],[2.4608855,48.6153664],[2.4613535,48.6154795],[2.4638673,48.6159589],[2.4659122,48.615966],[2.4669621,48.6160931],[2.4671676,48.6160524],[2.4673576,48.6159712],[2.4678865,48.6156241],[2.4690682,48.6150006],[2.4700623,48.6152487],[2.4702248,48.6149579],[2.4728991,48.6154979],[2.4732245,48.6156674],[2.4743201,48.6160985],[2.4747996,48.6161031],[2.4752439,48.6156437],[2.4785533,48.6174485],[2.4792579,48.6178839],[2.4802596,48.6183922],[2.4814924,48.6189273],[2.4805573,48.6195847],[2.4800162,48.6200688],[2.4792969,48.6211583],[2.4790243,48.6217747],[2.4789146,48.6221439],[2.4768423,48.6213325],[2.4767454,48.6210989],[2.476645,48.6211759],[2.4756046,48.620808],[2.4755297,48.6209311],[2.4753137,48.6211187],[2.4751009,48.6214136],[2.4747066,48.6218118],[2.4740705,48.622557],[2.4735938,48.6229882],[2.4731027,48.623372],[2.4726632,48.6238219],[2.4723447,48.6239978],[2.4723398,48.6240402],[2.4716151,48.6245645],[2.4704171,48.625385],[2.4678939,48.6240732],[2.4655221,48.6233939],[2.4654838,48.623342],[2.4653781,48.6233644],[2.4636612,48.6231226],[2.4615345,48.6227565],[2.4615941,48.6225625]]]]},"properties":{"code_section":"91174000BT","code_commune":"91174","section_courte":"BT"}},{"type":"Feature","geometry":{"type":"MultiPolygon","coordinates":[[[[2.4841411,48.6134904],[2.4842053,48.6134384],[2.486285,48.6144282],[2.4863664,48.6144914],[2.4868211,48.6146793],[2.4864547,48.6150041],[2.4864796,48.6152873],[2.4866338,48.6153237],[2.4864402,48.6156291],[2.4864418,48.6157585],[2.4862839,48.6157683],[2.4862003,48.6156559],[2.4861547,48.6155202],[2.4862097,48.6152999],[2.4858367,48.6152619],[2.4856728,48.6154432],[2.4854874,48.6155609],[2.4852348,48.6154801],[2.4852653,48.6154415],[2.4852309,48.6154301],[2.4851499,48.6155282],[2.4850288,48.615482],[2.484912,48.6155959],[2.4849391,48.6156116],[2.4845264,48.6159863],[2.4848881,48.616184],[2.4846547,48.6163708],[2.4844358,48.6166931],[2.4845626,48.6167437],[2.4843067,48.6170497],[2.4838883,48.6169033],[2.4837131,48.6170963],[2.4835935,48.6170604],[2.4833361,48.61738],[2.4832872,48.6175715],[2.4834423,48.6175897],[2.4834007,48.6177371],[2.4833465,48.6177909],[2.4832642,48.6178478],[2.4829586,48.6177723],[2.4829618,48.6178361],[2.4826352,48.6177408],[2.4814924,48.6189273],[2.4802596,48.6183922],[2.479704,48.6181148],[2.4792579,48.6178839],[2.4785533,48.6174485],[2.4800082,48.6161894],[2.482129,48.6148071],[2.4829795,48.6143573],[2.4841411,48.6134904]]]]},"properties":{"code_section":"91174000BV","code_commune":"91174","section_courte":"BV"}},{"type":"Feature","geometry":{"type":"MultiPolygon","coordinates":[[[[2.486285,48.6144282],[2.4842053,48.6134384],[2.4851716,48.6126147],[2.4872663,48.6113746],[2.4885703,48.609971],[2.4894005,48.6089787],[2.490871,48.609445],[2.4918017,48.6097906],[2.491503,48.6098939],[2.4917888,48.6101561],[2.4922619,48.6104427],[2.4917273,48.6107127],[2.4911989,48.6108954],[2.4902618,48.6114244],[2.4905986,48.6115818],[2.4900167,48.6121642],[2.4896034,48.6123959],[2.4899126,48.6125176],[2.4896941,48.612674],[2.4893667,48.6128214],[2.4893204,48.6128721],[2.4893529,48.6130111],[2.4892997,48.6130685],[2.4893453,48.6131795],[2.4889183,48.6134378],[2.4877212,48.6138198],[2.4878177,48.6138846],[2.4875144,48.6141162],[2.4872478,48.6142432],[2.4868825,48.6146533],[2.4868211,48.6146793],[2.4863664,48.6144914],[2.486285,48.6144282]]]]},"properties":{"code_section":"91174000BW","code_commune":"91174","section_courte":"BW"}}]}