{"type":"FeatureCollection","features":[{"type":"Feature","geometry":{"type":"MultiPolygon","coordinates":[[[[2.3837004,48.5664146],[2.3862994,48.5667205],[2.3866587,48.5668284],[2.3870508,48.5670105],[2.3870016,48.5670631],[2.3871917,48.5672638],[2.3874941,48.5674687],[2.3893724,48.5678589],[2.3911913,48.5683428],[2.391526,48.5683689],[2.394073,48.5689764],[2.3964548,48.5693561],[2.3982469,48.5695276],[2.398671,48.5696377],[2.4013341,48.5708097],[2.4043672,48.5718167],[2.4038236,48.5725314],[2.4065022,48.5736459],[2.4076651,48.5740089],[2.4083867,48.5743119],[2.4087514,48.5745154],[2.4108222,48.5758496],[2.412062,48.5750097],[2.4127642,48.5755432],[2.4132287,48.5760357],[2.4133364,48.5762819],[2.4136268,48.5765469],[2.4142956,48.5770367],[2.4150335,48.5773977],[2.4159451,48.5780269],[2.4178868,48.5798096],[2.417965,48.5800082],[2.4179067,48.5801971],[2.4176803,48.5803055],[2.4159085,48.5817004],[2.4161629,48.581814],[2.4147365,48.5836837],[2.4153969,48.5839389],[2.4131304,48.5866235],[2.4118308,48.5861753],[2.4109427,48.587119],[2.4118736,48.5874673],[2.4095961,48.5891727],[2.4073885,48.58875],[2.4065814,48.5894969],[2.4046525,48.5910195],[2.4046171,48.5910008],[2.4035875,48.5918108],[2.4014479,48.5905826],[2.4003307,48.5911525],[2.3995901,48.5916214],[2.3979506,48.5894301],[2.3973296,48.5891043],[2.397169,48.5891351],[2.3949038,48.5900024],[2.3939089,48.5892496],[2.3936949,48.5891573],[2.393564,48.5892125],[2.3921834,48.5878702],[2.3938231,48.587043],[2.3935559,48.5866429],[2.3929461,48.5854837],[2.3917608,48.5837458],[2.3899063,48.5813522],[2.3887479,48.5814596],[2.3888652,48.581829],[2.3870642,48.5819265],[2.3860782,48.5818276],[2.385257,48.5819348],[2.3852401,48.5813464],[2.3835984,48.5782928],[2.3833203,48.5769544],[2.3831921,48.5751206],[2.3826847,48.572214],[2.3825638,48.5717127],[2.3825747,48.5709529],[2.382397,48.5697876],[2.3831167,48.5663849],[2.3831257,48.5663475],[2.3837004,48.5664146]]]]},"properties":{"code_section":"912040000A","code_commune":"91204","section_courte":"A"}},{"type":"Feature","geometry":{"type":"MultiPolygon","coordinates":[[[[2.3908433,48.5575004],[2.3915612,48.55787],[2.3919141,48.5581205],[2.3921063,48.5581649],[2.392861,48.5581993],[2.3933144,48.5584362],[2.393625,48.5585521],[2.3939617,48.5585942],[2.3945316,48.5585896],[2.3947614,48.5586207],[2.3955331,48.558896],[2.3960312,48.5591453],[2.3976542,48.5594653],[2.3980653,48.559603],[2.3983843,48.5597792],[2.3985214,48.5598083],[2.399089,48.5598015],[2.3994331,48.5598758],[2.3996142,48.5599524],[2.3998413,48.5601296],[2.3998931,48.5602692],[2.3998476,48.5603851],[2.3995342,48.56077],[2.3994144,48.5611395],[2.3994018,48.5613892],[2.3995182,48.561573],[2.3998029,48.5617088],[2.4002561,48.5618521],[2.4009473,48.5622097],[2.4019051,48.563002],[2.4020328,48.5630708],[2.4024869,48.563139],[2.4033584,48.5635663],[2.4037546,48.5640207],[2.4045028,48.564369],[2.4047301,48.5644419],[2.4054778,48.5645964],[2.4058247,48.5646309],[2.4061048,48.5646148],[2.4071704,48.5647732],[2.4074518,48.5647911],[2.4076392,48.5648415],[2.4080602,48.5650234],[2.408691,48.5649609],[2.4099282,48.5647036],[2.4104337,48.5646962],[2.4112781,48.5645743],[2.4115838,48.5646014],[2.4117867,48.5646614],[2.4127318,48.5647571],[2.4128427,48.5648748],[2.412697,48.565267],[2.4128051,48.5653864],[2.4133712,48.5656616],[2.4136463,48.5657098],[2.4136982,48.5657555],[2.4138397,48.5657591],[2.413982,48.5658504],[2.4139681,48.5658952],[2.4140968,48.5659222],[2.4146166,48.5664364],[2.4149698,48.5666897],[2.4153427,48.5668452],[2.4158931,48.5669896],[2.416346,48.5672342],[2.4173032,48.5676638],[2.4175291,48.5678137],[2.418561,48.5683533],[2.4203066,48.5696473],[2.4204087,48.5697852],[2.4209853,48.5700093],[2.4209299,48.570226],[2.420994,48.5703365],[2.4212224,48.5705222],[2.4214502,48.5706547],[2.421501,48.5707399],[2.4217126,48.5708153],[2.4202364,48.5717098],[2.4206583,48.5721397],[2.4211794,48.5725545],[2.4220055,48.5730507],[2.4223364,48.5734469],[2.4193712,48.575084],[2.419274,48.5750729],[2.4190593,48.5752574],[2.4186772,48.5749084],[2.4169638,48.5757121],[2.4180435,48.5767583],[2.4158398,48.5779759],[2.4155255,48.5777239],[2.4150335,48.5773977],[2.4142956,48.5770367],[2.4136268,48.5765469],[2.4133364,48.5762819],[2.4132287,48.5760357],[2.4145016,48.57543],[2.4143351,48.5752512],[2.4146523,48.5751177],[2.4145015,48.5749895],[2.4150243,48.5747477],[2.4152551,48.5745828],[2.4161005,48.5742058],[2.4161436,48.574146],[2.4160134,48.5739039],[2.4168438,48.5736402],[2.4174228,48.5742709],[2.4178638,48.5741083],[2.4179638,48.5741456],[2.4180845,48.5742455],[2.4187544,48.5737966],[2.4188412,48.5736781],[2.418828,48.573609],[2.4181345,48.5727753],[2.4173894,48.5722725],[2.4175135,48.5722005],[2.4171777,48.5719289],[2.4172301,48.5719003],[2.4167876,48.5714763],[2.4155389,48.5707477],[2.4153452,48.5709338],[2.4152309,48.5708736],[2.4150303,48.5710724],[2.4141132,48.5705977],[2.4126272,48.569493],[2.4125433,48.5695016],[2.4136285,48.568693],[2.4150461,48.5677013],[2.4147855,48.5675466],[2.4144573,48.5674484],[2.4134544,48.5675891],[2.4132739,48.5675906],[2.4129712,48.5675422],[2.4127876,48.5674819],[2.4123557,48.5671746],[2.4121838,48.5668123],[2.4074572,48.5650608],[2.4060135,48.5666965],[2.4059497,48.5667262],[2.4038565,48.5691981],[2.4036819,48.5692508],[2.40302,48.569822],[2.4047913,48.570746],[2.4040311,48.5717156],[2.4013341,48.5708097],[2.398671,48.5696377],[2.3982469,48.5695276],[2.3964548,48.5693561],[2.394073,48.5689764],[2.391526,48.5683689],[2.3911913,48.5683428],[2.3893724,48.5678589],[2.3874941,48.5674687],[2.3871917,48.5672638],[2.3870016,48.5670631],[2.3870508,48.5670105],[2.3872707,48.5662761],[2.3870287,48.5655106],[2.3870088,48.5652275],[2.3872247,48.5637102],[2.387525,48.5637265],[2.3873483,48.5627788],[2.3876673,48.5627004],[2.3877043,48.5626549],[2.3877171,48.5624563],[2.3878672,48.5621851],[2.3878185,48.5619522],[2.3879967,48.5609937],[2.3883055,48.5601102],[2.3885605,48.5599947],[2.3889685,48.5595675],[2.3907242,48.5575138],[2.3907798,48.5574588],[2.3908433,48.5575004]]]]},"properties":{"code_section":"912040000B","code_commune":"91204","section_courte":"B"}},{"type":"Feature","geometry":{"type":"MultiPolygon","coordinates":[[[[2.4074287,48.5739343],[2.4065022,48.5736459],[2.4057853,48.5733486],[2.4066401,48.5725575],[2.4076466,48.5717085],[2.4077662,48.5719243],[2.4084489,48.572104],[2.4086728,48.5718969],[2.4090997,48.5717844],[2.4101121,48.5716977],[2.410522,48.5711781],[2.4108809,48.5708335],[2.4125433,48.5695016],[2.4126272,48.569493],[2.4141132,48.5705977],[2.4150303,48.5710724],[2.4152309,48.5708736],[2.4153452,48.5709338],[2.4155389,48.5707477],[2.4167876,48.5714763],[2.4172301,48.5719003],[2.4171777,48.5719289],[2.4175135,48.5722005],[2.4173894,48.5722725],[2.4181345,48.5727753],[2.4188407,48.5736404],[2.4187544,48.5737966],[2.4180845,48.5742455],[2.4179638,48.5741456],[2.4178638,48.5741083],[2.4174228,48.5742709],[2.4168438,48.5736402],[2.4160134,48.5739039],[2.4161436,48.574146],[2.4161005,48.5742058],[2.4152551,48.5745828],[2.4150243,48.5747477],[2.4145015,48.5749895],[2.4146523,48.5751177],[2.4143351,48.5752512],[2.4145016,48.57543],[2.4132287,48.5760357],[2.4127642,48.5755432],[2.412062,48.5750097],[2.4108222,48.5758496],[2.4087514,48.5745154],[2.4080144,48.5741408],[2.4074287,48.5739343]]]]},"properties":{"code_section":"91204000AB","code_commune":"91204","section_courte":"AB"}},{"type":"Feature","geometry":{"type":"MultiPolygon","coordinates":[[[[2.4038739,48.5724619],[2.4043672,48.5718167],[2.4040311,48.5717156],[2.4047913,48.570746],[2.40302,48.569822],[2.4036819,48.5692508],[2.4038565,48.5691981],[2.4059497,48.5667262],[2.4060135,48.5666965],[2.4074572,48.5650608],[2.4121838,48.5668123],[2.4123557,48.5671746],[2.4127876,48.5674819],[2.4129712,48.5675422],[2.4132739,48.5675906],[2.4134544,48.5675891],[2.4144573,48.5674484],[2.4147855,48.5675466],[2.4150461,48.5677013],[2.4127823,48.5693025],[2.4113367,48.5704449],[2.410522,48.5711781],[2.4101121,48.5716977],[2.4090997,48.5717844],[2.4086728,48.5718969],[2.4084489,48.572104],[2.4077662,48.5719243],[2.4076466,48.5717085],[2.4066401,48.5725575],[2.4057853,48.5733486],[2.4038236,48.5725314],[2.4038739,48.5724619]]]]},"properties":{"code_section":"91204000AC","code_commune":"91204","section_courte":"AC"}}]}