{"type":"FeatureCollection","features":[{"type":"Feature","geometry":{"type":"MultiPolygon","coordinates":[[[[2.3211097,48.6822791],[2.3258159,48.6793609],[2.3278405,48.6781575],[2.3282847,48.6783513],[2.3287503,48.6782193],[2.3288996,48.6782092],[2.3295498,48.6782249],[2.3298414,48.6783567],[2.330317,48.6788086],[2.3308728,48.6794238],[2.3321351,48.6809319],[2.3319745,48.6809379],[2.331393,48.6814387],[2.3312456,48.6814908],[2.330138,48.682602],[2.3297711,48.6829937],[2.3267037,48.6866125],[2.3237606,48.684678],[2.3236022,48.6844959],[2.3235824,48.6842683],[2.3223067,48.6835788],[2.3225682,48.6834631],[2.3228231,48.6833021],[2.3211097,48.6822791]]]]},"properties":{"code_section":"91216000AB","code_commune":"91216","section_courte":"AB"}},{"type":"Feature","geometry":{"type":"MultiPolygon","coordinates":[[[[2.3178413,48.6801407],[2.3176878,48.6802663],[2.3167757,48.6796725],[2.3167438,48.6796912],[2.3164521,48.6794447],[2.3219579,48.6762842],[2.3255238,48.6773897],[2.3256687,48.6774129],[2.3276414,48.6780483],[2.3278405,48.6781575],[2.3258938,48.6793163],[2.3250464,48.678832],[2.3238677,48.6778475],[2.3241178,48.677732],[2.323434,48.6772054],[2.3225707,48.6776894],[2.3212774,48.6782838],[2.3200955,48.6788838],[2.3202222,48.6789783],[2.3189769,48.6797838],[2.3182866,48.6803324],[2.3179087,48.6800857],[2.3178413,48.6801407]]]]},"properties":{"code_section":"91216000AC","code_commune":"91216","section_courte":"AC"}},{"type":"Feature","geometry":{"type":"MultiPolygon","coordinates":[[[[2.3341062,48.6759468],[2.335611,48.6764933],[2.3364932,48.6767099],[2.3366528,48.6769192],[2.3361546,48.677081],[2.3359181,48.6772979],[2.3356937,48.6773527],[2.3350076,48.6776844],[2.3348365,48.6777346],[2.3346469,48.6777574],[2.3339225,48.6776133],[2.3336532,48.6776802],[2.3334003,48.677861],[2.3332861,48.677881],[2.3330752,48.6778551],[2.3328281,48.6780072],[2.3326303,48.6779976],[2.3324466,48.6780408],[2.3323796,48.6780308],[2.3323293,48.6779841],[2.3322966,48.6778747],[2.3320059,48.6778805],[2.331582,48.6778114],[2.3316603,48.6776421],[2.3310337,48.6776119],[2.3301889,48.6778449],[2.330026,48.6779233],[2.32988,48.6780366],[2.3296822,48.678274],[2.3295498,48.6782249],[2.3288996,48.6782092],[2.3287503,48.6782193],[2.3282847,48.6783513],[2.3276414,48.6780483],[2.3256687,48.6774129],[2.3255238,48.6773897],[2.3219579,48.6762842],[2.3264274,48.6736699],[2.3300582,48.6745083],[2.3310853,48.6747913],[2.3322068,48.6751688],[2.3331262,48.6755959],[2.3338898,48.675847],[2.3341062,48.6759468]]]]},"properties":{"code_section":"91216000AD","code_commune":"91216","section_courte":"AD"}},{"type":"Feature","geometry":{"type":"MultiPolygon","coordinates":[[[[2.3366706,48.676909],[2.3364932,48.6767099],[2.335611,48.6764933],[2.3338898,48.675847],[2.3331262,48.6755959],[2.3322068,48.6751688],[2.3310853,48.6747913],[2.3300582,48.6745083],[2.3264274,48.6736699],[2.3280516,48.6727663],[2.3285488,48.672555],[2.3306057,48.671958],[2.3317239,48.6718273],[2.3329672,48.6718924],[2.3332965,48.6724924],[2.3336549,48.6730012],[2.3351095,48.6747625],[2.3350493,48.6748494],[2.3351391,48.6749411],[2.3351935,48.674864],[2.3363828,48.6760613],[2.3366128,48.6762535],[2.3372411,48.6766394],[2.3370323,48.676786],[2.3366706,48.676909]]]]},"properties":{"code_section":"91216000AE","code_commune":"91216","section_courte":"AE"}},{"type":"Feature","geometry":{"type":"MultiPolygon","coordinates":[[[[2.3328076,48.669825],[2.3327693,48.6708754],[2.3328112,48.6712938],[2.3329672,48.6718924],[2.3317239,48.6718273],[2.3307219,48.6719321],[2.3285488,48.672555],[2.328365,48.6726332],[2.3282591,48.6724877],[2.3252231,48.6724159],[2.3243306,48.6719853],[2.3243959,48.6716208],[2.3242831,48.6710111],[2.322884,48.6706865],[2.3216887,48.6700798],[2.3227076,48.6698875],[2.3243957,48.669517],[2.3255368,48.6690635],[2.3255797,48.6690411],[2.3255169,48.6689761],[2.3264155,48.6685762],[2.3273043,48.6683039],[2.3275742,48.6682551],[2.3280817,48.6683047],[2.3282072,48.6682618],[2.3283889,48.6681039],[2.3287784,48.6680653],[2.3289129,48.6680916],[2.3299371,48.667866],[2.3303611,48.6676728],[2.3309825,48.6676536],[2.3315507,48.6674959],[2.3319944,48.6674586],[2.3325291,48.6673603],[2.3328766,48.6673381],[2.3328324,48.6694209],[2.3328909,48.6694318],[2.332886,48.6696351],[2.3328206,48.6696191],[2.3328076,48.669825]]]]},"properties":{"code_section":"91216000AI","code_commune":"91216","section_courte":"AI"}},{"type":"Feature","geometry":{"type":"MultiPolygon","coordinates":[[[[2.3204772,48.670353],[2.3205137,48.6702941],[2.32048,48.6701656],[2.3206407,48.6698496],[2.3206383,48.6695106],[2.322884,48.6706865],[2.3242831,48.6710111],[2.3243959,48.6716208],[2.3243306,48.6719853],[2.3252231,48.6724159],[2.3282591,48.6724877],[2.328365,48.6726332],[2.3280516,48.6727663],[2.3264274,48.6736699],[2.3219579,48.6762842],[2.3184346,48.6749628],[2.3208201,48.6729269],[2.3181877,48.6723172],[2.3187846,48.6714497],[2.3189704,48.6714917],[2.3193298,48.6709125],[2.3187906,48.6707266],[2.3193263,48.6700117],[2.3202102,48.6703003],[2.3204772,48.670353]]]]},"properties":{"code_section":"91216000AK","code_commune":"91216","section_courte":"AK"}},{"type":"Feature","geometry":{"type":"MultiPolygon","coordinates":[[[[2.3255512,48.6690127],[2.3255797,48.6690411],[2.3255368,48.6690635],[2.3243957,48.669517],[2.3227076,48.6698875],[2.3216887,48.6700798],[2.3206383,48.6695106],[2.3206407,48.6698496],[2.32048,48.6701656],[2.3205137,48.6702941],[2.3204772,48.670353],[2.3202102,48.6703003],[2.3193263,48.6700117],[2.3187906,48.6707266],[2.3178072,48.6704275],[2.317175,48.6701853],[2.317822,48.6692935],[2.3164974,48.6686133],[2.3158799,48.6682055],[2.3152034,48.6687023],[2.3143954,48.6682604],[2.3137002,48.6676349],[2.31317,48.6672207],[2.3137056,48.6666221],[2.3137946,48.6663613],[2.3138504,48.665645],[2.3139731,48.665121],[2.3140034,48.6646103],[2.3142693,48.6643047],[2.31532,48.6647968],[2.3155726,48.6648445],[2.3156376,48.664951],[2.3165878,48.6651577],[2.318763,48.6657993],[2.3188983,48.6659527],[2.3190571,48.6662412],[2.320256,48.6680075],[2.3207843,48.6684143],[2.320884,48.6684348],[2.3212037,48.668349],[2.3214666,48.668326],[2.3222718,48.6684128],[2.3223208,48.6684473],[2.322381,48.6686402],[2.3225033,48.6687433],[2.3233009,48.6690196],[2.3235524,48.6690435],[2.3239573,48.6692798],[2.3242538,48.6693613],[2.3245321,48.6693473],[2.3255169,48.6689761],[2.3255512,48.6690127]]]]},"properties":{"code_section":"91216000AL","code_commune":"91216","section_courte":"AL"}},{"type":"Feature","geometry":{"type":"MultiPolygon","coordinates":[[[[2.3155726,48.6648445],[2.31532,48.6647968],[2.3142693,48.6643047],[2.3140034,48.6646103],[2.3139731,48.665121],[2.3138504,48.665645],[2.3137946,48.6663613],[2.3137056,48.6666221],[2.31317,48.6672207],[2.3119528,48.6684085],[2.3104888,48.6674625],[2.3099885,48.6669088],[2.3098985,48.6666651],[2.3110764,48.6666798],[2.3111845,48.6667888],[2.3119689,48.6668032],[2.3117651,48.6663587],[2.3117615,48.6661332],[2.3116738,48.6661444],[2.3116729,48.6660509],[2.3103196,48.6659197],[2.3102895,48.6659772],[2.3094679,48.6659365],[2.3094615,48.6661273],[2.3079675,48.6663364],[2.3079249,48.6663085],[2.3085621,48.6653742],[2.3074591,48.6652102],[2.3052433,48.6657727],[2.3051499,48.665913],[2.3050676,48.6655237],[2.3045427,48.6646849],[2.3045004,48.6643074],[2.3045703,48.6640993],[2.3049599,48.6637096],[2.3056183,48.6633671],[2.3063129,48.6630945],[2.3074446,48.662563],[2.3080409,48.6616952],[2.3079273,48.6614371],[2.3076247,48.6610072],[2.3065045,48.6601385],[2.3062838,48.6597687],[2.3073282,48.6586665],[2.3080345,48.6579881],[2.3087661,48.65738],[2.3093141,48.6571429],[2.3097777,48.6574077],[2.3106371,48.6576651],[2.3108209,48.6577654],[2.3114538,48.6583611],[2.3120666,48.6586953],[2.3121536,48.6587839],[2.3124534,48.6593913],[2.3131945,48.6598032],[2.3135154,48.6600186],[2.3141515,48.6609614],[2.3151759,48.6623473],[2.3153964,48.6627967],[2.3156928,48.6638954],[2.3156442,48.6644088],[2.315605,48.6644131],[2.3156551,48.6645235],[2.3155726,48.6648445]]]]},"properties":{"code_section":"91216000AM","code_commune":"91216","section_courte":"AM"}},{"type":"Feature","geometry":{"type":"MultiPolygon","coordinates":[[[[2.3117587,48.6784229],[2.3112705,48.6781799],[2.3115215,48.6779644],[2.3099906,48.6772234],[2.3085445,48.676398],[2.3082702,48.6764106],[2.3082887,48.6762354],[2.3080157,48.6754741],[2.3120334,48.6727245],[2.3135642,48.6734849],[2.3145693,48.673885],[2.3165046,48.6743242],[2.3171077,48.6745026],[2.3184346,48.6749628],[2.3219579,48.6762842],[2.3153634,48.6800664],[2.312772,48.6791291],[2.3115158,48.6787749],[2.3117921,48.6784371],[2.3117587,48.6784229]]]]},"properties":{"code_section":"91216000AN","code_commune":"91216","section_courte":"AN"}},{"type":"Feature","geometry":{"type":"MultiPolygon","coordinates":[[[[2.3069137,48.6771794],[2.3082702,48.6764106],[2.3085339,48.6763951],[2.3099906,48.6772234],[2.3115215,48.6779644],[2.3112705,48.6781799],[2.3117921,48.6784371],[2.3115158,48.6787749],[2.3112367,48.678715],[2.3099522,48.6782484],[2.3088625,48.6776561],[2.3048555,48.6785937],[2.3060122,48.6778415],[2.305934,48.6777344],[2.3069137,48.6771794]]]]},"properties":{"code_section":"91216000AO","code_commune":"91216","section_courte":"AO"}},{"type":"Feature","geometry":{"type":"MultiPolygon","coordinates":[[[[2.3333037,48.6792907],[2.3324621,48.6797177],[2.3316159,48.6802869],[2.330317,48.6788086],[2.3298414,48.6783567],[2.3296822,48.678274],[2.32988,48.6780366],[2.330026,48.6779233],[2.3301889,48.6778449],[2.3310337,48.6776119],[2.3316603,48.6776421],[2.331582,48.6778114],[2.3320059,48.6778805],[2.3322966,48.6778747],[2.3323293,48.6779841],[2.3323796,48.6780308],[2.3324466,48.6780408],[2.3326303,48.6779976],[2.3328281,48.6780072],[2.3330752,48.6778551],[2.3332861,48.677881],[2.3334003,48.677861],[2.3336532,48.6776802],[2.3339225,48.6776133],[2.3346469,48.6777574],[2.3348365,48.6777346],[2.3350076,48.6776844],[2.3356937,48.6773527],[2.3359181,48.6772979],[2.335976,48.6773279],[2.335596,48.6778949],[2.3351339,48.6783487],[2.3345583,48.6787022],[2.3333037,48.6792907]]]]},"properties":{"code_section":"91216000AP","code_commune":"91216","section_courte":"AP"}},{"type":"Feature","geometry":{"type":"MultiPolygon","coordinates":[[[[2.3371238,48.6705846],[2.3367292,48.6706971],[2.3366251,48.6707742],[2.3365802,48.6709096],[2.3366376,48.6712678],[2.3366168,48.6713524],[2.3361249,48.6718938],[2.3358619,48.6722822],[2.3359258,48.6724688],[2.3362647,48.6728403],[2.3356112,48.6743354],[2.3352203,48.6748968],[2.3351935,48.674864],[2.3351391,48.6749411],[2.3350493,48.6748494],[2.3351095,48.6747625],[2.3334427,48.6727153],[2.3330088,48.6720089],[2.3329397,48.6718152],[2.3328112,48.6712938],[2.3327693,48.6708754],[2.3328206,48.6696191],[2.332886,48.6696351],[2.3328909,48.6694318],[2.3328324,48.6694209],[2.3328766,48.6673381],[2.333713,48.667209],[2.3338974,48.6672165],[2.3343634,48.667251],[2.3349574,48.6673919],[2.336167,48.667514],[2.336572,48.6674397],[2.3368947,48.667453],[2.337029,48.6674116],[2.3373915,48.6670462],[2.3377094,48.6670375],[2.3377959,48.6670759],[2.3378387,48.6672802],[2.3379652,48.6675391],[2.3381215,48.667658],[2.3380932,48.6677475],[2.3382213,48.6678739],[2.3386375,48.6681158],[2.3387664,48.668392],[2.3391439,48.6685372],[2.3388585,48.6687648],[2.3388849,48.6689457],[2.3385174,48.6690652],[2.3384089,48.6691395],[2.3383863,48.6692062],[2.3384629,48.6693882],[2.3384354,48.6694409],[2.3379141,48.669743],[2.3378139,48.6700509],[2.3377199,48.6701594],[2.3372758,48.6705152],[2.3371238,48.6705846]]]]},"properties":{"code_section":"91216000AR","code_commune":"91216","section_courte":"AR"}},{"type":"Feature","geometry":{"type":"MultiPolygon","coordinates":[[[[2.32398,48.6804959],[2.3211146,48.6822761],[2.3203737,48.6818201],[2.3203477,48.6818396],[2.3200871,48.6817081],[2.318183,48.6814283],[2.3173383,48.6811706],[2.3152928,48.6801089],[2.3164521,48.6794447],[2.3167438,48.6796912],[2.3167757,48.6796725],[2.3176878,48.6802663],[2.3179087,48.6800857],[2.3182866,48.6803324],[2.3189769,48.6797838],[2.3202222,48.6789783],[2.3200955,48.6788838],[2.3212774,48.6782838],[2.3225707,48.6776894],[2.323434,48.6772054],[2.3241178,48.677732],[2.3238677,48.6778475],[2.3250464,48.678832],[2.3258938,48.6793163],[2.32398,48.6804959]]]]},"properties":{"code_section":"91216000ZB","code_commune":"91216","section_courte":"ZB"}},{"type":"Feature","geometry":{"type":"MultiPolygon","coordinates":[[[[2.3119528,48.6684085],[2.31317,48.6672207],[2.3137002,48.6676349],[2.3143954,48.6682604],[2.3152034,48.6687023],[2.3158799,48.6682055],[2.3164974,48.6686133],[2.317822,48.6692935],[2.317175,48.6701853],[2.3178072,48.6704275],[2.3181932,48.6705261],[2.3193298,48.6709125],[2.3189704,48.6714917],[2.3187846,48.6714497],[2.3181877,48.6723172],[2.3208201,48.6729269],[2.3184346,48.6749628],[2.3171077,48.6745026],[2.3165046,48.6743242],[2.3145693,48.673885],[2.3135642,48.6734849],[2.3120334,48.6727245],[2.3112431,48.6723942],[2.3082601,48.6706965],[2.3102149,48.6701838],[2.3102923,48.6701193],[2.3105866,48.6696053],[2.3108366,48.6692876],[2.3112177,48.6689261],[2.3119528,48.6684085]]]]},"properties":{"code_section":"91216000ZD","code_commune":"91216","section_courte":"ZD"}},{"type":"Feature","geometry":{"type":"MultiPolygon","coordinates":[[[[2.3119717,48.6727679],[2.3080157,48.6754741],[2.3082887,48.6762354],[2.3082702,48.6764106],[2.305934,48.6777344],[2.301987,48.672276],[2.2996263,48.6730992],[2.2996631,48.6727071],[2.2996209,48.6724204],[2.2996968,48.6721139],[2.2998139,48.6718361],[2.3000913,48.6713674],[2.3005401,48.6703336],[2.3002175,48.6698537],[2.3009466,48.6694353],[2.3010111,48.6694481],[2.3038239,48.6678488],[2.3052433,48.6657727],[2.3074591,48.6652102],[2.3085621,48.6653742],[2.3079249,48.6663085],[2.3079675,48.6663364],[2.3094615,48.6661273],[2.3094679,48.6659365],[2.3102895,48.6659772],[2.3103196,48.6659197],[2.3116729,48.6660509],[2.3116738,48.6661444],[2.3117615,48.6661332],[2.3117651,48.6663587],[2.3119689,48.6668032],[2.3111845,48.6667888],[2.3110764,48.6666798],[2.3098985,48.6666651],[2.3099885,48.6669088],[2.3104888,48.6674625],[2.3119528,48.6684085],[2.3112177,48.6689261],[2.3108366,48.6692876],[2.3105866,48.6696053],[2.3102923,48.6701193],[2.3102149,48.6701838],[2.3082601,48.6706965],[2.3112431,48.6723942],[2.3120334,48.6727245],[2.3119717,48.6727679]]]]},"properties":{"code_section":"91216000ZE","code_commune":"91216","section_courte":"ZE"}}]}