{"type":"FeatureCollection","features":[{"type":"Feature","geometry":{"type":"MultiPolygon","coordinates":[[[[2.500145,48.6775303],[2.498432,48.6765691],[2.5042194,48.6718128],[2.5237021,48.6769945],[2.5236287,48.6771388],[2.5235582,48.6771795],[2.5217041,48.6779695],[2.5203483,48.6788996],[2.519196,48.6796326],[2.5189578,48.68072],[2.5191586,48.6811042],[2.5200525,48.6816173],[2.5204175,48.6816193],[2.5176727,48.6826635],[2.5147419,48.6852175],[2.5146752,48.6852606],[2.5140523,48.6854424],[2.5140168,48.6853942],[2.5140871,48.6853717],[2.500145,48.6775303]]]]},"properties":{"code_section":"912150000C","code_commune":"91215","section_courte":"C"}},{"type":"Feature","geometry":{"type":"MultiPolygon","coordinates":[[[[2.5216838,48.70285],[2.5216637,48.7027285],[2.5230815,48.7025125],[2.5242006,48.7017705],[2.5240538,48.7016742],[2.5243248,48.7014921],[2.5245235,48.7014892],[2.5243967,48.7014144],[2.5247277,48.7011959],[2.5248968,48.7013026],[2.5250836,48.7011795],[2.5250031,48.7011246],[2.5263256,48.7002778],[2.5258057,48.6999346],[2.5256203,48.7000577],[2.5252683,48.6998241],[2.5264397,48.6990481],[2.5261666,48.6988651],[2.5270869,48.6982563],[2.5277025,48.6986629],[2.528739,48.6979825],[2.5305724,48.6991818],[2.5306315,48.6992845],[2.5313275,48.6995593],[2.5309207,48.7000157],[2.5304137,48.700994],[2.5299231,48.7014417],[2.52967,48.7017781],[2.5293905,48.7022031],[2.5291084,48.7027578],[2.5290139,48.703037],[2.5285286,48.7037588],[2.5283359,48.7039353],[2.5278712,48.7042281],[2.5267907,48.7047067],[2.5266502,48.7047326],[2.5264642,48.7047205],[2.5260508,48.7048073],[2.5254404,48.7050987],[2.525266,48.7051386],[2.5245282,48.7052102],[2.5238695,48.7051218],[2.5224543,48.7046812],[2.5222884,48.7045936],[2.5220902,48.7040126],[2.5216823,48.7033193],[2.5216838,48.70285]]]]},"properties":{"code_section":"91215000AA","code_commune":"91215","section_courte":"AA"}},{"type":"Feature","geometry":{"type":"MultiPolygon","coordinates":[[[[2.5215978,48.7024197],[2.5213611,48.7014307],[2.5215354,48.7011167],[2.5215069,48.7010078],[2.5208933,48.7006222],[2.5204695,48.7002349],[2.5194974,48.6995123],[2.5189014,48.6991876],[2.5181515,48.6985707],[2.5171148,48.6979332],[2.516923,48.6978459],[2.5170831,48.6976367],[2.5171495,48.6971603],[2.5178534,48.6964909],[2.5187714,48.6969584],[2.5212502,48.6953044],[2.5211968,48.6952695],[2.5214448,48.69525],[2.5218985,48.6955512],[2.5217766,48.6956301],[2.5228618,48.6963497],[2.5229154,48.6963519],[2.5238964,48.6969814],[2.524183,48.6972307],[2.5240738,48.697317],[2.5241018,48.6974162],[2.5248239,48.6978926],[2.5248961,48.6978974],[2.524986,48.697844],[2.526314,48.6987243],[2.5261666,48.6988651],[2.5264397,48.6990481],[2.5252683,48.6998241],[2.5256203,48.7000577],[2.5258057,48.6999346],[2.5263256,48.7002778],[2.5250031,48.7011246],[2.5250836,48.7011795],[2.5248968,48.7013026],[2.5247277,48.7011959],[2.5243967,48.7014144],[2.5245235,48.7014892],[2.5243248,48.7014921],[2.5240538,48.7016742],[2.5242006,48.7017705],[2.5230662,48.7025208],[2.5216637,48.7027285],[2.5215978,48.7024197]]]]},"properties":{"code_section":"91215000AB","code_commune":"91215","section_courte":"AB"}},{"type":"Feature","geometry":{"type":"MultiPolygon","coordinates":[[[[2.5319062,48.6987119],[2.5313275,48.6995593],[2.5306315,48.6992845],[2.5305724,48.6991818],[2.528739,48.6979825],[2.5277025,48.6986629],[2.5270869,48.6982563],[2.5262678,48.6987982],[2.5262359,48.6987745],[2.526314,48.6987243],[2.524986,48.697844],[2.5248961,48.6978974],[2.5248239,48.6978926],[2.5241018,48.6974162],[2.5240738,48.697317],[2.524183,48.6972307],[2.5238964,48.6969814],[2.5229154,48.6963519],[2.5228618,48.6963497],[2.5217766,48.6956301],[2.5218985,48.6955512],[2.5214448,48.69525],[2.5216867,48.6952379],[2.5218534,48.6953485],[2.5220326,48.6952305],[2.5222721,48.6952273],[2.5231717,48.6946327],[2.5237227,48.6949993],[2.5237919,48.6949543],[2.5238319,48.6949797],[2.5238613,48.6949608],[2.5241426,48.6951478],[2.524499,48.6949162],[2.5254417,48.6955445],[2.5254575,48.6938024],[2.5254915,48.6938024],[2.5255051,48.6937579],[2.525504,48.6933552],[2.5260587,48.6933817],[2.5267464,48.6934653],[2.5270718,48.6934703],[2.5273145,48.6934344],[2.5278955,48.6935044],[2.5282479,48.6936835],[2.5287583,48.6940653],[2.5290115,48.694212],[2.5293848,48.6943706],[2.5301398,48.6945864],[2.5306372,48.6947647],[2.5310809,48.6949654],[2.5315332,48.6953632],[2.5316677,48.695618],[2.5317076,48.6958698],[2.5316307,48.6964448],[2.5314807,48.6969253],[2.5314875,48.6971249],[2.5316739,48.6976275],[2.5320335,48.6980155],[2.5321434,48.6982564],[2.5320946,48.6984364],[2.5319062,48.6987119]]]]},"properties":{"code_section":"91215000AC","code_commune":"91215","section_courte":"AC"}},{"type":"Feature","geometry":{"type":"MultiPolygon","coordinates":[[[[2.5245676,48.6927364],[2.5250858,48.6932213],[2.5252878,48.6933076],[2.525504,48.6933552],[2.5255051,48.6937579],[2.5254915,48.6938024],[2.5254575,48.6938024],[2.5254417,48.6955445],[2.524499,48.6949162],[2.5241426,48.6951478],[2.5238613,48.6949608],[2.5238319,48.6949797],[2.5237919,48.6949543],[2.5237227,48.6949993],[2.5231717,48.6946327],[2.5222721,48.6952273],[2.5220326,48.6952305],[2.5218534,48.6953485],[2.5216867,48.6952379],[2.5211968,48.6952695],[2.5212502,48.6953044],[2.5187714,48.6969584],[2.5178534,48.6964909],[2.5178128,48.6965291],[2.5169873,48.6960367],[2.5182254,48.6949054],[2.5173303,48.694419],[2.5182473,48.6937648],[2.5170662,48.6930567],[2.5198237,48.691716],[2.5200686,48.6915722],[2.5212432,48.6911968],[2.521293,48.6911355],[2.521689,48.691251],[2.5218571,48.6911947],[2.5230667,48.691518],[2.5235852,48.6916134],[2.523727,48.6916794],[2.5241967,48.6921441],[2.5243453,48.6925164],[2.5245676,48.6927364]]]]},"properties":{"code_section":"91215000AD","code_commune":"91215","section_courte":"AD"}},{"type":"Feature","geometry":{"type":"MultiPolygon","coordinates":[[[[2.5203018,48.6915091],[2.5200686,48.6915722],[2.5198237,48.691716],[2.5170662,48.6930567],[2.5166289,48.6933805],[2.5158219,48.6938218],[2.5157176,48.6937776],[2.5153636,48.6937438],[2.5149504,48.6928812],[2.5148964,48.6925307],[2.5147467,48.6922843],[2.5141715,48.6916335],[2.5142061,48.6916022],[2.5140852,48.6914619],[2.5140481,48.6914919],[2.5139098,48.691335],[2.513911,48.6912009],[2.5139569,48.6910991],[2.514111,48.6910114],[2.5159611,48.6893181],[2.5162661,48.6894946],[2.5162898,48.6894737],[2.5164764,48.6895637],[2.5164547,48.6895856],[2.5166095,48.6896889],[2.5174492,48.688821],[2.5175956,48.6887555],[2.5175004,48.6887452],[2.5182983,48.6880198],[2.5184779,48.688082],[2.5198212,48.6870747],[2.5218119,48.6858794],[2.5225928,48.6872041],[2.5218934,48.6873329],[2.5219656,48.6874477],[2.5213535,48.687688],[2.5210616,48.6879832],[2.5206116,48.6881845],[2.5198934,48.6885907],[2.5198217,48.6886578],[2.5196692,48.6891761],[2.519688,48.6896247],[2.5197426,48.6898053],[2.5198774,48.690018],[2.5203849,48.6903696],[2.5209945,48.6910509],[2.521293,48.6911355],[2.5212432,48.6911968],[2.5203018,48.6915091]]]]},"properties":{"code_section":"91215000AE","code_commune":"91215","section_courte":"AE"}},{"type":"Feature","geometry":{"type":"MultiPolygon","coordinates":[[[[2.516343,48.6876791],[2.5162636,48.6874678],[2.5161128,48.6872806],[2.5144481,48.6857469],[2.5144016,48.6856342],[2.5145265,48.6854297],[2.5146752,48.6852606],[2.5176727,48.6826635],[2.5215403,48.681175],[2.5223415,48.6858684],[2.5219241,48.686068],[2.5218119,48.6858794],[2.5198212,48.6870747],[2.5184779,48.688082],[2.5182983,48.6880198],[2.5175004,48.6887452],[2.5175956,48.6887555],[2.5174492,48.688821],[2.5166095,48.6896889],[2.5164547,48.6895856],[2.5164764,48.6895637],[2.5162898,48.6894737],[2.5162661,48.6894946],[2.5159611,48.6893181],[2.5162934,48.6889914],[2.5163973,48.6888044],[2.5164508,48.6885992],[2.516343,48.6876791]]]]},"properties":{"code_section":"91215000AH","code_commune":"91215","section_courte":"AH"}},{"type":"Feature","geometry":{"type":"MultiPolygon","coordinates":[[[[2.516343,48.6876791],[2.5164508,48.6885992],[2.5163973,48.6888044],[2.5162934,48.6889914],[2.514111,48.6910114],[2.5139569,48.6910991],[2.5139992,48.6910155],[2.5136023,48.690065],[2.511481,48.6904171],[2.5104456,48.690513],[2.5098821,48.6897533],[2.5098049,48.6898119],[2.5097604,48.6897975],[2.5059658,48.6877674],[2.5146752,48.6852606],[2.5144016,48.6856342],[2.5144481,48.6857469],[2.5161128,48.6872806],[2.5162636,48.6874678],[2.516343,48.6876791]]]]},"properties":{"code_section":"91215000AI","code_commune":"91215","section_courte":"AI"}},{"type":"Feature","geometry":{"type":"MultiPolygon","coordinates":[[[[2.513407,48.6947195],[2.5131932,48.6946983],[2.5129826,48.6946369],[2.5125304,48.6944257],[2.5119012,48.694205],[2.511553,48.6941286],[2.5115917,48.6940874],[2.511378,48.6940124],[2.5113407,48.6940517],[2.5107864,48.6938832],[2.5097349,48.6939143],[2.509892,48.6935202],[2.5096784,48.6922538],[2.5095176,48.6907466],[2.509443,48.6902699],[2.5093888,48.6902167],[2.5098821,48.6897533],[2.5104456,48.690513],[2.511481,48.6904171],[2.5136023,48.690065],[2.5139992,48.6910155],[2.513911,48.6912009],[2.5139098,48.691335],[2.5140481,48.6914919],[2.5140852,48.6914619],[2.5142061,48.6916022],[2.5141715,48.6916335],[2.5147467,48.6922843],[2.5148964,48.6925307],[2.5149504,48.6928812],[2.5153636,48.6937438],[2.5149779,48.6946352],[2.513407,48.6947195]]]]},"properties":{"code_section":"91215000AK","code_commune":"91215","section_courte":"AK"}},{"type":"Feature","geometry":{"type":"MultiPolygon","coordinates":[[[[2.5127794,48.6945441],[2.5131932,48.6946983],[2.513407,48.6947195],[2.5149779,48.6946352],[2.5153636,48.6937438],[2.5157176,48.6937776],[2.5158219,48.6938218],[2.5166289,48.6933805],[2.5170662,48.6930567],[2.5182473,48.6937648],[2.5173303,48.694419],[2.5182254,48.6949054],[2.5169873,48.6960367],[2.5178128,48.6965291],[2.5171495,48.6971603],[2.5170831,48.6976367],[2.516923,48.6978459],[2.5165984,48.6977356],[2.5161476,48.6976302],[2.5134915,48.697376],[2.5138786,48.6969949],[2.5137878,48.6969572],[2.5130649,48.6968458],[2.5123334,48.6966664],[2.511798,48.6963769],[2.5114093,48.6959292],[2.5110481,48.6957133],[2.5109035,48.6954551],[2.5107098,48.6952752],[2.5107001,48.6950733],[2.5104801,48.6949649],[2.5103619,48.6948157],[2.5101915,48.6947076],[2.5100475,48.6944963],[2.5100718,48.6944056],[2.5098886,48.694315],[2.5097349,48.6939143],[2.5107864,48.6938832],[2.5113407,48.6940517],[2.511378,48.6940124],[2.5115917,48.6940874],[2.511553,48.6941286],[2.5119012,48.694205],[2.5125304,48.6944257],[2.5127794,48.6945441]]]]},"properties":{"code_section":"91215000AL","code_commune":"91215","section_courte":"AL"}}]}