{"type":"FeatureCollection","features":[{"type":"Feature","geometry":{"type":"MultiPolygon","coordinates":[[[[2.4306877,48.6437644],[2.4263028,48.6409867],[2.4269158,48.6403921],[2.4273163,48.6399464],[2.4273909,48.6398028],[2.4273029,48.6396687],[2.4275572,48.6395392],[2.4276901,48.639626],[2.4278566,48.6396193],[2.4293229,48.6388913],[2.4302946,48.6384531],[2.4312506,48.6378177],[2.4328726,48.6366384],[2.4332617,48.6362754],[2.4335968,48.6358999],[2.4349765,48.6363494],[2.4351341,48.636573],[2.4352499,48.6366496],[2.4354648,48.636671],[2.4356657,48.6365737],[2.4358547,48.6366361],[2.4356876,48.6367761],[2.4352553,48.6369891],[2.4354174,48.6373246],[2.4355486,48.637732],[2.4356076,48.6380909],[2.4356066,48.6384984],[2.4355002,48.6390457],[2.4349509,48.6405924],[2.4353043,48.6406493],[2.4355481,48.6405581],[2.4349431,48.641101],[2.4350342,48.64115],[2.4349699,48.6412026],[2.4327742,48.6427277],[2.4308854,48.6439425],[2.4308491,48.6438735],[2.4306877,48.6437644]]]]},"properties":{"code_section":"91228000AB","code_commune":"91228","section_courte":"AB"}},{"type":"Feature","geometry":{"type":"MultiPolygon","coordinates":[[[[2.4354345,48.6406607],[2.4355481,48.6405581],[2.4353043,48.6406493],[2.4349509,48.6405924],[2.4355002,48.6390457],[2.4356066,48.6384984],[2.4356076,48.6380909],[2.4355486,48.637732],[2.4354174,48.6373246],[2.4352553,48.6369891],[2.4356876,48.6367761],[2.4358547,48.6366361],[2.4356657,48.6365737],[2.4354648,48.636671],[2.4352499,48.6366496],[2.4351341,48.636573],[2.4349765,48.6363494],[2.4335968,48.6358999],[2.4338348,48.6355913],[2.4338969,48.6352963],[2.4342483,48.6352089],[2.4344918,48.6356387],[2.4351328,48.6351121],[2.4356921,48.6345818],[2.4361797,48.6340644],[2.4366782,48.6334325],[2.438607,48.6343033],[2.438779,48.6344201],[2.4388357,48.6345538],[2.4388237,48.6355562],[2.4388746,48.6357284],[2.4392635,48.6360972],[2.4395043,48.6362687],[2.4395456,48.6363688],[2.4413111,48.6369662],[2.4406416,48.6378536],[2.4401577,48.6376934],[2.4402827,48.6375293],[2.4389019,48.6370999],[2.4375688,48.6387671],[2.4358198,48.6404151],[2.4381055,48.6414487],[2.4378929,48.6417316],[2.4372168,48.6422315],[2.4349431,48.641101],[2.4354345,48.6406607]]]]},"properties":{"code_section":"91228000AC","code_commune":"91228","section_courte":"AC"}},{"type":"Feature","geometry":{"type":"MultiPolygon","coordinates":[[[[2.4438107,48.6336069],[2.4429945,48.6340706],[2.4416386,48.6335445],[2.4395043,48.6362687],[2.4392635,48.6360972],[2.4388746,48.6357284],[2.4388237,48.6355562],[2.4388357,48.6345538],[2.438779,48.6344201],[2.438607,48.6343033],[2.4366782,48.6334325],[2.4370177,48.6329474],[2.4372486,48.6324527],[2.4372219,48.6323795],[2.4371151,48.6323425],[2.4375364,48.6319864],[2.4395117,48.6318882],[2.4404259,48.6317118],[2.4409399,48.6314789],[2.44093,48.6314057],[2.4410752,48.6313513],[2.440993,48.6312756],[2.441183,48.6313118],[2.4416418,48.6311821],[2.4434758,48.6299146],[2.4439781,48.6301626],[2.4455366,48.6305151],[2.4468025,48.6311447],[2.4475048,48.6317155],[2.4461647,48.6322651],[2.445518,48.6325648],[2.4453478,48.6327304],[2.4438107,48.6336069]]]]},"properties":{"code_section":"91228000AD","code_commune":"91228","section_courte":"AD"}},{"type":"Feature","geometry":{"type":"MultiPolygon","coordinates":[[[[2.4531011,48.6190997],[2.4571351,48.6211729],[2.4566723,48.6216307],[2.456113,48.6217538],[2.4553542,48.6220035],[2.4550011,48.6221539],[2.4544569,48.6224425],[2.4545803,48.622509],[2.4538192,48.6230676],[2.4525789,48.6243282],[2.451928,48.6248189],[2.45136,48.6251248],[2.4483684,48.6226865],[2.4527571,48.6189213],[2.4531011,48.6190997]]]]},"properties":{"code_section":"91228000AI","code_commune":"91228","section_courte":"AI"}},{"type":"Feature","geometry":{"type":"MultiPolygon","coordinates":[[[[2.4427148,48.6166937],[2.4447827,48.6176202],[2.4451434,48.6176777],[2.4510895,48.6203521],[2.4484915,48.622581],[2.4479209,48.6222815],[2.4456438,48.6212604],[2.4453792,48.6211764],[2.4450618,48.6211324],[2.4445417,48.6211685],[2.4442547,48.6212528],[2.4440355,48.6213572],[2.4429038,48.6223251],[2.4419653,48.6218574],[2.4418552,48.6217709],[2.4417862,48.6216508],[2.441621,48.6208993],[2.4415484,48.6207685],[2.4414399,48.6206794],[2.4412379,48.6206014],[2.4410433,48.6205818],[2.4402462,48.6206526],[2.440221,48.6202715],[2.4403079,48.6199242],[2.4393052,48.6200185],[2.4399853,48.6194148],[2.4396368,48.6194484],[2.4396187,48.6194704],[2.4395907,48.6194525],[2.4392404,48.6194869],[2.4392046,48.619322],[2.4393748,48.6191692],[2.4399842,48.6191097],[2.4414026,48.6178579],[2.440996,48.6179012],[2.4408449,48.6172537],[2.4413106,48.6168282],[2.4422987,48.6170608],[2.4427148,48.6166937]]]]},"properties":{"code_section":"91228000AK","code_commune":"91228","section_courte":"AK"}},{"type":"Feature","geometry":{"type":"MultiPolygon","coordinates":[[[[2.4402878,48.6242111],[2.4409739,48.6239015],[2.4417148,48.6233702],[2.4439266,48.6214295],[2.444213,48.621269],[2.4445417,48.6211685],[2.4450618,48.6211324],[2.445561,48.6212287],[2.4479209,48.6222815],[2.4484915,48.622581],[2.4429096,48.6272686],[2.4415379,48.6266013],[2.4401986,48.6261434],[2.4405295,48.6252002],[2.440071,48.624308],[2.4402878,48.6242111]]]]},"properties":{"code_section":"91228000AL","code_commune":"91228","section_courte":"AL"}},{"type":"Feature","geometry":{"type":"MultiPolygon","coordinates":[[[[2.4429096,48.6272686],[2.4411462,48.6287487],[2.4434758,48.6299146],[2.4416418,48.6311821],[2.441183,48.6313118],[2.440993,48.6312756],[2.4410752,48.6313513],[2.44093,48.6314057],[2.4409399,48.6314789],[2.4407259,48.6315902],[2.4404259,48.6317118],[2.4398304,48.6318411],[2.4395117,48.6318882],[2.4375364,48.6319864],[2.4371146,48.6319456],[2.4365979,48.6318501],[2.4361023,48.6317193],[2.4352836,48.631411],[2.4347648,48.6311238],[2.434656,48.6309437],[2.4347578,48.6307574],[2.4383737,48.6277129],[2.4383729,48.6276579],[2.4384556,48.6276384],[2.4401986,48.6261434],[2.4415379,48.6266013],[2.4429096,48.6272686]]]]},"properties":{"code_section":"91228000AM","code_commune":"91228","section_courte":"AM"}},{"type":"Feature","geometry":{"type":"MultiPolygon","coordinates":[[[[2.4311721,48.6302082],[2.4310516,48.6295672],[2.4311334,48.6291981],[2.4318731,48.6285735],[2.4308324,48.6280331],[2.4305641,48.6276994],[2.4302126,48.6257374],[2.4303783,48.6253362],[2.4311384,48.6246921],[2.4337903,48.6248863],[2.4355501,48.6249489],[2.437589,48.6248218],[2.4391475,48.6245669],[2.440071,48.624308],[2.4405295,48.6252002],[2.4401986,48.6261434],[2.4384556,48.6276384],[2.4383729,48.6276579],[2.4383737,48.6277129],[2.4347578,48.6307574],[2.434656,48.6309437],[2.4347648,48.6311238],[2.4339675,48.6306742],[2.4331751,48.6304376],[2.432386,48.6303163],[2.4313874,48.6303254],[2.4312601,48.6302894],[2.4311721,48.6302082]]]]},"properties":{"code_section":"91228000AN","code_commune":"91228","section_courte":"AN"}},{"type":"Feature","geometry":{"type":"MultiPolygon","coordinates":[[[[2.4338969,48.6352963],[2.4329981,48.6336751],[2.4329067,48.6334056],[2.4328474,48.6328759],[2.4329269,48.6323887],[2.4330377,48.6320857],[2.4335622,48.6312985],[2.4337652,48.6310979],[2.4337374,48.6310195],[2.4336682,48.6309694],[2.4339675,48.6306742],[2.4352836,48.631411],[2.4356239,48.6315557],[2.4365979,48.6318501],[2.4371146,48.6319456],[2.4375364,48.6319864],[2.4371151,48.6323425],[2.4372219,48.6323795],[2.4372486,48.6324527],[2.4370177,48.6329474],[2.4366099,48.63353],[2.436165,48.6340812],[2.4351328,48.6351121],[2.4344918,48.6356387],[2.4342483,48.6352089],[2.4338969,48.6352963]]]]},"properties":{"code_section":"91228000AO","code_commune":"91228","section_courte":"AO"}},{"type":"Feature","geometry":{"type":"MultiPolygon","coordinates":[[[[2.4235618,48.6251615],[2.4235349,48.6250161],[2.4280125,48.6246607],[2.4292653,48.6246103],[2.4311384,48.6246921],[2.4303783,48.6253362],[2.4302126,48.6257374],[2.4305641,48.6276994],[2.4308324,48.6280331],[2.4318731,48.6285735],[2.4311334,48.6291981],[2.4310782,48.6293688],[2.4310516,48.6295672],[2.4311611,48.6301832],[2.4312601,48.6302894],[2.4314325,48.63033],[2.4251845,48.6308303],[2.4249942,48.6307155],[2.4249529,48.6304958],[2.4244881,48.6305815],[2.4243074,48.6293069],[2.4235618,48.6251615]]]]},"properties":{"code_section":"91228000AP","code_commune":"91228","section_courte":"AP"}},{"type":"Feature","geometry":{"type":"MultiPolygon","coordinates":[[[[2.4244881,48.6305815],[2.4249529,48.6304958],[2.4251746,48.6317213],[2.4252115,48.6321842],[2.4257481,48.6351615],[2.4230786,48.6353587],[2.4215321,48.6349996],[2.4204106,48.6342877],[2.4208877,48.6339628],[2.4191212,48.6318521],[2.4183593,48.6314145],[2.4185393,48.6314228],[2.4189072,48.6313473],[2.4191028,48.6313359],[2.4192911,48.6313612],[2.419767,48.6314954],[2.4200766,48.6315036],[2.4213029,48.631172],[2.4242399,48.6309037],[2.4244455,48.630826],[2.4245067,48.6306786],[2.4244881,48.6305815]]]]},"properties":{"code_section":"91228000AR","code_commune":"91228","section_courte":"AR"}},{"type":"Feature","geometry":{"type":"MultiPolygon","coordinates":[[[[2.4258146,48.6355567],[2.4252115,48.6321842],[2.4251746,48.6317213],[2.4249942,48.6307155],[2.4251845,48.6308303],[2.4319755,48.6303023],[2.432795,48.6303622],[2.4331751,48.6304376],[2.4339652,48.6306766],[2.4336682,48.6309694],[2.4337374,48.6310195],[2.4337652,48.6310979],[2.4335622,48.6312985],[2.4331156,48.6319363],[2.4329335,48.6323687],[2.4328623,48.6326798],[2.4328564,48.6331005],[2.4329981,48.6336751],[2.4336544,48.634867],[2.4334031,48.6350799],[2.4284167,48.6354281],[2.4283977,48.6353294],[2.4258146,48.6355567]]]]},"properties":{"code_section":"91228000AS","code_commune":"91228","section_courte":"AS"}},{"type":"Feature","geometry":{"type":"MultiPolygon","coordinates":[[[[2.4275572,48.6395392],[2.4270404,48.6389909],[2.4271867,48.6389792],[2.4266617,48.6383197],[2.4262768,48.637604],[2.4260397,48.6367745],[2.4260168,48.6367507],[2.4259306,48.636758],[2.4259241,48.6367311],[2.426012,48.6367226],[2.4258823,48.6360263],[2.4257855,48.6360324],[2.42578,48.6360035],[2.4258763,48.6359951],[2.4257956,48.6355581],[2.4283977,48.6353294],[2.4284167,48.6354281],[2.4334031,48.6350799],[2.4336523,48.6348687],[2.4338969,48.6352963],[2.4338348,48.6355913],[2.4334748,48.6360514],[2.4328726,48.6366384],[2.4312506,48.6378177],[2.4302946,48.6384531],[2.4293229,48.6388913],[2.4278566,48.6396193],[2.4276901,48.639626],[2.4275572,48.6395392]]]]},"properties":{"code_section":"91228000AT","code_commune":"91228","section_courte":"AT"}},{"type":"Feature","geometry":{"type":"MultiPolygon","coordinates":[[[[2.4262325,48.6410514],[2.425784,48.6408465],[2.4258529,48.640702],[2.4256945,48.6406051],[2.4257021,48.6403783],[2.425002,48.6404645],[2.4247675,48.639607],[2.4240922,48.6392598],[2.4240173,48.6388517],[2.423242,48.6389137],[2.4231919,48.6386425],[2.4226191,48.6386857],[2.4224217,48.6385642],[2.4222101,48.6385821],[2.4221748,48.6384095],[2.4216068,48.6380571],[2.4237394,48.6378842],[2.4236367,48.6378095],[2.4242342,48.6377669],[2.4242212,48.6377197],[2.4239473,48.6375686],[2.4237113,48.6377679],[2.4226494,48.6372164],[2.4225768,48.636817],[2.4212347,48.636086],[2.4211338,48.6361693],[2.4196085,48.6353799],[2.4202175,48.6350453],[2.4202697,48.6348034],[2.4205842,48.6345696],[2.4205626,48.6344681],[2.4203786,48.6343371],[2.4204106,48.6342877],[2.4215321,48.6349996],[2.4230786,48.6353587],[2.4257447,48.6351619],[2.4258763,48.6359951],[2.42578,48.6360035],[2.4257855,48.6360324],[2.4258823,48.6360263],[2.426012,48.6367226],[2.4259241,48.6367311],[2.4259306,48.636758],[2.4260168,48.6367507],[2.4260397,48.6367745],[2.4262768,48.637604],[2.4266617,48.6383197],[2.4271867,48.6389792],[2.4270404,48.6389909],[2.4275572,48.6395392],[2.4273029,48.6396687],[2.4273909,48.6398028],[2.4273163,48.6399464],[2.4269158,48.6403921],[2.4262325,48.6410514]]]]},"properties":{"code_section":"91228000AV","code_commune":"91228","section_courte":"AV"}},{"type":"Feature","geometry":{"type":"MultiPolygon","coordinates":[[[[2.4241481,48.6211706],[2.4255283,48.6199575],[2.4266402,48.6205361],[2.4264503,48.6206981],[2.4275645,48.6212767],[2.4275596,48.6212532],[2.4280385,48.6212059],[2.4281039,48.6215597],[2.4304878,48.6228404],[2.4303436,48.6229757],[2.4336523,48.6247027],[2.4336232,48.6248734],[2.4305146,48.6246478],[2.4292653,48.6246103],[2.4280125,48.6246607],[2.4235259,48.6250168],[2.4235108,48.6249094],[2.4238853,48.6248841],[2.4236846,48.6237685],[2.4237126,48.6235643],[2.4238306,48.6232792],[2.424109,48.6229584],[2.4253679,48.6219043],[2.4241481,48.6211706]]]]},"properties":{"code_section":"91228000AX","code_commune":"91228","section_courte":"AX"}},{"type":"Feature","geometry":{"type":"MultiPolygon","coordinates":[[[[2.438491,48.620737],[2.4392932,48.6200213],[2.4403079,48.6199242],[2.440221,48.6202715],[2.4402462,48.6206526],[2.4410433,48.6205818],[2.4412379,48.6206014],[2.4414399,48.6206794],[2.4415484,48.6207685],[2.441621,48.6208993],[2.4417862,48.6216508],[2.4418552,48.6217709],[2.4419653,48.6218574],[2.4429038,48.6223251],[2.4417148,48.6233702],[2.4409739,48.6239015],[2.440071,48.624308],[2.4391475,48.6245669],[2.437589,48.6248218],[2.4355501,48.6249489],[2.4338008,48.6248853],[2.438491,48.620737]]]]},"properties":{"code_section":"91228000AY","code_commune":"91228","section_courte":"AY"}},{"type":"Feature","geometry":{"type":"MultiPolygon","coordinates":[[[[2.428771,48.6165409],[2.4290711,48.6160614],[2.4294022,48.6162179],[2.4293812,48.6162493],[2.4296338,48.6163337],[2.4322176,48.6176175],[2.4327831,48.6179294],[2.4327888,48.6179012],[2.4329012,48.6179584],[2.4329118,48.618069],[2.4348221,48.619021],[2.435003,48.6190041],[2.438491,48.620737],[2.4337989,48.6248868],[2.4336232,48.6248734],[2.4336523,48.6247027],[2.4303436,48.6229757],[2.4304878,48.6228404],[2.4281039,48.6215597],[2.4280385,48.6212059],[2.4275596,48.6212532],[2.4275645,48.6212767],[2.4264503,48.6206981],[2.4266402,48.6205361],[2.4254983,48.6199397],[2.4276562,48.6180241],[2.4282257,48.6173121],[2.428771,48.6165409]]]]},"properties":{"code_section":"91228000AZ","code_commune":"91228","section_courte":"AZ"}},{"type":"Feature","geometry":{"type":"MultiPolygon","coordinates":[[[[2.4316093,48.6121619],[2.4324332,48.6119556],[2.4336637,48.6125064],[2.433696,48.6126315],[2.4427148,48.6166937],[2.4422987,48.6170608],[2.4413106,48.6168282],[2.4408449,48.6172537],[2.440996,48.6179012],[2.4414026,48.6178579],[2.4399842,48.6191097],[2.4393748,48.6191692],[2.4392046,48.619322],[2.4392404,48.6194869],[2.4395907,48.6194525],[2.4396187,48.6194704],[2.4396368,48.6194484],[2.4399853,48.6194148],[2.438491,48.620737],[2.435003,48.6190041],[2.4348221,48.619021],[2.4329118,48.618069],[2.4329012,48.6179584],[2.4327888,48.6179012],[2.4327831,48.6179294],[2.4322176,48.6176175],[2.4296338,48.6163337],[2.4293812,48.6162493],[2.4294022,48.6162179],[2.4290711,48.6160614],[2.4316093,48.6121619]]]]},"properties":{"code_section":"91228000BC","code_commune":"91228","section_courte":"BC"}},{"type":"Feature","geometry":{"type":"MultiPolygon","coordinates":[[[[2.4370212,48.6115229],[2.4377097,48.6122635],[2.4380155,48.6127475],[2.4380051,48.6127887],[2.4376011,48.6129536],[2.4375729,48.6130193],[2.438072,48.6143397],[2.4386931,48.6142268],[2.4393867,48.614043],[2.4396783,48.613741],[2.4399085,48.6133964],[2.4408499,48.6129621],[2.4415314,48.6131156],[2.4422466,48.6133189],[2.4429396,48.6136194],[2.4441442,48.6142055],[2.448022,48.6171796],[2.4486941,48.6165774],[2.4527571,48.6189213],[2.4510895,48.6203521],[2.4451434,48.6176777],[2.4447827,48.6176202],[2.4427148,48.6166937],[2.433696,48.6126315],[2.4336637,48.6125064],[2.4324332,48.6119556],[2.4363951,48.6109787],[2.436725,48.6112071],[2.4370212,48.6115229]]]]},"properties":{"code_section":"91228000BD","code_commune":"91228","section_courte":"BD"}},{"type":"Feature","geometry":{"type":"MultiPolygon","coordinates":[[[[2.4183911,48.6314348],[2.4191212,48.6318521],[2.4208877,48.6339628],[2.4204469,48.634245],[2.4203786,48.6343371],[2.4205626,48.6344681],[2.4205842,48.6345696],[2.4202697,48.6348034],[2.4202175,48.6350453],[2.4196085,48.6353799],[2.4211338,48.6361693],[2.4212347,48.636086],[2.4225768,48.636817],[2.4226494,48.6372164],[2.4237113,48.6377679],[2.4239473,48.6375686],[2.4242212,48.6377197],[2.4242342,48.6377669],[2.4236367,48.6378095],[2.4237394,48.6378842],[2.4205175,48.6381392],[2.4203847,48.6381175],[2.4199863,48.6379393],[2.419365,48.6379777],[2.4194051,48.6380997],[2.4191059,48.638167],[2.4157245,48.6385357],[2.4154667,48.6380387],[2.4152003,48.6377091],[2.4144684,48.6371511],[2.4139105,48.6368007],[2.4131712,48.6362747],[2.4130035,48.6360776],[2.4132456,48.6360109],[2.413414,48.6360133],[2.4136544,48.6359427],[2.4136531,48.6358884],[2.4146274,48.6354962],[2.4152337,48.6351997],[2.4160946,48.6346329],[2.4166991,48.6341186],[2.4173414,48.6333989],[2.4176008,48.6330184],[2.4180538,48.6320276],[2.4181405,48.6317267],[2.4180678,48.631512],[2.4181105,48.6313674],[2.4181876,48.6313596],[2.4183911,48.6314348]]]]},"properties":{"code_section":"91228000BE","code_commune":"91228","section_courte":"BE"}},{"type":"Feature","geometry":{"type":"MultiPolygon","coordinates":[[[[2.4260145,48.6413083],[2.4219381,48.644742],[2.4215087,48.6446896],[2.4212402,48.6443876],[2.4210212,48.6438167],[2.419365,48.6379777],[2.4199863,48.6379393],[2.4204718,48.6381388],[2.4216068,48.6380571],[2.4221748,48.6384095],[2.4222101,48.6385821],[2.4224217,48.6385642],[2.4226191,48.6386857],[2.4231919,48.6386425],[2.423242,48.6389137],[2.4240173,48.6388517],[2.4240922,48.6392598],[2.4247675,48.639607],[2.425002,48.6404645],[2.4257021,48.6403783],[2.4256945,48.6406051],[2.4258529,48.640702],[2.425784,48.6408465],[2.4262325,48.6410514],[2.4263028,48.6409867],[2.4263554,48.6410198],[2.4260145,48.6413083]]]]},"properties":{"code_section":"91228000BH","code_commune":"91228","section_courte":"BH"}},{"type":"Feature","geometry":{"type":"MultiPolygon","coordinates":[[[[2.4403278,48.645625],[2.441096,48.646131],[2.4397087,48.6472431],[2.4392017,48.6476002],[2.4377166,48.6485336],[2.4362209,48.6476563],[2.4355229,48.6472891],[2.4352434,48.6469437],[2.4349825,48.6467669],[2.4350858,48.6466356],[2.4347877,48.6462675],[2.433603,48.645522],[2.4315981,48.644411],[2.4308854,48.6439425],[2.4328018,48.6427093],[2.4350342,48.64115],[2.4374125,48.6423291],[2.4374199,48.6424481],[2.4368741,48.6429726],[2.4360283,48.6435481],[2.4380062,48.6447632],[2.4391272,48.6455203],[2.4391951,48.6455705],[2.4391536,48.6455995],[2.4393304,48.6456929],[2.4393555,48.6456692],[2.439749,48.6459438],[2.4402798,48.6455932],[2.4403278,48.645625]]]]},"properties":{"code_section":"91228000BI","code_commune":"91228","section_courte":"BI"}},{"type":"Feature","geometry":{"type":"MultiPolygon","coordinates":[[[[2.4440037,48.6430909],[2.4445291,48.6433775],[2.4431693,48.6443378],[2.4420613,48.6453363],[2.441096,48.646131],[2.4402798,48.6455932],[2.439749,48.6459438],[2.4393555,48.6456692],[2.4393304,48.6456929],[2.4391536,48.6455995],[2.4391951,48.6455705],[2.4391272,48.6455203],[2.4380062,48.6447632],[2.4360283,48.6435481],[2.4368741,48.6429726],[2.4374199,48.6424481],[2.4374125,48.6423291],[2.4372168,48.6422315],[2.4378949,48.6417297],[2.4386238,48.6407581],[2.4403758,48.6413419],[2.4407215,48.6415138],[2.4407566,48.6415713],[2.4408784,48.6415927],[2.442684,48.6425129],[2.4427884,48.6424207],[2.4435661,48.6428546],[2.4435636,48.6428779],[2.4436045,48.6428734],[2.4440037,48.6430909]]]]},"properties":{"code_section":"91228000BK","code_commune":"91228","section_courte":"BK"}},{"type":"Feature","geometry":{"type":"MultiPolygon","coordinates":[[[[2.449851,48.637627],[2.4507579,48.6381579],[2.4498685,48.638505],[2.4490846,48.6388623],[2.4483644,48.6394548],[2.4479534,48.6398126],[2.4474874,48.6404422],[2.4471726,48.6411438],[2.4468295,48.6415737],[2.4445291,48.6433775],[2.4436045,48.6428734],[2.4435636,48.6428779],[2.4435661,48.6428546],[2.4427884,48.6424207],[2.442684,48.6425129],[2.4408784,48.6415927],[2.4407566,48.6415713],[2.4407215,48.6415138],[2.4403758,48.6413419],[2.4386238,48.6407581],[2.4394537,48.6396595],[2.4393055,48.639613],[2.4413111,48.6369662],[2.4413843,48.6369911],[2.4440571,48.6352056],[2.4468892,48.6359349],[2.448038,48.6357735],[2.4482165,48.6363936],[2.4478723,48.6365177],[2.449851,48.637627]]]]},"properties":{"code_section":"91228000BL","code_commune":"91228","section_courte":"BL"}},{"type":"Feature","geometry":{"type":"MultiPolygon","coordinates":[[[[2.4405251,48.6380102],[2.4393055,48.639613],[2.4394537,48.6396595],[2.4381055,48.6414487],[2.4358198,48.6404151],[2.4375688,48.6387671],[2.4389019,48.6370999],[2.4402827,48.6375293],[2.4401577,48.6376934],[2.4406431,48.6378541],[2.4405251,48.6380102]]],[[[2.4405537,48.6349161],[2.4416386,48.6335445],[2.4429945,48.6340706],[2.4420468,48.6346838],[2.4440571,48.6352056],[2.4413843,48.6369911],[2.4395456,48.6363688],[2.4395043,48.6362687],[2.4405537,48.6349161]]]]},"properties":{"code_section":"91228000BM","code_commune":"91228","section_courte":"BM"}},{"type":"Feature","geometry":{"type":"MultiPolygon","coordinates":[[[[2.4544734,48.636245],[2.4551589,48.6366544],[2.4544699,48.6369971],[2.4540365,48.637147],[2.4517142,48.6377842],[2.4507579,48.6381579],[2.4489899,48.6371215],[2.4478723,48.6365177],[2.4482165,48.6363936],[2.448038,48.6357735],[2.4468892,48.6359349],[2.4420468,48.6346838],[2.4429945,48.6340706],[2.4453478,48.6327304],[2.445518,48.6325648],[2.4461647,48.6322651],[2.4475048,48.6317155],[2.4476839,48.6318694],[2.4481333,48.6317973],[2.4490312,48.6323305],[2.449047,48.6323923],[2.4487923,48.6328482],[2.4489238,48.6330685],[2.4495235,48.6334227],[2.4503312,48.6337901],[2.4518919,48.6346656],[2.4518058,48.6347324],[2.4519642,48.6348238],[2.4520259,48.6347767],[2.4544734,48.636245]]]]},"properties":{"code_section":"91228000BN","code_commune":"91228","section_courte":"BN"}},{"type":"Feature","geometry":{"type":"MultiPolygon","coordinates":[[[[2.459437,48.6297459],[2.461133,48.6306133],[2.4603716,48.6313214],[2.4590261,48.6329384],[2.4587732,48.633372],[2.4585256,48.634216],[2.4584203,48.6344119],[2.4582568,48.6345952],[2.4580403,48.6348072],[2.4575008,48.6352291],[2.456984,48.6355852],[2.4559539,48.6362544],[2.4551589,48.6366544],[2.4520259,48.6347767],[2.4519642,48.6348238],[2.4518058,48.6347324],[2.4518919,48.6346656],[2.4516583,48.6345401],[2.4521794,48.6341557],[2.4523353,48.6342451],[2.4531383,48.6336435],[2.4554408,48.6320382],[2.4567846,48.6311766],[2.4568912,48.6311784],[2.4592073,48.6296597],[2.4594061,48.6297682],[2.459437,48.6297459]]]]},"properties":{"code_section":"91228000BO","code_commune":"91228","section_courte":"BO"}},{"type":"Feature","geometry":{"type":"MultiPolygon","coordinates":[[[[2.4591891,48.6296501],[2.4568912,48.6311784],[2.4567846,48.6311766],[2.4554408,48.6320382],[2.4531383,48.6336435],[2.4523353,48.6342451],[2.4521794,48.6341557],[2.4516583,48.6345401],[2.4503312,48.6337901],[2.4495235,48.6334227],[2.4489238,48.6330685],[2.4487923,48.6328482],[2.449047,48.6323923],[2.4490312,48.6323305],[2.4481333,48.6317973],[2.4491087,48.6311109],[2.449636,48.6311451],[2.4526963,48.6290023],[2.45306,48.6286501],[2.4535835,48.6279617],[2.4550312,48.6269522],[2.4583291,48.6291201],[2.4592265,48.629626],[2.4591891,48.6296501]]]]},"properties":{"code_section":"91228000BP","code_commune":"91228","section_courte":"BP"}},{"type":"Feature","geometry":{"type":"MultiPolygon","coordinates":[[[[2.4455366,48.6305151],[2.4439781,48.6301626],[2.4434758,48.6299146],[2.4445822,48.6291354],[2.4447371,48.6289481],[2.444782,48.6288292],[2.4447634,48.628702],[2.4445973,48.6285293],[2.4448145,48.6283625],[2.44499,48.6284246],[2.4451936,48.6284369],[2.4454424,48.6284092],[2.4456838,48.6283364],[2.446996,48.6274397],[2.4473597,48.6276562],[2.4474095,48.6276187],[2.4477159,48.627817],[2.4477122,48.6278723],[2.4480162,48.6280626],[2.4481469,48.6280623],[2.4496065,48.6270091],[2.4496554,48.6269161],[2.4495755,48.6268228],[2.4491933,48.6265787],[2.4493261,48.6264764],[2.44938,48.6263217],[2.4516782,48.6253777],[2.4517923,48.6254624],[2.4517512,48.6254877],[2.4536181,48.6268511],[2.4544526,48.6273446],[2.4535835,48.6279617],[2.45306,48.6286501],[2.4526963,48.6290023],[2.449636,48.6311451],[2.4491087,48.6311109],[2.4481333,48.6317973],[2.4476839,48.6318694],[2.4468025,48.6311447],[2.4455366,48.6305151]]]]},"properties":{"code_section":"91228000BR","code_commune":"91228","section_courte":"BR"}},{"type":"Feature","geometry":{"type":"MultiPolygon","coordinates":[[[[2.4411462,48.6287487],[2.4483684,48.6226865],[2.4516782,48.6253777],[2.44938,48.6263217],[2.4493261,48.6264764],[2.4491933,48.6265787],[2.4495755,48.6268228],[2.4496554,48.6269161],[2.4496065,48.6270091],[2.4481469,48.6280623],[2.4480162,48.6280626],[2.4477122,48.6278723],[2.4477159,48.627817],[2.4474095,48.6276187],[2.4473597,48.6276562],[2.446996,48.6274397],[2.4456838,48.6283364],[2.4454424,48.6284092],[2.4451936,48.6284369],[2.44499,48.6284246],[2.4448145,48.6283625],[2.4445973,48.6285293],[2.4447359,48.6286524],[2.4447837,48.6287968],[2.4447371,48.6289481],[2.4445822,48.6291354],[2.4434758,48.6299146],[2.4411462,48.6287487]]]]},"properties":{"code_section":"91228000BS","code_commune":"91228","section_courte":"BS"}},{"type":"Feature","geometry":{"type":"MultiPolygon","coordinates":[[[[2.4544526,48.6273446],[2.4536181,48.6268511],[2.4517512,48.6254877],[2.4517923,48.6254624],[2.45136,48.6251248],[2.451928,48.6248189],[2.4523517,48.6245206],[2.4525789,48.6243282],[2.4538192,48.6230676],[2.4545803,48.622509],[2.4548794,48.6226756],[2.4542002,48.6231581],[2.4543567,48.6232391],[2.4548129,48.6232599],[2.454683,48.6233734],[2.4564385,48.6234122],[2.4577545,48.6240282],[2.4578527,48.6239894],[2.4581963,48.6236693],[2.4583691,48.6236477],[2.4588913,48.6238118],[2.459617,48.6239442],[2.4591181,48.6246381],[2.4589821,48.625088],[2.4586251,48.6255226],[2.4585288,48.6258924],[2.4581307,48.6262463],[2.4565071,48.6271798],[2.4563432,48.6272325],[2.4553766,48.6271794],[2.4550312,48.6269522],[2.4544526,48.6273446]]]]},"properties":{"code_section":"91228000BT","code_commune":"91228","section_courte":"BT"}},{"type":"Feature","geometry":{"type":"MultiPolygon","coordinates":[[[[2.4648031,48.624269],[2.463829,48.6255121],[2.4633585,48.6260095],[2.4627206,48.6265683],[2.461306,48.6274916],[2.4599523,48.6282927],[2.4598016,48.6285458],[2.4594086,48.6287768],[2.4590747,48.6288101],[2.4583291,48.6291201],[2.4553766,48.6271794],[2.4563432,48.6272325],[2.4565071,48.6271798],[2.4581307,48.6262463],[2.4585288,48.6258924],[2.4586251,48.6255226],[2.4589821,48.625088],[2.4591181,48.6246381],[2.459617,48.6239442],[2.4598721,48.6237713],[2.4600457,48.6237017],[2.4612283,48.6234788],[2.4632445,48.6239732],[2.4648031,48.624269]]]]},"properties":{"code_section":"91228000BV","code_commune":"91228","section_courte":"BV"}},{"type":"Feature","geometry":{"type":"MultiPolygon","coordinates":[[[[2.4668587,48.627551],[2.4643334,48.6286887],[2.4613204,48.6305899],[2.4612222,48.6305557],[2.461133,48.6306133],[2.4604318,48.630274],[2.459437,48.6297459],[2.4594061,48.6297682],[2.4591891,48.6296501],[2.4592265,48.629626],[2.4583291,48.6291201],[2.4590747,48.6288101],[2.4594086,48.6287768],[2.4598016,48.6285458],[2.4599523,48.6282927],[2.461306,48.6274916],[2.4627206,48.6265683],[2.4633585,48.6260095],[2.463829,48.6255121],[2.4651645,48.6237578],[2.4655346,48.6233916],[2.4680628,48.6240982],[2.4698143,48.6249802],[2.4705133,48.6253693],[2.4695756,48.6259782],[2.467725,48.6270175],[2.4668587,48.627551]]]]},"properties":{"code_section":"91228000BW","code_commune":"91228","section_courte":"BW"}},{"type":"Feature","geometry":{"type":"MultiPolygon","coordinates":[[[[2.4566007,48.6217493],[2.457758,48.6222495],[2.4590922,48.6227394],[2.4594782,48.6223269],[2.4595572,48.6222937],[2.4595671,48.6222182],[2.4597599,48.6219918],[2.4615939,48.6225448],[2.4615048,48.622757],[2.4635965,48.6231121],[2.4654531,48.6233703],[2.4654987,48.6233269],[2.4655346,48.6233916],[2.4651645,48.6237578],[2.4648031,48.624269],[2.4632445,48.6239732],[2.4612283,48.6234788],[2.4600457,48.6237017],[2.4598721,48.6237713],[2.459617,48.6239442],[2.4588913,48.6238118],[2.4583691,48.6236477],[2.4581963,48.6236693],[2.4578527,48.6239894],[2.4577545,48.6240282],[2.4564385,48.6234122],[2.454683,48.6233734],[2.4548129,48.6232599],[2.4543567,48.6232391],[2.4542002,48.6231581],[2.4548794,48.6226756],[2.4544569,48.6224425],[2.4545727,48.622372],[2.4550011,48.6221539],[2.4557769,48.6218536],[2.4566723,48.6216307],[2.4565669,48.6217351],[2.4566007,48.6217493]]]]},"properties":{"code_section":"91228000BX","code_commune":"91228","section_courte":"BX"}},{"type":"Feature","geometry":{"type":"MultiPolygon","coordinates":[[[[2.4091114,48.6177674],[2.4082177,48.6178363],[2.4072924,48.6179868],[2.4052918,48.61819],[2.4050011,48.6182405],[2.4040531,48.6167647],[2.4052211,48.6155585],[2.4051959,48.6155058],[2.4052553,48.6154466],[2.4052732,48.6154831],[2.4061523,48.6145604],[2.4061701,48.6146394],[2.4062478,48.6146941],[2.4064456,48.6147657],[2.4066474,48.614763],[2.4068161,48.6148117],[2.4084049,48.6146088],[2.4087937,48.6172387],[2.4096992,48.6173164],[2.4107854,48.617049],[2.4108376,48.6174115],[2.4091114,48.6177674]]]]},"properties":{"code_section":"91228182AA","code_commune":"91228","section_courte":"182AA"}},{"type":"Feature","geometry":{"type":"MultiPolygon","coordinates":[[[[2.4116149,48.6134936],[2.4124733,48.6135595],[2.4141414,48.6136048],[2.4150409,48.6137638],[2.4160194,48.6138054],[2.414129,48.6168719],[2.4108376,48.6174115],[2.4107854,48.617049],[2.4096992,48.6173164],[2.4087937,48.6172387],[2.4084049,48.6146088],[2.4068161,48.6148117],[2.4066474,48.614763],[2.4064456,48.6147657],[2.4062478,48.6146941],[2.4061701,48.6146394],[2.4061523,48.6145604],[2.4071431,48.6134626],[2.407788,48.6134334],[2.4077959,48.6134925],[2.4095249,48.6134493],[2.4109443,48.6135006],[2.4116149,48.6134936]]]]},"properties":{"code_section":"91228182AB","code_commune":"91228","section_courte":"182AB"}},{"type":"Feature","geometry":{"type":"MultiPolygon","coordinates":[[[[2.4052918,48.61819],[2.4072924,48.6179868],[2.4082177,48.6178363],[2.4091114,48.6177674],[2.4108376,48.6174115],[2.414129,48.6168719],[2.413653,48.617706],[2.4136289,48.6180196],[2.4139429,48.6191596],[2.4123655,48.6190693],[2.4121556,48.6194859],[2.4121155,48.6194745],[2.4120875,48.6191317],[2.4117518,48.6189564],[2.4103842,48.6191456],[2.4097429,48.6192666],[2.4086169,48.619533],[2.4076706,48.6198179],[2.4076158,48.6197214],[2.406608,48.6200889],[2.4046389,48.6209259],[2.4048402,48.6210063],[2.4047209,48.6209972],[2.4041238,48.6212898],[2.4041488,48.6208624],[2.4030506,48.620657],[2.4028129,48.6204887],[2.4026106,48.6202287],[2.4025452,48.6200169],[2.4025024,48.6194519],[2.4026386,48.6191911],[2.4027967,48.6190933],[2.4028514,48.6187458],[2.4018674,48.6189793],[2.4018464,48.6189048],[2.4040531,48.6167647],[2.4050011,48.6182405],[2.4052918,48.61819]]]]},"properties":{"code_section":"91228182AC","code_commune":"91228","section_courte":"182AC"}},{"type":"Feature","geometry":{"type":"MultiPolygon","coordinates":[[[[2.4000578,48.6269234],[2.3981112,48.6262481],[2.3990482,48.6238283],[2.400836,48.6235301],[2.4004052,48.6231677],[2.3989922,48.6224319],[2.3980906,48.622244],[2.3969469,48.6217224],[2.3951538,48.6211097],[2.3972218,48.6203034],[2.4004105,48.619247],[2.4018464,48.6189048],[2.4018674,48.6189793],[2.4028514,48.6187458],[2.4027967,48.6190933],[2.4026386,48.6191911],[2.4025024,48.6194519],[2.4025534,48.620068],[2.4026449,48.6202905],[2.4028129,48.6204887],[2.4030506,48.620657],[2.4041488,48.6208624],[2.4041238,48.6212898],[2.4033992,48.6217901],[2.4033107,48.6219299],[2.4030851,48.6225035],[2.4030868,48.6227057],[2.4031763,48.6229537],[2.4034489,48.623251],[2.4039786,48.6235454],[2.4049729,48.6238553],[2.4054297,48.6240445],[2.4057425,48.6242867],[2.4060088,48.6245695],[2.4062728,48.6247398],[2.40577,48.624972],[2.4032789,48.6259837],[2.4036635,48.6264709],[2.4020961,48.6269516],[2.4000578,48.6269234]]]]},"properties":{"code_section":"91228182AD","code_commune":"91228","section_courte":"182AD"}},{"type":"Feature","geometry":{"type":"MultiPolygon","coordinates":[[[[2.4102392,48.6298102],[2.4064567,48.6321564],[2.4058375,48.6312474],[2.4048765,48.6300718],[2.4045444,48.6301909],[2.4044379,48.6290307],[2.4042606,48.6279569],[2.4042783,48.627527],[2.4040303,48.6269397],[2.4032789,48.6259837],[2.40577,48.624972],[2.406616,48.6257212],[2.4084484,48.6276995],[2.4102392,48.6298102]]]]},"properties":{"code_section":"91228182AE","code_commune":"91228","section_courte":"182AE"}},{"type":"Feature","geometry":{"type":"MultiPolygon","coordinates":[[[[2.4129575,48.6191047],[2.4139429,48.6191596],[2.4143248,48.6205464],[2.4127356,48.6212576],[2.4062728,48.6247398],[2.4060088,48.6245695],[2.4057425,48.6242867],[2.4054297,48.6240445],[2.4049729,48.6238553],[2.4039944,48.6235528],[2.4035345,48.6233111],[2.4033026,48.6231208],[2.4031337,48.6228708],[2.4030814,48.6225356],[2.4031549,48.6222793],[2.4033992,48.6217901],[2.4041238,48.6212898],[2.4047209,48.6209972],[2.4048402,48.6210063],[2.4046389,48.6209259],[2.406608,48.6200889],[2.4076158,48.6197214],[2.4076706,48.6198179],[2.4089761,48.6194408],[2.4103661,48.6191484],[2.4117518,48.6189564],[2.4120875,48.6191317],[2.4121155,48.6194745],[2.4121556,48.6194859],[2.4123655,48.6190693],[2.4129575,48.6191047]]]]},"properties":{"code_section":"91228182AH","code_commune":"91228","section_courte":"182AH"}},{"type":"Feature","geometry":{"type":"MultiPolygon","coordinates":[[[[2.4106935,48.6295283],[2.4102392,48.6298102],[2.4084484,48.6276995],[2.406616,48.6257212],[2.40577,48.624972],[2.4062728,48.6247398],[2.4127631,48.6212433],[2.4144395,48.6204938],[2.416752,48.6219657],[2.4198267,48.6238616],[2.4106935,48.6295283]]]]},"properties":{"code_section":"91228182AI","code_commune":"91228","section_courte":"182AI"}},{"type":"Feature","geometry":{"type":"MultiPolygon","coordinates":[[[[2.4222139,48.62238],[2.4198267,48.6238616],[2.4150494,48.6208817],[2.4172534,48.619966],[2.4187448,48.6192618],[2.4201451,48.6184848],[2.4215262,48.6173966],[2.4220613,48.6166941],[2.4231412,48.6169232],[2.4275724,48.6180135],[2.4270598,48.6185811],[2.4263735,48.6192604],[2.4251817,48.6203108],[2.4241191,48.621128],[2.4222139,48.62238]]]]},"properties":{"code_section":"91228182AK","code_commune":"91228","section_courte":"182AK"}},{"type":"Feature","geometry":{"type":"MultiPolygon","coordinates":[[[[2.4136289,48.6180196],[2.413653,48.617706],[2.414129,48.6168719],[2.4218634,48.6152961],[2.4219713,48.6152007],[2.422495,48.6150393],[2.4224453,48.6151278],[2.4235604,48.6147038],[2.4215262,48.6173966],[2.4201451,48.6184848],[2.4187448,48.6192618],[2.4172534,48.619966],[2.4150494,48.6208817],[2.4144395,48.6204938],[2.4143248,48.6205464],[2.4136289,48.6180196]]]]},"properties":{"code_section":"91228182AL","code_commune":"91228","section_courte":"182AL"}},{"type":"Feature","geometry":{"type":"MultiPolygon","coordinates":[[[[2.414129,48.6168719],[2.4160194,48.6138054],[2.4168321,48.6138853],[2.4176442,48.6139088],[2.4184114,48.6138917],[2.4198765,48.6137801],[2.421294,48.6136133],[2.4240016,48.613473],[2.4240167,48.6140922],[2.4235604,48.6147038],[2.4224453,48.6151278],[2.422495,48.6150393],[2.4219713,48.6152007],[2.4218634,48.6152961],[2.414129,48.6168719]]]]},"properties":{"code_section":"91228182AM","code_commune":"91228","section_courte":"182AM"}},{"type":"Feature","geometry":{"type":"MultiPolygon","coordinates":[[[[2.406363,48.6333734],[2.4064073,48.6330649],[2.4065508,48.6328131],[2.4067175,48.6326872],[2.4069294,48.6326235],[2.4065648,48.6323737],[2.4064567,48.6321564],[2.4106935,48.6295283],[2.4113506,48.629997],[2.4118393,48.6302862],[2.4124011,48.6305225],[2.4129933,48.6306961],[2.4136464,48.6308167],[2.4181538,48.6312975],[2.4182308,48.6313423],[2.4181095,48.6313674],[2.4180714,48.6315113],[2.4181405,48.6317267],[2.4180538,48.6320276],[2.4176008,48.6330184],[2.4173414,48.6333989],[2.4166991,48.6341186],[2.4160946,48.6346329],[2.4152337,48.6351997],[2.4146274,48.6354962],[2.4136531,48.6358884],[2.4136544,48.6359427],[2.413414,48.6360133],[2.4132456,48.6360109],[2.4130035,48.6360776],[2.4128109,48.6356418],[2.4126799,48.6355003],[2.4119284,48.6352953],[2.411048,48.6350978],[2.409956,48.6349144],[2.4088947,48.6347765],[2.4078913,48.6347277],[2.4073536,48.6345482],[2.4069924,48.6343191],[2.4066963,48.6340361],[2.4064351,48.633582],[2.406363,48.6333734]]]]},"properties":{"code_section":"91228182AN","code_commune":"91228","section_courte":"182AN"}},{"type":"Feature","geometry":{"type":"MultiPolygon","coordinates":[[[[2.4244455,48.630826],[2.4242399,48.6309037],[2.4213029,48.631172],[2.4204995,48.6314057],[2.4199855,48.631512],[2.4196778,48.631478],[2.4191601,48.631339],[2.4189072,48.6313473],[2.4185393,48.6314228],[2.4183783,48.6314184],[2.4181876,48.6313596],[2.4182308,48.6313423],[2.4181538,48.6312975],[2.4179549,48.6312775],[2.4178927,48.6312217],[2.4181203,48.6304651],[2.418107,48.6303929],[2.4185543,48.6295194],[2.4190723,48.62881],[2.4196649,48.6282327],[2.4205201,48.6275952],[2.4213843,48.627107],[2.4226031,48.6265971],[2.4237602,48.6262518],[2.4243074,48.6293069],[2.4245067,48.6306786],[2.4244455,48.630826]]]]},"properties":{"code_section":"91228182AP","code_commune":"91228","section_courte":"182AP"}},{"type":"Feature","geometry":{"type":"MultiPolygon","coordinates":[[[[2.4106935,48.6295283],[2.4194861,48.6240729],[2.4196988,48.6242085],[2.4196089,48.6242695],[2.4196759,48.6243774],[2.419811,48.6244216],[2.4206149,48.6240075],[2.4226687,48.6253236],[2.4233062,48.625277],[2.4234812,48.6253671],[2.4235745,48.6259031],[2.4237089,48.6259889],[2.4237564,48.6262524],[2.4224111,48.6266676],[2.4211577,48.6272212],[2.4206171,48.627534],[2.4201061,48.6278801],[2.4195123,48.6283642],[2.4191519,48.6287215],[2.4188299,48.6291074],[2.4185543,48.6295194],[2.4181336,48.6303332],[2.4178927,48.6312217],[2.4179549,48.6312775],[2.4136464,48.6308167],[2.4129933,48.6306961],[2.4124011,48.6305225],[2.4118393,48.6302862],[2.4113506,48.629997],[2.4106935,48.6295283]]]]},"properties":{"code_section":"91228182AR","code_commune":"91228","section_courte":"182AR"}},{"type":"Feature","geometry":{"type":"MultiPolygon","coordinates":[[[[2.4236593,48.6257306],[2.4237089,48.6259889],[2.4235745,48.6259031],[2.4234812,48.6253671],[2.4233062,48.625277],[2.4226687,48.6253236],[2.4206149,48.6240075],[2.419811,48.6244216],[2.4196759,48.6243774],[2.4196089,48.6242695],[2.4196988,48.6242085],[2.4194861,48.6240729],[2.4222139,48.62238],[2.4241191,48.621128],[2.4253679,48.6219043],[2.4240218,48.623035],[2.4237579,48.6234291],[2.4236846,48.6237685],[2.4238851,48.6248828],[2.423511,48.6249066],[2.4236593,48.6257306]]]]},"properties":{"code_section":"91228182AS","code_commune":"91228","section_courte":"182AS"}},{"type":"Feature","geometry":{"type":"MultiPolygon","coordinates":[[[[2.4288852,48.6163503],[2.4284288,48.6169986],[2.427603,48.6180208],[2.4231412,48.6169232],[2.4220613,48.6166941],[2.4240167,48.6140922],[2.4240016,48.613473],[2.4265964,48.6133559],[2.4269,48.6133675],[2.4316093,48.6121619],[2.4288852,48.6163503]]]]},"properties":{"code_section":"91228182AT","code_commune":"91228","section_courte":"182AT"}},{"type":"Feature","geometry":{"type":"MultiPolygon","coordinates":[[[[2.4071431,48.6134626],[2.4066446,48.6140149],[2.40651,48.6139583],[2.4059968,48.6139203],[2.4059772,48.6137773],[2.4058271,48.6137115],[2.404883,48.6139372],[2.4040841,48.614239],[2.4034784,48.6144036],[2.4027922,48.61454],[2.4018034,48.6146047],[2.4000168,48.6098043],[2.4012251,48.6096805],[2.4012337,48.6097148],[2.4060296,48.6091362],[2.4060873,48.6091583],[2.4080766,48.6087144],[2.4088825,48.6107754],[2.4090671,48.6114379],[2.4092569,48.6117738],[2.4092839,48.6119688],[2.4077028,48.6132033],[2.407788,48.6134334],[2.4071431,48.6134626]]]]},"properties":{"code_section":"91228182AV","code_commune":"91228","section_courte":"182AV"}},{"type":"Feature","geometry":{"type":"MultiPolygon","coordinates":[[[[2.4027922,48.61454],[2.4034784,48.6144036],[2.4040841,48.614239],[2.404883,48.6139372],[2.4058271,48.6137115],[2.4059772,48.6137773],[2.4059968,48.6139203],[2.40651,48.6139583],[2.4066446,48.6140149],[2.4052732,48.6154831],[2.4052553,48.6154466],[2.4051959,48.6155058],[2.4052211,48.6155585],[2.404425,48.6163888],[2.4018464,48.6189048],[2.4004105,48.619247],[2.3993689,48.6195791],[2.3972218,48.6203034],[2.3951538,48.6211097],[2.3936871,48.6206211],[2.3933967,48.620389],[2.3923999,48.6192746],[2.3920159,48.6186528],[2.3921732,48.6186093],[2.393387,48.6184653],[2.3937516,48.6183774],[2.3937801,48.6179327],[2.3949667,48.6178565],[2.3952537,48.6179593],[2.3953809,48.6179493],[2.3957045,48.6175711],[2.3966336,48.6163081],[2.3979415,48.6149843],[2.398166,48.6149478],[2.3996869,48.6149282],[2.4018182,48.6146438],[2.4018034,48.6146047],[2.4027922,48.61454]]]]},"properties":{"code_section":"91228182AW","code_commune":"91228","section_courte":"182AW"}}]}