{"type":"FeatureCollection","features":[{"type":"Feature","geometry":{"type":"MultiPolygon","coordinates":[[[[2.3814257,48.6297363],[2.3815864,48.6296455],[2.3832555,48.6301328],[2.386796,48.6361014],[2.3865481,48.6360898],[2.3862693,48.6358172],[2.3854661,48.636136],[2.3846001,48.6362993],[2.3845663,48.6365875],[2.3845979,48.6377583],[2.3827528,48.6376613],[2.3811287,48.6374692],[2.3805985,48.6373521],[2.3792138,48.6400796],[2.3734351,48.6400386],[2.3727822,48.6401276],[2.3724316,48.6402452],[2.3717418,48.6393642],[2.3715013,48.6390005],[2.3713873,48.638061],[2.3712735,48.6379335],[2.3710282,48.6377592],[2.3699254,48.6374443],[2.3688876,48.637061],[2.3684435,48.6365336],[2.3675897,48.6357501],[2.3671906,48.6352687],[2.3666913,48.6347669],[2.3661918,48.6340853],[2.3660156,48.6336086],[2.3664204,48.6335512],[2.3657195,48.6304577],[2.365681,48.6303186],[2.3651494,48.6305188],[2.3651178,48.6299188],[2.3657353,48.629755],[2.3663254,48.6297121],[2.3660199,48.6285253],[2.3629427,48.6259975],[2.3641822,48.6252548],[2.3676859,48.6248057],[2.3733295,48.6245163],[2.3734315,48.6253866],[2.3739241,48.6253683],[2.374409,48.6271787],[2.374857,48.6270731],[2.3760348,48.6270979],[2.3774021,48.6269485],[2.3776607,48.6278414],[2.3793309,48.6275138],[2.3796511,48.6279411],[2.3798446,48.6284354],[2.3803067,48.6289788],[2.3812466,48.62984],[2.3814257,48.6297363]]]]},"properties":{"code_section":"912350000B","code_commune":"91235","section_courte":"B"}},{"type":"Feature","geometry":{"type":"MultiPolygon","coordinates":[[[[2.3867156,48.6360989],[2.386796,48.6361014],[2.3872087,48.6368459],[2.3872459,48.6368289],[2.3875405,48.6373154],[2.3879043,48.6376558],[2.3891419,48.6384344],[2.392986,48.6411613],[2.3902563,48.6420834],[2.3910427,48.6430523],[2.3901959,48.6439002],[2.3892716,48.644216],[2.388772,48.644649],[2.3855996,48.6455977],[2.3792561,48.6455743],[2.375158,48.6449398],[2.3749282,48.6456797],[2.3707734,48.6467044],[2.3704505,48.6455232],[2.3703613,48.645538],[2.370194,48.6451481],[2.3693648,48.6441395],[2.3735265,48.6431303],[2.3724917,48.6402577],[2.3724492,48.6402707],[2.3724316,48.6402452],[2.3727822,48.6401276],[2.3734351,48.6400386],[2.3792138,48.6400796],[2.3805985,48.6373521],[2.3811287,48.6374692],[2.3827528,48.6376613],[2.3845979,48.6377583],[2.3845663,48.6365875],[2.3846001,48.6362993],[2.3854661,48.636136],[2.3862693,48.6358172],[2.3865481,48.6360898],[2.3867156,48.6360989]]]]},"properties":{"code_section":"91235000AA","code_commune":"91235","section_courte":"AA"}},{"type":"Feature","geometry":{"type":"MultiPolygon","coordinates":[[[[2.3637881,48.6429128],[2.3720085,48.6404059],[2.3724316,48.6402452],[2.3724492,48.6402707],[2.3724917,48.6402577],[2.3735265,48.6431303],[2.3650579,48.6451813],[2.3637881,48.6429128]]]]},"properties":{"code_section":"91235000AB","code_commune":"91235","section_courte":"AB"}},{"type":"Feature","geometry":{"type":"MultiPolygon","coordinates":[[[[2.3669583,48.6372359],[2.367226,48.6374921],[2.3673818,48.6374623],[2.3680405,48.6370701],[2.3687984,48.6369711],[2.3688876,48.637061],[2.3691134,48.6371592],[2.3699254,48.6374443],[2.3710282,48.6377592],[2.3712735,48.6379335],[2.3713873,48.638061],[2.3715013,48.6390005],[2.3717418,48.6393642],[2.3724316,48.6402452],[2.3720085,48.6404059],[2.3637881,48.6429128],[2.36305,48.6415937],[2.3636652,48.6414283],[2.3639889,48.6412109],[2.3646646,48.6410382],[2.364937,48.6402998],[2.3659853,48.6400408],[2.3662382,48.6386693],[2.3663115,48.6386505],[2.3663761,48.6374154],[2.3669342,48.6372131],[2.3669583,48.6372359]]]]},"properties":{"code_section":"91235000AC","code_commune":"91235","section_courte":"AC"}},{"type":"Feature","geometry":{"type":"MultiPolygon","coordinates":[[[[2.36305,48.6415937],[2.3656515,48.6462619],[2.363402,48.647224],[2.3623091,48.6480696],[2.3608696,48.6468626],[2.3604101,48.6466794],[2.3593208,48.646347],[2.3591315,48.6461925],[2.3587247,48.6456246],[2.3586346,48.6452892],[2.3586303,48.6450902],[2.3586716,48.6449743],[2.358627,48.6447933],[2.3579315,48.6435259],[2.3614388,48.6418953],[2.3619207,48.6417795],[2.3620835,48.6418527],[2.36305,48.6415937]]]]},"properties":{"code_section":"91235000AD","code_commune":"91235","section_courte":"AD"}},{"type":"Feature","geometry":{"type":"MultiPolygon","coordinates":[[[[2.3619207,48.6417795],[2.3614388,48.6418953],[2.3579315,48.6435259],[2.3576041,48.6432012],[2.3569127,48.6427152],[2.3556051,48.6416997],[2.3553376,48.6414305],[2.3561419,48.639939],[2.3570392,48.6385865],[2.3563119,48.6378145],[2.3564594,48.6377252],[2.3565624,48.6376147],[2.3602249,48.636563],[2.36305,48.6415937],[2.3620835,48.6418527],[2.3619207,48.6417795]]]]},"properties":{"code_section":"91235000AE","code_commune":"91235","section_courte":"AE"}},{"type":"Feature","geometry":{"type":"MultiPolygon","coordinates":[[[[2.365556,48.6350241],[2.3660517,48.6351068],[2.3661136,48.6349278],[2.3666913,48.6347669],[2.3671906,48.6352687],[2.3675897,48.6357501],[2.3684435,48.6365336],[2.3687984,48.6369711],[2.3680405,48.6370701],[2.3673818,48.6374623],[2.367226,48.6374921],[2.3669342,48.6372131],[2.3663761,48.6374154],[2.3663115,48.6386505],[2.3662382,48.6386693],[2.3659853,48.6400408],[2.364937,48.6402998],[2.3646646,48.6410382],[2.3639889,48.6412109],[2.3636652,48.6414283],[2.36305,48.6415937],[2.3602249,48.636563],[2.3615518,48.6361719],[2.3615804,48.6361957],[2.3627109,48.6358774],[2.3626522,48.6357858],[2.3652425,48.6350577],[2.365556,48.6350241]]]]},"properties":{"code_section":"91235000AH","code_commune":"91235","section_courte":"AH"}},{"type":"Feature","geometry":{"type":"MultiPolygon","coordinates":[[[[2.3652425,48.6350577],[2.3626522,48.6357858],[2.3627109,48.6358774],[2.3626499,48.6358955],[2.3615804,48.6361957],[2.3615518,48.6361719],[2.3565624,48.6376147],[2.3542521,48.6331957],[2.354637,48.6329717],[2.3553658,48.632333],[2.3555488,48.6322174],[2.3561748,48.6319213],[2.3577383,48.6313369],[2.3581946,48.6312615],[2.3613134,48.6310212],[2.3613712,48.631275],[2.3615439,48.6314261],[2.362356,48.6323333],[2.3630534,48.6323501],[2.3640008,48.6316502],[2.3640328,48.6312005],[2.3641349,48.6310722],[2.3646303,48.6307707],[2.3651494,48.6305188],[2.365681,48.6303186],[2.3664204,48.6335512],[2.3660156,48.6336086],[2.3661918,48.6340853],[2.3666913,48.6347669],[2.3661136,48.6349278],[2.3660517,48.6351068],[2.365556,48.6350241],[2.3652425,48.6350577]]]]},"properties":{"code_section":"91235000AI","code_commune":"91235","section_courte":"AI"}},{"type":"Feature","geometry":{"type":"MultiPolygon","coordinates":[[[[2.355093,48.6325687],[2.354637,48.6329717],[2.3541644,48.6332351],[2.3536015,48.6323273],[2.3532352,48.631873],[2.3516218,48.6306055],[2.3513146,48.6303921],[2.3508404,48.6301263],[2.3506439,48.6299438],[2.3503383,48.6295895],[2.3502466,48.62935],[2.3502152,48.6290791],[2.3501199,48.6288745],[2.3499564,48.6286023],[2.349583,48.6282553],[2.3494239,48.6278793],[2.3509149,48.6273685],[2.3518915,48.6267101],[2.3522488,48.6265553],[2.352757,48.6264485],[2.3527404,48.6263706],[2.3544286,48.626159],[2.3556972,48.6299045],[2.3561423,48.6308351],[2.3566764,48.6317305],[2.3561748,48.6319213],[2.3555488,48.6322174],[2.355093,48.6325687]]]]},"properties":{"code_section":"91235000AK","code_commune":"91235","section_courte":"AK"}},{"type":"Feature","geometry":{"type":"MultiPolygon","coordinates":[[[[2.3566764,48.6317305],[2.3561423,48.6308351],[2.3556972,48.6299045],[2.3544286,48.626159],[2.360933,48.6255992],[2.3611086,48.6266486],[2.3614956,48.627487],[2.3614673,48.6275906],[2.3613873,48.6276693],[2.3609984,48.6278635],[2.3609289,48.6279473],[2.3607387,48.6285105],[2.3607388,48.6286361],[2.36094,48.6291281],[2.3610486,48.6300451],[2.3613134,48.6310212],[2.3581946,48.6312615],[2.3577383,48.6313369],[2.3566764,48.6317305]]]]},"properties":{"code_section":"91235000AL","code_commune":"91235","section_courte":"AL"}},{"type":"Feature","geometry":{"type":"MultiPolygon","coordinates":[[[[2.3663254,48.6297121],[2.3657353,48.629755],[2.3651178,48.6299188],[2.3651494,48.6305188],[2.3646303,48.6307707],[2.3641349,48.6310722],[2.3640328,48.6312005],[2.3640008,48.6316502],[2.3630534,48.6323501],[2.362356,48.6323333],[2.3615439,48.6314261],[2.3613712,48.631275],[2.3610486,48.6300451],[2.36094,48.6291281],[2.3607388,48.6286361],[2.3607387,48.6285105],[2.3609289,48.6279473],[2.3609984,48.6278635],[2.3613873,48.6276693],[2.3614673,48.6275906],[2.3614956,48.627487],[2.3611086,48.6266486],[2.360933,48.6255992],[2.3633071,48.625381],[2.3641822,48.6252548],[2.3629427,48.6259975],[2.3660199,48.6285253],[2.3663254,48.6297121]]]]},"properties":{"code_section":"91235000AM","code_commune":"91235","section_courte":"AM"}},{"type":"Feature","geometry":{"type":"MultiPolygon","coordinates":[[[[2.3732773,48.6240186],[2.3733298,48.6245163],[2.3676859,48.6248057],[2.3633071,48.625381],[2.3544286,48.626159],[2.3526514,48.6263819],[2.351822,48.6242912],[2.3509195,48.6225679],[2.3501956,48.6208875],[2.3498745,48.6202694],[2.350654,48.6200277],[2.3515467,48.619804],[2.3521619,48.6196799],[2.3534247,48.6194953],[2.3541974,48.6194634],[2.3551441,48.6195444],[2.3555556,48.619517],[2.3570753,48.6188578],[2.357798,48.6186169],[2.3591243,48.6182205],[2.3600965,48.6179888],[2.3616115,48.6176924],[2.3619892,48.6176404],[2.3628284,48.6176213],[2.3633725,48.6175456],[2.3650728,48.6174395],[2.3660879,48.6174223],[2.3671922,48.6194802],[2.3677846,48.6191706],[2.3684696,48.6186686],[2.3689577,48.6184],[2.3695908,48.6182039],[2.3708033,48.6179549],[2.3713161,48.617788],[2.3715929,48.6176388],[2.371991,48.6195907],[2.3722049,48.6203368],[2.3725002,48.6216641],[2.3725047,48.622194],[2.3724495,48.6226908],[2.3720907,48.6235307],[2.3720476,48.6237403],[2.3732608,48.6237608],[2.3732773,48.6240186]]]]},"properties":{"code_section":"91235000AN","code_commune":"91235","section_courte":"AN"}}]}