{"type":"FeatureCollection","features":[{"type":"Feature","geometry":{"type":"MultiPolygon","coordinates":[[[[2.1306277,48.6949582],[2.1294264,48.6946088],[2.1278806,48.6943975],[2.1275291,48.694414],[2.1270523,48.6945418],[2.1240093,48.6948247],[2.1221413,48.6948904],[2.1217554,48.6949358],[2.1213599,48.6948962],[2.1211773,48.6948215],[2.1209124,48.6945924],[2.1209657,48.6942015],[2.1208701,48.6936236],[2.1203294,48.6923122],[2.1206926,48.6922289],[2.1214519,48.6917736],[2.1217619,48.6916426],[2.121906,48.6917343],[2.1219017,48.6925234],[2.122009,48.6925085],[2.1227402,48.6925742],[2.1231079,48.6919164],[2.1257343,48.6916202],[2.1293623,48.6915754],[2.1294995,48.6914851],[2.1297148,48.6888869],[2.1301051,48.6890154],[2.1316289,48.6894089],[2.1323818,48.6896512],[2.1330758,48.6899176],[2.1343355,48.6886804],[2.134294,48.6885403],[2.1314081,48.6881927],[2.131456,48.6874031],[2.1300903,48.6871826],[2.1281099,48.6863925],[2.1279456,48.686458],[2.1278761,48.6858859],[2.128076,48.6858505],[2.1284972,48.6858626],[2.1286335,48.6858271],[2.1289332,48.6859114],[2.129129,48.685783],[2.1293866,48.6858399],[2.1295801,48.6858282],[2.1297699,48.6859408],[2.1302694,48.6859631],[2.1307852,48.6860682],[2.1312764,48.6861187],[2.1324104,48.6863154],[2.1330373,48.6863343],[2.1335413,48.6862866],[2.1344854,48.6860997],[2.1356836,48.685715],[2.1356854,48.6857815],[2.1357631,48.6857972],[2.1361524,48.685784],[2.1360693,48.6863265],[2.1393229,48.6873192],[2.1384042,48.6887561],[2.1377412,48.6886147],[2.1368749,48.6885303],[2.1367582,48.6887044],[2.1388606,48.6891226],[2.144167,48.6912096],[2.143982,48.691585],[2.1420433,48.6912346],[2.1415769,48.6920896],[2.1414522,48.6930263],[2.1415603,48.6935792],[2.1417278,48.6940611],[2.1417737,48.6946629],[2.141572,48.6951475],[2.1416263,48.6958591],[2.1410051,48.6958596],[2.1401583,48.695786],[2.1401368,48.6954535],[2.139775,48.6952288],[2.1388743,48.6950222],[2.1381005,48.6949205],[2.1373702,48.694954],[2.1363417,48.694911],[2.1361917,48.694245],[2.1357809,48.6942776],[2.1350801,48.6944563],[2.1350178,48.6944256],[2.1338822,48.6945906],[2.1338858,48.6946908],[2.1325492,48.6948092],[2.1325137,48.6951457],[2.1323999,48.6951404],[2.1323627,48.6951724],[2.1306277,48.6949582]]]]},"properties":{"code_section":"912720000C","code_commune":"91272","section_courte":"C"}},{"type":"Feature","geometry":{"type":"MultiPolygon","coordinates":[[[[2.1161533,48.7143609],[2.1152492,48.7143951],[2.1149895,48.7143507],[2.1146536,48.7142471],[2.1145559,48.7142639],[2.1141583,48.7141776],[2.1137811,48.7142385],[2.1135854,48.7143162],[2.1134695,48.7142916],[2.1134287,48.7143489],[2.1133032,48.7143595],[2.1132592,48.7143266],[2.1131595,48.7143654],[2.1131502,48.7144057],[2.1130949,48.7143944],[2.1128809,48.7144429],[2.1126452,48.714587],[2.1125164,48.7145562],[2.1125127,48.7145903],[2.1121586,48.7146287],[2.1120734,48.7146011],[2.1118491,48.7146279],[2.1115002,48.7145326],[2.111229,48.7146015],[2.1111313,48.7145802],[2.1109502,48.7147039],[2.1105175,48.7148074],[2.1093352,48.7134492],[2.1093631,48.7133775],[2.1092557,48.7133549],[2.1075533,48.7113774],[2.1074708,48.7113573],[2.1023999,48.7054702],[2.1024004,48.7053653],[2.1022553,48.7052012],[2.1025817,48.7051734],[2.102498,48.705411],[2.1025861,48.7054735],[2.1039218,48.7054022],[2.1043788,48.7053129],[2.1053324,48.7052643],[2.1052294,48.7060747],[2.1062825,48.706225],[2.1071047,48.7062388],[2.1070567,48.7067722],[2.1080946,48.706884],[2.1081034,48.7067638],[2.109773,48.7067408],[2.1106129,48.7067802],[2.1106332,48.7065907],[2.1120513,48.7065984],[2.1123517,48.7065425],[2.1129369,48.7065183],[2.1132331,48.706566],[2.1132611,48.7062083],[2.1133209,48.7060729],[2.1133913,48.7061923],[2.1135193,48.7062674],[2.1139544,48.7062949],[2.1143103,48.7062819],[2.1158534,48.7063928],[2.1163242,48.7063364],[2.1162203,48.7068844],[2.1165279,48.7069211],[2.1167579,48.7062704],[2.11755,48.7066386],[2.117836,48.7068404],[2.118104,48.7075049],[2.1183035,48.7073662],[2.1184523,48.7071669],[2.1186216,48.7070169],[2.1190619,48.706685],[2.1193481,48.7062841],[2.1193343,48.7061272],[2.1191585,48.7057618],[2.1192631,48.7055562],[2.1194856,48.7053707],[2.1199476,48.7056563],[2.1203709,48.7059388],[2.1204686,48.7060855],[2.1205475,48.7063076],[2.1205815,48.7067101],[2.1209243,48.7076999],[2.1209161,48.7078681],[2.1208792,48.7080462],[2.1201357,48.7094313],[2.1201166,48.7096243],[2.1201972,48.7100317],[2.1198896,48.7121113],[2.1198281,48.7122511],[2.1194993,48.7126296],[2.1203923,48.7122334],[2.121057,48.7120284],[2.1211051,48.7120687],[2.1210449,48.712645],[2.12106,48.7130766],[2.121125,48.7130663],[2.121158,48.7139986],[2.1212668,48.7142606],[2.121229,48.7153716],[2.119846,48.7152401],[2.1181233,48.7148857],[2.1179351,48.714887],[2.1175286,48.7146909],[2.1162143,48.7143447],[2.1161533,48.7143609]]]]},"properties":{"code_section":"912720000E","code_commune":"91272","section_courte":"E"}},{"type":"Feature","geometry":{"type":"MultiPolygon","coordinates":[[[[2.1115296,48.6858618],[2.1108792,48.6856963],[2.1102576,48.6855757],[2.1100632,48.6840459],[2.1105946,48.6832814],[2.110235,48.6815865],[2.1141518,48.6828311],[2.1149046,48.6825808],[2.1152269,48.6830013],[2.117035,48.6826371],[2.1163742,48.681279],[2.1180815,48.6811488],[2.1179939,48.6806346],[2.1180963,48.6806272],[2.1182428,48.6809176],[2.1189043,48.6808154],[2.1192249,48.6811657],[2.1217049,48.6800894],[2.1218148,48.681142],[2.1198014,48.6820529],[2.1202567,48.6826412],[2.1205221,48.682522],[2.1217066,48.684946],[2.1212209,48.6851014],[2.1199749,48.6858509],[2.1163939,48.6881286],[2.1153766,48.687456],[2.1143651,48.6868564],[2.1139689,48.6866859],[2.1123838,48.6861226],[2.1115296,48.6858618]]]]},"properties":{"code_section":"91272000AB","code_commune":"91272","section_courte":"AB"}},{"type":"Feature","geometry":{"type":"MultiPolygon","coordinates":[[[[2.1141518,48.6828311],[2.110235,48.6815865],[2.1101684,48.6815024],[2.1107091,48.6790697],[2.1109078,48.6789921],[2.1109537,48.6788841],[2.1115106,48.6789886],[2.1115672,48.6788833],[2.1117566,48.6788267],[2.1120495,48.67849],[2.1124386,48.6781683],[2.1136224,48.6774195],[2.1139291,48.6773461],[2.1141579,48.6772503],[2.114315,48.6771292],[2.1144144,48.6769871],[2.1148199,48.6773297],[2.1150042,48.6772454],[2.1165533,48.6786008],[2.1195587,48.6775841],[2.1202472,48.6807213],[2.1192249,48.6811657],[2.1189043,48.6808154],[2.1182428,48.6809176],[2.1180963,48.6806272],[2.1179939,48.6806346],[2.1180815,48.6811488],[2.1163742,48.681279],[2.117035,48.6826371],[2.1152269,48.6830013],[2.1149046,48.6825808],[2.1141518,48.6828311]]]]},"properties":{"code_section":"91272000AC","code_commune":"91272","section_courte":"AC"}},{"type":"Feature","geometry":{"type":"MultiPolygon","coordinates":[[[[2.1143847,48.6769095],[2.1144144,48.6769871],[2.1142428,48.6771934],[2.1140616,48.6772989],[2.1136224,48.6774195],[2.1124386,48.6781683],[2.1120495,48.67849],[2.1117566,48.6788267],[2.1115672,48.6788833],[2.1115106,48.6789886],[2.1107064,48.6788461],[2.1097989,48.6787358],[2.108914,48.6786844],[2.106868,48.6786822],[2.1062121,48.6792312],[2.1056722,48.6792162],[2.1044991,48.678993],[2.1037079,48.678995],[2.1013978,48.6756607],[2.1039261,48.6757801],[2.1043438,48.6757694],[2.1048441,48.6757135],[2.1057956,48.6755117],[2.1098709,48.6744476],[2.1120592,48.6740309],[2.112168,48.6740676],[2.1128822,48.6752405],[2.1136287,48.675809],[2.1143802,48.6768481],[2.1143847,48.6769095]]]]},"properties":{"code_section":"91272000AD","code_commune":"91272","section_courte":"AD"}},{"type":"Feature","geometry":{"type":"MultiPolygon","coordinates":[[[[2.1108256,48.6790247],[2.1107091,48.6790697],[2.1101684,48.6815024],[2.110235,48.6815865],[2.1105946,48.6832814],[2.1100632,48.6840459],[2.1102576,48.6855757],[2.1087862,48.685342],[2.1086908,48.6856554],[2.1087551,48.6859752],[2.1077348,48.6865198],[2.1070022,48.6857677],[2.1056107,48.686446],[2.1055533,48.6864462],[2.1041994,48.6850458],[2.1037609,48.684422],[2.1029691,48.6831472],[2.102263,48.6823242],[2.1022211,48.6822266],[2.1022325,48.6819959],[2.1024387,48.6818147],[2.1026426,48.6817506],[2.1034587,48.6816618],[2.102612,48.6790865],[2.1037478,48.6790447],[2.1037079,48.678995],[2.1044991,48.678993],[2.1056391,48.6792116],[2.1062121,48.6792312],[2.106868,48.6786822],[2.108914,48.6786844],[2.1097989,48.6787358],[2.1109537,48.6788841],[2.1109078,48.6789921],[2.1108256,48.6790247]]]]},"properties":{"code_section":"91272000AE","code_commune":"91272","section_courte":"AE"}},{"type":"Feature","geometry":{"type":"MultiPolygon","coordinates":[[[[2.1117,48.6887127],[2.1103818,48.6891679],[2.1101281,48.6901218],[2.1084599,48.6899702],[2.1080407,48.6892449],[2.1097696,48.6886483],[2.1077348,48.6865198],[2.1087551,48.6859752],[2.1086908,48.6856554],[2.1087862,48.685342],[2.109801,48.6854871],[2.1108792,48.6856963],[2.1115296,48.6858618],[2.1123838,48.6861226],[2.1139689,48.6866859],[2.1143651,48.6868564],[2.1150725,48.6872661],[2.1163939,48.6881286],[2.1164376,48.6881009],[2.1168309,48.6883689],[2.1158847,48.6889682],[2.1158205,48.6889222],[2.1155786,48.688917],[2.1153666,48.6887697],[2.1153574,48.6888329],[2.1150039,48.6890478],[2.1146376,48.6887973],[2.1144734,48.6887328],[2.1135945,48.6886081],[2.1126501,48.6883124],[2.1125668,48.6884094],[2.1117,48.6887127]]]]},"properties":{"code_section":"91272000AH","code_commune":"91272","section_courte":"AH"}},{"type":"Feature","geometry":{"type":"MultiPolygon","coordinates":[[[[2.1266707,48.6888006],[2.1256814,48.6895934],[2.124814,48.6902055],[2.1239179,48.6906377],[2.1232803,48.6908581],[2.1223287,48.6910862],[2.1216483,48.6911085],[2.1212741,48.6910584],[2.1209327,48.6909712],[2.1206016,48.6908389],[2.1203408,48.6906901],[2.1203373,48.6913655],[2.1206736,48.6915927],[2.1216986,48.6915929],[2.1217619,48.6916426],[2.1214519,48.6917736],[2.1206926,48.6922289],[2.1203615,48.6923132],[2.1191543,48.6916056],[2.1179185,48.690989],[2.1172876,48.690741],[2.1160964,48.6900539],[2.1155517,48.6898266],[2.1153351,48.6898267],[2.1152165,48.6891933],[2.1150039,48.6890478],[2.1153574,48.6888329],[2.1153666,48.6887697],[2.1155786,48.688917],[2.1158205,48.6889222],[2.1158847,48.6889682],[2.1168309,48.6883689],[2.1164376,48.6881009],[2.1199749,48.6858509],[2.1212209,48.6851014],[2.1217066,48.684946],[2.1225398,48.6847555],[2.122872,48.6846466],[2.1233928,48.6855733],[2.1241536,48.685448],[2.1243868,48.6855525],[2.1247651,48.6855356],[2.1248721,48.6860116],[2.124837,48.686995],[2.1250823,48.6870475],[2.1251801,48.6869857],[2.1264951,48.6869233],[2.1271357,48.687083],[2.127963,48.6870452],[2.1277553,48.6874993],[2.1274759,48.6879383],[2.1270564,48.6884393],[2.1266707,48.6888006]]]]},"properties":{"code_section":"91272000AI","code_commune":"91272","section_courte":"AI"}},{"type":"Feature","geometry":{"type":"MultiPolygon","coordinates":[[[[2.1219023,48.6923553],[2.121906,48.6917343],[2.1216986,48.6915929],[2.1206736,48.6915927],[2.1203373,48.6913655],[2.1203408,48.6906901],[2.1207328,48.6908973],[2.121197,48.6910421],[2.1216483,48.6911085],[2.1221778,48.691103],[2.1227987,48.6909909],[2.1235017,48.6907877],[2.1239179,48.6906377],[2.1247114,48.690263],[2.125355,48.6898339],[2.1262006,48.6891908],[2.1269483,48.6885504],[2.1272675,48.6882069],[2.1276478,48.6876851],[2.1278761,48.6872556],[2.1280215,48.6867876],[2.1279456,48.686458],[2.1281099,48.6863925],[2.1300903,48.6871826],[2.1314419,48.6873945],[2.1314081,48.6881927],[2.134294,48.6885403],[2.1343355,48.6886804],[2.1330758,48.6899176],[2.1323818,48.6896512],[2.1316289,48.6894089],[2.1301051,48.6890154],[2.1297148,48.6888869],[2.1294995,48.6914851],[2.1293623,48.6915754],[2.1257343,48.6916202],[2.1231079,48.6919164],[2.1227402,48.6925742],[2.122009,48.6925085],[2.1219017,48.6925234],[2.1219023,48.6923553]]]]},"properties":{"code_section":"91272000AK","code_commune":"91272","section_courte":"AK"}},{"type":"Feature","geometry":{"type":"MultiPolygon","coordinates":[[[[2.1235943,48.6843971],[2.1241496,48.6842036],[2.1253658,48.6836915],[2.125812,48.6834671],[2.1264507,48.6830578],[2.1268578,48.6834054],[2.1266925,48.6834455],[2.1272314,48.6856496],[2.1277743,48.685705],[2.1277969,48.6858078],[2.1278761,48.6858859],[2.1279462,48.6864921],[2.1280207,48.6867171],[2.127963,48.6870452],[2.1271357,48.687083],[2.1264951,48.6869233],[2.1251801,48.6869857],[2.1250823,48.6870475],[2.124837,48.686995],[2.1248721,48.6860116],[2.1247651,48.6855356],[2.1243868,48.6855525],[2.1241536,48.685448],[2.1233928,48.6855733],[2.122872,48.6846466],[2.1235943,48.6843971]]]]},"properties":{"code_section":"91272000AL","code_commune":"91272","section_courte":"AL"}},{"type":"Feature","geometry":{"type":"MultiPolygon","coordinates":[[[[2.095924,48.700316],[2.095892,48.7002421],[2.0987881,48.69962],[2.098953,48.6999119],[2.0992556,48.7000574],[2.0997627,48.6999081],[2.1006986,48.6995513],[2.1019878,48.6983633],[2.1022962,48.6982504],[2.1034712,48.6980764],[2.1043457,48.6979083],[2.1048738,48.6977165],[2.1051553,48.6975769],[2.1053394,48.6974295],[2.1068178,48.6993922],[2.1068804,48.6995472],[2.1069563,48.7002708],[2.1074454,48.7003167],[2.1074412,48.7005234],[2.1056151,48.7003944],[2.1046151,48.7003866],[2.1042277,48.700425],[2.104111,48.7005014],[2.1041063,48.7003925],[2.1029968,48.700428],[2.100968,48.7006331],[2.0993639,48.7009511],[2.0994645,48.7011603],[2.1001384,48.701591],[2.1007405,48.7028113],[2.099829,48.7024376],[2.099246,48.7024914],[2.0986778,48.7026012],[2.0968446,48.7028429],[2.0965985,48.7018818],[2.0964371,48.7016137],[2.095924,48.700316]]]]},"properties":{"code_section":"91272000BA","code_commune":"91272","section_courte":"BA"}},{"type":"Feature","geometry":{"type":"MultiPolygon","coordinates":[[[[2.0986111,48.6940021],[2.0989095,48.6939164],[2.0990336,48.6938197],[2.1000575,48.6939537],[2.1010055,48.6942001],[2.1017629,48.6942222],[2.102624,48.6945976],[2.1027942,48.6945666],[2.1052394,48.6946822],[2.1059258,48.6946654],[2.1062729,48.6947441],[2.1064001,48.6948124],[2.1065932,48.6941575],[2.1067634,48.6942431],[2.1068493,48.694432],[2.1068531,48.6945309],[2.1061627,48.6965666],[2.1059438,48.6969512],[2.1051553,48.6975769],[2.1048738,48.6977165],[2.1043457,48.6979083],[2.1034712,48.6980764],[2.1022962,48.6982504],[2.1019878,48.6983633],[2.1006986,48.6995513],[2.0997627,48.6999081],[2.0992556,48.7000574],[2.098953,48.6999119],[2.0987881,48.69962],[2.0982531,48.6997235],[2.0974202,48.6982443],[2.0968353,48.6974705],[2.0974558,48.6942544],[2.0986111,48.6940021]]]]},"properties":{"code_section":"91272000BB","code_commune":"91272","section_courte":"BB"}},{"type":"Feature","geometry":{"type":"MultiPolygon","coordinates":[[[[2.1113288,48.6961727],[2.1113917,48.6961337],[2.1114474,48.6967038],[2.1115318,48.6970588],[2.1119043,48.6970334],[2.1122411,48.6983643],[2.1116721,48.6984481],[2.1109802,48.6984925],[2.1106722,48.6985865],[2.111534,48.6999286],[2.1115099,48.7001159],[2.1112889,48.7003568],[2.1113133,48.700403],[2.111899,48.7005508],[2.1119413,48.7006222],[2.1119382,48.7007969],[2.1116793,48.7009994],[2.1112577,48.7007764],[2.1103225,48.7007515],[2.1090844,48.7006479],[2.1085605,48.7006135],[2.1085546,48.70064],[2.1074408,48.7005549],[2.1074454,48.7003167],[2.1069563,48.7002708],[2.1068804,48.6995472],[2.1068178,48.6993922],[2.1053394,48.6974295],[2.1059438,48.6969512],[2.1061627,48.6965666],[2.1068567,48.6945132],[2.1068286,48.6943507],[2.1067634,48.6942431],[2.1066085,48.6941561],[2.1067823,48.693771],[2.1069501,48.693534],[2.1074432,48.6929812],[2.1083064,48.6931754],[2.1085209,48.6927541],[2.1097348,48.6937135],[2.1099372,48.6932483],[2.1103849,48.693337],[2.1099756,48.6943105],[2.1099737,48.6944229],[2.1112155,48.6961051],[2.1112761,48.6961049],[2.1113288,48.6961727]]]]},"properties":{"code_section":"91272000BC","code_commune":"91272","section_courte":"BC"}},{"type":"Feature","geometry":{"type":"MultiPolygon","coordinates":[[[[2.1119043,48.6970334],[2.1115318,48.6970588],[2.1114474,48.6967038],[2.1113917,48.6961337],[2.1113288,48.6961727],[2.1112761,48.6961049],[2.1112155,48.6961051],[2.1104123,48.6950227],[2.1157317,48.6946054],[2.1158971,48.6955162],[2.1159545,48.695569],[2.115969,48.6961385],[2.1157614,48.6961206],[2.1157663,48.6964255],[2.1156984,48.6964267],[2.1158272,48.6974003],[2.1166672,48.6973121],[2.1170422,48.6983475],[2.1165051,48.6984225],[2.115781,48.698601],[2.1155638,48.6986189],[2.1154365,48.6985937],[2.1155034,48.6991445],[2.1155661,48.6993762],[2.1163967,48.6992635],[2.1168146,48.7000825],[2.1129763,48.7005253],[2.1120358,48.7005455],[2.1120611,48.7006177],[2.1119413,48.7006222],[2.1118436,48.7005229],[2.1113133,48.700403],[2.1112889,48.7003568],[2.1115099,48.7001159],[2.111534,48.6999286],[2.1106722,48.6985865],[2.1109802,48.6984925],[2.1116721,48.6984481],[2.1122411,48.6983643],[2.1119043,48.6970334]]]]},"properties":{"code_section":"91272000BD","code_commune":"91272","section_courte":"BD"}},{"type":"Feature","geometry":{"type":"MultiPolygon","coordinates":[[[[2.1161219,48.6913787],[2.1164966,48.6911182],[2.1155477,48.6898707],[2.1155517,48.6898266],[2.1160964,48.6900539],[2.1172876,48.690741],[2.1179185,48.690989],[2.1191543,48.6916056],[2.1203294,48.6923122],[2.1208502,48.6935629],[2.1209436,48.6940962],[2.1207432,48.6944719],[2.1206712,48.6945307],[2.1195684,48.6947643],[2.1192804,48.6946957],[2.1183869,48.6943981],[2.1104123,48.6950227],[2.1099815,48.6944456],[2.1099705,48.6943332],[2.1103849,48.693337],[2.1099372,48.6932483],[2.1104609,48.6919454],[2.1114807,48.6918006],[2.1118518,48.6925256],[2.1141513,48.6923964],[2.1144291,48.6923193],[2.1155887,48.6917641],[2.1156574,48.6916819],[2.1161219,48.6913787]]]]},"properties":{"code_section":"91272000BE","code_commune":"91272","section_courte":"BE"}},{"type":"Feature","geometry":{"type":"MultiPolygon","coordinates":[[[[2.1159569,48.6957909],[2.1159545,48.695569],[2.1158971,48.6955162],[2.1157317,48.6946054],[2.1183869,48.6943981],[2.1192804,48.6946957],[2.1195684,48.6947643],[2.1206712,48.6945307],[2.1207432,48.6944719],[2.1209436,48.6940962],[2.1209657,48.6942015],[2.1209124,48.6945924],[2.1211773,48.6948215],[2.1213599,48.6948962],[2.1217554,48.6949358],[2.1221413,48.6948904],[2.1240093,48.6948247],[2.1234571,48.6949483],[2.123463,48.695043],[2.1233779,48.6952441],[2.1235217,48.6955999],[2.1235295,48.6958724],[2.1236764,48.6961774],[2.1233149,48.6964557],[2.1232094,48.697781],[2.1231066,48.6980035],[2.1229598,48.6981866],[2.1229113,48.6981832],[2.1228429,48.6982671],[2.1227741,48.6984771],[2.1228233,48.6985689],[2.1227712,48.6988237],[2.1231869,48.6988584],[2.1232558,48.6987447],[2.1237267,48.6987053],[2.1237204,48.6988708],[2.1203578,48.699675],[2.1191059,48.6998997],[2.1177532,48.6999857],[2.1168146,48.7000825],[2.1163967,48.6992635],[2.1155661,48.6993762],[2.1155034,48.6991445],[2.1154365,48.6985937],[2.1155638,48.6986189],[2.115781,48.698601],[2.1165051,48.6984225],[2.1170422,48.6983475],[2.1166672,48.6973121],[2.1158272,48.6974003],[2.1156984,48.6964267],[2.1157663,48.6964255],[2.1157614,48.6961206],[2.115969,48.6961385],[2.1159569,48.6957909]]]]},"properties":{"code_section":"91272000BH","code_commune":"91272","section_courte":"BH"}},{"type":"Feature","geometry":{"type":"MultiPolygon","coordinates":[[[[2.1233153,48.6987454],[2.1232558,48.6987447],[2.1231869,48.6988584],[2.1227712,48.6988237],[2.1228233,48.6985689],[2.1227797,48.6984242],[2.1228429,48.6982671],[2.1229113,48.6981832],[2.1229598,48.6981866],[2.1231066,48.6980035],[2.1232094,48.697781],[2.1233032,48.6964862],[2.1233452,48.6964204],[2.1236764,48.6961774],[2.1235295,48.6958724],[2.1235217,48.6955999],[2.1233779,48.6952441],[2.123463,48.695043],[2.1234571,48.6949483],[2.1240093,48.6948247],[2.1270523,48.6945418],[2.1275291,48.694414],[2.1278806,48.6943975],[2.1294264,48.6946088],[2.1306277,48.6949582],[2.130414,48.6964367],[2.1310491,48.696528],[2.1312979,48.6966399],[2.1318825,48.6970638],[2.1315376,48.6974252],[2.1311972,48.6974831],[2.1310572,48.6974703],[2.1307702,48.6977229],[2.1300272,48.6976811],[2.1299377,48.6976242],[2.1298731,48.6976208],[2.1298088,48.6976851],[2.1293749,48.6976962],[2.1287248,48.6977792],[2.1281022,48.6979189],[2.1267324,48.6983075],[2.1243385,48.6989231],[2.1242866,48.6989002],[2.1242136,48.6987634],[2.1237204,48.6988708],[2.1237267,48.6987053],[2.1233153,48.6987454]]]]},"properties":{"code_section":"91272000BI","code_commune":"91272","section_courte":"BI"}},{"type":"Feature","geometry":{"type":"MultiPolygon","coordinates":[[[[2.1423649,48.6989365],[2.1419128,48.698994],[2.1405558,48.6990449],[2.1376736,48.6994428],[2.1371491,48.6994522],[2.1369921,48.6994965],[2.1367918,48.6997073],[2.1364239,48.6998764],[2.136309,48.6998883],[2.1359354,48.6998364],[2.1358039,48.6997718],[2.1355862,48.6994487],[2.1354284,48.6993687],[2.1350812,48.6993761],[2.1348075,48.6991688],[2.1345502,48.6991104],[2.1340593,48.6989318],[2.1335683,48.6985284],[2.1322618,48.6984332],[2.1319959,48.6982758],[2.1316284,48.6982639],[2.1313164,48.6981696],[2.1308389,48.6980937],[2.1307081,48.6980366],[2.1307702,48.6977229],[2.1310572,48.6974703],[2.1311972,48.6974831],[2.1315376,48.6974252],[2.1318825,48.6970638],[2.1312979,48.6966399],[2.1310491,48.696528],[2.130414,48.6964367],[2.1306277,48.6949582],[2.1323627,48.6951724],[2.1323999,48.6951404],[2.1325137,48.6951457],[2.1325492,48.6948092],[2.1338858,48.6946908],[2.1338822,48.6945906],[2.1350178,48.6944256],[2.1350801,48.6944563],[2.1357809,48.6942776],[2.1361917,48.694245],[2.1363417,48.694911],[2.1373702,48.694954],[2.1381005,48.6949205],[2.1388743,48.6950222],[2.139775,48.6952288],[2.1401368,48.6954535],[2.1401583,48.695786],[2.1410051,48.6958596],[2.1416263,48.6958591],[2.1415397,48.6968209],[2.1415929,48.6978963],[2.1420724,48.6987374],[2.1423649,48.6989365]]]]},"properties":{"code_section":"91272000BK","code_commune":"91272","section_courte":"BK"}},{"type":"Feature","geometry":{"type":"MultiPolygon","coordinates":[[[[2.1417278,48.6940611],[2.1416378,48.6938422],[2.1430803,48.6938743],[2.1436162,48.6939132],[2.1437343,48.6939507],[2.1443328,48.6939726],[2.1444863,48.6949653],[2.1453987,48.6948523],[2.1454479,48.6959083],[2.1457192,48.695902],[2.1457582,48.6967175],[2.1415932,48.6978483],[2.1415397,48.6968209],[2.1416263,48.6958591],[2.1415635,48.695284],[2.1416116,48.6949912],[2.1417737,48.6946629],[2.1417278,48.6940611]]]]},"properties":{"code_section":"91272000BL","code_commune":"91272","section_courte":"BL"}},{"type":"Feature","geometry":{"type":"MultiPolygon","coordinates":[[[[2.1405974,48.6898098],[2.1388606,48.6891226],[2.1367582,48.6887044],[2.1368749,48.6885303],[2.1377412,48.6886147],[2.1384042,48.6887561],[2.1393229,48.6873192],[2.1360693,48.6863265],[2.1361524,48.685784],[2.1357631,48.6857972],[2.1356854,48.6857815],[2.1356941,48.6857565],[2.1358712,48.6857823],[2.1360609,48.6857444],[2.1362206,48.6857494],[2.1368024,48.6858516],[2.1369539,48.6858027],[2.137042,48.6858381],[2.1373566,48.6858434],[2.1375879,48.6859534],[2.1376439,48.6859476],[2.1377151,48.6858771],[2.1378961,48.6858648],[2.1382237,48.6859233],[2.1382963,48.6858397],[2.1385267,48.685842],[2.1385729,48.6858572],[2.1386384,48.6859961],[2.1387234,48.6860381],[2.1390058,48.685895],[2.1392664,48.6859345],[2.1393295,48.6858181],[2.1393958,48.6857787],[2.1398905,48.6856262],[2.140095,48.6856152],[2.1404731,48.6857718],[2.1411085,48.6859406],[2.1415621,48.6861107],[2.1416409,48.6861771],[2.1415919,48.6866686],[2.1422858,48.6867207],[2.1422855,48.686863],[2.1430413,48.6868123],[2.1438377,48.6865272],[2.1446322,48.6867548],[2.1456285,48.6872186],[2.146601,48.6875869],[2.1471271,48.6877517],[2.147803,48.688262],[2.1484965,48.6889791],[2.1468187,48.6896405],[2.1462834,48.6889275],[2.1457123,48.6884149],[2.1453683,48.6885402],[2.1449774,48.6883214],[2.1440874,48.6889678],[2.1447205,48.689358],[2.1442712,48.689713],[2.1446746,48.6899279],[2.1442951,48.690252],[2.1439596,48.6906061],[2.1442461,48.6907198],[2.1438994,48.6911061],[2.1405974,48.6898098]]]]},"properties":{"code_section":"91272000BM","code_commune":"91272","section_courte":"BM"}},{"type":"Feature","geometry":{"type":"MultiPolygon","coordinates":[[[[2.1018679,48.7005281],[2.1029968,48.700428],[2.1041063,48.7003925],[2.104111,48.7005014],[2.1042277,48.700425],[2.1046151,48.7003866],[2.1056151,48.7003944],[2.1074412,48.7005234],[2.1074408,48.7005549],[2.1085546,48.70064],[2.1085605,48.7006135],[2.1103225,48.7007515],[2.1112907,48.7007809],[2.1117407,48.701014],[2.1116648,48.7011646],[2.1117291,48.7017956],[2.1116475,48.7020395],[2.1113052,48.7026944],[2.1112974,48.7030443],[2.11188,48.7040131],[2.1125009,48.7040939],[2.1124786,48.7041328],[2.1122361,48.704162],[2.1102871,48.7041083],[2.1100355,48.704122],[2.1096092,48.7042082],[2.108587,48.7045308],[2.1081281,48.7046411],[2.1054058,48.7049375],[2.1022553,48.7052012],[2.1019011,48.7045224],[2.1016588,48.7041585],[2.1013332,48.7037156],[2.1012397,48.7037427],[2.1007596,48.7028686],[2.1001384,48.701591],[2.0994645,48.7011603],[2.0993639,48.7009511],[2.100968,48.7006331],[2.1018679,48.7005281]]]]},"properties":{"code_section":"91272000CA","code_commune":"91272","section_courte":"CA"}},{"type":"Feature","geometry":{"type":"MultiPolygon","coordinates":[[[[2.1114904,48.7066047],[2.1106332,48.7065907],[2.1106129,48.7067802],[2.109773,48.7067408],[2.1081034,48.7067638],[2.1080946,48.706884],[2.1070567,48.7067722],[2.1071047,48.7062388],[2.1062825,48.706225],[2.1052294,48.7060747],[2.1053324,48.7052643],[2.1043788,48.7053129],[2.1039218,48.7054022],[2.1029659,48.7054553],[2.1025861,48.7054735],[2.102498,48.705411],[2.1025817,48.7051734],[2.1054058,48.7049375],[2.1081281,48.7046411],[2.108587,48.7045308],[2.1096092,48.7042082],[2.1100355,48.704122],[2.1102871,48.7041083],[2.1122361,48.704162],[2.1124181,48.7041532],[2.1125009,48.7040939],[2.1136396,48.704215],[2.113633,48.705379],[2.1132611,48.7062083],[2.1132331,48.706566],[2.1129369,48.7065183],[2.1123517,48.7065425],[2.1120513,48.7065984],[2.1114904,48.7066047]]]]},"properties":{"code_section":"91272000CB","code_commune":"91272","section_courte":"CB"}},{"type":"Feature","geometry":{"type":"MultiPolygon","coordinates":[[[[2.1168146,48.7000825],[2.1171469,48.700548],[2.1173272,48.7004913],[2.1175471,48.7005033],[2.1173463,48.7018138],[2.1168946,48.7017127],[2.1167789,48.7017107],[2.1163301,48.7026735],[2.1163535,48.7029045],[2.1164785,48.7031354],[2.1166018,48.7032899],[2.1170495,48.7036748],[2.1171044,48.7037934],[2.1171117,48.7040882],[2.1170473,48.7046191],[2.1186754,48.7048143],[2.1186687,48.704958],[2.1187103,48.7050016],[2.1191808,48.7051737],[2.1194856,48.7053707],[2.1192631,48.7055562],[2.1191585,48.7057618],[2.1193343,48.7061272],[2.1193481,48.7062841],[2.1190619,48.706685],[2.1186216,48.7070169],[2.1184523,48.7071669],[2.1183035,48.7073662],[2.118104,48.7075049],[2.117836,48.7068404],[2.11755,48.7066386],[2.1167579,48.7062704],[2.1165279,48.7069211],[2.1162203,48.7068844],[2.1163242,48.7063364],[2.1158534,48.7063928],[2.1143103,48.7062819],[2.1139544,48.7062949],[2.1135193,48.7062674],[2.1133913,48.7061923],[2.1133209,48.7060729],[2.113633,48.705379],[2.1136396,48.704215],[2.11188,48.7040131],[2.1112974,48.7030443],[2.1113052,48.7026944],[2.1116475,48.7020395],[2.1117291,48.7017956],[2.1116648,48.7011646],[2.1117407,48.701014],[2.1116793,48.7009994],[2.1119382,48.7007969],[2.1119413,48.7006222],[2.1120611,48.7006177],[2.1120358,48.7005455],[2.1129763,48.7005253],[2.1168146,48.7000825]]]]},"properties":{"code_section":"91272000CC","code_commune":"91272","section_courte":"CC"}},{"type":"Feature","geometry":{"type":"MultiPolygon","coordinates":[[[[2.1175187,48.7005057],[2.1173272,48.7004913],[2.1171469,48.700548],[2.1168146,48.7000825],[2.1177532,48.6999857],[2.1191059,48.6998997],[2.1203578,48.699675],[2.1242136,48.6987634],[2.1242866,48.6989002],[2.1243385,48.6989231],[2.1242483,48.6989441],[2.1242802,48.6990423],[2.124093,48.6995262],[2.1242953,48.6998623],[2.124653,48.7003],[2.1247215,48.7005111],[2.1249178,48.7004905],[2.1250563,48.700516],[2.1252159,48.7005899],[2.1253541,48.7007039],[2.125433,48.7008579],[2.1261398,48.7014242],[2.1264786,48.7014971],[2.1268169,48.7019473],[2.1266895,48.7020291],[2.1264398,48.7021032],[2.1262856,48.7021847],[2.1263117,48.7024645],[2.1262676,48.7025285],[2.1259105,48.7027697],[2.1258648,48.7028476],[2.1258593,48.7029405],[2.1259679,48.7031081],[2.1259162,48.7031216],[2.1265155,48.704024],[2.1216244,48.7051304],[2.1170473,48.7046191],[2.1171117,48.7040882],[2.1171044,48.7037934],[2.1170495,48.7036748],[2.1166018,48.7032899],[2.1164785,48.7031354],[2.1163535,48.7029045],[2.1163301,48.7026735],[2.1167789,48.7017107],[2.1168946,48.7017127],[2.1173463,48.7018138],[2.1175012,48.700651],[2.1175286,48.7006529],[2.1175471,48.7005033],[2.1175187,48.7005057]]]]},"properties":{"code_section":"91272000CD","code_commune":"91272","section_courte":"CD"}},{"type":"Feature","geometry":{"type":"MultiPolygon","coordinates":[[[[2.1265155,48.704024],[2.1277459,48.7037292],[2.1281732,48.7043426],[2.1284715,48.7042426],[2.1293088,48.7054381],[2.1283256,48.7058868],[2.1274323,48.7062435],[2.1266837,48.7064817],[2.1263899,48.7065101],[2.125771,48.7067782],[2.1256279,48.7068789],[2.1255473,48.7070012],[2.1258685,48.7071881],[2.1260518,48.7072064],[2.1267722,48.7071304],[2.1273573,48.7072198],[2.1273218,48.7072771],[2.1258959,48.7083049],[2.1239586,48.7067784],[2.1222322,48.7078283],[2.1215024,48.708595],[2.120193,48.7092765],[2.1208792,48.7080462],[2.1209161,48.7078681],[2.1209243,48.7076999],[2.1205815,48.7067101],[2.1205284,48.7062456],[2.1203709,48.7059388],[2.1191808,48.7051737],[2.1187103,48.7050016],[2.1186687,48.704958],[2.1186754,48.7048143],[2.1216244,48.7051304],[2.1265155,48.704024]]]]},"properties":{"code_section":"91272000CE","code_commune":"91272","section_courte":"CE"}},{"type":"Feature","geometry":{"type":"MultiPolygon","coordinates":[[[[2.1220128,48.7155945],[2.1218911,48.7155958],[2.121229,48.7153716],[2.1212668,48.7142606],[2.121158,48.7139986],[2.121125,48.7130663],[2.12106,48.7130766],[2.1210449,48.712645],[2.1211051,48.7120687],[2.121057,48.7120284],[2.1203923,48.7122334],[2.1194993,48.7126296],[2.1198281,48.7122511],[2.1198896,48.7121113],[2.1201972,48.7100317],[2.1201166,48.7096243],[2.1201357,48.7094313],[2.120193,48.7092765],[2.1215024,48.708595],[2.1222322,48.7078283],[2.1239586,48.7067784],[2.1273929,48.7094992],[2.1268165,48.709855],[2.1257814,48.7105661],[2.1252574,48.7111145],[2.1246624,48.7116624],[2.1244278,48.7121486],[2.1237218,48.7129141],[2.1237373,48.7135442],[2.1240229,48.7138847],[2.1240826,48.7139965],[2.1240846,48.7141131],[2.1237508,48.7148977],[2.1233755,48.7152546],[2.1232831,48.7153853],[2.1232213,48.7157714],[2.1227934,48.7155919],[2.1220128,48.7155945]]]]},"properties":{"code_section":"91272000CH","code_commune":"91272","section_courte":"CH"}},{"type":"Feature","geometry":{"type":"MultiPolygon","coordinates":[[[[2.1288405,48.7047722],[2.1284715,48.7042426],[2.1281732,48.7043426],[2.1277459,48.7037292],[2.1265155,48.704024],[2.1259162,48.7031216],[2.1259679,48.7031081],[2.1258593,48.7029405],[2.1259105,48.7027697],[2.1262676,48.7025285],[2.1263117,48.7024645],[2.1262856,48.7021847],[2.1264398,48.7021032],[2.1266895,48.7020291],[2.1268169,48.7019473],[2.1273283,48.7019993],[2.1285546,48.7021913],[2.1297271,48.7022919],[2.1305904,48.7022933],[2.1308828,48.7023602],[2.1312567,48.7025719],[2.1318523,48.7023036],[2.1321659,48.7022054],[2.1324816,48.7021732],[2.1324689,48.7027578],[2.1323352,48.7027567],[2.1321696,48.7062312],[2.1321209,48.7063389],[2.1322374,48.7064025],[2.1325549,48.7066963],[2.1328468,48.7068888],[2.1332298,48.7069925],[2.1333187,48.7070885],[2.1335847,48.7071789],[2.1338857,48.7074006],[2.1339235,48.7074975],[2.134073,48.707623],[2.1343058,48.7081546],[2.1344432,48.7082862],[2.134185,48.7082794],[2.1339342,48.7081959],[2.1336495,48.7079964],[2.1334064,48.7078877],[2.1331762,48.7078634],[2.1317953,48.7082022],[2.1315587,48.7082974],[2.1287582,48.7099901],[2.1286208,48.7100629],[2.1283392,48.7100876],[2.1281794,48.7100621],[2.1279896,48.7099786],[2.1258959,48.7083049],[2.1273218,48.7072771],[2.1273573,48.7072198],[2.1267722,48.7071304],[2.1260518,48.7072064],[2.1258685,48.7071881],[2.1255473,48.7070012],[2.1256279,48.7068789],[2.125771,48.7067782],[2.1263899,48.7065101],[2.1266837,48.7064817],[2.1274323,48.7062435],[2.1283256,48.7058868],[2.1293088,48.7054381],[2.1288405,48.7047722]]]]},"properties":{"code_section":"91272000CI","code_commune":"91272","section_courte":"CI"}},{"type":"Feature","geometry":{"type":"MultiPolygon","coordinates":[[[[2.1243385,48.6989231],[2.1267324,48.6983075],[2.1281022,48.6979189],[2.1287984,48.6977676],[2.1293749,48.6976962],[2.1298088,48.6976851],[2.1298731,48.6976208],[2.1299377,48.6976242],[2.1300272,48.6976811],[2.1307702,48.6977229],[2.1307081,48.6980366],[2.1308389,48.6980937],[2.1313164,48.6981696],[2.1316284,48.6982639],[2.1319959,48.6982758],[2.1322618,48.6984332],[2.1335683,48.6985284],[2.1340593,48.6989318],[2.1345502,48.6991104],[2.1348075,48.6991688],[2.1350812,48.6993761],[2.1354284,48.6993687],[2.1355862,48.6994487],[2.1358039,48.6997718],[2.1359354,48.6998364],[2.1362526,48.6998813],[2.1356923,48.7013818],[2.1352706,48.7023852],[2.1351197,48.7022987],[2.1344378,48.7022556],[2.133785,48.7021278],[2.1326175,48.7021368],[2.1321659,48.7022054],[2.1318523,48.7023036],[2.1312567,48.7025719],[2.1308828,48.7023602],[2.1305904,48.7022933],[2.1297271,48.7022919],[2.1285546,48.7021913],[2.1273283,48.7019993],[2.1268169,48.7019473],[2.1264786,48.7014971],[2.1261398,48.7014242],[2.125433,48.7008579],[2.1253541,48.7007039],[2.1252159,48.7005899],[2.1250563,48.700516],[2.1249178,48.7004905],[2.1247215,48.7005111],[2.124653,48.7003],[2.1242953,48.6998623],[2.124093,48.6995262],[2.1242802,48.6990423],[2.1242483,48.6989441],[2.1243385,48.6989231]]]]},"properties":{"code_section":"91272000CK","code_commune":"91272","section_courte":"CK"}},{"type":"Feature","geometry":{"type":"MultiPolygon","coordinates":[[[[2.1453107,48.6995713],[2.1454369,48.7002589],[2.1456916,48.7003078],[2.1459472,48.7022071],[2.1450601,48.7022117],[2.1420218,48.7028836],[2.1401347,48.7030489],[2.1393885,48.7030726],[2.1389621,48.7030663],[2.1369697,48.7028705],[2.1362626,48.7026134],[2.1352706,48.7023852],[2.1356923,48.7013818],[2.1362526,48.6998813],[2.1364239,48.6998764],[2.1367918,48.6997073],[2.1370114,48.6994859],[2.1371491,48.6994522],[2.1376736,48.6994428],[2.1405558,48.6990449],[2.1422645,48.6989641],[2.1424654,48.6988815],[2.1428152,48.6985871],[2.1431723,48.698595],[2.1433253,48.698519],[2.1440978,48.6995033],[2.1452744,48.6993368],[2.1453107,48.6995713]]]]},"properties":{"code_section":"91272000CL","code_commune":"91272","section_courte":"CL"}},{"type":"Feature","geometry":{"type":"MultiPolygon","coordinates":[[[[2.1464343,48.7022847],[2.1467407,48.7034198],[2.1469392,48.7055528],[2.1460865,48.7056476],[2.1460714,48.7056825],[2.1429716,48.7060435],[2.1382355,48.7059926],[2.1384029,48.7061644],[2.1383523,48.7062169],[2.1379965,48.7060828],[2.1375513,48.7059977],[2.1369281,48.7059884],[2.1365234,48.7060463],[2.1362519,48.7061175],[2.1359328,48.7062529],[2.1356668,48.7064198],[2.1355019,48.706573],[2.1353181,48.7068374],[2.1351142,48.7072488],[2.1348754,48.7080539],[2.1347224,48.7081918],[2.1344552,48.7082875],[2.1343058,48.7081546],[2.134073,48.707623],[2.1339235,48.7074975],[2.1338857,48.7074006],[2.1335847,48.7071789],[2.1333187,48.7070885],[2.1332298,48.7069925],[2.1328468,48.7068888],[2.1325549,48.7066963],[2.1322374,48.7064025],[2.1321209,48.7063389],[2.1321696,48.7062312],[2.1323352,48.7027567],[2.1324689,48.7027578],[2.1324816,48.7021732],[2.1326175,48.7021368],[2.133785,48.7021278],[2.1344378,48.7022556],[2.1351197,48.7022987],[2.1352706,48.7023852],[2.1362626,48.7026134],[2.1369697,48.7028705],[2.1391793,48.7030748],[2.1401347,48.7030489],[2.1420218,48.7028836],[2.1451138,48.7022044],[2.1464243,48.7022155],[2.1464343,48.7022847]]]]},"properties":{"code_section":"91272000CM","code_commune":"91272","section_courte":"CM"}},{"type":"Feature","geometry":{"type":"MultiPolygon","coordinates":[[[[2.1433534,48.6985541],[2.1433253,48.698519],[2.1435946,48.6983329],[2.1440686,48.698157],[2.1442768,48.6982054],[2.1447818,48.6981938],[2.145052,48.6984103],[2.1452793,48.6985388],[2.1456357,48.6985474],[2.1458897,48.6985863],[2.1459969,48.6985407],[2.1462643,48.6982563],[2.1464742,48.6982455],[2.1467579,48.6983043],[2.146848,48.6982761],[2.1470912,48.6980884],[2.1473644,48.6979865],[2.1473909,48.6979242],[2.1477864,48.6979191],[2.1478358,48.6979895],[2.1483043,48.6981698],[2.148436,48.6982829],[2.1484638,48.6983582],[2.1483928,48.6985151],[2.1484208,48.6985716],[2.1487196,48.6987877],[2.1490748,48.6989234],[2.1509222,48.6987129],[2.1511863,48.7006174],[2.1521503,48.7004834],[2.1524699,48.7003759],[2.1528701,48.7001711],[2.1529309,48.7009478],[2.1529049,48.7023488],[2.1511237,48.7022617],[2.1502867,48.7022627],[2.1489473,48.7023291],[2.1459472,48.7022071],[2.1456916,48.7003078],[2.1454369,48.7002589],[2.1452744,48.6993368],[2.1440978,48.6995033],[2.1433534,48.6985541]]]]},"properties":{"code_section":"91272000CN","code_commune":"91272","section_courte":"CN"}},{"type":"Feature","geometry":{"type":"MultiPolygon","coordinates":[[[[2.1591693,48.7066842],[2.1576025,48.706411],[2.1521716,48.7053502],[2.1521665,48.7051796],[2.1506883,48.7048972],[2.1498877,48.7049039],[2.1488939,48.7050011],[2.1482603,48.7050936],[2.1480614,48.7051824],[2.1476865,48.7054717],[2.1469392,48.7055528],[2.1467407,48.7034198],[2.1464243,48.7022155],[2.1489473,48.7023291],[2.1502867,48.7022627],[2.1511237,48.7022617],[2.1534377,48.7023607],[2.1536776,48.7023926],[2.1541226,48.7025238],[2.1542979,48.7026166],[2.1549985,48.7026526],[2.1561637,48.7026615],[2.1567025,48.7027701],[2.156168,48.7037754],[2.1560678,48.7038705],[2.1562916,48.7039521],[2.1568343,48.7040363],[2.1565594,48.7048052],[2.1567047,48.7048796],[2.1571521,48.7052377],[2.1577638,48.7054964],[2.1578564,48.7055718],[2.158297,48.7057782],[2.1586172,48.705897],[2.1588043,48.706034],[2.1592362,48.7061345],[2.1593074,48.7062236],[2.1593058,48.7063284],[2.159211,48.7066898],[2.1591693,48.7066842]]]]},"properties":{"code_section":"91272000CO","code_commune":"91272","section_courte":"CO"}},{"type":"Feature","geometry":{"type":"MultiPolygon","coordinates":[[[[2.1598765,48.7087383],[2.1601013,48.708839],[2.1610162,48.7090205],[2.16117,48.7091242],[2.1614545,48.7098257],[2.1619269,48.7103421],[2.1619276,48.710916],[2.1624291,48.7109105],[2.1623929,48.7110516],[2.1624495,48.7111503],[2.1619409,48.7111553],[2.1619555,48.7117643],[2.1635697,48.7117381],[2.1642343,48.7122801],[2.1663071,48.7122567],[2.1663652,48.7148841],[2.1650318,48.714899],[2.165179,48.7156237],[2.156591,48.7168024],[2.1564534,48.7168635],[2.1548242,48.7184669],[2.1546176,48.71797],[2.1546612,48.7179538],[2.1543657,48.7169431],[2.1540151,48.7169553],[2.1540955,48.7149704],[2.1533649,48.7104725],[2.1538311,48.7104312],[2.1537142,48.7072488],[2.1509223,48.7073947],[2.1497911,48.7074922],[2.148357,48.7076782],[2.1482808,48.7073244],[2.1466029,48.7074575],[2.146541,48.7070872],[2.1459881,48.7069551],[2.1458444,48.7062073],[2.1460865,48.7056476],[2.1476532,48.7054817],[2.1477909,48.7054185],[2.1480973,48.7051588],[2.1482603,48.7050936],[2.1488939,48.7050011],[2.1498877,48.7049039],[2.1506883,48.7048972],[2.1521665,48.7051796],[2.1521716,48.7053502],[2.1576025,48.706411],[2.159211,48.7066898],[2.159312,48.7076344],[2.1594365,48.708061],[2.1596767,48.7085266],[2.1598765,48.7087383]]]]},"properties":{"code_section":"91272000CP","code_commune":"91272","section_courte":"CP"}},{"type":"Feature","geometry":{"type":"MultiPolygon","coordinates":[[[[2.1633376,48.7070125],[2.1639926,48.7070005],[2.1646014,48.7070461],[2.1649038,48.7070057],[2.1654561,48.7068522],[2.1654684,48.7069827],[2.1700926,48.7065392],[2.1706727,48.7066137],[2.1715583,48.7083058],[2.1719486,48.7116897],[2.1674163,48.7117378],[2.167941,48.7130985],[2.1666114,48.7131085],[2.1666143,48.7131549],[2.1663285,48.7131486],[2.1663071,48.7122567],[2.1642343,48.7122801],[2.1635697,48.7117381],[2.1619555,48.7117643],[2.1619409,48.7111553],[2.1624495,48.7111503],[2.1623929,48.7110516],[2.1624291,48.7109105],[2.1619276,48.710916],[2.1619269,48.7103421],[2.1614545,48.7098257],[2.16117,48.7091242],[2.1610162,48.7090205],[2.1601013,48.708839],[2.1598765,48.7087383],[2.1596767,48.7085266],[2.1594365,48.708061],[2.159312,48.7076344],[2.159211,48.7066898],[2.1593074,48.7062236],[2.1592362,48.7061345],[2.1591283,48.7061074],[2.1592169,48.7060762],[2.1596423,48.7061659],[2.159968,48.706188],[2.1602497,48.7062927],[2.1607675,48.706379],[2.1613151,48.7065753],[2.1616593,48.7066298],[2.161955,48.7066239],[2.1622958,48.7067061],[2.1624033,48.7067472],[2.1625769,48.7069377],[2.1627371,48.7070007],[2.1631193,48.7070417],[2.1633376,48.7070125]]]]},"properties":{"code_section":"91272000CR","code_commune":"91272","section_courte":"CR"}},{"type":"Feature","geometry":{"type":"MultiPolygon","coordinates":[[[[2.1715068,48.7152553],[2.1717417,48.7160637],[2.1684627,48.7164729],[2.1663962,48.7159061],[2.1666168,48.7155324],[2.1661539,48.7154664],[2.165179,48.7156237],[2.1650318,48.714899],[2.1663652,48.7148841],[2.1663285,48.7131486],[2.1666143,48.7131549],[2.1666114,48.7131085],[2.167941,48.7130985],[2.1674163,48.7117378],[2.1719486,48.7116897],[2.1722316,48.71391],[2.1725646,48.714802],[2.1720728,48.7146649],[2.1719952,48.7147177],[2.1713693,48.7147973],[2.1715068,48.7152553]]]]},"properties":{"code_section":"91272000ZQ","code_commune":"91272","section_courte":"ZQ"}}]}