{"type":"FeatureCollection","features":[{"type":"Feature","geometry":{"type":"MultiPolygon","coordinates":[[[[2.1292831,48.6802017],[2.1293079,48.6802318],[2.1269985,48.6824682],[2.1264507,48.6830578],[2.125812,48.6834671],[2.1257415,48.6834322],[2.1258262,48.6833843],[2.1264957,48.682666],[2.1284628,48.680693],[2.1287997,48.680211],[2.1289485,48.6798809],[2.1292831,48.6802017]]]]},"properties":{"code_section":"912750000A","code_commune":"91275","section_courte":"A"}},{"type":"Feature","geometry":{"type":"MultiPolygon","coordinates":[[[[2.1522157,48.6740239],[2.1526655,48.6740615],[2.1531102,48.6741399],[2.1542192,48.6748511],[2.1556062,48.6755796],[2.1552983,48.675832],[2.1552121,48.6759947],[2.154654,48.6761061],[2.1541933,48.6764808],[2.1539924,48.6766008],[2.1538159,48.6768209],[2.15359,48.6772826],[2.1536476,48.6774907],[2.1538947,48.6778655],[2.1527266,48.6789711],[2.1515988,48.6795542],[2.1510667,48.6805186],[2.1509008,48.6813595],[2.1511782,48.6814591],[2.1512048,48.6815335],[2.151167,48.6816832],[2.151202,48.6823799],[2.1512601,48.6825234],[2.1512195,48.6827384],[2.1512642,48.6829243],[2.1512206,48.6831596],[2.1509668,48.683177],[2.150235,48.6831457],[2.1501839,48.6832005],[2.1502101,48.6833474],[2.1503595,48.6834061],[2.1502071,48.6834413],[2.1504136,48.6839306],[2.150362,48.68412],[2.1505354,48.6842335],[2.1505162,48.6843547],[2.1506069,48.6843902],[2.1506278,48.6844842],[2.1507451,48.6846171],[2.1507179,48.6846985],[2.1507948,48.6848786],[2.1507008,48.6849953],[2.1504891,48.6851277],[2.150364,48.6850761],[2.150281,48.6851549],[2.1503444,48.6852406],[2.1502749,48.6852687],[2.1499802,48.684888],[2.1504081,48.6844363],[2.1496991,48.6833291],[2.1500268,48.6823355],[2.1502303,48.681367],[2.1474892,48.6812075],[2.146968,48.6802919],[2.1468955,48.6800182],[2.1468642,48.6793274],[2.1468164,48.6791756],[2.1461377,48.6789396],[2.1457818,48.6787354],[2.1451996,48.677979],[2.146015,48.6777308],[2.1468249,48.6774343],[2.1481477,48.6765376],[2.1490637,48.6754249],[2.1482729,48.6745107],[2.1489735,48.6743137],[2.1504042,48.6740342],[2.1514581,48.6739965],[2.1522157,48.6740239]]]]},"properties":{"code_section":"912750000C","code_commune":"91275","section_courte":"C"}},{"type":"Feature","geometry":{"type":"MultiPolygon","coordinates":[[[[2.1565748,48.6604167],[2.157124,48.6618099],[2.155954,48.6620424],[2.1549627,48.6624248],[2.1527375,48.6637719],[2.1463056,48.6654432],[2.1460231,48.6654246],[2.143924,48.6660842],[2.140139,48.6666087],[2.1393627,48.6659924],[2.1384177,48.6651417],[2.1401562,48.6645121],[2.1428675,48.6630233],[2.145753,48.662249],[2.1501722,48.6613557],[2.1532131,48.6598752],[2.1553566,48.6599411],[2.1556927,48.659641],[2.1558065,48.6596209],[2.1565748,48.6604167]]]]},"properties":{"code_section":"912750000D","code_commune":"91275","section_courte":"D"}},{"type":"Feature","geometry":{"type":"MultiPolygon","coordinates":[[[[2.1343666,48.6786705],[2.134351,48.6786404],[2.1346475,48.6785242],[2.1356235,48.6783182],[2.1356961,48.678176],[2.1354009,48.6778526],[2.1363126,48.6782438],[2.1371842,48.6780356],[2.1382711,48.6783364],[2.1387455,48.6784287],[2.1392477,48.6788063],[2.1394617,48.6789097],[2.1397588,48.6791313],[2.1402959,48.6789469],[2.1408624,48.6791693],[2.1410526,48.6792934],[2.1416118,48.6798992],[2.1418469,48.6800796],[2.1421047,48.680216],[2.1420708,48.6808242],[2.1419158,48.6818017],[2.1418552,48.6817997],[2.14172,48.6816227],[2.1415168,48.6814807],[2.1409486,48.6811651],[2.1407156,48.6809758],[2.1405947,48.6807471],[2.1404004,48.6809451],[2.1401565,48.6813615],[2.1401392,48.6816054],[2.1401997,48.6821137],[2.1397463,48.6829946],[2.1396987,48.6831834],[2.1397344,48.6833966],[2.1393138,48.683422],[2.1385469,48.683297],[2.1380432,48.6832639],[2.1379681,48.683201],[2.1375467,48.6827305],[2.137406,48.6824935],[2.1373319,48.6821436],[2.1373069,48.6815565],[2.1372027,48.6812227],[2.1371047,48.6810625],[2.1362172,48.6800027],[2.1356793,48.6790388],[2.134706,48.6793064],[2.1343666,48.6786705]]]]},"properties":{"code_section":"91275000AA","code_commune":"91275","section_courte":"AA"}},{"type":"Feature","geometry":{"type":"MultiPolygon","coordinates":[[[[2.1462195,48.6848684],[2.1459958,48.6850663],[2.1459188,48.6849016],[2.1455538,48.6844843],[2.1454511,48.6842985],[2.1453484,48.6842772],[2.145036,48.6844273],[2.1450649,48.6844663],[2.1449814,48.6845787],[2.1449251,48.6850375],[2.1447476,48.6851582],[2.14319,48.6859268],[2.1429534,48.6859559],[2.1428429,48.6859265],[2.1421123,48.6861272],[2.1417498,48.6861421],[2.1415994,48.6861345],[2.1411133,48.6859483],[2.1404687,48.6857763],[2.1400906,48.6856189],[2.139888,48.6856323],[2.1393934,48.685786],[2.1392696,48.6859411],[2.1390065,48.6859],[2.1387285,48.6860413],[2.1386327,48.6859976],[2.1385703,48.6858668],[2.1385249,48.6858475],[2.1383072,48.6858442],[2.1382228,48.6859287],[2.1378958,48.6858679],[2.13771,48.6858819],[2.1376489,48.6859496],[2.1375864,48.6859571],[2.1373684,48.6858498],[2.1370382,48.6858414],[2.1369592,48.6858087],[2.1367838,48.6855085],[2.1364896,48.6854114],[2.1360931,48.6851989],[2.1355293,48.6848836],[2.1352997,48.6846884],[2.1357549,48.6841997],[2.1364464,48.6842848],[2.1369986,48.6842106],[2.1371793,48.6836669],[2.1371388,48.6836523],[2.1373643,48.6835065],[2.1378704,48.6830801],[2.1380432,48.6832639],[2.1385469,48.683297],[2.1393138,48.683422],[2.1397344,48.6833966],[2.1396987,48.6831834],[2.1397463,48.6829946],[2.1401997,48.6821137],[2.1401392,48.6816054],[2.1401565,48.6813615],[2.1404004,48.6809451],[2.1405947,48.6807471],[2.1407156,48.6809758],[2.1409506,48.6811666],[2.14172,48.6816227],[2.1418552,48.6817997],[2.1419158,48.6818017],[2.1420708,48.6808242],[2.1478723,48.6834148],[2.1462195,48.6848684]]]]},"properties":{"code_section":"91275000AB","code_commune":"91275","section_courte":"AB"}},{"type":"Feature","geometry":{"type":"MultiPolygon","coordinates":[[[[2.1473719,48.6809652],[2.1474892,48.6812075],[2.1502303,48.681367],[2.1500268,48.6823355],[2.1496991,48.6833291],[2.1504081,48.6844363],[2.1499802,48.684888],[2.1502749,48.6852687],[2.1500602,48.6853643],[2.1500166,48.6855839],[2.1501101,48.6857384],[2.1503356,48.6858227],[2.1498326,48.6864869],[2.1496846,48.6864336],[2.1495245,48.686194],[2.1492533,48.6860907],[2.1492151,48.6860157],[2.1488717,48.6859378],[2.1487422,48.6858491],[2.1486718,48.6859075],[2.1485699,48.6859262],[2.1481352,48.6858658],[2.1479741,48.6858813],[2.1473079,48.6855974],[2.1472555,48.6856206],[2.1472283,48.6856946],[2.1471262,48.6857109],[2.1470362,48.6856113],[2.1469036,48.685589],[2.1468062,48.6856124],[2.1467194,48.6855559],[2.1466937,48.6853971],[2.1468418,48.6853985],[2.1468516,48.6852929],[2.1465293,48.6853087],[2.1462411,48.6852697],[2.1461656,48.6852342],[2.1459958,48.6850663],[2.1478723,48.6834148],[2.1420708,48.6808242],[2.1421047,48.680216],[2.1437391,48.6806338],[2.1454699,48.6806886],[2.1458612,48.680808],[2.1463812,48.6806575],[2.1470844,48.68081],[2.1473324,48.6808936],[2.1473719,48.6809652]]]]},"properties":{"code_section":"91275000AC","code_commune":"91275","section_courte":"AC"}},{"type":"Feature","geometry":{"type":"MultiPolygon","coordinates":[[[[2.1456921,48.6786481],[2.1457818,48.6787354],[2.1461377,48.6789396],[2.1468164,48.6791756],[2.1468583,48.6792717],[2.146874,48.6798591],[2.146944,48.6802175],[2.1470272,48.6804378],[2.1473324,48.6808936],[2.1468218,48.6807363],[2.1463812,48.6806575],[2.1458612,48.680808],[2.1454699,48.6806886],[2.1437391,48.6806338],[2.1421047,48.680216],[2.1418469,48.6800796],[2.1416118,48.6798992],[2.1410526,48.6792934],[2.1406525,48.6790773],[2.1402959,48.6789469],[2.1397588,48.6791313],[2.138664,48.6783946],[2.1382711,48.6783364],[2.1376068,48.6781367],[2.1366484,48.677904],[2.1367544,48.6778225],[2.1368342,48.6775603],[2.1369102,48.6774724],[2.1372012,48.6773447],[2.1376373,48.6772474],[2.1377071,48.6771896],[2.1385021,48.6771772],[2.1392039,48.6772579],[2.1394095,48.6772455],[2.1396855,48.6774229],[2.1398197,48.6775697],[2.139954,48.677825],[2.1400335,48.6778758],[2.1403808,48.6776373],[2.1407931,48.6774119],[2.1411327,48.6769355],[2.1414313,48.6768011],[2.141332,48.6765258],[2.1413666,48.6763726],[2.1412926,48.6762535],[2.1418411,48.6759977],[2.1421516,48.6759066],[2.1424931,48.6757212],[2.1428791,48.6759774],[2.1437286,48.6763928],[2.1450037,48.6776899],[2.1456921,48.6786481]]]]},"properties":{"code_section":"91275000AD","code_commune":"91275","section_courte":"AD"}},{"type":"Feature","geometry":{"type":"MultiPolygon","coordinates":[[[[2.1429901,48.6734159],[2.1430772,48.6734153],[2.1424705,48.6738948],[2.1420741,48.6744036],[2.1418984,48.6744594],[2.1405688,48.6743734],[2.1412395,48.674745],[2.1418394,48.6751836],[2.1420769,48.6752084],[2.1424217,48.675506],[2.1425409,48.6756622],[2.1424108,48.6757849],[2.1421516,48.6759066],[2.1418411,48.6759977],[2.1412926,48.6762535],[2.1413666,48.6763726],[2.141332,48.6765258],[2.1414313,48.6768011],[2.1411327,48.6769355],[2.1407931,48.6774119],[2.1403808,48.6776373],[2.1400335,48.6778758],[2.139954,48.677825],[2.1398197,48.6775697],[2.1396855,48.6774229],[2.1394095,48.6772455],[2.1392039,48.6772579],[2.1385021,48.6771772],[2.1377071,48.6771896],[2.1376373,48.6772474],[2.1372012,48.6773447],[2.1369102,48.6774724],[2.1368342,48.6775603],[2.1367544,48.6778225],[2.1366484,48.677904],[2.135635,48.6776354],[2.1338802,48.6770971],[2.1337471,48.6772262],[2.1326019,48.6765651],[2.1318688,48.6762326],[2.1324211,48.6758198],[2.13505,48.6744274],[2.1374519,48.6735522],[2.137827,48.6731018],[2.1375451,48.672863],[2.1375848,48.6727915],[2.1375311,48.6722432],[2.1377658,48.6723474],[2.1385478,48.671881],[2.138688,48.6720181],[2.1385646,48.6722461],[2.1385996,48.6723556],[2.1384121,48.6724995],[2.1386404,48.6724829],[2.1386423,48.672534],[2.1390791,48.6725981],[2.1405937,48.673345],[2.1409838,48.6734175],[2.1429901,48.6734159]]]]},"properties":{"code_section":"91275000AE","code_commune":"91275","section_courte":"AE"}},{"type":"Feature","geometry":{"type":"MultiPolygon","coordinates":[[[[2.1478921,48.6731157],[2.1487186,48.6743817],[2.1482729,48.6745107],[2.1490637,48.6754249],[2.1481477,48.6765376],[2.1468249,48.6774343],[2.146015,48.6777308],[2.1451996,48.677979],[2.1448821,48.6775582],[2.1437286,48.6763928],[2.1428791,48.6759774],[2.142527,48.6757499],[2.14248,48.67571],[2.1425409,48.6756622],[2.1424563,48.6755417],[2.1420769,48.6752084],[2.1418394,48.6751836],[2.1412395,48.674745],[2.1405688,48.6743734],[2.1418984,48.6744594],[2.1420741,48.6744036],[2.1424705,48.6738948],[2.1430772,48.6734153],[2.1432875,48.6732096],[2.1439926,48.6727524],[2.145659,48.671875],[2.1473869,48.6710979],[2.1473977,48.671116],[2.1478731,48.6708569],[2.1490678,48.6728799],[2.1478921,48.6731157]]]]},"properties":{"code_section":"91275000AH","code_commune":"91275","section_courte":"AH"}},{"type":"Feature","geometry":{"type":"MultiPolygon","coordinates":[[[[2.1511394,48.6693731],[2.1522808,48.6687414],[2.1528152,48.6682447],[2.1531928,48.6684783],[2.1533108,48.6686384],[2.1541049,48.6701636],[2.1554429,48.6697002],[2.1564999,48.6710496],[2.156002,48.6713026],[2.1554313,48.6715116],[2.1548915,48.6716194],[2.1537654,48.6717598],[2.1525885,48.6721529],[2.1490678,48.6728799],[2.1478731,48.6708569],[2.1511394,48.6693731]]]]},"properties":{"code_section":"91275000AI","code_commune":"91275","section_courte":"AI"}},{"type":"Feature","geometry":{"type":"MultiPolygon","coordinates":[[[[2.1324211,48.6758198],[2.1318688,48.6762326],[2.1326019,48.6765651],[2.1337471,48.6772262],[2.1338802,48.6770971],[2.1359822,48.6777362],[2.1371842,48.6780356],[2.1363126,48.6782438],[2.1354009,48.6778526],[2.1356961,48.678176],[2.1356235,48.6783182],[2.1346475,48.6785242],[2.133462,48.6789911],[2.1327604,48.6792267],[2.1311999,48.6796414],[2.1297506,48.6799831],[2.1294179,48.680112],[2.1292831,48.6802017],[2.1289485,48.6798809],[2.1291571,48.6791881],[2.1293884,48.6786705],[2.129602,48.6783289],[2.1299345,48.6779403],[2.1312832,48.6768348],[2.131153,48.6766877],[2.1311175,48.6762542],[2.1307455,48.675834],[2.1309217,48.675714],[2.1311351,48.6757706],[2.1315861,48.6757586],[2.132169,48.6756843],[2.1323972,48.6755889],[2.132589,48.6757353],[2.1324211,48.6758198]]]]},"properties":{"code_section":"91275000AK","code_commune":"91275","section_courte":"AK"}},{"type":"Feature","geometry":{"type":"MultiPolygon","coordinates":[[[[2.1301483,48.6776872],[2.1303689,48.6775883],[2.1299345,48.6779403],[2.129602,48.6783289],[2.1293884,48.6786705],[2.1291571,48.6791881],[2.1289362,48.6799164],[2.1286339,48.6804678],[2.1282656,48.6809085],[2.1264957,48.682666],[2.1258262,48.6833843],[2.1257415,48.6834322],[2.125812,48.6834671],[2.1252457,48.6837478],[2.1241496,48.6842036],[2.1225398,48.6847555],[2.121702,48.6849462],[2.1205255,48.6825253],[2.1202604,48.6826437],[2.1197982,48.6820526],[2.121826,48.681154],[2.1216875,48.6800746],[2.1225955,48.6796838],[2.1243484,48.6796126],[2.1250506,48.6795204],[2.1263723,48.6791516],[2.1277465,48.6787151],[2.1301483,48.6776872]]],[[[2.1292032,48.6803077],[2.1293079,48.6802318],[2.1292831,48.6802017],[2.1294179,48.680112],[2.1297506,48.6799831],[2.1323685,48.6793443],[2.133462,48.6789911],[2.134351,48.6786404],[2.134706,48.6793064],[2.1356793,48.6790388],[2.1362172,48.6800027],[2.1371047,48.6810625],[2.1372027,48.6812227],[2.1373069,48.6815565],[2.1373319,48.6821436],[2.137406,48.6824935],[2.1375467,48.6827305],[2.1378704,48.6830801],[2.1373643,48.6835065],[2.1371388,48.6836523],[2.1371793,48.6836669],[2.1369986,48.6842106],[2.1364464,48.6842848],[2.1357549,48.6841997],[2.1352997,48.6846884],[2.1355293,48.6848836],[2.1360931,48.6851989],[2.1364896,48.6854114],[2.1367838,48.6855085],[2.1369592,48.6858087],[2.1368445,48.6858453],[2.1365895,48.6858442],[2.136326,48.6857612],[2.1356076,48.6857547],[2.1346066,48.6860897],[2.1339265,48.6862834],[2.1333328,48.6863642],[2.1327847,48.6863969],[2.1306402,48.6861391],[2.1302201,48.6860318],[2.1298655,48.6859806],[2.1294544,48.6858226],[2.1290504,48.6858367],[2.12889,48.6859261],[2.1288185,48.6859292],[2.1286652,48.6858739],[2.1282325,48.6858841],[2.1278072,48.6858471],[2.1277774,48.6857268],[2.1272356,48.6856499],[2.1267146,48.6834474],[2.1268796,48.683408],[2.1264507,48.6830578],[2.1269985,48.6824682],[2.1292032,48.6803077]]]]},"properties":{"code_section":"91275000ZA","code_commune":"91275","section_courte":"ZA"}},{"type":"Feature","geometry":{"type":"MultiPolygon","coordinates":[[[[2.1564999,48.6710496],[2.1583308,48.670097],[2.1589245,48.6698291],[2.1593716,48.6696786],[2.1634888,48.6732133],[2.1641046,48.6751299],[2.1632443,48.6753789],[2.1632912,48.6754671],[2.1604898,48.6756937],[2.159259,48.6757487],[2.1592968,48.6761108],[2.1582472,48.6762855],[2.157336,48.6763839],[2.1573517,48.6764267],[2.1563248,48.6760932],[2.1556062,48.6755796],[2.1542192,48.6748511],[2.1531102,48.6741399],[2.1526655,48.6740615],[2.1522157,48.6740239],[2.1514581,48.6739965],[2.1504042,48.6740342],[2.1487186,48.6743817],[2.1478921,48.6731157],[2.1512614,48.6724453],[2.1525885,48.6721529],[2.1537654,48.6717598],[2.1548915,48.6716194],[2.1554313,48.6715116],[2.156002,48.6713026],[2.1564999,48.6710496]]]]},"properties":{"code_section":"91275000ZB","code_commune":"91275","section_courte":"ZB"}},{"type":"Feature","geometry":{"type":"MultiPolygon","coordinates":[[[[2.1385478,48.671881],[2.1372788,48.6676216],[2.1371254,48.6672811],[2.1377495,48.6670484],[2.1391605,48.6667847],[2.1401639,48.6666478],[2.1401583,48.666601],[2.143924,48.6660842],[2.1460231,48.6654246],[2.1463056,48.6654432],[2.1527375,48.6637719],[2.1545482,48.6669183],[2.1550694,48.6667678],[2.1568552,48.6664399],[2.1593716,48.6696786],[2.1589245,48.6698291],[2.1583308,48.670097],[2.1564999,48.6710496],[2.1554429,48.6697002],[2.1541049,48.6701636],[2.1533108,48.6686384],[2.1531928,48.6684783],[2.1528152,48.6682447],[2.1522808,48.6687414],[2.1517787,48.6690385],[2.1511394,48.6693731],[2.1476653,48.6709545],[2.1476784,48.6709764],[2.1473977,48.671116],[2.1473869,48.6710979],[2.145659,48.671875],[2.1439926,48.6727524],[2.1432875,48.6732096],[2.1430772,48.6734153],[2.1409838,48.6734175],[2.1405937,48.673345],[2.1390791,48.6725981],[2.1386423,48.672534],[2.1386404,48.6724829],[2.1384121,48.6724995],[2.1385996,48.6723556],[2.1385646,48.6722461],[2.138688,48.6720181],[2.1385478,48.671881]]]]},"properties":{"code_section":"91275000ZC","code_commune":"91275","section_courte":"ZC"}},{"type":"Feature","geometry":{"type":"MultiPolygon","coordinates":[[[[2.1285724,48.6783706],[2.1277465,48.6787151],[2.1263723,48.6791516],[2.1250506,48.6795204],[2.1249969,48.6787149],[2.124778,48.6777588],[2.1247582,48.6773455],[2.1247777,48.6769398],[2.1249742,48.6755836],[2.1250432,48.6744413],[2.1251293,48.6743512],[2.1252913,48.6742804],[2.1263349,48.6741059],[2.1271481,48.6738912],[2.1272006,48.6739468],[2.1336457,48.6708948],[2.1351419,48.6703333],[2.1372013,48.669665],[2.1370913,48.6694119],[2.1377651,48.6692446],[2.1385478,48.671881],[2.1377658,48.6723474],[2.1375311,48.6722432],[2.1375848,48.6727915],[2.1375451,48.672863],[2.137827,48.6731018],[2.1374519,48.6735522],[2.13505,48.6744274],[2.132589,48.6757353],[2.1323972,48.6755889],[2.132169,48.6756843],[2.1315861,48.6757586],[2.1311351,48.6757706],[2.1309217,48.675714],[2.1307455,48.675834],[2.1311175,48.6762542],[2.131153,48.6766877],[2.1312832,48.6768348],[2.1303689,48.6775883],[2.1285724,48.6783706]]]]},"properties":{"code_section":"91275000ZD","code_commune":"91275","section_courte":"ZD"}}]}