{"type":"FeatureCollection","features":[{"type":"Feature","geometry":{"type":"MultiPolygon","coordinates":[[[[2.3971879,48.6681445],[2.3973147,48.6681946],[2.3974822,48.6680662],[2.3976335,48.6681638],[2.3975297,48.6682198],[2.3986822,48.6687533],[2.3997517,48.6693299],[2.4010994,48.6701592],[2.3991665,48.6712589],[2.3976652,48.6724754],[2.3959921,48.6736278],[2.3914722,48.6707081],[2.3953669,48.6674349],[2.3971879,48.6681445]]]]},"properties":{"code_section":"91286000AA","code_commune":"91286","section_courte":"AA"}},{"type":"Feature","geometry":{"type":"MultiPolygon","coordinates":[[[[2.4042807,48.6651706],[2.4072418,48.6672342],[2.4038313,48.6685597],[2.4010994,48.6701592],[2.3997517,48.6693299],[2.3986822,48.6687533],[2.3975297,48.6682198],[2.3976335,48.6681638],[2.3974822,48.6680662],[2.3973147,48.6681946],[2.3953669,48.6674349],[2.4009012,48.6627074],[2.4037682,48.6646521],[2.404062,48.6644462],[2.4044512,48.6647277],[2.4040756,48.6650235],[2.4042807,48.6651706]]]]},"properties":{"code_section":"91286000AB","code_commune":"91286","section_courte":"AB"}},{"type":"Feature","geometry":{"type":"MultiPolygon","coordinates":[[[[2.3927799,48.6596781],[2.3936396,48.6592165],[2.3970285,48.6581545],[2.3969393,48.6580575],[2.3973652,48.6578901],[2.3972148,48.6577197],[2.3989703,48.6569926],[2.3991396,48.6572186],[2.3993934,48.6577472],[2.4028465,48.6611158],[2.4011472,48.6624975],[2.3984693,48.6647789],[2.3938276,48.6610378],[2.3924443,48.6598767],[2.3926497,48.6598082],[2.3927799,48.6596781]]]]},"properties":{"code_section":"91286000AC","code_commune":"91286","section_courte":"AC"}},{"type":"Feature","geometry":{"type":"MultiPolygon","coordinates":[[[[2.3961055,48.6628738],[2.3984693,48.6647789],[2.3953228,48.6674686],[2.3912842,48.663408],[2.3902353,48.6622514],[2.3916462,48.6615794],[2.3906204,48.6607249],[2.3922203,48.6598508],[2.3924133,48.6598937],[2.3924482,48.6598768],[2.3938276,48.6610378],[2.3961055,48.6628738]]]]},"properties":{"code_section":"91286000AD","code_commune":"91286","section_courte":"AD"}},{"type":"Feature","geometry":{"type":"MultiPolygon","coordinates":[[[[2.3851871,48.6666484],[2.3834289,48.6655182],[2.3858554,48.6639933],[2.3867117,48.6632882],[2.3872609,48.6626806],[2.3891706,48.6612866],[2.3900023,48.6620079],[2.3912842,48.663408],[2.3953228,48.6674686],[2.3914722,48.6707081],[2.3851871,48.6666484]]]]},"properties":{"code_section":"91286000AE","code_commune":"91286","section_courte":"AE"}},{"type":"Feature","geometry":{"type":"MultiPolygon","coordinates":[[[[2.3831757,48.6653554],[2.3825705,48.6649111],[2.3825889,48.6648949],[2.381637,48.6643088],[2.3803084,48.6636593],[2.3801853,48.6637899],[2.3794963,48.6633665],[2.3817633,48.6614562],[2.3834202,48.6597693],[2.3835538,48.6597993],[2.3842656,48.660473],[2.384503,48.6603518],[2.3853542,48.6607927],[2.3852058,48.6610155],[2.3849726,48.6611807],[2.3849936,48.661207],[2.3853821,48.6615495],[2.3854384,48.6615404],[2.3859513,48.6619307],[2.3859508,48.6619917],[2.3862254,48.6622159],[2.3865291,48.6622928],[2.3872168,48.662719],[2.3868115,48.6631863],[2.3864217,48.6635491],[2.3855201,48.6642164],[2.3839731,48.6651534],[2.3834289,48.6655182],[2.3833737,48.6655283],[2.3831757,48.6653554]]]]},"properties":{"code_section":"91286000AH","code_commune":"91286","section_courte":"AH"}},{"type":"Feature","geometry":{"type":"MultiPolygon","coordinates":[[[[2.3909513,48.661914],[2.3902353,48.6622514],[2.3899837,48.66199],[2.3891706,48.6612866],[2.3872168,48.662719],[2.3865291,48.6622928],[2.3862254,48.6622159],[2.3859508,48.6619917],[2.3859513,48.6619307],[2.3854384,48.6615404],[2.3853821,48.6615495],[2.3849936,48.661207],[2.3849726,48.6611807],[2.3852058,48.6610155],[2.3853542,48.6607927],[2.384503,48.6603518],[2.3842494,48.6604641],[2.3835538,48.6597993],[2.3834202,48.6597693],[2.3834549,48.6596296],[2.3834142,48.6595022],[2.3832468,48.6593248],[2.3831392,48.6593053],[2.3833369,48.6588947],[2.3835857,48.6586354],[2.3839236,48.6583494],[2.3841443,48.6582086],[2.3844339,48.6580296],[2.3876436,48.6564452],[2.387842,48.6568286],[2.388376,48.6576117],[2.3886572,48.6587274],[2.3892563,48.6594932],[2.3893685,48.6597412],[2.3916462,48.6615794],[2.3909513,48.661914]]]]},"properties":{"code_section":"91286000AI","code_commune":"91286","section_courte":"AI"}},{"type":"Feature","geometry":{"type":"MultiPolygon","coordinates":[[[[2.3892499,48.6544687],[2.3894617,48.6547277],[2.3890439,48.6548887],[2.3897023,48.6556284],[2.3903289,48.6553773],[2.3918425,48.6550806],[2.3919134,48.6551016],[2.3920416,48.6553513],[2.3923365,48.6555148],[2.392469,48.6556521],[2.3925222,48.6558086],[2.3925708,48.6568001],[2.392661,48.656941],[2.3930518,48.6572752],[2.3946117,48.6567123],[2.3959825,48.6580582],[2.3967159,48.6578137],[2.3970285,48.6581545],[2.3936396,48.6592165],[2.3927799,48.6596781],[2.3926181,48.6598257],[2.3924133,48.6598937],[2.3922203,48.6598508],[2.3906204,48.6607249],[2.3894586,48.659833],[2.3893685,48.6597412],[2.3892563,48.6594932],[2.3886728,48.6587547],[2.388376,48.6576117],[2.3877095,48.6565834],[2.3872531,48.6553202],[2.3872209,48.6551523],[2.3876736,48.6550435],[2.3880307,48.654922],[2.389216,48.6544244],[2.3892499,48.6544687]]]]},"properties":{"code_section":"91286000AK","code_commune":"91286","section_courte":"AK"}},{"type":"Feature","geometry":{"type":"MultiPolygon","coordinates":[[[[2.3942061,48.6536583],[2.3944213,48.6535356],[2.3947313,48.6531569],[2.3950029,48.6529729],[2.3959674,48.6526404],[2.3960309,48.6527043],[2.396114,48.6526783],[2.396711,48.6535571],[2.3969188,48.6542651],[2.3982139,48.6560742],[2.3985664,48.6564575],[2.3989703,48.6569926],[2.3972148,48.6577197],[2.3973652,48.6578901],[2.3969393,48.6580575],[2.3967159,48.6578137],[2.3959825,48.6580582],[2.3946117,48.6567123],[2.3930518,48.6572752],[2.392661,48.656941],[2.3925708,48.6568001],[2.3925222,48.6558086],[2.392469,48.6556521],[2.3923365,48.6555148],[2.3920416,48.6553513],[2.3919773,48.6552773],[2.3919389,48.6551307],[2.3918814,48.6550862],[2.3903289,48.6553773],[2.3897023,48.6556284],[2.3890439,48.6548887],[2.3894617,48.6547277],[2.389216,48.6544244],[2.3902298,48.654091],[2.39116,48.6536955],[2.392803,48.6532184],[2.393063,48.6534699],[2.393482,48.6536862],[2.3936636,48.6537243],[2.3937097,48.6536922],[2.3938118,48.6537324],[2.3940262,48.653712],[2.3942061,48.6536583]]]]},"properties":{"code_section":"91286000AL","code_commune":"91286","section_courte":"AL"}},{"type":"Feature","geometry":{"type":"MultiPolygon","coordinates":[[[[2.3959674,48.6526404],[2.3952434,48.6528721],[2.3949565,48.6529968],[2.3947173,48.6531708],[2.3944028,48.6535502],[2.3942414,48.653644],[2.3940262,48.653712],[2.3938118,48.6537324],[2.3937097,48.6536922],[2.3936636,48.6537243],[2.393482,48.6536862],[2.393063,48.6534699],[2.392803,48.6532184],[2.3926234,48.6532701],[2.3918601,48.6524533],[2.3911283,48.6521038],[2.3915637,48.6517235],[2.3914708,48.6507884],[2.3909352,48.6501839],[2.3913324,48.6498777],[2.3907656,48.6492084],[2.3901865,48.648338],[2.3896362,48.6477034],[2.3914422,48.6468914],[2.3916544,48.6469083],[2.3919485,48.6468662],[2.3920661,48.6467967],[2.3921323,48.6466946],[2.3939709,48.6459822],[2.3953596,48.6477648],[2.3957792,48.6483766],[2.3967753,48.6501315],[2.3981813,48.6522732],[2.3963159,48.6526205],[2.3960309,48.6527043],[2.3959674,48.6526404]]]]},"properties":{"code_section":"91286000AM","code_commune":"91286","section_courte":"AM"}},{"type":"Feature","geometry":{"type":"MultiPolygon","coordinates":[[[[2.3909915,48.6502398],[2.3914708,48.6507884],[2.3915637,48.6517235],[2.3911283,48.6521038],[2.3918601,48.6524533],[2.3926234,48.6532701],[2.39116,48.6536955],[2.3902298,48.654091],[2.3890707,48.6544788],[2.3880307,48.654922],[2.3876736,48.6550435],[2.3872209,48.6551523],[2.3869682,48.6546693],[2.3866344,48.6542242],[2.3856978,48.6534381],[2.3852419,48.6530098],[2.3841418,48.651721],[2.3837253,48.6515585],[2.3831124,48.651261],[2.3882124,48.6461903],[2.3883871,48.6462747],[2.389281,48.6472461],[2.389255,48.6472797],[2.3901865,48.648338],[2.3907656,48.6492084],[2.3913324,48.6498777],[2.3909352,48.6501839],[2.3909915,48.6502398]]]]},"properties":{"code_section":"91286000AN","code_commune":"91286","section_courte":"AN"}},{"type":"Feature","geometry":{"type":"MultiPolygon","coordinates":[[[[2.3831124,48.651261],[2.3837253,48.6515585],[2.3841418,48.651721],[2.3852419,48.6530098],[2.3856978,48.6534381],[2.3864746,48.6540631],[2.3866812,48.6542766],[2.3869682,48.6546693],[2.3872209,48.6551523],[2.3876436,48.6564452],[2.3844339,48.6580296],[2.3841443,48.6582086],[2.3839236,48.6583494],[2.3835857,48.6586354],[2.3833369,48.6588947],[2.3831392,48.6593053],[2.3826662,48.65919],[2.3821879,48.6589196],[2.3810077,48.6579374],[2.3814466,48.6576544],[2.3816549,48.6574237],[2.3811424,48.6568987],[2.3805933,48.6564125],[2.3797847,48.6558363],[2.3798134,48.6558085],[2.3794177,48.6555505],[2.3793909,48.6555783],[2.3790827,48.655379],[2.3831124,48.651261]]]]},"properties":{"code_section":"91286000AO","code_commune":"91286","section_courte":"AO"}},{"type":"Feature","geometry":{"type":"MultiPolygon","coordinates":[[[[2.379068,48.6628161],[2.3771794,48.6603501],[2.3756356,48.6582556],[2.3774987,48.6568561],[2.3790827,48.655379],[2.3793909,48.6555783],[2.3794177,48.6555505],[2.3798134,48.6558085],[2.3797847,48.6558363],[2.3805933,48.6564125],[2.3811424,48.6568987],[2.3816549,48.6574237],[2.3814466,48.6576544],[2.3810077,48.6579374],[2.3821879,48.6589196],[2.3826662,48.65919],[2.3832468,48.6593248],[2.3834142,48.6595022],[2.3834568,48.6597191],[2.3817633,48.6614562],[2.3794963,48.6633665],[2.379068,48.6628161]]]]},"properties":{"code_section":"91286000AP","code_commune":"91286","section_courte":"AP"}},{"type":"Feature","geometry":{"type":"MultiPolygon","coordinates":[[[[2.3754856,48.6580563],[2.3725559,48.6541019],[2.3702606,48.6511177],[2.3674486,48.6478645],[2.3675735,48.6477228],[2.3676268,48.6475879],[2.3791021,48.6489643],[2.3846763,48.6497107],[2.3831124,48.651261],[2.3790827,48.655379],[2.3779114,48.6564886],[2.3774987,48.6568561],[2.3756356,48.6582556],[2.3754856,48.6580563]]]]},"properties":{"code_section":"91286000AR","code_commune":"91286","section_courte":"AR"}},{"type":"Feature","geometry":{"type":"MultiPolygon","coordinates":[[[[2.3676645,48.6475914],[2.3671546,48.6475363],[2.3659533,48.6461508],[2.3656852,48.6462516],[2.3650741,48.6451774],[2.3693648,48.6441395],[2.370194,48.6451481],[2.3703613,48.645538],[2.3704505,48.6455232],[2.3707734,48.6467044],[2.3749282,48.6456797],[2.3741177,48.6483546],[2.3676645,48.6475914]]]]},"properties":{"code_section":"91286000AS","code_commune":"91286","section_courte":"AS"}},{"type":"Feature","geometry":{"type":"MultiPolygon","coordinates":[[[[2.3877407,48.646666],[2.3846763,48.6497107],[2.3792606,48.6489842],[2.3741177,48.6483546],[2.375158,48.6449398],[2.3792561,48.6455743],[2.3855455,48.645596],[2.3873312,48.6464893],[2.3877407,48.646666]]]]},"properties":{"code_section":"91286000AT","code_commune":"91286","section_courte":"AT"}},{"type":"Feature","geometry":{"type":"MultiPolygon","coordinates":[[[[2.388772,48.644649],[2.3892905,48.6442376],[2.3902034,48.6439083],[2.3909916,48.6431377],[2.3915295,48.6435569],[2.3920131,48.6438579],[2.3926412,48.6443159],[2.3939498,48.6459894],[2.3921323,48.6466946],[2.3920661,48.6467967],[2.3919485,48.6468662],[2.3916544,48.6469083],[2.3914422,48.6468914],[2.3896362,48.6477034],[2.389255,48.6472797],[2.389281,48.6472461],[2.3883871,48.6462747],[2.3882124,48.6461903],[2.3877407,48.646666],[2.3873312,48.6464893],[2.3855455,48.645596],[2.388772,48.644649]]]]},"properties":{"code_section":"91286000AV","code_commune":"91286","section_courte":"AV"}}]}