{"type":"FeatureCollection","features":[{"type":"Feature","geometry":{"type":"MultiPolygon","coordinates":[[[[2.2241832,48.749353],[2.2223675,48.7486873],[2.2207337,48.7471754],[2.2201448,48.74677],[2.2208784,48.7463872],[2.2207668,48.7463428],[2.2202597,48.7456773],[2.2216255,48.7451187],[2.2217648,48.7451719],[2.2216795,48.7448022],[2.2219393,48.7447351],[2.2218401,48.7443859],[2.2223471,48.7446229],[2.222991,48.7447924],[2.2235228,48.7451857],[2.2235923,48.7452034],[2.22372,48.745099],[2.2238426,48.7451042],[2.2256955,48.7455964],[2.2270088,48.7459054],[2.2273325,48.7460193],[2.2277513,48.7460205],[2.2286693,48.7461345],[2.228983,48.7461468],[2.2298394,48.7460958],[2.2302627,48.7463396],[2.2303224,48.7464247],[2.2303084,48.7471815],[2.2285386,48.7478998],[2.2279421,48.7481093],[2.2280428,48.7481869],[2.2276092,48.7485003],[2.2287781,48.7493078],[2.2283512,48.74961],[2.2281305,48.7496992],[2.2278236,48.7497675],[2.2270321,48.7498153],[2.2267223,48.7498644],[2.2265304,48.7499659],[2.2263666,48.7501543],[2.2241832,48.749353]]]]},"properties":{"code_section":"91312000AB","code_commune":"91312","section_courte":"AB"}},{"type":"Feature","geometry":{"type":"MultiPolygon","coordinates":[[[[2.2220382,48.7438696],[2.2219881,48.743785],[2.2235405,48.7431223],[2.2233413,48.7429189],[2.2237656,48.7423411],[2.2240503,48.7420316],[2.2237841,48.7418797],[2.2243732,48.7414194],[2.224706,48.7416024],[2.2250481,48.7413406],[2.2249233,48.7412173],[2.2255077,48.7408132],[2.2265455,48.7410324],[2.2268549,48.7411419],[2.2266497,48.7415244],[2.2276419,48.7413861],[2.2281299,48.7412366],[2.2297853,48.7404136],[2.2305699,48.7411157],[2.2303943,48.7416915],[2.2308023,48.7417459],[2.2309715,48.7413314],[2.2314294,48.7417113],[2.2311911,48.7419128],[2.2311244,48.742045],[2.230881,48.7421012],[2.2308347,48.7421523],[2.2309907,48.7424396],[2.2306114,48.7427706],[2.2305737,48.7431877],[2.2304707,48.7435484],[2.230577,48.7437567],[2.2304934,48.7440384],[2.2304929,48.7442583],[2.2303622,48.7443881],[2.2301281,48.7445017],[2.2300434,48.7447394],[2.2296673,48.7451174],[2.22951,48.7454177],[2.2292353,48.74552],[2.2288794,48.7455551],[2.2294161,48.74591],[2.2298394,48.7460958],[2.228983,48.7461468],[2.2286693,48.7461345],[2.2277513,48.7460205],[2.2273325,48.7460193],[2.2270088,48.7459054],[2.2256955,48.7455964],[2.2238426,48.7451042],[2.22372,48.745099],[2.2235923,48.7452034],[2.2235228,48.7451857],[2.222991,48.7447924],[2.2225312,48.7446707],[2.2224677,48.7445869],[2.2230678,48.7443157],[2.2226604,48.7439647],[2.2220959,48.7439801],[2.2220382,48.7438696]]]]},"properties":{"code_section":"91312000AC","code_commune":"91312","section_courte":"AC"}},{"type":"Feature","geometry":{"type":"MultiPolygon","coordinates":[[[[2.2309715,48.7413314],[2.2308023,48.7417459],[2.2303943,48.7416915],[2.2305699,48.7411157],[2.2297853,48.7404136],[2.2281299,48.7412366],[2.2276419,48.7413861],[2.2266497,48.7415244],[2.2268549,48.7411419],[2.2270358,48.740971],[2.2279889,48.7388717],[2.2282124,48.7382428],[2.2271947,48.737535],[2.2305215,48.7373061],[2.2313629,48.7371556],[2.2314501,48.7370874],[2.2318227,48.7370748],[2.2366485,48.7364956],[2.2376995,48.7356096],[2.2384339,48.735738],[2.2382421,48.7358078],[2.2381815,48.7359314],[2.2374311,48.7363647],[2.2380612,48.7374294],[2.2378314,48.7375479],[2.2376616,48.7375395],[2.2374699,48.7376349],[2.2372845,48.7376606],[2.2372503,48.737759],[2.2373522,48.7378566],[2.2368757,48.7380827],[2.2368172,48.7383081],[2.2363737,48.7390511],[2.236057,48.7401933],[2.2358668,48.7404122],[2.2365255,48.741081],[2.2361684,48.7411903],[2.235855,48.7413868],[2.23522,48.7416256],[2.2343768,48.7417372],[2.2342522,48.7417297],[2.2341478,48.7416283],[2.2336163,48.7417197],[2.232826,48.7417256],[2.2324266,48.7416871],[2.2319594,48.7415985],[2.2315032,48.7416724],[2.2314294,48.7417113],[2.2309715,48.7413314]]]]},"properties":{"code_section":"91312000AD","code_commune":"91312","section_courte":"AD"}},{"type":"Feature","geometry":{"type":"MultiPolygon","coordinates":[[[[2.2333366,48.734294],[2.2341239,48.733631],[2.2344392,48.7334265],[2.2359663,48.7337172],[2.2373127,48.7339135],[2.2370547,48.734279],[2.2389713,48.7346305],[2.2377655,48.7356108],[2.2376995,48.7356096],[2.2375296,48.7357444],[2.2366485,48.7364956],[2.2318227,48.7370748],[2.2314501,48.7370874],[2.2313629,48.7371556],[2.2305215,48.7373061],[2.2289008,48.7374224],[2.2288481,48.7369182],[2.2286887,48.7364034],[2.228669,48.7361842],[2.2291888,48.7359799],[2.229277,48.7359834],[2.2304086,48.7357005],[2.2308147,48.7356351],[2.2313613,48.7355975],[2.2314302,48.7355632],[2.2314248,48.7354889],[2.2315121,48.7354212],[2.2315944,48.7354835],[2.2323368,48.7356446],[2.2323546,48.7355603],[2.2326985,48.735032],[2.2333366,48.734294]]]]},"properties":{"code_section":"91312000AE","code_commune":"91312","section_courte":"AE"}},{"type":"Feature","geometry":{"type":"MultiPolygon","coordinates":[[[[2.2288295,48.7302724],[2.228905,48.7302563],[2.2286579,48.7299007],[2.228902,48.7298207],[2.2296464,48.7297217],[2.2304663,48.7297912],[2.2309792,48.7299357],[2.2312892,48.7300756],[2.2306466,48.7276618],[2.2309534,48.7275226],[2.2327844,48.7283707],[2.2350288,48.7275662],[2.2363227,48.7283119],[2.2404636,48.7313431],[2.2385586,48.7317025],[2.238006,48.7316691],[2.2367708,48.7314806],[2.2346975,48.7312747],[2.2339325,48.7313394],[2.2316582,48.7317029],[2.230713,48.73196],[2.2287757,48.7326396],[2.2286685,48.7327257],[2.2280964,48.7327208],[2.227837,48.7326702],[2.2265839,48.732314],[2.2271821,48.7307399],[2.2274379,48.7307502],[2.2282773,48.7304326],[2.2288295,48.7302724]]]]},"properties":{"code_section":"91312000AH","code_commune":"91312","section_courte":"AH"}},{"type":"Feature","geometry":{"type":"MultiPolygon","coordinates":[[[[2.2187297,48.7257973],[2.2202447,48.7256545],[2.2215493,48.7254842],[2.222158,48.7253578],[2.2229586,48.7250871],[2.2233133,48.7250074],[2.2270358,48.7277403],[2.2273634,48.7278997],[2.2279205,48.7280657],[2.2282597,48.7281178],[2.2287808,48.7281405],[2.2289554,48.7280382],[2.2293025,48.7281587],[2.2292644,48.7282072],[2.2297681,48.7283772],[2.2285659,48.7299174],[2.2286579,48.7299007],[2.228905,48.7302563],[2.2282773,48.7304326],[2.2274379,48.7307502],[2.2271821,48.7307399],[2.2265839,48.732314],[2.225812,48.7321037],[2.2252468,48.7320442],[2.2234848,48.7321784],[2.220296,48.7299525],[2.2196282,48.7296908],[2.2197249,48.7288985],[2.2185686,48.7257886],[2.2187297,48.7257973]]]]},"properties":{"code_section":"91312000AI","code_commune":"91312","section_courte":"AI"}},{"type":"Feature","geometry":{"type":"MultiPolygon","coordinates":[[[[2.2127096,48.7268327],[2.2127064,48.7265435],[2.2127937,48.7264124],[2.2129299,48.7263166],[2.2138365,48.7262061],[2.2149903,48.7257698],[2.2152909,48.7257061],[2.2159388,48.7256885],[2.2185686,48.7257886],[2.2197249,48.7288985],[2.2196282,48.7296908],[2.220296,48.7299525],[2.2234848,48.7321784],[2.2192248,48.7324856],[2.2171771,48.7320828],[2.216445,48.7318192],[2.2160263,48.7318136],[2.2151898,48.7319521],[2.2143123,48.731364],[2.2135342,48.7307698],[2.2134219,48.7306279],[2.2134127,48.7304449],[2.2135592,48.7300868],[2.2135974,48.7298596],[2.2135791,48.7296659],[2.2134342,48.72937],[2.2130454,48.729037],[2.2126165,48.7287545],[2.2134541,48.7281469],[2.2131183,48.7274284],[2.2127096,48.7268327]]]]},"properties":{"code_section":"91312000AK","code_commune":"91312","section_courte":"AK"}},{"type":"Feature","geometry":{"type":"MultiPolygon","coordinates":[[[[2.225812,48.7321037],[2.227837,48.7326702],[2.2280964,48.7327208],[2.2286685,48.7327257],[2.2285946,48.7335257],[2.228669,48.7361842],[2.2284263,48.7361922],[2.2283033,48.7362385],[2.2282534,48.7362116],[2.2280851,48.7362109],[2.2279089,48.7362796],[2.2278425,48.7362197],[2.2276422,48.7362903],[2.2274708,48.736288],[2.2273685,48.7363376],[2.2271192,48.7362476],[2.2269997,48.7362986],[2.2268027,48.7362368],[2.2267237,48.736291],[2.2265598,48.7362835],[2.2264052,48.7364004],[2.2260875,48.736386],[2.2260017,48.7363286],[2.225898,48.7364382],[2.2258447,48.7364274],[2.2257857,48.7363474],[2.2256649,48.7363823],[2.2254607,48.7363069],[2.2254328,48.736393],[2.2253209,48.7365008],[2.2248189,48.7365243],[2.2240492,48.7364857],[2.2233536,48.7363925],[2.222771,48.7364173],[2.2226881,48.736289],[2.2225526,48.7362924],[2.2224199,48.7362596],[2.2222079,48.7362907],[2.2216206,48.7362352],[2.2208267,48.7362362],[2.2203956,48.7362945],[2.22024,48.7361525],[2.2187544,48.7360524],[2.2176177,48.7356626],[2.2166034,48.7354836],[2.2162913,48.7348551],[2.2161134,48.7348345],[2.2159665,48.7347228],[2.2158398,48.7348007],[2.2157354,48.7346903],[2.2156052,48.7346161],[2.2153435,48.7346714],[2.2153405,48.7345957],[2.2152664,48.7345547],[2.2153413,48.7343164],[2.2152022,48.7342801],[2.2151363,48.7341722],[2.214993,48.7341514],[2.2151817,48.7336613],[2.2153103,48.732848],[2.2153233,48.7326958],[2.2151898,48.7319521],[2.2160263,48.7318136],[2.216445,48.7318192],[2.2171771,48.7320828],[2.2192248,48.7324856],[2.2252468,48.7320442],[2.225812,48.7321037]]]]},"properties":{"code_section":"91312000AL","code_commune":"91312","section_courte":"AL"}},{"type":"Feature","geometry":{"type":"MultiPolygon","coordinates":[[[[2.2040678,48.7369343],[2.2054542,48.7368404],[2.2068545,48.7368538],[2.2077188,48.7369249],[2.2085043,48.7371226],[2.2097209,48.7371923],[2.2103848,48.7373631],[2.2108656,48.7375643],[2.2112719,48.7376858],[2.2123903,48.7379139],[2.2127797,48.7380379],[2.2139288,48.738493],[2.2147431,48.7387147],[2.2150055,48.7383148],[2.2169091,48.7380069],[2.216926,48.7377317],[2.2166728,48.7376144],[2.2167842,48.7373456],[2.2167601,48.737333],[2.2175897,48.7363141],[2.2173235,48.7361711],[2.217478,48.7356413],[2.2176177,48.7356626],[2.2186657,48.7360385],[2.22024,48.7361525],[2.2203956,48.7362945],[2.2208267,48.7362362],[2.2216206,48.7362352],[2.2222079,48.7362907],[2.2224199,48.7362596],[2.2225526,48.7362924],[2.2226881,48.736289],[2.222771,48.7364173],[2.2233536,48.7363925],[2.2240492,48.7364857],[2.2245903,48.736515],[2.2252674,48.7365166],[2.2253654,48.7364791],[2.2254607,48.7363069],[2.2256649,48.7363823],[2.2257857,48.7363474],[2.2258447,48.7364274],[2.225898,48.7364382],[2.2260017,48.7363286],[2.2260875,48.736386],[2.2264052,48.7364004],[2.2265598,48.7362835],[2.2267237,48.736291],[2.2268027,48.7362368],[2.2269997,48.7362986],[2.2271192,48.7362476],[2.2273685,48.7363376],[2.2274708,48.736288],[2.2276422,48.7362903],[2.2278425,48.7362197],[2.2279089,48.7362796],[2.2280851,48.7362109],[2.2282534,48.7362116],[2.2283033,48.7362385],[2.2284263,48.7361922],[2.228669,48.7361842],[2.2286887,48.7364034],[2.2288481,48.7369182],[2.2289008,48.7374224],[2.2271947,48.737535],[2.2282124,48.7382428],[2.2279889,48.7388717],[2.2270358,48.740971],[2.2268549,48.7411419],[2.2265455,48.7410324],[2.2255077,48.7408132],[2.2249233,48.7412173],[2.2250481,48.7413406],[2.224706,48.7416024],[2.2243732,48.7414194],[2.2237841,48.7418797],[2.2240503,48.7420316],[2.2237656,48.7423411],[2.2233413,48.7429189],[2.2235405,48.7431223],[2.2219881,48.743785],[2.2220959,48.7439801],[2.2226604,48.7439647],[2.2230678,48.7443157],[2.2224677,48.7445869],[2.2225312,48.7446707],[2.2223471,48.7446229],[2.2218401,48.7443859],[2.2219393,48.7447351],[2.2216795,48.7448022],[2.2217648,48.7451719],[2.2216255,48.7451187],[2.2202597,48.7456773],[2.2207668,48.7463428],[2.2208784,48.7463872],[2.2201448,48.74677],[2.2190558,48.7460319],[2.2182974,48.7456557],[2.2183085,48.7456101],[2.2106065,48.7432834],[2.2112144,48.7427408],[2.2116927,48.742256],[2.2113206,48.7419118],[2.2109507,48.7412182],[2.2102856,48.7407383],[2.2104289,48.7407048],[2.2095079,48.7402113],[2.2064122,48.7381223],[2.2059081,48.7378637],[2.2057194,48.7377698],[2.2040827,48.7375371],[2.2040678,48.7369343]],[[2.2229455,48.7402913],[2.2232425,48.7403237],[2.2234094,48.7401251],[2.2240388,48.7401458],[2.224208,48.7403542],[2.2244696,48.7405261],[2.2250417,48.7397551],[2.2251548,48.7393716],[2.2250348,48.7389734],[2.2248958,48.7389504],[2.2250384,48.7384762],[2.2254449,48.737605],[2.2244097,48.7372683],[2.224417,48.7372484],[2.224353,48.7372346],[2.2244009,48.7371658],[2.2242967,48.7371417],[2.2238408,48.7370932],[2.2232244,48.7371438],[2.2225721,48.7373398],[2.2221442,48.7373331],[2.2215231,48.7372624],[2.2210543,48.7381709],[2.220857,48.7381137],[2.2207489,48.7383107],[2.2209253,48.7384259],[2.2221219,48.7390117],[2.2225066,48.7390784],[2.2221985,48.7397718],[2.2207885,48.7394697],[2.2206785,48.7395604],[2.2208656,48.7397815],[2.2211777,48.7398986],[2.2223391,48.7401619],[2.2228724,48.740319],[2.2229455,48.7402913]]]]},"properties":{"code_section":"91312000AM","code_commune":"91312","section_courte":"AM"}},{"type":"Feature","geometry":{"type":"MultiPolygon","coordinates":[[[[2.230713,48.73196],[2.2316582,48.7317029],[2.2339325,48.7313394],[2.2346975,48.7312747],[2.2367708,48.7314806],[2.238006,48.7316691],[2.2385586,48.7317025],[2.2404636,48.7313431],[2.2417557,48.7323438],[2.2389713,48.7346305],[2.2370547,48.734279],[2.2373127,48.7339135],[2.2359663,48.7337172],[2.2344392,48.7334265],[2.2338692,48.7338324],[2.2332779,48.7343499],[2.2326985,48.735032],[2.2323546,48.7355603],[2.2323368,48.7356446],[2.2315944,48.7354835],[2.2315121,48.7354212],[2.2314248,48.7354889],[2.2314302,48.7355632],[2.2313613,48.7355975],[2.2308147,48.7356351],[2.2304086,48.7357005],[2.229277,48.7359834],[2.2291888,48.7359799],[2.228669,48.7361842],[2.2285946,48.7335257],[2.2286685,48.7327257],[2.2287757,48.7326396],[2.230713,48.73196]]]]},"properties":{"code_section":"91312000AN","code_commune":"91312","section_courte":"AN"}},{"type":"Feature","geometry":{"type":"MultiPolygon","coordinates":[[[[2.2232425,48.7403237],[2.2229455,48.7402913],[2.2228724,48.740319],[2.2223391,48.7401619],[2.2211777,48.7398986],[2.2208656,48.7397815],[2.2206785,48.7395604],[2.2207885,48.7394697],[2.2221985,48.7397718],[2.2225066,48.7390784],[2.2221219,48.7390117],[2.2209253,48.7384259],[2.2207489,48.7383107],[2.220857,48.7381137],[2.2210543,48.7381709],[2.2215231,48.7372624],[2.2221442,48.7373331],[2.2225721,48.7373398],[2.2232244,48.7371438],[2.2238408,48.7370932],[2.2244009,48.7371658],[2.224353,48.7372346],[2.224417,48.7372484],[2.2244097,48.7372683],[2.2254449,48.737605],[2.2250384,48.7384762],[2.2248958,48.7389504],[2.2250348,48.7389734],[2.2251548,48.7393716],[2.2250417,48.7397551],[2.2244696,48.7405261],[2.224208,48.7403542],[2.2240388,48.7401458],[2.2234094,48.7401251],[2.2232425,48.7403237]]]]},"properties":{"code_section":"91312000AO","code_commune":"91312","section_courte":"AO"}}]}