{"type":"FeatureCollection","features":[{"type":"Feature","geometry":{"type":"MultiPolygon","coordinates":[[[[2.3592378,48.6936224],[2.3638578,48.6983624],[2.3627833,48.6986349],[2.3619289,48.6988954],[2.3594472,48.6998005],[2.3585063,48.6988474],[2.3580359,48.6990458],[2.3569705,48.6979578],[2.3544745,48.6978109],[2.3556503,48.6954765],[2.3558541,48.6948408],[2.3576319,48.6947344],[2.3572986,48.6943972],[2.3582927,48.6939692],[2.3583349,48.6940059],[2.3592378,48.6936224]]]]},"properties":{"code_section":"91326000AB","code_commune":"91326","section_courte":"AB"}},{"type":"Feature","geometry":{"type":"MultiPolygon","coordinates":[[[[2.3674621,48.6956638],[2.3692913,48.6967171],[2.3688765,48.6969695],[2.3682026,48.6972258],[2.365873,48.6978722],[2.3638578,48.6983624],[2.3594105,48.6938018],[2.3603415,48.6934172],[2.3607919,48.6938678],[2.3611946,48.6936959],[2.3659745,48.6941117],[2.3674621,48.6956638]]]]},"properties":{"code_section":"91326000AC","code_commune":"91326","section_courte":"AC"}},{"type":"Feature","geometry":{"type":"MultiPolygon","coordinates":[[[[2.3718396,48.6981748],[2.3674621,48.6956638],[2.3659745,48.6941116],[2.3645291,48.6926712],[2.3642,48.6923952],[2.3630438,48.6915776],[2.3644099,48.6909443],[2.3646816,48.6912329],[2.3660196,48.6906263],[2.3660512,48.6906777],[2.3678256,48.6901452],[2.3677992,48.6901103],[2.3682189,48.6899858],[2.3681742,48.6899308],[2.3699611,48.6894052],[2.3702759,48.6897067],[2.3706478,48.6902197],[2.3706549,48.6914219],[2.3707025,48.6920158],[2.3708781,48.6930172],[2.3719794,48.6981876],[2.3718396,48.6981748]]]]},"properties":{"code_section":"91326000AD","code_commune":"91326","section_courte":"AD"}},{"type":"Feature","geometry":{"type":"MultiPolygon","coordinates":[[[[2.3719801,48.6981905],[2.3708419,48.6928102],[2.3720991,48.6924664],[2.3728788,48.6930948],[2.3731711,48.6931336],[2.3737193,48.6930575],[2.3739489,48.6931333],[2.3740199,48.6932091],[2.374196,48.6936284],[2.3743574,48.6936709],[2.3745222,48.693627],[2.3746101,48.693504],[2.3744143,48.6928895],[2.3744216,48.6928167],[2.3744875,48.6927452],[2.3746757,48.6927193],[2.3756612,48.6923093],[2.3774425,48.6919203],[2.3783788,48.6916515],[2.3790077,48.6929802],[2.3790796,48.6929693],[2.3794439,48.6937487],[2.3793772,48.6937612],[2.3803826,48.6958849],[2.379591,48.6960146],[2.379785,48.6964236],[2.379151,48.6965566],[2.3792326,48.6967073],[2.3776048,48.6971163],[2.3777335,48.6973762],[2.3773102,48.6974701],[2.3770478,48.6970621],[2.3751457,48.6975861],[2.3723836,48.6981058],[2.3723868,48.6981548],[2.3721327,48.6982054],[2.3719801,48.6981905]]]]},"properties":{"code_section":"91326000AE","code_commune":"91326","section_courte":"AE"}},{"type":"Feature","geometry":{"type":"MultiPolygon","coordinates":[[[[2.3880449,48.6890765],[2.3892574,48.6909353],[2.3899371,48.6918547],[2.3875167,48.6926601],[2.3872499,48.6927898],[2.3868017,48.6923759],[2.3821837,48.6921038],[2.3821345,48.6920146],[2.3814641,48.6922272],[2.3816211,48.6925412],[2.3811387,48.692631],[2.3812051,48.6927505],[2.3814085,48.6927092],[2.3814142,48.6930605],[2.3813573,48.6933672],[2.3808622,48.6940416],[2.3813702,48.6957158],[2.3803826,48.6958849],[2.3793772,48.6937612],[2.3794439,48.6937487],[2.3790796,48.6929693],[2.3790077,48.6929802],[2.3783213,48.6915302],[2.3787566,48.6913828],[2.3816382,48.6901586],[2.381679,48.6901156],[2.3816836,48.6899472],[2.3817549,48.689865],[2.3833355,48.6888634],[2.3837066,48.6892039],[2.3850983,48.6889821],[2.3853942,48.6893569],[2.3858768,48.6895222],[2.3864952,48.6895113],[2.3880449,48.6890765]]]]},"properties":{"code_section":"91326000AH","code_commune":"91326","section_courte":"AH"}},{"type":"Feature","geometry":{"type":"MultiPolygon","coordinates":[[[[2.3880449,48.6890765],[2.3864952,48.6895113],[2.3858768,48.6895222],[2.3853942,48.6893569],[2.3850983,48.6889821],[2.3837066,48.6892039],[2.3833355,48.6888634],[2.3826565,48.6892909],[2.3813653,48.6884377],[2.3806631,48.6880737],[2.3797638,48.687634],[2.3785134,48.6870989],[2.3780115,48.6869535],[2.3799358,48.6846293],[2.3832562,48.6836871],[2.3859763,48.6836465],[2.3859901,48.683947],[2.3860983,48.6841643],[2.3860953,48.6845327],[2.3861826,48.6852429],[2.3863097,48.685609],[2.3870767,48.6873945],[2.3880449,48.6890765]]]]},"properties":{"code_section":"91326000AI","code_commune":"91326","section_courte":"AI"}},{"type":"Feature","geometry":{"type":"MultiPolygon","coordinates":[[[[2.3731376,48.6863391],[2.3759509,48.6839284],[2.3784733,48.6852552],[2.378141,48.6854918],[2.3789236,48.685844],[2.3780115,48.6869535],[2.3785134,48.6870989],[2.3797638,48.687634],[2.3806631,48.6880737],[2.3813653,48.6884377],[2.3826565,48.6892909],[2.3817342,48.6898825],[2.3816672,48.6899891],[2.381679,48.6901156],[2.3816382,48.6901586],[2.3787566,48.6913828],[2.3783213,48.6915302],[2.3774856,48.6901698],[2.3764614,48.6896247],[2.3759357,48.6894808],[2.3758456,48.689555],[2.3747627,48.6890351],[2.3742568,48.6882995],[2.3740507,48.6878716],[2.3736112,48.6866098],[2.3731376,48.6863391]]]]},"properties":{"code_section":"91326000AK","code_commune":"91326","section_courte":"AK"}},{"type":"Feature","geometry":{"type":"MultiPolygon","coordinates":[[[[2.3758456,48.689555],[2.3759357,48.6894808],[2.3764614,48.6896247],[2.3774856,48.6901698],[2.3783788,48.6916515],[2.3774425,48.6919203],[2.3756612,48.6923093],[2.3746757,48.6927193],[2.3744875,48.6927452],[2.3744216,48.6928167],[2.3744143,48.6928895],[2.3746101,48.693504],[2.3745222,48.693627],[2.3743574,48.6936709],[2.374196,48.6936284],[2.3740199,48.6932091],[2.3739489,48.6931333],[2.3737193,48.6930575],[2.3731711,48.6931336],[2.3728788,48.6930948],[2.3720991,48.6924664],[2.3708419,48.6928102],[2.3707025,48.6920158],[2.3706549,48.6914219],[2.3706478,48.6902197],[2.3702759,48.6897067],[2.3698172,48.689279],[2.3688817,48.6885224],[2.3700342,48.687903],[2.369895,48.6878079],[2.3704798,48.6874771],[2.3696442,48.6869337],[2.3704725,48.6864676],[2.3697777,48.684465],[2.3709051,48.6850975],[2.3719884,48.6857787],[2.3731113,48.6863581],[2.3731351,48.686338],[2.3736112,48.6866098],[2.3740507,48.6878716],[2.3742568,48.6882995],[2.3747627,48.6890351],[2.3758456,48.689555]]]]},"properties":{"code_section":"91326000AL","code_commune":"91326","section_courte":"AL"}}]}