{"type":"FeatureCollection","features":[{"type":"Feature","geometry":{"type":"MultiPolygon","coordinates":[[[[2.2444225,48.6352472],[2.2441696,48.6348884],[2.2441592,48.6345214],[2.243956,48.6342503],[2.2438103,48.6339662],[2.2431999,48.6313995],[2.2432139,48.6310667],[2.245724,48.6311876],[2.2466585,48.631151],[2.2489589,48.630942],[2.250181,48.6307491],[2.2514546,48.6304236],[2.2534526,48.6298057],[2.2547992,48.6293443],[2.255699,48.628966],[2.2571048,48.6282676],[2.2596362,48.6299109],[2.259223,48.6301129],[2.2603183,48.6308724],[2.2601978,48.630958],[2.2599844,48.6310451],[2.2590433,48.6312369],[2.2588735,48.6313224],[2.2588482,48.6314042],[2.2591189,48.6317402],[2.2592119,48.6320096],[2.2592618,48.6320041],[2.2601987,48.63478],[2.2602796,48.6347484],[2.2606033,48.6356787],[2.2603603,48.6357531],[2.2609744,48.6370048],[2.260429,48.6371139],[2.2591922,48.6374247],[2.2595118,48.6391202],[2.2564279,48.6388677],[2.2531361,48.6393529],[2.2478667,48.6378162],[2.2477309,48.6370458],[2.2471863,48.6368762],[2.246744,48.6368937],[2.2461467,48.6370585],[2.2455784,48.6371547],[2.2440516,48.6372325],[2.2447162,48.6356076],[2.2444225,48.6352472]]]]},"properties":{"code_section":"913390000A","code_commune":"91339","section_courte":"A"}},{"type":"Feature","geometry":{"type":"MultiPolygon","coordinates":[[[[2.2803667,48.6259011],[2.2806146,48.6260207],[2.2814992,48.6267775],[2.2815578,48.6269494],[2.2813523,48.6273012],[2.2811467,48.6275286],[2.280979,48.6278125],[2.2806081,48.6287449],[2.2802697,48.629164],[2.2801392,48.6290246],[2.2785331,48.6277942],[2.2785147,48.6277718],[2.2785588,48.6277467],[2.2780973,48.6273613],[2.2778902,48.6274777],[2.2779203,48.6275121],[2.2778641,48.627541],[2.277951,48.6276151],[2.2767899,48.6280261],[2.2761728,48.6281605],[2.2753005,48.6283053],[2.2752697,48.6282876],[2.2748361,48.6286222],[2.274736,48.6286106],[2.2748825,48.628484],[2.2750733,48.6281428],[2.2759491,48.6270042],[2.2760226,48.6270075],[2.2750854,48.6260528],[2.2739856,48.6265154],[2.2732299,48.6257637],[2.2735673,48.6256288],[2.272906,48.6249515],[2.2728693,48.624965],[2.2721403,48.624172],[2.2724818,48.6240577],[2.2716834,48.6232461],[2.2730042,48.6228052],[2.2735142,48.6222531],[2.273883,48.6223582],[2.2741314,48.6223507],[2.2748546,48.6221522],[2.275975,48.6219828],[2.2761799,48.6220967],[2.2768161,48.6225807],[2.2776434,48.623272],[2.2785979,48.6239894],[2.2796952,48.6245257],[2.2803031,48.6247742],[2.2803802,48.6248589],[2.280694,48.6249623],[2.281019,48.6249957],[2.28081,48.6252996],[2.2803318,48.6253885],[2.2798807,48.6255717],[2.2803667,48.6259011]]]]},"properties":{"code_section":"913390000B","code_commune":"91339","section_courte":"B"}},{"type":"Feature","geometry":{"type":"MultiPolygon","coordinates":[[[[2.2481121,48.6180329],[2.2481287,48.6180966],[2.2479854,48.6181169],[2.2480098,48.6182916],[2.2484121,48.6182215],[2.2485584,48.6188404],[2.2496453,48.6186665],[2.2500702,48.618649],[2.250203,48.6186082],[2.2498762,48.618],[2.2500221,48.6180716],[2.2507546,48.6187015],[2.2508008,48.6189026],[2.2509896,48.6192615],[2.2512637,48.6194046],[2.2508294,48.6197852],[2.2510715,48.6199141],[2.250729,48.6202599],[2.2502942,48.6201794],[2.2500398,48.6200967],[2.2500463,48.6200131],[2.2493298,48.6200036],[2.2489874,48.6200421],[2.2480389,48.620247],[2.2473291,48.6203227],[2.2470158,48.6203046],[2.2467318,48.6201509],[2.2465764,48.6203582],[2.2458925,48.6208416],[2.2453301,48.6212923],[2.2432674,48.6201624],[2.2427166,48.6202232],[2.2419515,48.6199112],[2.2428165,48.6182489],[2.2413072,48.6186286],[2.2415388,48.6181028],[2.2415708,48.6178913],[2.2410547,48.6181312],[2.2399802,48.6177092],[2.2399146,48.6176749],[2.2401413,48.6174193],[2.2391454,48.6171576],[2.2395112,48.6165854],[2.2383686,48.6163819],[2.2398609,48.6134117],[2.2433623,48.6140367],[2.2422528,48.6169707],[2.2425387,48.6168182],[2.2441571,48.616147],[2.2440178,48.6162867],[2.2438026,48.6166915],[2.2437363,48.6171362],[2.2437874,48.6171688],[2.2461525,48.6174278],[2.2474733,48.6174746],[2.2474721,48.6174515],[2.2480074,48.6174583],[2.2481121,48.6180329]]]]},"properties":{"code_section":"913390000C","code_commune":"91339","section_courte":"C"}},{"type":"Feature","geometry":{"type":"MultiPolygon","coordinates":[[[[2.2313944,48.6302125],[2.2313124,48.630187],[2.2311358,48.6300547],[2.230589,48.6298918],[2.2296312,48.6294938],[2.228901,48.6292493],[2.2283422,48.6289547],[2.227005,48.6284044],[2.2267372,48.6283927],[2.2255291,48.6286464],[2.2254902,48.6286336],[2.2240073,48.6223748],[2.2241308,48.6223638],[2.2234015,48.6217864],[2.2246515,48.6216564],[2.2262379,48.6216123],[2.2261487,48.6197687],[2.2273642,48.6196914],[2.2276889,48.6195973],[2.2281526,48.6195101],[2.228842,48.6192123],[2.2291135,48.6191543],[2.2295851,48.6191381],[2.2308239,48.6192246],[2.2313953,48.6190455],[2.2324257,48.6191798],[2.2328436,48.6182507],[2.2326651,48.6176096],[2.2325147,48.616643],[2.2328214,48.616085],[2.2329432,48.6155542],[2.2332431,48.6150721],[2.2334761,48.6144651],[2.2335849,48.6140826],[2.2336807,48.6132312],[2.2337975,48.6132182],[2.2342805,48.6132785],[2.2365605,48.6131762],[2.237239,48.6132194],[2.238484,48.6131021],[2.2398781,48.6133795],[2.2383686,48.6163819],[2.2395112,48.6165854],[2.2391454,48.6171576],[2.2401413,48.6174193],[2.2399146,48.6176749],[2.2399802,48.6177092],[2.2410547,48.6181312],[2.2415708,48.6178913],[2.2415388,48.6181028],[2.2413072,48.6186286],[2.2428165,48.6182489],[2.2419515,48.6199112],[2.2424501,48.6201099],[2.2420672,48.6203918],[2.2419254,48.6205858],[2.2417986,48.6209349],[2.2418067,48.6211049],[2.2414347,48.621046],[2.2412306,48.6209441],[2.2410103,48.6210186],[2.2406182,48.6205991],[2.2391911,48.6202015],[2.2382632,48.6199046],[2.2376167,48.6198375],[2.2374771,48.6198841],[2.2370472,48.6202795],[2.2369855,48.6202513],[2.2320461,48.624635],[2.2319149,48.624903],[2.2318457,48.627333],[2.2318709,48.6276391],[2.2321033,48.6284385],[2.2319885,48.6288178],[2.231408,48.6292255],[2.2312806,48.6293422],[2.2311419,48.6295528],[2.2311271,48.6297934],[2.2311891,48.6300161],[2.2313944,48.6302125]]]]},"properties":{"code_section":"913390000D","code_commune":"91339","section_courte":"D"}},{"type":"Feature","geometry":{"type":"MultiPolygon","coordinates":[[[[2.2651538,48.6241919],[2.2667656,48.6236921],[2.2664355,48.6254764],[2.2663364,48.6257277],[2.2664878,48.6259195],[2.2669322,48.62687],[2.2672064,48.627292],[2.2670781,48.6278568],[2.2676619,48.6282555],[2.2678819,48.6284431],[2.2680828,48.6284965],[2.2695604,48.6294437],[2.269763,48.6297173],[2.2698884,48.6301608],[2.270014,48.6303835],[2.2698942,48.6303792],[2.2696582,48.6304557],[2.2686701,48.6308483],[2.2667529,48.6315316],[2.2660991,48.6318121],[2.2663125,48.6320359],[2.2662075,48.6320649],[2.2659853,48.6322475],[2.2656393,48.6326747],[2.2649588,48.6330307],[2.2634853,48.630624],[2.2631879,48.6299479],[2.2630521,48.6296087],[2.2624935,48.6277333],[2.261784,48.6256587],[2.264003,48.6245935],[2.2651538,48.6241919]]]]},"properties":{"code_section":"91339000AA","code_commune":"91339","section_courte":"AA"}},{"type":"Feature","geometry":{"type":"MultiPolygon","coordinates":[[[[2.2688294,48.6372586],[2.267256,48.6376339],[2.2662791,48.6352722],[2.2656729,48.6341924],[2.2649588,48.6330307],[2.2656393,48.6326747],[2.2659853,48.6322475],[2.2662075,48.6320649],[2.2663125,48.6320359],[2.2660991,48.6318121],[2.2667529,48.6315316],[2.2686701,48.6308483],[2.2696582,48.6304557],[2.2698942,48.6303792],[2.270014,48.6303835],[2.270324,48.6302703],[2.2707503,48.6302077],[2.2708791,48.6301597],[2.2713301,48.6299322],[2.2720335,48.6296867],[2.272402,48.6294144],[2.2726982,48.6292848],[2.2738466,48.6288132],[2.2746976,48.6285008],[2.2746376,48.6287105],[2.2747342,48.6287424],[2.2742848,48.629175],[2.2748439,48.6302656],[2.2744321,48.6303361],[2.2747021,48.6308607],[2.2753764,48.6308435],[2.2759947,48.630774],[2.2760892,48.6310659],[2.2760953,48.6313055],[2.275837,48.6315609],[2.275969,48.6319105],[2.2762985,48.6322285],[2.2763195,48.6324078],[2.2762278,48.6331286],[2.2762502,48.6341387],[2.2758631,48.6344571],[2.2751494,48.6348703],[2.2749164,48.6346622],[2.2741933,48.6342452],[2.2734272,48.634011],[2.2729474,48.6338108],[2.2726039,48.6335453],[2.2722517,48.633143],[2.270373,48.6342621],[2.2699711,48.6345782],[2.2701935,48.634835],[2.2702488,48.6350422],[2.2704425,48.6353704],[2.2705961,48.6354536],[2.2709293,48.6354665],[2.2709145,48.6355171],[2.2701787,48.6359304],[2.2702688,48.6360291],[2.2694944,48.6363417],[2.2694753,48.6363185],[2.2693725,48.6363611],[2.2693912,48.6363852],[2.2683053,48.6368576],[2.2683648,48.6371537],[2.2688823,48.6370569],[2.2688759,48.6371992],[2.2690242,48.637198],[2.2688294,48.6372586]]]]},"properties":{"code_section":"91339000AB","code_commune":"91339","section_courte":"AB"}},{"type":"Feature","geometry":{"type":"MultiPolygon","coordinates":[[[[2.2785331,48.6277942],[2.2801392,48.6290246],[2.2802697,48.629164],[2.2795253,48.6300649],[2.2791323,48.6301478],[2.2785168,48.630227],[2.2759718,48.6307789],[2.2753764,48.6308435],[2.2747021,48.6308607],[2.2744321,48.6303361],[2.2748439,48.6302656],[2.2742848,48.629175],[2.2747342,48.6287424],[2.2746376,48.6287105],[2.2746976,48.6285008],[2.2738466,48.6288132],[2.2726982,48.6292848],[2.272402,48.6294144],[2.2720335,48.6296867],[2.2713301,48.6299322],[2.2708791,48.6301597],[2.2707503,48.6302077],[2.270324,48.6302703],[2.270014,48.6303835],[2.2698884,48.6301608],[2.269763,48.6297173],[2.2696723,48.6295633],[2.2693193,48.6292666],[2.2704307,48.6289547],[2.2706064,48.6288673],[2.2714661,48.6282826],[2.2715924,48.628062],[2.2716209,48.6279037],[2.2715895,48.6277934],[2.2713416,48.6274117],[2.2721538,48.6272203],[2.2730753,48.6268108],[2.2738876,48.6265565],[2.2750854,48.6260528],[2.2760226,48.6270075],[2.2759491,48.6270042],[2.2750733,48.6281428],[2.2748825,48.628484],[2.274736,48.6286106],[2.2748361,48.6286222],[2.2752697,48.6282876],[2.2753005,48.6283053],[2.2761728,48.6281605],[2.2767899,48.6280261],[2.277951,48.6276151],[2.2778641,48.627541],[2.2779203,48.6275121],[2.2778902,48.6274777],[2.2780973,48.6273613],[2.2785588,48.6277467],[2.2785147,48.6277718],[2.2785331,48.6277942]]]]},"properties":{"code_section":"91339000AC","code_commune":"91339","section_courte":"AC"}},{"type":"Feature","geometry":{"type":"MultiPolygon","coordinates":[[[[2.2739856,48.6265154],[2.2730753,48.6268108],[2.2721538,48.6272203],[2.2713416,48.6274117],[2.2715895,48.6277934],[2.2716209,48.6279037],[2.2715924,48.628062],[2.2714661,48.6282826],[2.2706064,48.6288673],[2.2704307,48.6289547],[2.2693193,48.6292666],[2.2680828,48.6284965],[2.2678819,48.6284431],[2.2676619,48.6282555],[2.2670781,48.6278568],[2.2672064,48.627292],[2.2669322,48.62687],[2.2664878,48.6259195],[2.2663364,48.6257277],[2.2664355,48.6254764],[2.2667656,48.6236921],[2.268051,48.6231088],[2.2681224,48.6231698],[2.2712957,48.6214867],[2.271667,48.6215967],[2.272259,48.6218579],[2.2727487,48.6220016],[2.2729387,48.622101],[2.2735142,48.6222531],[2.2730042,48.6228052],[2.2716834,48.6232461],[2.2724818,48.6240577],[2.2721403,48.624172],[2.2728693,48.624965],[2.272906,48.6249515],[2.2735673,48.6256288],[2.2732299,48.6257637],[2.2739856,48.6265154]]]]},"properties":{"code_section":"91339000AD","code_commune":"91339","section_courte":"AD"}},{"type":"Feature","geometry":{"type":"MultiPolygon","coordinates":[[[[2.2661531,48.6233418],[2.266209,48.6234169],[2.2668668,48.6232288],[2.2667656,48.6236921],[2.2651538,48.6241919],[2.264003,48.6245935],[2.2618194,48.6256421],[2.2614622,48.6245895],[2.2610584,48.6237563],[2.2587452,48.6200247],[2.2584901,48.6194989],[2.2606028,48.6188018],[2.2613396,48.620105],[2.2618128,48.6212318],[2.2620995,48.6217712],[2.2626887,48.621678],[2.2632497,48.6221815],[2.2637243,48.6227221],[2.2646328,48.62352],[2.266039,48.6231564],[2.2661725,48.6233253],[2.2661531,48.6233418]]]]},"properties":{"code_section":"91339000AE","code_commune":"91339","section_courte":"AE"}},{"type":"Feature","geometry":{"type":"MultiPolygon","coordinates":[[[[2.2583917,48.6193344],[2.2582114,48.6191312],[2.2549281,48.6138743],[2.2557703,48.6136084],[2.256847,48.6134235],[2.2573313,48.613432],[2.2576152,48.6134747],[2.2593698,48.6161222],[2.2600778,48.6172626],[2.2606028,48.6188018],[2.2584901,48.6194989],[2.2583917,48.6193344]]]]},"properties":{"code_section":"91339000AH","code_commune":"91339","section_courte":"AH"}},{"type":"Feature","geometry":{"type":"MultiPolygon","coordinates":[[[[2.2572864,48.6190927],[2.2567601,48.6193153],[2.2558617,48.619845],[2.2560324,48.620206],[2.2555111,48.6203333],[2.2552893,48.6203638],[2.2543172,48.6203744],[2.2532902,48.6202549],[2.2527828,48.6201451],[2.2525521,48.6201658],[2.2521325,48.6205089],[2.2518682,48.6205255],[2.2518043,48.6205891],[2.2517447,48.6205643],[2.2514343,48.6202272],[2.2512194,48.6203913],[2.250729,48.6202599],[2.2510715,48.6199141],[2.2508294,48.6197852],[2.2512637,48.6194046],[2.2509896,48.6192615],[2.2508008,48.6189026],[2.2507546,48.6187015],[2.2500221,48.6180716],[2.2498762,48.618],[2.2493485,48.6180897],[2.2492669,48.6180651],[2.2489177,48.6171698],[2.2488744,48.6166551],[2.2490491,48.6160556],[2.2489984,48.6159236],[2.2492376,48.6149348],[2.2505074,48.6150796],[2.2511211,48.6150363],[2.2514375,48.6149663],[2.2549281,48.6138743],[2.2579958,48.6187799],[2.2572864,48.6190927]]]]},"properties":{"code_section":"91339000AI","code_commune":"91339","section_courte":"AI"}},{"type":"Feature","geometry":{"type":"MultiPolygon","coordinates":[[[[2.250203,48.6186082],[2.2500702,48.618649],[2.2496453,48.6186665],[2.2485584,48.6188404],[2.2484121,48.6182215],[2.2480098,48.6182916],[2.2479854,48.6181169],[2.2481287,48.6180966],[2.2480074,48.6174583],[2.2474721,48.6174515],[2.2474733,48.6174746],[2.2461525,48.6174278],[2.2437874,48.6171688],[2.2437363,48.6171362],[2.2438026,48.6166915],[2.2440178,48.6162867],[2.2441571,48.616147],[2.2425387,48.6168182],[2.2422528,48.6169707],[2.2433623,48.6140367],[2.2462032,48.6145919],[2.2492376,48.6149348],[2.2489984,48.6159236],[2.2490491,48.6160556],[2.2488744,48.6166551],[2.2489177,48.6171698],[2.2492669,48.6180651],[2.2493485,48.6180897],[2.2498762,48.618],[2.250203,48.6186082]]]]},"properties":{"code_section":"91339000AK","code_commune":"91339","section_courte":"AK"}},{"type":"Feature","geometry":{"type":"MultiPolygon","coordinates":[[[[2.2590255,48.623118],[2.2592004,48.623293],[2.2583247,48.6233978],[2.2578592,48.6233641],[2.2568823,48.6231771],[2.2557471,48.6227611],[2.2549642,48.6225479],[2.2537553,48.6222985],[2.2532043,48.6222437],[2.252638,48.6233126],[2.2524135,48.6232609],[2.2518822,48.6232298],[2.2505739,48.6233297],[2.2495354,48.6232569],[2.2499504,48.6223211],[2.2498635,48.6217402],[2.2521087,48.6214516],[2.2520533,48.6208956],[2.2518744,48.6205376],[2.2521325,48.6205089],[2.2525521,48.6201658],[2.2529112,48.6201574],[2.2532902,48.6202549],[2.2543172,48.6203744],[2.2552893,48.6203638],[2.2557978,48.6202803],[2.2560324,48.620206],[2.2558617,48.619845],[2.2567601,48.6193153],[2.2579958,48.6187799],[2.2582114,48.6191312],[2.2583917,48.6193344],[2.2587452,48.6200247],[2.2603761,48.6226243],[2.2592367,48.6230551],[2.2592029,48.6230269],[2.2590255,48.623118]]]]},"properties":{"code_section":"91339000AL","code_commune":"91339","section_courte":"AL"}},{"type":"Feature","geometry":{"type":"MultiPolygon","coordinates":[[[[2.2567425,48.6284676],[2.255699,48.628966],[2.2547992,48.6293443],[2.2534526,48.6298057],[2.2509101,48.6305695],[2.250181,48.6307491],[2.2489589,48.630942],[2.2472797,48.6311074],[2.245724,48.6311876],[2.2432139,48.6310667],[2.2401971,48.6308102],[2.2400391,48.6274665],[2.2374297,48.6268677],[2.2361204,48.6266188],[2.2349494,48.6266748],[2.2336933,48.6268913],[2.2318597,48.6268404],[2.2319419,48.6247964],[2.2320461,48.624635],[2.2369855,48.6202513],[2.2370472,48.6202795],[2.2373888,48.6199392],[2.2376026,48.6198401],[2.2382632,48.6199046],[2.2391911,48.6202015],[2.2406182,48.6205991],[2.2410103,48.6210186],[2.2412306,48.6209441],[2.2414347,48.621046],[2.2418067,48.6211049],[2.2417986,48.6209349],[2.2419254,48.6205858],[2.2420672,48.6203918],[2.2424501,48.6201099],[2.2427166,48.6202232],[2.2432674,48.6201624],[2.2453301,48.6212923],[2.2458925,48.6208416],[2.2465764,48.6203582],[2.2467318,48.6201509],[2.2470158,48.6203046],[2.2473291,48.6203227],[2.2480389,48.620247],[2.2489874,48.6200421],[2.2493298,48.6200036],[2.2500463,48.6200131],[2.2500398,48.6200967],[2.2502942,48.6201794],[2.250729,48.6202599],[2.2512194,48.6203913],[2.2514343,48.6202272],[2.2517447,48.6205643],[2.2518043,48.6205891],[2.2518682,48.6205255],[2.2520533,48.6208956],[2.2521087,48.6214516],[2.2498635,48.6217402],[2.2499504,48.6223211],[2.2495354,48.6232569],[2.2505739,48.6233297],[2.2518822,48.6232298],[2.2521975,48.6232373],[2.2530571,48.6234037],[2.2531888,48.6234444],[2.2534108,48.623592],[2.2540187,48.6241313],[2.2532595,48.6244108],[2.2531065,48.6244283],[2.2530074,48.6249236],[2.2530609,48.6251475],[2.2536284,48.6258833],[2.2539248,48.6260899],[2.2541024,48.6263717],[2.2540448,48.6265479],[2.2543979,48.6266523],[2.2547787,48.6266725],[2.2551105,48.6266233],[2.2554334,48.6268909],[2.2556926,48.6270143],[2.2560195,48.6268238],[2.2562635,48.6269542],[2.2558961,48.6273021],[2.2571048,48.6282676],[2.2567425,48.6284676]]]]},"properties":{"code_section":"91339000AM","code_commune":"91339","section_courte":"AM"}},{"type":"Feature","geometry":{"type":"MultiPolygon","coordinates":[[[[2.2602221,48.6226793],[2.2603761,48.6226243],[2.2610584,48.6237563],[2.2614622,48.6245895],[2.2618194,48.6256421],[2.2609411,48.6261023],[2.2605525,48.6258508],[2.260496,48.6258928],[2.2608888,48.6261357],[2.260358,48.6264204],[2.2599233,48.6261698],[2.2598848,48.6262013],[2.2603131,48.6264458],[2.2576976,48.6279379],[2.2573354,48.6276705],[2.2572708,48.6277103],[2.2576374,48.6279712],[2.2571048,48.6282676],[2.2558961,48.6273021],[2.2562635,48.6269542],[2.2560195,48.6268238],[2.2556926,48.6270143],[2.2554334,48.6268909],[2.2551105,48.6266233],[2.2547787,48.6266725],[2.2543979,48.6266523],[2.2540448,48.6265479],[2.2541024,48.6263717],[2.2539248,48.6260899],[2.2536284,48.6258833],[2.2530609,48.6251475],[2.2530074,48.6249236],[2.2531065,48.6244283],[2.2532595,48.6244108],[2.2540187,48.6241313],[2.2535463,48.6237027],[2.2531888,48.6234444],[2.252638,48.6233126],[2.2531851,48.6222743],[2.2532043,48.6222437],[2.2537553,48.6222985],[2.2545741,48.6224559],[2.2557471,48.6227611],[2.2568823,48.6231771],[2.2574385,48.6232984],[2.2580738,48.6233888],[2.2585518,48.6233851],[2.2592004,48.623293],[2.2590141,48.6231248],[2.2592029,48.6230269],[2.2592367,48.6230551],[2.2602221,48.6226793]]]]},"properties":{"code_section":"91339000AN","code_commune":"91339","section_courte":"AN"}},{"type":"Feature","geometry":{"type":"MultiPolygon","coordinates":[[[[2.2610524,48.6260412],[2.261784,48.6256587],[2.2624935,48.6277333],[2.2630521,48.6296087],[2.2631879,48.6299479],[2.2634853,48.630624],[2.2643282,48.6319881],[2.2640495,48.6319939],[2.2637181,48.632174],[2.263516,48.6323317],[2.2633463,48.6323956],[2.2594995,48.6327171],[2.2592618,48.6320041],[2.2592119,48.6320096],[2.2591189,48.6317402],[2.2588852,48.6314772],[2.2588482,48.6314042],[2.2588735,48.6313224],[2.2590433,48.6312369],[2.2599844,48.6310451],[2.2601978,48.630958],[2.2603183,48.6308724],[2.259223,48.6301129],[2.2596362,48.6299109],[2.2571048,48.6282676],[2.2576374,48.6279712],[2.2572708,48.6277103],[2.2573354,48.6276705],[2.2576976,48.6279379],[2.2603131,48.6264458],[2.2598848,48.6262013],[2.2599233,48.6261698],[2.260358,48.6264204],[2.2608888,48.6261357],[2.260496,48.6258928],[2.2605525,48.6258508],[2.2609411,48.6261023],[2.2610524,48.6260412]]]]},"properties":{"code_section":"91339000AO","code_commune":"91339","section_courte":"AO"}},{"type":"Feature","geometry":{"type":"MultiPolygon","coordinates":[[[[2.2661864,48.6379599],[2.265372,48.6382291],[2.2631722,48.6388005],[2.2626585,48.6388721],[2.2595215,48.6391394],[2.2591922,48.6374247],[2.260429,48.6371139],[2.2609744,48.6370048],[2.2603603,48.6357531],[2.2606033,48.6356787],[2.2602796,48.6347484],[2.2601987,48.63478],[2.2594995,48.6327171],[2.2633463,48.6323956],[2.263516,48.6323317],[2.2637181,48.632174],[2.2640495,48.6319939],[2.2643282,48.6319881],[2.2660975,48.6349183],[2.2665268,48.635812],[2.2672663,48.6376599],[2.2661864,48.6379599]]]]},"properties":{"code_section":"91339000AP","code_commune":"91339","section_courte":"AP"}},{"type":"Feature","geometry":{"type":"MultiPolygon","coordinates":[[[[2.2431143,48.6314104],[2.2404086,48.631769],[2.2398542,48.6318007],[2.2399183,48.6323154],[2.2382893,48.6319667],[2.2367532,48.6317802],[2.2363498,48.6317013],[2.2363305,48.6316409],[2.2355099,48.631147],[2.2351607,48.6309874],[2.2347963,48.6309179],[2.2344624,48.6308169],[2.2338177,48.63054],[2.2326484,48.631042],[2.2323879,48.6305671],[2.2313944,48.6302125],[2.2311891,48.6300161],[2.2311271,48.6297934],[2.2311419,48.6295528],[2.2312806,48.6293422],[2.2319885,48.6288178],[2.2320747,48.6286191],[2.2321033,48.6284385],[2.2318709,48.6276391],[2.2318597,48.6268404],[2.2336933,48.6268913],[2.2349494,48.6266748],[2.2361204,48.6266188],[2.2374297,48.6268677],[2.2400391,48.6274665],[2.2401971,48.6308102],[2.2432139,48.6310667],[2.2431999,48.6313995],[2.2431143,48.6314104]]]]},"properties":{"code_section":"91339000AV","code_commune":"91339","section_courte":"AV"}}]}