{"type":"FeatureCollection","features":[{"type":"Feature","geometry":{"type":"MultiPolygon","coordinates":[[[[2.2762036,48.6174983],[2.2758713,48.6176998],[2.2744505,48.6187763],[2.274083,48.6187878],[2.2738414,48.6188699],[2.2737061,48.6188811],[2.2731501,48.6188527],[2.2724722,48.6186171],[2.2721231,48.6182959],[2.2721009,48.6183082],[2.2718376,48.6181401],[2.271734,48.6181651],[2.27148,48.6183359],[2.2702331,48.6172183],[2.2700123,48.6169802],[2.2697215,48.6165484],[2.2704279,48.6160238],[2.270461,48.6160432],[2.271079,48.6155637],[2.2716416,48.6157295],[2.2720724,48.6157607],[2.2729628,48.6157695],[2.2737839,48.6158755],[2.274043,48.6159211],[2.2744337,48.6160469],[2.2765762,48.6170144],[2.2767167,48.6171508],[2.2762036,48.6174983]]]]},"properties":{"code_section":"913330000A","code_commune":"91333","section_courte":"A"}},{"type":"Feature","geometry":{"type":"MultiPolygon","coordinates":[[[[2.2752682,48.6209841],[2.2757751,48.6206812],[2.2757408,48.6206532],[2.2766856,48.6200187],[2.277386,48.6193776],[2.2766695,48.6190931],[2.274847,48.6184724],[2.2758713,48.6176998],[2.2765656,48.617271],[2.2767167,48.6171508],[2.2766879,48.6171038],[2.2764741,48.6169525],[2.2758001,48.6166509],[2.2744337,48.6160469],[2.2740016,48.6159106],[2.2729628,48.6157695],[2.2720724,48.6157607],[2.2716416,48.6157295],[2.271079,48.6155637],[2.2699023,48.615388],[2.2693319,48.6153894],[2.268742,48.6154327],[2.2688896,48.6151383],[2.2686856,48.6146445],[2.2687448,48.6140485],[2.2692961,48.6135402],[2.2693635,48.6132403],[2.2693004,48.6127662],[2.2690811,48.6125821],[2.2689431,48.6125101],[2.2691054,48.6121854],[2.2692415,48.6120768],[2.2690452,48.6116352],[2.2689547,48.611176],[2.2678963,48.6111645],[2.2668984,48.6110672],[2.2668283,48.6104544],[2.2668218,48.6097566],[2.26675,48.6097017],[2.2653754,48.6104374],[2.2652442,48.610279],[2.2647782,48.6092145],[2.2644334,48.6087292],[2.2640554,48.6083291],[2.2634647,48.6076049],[2.2630113,48.6068802],[2.262905,48.6065287],[2.2626852,48.6061248],[2.2622622,48.6055754],[2.2617925,48.6051384],[2.2633927,48.6042028],[2.2632746,48.604026],[2.2633652,48.6038217],[2.2633541,48.6037502],[2.265495,48.6031789],[2.2657487,48.603807],[2.2657563,48.6042619],[2.2659029,48.6051451],[2.2659452,48.6052111],[2.2664103,48.6054059],[2.2668853,48.6056888],[2.2677588,48.6062528],[2.2681822,48.6066005],[2.2682787,48.6065221],[2.2684049,48.6067513],[2.2685121,48.6068613],[2.2690092,48.6073207],[2.2692094,48.6074567],[2.2696681,48.6076362],[2.270625,48.6078799],[2.2709646,48.60805],[2.271614,48.608154],[2.2718092,48.6082115],[2.2720485,48.6083209],[2.2724395,48.6086842],[2.27291,48.6089543],[2.2730375,48.6095337],[2.273249,48.609823],[2.2734502,48.6102459],[2.2734263,48.6106145],[2.2735759,48.6107848],[2.273429,48.6109502],[2.2734158,48.611041],[2.2736111,48.6111215],[2.274327,48.6111168],[2.2744109,48.6112408],[2.2743898,48.6115185],[2.2745613,48.611545],[2.2749239,48.6115169],[2.2749613,48.611985],[2.2762366,48.6132821],[2.2765176,48.6134744],[2.2771999,48.6137244],[2.2772464,48.6137675],[2.2774855,48.6143887],[2.2776795,48.6146343],[2.277793,48.614701],[2.2779755,48.6146552],[2.2782392,48.6147099],[2.2790315,48.6151218],[2.2837092,48.6167888],[2.2833503,48.6168889],[2.2830764,48.6172297],[2.2829324,48.6173338],[2.2824833,48.6172899],[2.2821176,48.6172977],[2.2818017,48.6172516],[2.2818128,48.6174138],[2.2827091,48.6175467],[2.2829686,48.6181738],[2.282039,48.6189723],[2.2816072,48.6186599],[2.2798652,48.6198618],[2.2784506,48.6207605],[2.2777173,48.6211101],[2.276002,48.622031],[2.2752682,48.6209841]]]]},"properties":{"code_section":"913330000B","code_commune":"91333","section_courte":"B"}},{"type":"Feature","geometry":{"type":"MultiPolygon","coordinates":[[[[2.2600721,48.6094839],[2.259836,48.6089134],[2.2596818,48.6087825],[2.2595672,48.6084737],[2.2593934,48.6081703],[2.2602419,48.6079698],[2.260241,48.6079256],[2.2604479,48.6078735],[2.2603674,48.6076224],[2.2598996,48.6069743],[2.2596685,48.606571],[2.2603847,48.6063412],[2.2612724,48.6062045],[2.2606254,48.6056171],[2.2618313,48.6051683],[2.2622622,48.6055754],[2.2626852,48.6061248],[2.262905,48.6065287],[2.2630113,48.6068802],[2.2634647,48.6076049],[2.2640554,48.6083291],[2.2644334,48.6087292],[2.2647782,48.6092145],[2.2651835,48.6101402],[2.2643388,48.6106207],[2.2638878,48.6101519],[2.2619273,48.6109085],[2.2617783,48.6105315],[2.2616654,48.6103549],[2.2612658,48.6101325],[2.2608612,48.6100321],[2.2606889,48.6098332],[2.2602498,48.6100005],[2.2601501,48.6099065],[2.2600721,48.6094839]]]]},"properties":{"code_section":"913330000C","code_commune":"91333","section_courte":"C"}},{"type":"Feature","geometry":{"type":"MultiPolygon","coordinates":[[[[2.2668006,48.620146],[2.2666061,48.6200562],[2.2666073,48.6200321],[2.2670892,48.6196856],[2.2671433,48.6195637],[2.2670861,48.6193309],[2.2674582,48.6189674],[2.2679531,48.6183852],[2.2688477,48.6189246],[2.2699893,48.619503],[2.27051,48.6193511],[2.2709147,48.6191863],[2.2713146,48.618831],[2.271317,48.6188064],[2.2710901,48.618689],[2.2715224,48.6182919],[2.271734,48.6181651],[2.2718376,48.6181401],[2.2721009,48.6183082],[2.2721231,48.6182959],[2.2724722,48.6186171],[2.2731501,48.6188527],[2.2737061,48.6188811],[2.2738414,48.6188699],[2.274083,48.6187878],[2.2744505,48.6187763],[2.274847,48.6184724],[2.2766695,48.6190931],[2.277386,48.6193776],[2.2766856,48.6200187],[2.2757408,48.6206532],[2.2757751,48.6206812],[2.2752682,48.6209841],[2.275967,48.6220105],[2.2749127,48.6221599],[2.2741139,48.6223724],[2.2738814,48.6223824],[2.272179,48.6218559],[2.2712776,48.6214964],[2.2681224,48.6231698],[2.268051,48.6231088],[2.2667649,48.6238171],[2.2668668,48.6232288],[2.266209,48.6234169],[2.2654415,48.6223793],[2.2669513,48.6215319],[2.2668651,48.6212371],[2.2665405,48.6205704],[2.2668281,48.620228],[2.2668421,48.6201774],[2.2668006,48.620146]]]]},"properties":{"code_section":"91333000AA","code_commune":"91333","section_courte":"AA"}},{"type":"Feature","geometry":{"type":"MultiPolygon","coordinates":[[[[2.2668137,48.62161],[2.2654415,48.6223793],[2.2660262,48.6231708],[2.2646447,48.6235303],[2.2637243,48.6227221],[2.2632497,48.6221815],[2.2626887,48.621678],[2.2620995,48.6217712],[2.2618128,48.6212318],[2.2613396,48.620105],[2.260645,48.6188867],[2.2638206,48.6176397],[2.2673185,48.6161575],[2.2681622,48.6157801],[2.2684768,48.6155438],[2.268742,48.6154327],[2.2693319,48.6153894],[2.2699023,48.615388],[2.271079,48.6155637],[2.270461,48.6160432],[2.2704279,48.6160238],[2.2697215,48.6165484],[2.2700123,48.6169802],[2.2702331,48.6172183],[2.27148,48.6183359],[2.2710901,48.618689],[2.271317,48.6188064],[2.2713146,48.618831],[2.2708364,48.6192361],[2.2699893,48.619503],[2.2688477,48.6189246],[2.2679531,48.6183852],[2.2674582,48.6189674],[2.2670861,48.6193309],[2.2671433,48.6195637],[2.2670892,48.6196856],[2.2666073,48.6200321],[2.2666061,48.6200562],[2.2668421,48.6201774],[2.2665405,48.6205704],[2.2668651,48.6212371],[2.2669513,48.6215319],[2.2668137,48.62161]]]]},"properties":{"code_section":"91333000AB","code_commune":"91333","section_courte":"AB"}},{"type":"Feature","geometry":{"type":"MultiPolygon","coordinates":[[[[2.2689594,48.6112062],[2.2690452,48.6116352],[2.2692415,48.6120768],[2.2691054,48.6121854],[2.2689431,48.6125101],[2.2690811,48.6125821],[2.2693004,48.6127662],[2.2693635,48.6132403],[2.2692961,48.6135402],[2.2687448,48.6140485],[2.2686856,48.6146445],[2.2688896,48.6151383],[2.268742,48.6154327],[2.2684768,48.6155438],[2.2681622,48.6157801],[2.2673185,48.6161575],[2.2638206,48.6176397],[2.260645,48.6188867],[2.2600778,48.6172626],[2.2593698,48.6161222],[2.2623617,48.6149789],[2.2624238,48.6148907],[2.2627155,48.6146616],[2.2623256,48.6141852],[2.2623459,48.6136801],[2.2617291,48.6132567],[2.2617315,48.6132219],[2.2619488,48.6131117],[2.2624285,48.6129711],[2.2629305,48.6129281],[2.263558,48.6128331],[2.2639646,48.6126208],[2.2642123,48.6122575],[2.2643142,48.6121661],[2.265969,48.6110441],[2.2660898,48.6111647],[2.2668449,48.6110603],[2.2674084,48.6111332],[2.2689547,48.611176],[2.2689594,48.6112062]]]]},"properties":{"code_section":"91333000AC","code_commune":"91333","section_courte":"AC"}},{"type":"Feature","geometry":{"type":"MultiPolygon","coordinates":[[[[2.2590224,48.6104919],[2.2590754,48.6105458],[2.2591685,48.6105087],[2.2590771,48.6104046],[2.2590917,48.6103677],[2.259991,48.6100183],[2.260068,48.6100112],[2.2602833,48.6102167],[2.2604189,48.610551],[2.2615142,48.6102816],[2.2616654,48.6103549],[2.2617783,48.6105315],[2.2619273,48.6109085],[2.2638878,48.6101519],[2.2643388,48.6106207],[2.2651835,48.6101402],[2.2653754,48.6104374],[2.26675,48.6097017],[2.2668218,48.6097566],[2.2668283,48.6104544],[2.2668984,48.6110672],[2.2660898,48.6111647],[2.265969,48.6110441],[2.2643142,48.6121661],[2.2642123,48.6122575],[2.2639646,48.6126208],[2.263558,48.6128331],[2.2629305,48.6129281],[2.2624285,48.6129711],[2.2619488,48.6131117],[2.2617315,48.6132219],[2.2617291,48.6132567],[2.2623459,48.6136801],[2.2623256,48.6141852],[2.2627155,48.6146616],[2.2624238,48.6148907],[2.2623617,48.6149789],[2.2593698,48.6161222],[2.2575882,48.6134336],[2.2571381,48.6124501],[2.2568409,48.6114297],[2.2566128,48.6104508],[2.2567406,48.610615],[2.2568629,48.6107014],[2.2573598,48.6109138],[2.2574612,48.6109181],[2.2582369,48.6108043],[2.2590224,48.6104919]]]]},"properties":{"code_section":"91333000AD","code_commune":"91333","section_courte":"AD"}},{"type":"Feature","geometry":{"type":"MultiPolygon","coordinates":[[[[2.2614637,48.6102573],[2.2615142,48.6102816],[2.2604189,48.610551],[2.2602833,48.6102167],[2.2601213,48.610034],[2.2600295,48.6100096],[2.2590917,48.6103677],[2.2590771,48.6104046],[2.2591685,48.6105087],[2.2590754,48.6105458],[2.2590224,48.6104919],[2.2582369,48.6108043],[2.2577378,48.6108849],[2.2573598,48.6109138],[2.2568629,48.6107014],[2.2567406,48.610615],[2.2566128,48.6104508],[2.2561109,48.609675],[2.2559535,48.6093439],[2.2558793,48.6090774],[2.2556091,48.6069597],[2.2557169,48.6063687],[2.2560808,48.6063808],[2.2564707,48.6063489],[2.2580004,48.6060665],[2.2586424,48.6061553],[2.2590803,48.6061487],[2.2598513,48.6059623],[2.2606254,48.6056171],[2.2612724,48.6062045],[2.2603847,48.6063412],[2.2596685,48.606571],[2.2598996,48.6069743],[2.2603674,48.6076224],[2.2604479,48.6078735],[2.260241,48.6079256],[2.2602419,48.6079698],[2.2593934,48.6081703],[2.2595672,48.6084737],[2.2596818,48.6087825],[2.259836,48.6089134],[2.259969,48.6092139],[2.2600789,48.6094835],[2.2601501,48.6099065],[2.2602498,48.6100005],[2.2606889,48.6098332],[2.2608612,48.6100321],[2.2612658,48.6101325],[2.2614637,48.6102573]]]]},"properties":{"code_section":"91333000AE","code_commune":"91333","section_courte":"AE"}}]}