{"type":"FeatureCollection","features":[{"type":"Feature","geometry":{"type":"MultiPolygon","coordinates":[[[[2.4445775,48.6021011],[2.4445513,48.6020715],[2.4443065,48.6021596],[2.4430946,48.6022753],[2.4418235,48.6015617],[2.4412271,48.601313],[2.4413952,48.6006845],[2.441542,48.6004619],[2.4418856,48.6001213],[2.4422547,48.5993798],[2.4425791,48.5983277],[2.4426387,48.5974802],[2.4427256,48.5971656],[2.442804,48.5970289],[2.4429261,48.5968459],[2.4434574,48.5962946],[2.4437456,48.5958578],[2.4449453,48.5943109],[2.4459124,48.5945774],[2.4460904,48.5943372],[2.4466179,48.5945444],[2.4466584,48.5944949],[2.4473744,48.5947709],[2.4474468,48.5947228],[2.4488915,48.5952208],[2.449347,48.5947405],[2.4503502,48.5951621],[2.4503072,48.5951894],[2.4507147,48.5953989],[2.4502811,48.5958945],[2.4500556,48.5962145],[2.4497263,48.5969362],[2.4494528,48.5978238],[2.4492871,48.5985707],[2.4489487,48.5988409],[2.4488827,48.5990053],[2.4490164,48.6002102],[2.4493445,48.6007081],[2.4496536,48.6017696],[2.4498046,48.6021074],[2.4499862,48.6023163],[2.4501735,48.6024837],[2.4507126,48.6028042],[2.4519569,48.6031228],[2.4525741,48.6031425],[2.4532475,48.6031187],[2.4541249,48.6032048],[2.4547678,48.6034261],[2.4552167,48.6036195],[2.4560629,48.6041174],[2.4564004,48.6042365],[2.4566486,48.6042555],[2.4574042,48.6042183],[2.458065,48.6043718],[2.4582436,48.6044684],[2.4571734,48.6045613],[2.4566782,48.6046425],[2.4560645,48.6046511],[2.4542996,48.6043373],[2.4538724,48.6043095],[2.4532273,48.6046446],[2.4528683,48.6048796],[2.4517112,48.6047094],[2.4516378,48.6048293],[2.4506356,48.6049923],[2.4505043,48.6050302],[2.4503858,48.6051288],[2.4501717,48.605206],[2.449232,48.6050194],[2.4482564,48.6046493],[2.448294,48.6046145],[2.4475691,48.6044838],[2.446414,48.6040391],[2.4463699,48.6040739],[2.446055,48.603867],[2.446376,48.6036564],[2.4459697,48.6033657],[2.4456766,48.6035407],[2.4454815,48.6033866],[2.4450904,48.6027246],[2.4445775,48.6021011]]]]},"properties":{"code_section":"913400000B","code_commune":"91340","section_courte":"B"}},{"type":"Feature","geometry":{"type":"MultiPolygon","coordinates":[[[[2.4390132,48.6003256],[2.4404954,48.5980646],[2.4409653,48.5972115],[2.4417757,48.5954887],[2.4415956,48.5951553],[2.4437456,48.5958578],[2.4434574,48.5962946],[2.4429261,48.5968459],[2.4427256,48.5971656],[2.4426387,48.5974802],[2.4425791,48.5983277],[2.4422547,48.5993798],[2.4418856,48.6001213],[2.441542,48.6004619],[2.4413952,48.6006845],[2.4412271,48.601313],[2.4392371,48.600524],[2.4389332,48.6004501],[2.4390132,48.6003256]]],[[[2.4278489,48.5932932],[2.427726,48.593388],[2.4303137,48.5891575],[2.4316492,48.5899621],[2.4327839,48.5909072],[2.4341313,48.5900137],[2.4360913,48.5911444],[2.4369928,48.5917642],[2.4374633,48.5920279],[2.4371333,48.5921308],[2.4366117,48.5923623],[2.4363045,48.592591],[2.4361004,48.5928835],[2.435651,48.5938802],[2.4358055,48.5942747],[2.4351746,48.5945459],[2.4334459,48.592776],[2.4330857,48.5923448],[2.4323894,48.5913577],[2.4318519,48.59079],[2.4316557,48.5906679],[2.4320536,48.5903656],[2.4318877,48.5902206],[2.4278489,48.5932932]]]]},"properties":{"code_section":"913400000C","code_commune":"91340","section_courte":"C"}},{"type":"Feature","geometry":{"type":"MultiPolygon","coordinates":[[[[2.4297871,48.5900208],[2.4276314,48.5935429],[2.4275357,48.5935177],[2.4262283,48.5945079],[2.4222355,48.5939156],[2.4212291,48.595354],[2.419893,48.5945404],[2.4196655,48.5948344],[2.4188442,48.5945613],[2.4187377,48.5946916],[2.4186432,48.5946646],[2.418378,48.595],[2.4182406,48.594959],[2.4178432,48.5950427],[2.4171886,48.5948535],[2.4170462,48.5945818],[2.416922,48.5945425],[2.4171584,48.5941938],[2.4170605,48.5941566],[2.4171628,48.5939998],[2.4163754,48.5937372],[2.4165845,48.5934305],[2.4144077,48.5926854],[2.4125459,48.5901621],[2.4124264,48.5900568],[2.4123791,48.5898876],[2.4124152,48.5897927],[2.4096971,48.5891817],[2.4119336,48.5875236],[2.4110127,48.5871524],[2.4119007,48.5862062],[2.4131893,48.5866556],[2.4154589,48.5839975],[2.4148101,48.5837183],[2.4162076,48.5818162],[2.4159599,48.581708],[2.4177505,48.5802807],[2.4179619,48.5802805],[2.418,48.5802141],[2.4180156,48.5798949],[2.4178787,48.5797217],[2.4159527,48.5779639],[2.4181595,48.576714],[2.4170702,48.575697],[2.4187987,48.5748596],[2.4191783,48.5751836],[2.4196968,48.5748481],[2.4216468,48.5737329],[2.4216842,48.5736572],[2.4223263,48.5732734],[2.4224704,48.5733923],[2.4226093,48.5734176],[2.4238433,48.5731937],[2.4240341,48.5732251],[2.4242526,48.5733334],[2.4244518,48.5734848],[2.4245029,48.5736614],[2.4243112,48.5740319],[2.4243036,48.5741554],[2.4243598,48.5742326],[2.4248882,48.5744312],[2.4253279,48.574636],[2.4255541,48.574776],[2.425731,48.5749767],[2.4264377,48.575204],[2.42653,48.5752698],[2.4267151,48.5755288],[2.4267842,48.5755627],[2.426936,48.5755706],[2.4272913,48.57551],[2.4276819,48.5755122],[2.4279751,48.5756713],[2.4282059,48.5757003],[2.4293161,48.5756176],[2.4295402,48.5756252],[2.4297909,48.5757187],[2.4302848,48.5760057],[2.4313518,48.5763998],[2.4316413,48.5764923],[2.4321931,48.5765779],[2.4330084,48.5766117],[2.4348818,48.576608],[2.4351565,48.5765964],[2.4355425,48.5765283],[2.4364661,48.5764715],[2.4367283,48.5765483],[2.4371386,48.5768222],[2.4373826,48.5769447],[2.4375538,48.5769873],[2.4383942,48.5771006],[2.4389358,48.5770598],[2.4391611,48.5771305],[2.4386904,48.5784927],[2.4367151,48.5810257],[2.43411,48.580143],[2.4333845,48.5831536],[2.4340265,48.5832665],[2.4352239,48.5834228],[2.4351136,48.5837745],[2.4347004,48.5846141],[2.432329,48.5889878],[2.4341313,48.5900137],[2.4327839,48.5909072],[2.4316492,48.5899621],[2.4303137,48.5891575],[2.4297871,48.5900208]]]]},"properties":{"code_section":"913400000D","code_commune":"91340","section_courte":"D"}},{"type":"Feature","geometry":{"type":"MultiPolygon","coordinates":[[[[2.4066711,48.6071125],[2.4073997,48.608866],[2.4060873,48.6091583],[2.4060296,48.6091362],[2.4012337,48.6097148],[2.4012251,48.6096805],[2.3999758,48.6098116],[2.3985455,48.6071736],[2.3995557,48.6070246],[2.3992387,48.6062749],[2.3991059,48.6058134],[2.3997206,48.6056444],[2.3996631,48.6051409],[2.4004798,48.6051128],[2.4014618,48.6050178],[2.4021548,48.6048257],[2.4020974,48.6042262],[2.4022594,48.6040788],[2.4020278,48.6039778],[2.4015446,48.6040523],[2.4012789,48.6037199],[2.3997929,48.6025838],[2.4032484,48.6011676],[2.4051118,48.6006506],[2.4051939,48.6003666],[2.406334,48.6003177],[2.4061357,48.5993391],[2.4093628,48.605325],[2.4094609,48.6053431],[2.4061083,48.6057535],[2.4066711,48.6071125]]],[[[2.4222089,48.5975493],[2.4219902,48.5977212],[2.4220346,48.5977682],[2.4219781,48.5978167],[2.4217857,48.5978845],[2.4209529,48.5978336],[2.4197826,48.5976744],[2.4190301,48.5976435],[2.4184741,48.5975675],[2.4156334,48.5969788],[2.4105739,48.5961369],[2.4096238,48.595946],[2.4091723,48.5958216],[2.408656,48.5956476],[2.4076782,48.5952435],[2.4070711,48.5950636],[2.4070937,48.5950219],[2.4070272,48.5950132],[2.407127,48.5949081],[2.4068156,48.5948754],[2.4065766,48.5947844],[2.4060962,48.5947641],[2.4056182,48.5946883],[2.4054547,48.5946036],[2.4053516,48.5943333],[2.4052232,48.5942043],[2.4052199,48.5940487],[2.405163,48.5939953],[2.404747,48.5938215],[2.4027061,48.5931572],[2.4018484,48.5930001],[2.3995651,48.5924727],[2.3990308,48.5923079],[2.394594,48.5901712],[2.3947375,48.5900945],[2.3936753,48.589291],[2.3937798,48.5892028],[2.3939525,48.5892987],[2.3949062,48.5900351],[2.3973138,48.5891142],[2.3978865,48.5894616],[2.3995599,48.5916756],[2.4003269,48.5911867],[2.4010337,48.5908003],[2.4014616,48.5906054],[2.4036566,48.5918258],[2.4046729,48.5910087],[2.4046997,48.5910184],[2.4068731,48.5893413],[2.4074538,48.5887776],[2.4096971,48.5891817],[2.4124152,48.5897927],[2.4123791,48.5898876],[2.4124264,48.5900568],[2.4125459,48.5901621],[2.4144077,48.5926854],[2.4165845,48.5934305],[2.4163754,48.5937372],[2.4171628,48.5939998],[2.4170605,48.5941566],[2.4171584,48.5941938],[2.416922,48.5945425],[2.4170462,48.5945818],[2.4171886,48.5948535],[2.4178432,48.5950427],[2.4182406,48.594959],[2.418378,48.595],[2.4186432,48.5946646],[2.4187377,48.5946916],[2.4188442,48.5945613],[2.4196655,48.5948344],[2.419893,48.5945404],[2.4212291,48.595354],[2.4222355,48.5939156],[2.4262283,48.5945079],[2.4237098,48.5964136],[2.4235962,48.5964031],[2.4235767,48.5965137],[2.4222089,48.5975493]]]]},"properties":{"code_section":"913400000E","code_commune":"91340","section_courte":"E"}},{"type":"Feature","geometry":{"type":"MultiPolygon","coordinates":[[[[2.4311396,48.608899],[2.4305818,48.6086401],[2.4293846,48.6082874],[2.4278625,48.6083379],[2.4260383,48.6081827],[2.4266623,48.6073447],[2.4273999,48.6065958],[2.4283582,48.6058452],[2.4297245,48.6048642],[2.4307112,48.6055089],[2.4329168,48.6040195],[2.4343229,48.6052867],[2.4364826,48.604911],[2.4347826,48.6074839],[2.43291,48.6106035],[2.4320765,48.6105996],[2.4322636,48.6102999],[2.4323469,48.6099283],[2.4322032,48.6095087],[2.4316659,48.6091439],[2.4311396,48.608899]]]]},"properties":{"code_section":"91340000AA","code_commune":"91340","section_courte":"AA"}},{"type":"Feature","geometry":{"type":"MultiPolygon","coordinates":[[[[2.4273346,48.6132463],[2.4268533,48.6133784],[2.4265851,48.6133583],[2.4245476,48.6134488],[2.4253198,48.6094435],[2.4258739,48.6083999],[2.4260383,48.6081827],[2.4278625,48.6083379],[2.4293846,48.6082874],[2.4305818,48.6086401],[2.4316659,48.6091439],[2.4322032,48.6095087],[2.4323469,48.6099283],[2.4322636,48.6102999],[2.4320765,48.6105996],[2.43291,48.6106035],[2.4324741,48.6119374],[2.4273346,48.6132463]]]]},"properties":{"code_section":"91340000AB","code_commune":"91340","section_courte":"AB"}},{"type":"Feature","geometry":{"type":"MultiPolygon","coordinates":[[[[2.4241403,48.6089039],[2.4242798,48.6089782],[2.4246279,48.6083264],[2.4258739,48.6083999],[2.4253198,48.6094435],[2.4245476,48.6134488],[2.421294,48.6136133],[2.4198765,48.6137801],[2.4185069,48.6138877],[2.4172739,48.6139006],[2.4160896,48.6138196],[2.4195408,48.6081887],[2.4218447,48.6088151],[2.4223737,48.6079585],[2.4241403,48.6089039]]]]},"properties":{"code_section":"91340000AC","code_commune":"91340","section_courte":"AC"}},{"type":"Feature","geometry":{"type":"MultiPolygon","coordinates":[[[[2.4176276,48.6110444],[2.4177748,48.61107],[2.4160896,48.6138196],[2.4159317,48.6137874],[2.4150409,48.6137638],[2.4141414,48.6136048],[2.4124733,48.6135595],[2.4116149,48.6134936],[2.4109443,48.6135006],[2.4095249,48.6134493],[2.4077959,48.6134925],[2.4077028,48.6132033],[2.4092839,48.6119688],[2.4092569,48.6117738],[2.4090671,48.6114379],[2.4103848,48.6100104],[2.4126944,48.6093726],[2.4144408,48.6105245],[2.4145165,48.6104707],[2.4150868,48.6108317],[2.4168884,48.6109369],[2.4176276,48.6110444]]]]},"properties":{"code_section":"91340000AD","code_commune":"91340","section_courte":"AD"}},{"type":"Feature","geometry":{"type":"MultiPolygon","coordinates":[[[[2.4201989,48.6069568],[2.4203008,48.606948],[2.4177748,48.61107],[2.4168884,48.6109369],[2.4150868,48.6108317],[2.4145165,48.6104707],[2.4144408,48.6105245],[2.4126944,48.6093726],[2.4104225,48.609999],[2.4118387,48.6084369],[2.4121131,48.6083658],[2.4129782,48.6087003],[2.4132584,48.6086567],[2.4139399,48.6079265],[2.4147704,48.6077514],[2.4150555,48.6083703],[2.4181347,48.6078434],[2.4196205,48.6076666],[2.4200516,48.6069679],[2.4201989,48.6069568]]]]},"properties":{"code_section":"91340000AE","code_commune":"91340","section_courte":"AE"}},{"type":"Feature","geometry":{"type":"MultiPolygon","coordinates":[[[[2.4208542,48.6056679],[2.4210527,48.6057215],[2.4203008,48.606948],[2.4200516,48.6069679],[2.4196205,48.6076666],[2.4181347,48.6078434],[2.4150555,48.6083703],[2.4147704,48.6077514],[2.4139399,48.6079265],[2.4132584,48.6086567],[2.4129782,48.6087003],[2.4121131,48.6083658],[2.4118387,48.6084369],[2.4119376,48.6083312],[2.4119078,48.6083188],[2.4134476,48.6066591],[2.4134817,48.606671],[2.4135707,48.6066148],[2.4155416,48.6045019],[2.4155974,48.6045169],[2.4157909,48.6043096],[2.4168963,48.6047642],[2.4168181,48.6048486],[2.4197162,48.6056393],[2.4198647,48.6053989],[2.4208542,48.6056679]]]]},"properties":{"code_section":"91340000AH","code_commune":"91340","section_courte":"AH"}},{"type":"Feature","geometry":{"type":"MultiPolygon","coordinates":[[[[2.4208542,48.6056679],[2.4198647,48.6053989],[2.4197162,48.6056393],[2.4168181,48.6048486],[2.4168963,48.6047642],[2.4157909,48.6043096],[2.4155974,48.6045169],[2.4155416,48.6045019],[2.4171361,48.6027991],[2.4178819,48.6023787],[2.4179458,48.6023996],[2.4183128,48.6022006],[2.4191153,48.6021482],[2.4196192,48.6021824],[2.4201379,48.6022874],[2.422723,48.6029955],[2.4210527,48.6057215],[2.4208542,48.6056679]]]]},"properties":{"code_section":"91340000AI","code_commune":"91340","section_courte":"AI"}},{"type":"Feature","geometry":{"type":"MultiPolygon","coordinates":[[[[2.4171563,48.6027125],[2.417264,48.6026651],[2.4174559,48.6024608],[2.4154677,48.602507],[2.4154177,48.6019332],[2.4154503,48.6018053],[2.4165516,48.6005522],[2.4165868,48.6004354],[2.4150993,48.5983652],[2.4153742,48.5982791],[2.4145917,48.5972013],[2.4144187,48.5970499],[2.4144468,48.5967831],[2.4156334,48.5969788],[2.4184741,48.5975675],[2.4190301,48.5976435],[2.4197826,48.5976744],[2.4209529,48.5978336],[2.4217857,48.5978845],[2.4225876,48.5975366],[2.4241354,48.5977726],[2.4250041,48.5978349],[2.4244415,48.6001906],[2.422723,48.6029955],[2.4201379,48.6022874],[2.4196192,48.6021824],[2.4191153,48.6021482],[2.4183128,48.6022006],[2.4179458,48.6023996],[2.4178819,48.6023787],[2.4171074,48.6028293],[2.4164962,48.6031284],[2.4163541,48.6031576],[2.4164468,48.6030594],[2.4171563,48.6027125]]]]},"properties":{"code_section":"91340000AK","code_commune":"91340","section_courte":"AK"}},{"type":"Feature","geometry":{"type":"MultiPolygon","coordinates":[[[[2.4227449,48.6030025],[2.4235979,48.6031688],[2.4251099,48.6032377],[2.4257614,48.6033255],[2.427559,48.6038402],[2.4281308,48.6039256],[2.4290213,48.6040065],[2.4286771,48.6042395],[2.4287617,48.604294],[2.4289768,48.6041717],[2.4292983,48.6041432],[2.429436,48.6041707],[2.4295861,48.6042455],[2.4297333,48.6044374],[2.4297203,48.6046018],[2.4295654,48.6047603],[2.4297245,48.6048642],[2.4283582,48.6058452],[2.4273999,48.6065958],[2.4266623,48.6073447],[2.4258739,48.6083999],[2.4246279,48.6083264],[2.4242798,48.6089782],[2.4223737,48.6079585],[2.4218447,48.6088151],[2.4195408,48.6081887],[2.4227449,48.6030025]]]]},"properties":{"code_section":"91340000AL","code_commune":"91340","section_courte":"AL"}},{"type":"Feature","geometry":{"type":"MultiPolygon","coordinates":[[[[2.4229059,48.6030435],[2.422723,48.6029955],[2.4244415,48.6001906],[2.4248298,48.5985391],[2.425186,48.5985328],[2.4251774,48.5987565],[2.4252582,48.5990438],[2.4253232,48.5990932],[2.4257927,48.5992567],[2.4268245,48.5995156],[2.4275175,48.599611],[2.4278413,48.5997021],[2.4278638,48.5996732],[2.4291658,48.6003685],[2.431394,48.6008566],[2.4315503,48.6005545],[2.4323449,48.6007361],[2.4330144,48.5994658],[2.4352023,48.5998277],[2.4290213,48.6040065],[2.4281308,48.6039256],[2.427559,48.6038402],[2.4269981,48.6036956],[2.4261858,48.6034311],[2.4255227,48.6032864],[2.4249168,48.6032242],[2.4235979,48.6031688],[2.4229059,48.6030435]]]]},"properties":{"code_section":"91340000AM","code_commune":"91340","section_courte":"AM"}},{"type":"Feature","geometry":{"type":"MultiPolygon","coordinates":[[[[2.4362279,48.6049516],[2.4343229,48.6052867],[2.4329168,48.6040195],[2.4307112,48.6055089],[2.4295654,48.6047603],[2.4296968,48.6046403],[2.4297387,48.6045276],[2.4297185,48.6043934],[2.4295861,48.6042455],[2.429436,48.6041707],[2.4292244,48.6041395],[2.4289768,48.6041717],[2.4287617,48.604294],[2.4286771,48.6042395],[2.4353053,48.5997569],[2.4354617,48.5994896],[2.4367582,48.5998237],[2.4368004,48.5999305],[2.4393269,48.6005598],[2.4364826,48.604911],[2.4362279,48.6049516]]]]},"properties":{"code_section":"91340000AN","code_commune":"91340","section_courte":"AN"}},{"type":"Feature","geometry":{"type":"MultiPolygon","coordinates":[[[[2.4430257,48.6098346],[2.4428555,48.6107311],[2.4399265,48.6105272],[2.4389892,48.6105188],[2.4381141,48.6105616],[2.4324741,48.6119374],[2.43291,48.6106035],[2.4347826,48.6074839],[2.4393269,48.6005598],[2.4418235,48.6015617],[2.4430946,48.6022753],[2.4443708,48.6034901],[2.445794,48.6045272],[2.4470713,48.6050885],[2.4487152,48.6056404],[2.4463298,48.6085242],[2.4456322,48.608444],[2.4445827,48.6094011],[2.4432882,48.6088589],[2.4430257,48.6098346]]]]},"properties":{"code_section":"91340000AO","code_commune":"91340","section_courte":"AO"}},{"type":"Feature","geometry":{"type":"MultiPolygon","coordinates":[[[[2.4463694,48.603652],[2.446055,48.603867],[2.4463699,48.6040739],[2.446414,48.6040391],[2.4475691,48.6044838],[2.448294,48.6046145],[2.4482564,48.6046493],[2.449232,48.6050194],[2.4501486,48.6051901],[2.4494497,48.6059122],[2.4470713,48.6050885],[2.445794,48.6045272],[2.4443708,48.6034901],[2.4430946,48.6022753],[2.4443065,48.6021596],[2.4445513,48.6020715],[2.4450904,48.6027246],[2.4454815,48.6033866],[2.4456766,48.6035407],[2.4459697,48.6033657],[2.4463694,48.603652]]]]},"properties":{"code_section":"91340000AP","code_commune":"91340","section_courte":"AP"}},{"type":"Feature","geometry":{"type":"MultiPolygon","coordinates":[[[[2.4358517,48.5822459],[2.4354403,48.5831537],[2.4354838,48.5831534],[2.4354191,48.5834348],[2.4340265,48.5832665],[2.4333845,48.5831536],[2.43411,48.580143],[2.4366793,48.5810192],[2.4360575,48.5818001],[2.4358517,48.5822459]]]]},"properties":{"code_section":"91340000AT","code_commune":"91340","section_courte":"AT"}},{"type":"Feature","geometry":{"type":"MultiPolygon","coordinates":[[[[2.4383377,48.5924985],[2.4388426,48.5927677],[2.4403333,48.593291],[2.4402049,48.5934254],[2.4405324,48.5935409],[2.4396805,48.5944783],[2.4415956,48.5951553],[2.4417757,48.5954887],[2.4409653,48.5972115],[2.4404954,48.5980646],[2.4389332,48.6004501],[2.4368004,48.5999305],[2.4367582,48.5998237],[2.4354617,48.5994896],[2.436307,48.5986187],[2.4366654,48.5978541],[2.436734,48.597166],[2.4366664,48.5966041],[2.4364008,48.5960208],[2.4357619,48.5951471],[2.4351746,48.5945459],[2.4358055,48.5942747],[2.435651,48.5938802],[2.4361004,48.5928835],[2.4363045,48.592591],[2.4366117,48.5923623],[2.4371333,48.5921308],[2.4374633,48.5920279],[2.4383377,48.5924985]]]]},"properties":{"code_section":"91340000AX","code_commune":"91340","section_courte":"AX"}},{"type":"Feature","geometry":{"type":"MultiPolygon","coordinates":[[[[2.427726,48.593388],[2.4318877,48.5902206],[2.4320536,48.5903656],[2.4316557,48.5906679],[2.4318519,48.59079],[2.4323894,48.5913577],[2.4330857,48.5923448],[2.4334459,48.592776],[2.4357619,48.5951471],[2.4364008,48.5960208],[2.4366664,48.5966041],[2.436734,48.597166],[2.4366654,48.5978541],[2.436307,48.5986187],[2.4354351,48.5995178],[2.4345609,48.5992372],[2.4340551,48.5989945],[2.433342,48.5985549],[2.4329059,48.5983511],[2.432209,48.5981627],[2.4307195,48.5978578],[2.430869,48.5975116],[2.4306757,48.5974801],[2.4309583,48.5968244],[2.4314171,48.5967314],[2.4319298,48.5954725],[2.4303045,48.5951503],[2.4304673,48.5947725],[2.4302004,48.5949167],[2.429928,48.5950172],[2.4269759,48.5946177],[2.427726,48.593388]]]]},"properties":{"code_section":"91340000AY","code_commune":"91340","section_courte":"AY"}},{"type":"Feature","geometry":{"type":"MultiPolygon","coordinates":[[[[2.4269759,48.5946177],[2.429928,48.5950172],[2.4302004,48.5949167],[2.4304673,48.5947725],[2.4303045,48.5951503],[2.4319298,48.5954725],[2.4314171,48.5967314],[2.4309583,48.5968244],[2.4306757,48.5974801],[2.430869,48.5975116],[2.4307195,48.5978578],[2.432209,48.5981627],[2.4329059,48.5983511],[2.433342,48.5985549],[2.4340551,48.5989945],[2.4345609,48.5992372],[2.4354351,48.5995178],[2.4353053,48.5997569],[2.4352023,48.5998277],[2.4330144,48.5994658],[2.4323449,48.6007361],[2.4315503,48.6005545],[2.431394,48.6008566],[2.4291658,48.6003685],[2.4278638,48.5996732],[2.4278413,48.5997021],[2.4275175,48.599611],[2.4268245,48.5995156],[2.4257927,48.5992567],[2.4253232,48.5990932],[2.4252582,48.5990438],[2.4251774,48.5987565],[2.425186,48.5985328],[2.4248298,48.5985391],[2.4250041,48.5978349],[2.4241354,48.5977726],[2.4225876,48.5975366],[2.4220346,48.5977682],[2.4219902,48.5977212],[2.4235767,48.5965137],[2.4235962,48.5964031],[2.4237098,48.5964136],[2.4275357,48.5935177],[2.4276314,48.5935429],[2.4269759,48.5946177]]]]},"properties":{"code_section":"91340000AZ","code_commune":"91340","section_courte":"AZ"}},{"type":"Feature","geometry":{"type":"MultiPolygon","coordinates":[[[[2.4063017,48.6062189],[2.4061083,48.6057535],[2.4094609,48.6053431],[2.4096239,48.6053738],[2.4111365,48.6052066],[2.4118325,48.6051023],[2.412281,48.6050235],[2.4127397,48.6048415],[2.4158394,48.6041782],[2.4135707,48.6066148],[2.4134817,48.606671],[2.4134476,48.6066591],[2.4133412,48.6067731],[2.4119078,48.6083188],[2.4119376,48.6083312],[2.4104225,48.609999],[2.4090671,48.6114379],[2.4088901,48.6107998],[2.4080881,48.6087154],[2.4073997,48.608866],[2.4063017,48.6062189]]]]},"properties":{"code_section":"91340000BA","code_commune":"91340","section_courte":"BA"}},{"type":"Feature","geometry":{"type":"MultiPolygon","coordinates":[[[[2.4154598,48.6024219],[2.4154677,48.602507],[2.4174559,48.6024608],[2.417264,48.6026651],[2.4164468,48.6030593],[2.4163604,48.6031508],[2.4164962,48.6031284],[2.4171074,48.6028293],[2.4158394,48.6041782],[2.4127397,48.6048415],[2.4121924,48.6050401],[2.4111365,48.6052066],[2.4096239,48.6053738],[2.4093628,48.605325],[2.4066559,48.6003044],[2.4150693,48.5983243],[2.4165603,48.6003638],[2.4165883,48.6004461],[2.4165516,48.6005522],[2.4154503,48.6018053],[2.4154177,48.6019332],[2.4154598,48.6024219]]]]},"properties":{"code_section":"91340000BB","code_commune":"91340","section_courte":"BB"}},{"type":"Feature","geometry":{"type":"MultiPolygon","coordinates":[[[[2.4058194,48.5977139],[2.4070711,48.5950636],[2.4076782,48.5952435],[2.4089039,48.595739],[2.4096238,48.595946],[2.4105739,48.5961369],[2.4144468,48.5967831],[2.4144187,48.5970499],[2.4145917,48.5972013],[2.4153742,48.5982791],[2.4150993,48.5983652],[2.4150693,48.5983243],[2.4066559,48.6003044],[2.4061357,48.5993392],[2.405767,48.597719],[2.4058194,48.5977139]]]]},"properties":{"code_section":"91340000BC","code_commune":"91340","section_courte":"BC"}}]}