{"type":"FeatureCollection","features":[{"type":"Feature","geometry":{"type":"MultiPolygon","coordinates":[[[[2.2803033,48.6556449],[2.2807164,48.656253],[2.280819,48.6573103],[2.2825477,48.6589919],[2.2828823,48.6589299],[2.2831533,48.6592503],[2.2830631,48.659267],[2.2826361,48.6594887],[2.2805142,48.6597127],[2.2786062,48.660123],[2.2760917,48.6604263],[2.2746242,48.6566404],[2.2803033,48.6556449]]]]},"properties":{"code_section":"91347000AA","code_commune":"91347","section_courte":"AA"}},{"type":"Feature","geometry":{"type":"MultiPolygon","coordinates":[[[[2.2896419,48.6527483],[2.2900107,48.653148],[2.2901071,48.6533507],[2.2901326,48.6535623],[2.2900647,48.6539314],[2.2901176,48.6542302],[2.2910694,48.6558409],[2.2913916,48.6575992],[2.2900232,48.657673],[2.2889757,48.6575989],[2.2885686,48.6576428],[2.2847422,48.6588028],[2.2831533,48.6592503],[2.2828823,48.6589299],[2.2825477,48.6589919],[2.280819,48.6573103],[2.2807164,48.656253],[2.2803033,48.6556449],[2.2803637,48.6556467],[2.283301,48.6542387],[2.2835682,48.6541856],[2.2858488,48.6540211],[2.2857815,48.6539351],[2.2858972,48.6539063],[2.286002,48.6539368],[2.2865853,48.6539845],[2.2869878,48.653729],[2.2871166,48.6537274],[2.287308,48.6536452],[2.2877402,48.6533815],[2.2880999,48.6533332],[2.2885857,48.6531015],[2.2887339,48.6529844],[2.2890065,48.6529083],[2.2891501,48.6528297],[2.2894199,48.6528157],[2.2896419,48.6527483]]]]},"properties":{"code_section":"91347000AB","code_commune":"91347","section_courte":"AB"}},{"type":"Feature","geometry":{"type":"MultiPolygon","coordinates":[[[[2.2813024,48.654268],[2.2812284,48.6541654],[2.2804845,48.6538058],[2.2787725,48.6534303],[2.2784966,48.6528523],[2.2774042,48.6515197],[2.2778096,48.6515854],[2.27812,48.6515845],[2.2803223,48.6513083],[2.2808373,48.6513134],[2.2818247,48.6514446],[2.2826829,48.6516598],[2.2829469,48.6508389],[2.2831746,48.650594],[2.2843492,48.6500655],[2.2849515,48.6498889],[2.2856666,48.6497346],[2.2865746,48.6494787],[2.2871703,48.6493732],[2.2876537,48.6493332],[2.2881631,48.6497057],[2.2883306,48.6502666],[2.2884126,48.6509472],[2.2891862,48.6521619],[2.2896419,48.6527483],[2.2894199,48.6528157],[2.2891501,48.6528297],[2.2890065,48.6529083],[2.2887339,48.6529844],[2.2885857,48.6531015],[2.2880999,48.6533332],[2.2877402,48.6533815],[2.287308,48.6536452],[2.2871166,48.6537274],[2.2869878,48.653729],[2.2866125,48.6539772],[2.2864576,48.6539873],[2.2863572,48.6539508],[2.286002,48.6539368],[2.2858972,48.6539063],[2.2857815,48.6539351],[2.2858488,48.6540211],[2.2835682,48.6541856],[2.283301,48.6542387],[2.2819528,48.6548909],[2.2813024,48.654268]]]]},"properties":{"code_section":"91347000AC","code_commune":"91347","section_courte":"AC"}},{"type":"Feature","geometry":{"type":"MultiPolygon","coordinates":[[[[2.2778695,48.6560595],[2.2775439,48.6561152],[2.2775538,48.6561415],[2.2746242,48.6566404],[2.2727124,48.6517195],[2.2744397,48.6509812],[2.2745668,48.6509791],[2.2774042,48.6515197],[2.2784966,48.6528523],[2.2787725,48.6534303],[2.2804845,48.6538058],[2.2812284,48.6541654],[2.2819528,48.6548909],[2.2803637,48.6556467],[2.2802405,48.6556455],[2.2778695,48.6560595]]]]},"properties":{"code_section":"91347000AD","code_commune":"91347","section_courte":"AD"}},{"type":"Feature","geometry":{"type":"MultiPolygon","coordinates":[[[[2.2808373,48.6513134],[2.2803223,48.6513083],[2.27812,48.6515845],[2.2778096,48.6515854],[2.2745668,48.6509791],[2.27494,48.6506735],[2.2763349,48.6491741],[2.2764673,48.6489554],[2.2767562,48.6480527],[2.2775384,48.6465885],[2.2780388,48.6462512],[2.2783033,48.6464038],[2.2798978,48.6471431],[2.2800744,48.6472988],[2.2812897,48.6477172],[2.2820379,48.6478123],[2.2839771,48.6481986],[2.2844049,48.6482283],[2.2857144,48.6487005],[2.2875099,48.6491137],[2.2876537,48.6493332],[2.2871703,48.6493732],[2.2865746,48.6494787],[2.2856666,48.6497346],[2.2849515,48.6498889],[2.2843492,48.6500655],[2.2831746,48.650594],[2.2829469,48.6508389],[2.2826829,48.6516598],[2.2818247,48.6514446],[2.2808373,48.6513134]]]]},"properties":{"code_section":"91347000AE","code_commune":"91347","section_courte":"AE"}},{"type":"Feature","geometry":{"type":"MultiPolygon","coordinates":[[[[2.2844049,48.6482283],[2.2839771,48.6481986],[2.2820379,48.6478123],[2.2812897,48.6477172],[2.2800744,48.6472988],[2.2798978,48.6471431],[2.2783033,48.6464038],[2.2780388,48.6462512],[2.2788649,48.6456944],[2.279577,48.6452713],[2.2804783,48.6448615],[2.2816088,48.644448],[2.2820374,48.6443546],[2.2831395,48.6443743],[2.2837252,48.6443468],[2.2846426,48.6442014],[2.2860381,48.6438595],[2.2865462,48.6450292],[2.2867457,48.6454016],[2.2868665,48.6465876],[2.2871546,48.6472009],[2.2873852,48.6478653],[2.2874203,48.6486983],[2.2875099,48.6491137],[2.2857144,48.6487005],[2.2844049,48.6482283]]]]},"properties":{"code_section":"91347000AH","code_commune":"91347","section_courte":"AH"}},{"type":"Feature","geometry":{"type":"MultiPolygon","coordinates":[[[[2.2914294,48.6473994],[2.2933139,48.647249],[2.2933376,48.6473211],[2.2943964,48.6472024],[2.2946482,48.6478059],[2.2948608,48.6480778],[2.2962332,48.6477664],[2.2961002,48.6476856],[2.295988,48.6474389],[2.2978218,48.6471282],[2.2979683,48.6472186],[2.2981542,48.6473941],[2.2981713,48.6474577],[2.2980551,48.6478689],[2.2978793,48.6480549],[2.2977954,48.6482255],[2.2982238,48.648726],[2.298353,48.6490382],[2.2983518,48.6491366],[2.2981982,48.6494041],[2.2982199,48.649508],[2.2983073,48.6496364],[2.2986345,48.6498529],[2.2991206,48.6503119],[2.2989812,48.6503284],[2.2974113,48.6508147],[2.2971326,48.650727],[2.2969416,48.6507458],[2.2967699,48.6506936],[2.2965519,48.6507529],[2.2962139,48.6508912],[2.2961742,48.6509323],[2.2950678,48.6510329],[2.2942807,48.6513717],[2.2929641,48.6517216],[2.2926946,48.6519499],[2.2920557,48.652137],[2.2919392,48.6521096],[2.2917583,48.6522125],[2.2914798,48.6521956],[2.2913384,48.6523434],[2.2906,48.6525306],[2.2901841,48.6524802],[2.2900505,48.6524991],[2.2896419,48.6527483],[2.2891862,48.6521619],[2.2884126,48.6509472],[2.2883306,48.6502666],[2.2881631,48.6497057],[2.2876537,48.6493332],[2.2875099,48.6491137],[2.2874203,48.6486983],[2.2874037,48.64824],[2.2896965,48.6480846],[2.2895807,48.6482663],[2.2894136,48.6487011],[2.290001,48.6487443],[2.2912094,48.6487453],[2.2911407,48.6482466],[2.2910088,48.6477733],[2.291058,48.6476514],[2.2912535,48.6474135],[2.2914294,48.6473994]]]]},"properties":{"code_section":"91347000AI","code_commune":"91347","section_courte":"AI"}},{"type":"Feature","geometry":{"type":"MultiPolygon","coordinates":[[[[2.2978163,48.6443836],[2.2978194,48.6452851],[2.2981418,48.6456246],[2.2982784,48.6458233],[2.2982766,48.6459029],[2.2982141,48.6459855],[2.2972143,48.646388],[2.2970822,48.6465452],[2.297347,48.6468182],[2.2978218,48.6471282],[2.295988,48.6474389],[2.2961002,48.6476856],[2.2962201,48.6477716],[2.2948608,48.6480778],[2.2946482,48.6478059],[2.2943964,48.6472024],[2.2933376,48.6473211],[2.2933139,48.647249],[2.2912535,48.6474135],[2.291058,48.6476514],[2.2910088,48.6477733],[2.2911407,48.6482466],[2.2912094,48.6487453],[2.290001,48.6487443],[2.2894136,48.6487011],[2.2895807,48.6482663],[2.2896965,48.6480846],[2.2874037,48.64824],[2.2873345,48.6476625],[2.2868665,48.6465876],[2.2867457,48.6454016],[2.2865462,48.6450292],[2.2860381,48.6438595],[2.2889777,48.6433805],[2.2902104,48.6433258],[2.2905443,48.6432084],[2.2904729,48.6440185],[2.2916123,48.6441],[2.2930094,48.6443762],[2.2950816,48.6444574],[2.2949796,48.6436863],[2.2976541,48.6443723],[2.2978163,48.6443836]]]]},"properties":{"code_section":"91347000AK","code_commune":"91347","section_courte":"AK"}},{"type":"Feature","geometry":{"type":"MultiPolygon","coordinates":[[[[2.2978286,48.6443454],[2.2978163,48.6443836],[2.2976541,48.6443723],[2.2949796,48.6436863],[2.2950816,48.6444574],[2.2930094,48.6443762],[2.2916123,48.6441],[2.2904729,48.6440185],[2.2905443,48.6432084],[2.2903978,48.6432763],[2.2900621,48.6433466],[2.290004,48.6424103],[2.2901116,48.6424238],[2.2901988,48.6399082],[2.2902765,48.6400254],[2.2904277,48.6400813],[2.2910633,48.6400956],[2.2913047,48.6401666],[2.2915807,48.641196],[2.2916267,48.6418612],[2.2917099,48.6419342],[2.2923121,48.6420424],[2.292315,48.6419944],[2.2927718,48.6420058],[2.2927744,48.6419439],[2.2929359,48.6419478],[2.2931491,48.6420078],[2.293344,48.6413393],[2.2944729,48.641177],[2.2956325,48.6409536],[2.2961927,48.6407365],[2.2964095,48.6406836],[2.2977672,48.6405033],[2.2981036,48.640478],[2.2983411,48.6404957],[2.2981695,48.641193],[2.2979029,48.6417486],[2.2978655,48.6422331],[2.2976367,48.6428754],[2.2977646,48.6435304],[2.2978286,48.6443454]]]]},"properties":{"code_section":"91347000AL","code_commune":"91347","section_courte":"AL"}},{"type":"Feature","geometry":{"type":"MultiPolygon","coordinates":[[[[2.2802505,48.6410796],[2.281286,48.6409126],[2.2830678,48.6407789],[2.285929,48.640774],[2.286482,48.6407522],[2.2873221,48.6406601],[2.2882254,48.6404053],[2.2886222,48.6402213],[2.2889402,48.6401635],[2.2892078,48.6399897],[2.2901988,48.6399082],[2.2901116,48.6424238],[2.290004,48.6424103],[2.2900621,48.6433466],[2.2889777,48.6433805],[2.2860381,48.6438595],[2.2845226,48.644224],[2.2837252,48.6443468],[2.2831395,48.6443743],[2.2817771,48.6437603],[2.2813966,48.6438204],[2.2811909,48.6435309],[2.2812472,48.6435199],[2.2808281,48.6423975],[2.2806997,48.6424111],[2.2802505,48.6410796]]]]},"properties":{"code_section":"91347000AM","code_commune":"91347","section_courte":"AM"}},{"type":"Feature","geometry":{"type":"MultiPolygon","coordinates":[[[[2.2822945,48.635878],[2.2876735,48.6349129],[2.2889545,48.6347145],[2.2894159,48.6371506],[2.2900567,48.6378123],[2.290048,48.6384389],[2.2901988,48.6399082],[2.2892078,48.6399897],[2.2889402,48.6401635],[2.2886222,48.6402213],[2.2882254,48.6404053],[2.2873221,48.6406601],[2.286482,48.6407522],[2.285929,48.640774],[2.2830678,48.6407789],[2.2823069,48.6408276],[2.2820013,48.639718],[2.2822631,48.6396571],[2.2814138,48.6384375],[2.2812663,48.6382948],[2.2812403,48.6382141],[2.28164,48.637962],[2.2824943,48.6372686],[2.2825286,48.6371949],[2.2822945,48.635878]]]]},"properties":{"code_section":"91347000AN","code_commune":"91347","section_courte":"AN"}},{"type":"Feature","geometry":{"type":"MultiPolygon","coordinates":[[[[2.2940374,48.634273],[2.2942122,48.6348212],[2.2942493,48.6350719],[2.2947282,48.6357489],[2.2949292,48.6357913],[2.2956128,48.635703],[2.2958538,48.6357007],[2.296023,48.6357431],[2.2966026,48.6361575],[2.2963616,48.6374624],[2.2963792,48.637602],[2.2964514,48.6376589],[2.296593,48.6376876],[2.2971512,48.6376898],[2.2973888,48.6378043],[2.2975547,48.6382025],[2.297259,48.638331],[2.2971033,48.6384592],[2.2971363,48.6384882],[2.2979058,48.63867],[2.2979895,48.6388099],[2.2980313,48.6391394],[2.2985567,48.6395383],[2.2986388,48.6396468],[2.2986175,48.6398822],[2.2983411,48.6404957],[2.2981036,48.640478],[2.2977672,48.6405033],[2.2964095,48.6406836],[2.2961927,48.6407365],[2.2956325,48.6409536],[2.2944729,48.641177],[2.293344,48.6413393],[2.2931491,48.6420078],[2.2929359,48.6419478],[2.2927744,48.6419439],[2.2927718,48.6420058],[2.292315,48.6419944],[2.2923121,48.6420424],[2.2917099,48.6419342],[2.2916267,48.6418612],[2.2915807,48.641196],[2.2913047,48.6401666],[2.2910633,48.6400956],[2.2904277,48.6400813],[2.2902765,48.6400254],[2.2901988,48.6399082],[2.290048,48.6384389],[2.2900567,48.6378123],[2.2894159,48.6371506],[2.2889545,48.6347145],[2.2935366,48.6340804],[2.2940247,48.6340779],[2.2940374,48.634273]]]]},"properties":{"code_section":"91347000AO","code_commune":"91347","section_courte":"AO"}},{"type":"Feature","geometry":{"type":"MultiPolygon","coordinates":[[[[2.2898835,48.6308946],[2.2906757,48.6307953],[2.2906677,48.6306892],[2.2912674,48.6306465],[2.2912546,48.6303676],[2.2911329,48.6300986],[2.2920893,48.63005],[2.2920958,48.6300908],[2.2931422,48.6300493],[2.2931076,48.6305399],[2.2934647,48.631243],[2.293378,48.6316873],[2.2936294,48.6325056],[2.2936408,48.6332105],[2.2937616,48.6336572],[2.2937921,48.6340745],[2.2935366,48.6340804],[2.2898808,48.6345723],[2.2876735,48.6349129],[2.2880454,48.6344229],[2.2883948,48.6340384],[2.2878845,48.633462],[2.2874583,48.6328469],[2.2880574,48.6326428],[2.2877793,48.6313456],[2.2873392,48.6303829],[2.2890269,48.6299601],[2.2896463,48.629835],[2.289844,48.6306455],[2.2897741,48.6308986],[2.2898835,48.6308946]]]]},"properties":{"code_section":"91347000AP","code_commune":"91347","section_courte":"AP"}},{"type":"Feature","geometry":{"type":"MultiPolygon","coordinates":[[[[2.2877793,48.6313456],[2.2880574,48.6326428],[2.2874583,48.6328469],[2.2878845,48.633462],[2.2883948,48.6340384],[2.2880454,48.6344229],[2.2876735,48.6349129],[2.2822945,48.635878],[2.2822038,48.6354011],[2.2817074,48.6344412],[2.2818299,48.6343913],[2.28135,48.6337299],[2.2808641,48.6332111],[2.2802353,48.6327145],[2.2806302,48.6324485],[2.2809404,48.6323185],[2.2840154,48.6314008],[2.2840848,48.6313488],[2.284062,48.6311775],[2.2849339,48.6310121],[2.2849784,48.6310896],[2.2855167,48.6309696],[2.2854915,48.6309214],[2.2855869,48.6308676],[2.2860976,48.6306958],[2.2873287,48.6303638],[2.2877793,48.6313456]]]]},"properties":{"code_section":"91347000AR","code_commune":"91347","section_courte":"AR"}},{"type":"Feature","geometry":{"type":"MultiPolygon","coordinates":[[[[2.2855398,48.6309053],[2.2854915,48.6309214],[2.2855167,48.6309696],[2.2849784,48.6310896],[2.2849339,48.6310121],[2.284062,48.6311775],[2.2840848,48.6313488],[2.2840154,48.6314008],[2.282104,48.6319843],[2.2830982,48.6303659],[2.2832926,48.6301469],[2.2838203,48.6296725],[2.2848939,48.6293288],[2.2861247,48.6290743],[2.2866114,48.6289395],[2.2880041,48.6282488],[2.288056,48.6282871],[2.2908142,48.6266996],[2.2911216,48.6267646],[2.2913792,48.6265712],[2.2916315,48.6264382],[2.2919057,48.626361],[2.2929117,48.6262373],[2.2929579,48.626506],[2.2928243,48.6266224],[2.2928271,48.6266775],[2.2929598,48.6269297],[2.2928669,48.6275768],[2.2927376,48.6278387],[2.2927888,48.6285867],[2.2928747,48.6289191],[2.2927847,48.629336],[2.2931503,48.6299416],[2.2931422,48.6300493],[2.2920958,48.6300908],[2.2920893,48.63005],[2.2911329,48.6300986],[2.2912546,48.6303676],[2.2912674,48.6306465],[2.2906677,48.6306892],[2.2906757,48.6307953],[2.2898219,48.6309024],[2.2897741,48.6308986],[2.289844,48.6306455],[2.2896463,48.629835],[2.2890269,48.6299601],[2.2873392,48.6303829],[2.2873287,48.6303638],[2.2861782,48.630671],[2.2855398,48.6309053]]]]},"properties":{"code_section":"91347000AS","code_commune":"91347","section_courte":"AS"}},{"type":"Feature","geometry":{"type":"MultiPolygon","coordinates":[[[[2.2894743,48.6274508],[2.288056,48.6282871],[2.2880041,48.6282488],[2.2866114,48.6289395],[2.2861247,48.6290743],[2.2848939,48.6293288],[2.2838203,48.6296725],[2.2837342,48.629774],[2.283587,48.6294753],[2.2829759,48.6286],[2.281709,48.6269723],[2.2806137,48.6260161],[2.2803613,48.6258863],[2.2798936,48.6255669],[2.2802037,48.6254277],[2.280817,48.6253131],[2.2809277,48.6252082],[2.2809906,48.6250248],[2.2810988,48.62493],[2.2815601,48.624914],[2.2817263,48.6249558],[2.2818703,48.6248339],[2.2826413,48.62439],[2.283294,48.624108],[2.28455,48.6234849],[2.2849006,48.6233506],[2.285928,48.6242741],[2.285817,48.6243365],[2.2868174,48.6252774],[2.2869753,48.6251982],[2.2871447,48.6251633],[2.2878099,48.6259766],[2.2877073,48.6260688],[2.2878978,48.6263268],[2.2887259,48.6272017],[2.2889589,48.627104],[2.2894743,48.6274508]]]]},"properties":{"code_section":"91347000AT","code_commune":"91347","section_courte":"AT"}},{"type":"Feature","geometry":{"type":"MultiPolygon","coordinates":[[[[2.2892117,48.6272742],[2.2889589,48.627104],[2.2887259,48.6272017],[2.2878978,48.6263268],[2.2877073,48.6260688],[2.2878099,48.6259766],[2.2871447,48.6251633],[2.2869753,48.6251982],[2.2868174,48.6252774],[2.285817,48.6243365],[2.285928,48.6242741],[2.2849006,48.6233506],[2.2850482,48.6233228],[2.285102,48.6232761],[2.28515,48.6230928],[2.2853437,48.6228349],[2.2857929,48.6219711],[2.2859288,48.6218893],[2.2872138,48.6220246],[2.2871367,48.6220841],[2.2872206,48.622157],[2.2885864,48.6223365],[2.2886701,48.622294],[2.2887288,48.6223438],[2.2922596,48.6226227],[2.2922565,48.6226802],[2.2925313,48.6227062],[2.2928603,48.6230807],[2.2929389,48.6233009],[2.2928995,48.6233546],[2.2924165,48.6235311],[2.2923087,48.6236316],[2.29238,48.6241334],[2.2926818,48.624534],[2.2921625,48.6250299],[2.2921137,48.6251865],[2.2923948,48.6257002],[2.2924721,48.6261665],[2.2928913,48.6261739],[2.2929117,48.6262373],[2.2919057,48.626361],[2.2916315,48.6264382],[2.2913792,48.6265712],[2.2911216,48.6267646],[2.2908142,48.6266996],[2.2894743,48.6274508],[2.2892117,48.6272742]]]]},"properties":{"code_section":"91347000AV","code_commune":"91347","section_courte":"AV"}},{"type":"Feature","geometry":{"type":"MultiPolygon","coordinates":[[[[2.2817614,48.6249298],[2.2817263,48.6249558],[2.2815601,48.624914],[2.2812024,48.6249151],[2.281048,48.6249552],[2.2809906,48.6250248],[2.2806595,48.6249817],[2.2803865,48.6248908],[2.2788661,48.6241406],[2.2785778,48.6239867],[2.2782277,48.6237228],[2.2776156,48.6232517],[2.2769469,48.6226603],[2.2761072,48.6220364],[2.2776274,48.6211911],[2.2785015,48.6207668],[2.2815805,48.6186986],[2.2848235,48.6209339],[2.2844053,48.6216232],[2.2846493,48.6217397],[2.2859288,48.6218893],[2.2857929,48.6219711],[2.2853437,48.6228349],[2.28515,48.6230928],[2.2851196,48.6232492],[2.2850482,48.6233228],[2.28487,48.6233569],[2.28455,48.6234849],[2.283294,48.624108],[2.2826413,48.62439],[2.2818703,48.6248339],[2.2817614,48.6249298]]]]},"properties":{"code_section":"91347000AW","code_commune":"91347","section_courte":"AW"}},{"type":"Feature","geometry":{"type":"MultiPolygon","coordinates":[[[[2.2858966,48.6218846],[2.2846493,48.6217397],[2.2844053,48.6216232],[2.2848235,48.6209339],[2.2820239,48.6189983],[2.282961,48.6181772],[2.2826656,48.6175706],[2.283626,48.6174768],[2.2841005,48.6175179],[2.2841714,48.617317],[2.2842231,48.6173083],[2.2842674,48.6173477],[2.2842776,48.617541],[2.2846374,48.6177085],[2.2848391,48.6177369],[2.2849164,48.6178919],[2.2852466,48.6179111],[2.2854428,48.6180904],[2.2855692,48.6181442],[2.2856401,48.6181259],[2.2857301,48.6179676],[2.285792,48.61796],[2.2859895,48.6180481],[2.2862815,48.6182407],[2.2867228,48.6180069],[2.2869029,48.6179828],[2.287152,48.6180279],[2.2872388,48.6182165],[2.2874763,48.6182769],[2.2875646,48.6182225],[2.287538,48.6180214],[2.2875955,48.6179994],[2.2878502,48.6180501],[2.2881612,48.6181938],[2.2879638,48.6185514],[2.2880596,48.6185821],[2.2885845,48.6185985],[2.2893384,48.6185096],[2.2896041,48.6184367],[2.2897937,48.6183795],[2.2899263,48.6182194],[2.2900174,48.6182021],[2.2908264,48.6185746],[2.2909251,48.6186779],[2.2911272,48.6187249],[2.2912109,48.6189439],[2.2912967,48.6190225],[2.2913556,48.6190407],[2.2915531,48.6189055],[2.2915915,48.6189122],[2.2917684,48.6195139],[2.2919116,48.6198061],[2.2918656,48.6198799],[2.2917387,48.6199132],[2.2916191,48.6200202],[2.2916118,48.6201373],[2.29193,48.6205878],[2.2923398,48.6213274],[2.2927838,48.6218492],[2.2927616,48.6219353],[2.2923341,48.6221393],[2.2922293,48.6222545],[2.2922511,48.6223491],[2.2925313,48.6227062],[2.2922565,48.6226802],[2.2922596,48.6226227],[2.2887288,48.6223438],[2.2886701,48.622294],[2.2885864,48.6223365],[2.2880187,48.6222682],[2.2872206,48.622157],[2.2871367,48.6220841],[2.2872138,48.6220246],[2.2858966,48.6218846]]]]},"properties":{"code_section":"91347000AX","code_commune":"91347","section_courte":"AX"}}]}