{"type":"FeatureCollection","features":[{"type":"Feature","geometry":{"type":"MultiPolygon","coordinates":[[[[2.2082789,48.6663013],[2.206685,48.6667235],[2.2013743,48.6674225],[2.1976548,48.6677269],[2.1970498,48.6678147],[2.196652,48.6679987],[2.1986442,48.6640917],[2.1987789,48.6638653],[2.1991745,48.663643],[2.199318,48.6636036],[2.2043854,48.6629721],[2.2047068,48.662838],[2.2049523,48.6626419],[2.2051104,48.6623877],[2.2051788,48.6621563],[2.2051952,48.6614589],[2.2059171,48.6615837],[2.2065017,48.6615551],[2.2069989,48.6611421],[2.2073461,48.6609179],[2.2075115,48.6610934],[2.2079599,48.6610124],[2.209315,48.6613295],[2.2093874,48.6610763],[2.2100784,48.6612809],[2.2100625,48.6610866],[2.2101683,48.6608929],[2.2103285,48.6607609],[2.2110776,48.660701],[2.2121615,48.6607761],[2.2126777,48.6607839],[2.2126016,48.6602559],[2.212447,48.6598336],[2.212485,48.6593924],[2.2125977,48.65897],[2.2126246,48.6585015],[2.2124833,48.6578932],[2.2123162,48.6576068],[2.21381,48.6565574],[2.2136414,48.6562979],[2.2132064,48.655971],[2.2130095,48.6556964],[2.2215145,48.6566471],[2.2224926,48.6610191],[2.2236088,48.6610564],[2.2236266,48.6611274],[2.2179763,48.6628621],[2.2160192,48.6639149],[2.215131,48.6642497],[2.2082789,48.6663013]]]]},"properties":{"code_section":"913630000A","code_commune":"91363","section_courte":"A"}},{"type":"Feature","geometry":{"type":"MultiPolygon","coordinates":[[[[2.2358096,48.6480386],[2.2356062,48.6486001],[2.2340915,48.6489486],[2.23078,48.6496117],[2.2299999,48.6496565],[2.2296175,48.6497208],[2.2296968,48.650224],[2.2295994,48.6503522],[2.2281211,48.6506542],[2.2282028,48.6510737],[2.2278146,48.6511344],[2.227616,48.6509098],[2.2269093,48.6512576],[2.2268268,48.6513169],[2.2267085,48.6517703],[2.2267896,48.6524082],[2.2261732,48.652716],[2.2261045,48.6532682],[2.2258823,48.6534655],[2.2247694,48.6538773],[2.2233669,48.6546409],[2.2215145,48.6566471],[2.2130095,48.6556964],[2.2128545,48.6554287],[2.2114829,48.6545684],[2.2110328,48.6545588],[2.2113724,48.6541721],[2.2116759,48.6538995],[2.2139426,48.6522817],[2.2165838,48.6494887],[2.2198154,48.6470259],[2.2200335,48.6468977],[2.2215609,48.6463651],[2.2217429,48.6462786],[2.2233252,48.6453138],[2.2253036,48.6446317],[2.2276872,48.6433011],[2.2296355,48.6443567],[2.2298544,48.6444269],[2.2306528,48.6444633],[2.2314965,48.6447565],[2.2316597,48.644961],[2.2317539,48.6453392],[2.2318519,48.645551],[2.2320096,48.645686],[2.2322212,48.6458087],[2.2327051,48.64592],[2.2334595,48.6464365],[2.2345385,48.6469375],[2.2357837,48.6478729],[2.2358409,48.6478847],[2.2358096,48.6480386]]]]},"properties":{"code_section":"913630000B","code_commune":"91363","section_courte":"B"}},{"type":"Feature","geometry":{"type":"MultiPolygon","coordinates":[[[[2.2301511,48.6310513],[2.2299868,48.631427],[2.2289895,48.632266],[2.2281135,48.6331544],[2.2279871,48.6333541],[2.227865,48.6336967],[2.2277629,48.6342648],[2.2276606,48.6344997],[2.2269555,48.6357263],[2.2255594,48.6359331],[2.2252776,48.6360158],[2.2239073,48.6365824],[2.2234013,48.6367596],[2.2231236,48.636819],[2.2221498,48.6369005],[2.2216746,48.6369798],[2.2203837,48.6374103],[2.2192596,48.6375895],[2.2179698,48.6380807],[2.216948,48.6386237],[2.215545,48.6390945],[2.2145655,48.6392951],[2.212013,48.6396084],[2.2117761,48.6396164],[2.2106029,48.6395353],[2.2096641,48.6395255],[2.208381,48.6393559],[2.2071754,48.6392616],[2.2067383,48.6392679],[2.2057791,48.639439],[2.2050108,48.6395157],[2.2042251,48.6396321],[2.2035446,48.6397865],[2.2025307,48.6399082],[2.2009052,48.6397707],[2.1999951,48.6395596],[2.1993744,48.6394813],[2.1989929,48.639543],[2.1954286,48.6330287],[2.1967663,48.6323484],[2.1985953,48.6312952],[2.2008706,48.6296817],[2.2010293,48.6295112],[2.2013513,48.6290309],[2.2018029,48.6285436],[2.2024078,48.6284407],[2.2030603,48.6284596],[2.2037171,48.6286361],[2.2048848,48.6293766],[2.2055278,48.6306012],[2.2059719,48.6309523],[2.2140355,48.6306833],[2.2139929,48.6306159],[2.2149777,48.6305026],[2.2161012,48.6302506],[2.2165953,48.6301749],[2.2172483,48.6301331],[2.2189027,48.6299489],[2.2196404,48.6299164],[2.2209079,48.6297043],[2.2235289,48.629154],[2.2247622,48.6288109],[2.2254786,48.6285736],[2.2267889,48.6283191],[2.226982,48.6283468],[2.228062,48.6287827],[2.2289551,48.6292281],[2.2300856,48.6296661],[2.2310415,48.6299778],[2.2314358,48.630232],[2.2313908,48.6304464],[2.2306241,48.6306582],[2.2303208,48.6308527],[2.2301511,48.6310513]]]]},"properties":{"code_section":"913630000F","code_commune":"91363","section_courte":"F"}},{"type":"Feature","geometry":{"type":"MultiPolygon","coordinates":[[[[2.1936873,48.6435711],[2.1989929,48.639543],[2.1993744,48.6394813],[2.1999951,48.6395596],[2.2009052,48.6397707],[2.2025307,48.6399082],[2.2035446,48.6397865],[2.2042251,48.6396321],[2.2050108,48.6395157],[2.2057791,48.639439],[2.2067383,48.6392679],[2.2071754,48.6392616],[2.208381,48.6393559],[2.2096641,48.6395255],[2.2106029,48.6395353],[2.2117761,48.6396164],[2.2122548,48.6395891],[2.2136079,48.6394072],[2.2146759,48.6403531],[2.2171771,48.6424535],[2.2180207,48.6433326],[2.2176373,48.6437177],[2.217426,48.6439977],[2.2173485,48.64426],[2.2173339,48.6445011],[2.2174377,48.6447466],[2.217939,48.6452674],[2.2180932,48.6455826],[2.2183411,48.6457988],[2.2152571,48.6460987],[2.2141655,48.6465923],[2.2115499,48.648259],[2.2091217,48.6494485],[2.20709,48.6502411],[2.2023972,48.651691],[2.1995307,48.6521123],[2.196405,48.6524883],[2.1949083,48.6527005],[2.1938888,48.6526407],[2.1937306,48.6526167],[2.1936806,48.6524021],[2.1936964,48.652275],[2.1953654,48.645616],[2.1953535,48.6453829],[2.1952642,48.6451678],[2.195014,48.6448595],[2.1943581,48.6444333],[2.1939212,48.6442199],[2.1935674,48.6441128],[2.1930713,48.6440473],[2.1936873,48.6435711]]]]},"properties":{"code_section":"913630000G","code_commune":"91363","section_courte":"G"}},{"type":"Feature","geometry":{"type":"MultiPolygon","coordinates":[[[[2.18081,48.6321827],[2.181893,48.6317337],[2.1822829,48.6322955],[2.1830411,48.6335463],[2.1837388,48.6345662],[2.1839046,48.634535],[2.1868279,48.6375961],[2.1880156,48.6385873],[2.1887689,48.6384029],[2.1893571,48.6376523],[2.1907777,48.6369185],[2.1916946,48.6363224],[2.1915944,48.6362302],[2.1925197,48.6356233],[2.1927118,48.6354468],[2.1928161,48.6352721],[2.1928456,48.6350864],[2.192932,48.6348973],[2.1931579,48.6346477],[2.193485,48.634388],[2.1942076,48.6339596],[2.1946616,48.6334294],[2.1954286,48.6330287],[2.1989929,48.639543],[2.1930713,48.6440473],[2.1881044,48.6435531],[2.1778097,48.6334222],[2.18081,48.6321827]]]]},"properties":{"code_section":"913630000H","code_commune":"91363","section_courte":"H"}},{"type":"Feature","geometry":{"type":"MultiPolygon","coordinates":[[[[2.1729291,48.6543831],[2.1726231,48.6543023],[2.1722134,48.6540891],[2.1739814,48.6530371],[2.1720903,48.6523449],[2.1706068,48.6514503],[2.1691754,48.6508517],[2.1685857,48.6505597],[2.1674794,48.6502357],[2.1661668,48.6499377],[2.1655124,48.6497991],[2.163284,48.6494147],[2.1626791,48.6487389],[2.1622357,48.648049],[2.1625882,48.6479379],[2.1630508,48.6478482],[2.163342,48.6478129],[2.1640654,48.6477983],[2.1652108,48.6479287],[2.1658711,48.6479209],[2.1675093,48.6480065],[2.168648,48.6481518],[2.1691995,48.6485964],[2.1746571,48.6497136],[2.1750627,48.6498211],[2.1755086,48.6499814],[2.1760168,48.6500212],[2.1764538,48.650122],[2.1779594,48.6498971],[2.1821102,48.6483119],[2.1841896,48.6467136],[2.1860997,48.6453668],[2.1879179,48.644693],[2.188611,48.6442902],[2.188997,48.6442028],[2.1902248,48.6440519],[2.1911074,48.6438411],[2.1935674,48.6441128],[2.1939212,48.6442199],[2.1943581,48.6444333],[2.195014,48.6448595],[2.1952642,48.6451678],[2.1953535,48.6453829],[2.1953654,48.645616],[2.1936964,48.652275],[2.1936806,48.6524021],[2.1937306,48.6526167],[2.1923864,48.6531094],[2.1912031,48.6536598],[2.1903867,48.6539412],[2.1896174,48.6543506],[2.1886916,48.6550071],[2.1878261,48.655704],[2.1873627,48.6564298],[2.1867759,48.6570982],[2.1864009,48.6573942],[2.1858195,48.6576426],[2.1858318,48.6576638],[2.1852375,48.657864],[2.1848751,48.658098],[2.1842971,48.6585449],[2.1841029,48.6587733],[2.1840217,48.6592327],[2.1824695,48.658015],[2.1818453,48.6578578],[2.1812264,48.657583],[2.1808189,48.6574384],[2.1801816,48.657294],[2.1793065,48.6569651],[2.1772903,48.6561278],[2.1772278,48.6561718],[2.1752293,48.6553035],[2.1744603,48.6549018],[2.1729291,48.6543831]]]]},"properties":{"code_section":"913630000I","code_commune":"91363","section_courte":"I"}},{"type":"Feature","geometry":{"type":"MultiPolygon","coordinates":[[[[2.186443,48.66163],[2.1854369,48.6611011],[2.1847901,48.660877],[2.1843268,48.6608028],[2.1837376,48.6605484],[2.1836268,48.6604619],[2.1835658,48.6603578],[2.1835741,48.6601524],[2.1836438,48.6599318],[2.1835136,48.6599316],[2.1833641,48.6598833],[2.1832496,48.6597944],[2.182572,48.6596108],[2.1814202,48.6592211],[2.1810718,48.6590761],[2.1809263,48.6590734],[2.1807155,48.6591314],[2.180562,48.6592149],[2.1803884,48.6595926],[2.1802806,48.6597193],[2.180127,48.6598637],[2.1796739,48.6600574],[2.1795923,48.6597839],[2.1797133,48.6596582],[2.1798809,48.6591609],[2.1803388,48.6586645],[2.1806765,48.658405],[2.1811139,48.6583139],[2.1812133,48.6582566],[2.1814805,48.6582727],[2.1818102,48.6581742],[2.1820439,48.6581618],[2.18232,48.6580987],[2.1824823,48.658025],[2.1840217,48.6592327],[2.1841029,48.6587733],[2.1842971,48.6585449],[2.1848751,48.658098],[2.1852375,48.657864],[2.1858318,48.6576638],[2.1858195,48.6576426],[2.1864009,48.6573942],[2.1867759,48.6570982],[2.1873627,48.6564298],[2.1878261,48.655704],[2.1886916,48.6550071],[2.1896174,48.6543506],[2.1903867,48.6539412],[2.1912031,48.6536598],[2.1923864,48.6531094],[2.1937306,48.6526167],[2.1999562,48.6569743],[2.1995828,48.6571816],[2.199297,48.6572937],[2.1978717,48.6576979],[2.1974067,48.6577497],[2.1971091,48.6577497],[2.1963948,48.6576417],[2.1961926,48.6576693],[2.1959604,48.657785],[2.1955136,48.6581982],[2.1952635,48.6583355],[2.1946455,48.6585641],[2.198539,48.659307],[2.197103,48.6602098],[2.199455,48.661237],[2.2023887,48.6632124],[2.199318,48.6636036],[2.1991745,48.663643],[2.1988924,48.6637847],[2.1987789,48.6638653],[2.1986442,48.6640917],[2.196652,48.6679987],[2.196331,48.6680692],[2.1953089,48.668731],[2.1954105,48.6689807],[2.1944302,48.6692045],[2.1934972,48.6696136],[2.192841,48.6698002],[2.1922868,48.6689419],[2.191417,48.668394],[2.1915171,48.6682997],[2.1914759,48.6682226],[2.1915155,48.6682107],[2.1916056,48.6679495],[2.1915668,48.6678974],[2.1916521,48.6677787],[2.191548,48.6676952],[2.1916656,48.6676206],[2.1918543,48.6676052],[2.1919714,48.6675613],[2.1919925,48.6674067],[2.192067,48.6673942],[2.1920878,48.6673313],[2.1920513,48.6673096],[2.1919408,48.6673303],[2.1919031,48.6672783],[2.1920592,48.6672217],[2.1920111,48.6671796],[2.1919086,48.667165],[2.1918833,48.6670198],[2.191769,48.6669842],[2.191692,48.6670027],[2.1915584,48.666982],[2.1916017,48.6668945],[2.1915,48.6668943],[2.1913357,48.6668315],[2.1909729,48.6666536],[2.1905761,48.6662264],[2.1903789,48.6657482],[2.1900077,48.6652229],[2.1898578,48.6649363],[2.1890292,48.6641116],[2.1886335,48.6635911],[2.1884342,48.6633916],[2.1882552,48.6631224],[2.1878439,48.6628402],[2.187346,48.6621078],[2.186443,48.66163]]]]},"properties":{"code_section":"913630000K","code_commune":"91363","section_courte":"K"}},{"type":"Feature","geometry":{"type":"MultiPolygon","coordinates":[[[[2.1993353,48.6565417],[2.1937306,48.6526167],[2.1949083,48.6527005],[2.196405,48.6524883],[2.1995307,48.6521123],[2.2023972,48.651691],[2.20709,48.6502411],[2.2089431,48.6495175],[2.2096465,48.6500385],[2.2125169,48.6519196],[2.2099448,48.6520829],[2.2097091,48.6520755],[2.2096136,48.6522713],[2.2095903,48.652452],[2.209495,48.6525995],[2.2094953,48.6527284],[2.2092765,48.6533138],[2.2094971,48.6537014],[2.2098324,48.6539989],[2.2094759,48.6542849],[2.2089912,48.6545642],[2.2080856,48.6549865],[2.2071769,48.655353],[2.2048845,48.6559614],[2.2029336,48.656239],[2.2024542,48.6563357],[2.1999562,48.6569743],[2.1993353,48.6565417]]]]},"properties":{"code_section":"913630000L","code_commune":"91363","section_courte":"L"}},{"type":"Feature","geometry":{"type":"MultiPolygon","coordinates":[[[[2.2023088,48.6631551],[2.199455,48.661237],[2.197103,48.6602098],[2.198539,48.659307],[2.1946455,48.6585641],[2.1952635,48.6583355],[2.1955136,48.6581982],[2.1959604,48.657785],[2.1961926,48.6576693],[2.1963948,48.6576417],[2.1971091,48.6577497],[2.1974067,48.6577497],[2.1978717,48.6576979],[2.199297,48.6572937],[2.1995828,48.6571816],[2.1999562,48.6569743],[2.2038094,48.6596759],[2.2041986,48.6599941],[2.2044799,48.6602741],[2.2047415,48.660612],[2.2051952,48.6614589],[2.2051788,48.6621563],[2.2051104,48.6623877],[2.2049523,48.6626419],[2.2047068,48.662838],[2.2043854,48.6629721],[2.2023887,48.6632124],[2.2023088,48.6631551]]]]},"properties":{"code_section":"91363000AA","code_commune":"91363","section_courte":"AA"}},{"type":"Feature","geometry":{"type":"MultiPolygon","coordinates":[[[[2.2051952,48.6614589],[2.2110328,48.6545588],[2.2114829,48.6545684],[2.2128545,48.6554287],[2.2132064,48.655971],[2.2135995,48.6562567],[2.2137195,48.6563849],[2.21381,48.6565574],[2.2123162,48.6576068],[2.2124833,48.6578932],[2.2126246,48.6585015],[2.2125977,48.65897],[2.212485,48.6593924],[2.212447,48.6598336],[2.2126016,48.6602559],[2.2126777,48.6607839],[2.2121615,48.6607761],[2.2110776,48.660701],[2.2103285,48.6607609],[2.2101683,48.6608929],[2.2100625,48.6610866],[2.2100784,48.6612809],[2.2093874,48.6610763],[2.209315,48.6613295],[2.2079599,48.6610124],[2.2075115,48.6610934],[2.2073461,48.6609179],[2.2069989,48.6611421],[2.2065017,48.6615551],[2.2059171,48.6615837],[2.2051952,48.6614589]]]]},"properties":{"code_section":"91363000AB","code_commune":"91363","section_courte":"AB"}},{"type":"Feature","geometry":{"type":"MultiPolygon","coordinates":[[[[2.2113724,48.6541721],[2.2051952,48.6614589],[2.2047415,48.660612],[2.2044799,48.6602741],[2.2041986,48.6599941],[2.2038094,48.6596759],[2.1999562,48.6569743],[2.2024542,48.6563357],[2.2029336,48.656239],[2.2048845,48.6559614],[2.2071769,48.655353],[2.2080856,48.6549865],[2.2089912,48.6545642],[2.2094759,48.6542849],[2.2100556,48.6538305],[2.2103044,48.6537355],[2.2107261,48.6538224],[2.211821,48.6538003],[2.2113724,48.6541721]]]]},"properties":{"code_section":"91363000AC","code_commune":"91363","section_courte":"AC"}},{"type":"Feature","geometry":{"type":"MultiPolygon","coordinates":[[[[2.2100556,48.6538305],[2.2098324,48.6539989],[2.2094971,48.6537014],[2.2092765,48.6533138],[2.2094953,48.6527284],[2.209495,48.6525995],[2.2095903,48.652452],[2.2096752,48.6520985],[2.2097351,48.6520666],[2.2099448,48.6520829],[2.2125169,48.6519196],[2.2096465,48.6500385],[2.2089431,48.6495175],[2.2115499,48.648259],[2.2121441,48.6484908],[2.2128828,48.6488845],[2.2139502,48.6496553],[2.2135914,48.6500054],[2.213469,48.6502462],[2.2134777,48.6502971],[2.2135331,48.6503784],[2.2141148,48.650737],[2.214581,48.6511232],[2.215075,48.6507288],[2.215549,48.6505701],[2.2139426,48.6522817],[2.211821,48.6538003],[2.2107261,48.6538224],[2.2103044,48.6537355],[2.2100556,48.6538305]]]]},"properties":{"code_section":"91363000AD","code_commune":"91363","section_courte":"AD"}},{"type":"Feature","geometry":{"type":"MultiPolygon","coordinates":[[[[2.2115896,48.6482745],[2.2115499,48.648259],[2.2141655,48.6465923],[2.2152571,48.6460987],[2.2183411,48.6457988],[2.21852,48.6459541],[2.2206976,48.6466732],[2.2200335,48.6468977],[2.2194749,48.6472714],[2.2165838,48.6494887],[2.215549,48.6505701],[2.215075,48.6507288],[2.214581,48.6511232],[2.2141148,48.650737],[2.2135331,48.6503784],[2.2134777,48.6502971],[2.213469,48.6502462],[2.2135914,48.6500054],[2.2139502,48.6496553],[2.2128828,48.6488845],[2.2121441,48.6484908],[2.2115896,48.6482745]]]]},"properties":{"code_section":"91363000AE","code_commune":"91363","section_courte":"AE"}},{"type":"Feature","geometry":{"type":"MultiPolygon","coordinates":[[[[2.220904,48.6465916],[2.2206976,48.6466732],[2.21852,48.6459541],[2.2180932,48.6455826],[2.217939,48.6452674],[2.2175907,48.6449191],[2.2173602,48.6446296],[2.2173339,48.6445011],[2.2173798,48.6440917],[2.2176373,48.6437177],[2.2180207,48.6433326],[2.219756,48.6420744],[2.2202613,48.6417629],[2.220457,48.6412057],[2.2203975,48.6406992],[2.2224646,48.639149],[2.2229029,48.63937],[2.2233041,48.6395071],[2.2244025,48.6396412],[2.2258425,48.6412091],[2.2271014,48.6422401],[2.2272004,48.6425482],[2.2274199,48.642859],[2.2278222,48.6432375],[2.2253036,48.6446317],[2.2233252,48.6453138],[2.2217429,48.6462786],[2.220904,48.6465916]]]]},"properties":{"code_section":"91363000AH","code_commune":"91363","section_courte":"AH"}},{"type":"Feature","geometry":{"type":"MultiPolygon","coordinates":[[[[2.2180207,48.6433326],[2.2171771,48.6424535],[2.2146759,48.6403531],[2.2136079,48.6394072],[2.2145655,48.6392951],[2.2158074,48.6390174],[2.216948,48.6386237],[2.2179698,48.6380807],[2.2190804,48.6376442],[2.2192596,48.6375895],[2.2203837,48.6374103],[2.2212267,48.6387319],[2.2220878,48.6389756],[2.2224646,48.639149],[2.2203975,48.6406992],[2.220457,48.6412057],[2.2202613,48.6417629],[2.219756,48.6420744],[2.2180207,48.6433326]]]]},"properties":{"code_section":"91363000AI","code_commune":"91363","section_courte":"AI"}},{"type":"Feature","geometry":{"type":"MultiPolygon","coordinates":[[[[2.2208568,48.6381399],[2.2203837,48.6374103],[2.2216746,48.6369798],[2.2221498,48.6369005],[2.2231236,48.636819],[2.2234013,48.6367596],[2.2239073,48.6365824],[2.2252776,48.6360158],[2.2255594,48.6359331],[2.2267205,48.6357554],[2.226662,48.6362547],[2.2267164,48.6365204],[2.2271742,48.6371637],[2.2274596,48.6374518],[2.2276774,48.6377358],[2.2277981,48.63795],[2.2279936,48.6383365],[2.2281561,48.6389278],[2.2284029,48.6394678],[2.2292153,48.6406243],[2.2293098,48.6408634],[2.2292872,48.6412906],[2.2297701,48.6422335],[2.2278222,48.6432375],[2.2274199,48.642859],[2.2272004,48.6425482],[2.2271014,48.6422401],[2.2258425,48.6412091],[2.2244025,48.6396412],[2.2233041,48.6395071],[2.2229029,48.63937],[2.2222267,48.6390243],[2.2212267,48.6387319],[2.2208568,48.6381399]]]]},"properties":{"code_section":"91363000AK","code_commune":"91363","section_courte":"AK"}},{"type":"Feature","geometry":{"type":"MultiPolygon","coordinates":[[[[2.2276872,48.6433011],[2.2297701,48.6422335],[2.2292872,48.6412906],[2.2293038,48.6409612],[2.2294426,48.6411405],[2.2298811,48.6411568],[2.2306688,48.640999],[2.2327634,48.6403763],[2.2329279,48.6404237],[2.2335625,48.640943],[2.2336811,48.6410289],[2.2337396,48.6410321],[2.2340163,48.6409827],[2.2344082,48.6407944],[2.234577,48.6406501],[2.2352726,48.6403013],[2.2353602,48.6402144],[2.2356798,48.6400406],[2.2364586,48.6408051],[2.2367759,48.6406656],[2.2362338,48.641227],[2.2368,48.6416603],[2.2371486,48.6420248],[2.2368965,48.642149],[2.2367818,48.6421713],[2.2365823,48.6421942],[2.2363889,48.642156],[2.2362098,48.6422152],[2.2361011,48.6421515],[2.2359936,48.6421341],[2.2355096,48.6422136],[2.2352395,48.6423503],[2.23457,48.6425873],[2.2346665,48.6434187],[2.2346008,48.6435215],[2.2341975,48.6437447],[2.2339479,48.6437894],[2.2337679,48.6437806],[2.2330398,48.6435961],[2.2322894,48.6435234],[2.2317612,48.6433537],[2.2308211,48.643332],[2.2302222,48.6433954],[2.2307087,48.6444659],[2.2298544,48.6444269],[2.2294692,48.6442776],[2.2276872,48.6433011]]]]},"properties":{"code_section":"91363000AL","code_commune":"91363","section_courte":"AL"}},{"type":"Feature","geometry":{"type":"MultiPolygon","coordinates":[[[[2.2355327,48.6460951],[2.234681,48.6466699],[2.235367,48.6471305],[2.2356029,48.6473555],[2.2357152,48.6475316],[2.2358409,48.6478847],[2.2357837,48.6478729],[2.2345385,48.6469375],[2.2334595,48.6464365],[2.2327051,48.64592],[2.2322212,48.6458087],[2.2320096,48.645686],[2.2318519,48.645551],[2.2317539,48.6453392],[2.2316597,48.644961],[2.2314965,48.6447565],[2.230696,48.6444802],[2.230705,48.6444089],[2.2302222,48.6433954],[2.2308211,48.643332],[2.2317612,48.6433537],[2.2322894,48.6435234],[2.2330398,48.6435961],[2.2337679,48.6437806],[2.2339479,48.6437894],[2.2341975,48.6437447],[2.2346008,48.6435215],[2.2346665,48.6434187],[2.23457,48.6425873],[2.2352395,48.6423503],[2.2355096,48.6422136],[2.2357389,48.642166],[2.2360515,48.642136],[2.2362098,48.6422152],[2.2363889,48.642156],[2.2365823,48.6421942],[2.2368965,48.642149],[2.2375521,48.6418362],[2.2393999,48.641301],[2.2398597,48.6412421],[2.2400913,48.6418354],[2.2403393,48.641806],[2.2404308,48.6423114],[2.2408012,48.6422837],[2.2408257,48.6423914],[2.2411638,48.6423447],[2.2411904,48.6426215],[2.2413369,48.6426166],[2.2413263,48.642745],[2.2416074,48.6427586],[2.2416124,48.6426874],[2.2418106,48.6427016],[2.2417453,48.6431921],[2.2423126,48.6433248],[2.2440414,48.6434757],[2.2441107,48.6440273],[2.244414,48.6448213],[2.245201,48.6456202],[2.2452022,48.6456637],[2.2450397,48.6456589],[2.2375007,48.644727],[2.2355327,48.6460951]]]]},"properties":{"code_section":"91363000AM","code_commune":"91363","section_courte":"AM"}},{"type":"Feature","geometry":{"type":"MultiPolygon","coordinates":[[[[2.2452619,48.6456183],[2.245201,48.6456202],[2.244987,48.6454209],[2.244414,48.6448213],[2.2441107,48.6440273],[2.2440414,48.6434757],[2.2423126,48.6433248],[2.2417453,48.6431921],[2.2418106,48.6427016],[2.2416124,48.6426874],[2.2416074,48.6427586],[2.2413263,48.642745],[2.2413369,48.6426166],[2.2411904,48.6426215],[2.2411638,48.6423447],[2.2408257,48.6423914],[2.2408012,48.6422837],[2.2404308,48.6423114],[2.2403393,48.641806],[2.2400913,48.6418354],[2.2398597,48.6412421],[2.2400782,48.6411485],[2.2403639,48.6410832],[2.2407092,48.6410635],[2.2411674,48.6410902],[2.2424922,48.6410734],[2.2432221,48.641127],[2.2439603,48.6410278],[2.2443915,48.6410585],[2.2446106,48.6411291],[2.2453449,48.6409631],[2.2456041,48.6418136],[2.2469766,48.641711],[2.2485212,48.6418052],[2.2491992,48.6417168],[2.250106,48.6417224],[2.2513354,48.6416117],[2.2513055,48.6420031],[2.2512146,48.6421091],[2.2507178,48.6423351],[2.2504573,48.6425758],[2.2495268,48.6432183],[2.2491992,48.643318],[2.2483205,48.6434704],[2.2484417,48.6456169],[2.2452619,48.6456183]]]]},"properties":{"code_section":"91363000AN","code_commune":"91363","section_courte":"AN"}},{"type":"Feature","geometry":{"type":"MultiPolygon","coordinates":[[[[2.2518159,48.6409662],[2.2514487,48.6413808],[2.2513354,48.6416117],[2.250106,48.6417224],[2.2491992,48.6417168],[2.2485212,48.6418052],[2.2469766,48.641711],[2.2456041,48.6418136],[2.245045,48.6399545],[2.244691,48.6399542],[2.2441004,48.6383273],[2.2440567,48.6381209],[2.2440533,48.6374761],[2.2439696,48.6372205],[2.2456296,48.6371341],[2.2463438,48.6370096],[2.2467495,48.6368847],[2.2471988,48.6368671],[2.2477363,48.6370396],[2.247873,48.6378071],[2.2532073,48.6393417],[2.2533811,48.6393207],[2.2522052,48.6402662],[2.2518978,48.6406676],[2.2518159,48.6409662]]]]},"properties":{"code_section":"91363000AO","code_commune":"91363","section_courte":"AO"}},{"type":"Feature","geometry":{"type":"MultiPolygon","coordinates":[[[[2.2446798,48.6356298],[2.2440528,48.6372173],[2.2439696,48.6372205],[2.2440533,48.6374761],[2.2440567,48.6381209],[2.244691,48.6399542],[2.245045,48.6399545],[2.2453449,48.6409631],[2.2446106,48.6411291],[2.2443915,48.6410585],[2.2439603,48.6410278],[2.2432221,48.641127],[2.2424922,48.6410734],[2.2411674,48.6410902],[2.2408207,48.6410584],[2.2403639,48.6410832],[2.2400782,48.6411485],[2.2398544,48.6412473],[2.2393999,48.641301],[2.2375521,48.6418362],[2.2371486,48.6420248],[2.2368,48.6416603],[2.2362338,48.641227],[2.2367759,48.6406656],[2.2364586,48.6408051],[2.2356798,48.6400406],[2.2366712,48.6396854],[2.2378793,48.6391257],[2.2385972,48.6389165],[2.2392345,48.6384608],[2.2396562,48.638371],[2.2393306,48.6375173],[2.238673,48.6363762],[2.2397395,48.6362444],[2.2411092,48.6362091],[2.2414526,48.6362147],[2.2429389,48.636343],[2.2436812,48.6360048],[2.2446988,48.6355941],[2.2446798,48.6356298]]]]},"properties":{"code_section":"91363000AP","code_commune":"91363","section_courte":"AP"}},{"type":"Feature","geometry":{"type":"MultiPolygon","coordinates":[[[[2.2446988,48.6355941],[2.2436812,48.6360048],[2.2429389,48.636343],[2.2414526,48.6362147],[2.2411092,48.6362091],[2.2397395,48.6362444],[2.2376722,48.6364821],[2.2371536,48.6364886],[2.2364764,48.6364301],[2.2348609,48.6334719],[2.2342377,48.6328007],[2.2329534,48.6317341],[2.2323568,48.6311671],[2.2338177,48.63054],[2.2344539,48.6308129],[2.2347878,48.6309152],[2.2351636,48.6309834],[2.2356433,48.6312169],[2.2363266,48.6316354],[2.236356,48.6316985],[2.2367814,48.6317827],[2.2382907,48.6319646],[2.2399191,48.6323125],[2.2398526,48.6317967],[2.2404025,48.6317675],[2.2432166,48.6313911],[2.2437808,48.6339201],[2.2439615,48.6342864],[2.2441774,48.6345868],[2.2441866,48.634877],[2.2442654,48.6350451],[2.2446988,48.6355941]]]]},"properties":{"code_section":"91363000AR","code_commune":"91363","section_courte":"AR"}},{"type":"Feature","geometry":{"type":"MultiPolygon","coordinates":[[[[2.2328492,48.6316434],[2.2342377,48.6328007],[2.2348609,48.6334719],[2.2364764,48.6364301],[2.2350597,48.6362944],[2.2335352,48.636218],[2.232838,48.6361483],[2.231923,48.6361942],[2.2308357,48.6363169],[2.2299771,48.6363004],[2.2296476,48.6362532],[2.2276537,48.6357373],[2.2273028,48.6356906],[2.2269555,48.6357263],[2.2276606,48.6344997],[2.2277629,48.6342648],[2.227865,48.6336967],[2.2279871,48.6333541],[2.2281135,48.6331544],[2.2289895,48.632266],[2.2299868,48.631427],[2.2301511,48.6310513],[2.2304457,48.6307545],[2.2306241,48.6306582],[2.2313908,48.6304464],[2.2314358,48.630232],[2.2323879,48.6305671],[2.2326484,48.631042],[2.2323568,48.6311671],[2.2328492,48.6316434]]]]},"properties":{"code_section":"91363000AS","code_commune":"91363","section_courte":"AS"}},{"type":"Feature","geometry":{"type":"MultiPolygon","coordinates":[[[[2.2267205,48.6357554],[2.2273028,48.6356906],[2.2276537,48.6357373],[2.2296476,48.6362532],[2.2299771,48.6363004],[2.2308357,48.6363169],[2.231923,48.6361942],[2.232838,48.6361483],[2.2335352,48.636218],[2.2350597,48.6362944],[2.2364764,48.6364301],[2.235499,48.6369399],[2.2348755,48.6371577],[2.2330393,48.637703],[2.2308822,48.6384826],[2.2304327,48.6385761],[2.23085,48.6396306],[2.2309123,48.6399409],[2.2308753,48.6401046],[2.2306558,48.640283],[2.2304218,48.6403857],[2.2291622,48.6405715],[2.2283025,48.6392776],[2.2281561,48.6389278],[2.2279936,48.6383365],[2.2276774,48.6377358],[2.2274596,48.6374518],[2.2271742,48.6371637],[2.2267164,48.6365204],[2.226662,48.6362547],[2.2267205,48.6357554]]]]},"properties":{"code_section":"91363000AT","code_commune":"91363","section_courte":"AT"}},{"type":"Feature","geometry":{"type":"MultiPolygon","coordinates":[[[[2.2291622,48.6405715],[2.2304218,48.6403857],[2.2306558,48.640283],[2.2308753,48.6401046],[2.2309123,48.6399409],[2.23085,48.6396306],[2.2304327,48.6385761],[2.2308822,48.6384826],[2.2330393,48.637703],[2.2348755,48.6371577],[2.235499,48.6369399],[2.2364764,48.6364301],[2.2374092,48.6364889],[2.238673,48.6363762],[2.2393306,48.6375173],[2.2396562,48.638371],[2.2392345,48.6384608],[2.2385972,48.6389165],[2.2378793,48.6391257],[2.2366712,48.6396854],[2.2357003,48.6400288],[2.2353602,48.6402144],[2.2352726,48.6403013],[2.234577,48.6406501],[2.2344082,48.6407944],[2.2340163,48.6409827],[2.2336811,48.6410289],[2.2329279,48.6404237],[2.2327634,48.6403763],[2.2306688,48.640999],[2.2298811,48.6411568],[2.2294426,48.6411405],[2.2293038,48.6409612],[2.2293098,48.6408634],[2.2291622,48.6405715]]]]},"properties":{"code_section":"91363000AV","code_commune":"91363","section_courte":"AV"}},{"type":"Feature","geometry":{"type":"MultiPolygon","coordinates":[[[[2.1763304,48.6355616],[2.1773502,48.6349615],[2.1769611,48.6337727],[2.1778097,48.6334222],[2.1881044,48.6435531],[2.1859858,48.6433309],[2.1829346,48.6429421],[2.1825601,48.6429089],[2.1821721,48.6429123],[2.1814714,48.6429925],[2.1738802,48.6441922],[2.16482,48.6443495],[2.1651257,48.6443],[2.1665757,48.6437723],[2.1714901,48.6422779],[2.1694835,48.639612],[2.1763304,48.6355616]]]]},"properties":{"code_section":"91363000ZA","code_commune":"91363","section_courte":"ZA"}},{"type":"Feature","geometry":{"type":"MultiPolygon","coordinates":[[[[2.1712462,48.6490137],[2.1691995,48.6485964],[2.1686209,48.6481304],[2.1684735,48.6478217],[2.1659999,48.6456364],[2.16482,48.6443495],[2.1738802,48.6441922],[2.1814714,48.6429925],[2.1818731,48.6429367],[2.1824178,48.6429052],[2.1829346,48.6429421],[2.1859858,48.6433309],[2.1911074,48.6438411],[2.1902248,48.6440519],[2.188997,48.6442028],[2.188611,48.6442902],[2.1879179,48.644693],[2.1860997,48.6453668],[2.1841896,48.6467136],[2.1821102,48.6483119],[2.1779594,48.6498971],[2.1764538,48.650122],[2.1760168,48.6500212],[2.1755086,48.6499814],[2.1750627,48.6498211],[2.1746571,48.6497136],[2.1712462,48.6490137]]]]},"properties":{"code_section":"91363000ZB","code_commune":"91363","section_courte":"ZB"}}]}