{"type":"FeatureCollection","features":[{"type":"Feature","geometry":{"type":"MultiPolygon","coordinates":[[[[2.2922355,48.7172139],[2.29382,48.7169242],[2.2948159,48.7173008],[2.2937718,48.7179743],[2.2925619,48.7185915],[2.2915485,48.7192701],[2.2909506,48.7197486],[2.2896824,48.7206724],[2.2896198,48.7206528],[2.2887849,48.7209557],[2.2871801,48.7178993],[2.2889685,48.7175034],[2.2921051,48.7168815],[2.2922355,48.7172139]]]]},"properties":{"code_section":"913770000S","code_commune":"91377","section_courte":"S"}},{"type":"Feature","geometry":{"type":"MultiPolygon","coordinates":[[[[2.2943799,48.7119885],[2.2960342,48.7153445],[2.2966431,48.7152154],[2.296933,48.716014],[2.2948159,48.7173008],[2.29382,48.7169242],[2.2922355,48.7172139],[2.2921051,48.7168815],[2.2889685,48.7175034],[2.2856062,48.718262],[2.2851666,48.7173008],[2.2842844,48.7157037],[2.2850651,48.7155146],[2.2843223,48.7143349],[2.2845862,48.7142974],[2.285999,48.7139371],[2.2885331,48.7130348],[2.2898427,48.7126744],[2.2917995,48.7122586],[2.2935393,48.7120202],[2.2943655,48.7119591],[2.2943799,48.7119885]]]]},"properties":{"code_section":"913770000T","code_commune":"91377","section_courte":"T"}},{"type":"Feature","geometry":{"type":"MultiPolygon","coordinates":[[[[2.2843344,48.7143544],[2.2850651,48.7155146],[2.2842844,48.7157037],[2.2851666,48.7173008],[2.2856062,48.718262],[2.2871801,48.7178993],[2.2887849,48.7209557],[2.2878412,48.7211385],[2.2877419,48.7211288],[2.287342,48.7204537],[2.2847149,48.7209747],[2.284305,48.7211475],[2.2840484,48.7205943],[2.2825797,48.720913],[2.2826902,48.721204],[2.2803823,48.7215807],[2.2802903,48.7215489],[2.2801551,48.721051],[2.2794283,48.7198621],[2.2790775,48.7189964],[2.2783113,48.7177321],[2.2764604,48.7160759],[2.2766629,48.7160681],[2.2769963,48.7159966],[2.278307,48.7155467],[2.2806922,48.7151414],[2.282677,48.714684],[2.2834574,48.7144556],[2.2843223,48.7143349],[2.2843344,48.7143544]]]]},"properties":{"code_section":"913770000V","code_commune":"91377","section_courte":"V"}},{"type":"Feature","geometry":{"type":"MultiPolygon","coordinates":[[[[2.2530865,48.7386079],[2.2527896,48.7386682],[2.2521863,48.7385065],[2.2518474,48.738384],[2.2509281,48.7380103],[2.2506628,48.7379418],[2.2499527,48.7376088],[2.2496614,48.7374154],[2.2486476,48.7369353],[2.2482973,48.736796],[2.2481404,48.736764],[2.2476847,48.7368193],[2.2472027,48.7369477],[2.2464626,48.7375651],[2.2461865,48.7377051],[2.2456751,48.7378698],[2.2447672,48.7380238],[2.2446513,48.7380675],[2.2445104,48.7380362],[2.2444986,48.7378511],[2.2443095,48.7378605],[2.2441514,48.7374872],[2.2439137,48.7371748],[2.2436368,48.7373187],[2.2435286,48.7371809],[2.2428919,48.7371676],[2.2421575,48.7370305],[2.2419557,48.736946],[2.2409322,48.7363082],[2.2406257,48.7361963],[2.2377939,48.7356162],[2.2429436,48.7314132],[2.2444443,48.7308653],[2.2458727,48.7305552],[2.2479666,48.7301743],[2.2486173,48.7300961],[2.2491552,48.7300997],[2.2494763,48.7301407],[2.2500521,48.7302812],[2.2519217,48.7305605],[2.2533611,48.7310112],[2.2559885,48.7321602],[2.2557953,48.7329414],[2.2556,48.7330395],[2.2552135,48.7344624],[2.253579,48.7344514],[2.2533965,48.7339844],[2.2529496,48.7342096],[2.2525133,48.7343534],[2.2524532,48.7343317],[2.2519712,48.7344792],[2.2519363,48.7345127],[2.2519232,48.7346243],[2.2521268,48.7356741],[2.2524296,48.7356677],[2.2525148,48.7361484],[2.25321,48.736538],[2.2530865,48.7386079]]]]},"properties":{"code_section":"91377000AI","code_commune":"91377","section_courte":"AI"}},{"type":"Feature","geometry":{"type":"MultiPolygon","coordinates":[[[[2.2646702,48.7379694],[2.2639491,48.7380301],[2.2640311,48.7382861],[2.2637854,48.7382757],[2.2629375,48.7383334],[2.2624455,48.7383013],[2.2622197,48.7383316],[2.2620112,48.7382188],[2.2617744,48.7381665],[2.2615452,48.7379958],[2.2601638,48.737673],[2.2599345,48.7375515],[2.2595471,48.7375473],[2.2593673,48.7375165],[2.2587888,48.7376224],[2.2585894,48.7375788],[2.2583777,48.7376036],[2.2581669,48.7375158],[2.2576894,48.7375552],[2.2571237,48.7376705],[2.2569419,48.7378676],[2.2568379,48.7378969],[2.2562387,48.7379175],[2.2557429,48.7378228],[2.2555825,48.737943],[2.2554316,48.7382339],[2.2550411,48.7384267],[2.2545453,48.7385128],[2.2535611,48.7385694],[2.2531625,48.7386332],[2.2530815,48.738583],[2.25321,48.736538],[2.2525148,48.7361484],[2.2524296,48.7356677],[2.2521268,48.7356741],[2.2519232,48.7346243],[2.2519363,48.7345127],[2.2519712,48.7344792],[2.2524532,48.7343317],[2.2525133,48.7343534],[2.2529496,48.7342096],[2.2533965,48.7339844],[2.253579,48.7344514],[2.2552135,48.7344624],[2.2556,48.7330395],[2.2557953,48.7329414],[2.2559885,48.7321602],[2.2563129,48.7323023],[2.2567041,48.7324278],[2.2570323,48.7325072],[2.2576096,48.7325596],[2.2581995,48.7325509],[2.259877,48.7322341],[2.2604401,48.7323061],[2.2611477,48.7322772],[2.2614678,48.7323595],[2.2618048,48.7324029],[2.2625071,48.7324322],[2.2638795,48.7327018],[2.264704,48.7327821],[2.2632248,48.7369982],[2.2636351,48.7371517],[2.2641155,48.7373825],[2.2650589,48.7378928],[2.2646702,48.7379694]]]]},"properties":{"code_section":"91377000AK","code_commune":"91377","section_courte":"AK"}},{"type":"Feature","geometry":{"type":"MultiPolygon","coordinates":[[[[2.2640372,48.7346721],[2.2647343,48.7326963],[2.2653423,48.7327051],[2.2660673,48.7325699],[2.2679098,48.7332322],[2.2704193,48.7344894],[2.270904,48.7348146],[2.2713,48.7352718],[2.2713912,48.7354424],[2.2712111,48.7354678],[2.2714659,48.7359145],[2.2722699,48.7371196],[2.2723626,48.7374342],[2.2727795,48.7375923],[2.2715177,48.7389941],[2.2712927,48.7389735],[2.2712402,48.7388765],[2.2707738,48.7387209],[2.2706302,48.7386092],[2.2702681,48.738475],[2.2701116,48.7383952],[2.2701545,48.7383649],[2.2697988,48.7381709],[2.2697779,48.7381851],[2.2696862,48.7381241],[2.2695073,48.7380958],[2.2695101,48.7380067],[2.2693317,48.7378862],[2.2691917,48.7377222],[2.2689619,48.7376106],[2.2684011,48.7376482],[2.2680956,48.7375456],[2.2678548,48.737536],[2.2672698,48.7385473],[2.2668085,48.7384198],[2.2666255,48.7384118],[2.2653925,48.7381975],[2.2640311,48.7382861],[2.2639491,48.7380301],[2.2645982,48.7379797],[2.2650589,48.7378928],[2.2641155,48.7373825],[2.2636351,48.7371517],[2.2632248,48.7369982],[2.2640372,48.7346721]]]]},"properties":{"code_section":"91377000AL","code_commune":"91377","section_courte":"AL"}},{"type":"Feature","geometry":{"type":"MultiPolygon","coordinates":[[[[2.2715783,48.7390173],[2.2715177,48.7389941],[2.2727795,48.7375923],[2.2723626,48.7374342],[2.2722699,48.7371196],[2.2714659,48.7359145],[2.2712111,48.7354678],[2.2713912,48.7354424],[2.2713,48.7352718],[2.2709658,48.7348712],[2.2706863,48.7346771],[2.2712028,48.7337904],[2.2713637,48.733418],[2.2716066,48.7337143],[2.2716679,48.7337167],[2.271566,48.7335839],[2.2718188,48.7335836],[2.2718741,48.7337603],[2.2723923,48.7338168],[2.2724043,48.7339448],[2.2726814,48.7340453],[2.2730673,48.7340381],[2.2730586,48.7340909],[2.2738193,48.7341765],[2.2740431,48.7342364],[2.2760601,48.7351983],[2.2774089,48.7353989],[2.2771089,48.7359038],[2.2753878,48.7383561],[2.2751289,48.7390522],[2.2752941,48.7394153],[2.27531,48.7395623],[2.2750317,48.73988],[2.2750648,48.7399455],[2.2748876,48.7400514],[2.2748635,48.7400192],[2.2747087,48.7401605],[2.274619,48.7403613],[2.2745427,48.7403928],[2.2745763,48.7404299],[2.2744504,48.7406437],[2.274321,48.7405646],[2.2743545,48.7402779],[2.2739899,48.740136],[2.2738926,48.7399214],[2.273648,48.7398719],[2.2733934,48.7397693],[2.273073,48.7397386],[2.273033,48.7397088],[2.2730832,48.7395812],[2.2729969,48.7395472],[2.2726849,48.7395743],[2.2724855,48.7394304],[2.2721616,48.7394636],[2.2719365,48.7392887],[2.2717626,48.739221],[2.271745,48.739081],[2.2715783,48.7390173]]]]},"properties":{"code_section":"91377000AM","code_commune":"91377","section_courte":"AM"}},{"type":"Feature","geometry":{"type":"MultiPolygon","coordinates":[[[[2.2726814,48.7340453],[2.2724043,48.7339448],[2.2723923,48.7338168],[2.2718741,48.7337603],[2.2718188,48.7335836],[2.271566,48.7335839],[2.2716679,48.7337167],[2.2716066,48.7337143],[2.2713954,48.7334515],[2.2714148,48.7324638],[2.2721736,48.730376],[2.2733606,48.7302678],[2.2741943,48.7301551],[2.2753267,48.7297192],[2.2755321,48.729623],[2.2756977,48.7294719],[2.2764364,48.73005],[2.2770237,48.7304404],[2.2780349,48.731192],[2.2798861,48.7327128],[2.2792787,48.7333444],[2.2788525,48.7340356],[2.2786277,48.7342511],[2.2779663,48.7347245],[2.2776906,48.7350136],[2.2774089,48.7353989],[2.2760601,48.7351983],[2.2740431,48.7342364],[2.2738193,48.7341765],[2.2730586,48.7340909],[2.2730673,48.7340381],[2.2726814,48.7340453]]]]},"properties":{"code_section":"91377000AN","code_commune":"91377","section_courte":"AN"}},{"type":"Feature","geometry":{"type":"MultiPolygon","coordinates":[[[[2.282568,48.7291688],[2.2878008,48.7304903],[2.2853953,48.7346469],[2.282003,48.7338118],[2.2809601,48.7334109],[2.2802577,48.732999],[2.2780349,48.731192],[2.2765869,48.7301514],[2.2775889,48.7296653],[2.2790037,48.7293607],[2.2805654,48.7291426],[2.2816057,48.7290397],[2.2819358,48.7290583],[2.282568,48.7291688]]]]},"properties":{"code_section":"91377000AO","code_commune":"91377","section_courte":"AO"}},{"type":"Feature","geometry":{"type":"MultiPolygon","coordinates":[[[[2.2854354,48.7345776],[2.2882241,48.7297575],[2.2886836,48.7299015],[2.2936996,48.7328955],[2.2968434,48.7325106],[2.296381,48.7331338],[2.2941463,48.7369798],[2.2938906,48.7368135],[2.2935741,48.7367065],[2.2897451,48.7355203],[2.2876157,48.7350041],[2.2854354,48.7345776]]]]},"properties":{"code_section":"91377000AP","code_commune":"91377","section_courte":"AP"}},{"type":"Feature","geometry":{"type":"MultiPolygon","coordinates":[[[[2.301734,48.737922],[2.3022464,48.7405904],[2.3009297,48.7397849],[2.3002795,48.7394489],[2.2991418,48.7389228],[2.2980808,48.7384505],[2.2971401,48.7380769],[2.2954253,48.7375547],[2.2941463,48.7369798],[2.296381,48.7331338],[2.2991396,48.7336514],[2.3009506,48.7339484],[2.301734,48.737922]]]]},"properties":{"code_section":"91377000AR","code_commune":"91377","section_courte":"AR"}},{"type":"Feature","geometry":{"type":"MultiPolygon","coordinates":[[[[2.3033137,48.731306],[2.3027503,48.7328428],[2.3017727,48.7350273],[2.3014746,48.7366149],[2.3009506,48.7339484],[2.2991396,48.7336514],[2.296381,48.7331338],[2.2968434,48.7325106],[2.2970733,48.7324818],[2.2970538,48.7324066],[2.2973302,48.7323717],[2.2983665,48.7305101],[2.2978591,48.7301634],[2.2985017,48.7302672],[2.2986875,48.7299334],[2.2997428,48.7301538],[2.3004052,48.7302237],[2.3002812,48.7290198],[2.3025049,48.7291971],[2.3040047,48.7294942],[2.3033137,48.731306]]]]},"properties":{"code_section":"91377000AS","code_commune":"91377","section_courte":"AS"}},{"type":"Feature","geometry":{"type":"MultiPolygon","coordinates":[[[[2.2979672,48.7312276],[2.2973302,48.7323717],[2.2970538,48.7324066],[2.2970733,48.7324818],[2.2936996,48.7328955],[2.2886836,48.7299015],[2.2882241,48.7297575],[2.2894944,48.727562],[2.2912217,48.7280375],[2.2986875,48.7299334],[2.2985017,48.7302672],[2.2978591,48.7301634],[2.2983665,48.7305101],[2.2979672,48.7312276]]]]},"properties":{"code_section":"91377000AT","code_commune":"91377","section_courte":"AT"}},{"type":"Feature","geometry":{"type":"MultiPolygon","coordinates":[[[[2.2882241,48.7297575],[2.2878008,48.7304903],[2.282321,48.729118],[2.2816057,48.7290397],[2.2805654,48.7291426],[2.2798404,48.7279146],[2.2803111,48.7277041],[2.2805988,48.727526],[2.2808873,48.727153],[2.2809939,48.7268014],[2.2809811,48.7261629],[2.2822086,48.7259072],[2.2827579,48.7257165],[2.2837868,48.7260539],[2.2855981,48.7265527],[2.2894944,48.727562],[2.2882241,48.7297575]]]]},"properties":{"code_section":"91377000AV","code_commune":"91377","section_courte":"AV"}},{"type":"Feature","geometry":{"type":"MultiPolygon","coordinates":[[[[2.2997428,48.7301538],[2.298818,48.7299668],[2.2912217,48.7280375],[2.2897289,48.7276211],[2.2855981,48.7265527],[2.2837868,48.7260539],[2.2827579,48.7257165],[2.2848689,48.7246393],[2.2857434,48.7241373],[2.2862255,48.7237983],[2.2869055,48.7232193],[2.2880047,48.7220864],[2.2890134,48.7211974],[2.2915485,48.7192701],[2.2925619,48.7185915],[2.2938429,48.7200232],[2.2947316,48.7209092],[2.2955398,48.7216515],[2.2972079,48.7230393],[2.2982023,48.7237867],[2.2992356,48.7245034],[2.2995726,48.7246878],[2.300164,48.7279803],[2.3004052,48.7302237],[2.2997428,48.7301538]]]]},"properties":{"code_section":"91377000AW","code_commune":"91377","section_courte":"AW"}},{"type":"Feature","geometry":{"type":"MultiPolygon","coordinates":[[[[2.2992253,48.7220157],[2.2991006,48.7210978],[2.2993666,48.7209581],[2.3018489,48.7208098],[2.3038877,48.7264796],[2.3040981,48.7273565],[2.3042272,48.7284544],[2.3040047,48.7294942],[2.3025049,48.7291971],[2.3002812,48.7290198],[2.300164,48.7279803],[2.2995726,48.7246878],[2.2992253,48.7220157]]]]},"properties":{"code_section":"91377000AX","code_commune":"91377","section_courte":"AX"}},{"type":"Feature","geometry":{"type":"MultiPolygon","coordinates":[[[[2.2992356,48.7245034],[2.2982023,48.7237867],[2.2972079,48.7230393],[2.2955398,48.7216515],[2.2947316,48.7209092],[2.2938429,48.7200232],[2.2925619,48.7185915],[2.2937718,48.7179743],[2.2947151,48.7173755],[2.2953003,48.7176976],[2.297462,48.7187094],[2.2984351,48.7191371],[2.2988174,48.719269],[2.2991006,48.7210978],[2.2995726,48.7246878],[2.2992356,48.7245034]]]]},"properties":{"code_section":"91377000AY","code_commune":"91377","section_courte":"AY"}},{"type":"Feature","geometry":{"type":"MultiPolygon","coordinates":[[[[2.2971458,48.7162828],[2.2971663,48.7163657],[2.3001204,48.7159148],[2.3014947,48.7197213],[2.3018489,48.7208098],[2.2993666,48.7209581],[2.2991006,48.7210978],[2.2988174,48.719269],[2.2984351,48.7191371],[2.297462,48.7187094],[2.2953003,48.7176976],[2.2947151,48.7173755],[2.2970239,48.7159617],[2.297102,48.7160648],[2.2971458,48.7162828]]]]},"properties":{"code_section":"91377000AZ","code_commune":"91377","section_courte":"AZ"}},{"type":"Feature","geometry":{"type":"MultiPolygon","coordinates":[[[[2.2826369,48.7210652],[2.2825797,48.720913],[2.2840484,48.7205943],[2.284305,48.7211475],[2.2847149,48.7209747],[2.287342,48.7204537],[2.2877419,48.7211288],[2.2878412,48.7211385],[2.288783,48.7209563],[2.2896198,48.7206528],[2.2896824,48.7206724],[2.2890134,48.7211974],[2.2880047,48.7220864],[2.2869055,48.7232193],[2.2862255,48.7237983],[2.2857434,48.7241373],[2.2848689,48.7246393],[2.2827579,48.7257165],[2.2823456,48.7256002],[2.2805256,48.7248239],[2.2762973,48.7225625],[2.2764738,48.722266],[2.2764053,48.7221126],[2.2764394,48.7219372],[2.2770153,48.7214596],[2.2780393,48.7209512],[2.2798125,48.7205094],[2.2801551,48.721051],[2.2802903,48.7215489],[2.2803823,48.7215807],[2.2826902,48.721204],[2.2826369,48.7210652]]]]},"properties":{"code_section":"91377000BD","code_commune":"91377","section_courte":"BD"}},{"type":"Feature","geometry":{"type":"MultiPolygon","coordinates":[[[[2.2755289,48.7161007],[2.2764604,48.7160759],[2.2783113,48.7177321],[2.2790775,48.7189964],[2.2794283,48.7198621],[2.2798125,48.7205094],[2.2780393,48.7209512],[2.2770153,48.7214596],[2.2764394,48.7219372],[2.2764053,48.7221126],[2.2764738,48.722266],[2.2762973,48.7225625],[2.2721899,48.7203481],[2.2711194,48.7196903],[2.270094,48.7189637],[2.2694491,48.7184112],[2.2686179,48.7176238],[2.2698425,48.717128],[2.2716586,48.7165548],[2.2742504,48.7161366],[2.2755289,48.7161007]]]]},"properties":{"code_section":"91377000BE","code_commune":"91377","section_courte":"BE"}},{"type":"Feature","geometry":{"type":"MultiPolygon","coordinates":[[[[2.2669954,48.7183336],[2.2670215,48.7179842],[2.2672259,48.7180522],[2.267509,48.718066],[2.2688397,48.7178274],[2.2697619,48.7186859],[2.270645,48.7193615],[2.2717432,48.7200819],[2.2730951,48.7208371],[2.2707136,48.722927],[2.2684895,48.7246112],[2.267569,48.7241888],[2.2670598,48.7240335],[2.2641566,48.7233889],[2.2637877,48.7232772],[2.2629025,48.7228633],[2.2620809,48.7224182],[2.2606653,48.7217183],[2.2616598,48.7206238],[2.2634499,48.7192898],[2.2640102,48.7190951],[2.2660738,48.7186559],[2.2664654,48.718543],[2.2669954,48.7183336]]]]},"properties":{"code_section":"91377000BH","code_commune":"91377","section_courte":"BH"}},{"type":"Feature","geometry":{"type":"MultiPolygon","coordinates":[[[[2.2761772,48.7264918],[2.2761257,48.7264931],[2.2755593,48.7262214],[2.2748711,48.7256414],[2.2747224,48.7254893],[2.2747629,48.7254527],[2.2731113,48.7263444],[2.2730007,48.7264403],[2.2729788,48.7265566],[2.2731093,48.7272736],[2.2730938,48.7274263],[2.2707259,48.725815],[2.2684699,48.7246319],[2.2707136,48.722927],[2.2730951,48.7208371],[2.2799622,48.7245428],[2.2807139,48.7249114],[2.2816657,48.7253252],[2.2823456,48.7256002],[2.2827579,48.7257165],[2.2822086,48.7259072],[2.2765356,48.7271194],[2.275958,48.7265756],[2.276226,48.7265208],[2.2761772,48.7264918]]]]},"properties":{"code_section":"91377000BI","code_commune":"91377","section_courte":"BI"}},{"type":"Feature","geometry":{"type":"MultiPolygon","coordinates":[[[[2.2730938,48.7274263],[2.2731093,48.7272736],[2.2729788,48.7265566],[2.2730007,48.7264403],[2.2731113,48.7263444],[2.2747629,48.7254527],[2.2747224,48.7254893],[2.2748711,48.7256414],[2.2755593,48.7262214],[2.276226,48.7265208],[2.275958,48.7265756],[2.2765356,48.7271194],[2.2809811,48.7261629],[2.2809939,48.7268014],[2.2808873,48.727153],[2.2805988,48.727526],[2.2803111,48.7277041],[2.2798404,48.7279146],[2.2805654,48.7291426],[2.2790037,48.7293607],[2.2776863,48.7296384],[2.2765869,48.7301514],[2.273452,48.727735],[2.2730938,48.7274263]]]]},"properties":{"code_section":"91377000BK","code_commune":"91377","section_courte":"BK"}},{"type":"Feature","geometry":{"type":"MultiPolygon","coordinates":[[[[2.2753267,48.7297192],[2.2743042,48.7301236],[2.2740454,48.7301854],[2.2721736,48.730376],[2.2714498,48.7303817],[2.2708915,48.7302969],[2.2699702,48.7300437],[2.2664523,48.72882],[2.2656812,48.7284863],[2.2649795,48.7281049],[2.2653316,48.7276996],[2.2666722,48.7263592],[2.2684699,48.7246319],[2.2707259,48.725815],[2.2730938,48.7274263],[2.2756977,48.7294719],[2.2755321,48.729623],[2.2753267,48.7297192]]]]},"properties":{"code_section":"91377000BL","code_commune":"91377","section_courte":"BL"}},{"type":"Feature","geometry":{"type":"MultiPolygon","coordinates":[[[[2.2643579,48.7275144],[2.2595266,48.7238592],[2.2592266,48.7235816],[2.2585929,48.7227991],[2.2595128,48.7225491],[2.2600892,48.7223441],[2.2602423,48.7222594],[2.2607416,48.721756],[2.2620809,48.7224182],[2.2629025,48.7228633],[2.2637877,48.7232772],[2.2641566,48.7233889],[2.2670598,48.7240335],[2.267569,48.7241888],[2.2684895,48.7246112],[2.2666722,48.7263592],[2.2653316,48.7276996],[2.2650229,48.7280526],[2.2643579,48.7275144]]]]},"properties":{"code_section":"91377000BM","code_commune":"91377","section_courte":"BM"}},{"type":"Feature","geometry":{"type":"MultiPolygon","coordinates":[[[[2.264704,48.7327821],[2.2638795,48.7327018],[2.2625071,48.7324322],[2.2629475,48.7316239],[2.2632479,48.7305783],[2.2631892,48.7305687],[2.2632231,48.7304857],[2.2633862,48.7302403],[2.2634486,48.7302798],[2.2644963,48.7286396],[2.2648819,48.7289295],[2.2655527,48.7285593],[2.2656156,48.7285868],[2.2656812,48.7284863],[2.2664523,48.72882],[2.2699702,48.7300437],[2.2708915,48.7302969],[2.2714498,48.7303817],[2.2721736,48.730376],[2.2714148,48.7324638],[2.2713954,48.7334515],[2.2713637,48.733418],[2.2712028,48.7337904],[2.2706904,48.7346695],[2.2703682,48.7344617],[2.2679098,48.7332322],[2.2660673,48.7325699],[2.2653423,48.7327051],[2.2647343,48.7326963],[2.264704,48.7327821]]]]},"properties":{"code_section":"91377000BN","code_commune":"91377","section_courte":"BN"}},{"type":"Feature","geometry":{"type":"MultiPolygon","coordinates":[[[[2.2648819,48.7289295],[2.2644963,48.7286396],[2.2634486,48.7302798],[2.2633862,48.7302403],[2.2631892,48.7305687],[2.2619427,48.7303815],[2.2612708,48.7301621],[2.2611545,48.7300771],[2.2608933,48.7296734],[2.25715,48.7265723],[2.2554944,48.7248421],[2.2544776,48.7244637],[2.2564839,48.7234412],[2.2574843,48.723014],[2.2578203,48.7228978],[2.2585929,48.7227991],[2.2592266,48.7235816],[2.2595266,48.7238592],[2.2643579,48.7275144],[2.2650229,48.7280526],[2.2649795,48.7281049],[2.2656812,48.7284863],[2.2656156,48.7285868],[2.2655527,48.7285593],[2.2648819,48.7289295]]]]},"properties":{"code_section":"91377000BO","code_commune":"91377","section_courte":"BO"}},{"type":"Feature","geometry":{"type":"MultiPolygon","coordinates":[[[[2.2631892,48.7305687],[2.2632479,48.7305783],[2.2629475,48.7316239],[2.2625071,48.7324322],[2.2618048,48.7324029],[2.2614678,48.7323595],[2.2611477,48.7322772],[2.2604401,48.7323061],[2.259877,48.7322341],[2.2581995,48.7325509],[2.2576096,48.7325596],[2.2570323,48.7325072],[2.2563129,48.7323023],[2.2531125,48.7309228],[2.2532492,48.7308335],[2.2527126,48.7299603],[2.2529938,48.7299384],[2.2537587,48.7290295],[2.2539159,48.7289507],[2.2564747,48.725877],[2.2573199,48.7267279],[2.2608933,48.7296734],[2.2611545,48.7300771],[2.2612708,48.7301621],[2.2619427,48.7303815],[2.2631892,48.7305687]]]]},"properties":{"code_section":"91377000BP","code_commune":"91377","section_courte":"BP"}},{"type":"Feature","geometry":{"type":"MultiPolygon","coordinates":[[[[2.2531504,48.730898],[2.2531125,48.7309228],[2.2519217,48.7305605],[2.2500521,48.7302812],[2.2494763,48.7301407],[2.2491552,48.7300997],[2.2486173,48.7300961],[2.2483084,48.7301266],[2.2470493,48.7303412],[2.2466465,48.7293902],[2.2470892,48.7290012],[2.247504,48.7284941],[2.2479344,48.7276776],[2.2479926,48.7273305],[2.2479725,48.7272238],[2.2482222,48.7266514],[2.2499838,48.726421],[2.2505535,48.7262919],[2.2514043,48.725964],[2.2523987,48.7255168],[2.253573,48.7249684],[2.2544776,48.7244637],[2.2554944,48.7248421],[2.2564747,48.725877],[2.2539159,48.7289507],[2.2537587,48.7290295],[2.2529938,48.7299384],[2.2527126,48.7299603],[2.2532492,48.7308335],[2.2531504,48.730898]]]]},"properties":{"code_section":"91377000BR","code_commune":"91377","section_courte":"BR"}},{"type":"Feature","geometry":{"type":"MultiPolygon","coordinates":[[[[2.2404537,48.7313697],[2.2364448,48.7283703],[2.2349787,48.7275278],[2.23622,48.7275789],[2.2371223,48.7274554],[2.2389483,48.7273649],[2.2398299,48.7272381],[2.2418096,48.7270581],[2.2431161,48.7267633],[2.2448311,48.7262784],[2.2453671,48.7261823],[2.2460291,48.726122],[2.2471059,48.7267817],[2.2482222,48.7266514],[2.2479725,48.7272238],[2.2479926,48.7273305],[2.2479344,48.7276776],[2.247504,48.7284941],[2.2470892,48.7290012],[2.2466465,48.7293902],[2.2470493,48.7303412],[2.2458727,48.7305552],[2.2444443,48.7308653],[2.2429436,48.7314132],[2.2417931,48.7323457],[2.2416693,48.7322854],[2.2404537,48.7313697]]]]},"properties":{"code_section":"91377000BS","code_commune":"91377","section_courte":"BS"}}]}