{"type":"FeatureCollection","features":[{"type":"Feature","geometry":{"type":"MultiPolygon","coordinates":[[[[2.4027428,48.5630828],[2.4028848,48.5629895],[2.4025838,48.5628118],[2.4075826,48.5590689],[2.4076093,48.5590824],[2.4119069,48.5558912],[2.4119853,48.5559249],[2.4120777,48.5558732],[2.4122197,48.5558765],[2.4123201,48.5559598],[2.4122968,48.5560569],[2.4132627,48.5564198],[2.4165813,48.5549585],[2.4167658,48.5549299],[2.4168997,48.5549763],[2.4171783,48.5548544],[2.4251317,48.5597876],[2.4252525,48.5597518],[2.4291019,48.5621298],[2.4297875,48.562479],[2.4301374,48.562619],[2.4299394,48.5627591],[2.4299321,48.5628525],[2.4296808,48.5631664],[2.4260693,48.5671065],[2.4210453,48.5661118],[2.420889,48.5661018],[2.4206536,48.5661655],[2.4205396,48.5662371],[2.4206129,48.5662623],[2.4204572,48.5663814],[2.4218697,48.5668938],[2.4231074,48.5674035],[2.4291044,48.5695153],[2.4302674,48.5700187],[2.4324417,48.5710456],[2.4324311,48.5710804],[2.4307657,48.5715294],[2.4313869,48.5722344],[2.4315457,48.572337],[2.4321659,48.5724937],[2.4322647,48.5725853],[2.432516,48.5730721],[2.4324292,48.5739042],[2.4325439,48.5740266],[2.4331951,48.5744198],[2.4333964,48.5744576],[2.4341997,48.574454],[2.4341776,48.5732562],[2.4351901,48.5725439],[2.4357149,48.572877],[2.435213,48.57324],[2.4354098,48.5733657],[2.4352574,48.5734723],[2.4352595,48.5738183],[2.4383579,48.5754234],[2.4386502,48.5749925],[2.4394416,48.5752919],[2.4403918,48.575734],[2.4409977,48.575914],[2.4424444,48.5762447],[2.4429964,48.5763988],[2.4432484,48.5759951],[2.4435501,48.5761516],[2.4437334,48.5761776],[2.4443934,48.57618],[2.4444912,48.5761567],[2.4443727,48.5765628],[2.4441908,48.5766152],[2.4440958,48.5770275],[2.443865,48.5770536],[2.4435011,48.5770422],[2.4432277,48.5769265],[2.4427057,48.5768896],[2.4420799,48.576946],[2.4416014,48.577031],[2.4415682,48.5770593],[2.4417973,48.5772518],[2.4408768,48.5769653],[2.4392788,48.5771702],[2.4386131,48.5770655],[2.4381116,48.5770801],[2.4374086,48.5769388],[2.4369258,48.5767292],[2.4365019,48.5764953],[2.4362753,48.5764656],[2.4355769,48.5765029],[2.4348869,48.5766366],[2.4339806,48.5766616],[2.4324592,48.5766343],[2.4321021,48.5766049],[2.4314876,48.5764557],[2.4309916,48.5762927],[2.4301769,48.5759911],[2.4294783,48.5755993],[2.4283635,48.5757233],[2.4279166,48.5757003],[2.4275529,48.5755402],[2.42743,48.5755342],[2.4268723,48.5756219],[2.4266072,48.5756159],[2.4265059,48.5755288],[2.4263985,48.5753246],[2.4255609,48.5750225],[2.4252387,48.5747484],[2.4244489,48.5744418],[2.4243132,48.5743451],[2.4242316,48.5741383],[2.4244108,48.573828],[2.424373,48.5737285],[2.4241557,48.5734906],[2.4239189,48.5733519],[2.4237086,48.5733237],[2.4234583,48.5733655],[2.42297,48.5735262],[2.4225813,48.5735809],[2.4224251,48.5735533],[2.4219236,48.5730757],[2.420952,48.5724264],[2.4204981,48.5720367],[2.4202147,48.5717275],[2.4216943,48.5708355],[2.421478,48.5707318],[2.4214323,48.5706623],[2.4211836,48.5705248],[2.4209524,48.5703221],[2.4209255,48.5701757],[2.4209706,48.5700065],[2.4207107,48.5699203],[2.4203793,48.5697523],[2.4203022,48.5696362],[2.4189053,48.5685925],[2.4183187,48.5682179],[2.417427,48.5677329],[2.4158416,48.5669814],[2.4153465,48.5668717],[2.4149503,48.5666915],[2.41462,48.5664555],[2.4139371,48.5657863],[2.413434,48.5656995],[2.412948,48.5654807],[2.4127453,48.5653238],[2.4127866,48.5649598],[2.4127111,48.5648568],[2.4124188,48.5647479],[2.4113076,48.5645641],[2.4104454,48.5646812],[2.4095961,48.5647387],[2.4083934,48.5649938],[2.4080602,48.5650234],[2.4076392,48.5648415],[2.4074518,48.5647911],[2.4071704,48.5647732],[2.4061048,48.5646148],[2.4058247,48.5646309],[2.405293,48.5645673],[2.4045028,48.564369],[2.4037546,48.5640207],[2.4033584,48.5635663],[2.4025911,48.5631826],[2.4027428,48.5630828]]]]},"properties":{"code_section":"913860000A","code_commune":"91386","section_courte":"A"}},{"type":"Feature","geometry":{"type":"MultiPolygon","coordinates":[[[[2.4697242,48.5463925],[2.4692486,48.5491758],[2.4663122,48.5502056],[2.4656826,48.5495866],[2.4652126,48.5490097],[2.464687,48.5484505],[2.463768,48.5475543],[2.4613465,48.5448859],[2.4612685,48.5448894],[2.4597497,48.5453944],[2.4579669,48.5458726],[2.4571614,48.5462422],[2.4555314,48.5465671],[2.4554851,48.5465585],[2.4550475,48.5455136],[2.4550096,48.545511],[2.4453171,48.5481691],[2.4451888,48.548169],[2.4425816,48.5488598],[2.4422082,48.5482381],[2.4414641,48.548441],[2.4403446,48.5486848],[2.4400027,48.5480308],[2.4411006,48.5477645],[2.4411822,48.5479099],[2.4445079,48.5470477],[2.4445993,48.5470474],[2.4494478,48.5455849],[2.450977,48.5451675],[2.4543495,48.5441314],[2.4597255,48.5420117],[2.4618618,48.5415739],[2.462643,48.541451],[2.4637253,48.5414553],[2.4651839,48.5413319],[2.4679629,48.5436526],[2.4685647,48.5446887],[2.4697242,48.5463925]]]]},"properties":{"code_section":"913860000Z","code_commune":"91386","section_courte":"Z"}},{"type":"Feature","geometry":{"type":"MultiPolygon","coordinates":[[[[2.4227734,48.5515557],[2.4230196,48.5515531],[2.4232951,48.5516051],[2.4267341,48.5524564],[2.4267697,48.5525162],[2.4259181,48.5540346],[2.4226069,48.554889],[2.4218335,48.5547276],[2.4216276,48.5551538],[2.4212069,48.5554547],[2.4210022,48.5554549],[2.4202246,48.5558091],[2.4193561,48.5557663],[2.4190304,48.556003],[2.4169246,48.5546971],[2.4169098,48.5547225],[2.4165759,48.5545195],[2.4155727,48.5540871],[2.4151317,48.5537375],[2.4157927,48.5533575],[2.415849,48.5534272],[2.4163619,48.5531074],[2.4165997,48.5532397],[2.4166462,48.5532142],[2.4176624,48.5539656],[2.4189834,48.5532378],[2.4190299,48.5532686],[2.4204577,48.5525538],[2.4204706,48.5525017],[2.4220733,48.5516153],[2.4222137,48.5517069],[2.4224071,48.5516295],[2.4227734,48.5515557]]]]},"properties":{"code_section":"91386000AB","code_commune":"91386","section_courte":"AB"}},{"type":"Feature","geometry":{"type":"MultiPolygon","coordinates":[[[[2.4271043,48.5525428],[2.4288905,48.5532669],[2.4289682,48.5533552],[2.4290565,48.5533618],[2.4297051,48.5544875],[2.4298004,48.5545276],[2.4293031,48.5545649],[2.4288855,48.5546739],[2.4285454,48.5548476],[2.4283102,48.5550505],[2.428121,48.555381],[2.4280922,48.5555588],[2.4281208,48.55578],[2.4282355,48.5560044],[2.4285941,48.5563551],[2.4252525,48.5597518],[2.4251317,48.5597876],[2.4190304,48.556003],[2.4193561,48.5557663],[2.4202246,48.5558091],[2.4210022,48.5554549],[2.4212069,48.5554547],[2.4216276,48.5551538],[2.4218335,48.5547276],[2.4226069,48.554889],[2.4259181,48.5540346],[2.4267697,48.5525162],[2.4267341,48.5524564],[2.4271043,48.5525428]]]]},"properties":{"code_section":"91386000AC","code_commune":"91386","section_courte":"AC"}},{"type":"Feature","geometry":{"type":"MultiPolygon","coordinates":[[[[2.434898,48.5537255],[2.4349387,48.5535474],[2.4354901,48.5534023],[2.4370956,48.5535636],[2.437189,48.5535967],[2.4364154,48.5570653],[2.4347853,48.5602307],[2.4346666,48.5602547],[2.4309719,48.5594189],[2.4300472,48.5579057],[2.4299332,48.557582],[2.4285793,48.5563735],[2.4285941,48.5563551],[2.4283192,48.5561038],[2.4281674,48.5558992],[2.4280922,48.5555588],[2.428137,48.555332],[2.4282572,48.5551146],[2.4284324,48.5549313],[2.4286341,48.5547925],[2.4288855,48.5546739],[2.4291468,48.5545952],[2.4298004,48.5545276],[2.4297051,48.5544875],[2.4290565,48.5533618],[2.4291537,48.5533756],[2.4292284,48.5533516],[2.4292751,48.5532754],[2.4301442,48.5530573],[2.4301816,48.5531202],[2.4303055,48.5530881],[2.4303657,48.5531873],[2.4307722,48.5530837],[2.4308538,48.5530976],[2.4310811,48.5530293],[2.431141,48.5529828],[2.4311623,48.5531923],[2.431364,48.5535542],[2.4324244,48.5532841],[2.4328078,48.5532205],[2.4343522,48.5536395],[2.434898,48.5537255]]]]},"properties":{"code_section":"91386000AE","code_commune":"91386","section_courte":"AE"}},{"type":"Feature","geometry":{"type":"MultiPolygon","coordinates":[[[[2.4440367,48.5514303],[2.4439853,48.5532947],[2.4407945,48.5545936],[2.4365626,48.5563789],[2.4382909,48.5488337],[2.4383953,48.548837],[2.4400328,48.5480941],[2.4403446,48.5486848],[2.4414641,48.548441],[2.4422082,48.5482381],[2.4425816,48.5488598],[2.4441042,48.548457],[2.4440367,48.5514303]]]]},"properties":{"code_section":"91386000AH","code_commune":"91386","section_courte":"AH"}},{"type":"Feature","geometry":{"type":"MultiPolygon","coordinates":[[[[2.4352711,48.5492814],[2.4380994,48.5495854],[2.437189,48.5535967],[2.4370956,48.5535636],[2.4354901,48.5534023],[2.4349387,48.5535474],[2.434898,48.5537255],[2.4343522,48.5536395],[2.4328078,48.5532205],[2.4324244,48.5532841],[2.431364,48.5535542],[2.4311623,48.5531923],[2.431141,48.5529828],[2.4310811,48.5530293],[2.4308538,48.5530976],[2.4307722,48.5530837],[2.4303657,48.5531873],[2.4303055,48.5530881],[2.4301816,48.5531202],[2.4301442,48.5530573],[2.4292751,48.5532754],[2.4292284,48.5533516],[2.4291537,48.5533756],[2.4289682,48.5533552],[2.4288905,48.5532669],[2.4275164,48.5526948],[2.4278726,48.552139],[2.428751,48.5515147],[2.4289211,48.5511582],[2.4289063,48.5506895],[2.428104,48.5495248],[2.4279013,48.5493382],[2.4276362,48.5491913],[2.4283634,48.5485372],[2.4352711,48.5492814]]]]},"properties":{"code_section":"91386000AI","code_commune":"91386","section_courte":"AI"}},{"type":"Feature","geometry":{"type":"MultiPolygon","coordinates":[[[[2.4389298,48.5454637],[2.4391251,48.5455794],[2.440362,48.5479456],[2.4400027,48.5480308],[2.4400328,48.5480941],[2.4383953,48.548837],[2.4382909,48.5488337],[2.4380994,48.5495854],[2.4283634,48.5485372],[2.429735,48.5473025],[2.4317362,48.5475338],[2.4319159,48.5468066],[2.4321866,48.546589],[2.4316419,48.5462822],[2.4318791,48.5460867],[2.4339252,48.5454686],[2.434841,48.5465808],[2.437571,48.5460067],[2.4375089,48.5457834],[2.4389298,48.5454637]]]]},"properties":{"code_section":"91386000AK","code_commune":"91386","section_courte":"AK"}},{"type":"Feature","geometry":{"type":"MultiPolygon","coordinates":[[[[2.4233757,48.54547],[2.4249622,48.544555],[2.4282672,48.5433578],[2.4301028,48.544415],[2.4309317,48.5449584],[2.4312658,48.5452829],[2.4318791,48.5460867],[2.4316419,48.5462822],[2.4321866,48.546589],[2.4319159,48.5468066],[2.4317362,48.5475338],[2.429735,48.5473025],[2.4273525,48.5494539],[2.4269217,48.5493118],[2.4249902,48.5488171],[2.42483,48.5487381],[2.4240263,48.5479956],[2.423343,48.5483293],[2.4231219,48.5485391],[2.4228222,48.5485222],[2.4223608,48.5476214],[2.4213352,48.5466561],[2.4233757,48.54547]]]]},"properties":{"code_section":"91386000AL","code_commune":"91386","section_courte":"AL"}},{"type":"Feature","geometry":{"type":"MultiPolygon","coordinates":[[[[2.4276832,48.5524366],[2.4275164,48.5526948],[2.4271043,48.5525428],[2.4230196,48.5515531],[2.4227734,48.5515557],[2.4224071,48.5516295],[2.4222137,48.5517069],[2.4221564,48.5516864],[2.4220733,48.5516153],[2.4228222,48.5485222],[2.4231219,48.5485391],[2.423343,48.5483293],[2.4240263,48.5479956],[2.42483,48.5487381],[2.4251615,48.5488768],[2.4269217,48.5493118],[2.4273525,48.5494539],[2.4276362,48.5491913],[2.4279013,48.5493382],[2.428104,48.5495248],[2.4289063,48.5506895],[2.4289211,48.5511582],[2.428751,48.5515147],[2.4278726,48.552139],[2.4276832,48.5524366]]]]},"properties":{"code_section":"91386000AM","code_commune":"91386","section_courte":"AM"}},{"type":"Feature","geometry":{"type":"MultiPolygon","coordinates":[[[[2.4272352,48.5609733],[2.4252525,48.5597518],[2.4285793,48.5563735],[2.4299332,48.557582],[2.4300472,48.5579057],[2.4309719,48.5594189],[2.4346666,48.5602547],[2.4347853,48.5602307],[2.4330815,48.5635024],[2.4299394,48.5627591],[2.4301374,48.562619],[2.4297875,48.562479],[2.4291019,48.5621298],[2.4272352,48.5609733]]]]},"properties":{"code_section":"91386000BA","code_commune":"91386","section_courte":"BA"}},{"type":"Feature","geometry":{"type":"MultiPolygon","coordinates":[[[[2.4322884,48.5675483],[2.4301973,48.5688326],[2.4301407,48.5689247],[2.4300716,48.568957],[2.429398,48.5696396],[2.4231074,48.5674035],[2.4218697,48.5668938],[2.4204572,48.5663814],[2.4206129,48.5662623],[2.4205396,48.5662371],[2.4206536,48.5661655],[2.420889,48.5661018],[2.4210453,48.5661118],[2.4260693,48.5671065],[2.4296808,48.5631664],[2.4299321,48.5628525],[2.4299394,48.5627591],[2.4315126,48.5631405],[2.4310738,48.5636415],[2.4310518,48.5638597],[2.431347,48.564691],[2.4313592,48.5651905],[2.4314781,48.5653657],[2.4318233,48.5656131],[2.4320631,48.5658584],[2.4325352,48.5664974],[2.4328915,48.566901],[2.4331023,48.5670424],[2.4322884,48.5675483]]]]},"properties":{"code_section":"91386000BB","code_commune":"91386","section_courte":"BB"}},{"type":"Feature","geometry":{"type":"MultiPolygon","coordinates":[[[[2.4307657,48.5715294],[2.4324311,48.5710804],[2.4324417,48.5710456],[2.4302674,48.5700187],[2.429398,48.5696396],[2.4300716,48.568957],[2.4301407,48.5689247],[2.4301973,48.5688326],[2.4319837,48.5677251],[2.4322936,48.5683034],[2.432687,48.5687413],[2.4334641,48.5680823],[2.4339526,48.5678418],[2.4341014,48.5678369],[2.4341252,48.5698629],[2.435338,48.5703448],[2.4365953,48.5710156],[2.4367636,48.571201],[2.4369564,48.5716958],[2.4370399,48.5717836],[2.4372464,48.5718894],[2.4363128,48.5724812],[2.4361226,48.5726339],[2.4367803,48.5729109],[2.4364069,48.5731775],[2.4363512,48.5732016],[2.4357856,48.5728629],[2.4357149,48.572877],[2.4351901,48.5725439],[2.4341776,48.5732562],[2.4341997,48.574454],[2.4333964,48.5744576],[2.4331951,48.5744198],[2.4325439,48.5740266],[2.4324292,48.5739042],[2.432516,48.5730721],[2.4322647,48.5725853],[2.4321659,48.5724937],[2.4315457,48.572337],[2.4313869,48.5722344],[2.4307657,48.5715294]]]]},"properties":{"code_section":"91386000BC","code_commune":"91386","section_courte":"BC"}},{"type":"Feature","geometry":{"type":"MultiPolygon","coordinates":[[[[2.4386315,48.5750112],[2.4383579,48.5754234],[2.4352595,48.5738183],[2.4352574,48.5734723],[2.4354098,48.5733657],[2.435213,48.57324],[2.4357149,48.572877],[2.4357856,48.5728629],[2.4363512,48.5732016],[2.4364069,48.5731775],[2.4367803,48.5729109],[2.4361226,48.5726339],[2.4363128,48.5724812],[2.4372464,48.5718894],[2.439246,48.5726969],[2.4400238,48.5728635],[2.4412855,48.5733769],[2.4419675,48.5734874],[2.4417376,48.5731032],[2.4421835,48.5715798],[2.4428257,48.5716641],[2.4427143,48.5719942],[2.4455875,48.5723605],[2.4458335,48.5716178],[2.4459766,48.5716733],[2.4476884,48.571938],[2.4489786,48.5721919],[2.4487986,48.572476],[2.4486228,48.5728633],[2.448345,48.5738095],[2.4483431,48.5743117],[2.4484456,48.5749512],[2.4484191,48.5753983],[2.4470797,48.5752825],[2.4463392,48.5752631],[2.4454289,48.5752933],[2.4447788,48.5752589],[2.4445977,48.5757097],[2.4445022,48.5758324],[2.4444451,48.5761546],[2.4443934,48.57618],[2.4437334,48.5761776],[2.4435501,48.5761516],[2.4432484,48.5759951],[2.4429964,48.5763988],[2.4424444,48.5762447],[2.4409977,48.575914],[2.4403918,48.575734],[2.4394416,48.5752919],[2.4386502,48.5749925],[2.4386315,48.5750112]]]]},"properties":{"code_section":"91386000BD","code_commune":"91386","section_courte":"BD"}},{"type":"Feature","geometry":{"type":"MultiPolygon","coordinates":[[[[2.4433228,48.5720791],[2.4427143,48.5719942],[2.4428257,48.5716641],[2.4421835,48.5715798],[2.4417376,48.5731032],[2.4419675,48.5734874],[2.4412855,48.5733769],[2.4400238,48.5728635],[2.439246,48.5726969],[2.4372464,48.5718894],[2.4370399,48.5717836],[2.4369564,48.5716958],[2.4367636,48.571201],[2.4365953,48.5710156],[2.435338,48.5703448],[2.4341252,48.5698629],[2.4341014,48.5678369],[2.4344204,48.5679027],[2.435788,48.5680758],[2.4371673,48.5683377],[2.4377594,48.5685973],[2.4379651,48.5686176],[2.4386475,48.5686003],[2.4392288,48.5684931],[2.4403514,48.5684582],[2.4405254,48.568526],[2.4407268,48.56855],[2.4431414,48.5678961],[2.4426939,48.5694597],[2.4426173,48.5698589],[2.442658,48.5698475],[2.4425688,48.5701996],[2.4425922,48.5702305],[2.4429507,48.5703224],[2.4447323,48.5709441],[2.4451722,48.5713186],[2.4455271,48.5715091],[2.4458335,48.5716178],[2.4455875,48.5723605],[2.4433228,48.5720791]]]]},"properties":{"code_section":"91386000BE","code_commune":"91386","section_courte":"BE"}},{"type":"Feature","geometry":{"type":"MultiPolygon","coordinates":[[[[2.4427279,48.5693453],[2.4431414,48.5678961],[2.4430564,48.5678721],[2.4431433,48.5675208],[2.4431826,48.5675339],[2.443371,48.5667626],[2.4435171,48.5666983],[2.4434101,48.5666198],[2.4434987,48.566299],[2.4520118,48.5681413],[2.4509677,48.5702158],[2.4505159,48.5706839],[2.4494451,48.5716613],[2.4489786,48.5721919],[2.4476884,48.571938],[2.4459766,48.5716733],[2.4455271,48.5715091],[2.4451722,48.5713186],[2.4447323,48.5709441],[2.4429507,48.5703224],[2.4425922,48.5702305],[2.4425688,48.5701996],[2.442658,48.5698475],[2.4426173,48.5698589],[2.4427279,48.5693453]]]]},"properties":{"code_section":"91386000BH","code_commune":"91386","section_courte":"BH"}},{"type":"Feature","geometry":{"type":"MultiPolygon","coordinates":[[[[2.442649,48.565092],[2.4433062,48.5656466],[2.4431887,48.566027],[2.443144,48.56602],[2.443082,48.5662086],[2.4434987,48.566299],[2.4434101,48.5666198],[2.4435171,48.5666983],[2.443371,48.5667626],[2.4431826,48.5675339],[2.4431433,48.5675208],[2.4430564,48.5678721],[2.4431414,48.5678961],[2.4407268,48.56855],[2.4405254,48.568526],[2.4403514,48.5684582],[2.4392288,48.5684931],[2.4386475,48.5686003],[2.4379651,48.5686176],[2.4377594,48.5685973],[2.4371673,48.5683377],[2.435788,48.5680758],[2.4344204,48.5679027],[2.4341014,48.5678369],[2.4339526,48.5678418],[2.4334641,48.5680823],[2.432687,48.5687413],[2.4322936,48.5683034],[2.4319837,48.5677251],[2.4331023,48.5670424],[2.43347,48.5672009],[2.4344709,48.5665859],[2.4348598,48.5668461],[2.4356131,48.5667462],[2.4359139,48.5666438],[2.4372444,48.5658529],[2.438067,48.5651058],[2.4383303,48.5651662],[2.4385132,48.5650803],[2.4386634,48.5650562],[2.4398323,48.56502],[2.4407046,48.5649593],[2.4416476,48.5647877],[2.4421183,48.5646522],[2.442649,48.565092]]]]},"properties":{"code_section":"91386000BI","code_commune":"91386","section_courte":"BI"}},{"type":"Feature","geometry":{"type":"MultiPolygon","coordinates":[[[[2.4336833,48.5623454],[2.4360056,48.5578835],[2.4360953,48.5579353],[2.4387947,48.5617637],[2.4372065,48.5624233],[2.4378541,48.5630815],[2.4371705,48.5633949],[2.4375186,48.5637362],[2.4371836,48.563919],[2.4376406,48.5643599],[2.4385445,48.5639044],[2.4398323,48.56502],[2.4386634,48.5650562],[2.4385132,48.5650803],[2.4383303,48.5651662],[2.438067,48.5651058],[2.4372444,48.5658529],[2.4361031,48.5665448],[2.4359139,48.5666438],[2.4356131,48.5667462],[2.4348598,48.5668461],[2.4344709,48.5665859],[2.43347,48.5672009],[2.4331023,48.5670424],[2.4328915,48.566901],[2.4325352,48.5664974],[2.4320631,48.5658584],[2.4318233,48.5656131],[2.4314781,48.5653657],[2.4313592,48.5651905],[2.431347,48.564691],[2.4310689,48.5639414],[2.4310738,48.5636415],[2.4315126,48.5631405],[2.4330815,48.5635024],[2.4336833,48.5623454]]]]},"properties":{"code_section":"91386000BK","code_commune":"91386","section_courte":"BK"}},{"type":"Feature","geometry":{"type":"MultiPolygon","coordinates":[[[[2.4387843,48.5617861],[2.4372842,48.5596118],[2.4401444,48.5587239],[2.4412575,48.5603116],[2.4406255,48.5607636],[2.4406392,48.560795],[2.4422168,48.5624219],[2.4417795,48.5626419],[2.4419484,48.5628211],[2.4424189,48.5626559],[2.4428867,48.562434],[2.4438547,48.5618298],[2.4441873,48.5621007],[2.4437312,48.5639853],[2.4436225,48.5640366],[2.443704,48.5640977],[2.4433062,48.5656466],[2.4421183,48.5646522],[2.4416476,48.5647877],[2.4407046,48.5649593],[2.4398323,48.56502],[2.4385445,48.5639044],[2.4376406,48.5643599],[2.4376076,48.5643318],[2.4371836,48.563919],[2.4375186,48.5637362],[2.4371705,48.5633949],[2.4378541,48.5630815],[2.4372065,48.5624233],[2.4387843,48.5617861]]]]},"properties":{"code_section":"91386000BL","code_commune":"91386","section_courte":"BL"}},{"type":"Feature","geometry":{"type":"MultiPolygon","coordinates":[[[[2.4431098,48.5661371],[2.443144,48.56602],[2.4431887,48.566027],[2.443454,48.5651296],[2.443704,48.5640977],[2.4436225,48.5640366],[2.4437312,48.5639853],[2.4441873,48.5621007],[2.4438547,48.5618298],[2.4441539,48.5616651],[2.4448625,48.5613957],[2.4449231,48.5614278],[2.4455185,48.5612307],[2.44617,48.5615925],[2.446499,48.5618489],[2.4468868,48.5622517],[2.4469624,48.5622689],[2.4474292,48.5630836],[2.4482569,48.5642899],[2.4487182,48.5641666],[2.4492323,48.564914],[2.4525427,48.5672348],[2.4522466,48.5676297],[2.4520118,48.5681413],[2.443082,48.5662086],[2.4431098,48.5661371]]]]},"properties":{"code_section":"91386000BM","code_commune":"91386","section_courte":"BM"}},{"type":"Feature","geometry":{"type":"MultiPolygon","coordinates":[[[[2.4206808,48.5469885],[2.4213352,48.5466561],[2.4223608,48.5476214],[2.4228222,48.5485222],[2.4220733,48.5516153],[2.4204706,48.5525017],[2.4204577,48.5525538],[2.4190299,48.5532686],[2.4189834,48.5532378],[2.4176624,48.5539656],[2.4166462,48.5532142],[2.4165997,48.5532397],[2.4163619,48.5531074],[2.415849,48.5534272],[2.4157927,48.5533575],[2.4151317,48.5537375],[2.414335,48.5532957],[2.4130491,48.5527986],[2.4139253,48.5527782],[2.41544,48.5528718],[2.4158105,48.5528655],[2.4160059,48.5528346],[2.4172322,48.5519262],[2.417462,48.5518049],[2.4175033,48.5517385],[2.418215,48.5512317],[2.4183936,48.5513569],[2.4186748,48.5512293],[2.4187055,48.5512424],[2.4200778,48.5505958],[2.4187807,48.5494141],[2.4176959,48.5485015],[2.4206808,48.5469885]]]]},"properties":{"code_section":"91386000ZA","code_commune":"91386","section_courte":"ZA"}},{"type":"Feature","geometry":{"type":"MultiPolygon","coordinates":[[[[2.4487182,48.5641666],[2.4482569,48.5642899],[2.4474292,48.5630836],[2.4469624,48.5622689],[2.4468868,48.5622517],[2.446499,48.5618489],[2.44617,48.5615925],[2.4455185,48.5612307],[2.4449231,48.5614278],[2.4448625,48.5613957],[2.4441539,48.5616651],[2.4428867,48.562434],[2.4424189,48.5626559],[2.4419484,48.5628211],[2.4417795,48.5626419],[2.4422168,48.5624219],[2.4406392,48.560795],[2.4406255,48.5607636],[2.4412575,48.5603116],[2.4401444,48.5587239],[2.4372842,48.5596118],[2.4360953,48.5579353],[2.4360056,48.5578835],[2.4364154,48.5570653],[2.4365626,48.5563789],[2.4407945,48.5545936],[2.441406,48.5549913],[2.4428326,48.5564526],[2.4452218,48.5578174],[2.4455467,48.5579381],[2.4464576,48.558631],[2.4463635,48.5584662],[2.4461454,48.5582211],[2.4469879,48.5565057],[2.4473785,48.5563252],[2.4479753,48.5562243],[2.4485546,48.5561714],[2.4494658,48.5557237],[2.4505742,48.5553623],[2.4509741,48.5551542],[2.4512177,48.5547698],[2.451488,48.5545893],[2.4518618,48.5544268],[2.4538282,48.5583324],[2.4540573,48.5588954],[2.454954,48.5627281],[2.455066,48.5630232],[2.4562888,48.5638198],[2.4551263,48.5645037],[2.4543107,48.5650946],[2.4541544,48.565324],[2.4525427,48.5672348],[2.4492323,48.564914],[2.4487182,48.5641666]]]]},"properties":{"code_section":"91386000ZB","code_commune":"91386","section_courte":"ZB"}},{"type":"Feature","geometry":{"type":"MultiPolygon","coordinates":[[[[2.451488,48.5545893],[2.4512177,48.5547698],[2.4509741,48.5551542],[2.4505742,48.5553623],[2.4494658,48.5557237],[2.4485546,48.5561714],[2.4479753,48.5562243],[2.4473785,48.5563252],[2.4469879,48.5565057],[2.4479088,48.5546591],[2.4479681,48.551954],[2.4483031,48.551793],[2.4483029,48.5517486],[2.4479264,48.551737],[2.4480281,48.5474105],[2.4550096,48.545511],[2.4550475,48.5455136],[2.4554851,48.5465585],[2.4555314,48.5465671],[2.4571614,48.5462422],[2.4579669,48.5458726],[2.4597497,48.5453944],[2.4612685,48.5448894],[2.4613465,48.5448859],[2.463768,48.5475543],[2.464687,48.5484505],[2.4652126,48.5490097],[2.4656826,48.5495866],[2.4668591,48.5507411],[2.4675265,48.551537],[2.4687701,48.5541211],[2.4697339,48.5559772],[2.4685686,48.5560672],[2.4683804,48.5561655],[2.4682402,48.5564199],[2.4677479,48.5566228],[2.4672811,48.5567347],[2.465718,48.5569346],[2.4651763,48.5568896],[2.4639202,48.5569542],[2.4633901,48.5569259],[2.4620144,48.5569378],[2.4592469,48.5571065],[2.4562619,48.5578679],[2.4553359,48.5580758],[2.4538282,48.5583324],[2.4518618,48.5544268],[2.451488,48.5545893]]]]},"properties":{"code_section":"91386000ZC","code_commune":"91386","section_courte":"ZC"}},{"type":"Feature","geometry":{"type":"MultiPolygon","coordinates":[[[[2.4407945,48.5545936],[2.4439853,48.5532947],[2.4441042,48.548457],[2.4451888,48.548169],[2.4453171,48.5481691],[2.4480281,48.5474105],[2.4479264,48.551737],[2.4483029,48.5517486],[2.4483031,48.551793],[2.4479681,48.551954],[2.4479088,48.5546591],[2.4461454,48.5582211],[2.4463635,48.5584662],[2.4464576,48.558631],[2.4455467,48.5579381],[2.4452218,48.5578174],[2.4428326,48.5564526],[2.441406,48.5549913],[2.4407945,48.5545936]]]]},"properties":{"code_section":"91386000ZD","code_commune":"91386","section_courte":"ZD"}}]}