{"type":"FeatureCollection","features":[{"type":"Feature","geometry":{"type":"MultiPolygon","coordinates":[[[[2.2702688,48.6360291],[2.2704805,48.6362603],[2.2712127,48.6373012],[2.2716228,48.6378124],[2.2717102,48.6380432],[2.27173,48.6382824],[2.2716653,48.6383928],[2.271735,48.6390607],[2.2721614,48.6408408],[2.2721552,48.6412859],[2.2720741,48.6419167],[2.2721915,48.6419886],[2.2720958,48.6420004],[2.2719768,48.6422405],[2.2718578,48.6423306],[2.2713089,48.642949],[2.2697277,48.644024],[2.267256,48.6376339],[2.2690242,48.637198],[2.2688759,48.6371992],[2.2688823,48.6370569],[2.2683648,48.6371537],[2.2683053,48.6368576],[2.2693912,48.6363852],[2.2693725,48.6363611],[2.2694753,48.6363185],[2.2694944,48.6363417],[2.2702688,48.6360291]]]]},"properties":{"code_section":"91425000AA","code_commune":"91425","section_courte":"AA"}},{"type":"Feature","geometry":{"type":"MultiPolygon","coordinates":[[[[2.2607369,48.6441415],[2.2607198,48.643626],[2.2610484,48.6436161],[2.2616131,48.6435186],[2.261436,48.6432068],[2.2612047,48.6430301],[2.2608544,48.6424794],[2.2605906,48.6415078],[2.260213,48.6405624],[2.2603327,48.640297],[2.2603966,48.6399571],[2.2604251,48.6392072],[2.2595941,48.639146],[2.2626585,48.6388721],[2.2631722,48.6388005],[2.265372,48.6382291],[2.2660092,48.6380101],[2.2672663,48.6376599],[2.2693349,48.6429999],[2.2691443,48.6430432],[2.2682308,48.6436462],[2.26704,48.6429607],[2.2669803,48.6429582],[2.2667342,48.6432702],[2.2664756,48.6434863],[2.2658883,48.6438467],[2.2656275,48.6439289],[2.2651026,48.6439878],[2.263635,48.6440553],[2.2615871,48.6444815],[2.2611576,48.6445996],[2.2607502,48.6445153],[2.2607369,48.6441415]]]]},"properties":{"code_section":"91425000AB","code_commune":"91425","section_courte":"AB"}},{"type":"Feature","geometry":{"type":"MultiPolygon","coordinates":[[[[2.2607502,48.6445153],[2.2602763,48.6444039],[2.2593564,48.6443425],[2.2582155,48.6440444],[2.255579,48.6438096],[2.2552456,48.6438015],[2.2542701,48.6438441],[2.2534955,48.6440028],[2.2517717,48.6441414],[2.2507591,48.6443207],[2.2502261,48.644452],[2.2497327,48.6443755],[2.2488253,48.6443244],[2.2483347,48.6441449],[2.2483186,48.6434637],[2.2489789,48.6433507],[2.2495156,48.6432211],[2.2500437,48.642906],[2.2506206,48.6424005],[2.2512548,48.6420777],[2.2513174,48.6419347],[2.2513719,48.6414806],[2.2517926,48.6409429],[2.2519159,48.6406019],[2.2522302,48.6401959],[2.2533592,48.6393148],[2.2559556,48.6389162],[2.2566659,48.6388768],[2.2604251,48.6392072],[2.2603966,48.6399571],[2.2603327,48.640297],[2.260213,48.6405624],[2.2605906,48.6415078],[2.2608544,48.6424794],[2.2612047,48.6430301],[2.261436,48.6432068],[2.2616131,48.6435186],[2.2610484,48.6436161],[2.2607198,48.643626],[2.2607502,48.6445153]]]]},"properties":{"code_section":"91425000AC","code_commune":"91425","section_courte":"AC"}},{"type":"Feature","geometry":{"type":"MultiPolygon","coordinates":[[[[2.2491427,48.6456182],[2.2484374,48.6456168],[2.2483347,48.6441449],[2.2488253,48.6443244],[2.2497327,48.6443755],[2.2502261,48.644452],[2.2507591,48.6443207],[2.2517717,48.6441414],[2.2534955,48.6440028],[2.2542701,48.6438441],[2.2547685,48.6438094],[2.255579,48.6438096],[2.2582155,48.6440444],[2.2593564,48.6443425],[2.2602763,48.6444039],[2.2611931,48.6446075],[2.2592399,48.645623],[2.2608974,48.6461008],[2.2622164,48.6465141],[2.2623645,48.6465848],[2.2620681,48.6466532],[2.260872,48.6470999],[2.2594715,48.6474974],[2.2576414,48.6479722],[2.2559477,48.6482725],[2.2553484,48.6484501],[2.2550889,48.6485933],[2.2537384,48.6479648],[2.2541438,48.6477426],[2.2541178,48.6476823],[2.251316,48.6456902],[2.2491427,48.6456182]]]]},"properties":{"code_section":"91425000AD","code_commune":"91425","section_courte":"AD"}},{"type":"Feature","geometry":{"type":"MultiPolygon","coordinates":[[[[2.2550889,48.6485933],[2.2553484,48.6484501],[2.2559477,48.6482725],[2.2576414,48.6479722],[2.2594715,48.6474974],[2.260872,48.6470999],[2.2620681,48.6466532],[2.2623645,48.6465848],[2.2628539,48.6466022],[2.2636796,48.6468415],[2.2637041,48.6467797],[2.2641719,48.6469241],[2.2646843,48.6471132],[2.264977,48.6472569],[2.2656327,48.6474697],[2.2664354,48.6478549],[2.2660854,48.6484386],[2.2659308,48.6486153],[2.2651989,48.6490749],[2.2650211,48.6493271],[2.2651387,48.6493484],[2.2658129,48.6491967],[2.2659122,48.6494126],[2.265722,48.6495069],[2.265335,48.6495947],[2.2651491,48.6497041],[2.2642915,48.6499369],[2.2628725,48.6503843],[2.2625743,48.6504318],[2.2622167,48.6505463],[2.2620854,48.6505602],[2.2615617,48.650504],[2.2611413,48.650314],[2.260775,48.6502824],[2.2602337,48.6501823],[2.2585215,48.6500892],[2.2579538,48.6501513],[2.2575588,48.649881],[2.257304,48.6495812],[2.2571219,48.6494638],[2.2555646,48.6488305],[2.2550889,48.6485933]]]]},"properties":{"code_section":"91425000AE","code_commune":"91425","section_courte":"AE"}},{"type":"Feature","geometry":{"type":"MultiPolygon","coordinates":[[[[2.2670536,48.6429686],[2.2682308,48.6436462],[2.2691443,48.6430432],[2.2693349,48.6429999],[2.2707107,48.6465483],[2.268495,48.6469028],[2.2684371,48.6464907],[2.2681902,48.6466734],[2.2672797,48.6471045],[2.2667686,48.6476327],[2.2665229,48.6478255],[2.2664354,48.6478549],[2.2656327,48.6474697],[2.264977,48.6472569],[2.2646843,48.6471132],[2.2641719,48.6469241],[2.2637041,48.6467797],[2.2636796,48.6468415],[2.2628539,48.6466022],[2.2623645,48.6465848],[2.2622164,48.6465141],[2.2608974,48.6461008],[2.2592399,48.645623],[2.2610703,48.6446859],[2.2611931,48.6446075],[2.2611576,48.6445996],[2.2612518,48.6445654],[2.263635,48.6440553],[2.2654589,48.64396],[2.2658883,48.6438467],[2.2664756,48.6434863],[2.2667342,48.6432702],[2.2669803,48.6429582],[2.2670536,48.6429686]]]]},"properties":{"code_section":"91425000AH","code_commune":"91425","section_courte":"AH"}},{"type":"Feature","geometry":{"type":"MultiPolygon","coordinates":[[[[2.2684896,48.6502608],[2.2680198,48.6501268],[2.2675818,48.6498883],[2.2672211,48.6497524],[2.2671089,48.6495281],[2.2669659,48.6494555],[2.2665614,48.6494],[2.2659122,48.6494126],[2.2658129,48.6491967],[2.2651387,48.6493484],[2.2650211,48.6493271],[2.2651989,48.6490749],[2.2659308,48.6486153],[2.2660854,48.6484386],[2.2664354,48.6478549],[2.2665229,48.6478255],[2.2667686,48.6476327],[2.2672797,48.6471045],[2.2681902,48.6466734],[2.2684371,48.6464907],[2.268495,48.6469028],[2.2707107,48.6465483],[2.2713054,48.6480586],[2.271512,48.6480546],[2.2719873,48.6479709],[2.2725084,48.6478089],[2.2728786,48.6477478],[2.2750453,48.6475232],[2.276017,48.6473416],[2.2770895,48.6467369],[2.2774047,48.6467532],[2.2774343,48.646853],[2.2766873,48.6481643],[2.2766195,48.6485263],[2.2764262,48.6490401],[2.2762131,48.6493144],[2.2747648,48.6508162],[2.274516,48.6509654],[2.2727167,48.6517426],[2.2728384,48.6520563],[2.2726136,48.6520694],[2.2724671,48.6519222],[2.2722618,48.651243],[2.2719855,48.6510662],[2.2711059,48.6507469],[2.2706215,48.6506984],[2.2703178,48.6505423],[2.2700628,48.6504735],[2.269935,48.6503176],[2.2697841,48.6502429],[2.2692794,48.6502539],[2.2690013,48.6501955],[2.2688155,48.6503408],[2.2684896,48.6502608]]]]},"properties":{"code_section":"91425000AI","code_commune":"91425","section_courte":"AI"}},{"type":"Feature","geometry":{"type":"MultiPolygon","coordinates":[[[[2.2822344,48.6439705],[2.2808136,48.6445383],[2.2804753,48.6447123],[2.2780887,48.6462247],[2.2770895,48.6467369],[2.276017,48.6473416],[2.2750453,48.6475232],[2.2728786,48.6477478],[2.2725084,48.6478089],[2.2719873,48.6479709],[2.271512,48.6480546],[2.2713054,48.6480586],[2.2697277,48.644024],[2.2713089,48.642949],[2.2718578,48.6423306],[2.2719768,48.6422405],[2.2720958,48.6420004],[2.2721915,48.6419886],[2.2730093,48.6426065],[2.2734439,48.6428786],[2.2737058,48.6428483],[2.2743737,48.6426971],[2.2772266,48.641997],[2.2776701,48.6418592],[2.2785481,48.6414862],[2.278996,48.6413298],[2.2796182,48.6411734],[2.2802113,48.6410896],[2.2806928,48.6424437],[2.2808185,48.6424238],[2.2812775,48.6435344],[2.2812184,48.643541],[2.2813289,48.6437019],[2.2814214,48.643833],[2.2818383,48.6437575],[2.2822344,48.6439705]]]]},"properties":{"code_section":"91425000AK","code_commune":"91425","section_courte":"AK"}},{"type":"Feature","geometry":{"type":"MultiPolygon","coordinates":[[[[2.282304,48.640816],[2.2812518,48.6409228],[2.2796182,48.6411734],[2.278996,48.6413298],[2.2785481,48.6414862],[2.2776701,48.6418592],[2.2772266,48.641997],[2.2743737,48.6426971],[2.2737058,48.6428483],[2.2734439,48.6428786],[2.2730093,48.6426065],[2.2720741,48.6419167],[2.2721552,48.6412859],[2.2721614,48.6408408],[2.271735,48.6390607],[2.2716764,48.6383411],[2.27173,48.6382824],[2.2718817,48.6382166],[2.2743014,48.6373188],[2.2801237,48.6362834],[2.2806073,48.6363064],[2.2808224,48.6362874],[2.2816455,48.6360441],[2.2822981,48.635919],[2.2825206,48.6372181],[2.2815953,48.638],[2.2816786,48.6380285],[2.2812255,48.6382311],[2.2814111,48.6384377],[2.2822623,48.6396573],[2.2819991,48.6397186],[2.282304,48.640816]]]]},"properties":{"code_section":"91425000AL","code_commune":"91425","section_courte":"AL"}},{"type":"Feature","geometry":{"type":"MultiPolygon","coordinates":[[[[2.2699711,48.6345782],[2.270373,48.6342621],[2.2722517,48.633143],[2.2726039,48.6335453],[2.2729474,48.6338108],[2.2734272,48.634011],[2.2741933,48.6342452],[2.2749164,48.6346622],[2.2751494,48.6348703],[2.2756961,48.6345668],[2.2762502,48.6341387],[2.2767588,48.6338388],[2.2774932,48.633159],[2.2781136,48.6324985],[2.2791888,48.6319272],[2.279371,48.6318028],[2.2794288,48.6327371],[2.279153,48.6335211],[2.2802399,48.632724],[2.2810151,48.6333369],[2.2813252,48.6336802],[2.2818399,48.6343887],[2.2816991,48.6344431],[2.282232,48.6354563],[2.2822981,48.635919],[2.2816455,48.6360441],[2.2808224,48.6362874],[2.2806073,48.6363064],[2.2801237,48.6362834],[2.2743014,48.6373188],[2.27173,48.6382824],[2.2717102,48.6380432],[2.2716228,48.6378124],[2.2712127,48.6373012],[2.2704805,48.6362603],[2.2701787,48.6359304],[2.2709145,48.6355171],[2.2709293,48.6354665],[2.2705961,48.6354536],[2.2704425,48.6353704],[2.2702471,48.635058],[2.2701426,48.634778],[2.2700084,48.6346248],[2.2699468,48.6346249],[2.2699711,48.6345782]]]]},"properties":{"code_section":"91425000AM","code_commune":"91425","section_courte":"AM"}},{"type":"Feature","geometry":{"type":"MultiPolygon","coordinates":[[[[2.2797421,48.6297744],[2.2806314,48.6287269],[2.2808633,48.6282014],[2.2809831,48.6278034],[2.2816306,48.6269022],[2.2818737,48.6272626],[2.2822267,48.6276182],[2.2833027,48.6290387],[2.2837302,48.6296704],[2.2837122,48.6298003],[2.2831287,48.6303621],[2.2829317,48.6306425],[2.2821887,48.6318858],[2.282115,48.6319738],[2.2811207,48.6322789],[2.2807854,48.6323981],[2.2804972,48.6325471],[2.279153,48.6335211],[2.2794288,48.6327371],[2.279371,48.6318028],[2.2791888,48.6319272],[2.2781136,48.6324985],[2.2769398,48.6336881],[2.2767588,48.6338388],[2.2762502,48.6341387],[2.2762278,48.6331286],[2.2763195,48.6324078],[2.2762985,48.6322285],[2.275969,48.6319105],[2.275837,48.6315609],[2.2760953,48.6313055],[2.2760892,48.6310659],[2.2759938,48.6307708],[2.2782489,48.6302838],[2.279485,48.6300855],[2.2797421,48.6297744]]]]},"properties":{"code_section":"91425000AN","code_commune":"91425","section_courte":"AN"}}]}