{"type":"FeatureCollection","features":[{"type":"Feature","geometry":{"type":"MultiPolygon","coordinates":[[[[2.4909512,48.5814763],[2.4908598,48.5808711],[2.4909081,48.58022],[2.4908718,48.5802086],[2.4909296,48.5798545],[2.4914314,48.5783193],[2.4916896,48.5779499],[2.4910912,48.5775659],[2.492014,48.5764176],[2.4935567,48.5748559],[2.4941937,48.5755002],[2.4947877,48.5759974],[2.4945983,48.5761503],[2.49508,48.5765812],[2.4957447,48.576948],[2.4972808,48.5776998],[2.4973207,48.5775532],[2.4977174,48.5773369],[2.4992919,48.5762474],[2.4990541,48.5760924],[2.4997126,48.5759873],[2.4986229,48.5747521],[2.500998,48.5737118],[2.5014358,48.573616],[2.5019764,48.5733722],[2.5018043,48.5731935],[2.5015157,48.5727499],[2.4971836,48.5747304],[2.4972091,48.5747424],[2.4970606,48.5748151],[2.4964715,48.5744518],[2.494394,48.5733278],[2.4942782,48.5731797],[2.4937495,48.5721928],[2.4978696,48.5711747],[2.4979102,48.5713034],[2.5005053,48.5706912],[2.5008294,48.5710368],[2.5017078,48.5726938],[2.5016266,48.5728136],[2.5019751,48.5731502],[2.5023842,48.5734365],[2.5024801,48.5734163],[2.5039261,48.5726843],[2.5043301,48.5723434],[2.504632,48.5721895],[2.5046858,48.5720347],[2.505003,48.5717954],[2.5050154,48.5716751],[2.5050779,48.571646],[2.5055934,48.5716459],[2.5060236,48.5722386],[2.5061263,48.5723047],[2.5064765,48.5722922],[2.5064877,48.5723111],[2.506686,48.5722741],[2.5077243,48.5723099],[2.5085837,48.5725466],[2.5087866,48.5745035],[2.5087948,48.5751225],[2.5073302,48.5749774],[2.507121,48.576251],[2.506554,48.576576],[2.5060837,48.5769366],[2.5056433,48.5774634],[2.5055205,48.5775375],[2.5055845,48.5775724],[2.5055595,48.5781389],[2.5057036,48.5787135],[2.5059634,48.5791904],[2.5061622,48.5799105],[2.5064374,48.5802354],[2.5064014,48.58027],[2.5066239,48.5806139],[2.5066336,48.5808542],[2.5065054,48.5814164],[2.5062767,48.5823622],[2.5061514,48.582612],[2.5060762,48.5826286],[2.5039095,48.5823929],[2.5019678,48.5824889],[2.501107,48.5826472],[2.4982387,48.58327],[2.4978514,48.5832551],[2.4978251,48.5831792],[2.4947049,48.582354],[2.4946745,48.5823221],[2.4940878,48.5821665],[2.49266,48.5818832],[2.492656,48.5819433],[2.4917519,48.5818165],[2.4918112,48.5815902],[2.4909512,48.5814763]]]]},"properties":{"code_section":"914350000A","code_commune":"91435","section_courte":"A"}},{"type":"Feature","geometry":{"type":"MultiPolygon","coordinates":[[[[2.5058027,48.5719375],[2.5055934,48.5716459],[2.5050779,48.571646],[2.5050154,48.5716751],[2.505003,48.5717954],[2.5046858,48.5720347],[2.504632,48.5721895],[2.5043301,48.5723434],[2.5039261,48.5726843],[2.5024801,48.5734163],[2.5023842,48.5734365],[2.5019751,48.5731502],[2.5016266,48.5728136],[2.5017078,48.5726938],[2.5008542,48.5710911],[2.5012563,48.5710296],[2.500908,48.5702378],[2.5015377,48.5701432],[2.5024804,48.5701197],[2.5038333,48.570183],[2.5046907,48.570289],[2.5075891,48.5710517],[2.5102027,48.5715646],[2.5108102,48.5717084],[2.5156753,48.5730851],[2.5160201,48.5726555],[2.5163804,48.5720103],[2.5182636,48.572469],[2.5200527,48.5727927],[2.521495,48.5729882],[2.5224143,48.573064],[2.5219224,48.5743863],[2.5222335,48.5744433],[2.5222094,48.5746035],[2.5222824,48.5749628],[2.5226385,48.5752253],[2.5225761,48.5756117],[2.522262,48.5762662],[2.5222371,48.5764682],[2.5223076,48.5764985],[2.5222486,48.5767432],[2.5220271,48.577132],[2.521298,48.5775568],[2.5211527,48.5775468],[2.5207557,48.5779124],[2.5206477,48.577936],[2.5205783,48.5780363],[2.520454,48.5780774],[2.5202981,48.5781812],[2.5203539,48.5782017],[2.5201614,48.5783539],[2.5202178,48.5784052],[2.519902,48.5786113],[2.5196274,48.5789521],[2.5194182,48.5790657],[2.5193992,48.5793684],[2.5193722,48.5794367],[2.519285,48.5794864],[2.5190942,48.5801109],[2.5191233,48.5801614],[2.5190733,48.5802148],[2.5191458,48.5802913],[2.5190813,48.5803283],[2.5190715,48.5803756],[2.5191574,48.5807394],[2.5191382,48.5809816],[2.5192534,48.5815421],[2.5191495,48.5819514],[2.5191652,48.582126],[2.5190878,48.5821535],[2.5190872,48.582229],[2.5190413,48.5822431],[2.5190115,48.5823399],[2.518941,48.5823727],[2.5188819,48.5824585],[2.5186693,48.5825157],[2.5186369,48.5825858],[2.518546,48.582609],[2.5185226,48.5826622],[2.5184454,48.5827015],[2.516705,48.5847231],[2.5168352,48.5848253],[2.5147147,48.5847793],[2.5146091,48.5847416],[2.5143672,48.5847736],[2.5140839,48.5847688],[2.5138393,48.5849689],[2.5119512,48.5872853],[2.51052,48.5876519],[2.5105139,48.5876109],[2.5104623,48.587615],[2.510267,48.586069],[2.5089553,48.5840845],[2.5062767,48.5823622],[2.5066336,48.5808542],[2.5066239,48.5806139],[2.5064014,48.58027],[2.5064374,48.5802354],[2.5061622,48.5799105],[2.5059634,48.5791904],[2.5057036,48.5787135],[2.5055595,48.5781389],[2.5055845,48.5775724],[2.5055205,48.5775375],[2.5056433,48.5774634],[2.5060837,48.5769366],[2.506554,48.576576],[2.507121,48.576251],[2.5073302,48.5749774],[2.5087948,48.5751225],[2.5087866,48.5745035],[2.5085837,48.5725466],[2.5077243,48.5723099],[2.506686,48.5722741],[2.5064877,48.5723111],[2.5064765,48.5722922],[2.5061263,48.5723047],[2.5060236,48.5722386],[2.5058027,48.5719375]]]]},"properties":{"code_section":"914350000B","code_commune":"91435","section_courte":"B"}},{"type":"Feature","geometry":{"type":"MultiPolygon","coordinates":[[[[2.4947074,48.5703198],[2.4933457,48.5705323],[2.4933158,48.5710511],[2.4921781,48.5714172],[2.4918121,48.571655],[2.4913386,48.5721309],[2.4912382,48.5722952],[2.4910284,48.5728251],[2.4909013,48.5735704],[2.4877501,48.572121],[2.4866609,48.5727054],[2.4865566,48.5726636],[2.484635,48.570216],[2.4855932,48.5695401],[2.4861474,48.5692639],[2.4866149,48.5690366],[2.4876397,48.5686077],[2.4886024,48.5682708],[2.4896869,48.5679695],[2.4908494,48.5677356],[2.4932615,48.5674549],[2.4947074,48.5703198]]]]},"properties":{"code_section":"91435000AA","code_commune":"91435","section_courte":"AA"}},{"type":"Feature","geometry":{"type":"MultiPolygon","coordinates":[[[[2.4866609,48.5727054],[2.4859966,48.5730615],[2.4856431,48.5733397],[2.4851241,48.5739305],[2.4845725,48.5746618],[2.4840409,48.5759323],[2.4839341,48.5762973],[2.4839528,48.5765518],[2.4842692,48.5770326],[2.4846191,48.5785492],[2.4852681,48.5806054],[2.4890342,48.5804519],[2.4891244,48.5813847],[2.4855027,48.5815296],[2.4855484,48.5817095],[2.4830841,48.5823503],[2.4821912,48.5825265],[2.4817959,48.5815539],[2.4810008,48.5801898],[2.4806468,48.5795028],[2.4801843,48.5783677],[2.4800637,48.5777296],[2.4800175,48.5767102],[2.4801067,48.5759436],[2.4802951,48.5752999],[2.4805995,48.5747978],[2.4813209,48.5739431],[2.4825735,48.5722903],[2.4834134,48.5712699],[2.484635,48.570216],[2.4865566,48.5726636],[2.4866609,48.5727054]]]]},"properties":{"code_section":"91435000AB","code_commune":"91435","section_courte":"AB"}},{"type":"Feature","geometry":{"type":"MultiPolygon","coordinates":[[[[2.4909013,48.5735704],[2.4908034,48.5744467],[2.4906965,48.5748225],[2.4905128,48.5751002],[2.4893621,48.5765128],[2.4891456,48.576922],[2.4886893,48.5779874],[2.4886469,48.5782445],[2.4886689,48.5785924],[2.4889629,48.5798499],[2.4890342,48.5804519],[2.4852681,48.5806054],[2.4846191,48.5785492],[2.4842692,48.5770326],[2.4839528,48.5765518],[2.483933,48.5764016],[2.4840409,48.5759323],[2.4844433,48.5749189],[2.4845725,48.5746618],[2.4851241,48.5739305],[2.4854937,48.5734942],[2.4858861,48.5731369],[2.4862017,48.5729412],[2.4877501,48.572121],[2.4909013,48.5735704]]]]},"properties":{"code_section":"91435000AC","code_commune":"91435","section_courte":"AC"}},{"type":"Feature","geometry":{"type":"MultiPolygon","coordinates":[[[[2.4891303,48.5814479],[2.4889786,48.5799442],[2.4886689,48.5785924],[2.4886703,48.5780735],[2.4888804,48.5775095],[2.4893621,48.5765128],[2.4905128,48.5751002],[2.4906965,48.5748225],[2.4908034,48.5744467],[2.4910086,48.5729057],[2.4919216,48.5733755],[2.4926185,48.573826],[2.4931989,48.5743588],[2.4935,48.5747319],[2.4935567,48.5748559],[2.492014,48.5764176],[2.4910912,48.5775659],[2.4916896,48.5779499],[2.4914314,48.5783193],[2.4909296,48.5798545],[2.4908718,48.5802086],[2.4909081,48.58022],[2.4908598,48.5808711],[2.4909512,48.5814763],[2.4891303,48.5814479]]]]},"properties":{"code_section":"91435000AD","code_commune":"91435","section_courte":"AD"}},{"type":"Feature","geometry":{"type":"MultiPolygon","coordinates":[[[[2.4983693,48.576868],[2.4977174,48.5773369],[2.4973207,48.5775532],[2.4972808,48.5776998],[2.4957447,48.576948],[2.49508,48.5765812],[2.4945983,48.5761503],[2.4947877,48.5759974],[2.4941937,48.5755002],[2.4935567,48.5748559],[2.4935,48.5747319],[2.4931989,48.5743588],[2.4927838,48.5739587],[2.4924193,48.5736789],[2.4919216,48.5733755],[2.4910086,48.5729057],[2.4910932,48.572621],[2.4913386,48.5721309],[2.4916929,48.5717584],[2.4921273,48.5714421],[2.4933158,48.5710511],[2.4933257,48.571384],[2.4933816,48.5715311],[2.4942782,48.5731797],[2.494394,48.5733278],[2.4964715,48.5744518],[2.4970606,48.5748151],[2.4972091,48.5747424],[2.4971836,48.5747304],[2.5015157,48.5727499],[2.5018043,48.5731935],[2.5019764,48.5733722],[2.5014358,48.573616],[2.500998,48.5737118],[2.4986229,48.5747521],[2.4997126,48.5759873],[2.4990541,48.5760924],[2.4992919,48.5762474],[2.4983693,48.576868]]]]},"properties":{"code_section":"91435000AE","code_commune":"91435","section_courte":"AE"}},{"type":"Feature","geometry":{"type":"MultiPolygon","coordinates":[[[[2.4946706,48.5702444],[2.4932615,48.5674549],[2.4968981,48.5671721],[2.4977715,48.5671658],[2.4989049,48.5672689],[2.4991395,48.5673032],[2.499819,48.5674792],[2.5026758,48.5682677],[2.5048733,48.568773],[2.5042915,48.5702256],[2.5035092,48.5701608],[2.5021159,48.5701167],[2.5015377,48.5701432],[2.500908,48.5702378],[2.5012563,48.5710296],[2.5008542,48.5710911],[2.5005053,48.5706912],[2.4979102,48.5713034],[2.4978696,48.5711747],[2.4937495,48.5721928],[2.4933257,48.571384],[2.493333,48.5705591],[2.4933457,48.5705323],[2.4934742,48.5705054],[2.4947074,48.5703198],[2.4946706,48.5702444]]]]},"properties":{"code_section":"91435000AH","code_commune":"91435","section_courte":"AH"}},{"type":"Feature","geometry":{"type":"MultiPolygon","coordinates":[[[[2.506938,48.5708928],[2.5050717,48.5703767],[2.5042915,48.5702256],[2.5048731,48.5687734],[2.5080004,48.5695363],[2.5131048,48.5710795],[2.5163804,48.5720103],[2.5160201,48.5726555],[2.5156753,48.5730851],[2.5108102,48.5717084],[2.5102027,48.5715646],[2.5075891,48.5710517],[2.506938,48.5708928]]]]},"properties":{"code_section":"91435000AI","code_commune":"91435","section_courte":"AI"}}]}