{"type":"FeatureCollection","features":[{"type":"Feature","geometry":{"type":"MultiPolygon","coordinates":[[[[2.2816255,48.5729112],[2.2820377,48.57353],[2.2822943,48.5734595],[2.2832449,48.5744881],[2.2837671,48.5743632],[2.2849754,48.5754087],[2.28472,48.5755807],[2.2854738,48.5766018],[2.284749,48.5769662],[2.2851616,48.5775768],[2.2855721,48.5780751],[2.2868818,48.5775679],[2.287016,48.5777113],[2.2882565,48.5772465],[2.2889218,48.5781307],[2.2889587,48.5781259],[2.2896788,48.5790116],[2.2892812,48.579316],[2.2891787,48.5794479],[2.2892617,48.5795136],[2.2893229,48.5796431],[2.2900901,48.5802525],[2.2906482,48.580957],[2.2892547,48.5813106],[2.2871094,48.5820223],[2.2842744,48.5823503],[2.2802871,48.58317],[2.2794855,48.5832472],[2.2795087,48.5838746],[2.279768,48.5852582],[2.278332,48.5857411],[2.2744634,48.5873943],[2.2723617,48.5880048],[2.2703285,48.5899325],[2.2702378,48.5898633],[2.2687206,48.5880301],[2.2681037,48.5881537],[2.2673229,48.5883685],[2.2666169,48.5876112],[2.2664227,48.5874722],[2.2640675,48.5859712],[2.262664,48.5853988],[2.2641351,48.5847652],[2.2648078,48.5845294],[2.2666988,48.5840541],[2.2672186,48.5837874],[2.2672671,48.5837417],[2.2653633,48.5821974],[2.2685058,48.5814508],[2.2677151,48.5811904],[2.2673228,48.581118],[2.2671291,48.5811359],[2.2670443,48.5811012],[2.2659364,48.5801757],[2.264673,48.5792189],[2.2648307,48.5790928],[2.2631644,48.5778172],[2.2616945,48.5785122],[2.2598721,48.5771275],[2.2615299,48.5761402],[2.2632064,48.5777976],[2.2644886,48.5770314],[2.264885,48.5773732],[2.2657453,48.5769217],[2.2668613,48.5765427],[2.2687479,48.5760949],[2.2711733,48.5753401],[2.2713139,48.5755313],[2.2723003,48.5751713],[2.2713864,48.5739282],[2.2738494,48.5732884],[2.2747211,48.5746332],[2.2773981,48.5738519],[2.2777326,48.5739641],[2.2789114,48.5735963],[2.2792476,48.5734621],[2.2794564,48.5731687],[2.2814533,48.572618],[2.2816255,48.5729112]]]]},"properties":{"code_section":"914570000B","code_commune":"91457","section_courte":"B"}},{"type":"Feature","geometry":{"type":"MultiPolygon","coordinates":[[[[2.2568126,48.5727571],[2.2570077,48.5727389],[2.2572359,48.5728173],[2.257572,48.5734118],[2.2591889,48.5731975],[2.2584021,48.574974],[2.2577308,48.5775305],[2.2548049,48.5778115],[2.2548703,48.5780504],[2.2533395,48.5783721],[2.2507901,48.5790389],[2.2502507,48.5791456],[2.2500646,48.5791227],[2.2480964,48.5794169],[2.2482421,48.5796532],[2.24706,48.5798053],[2.2470465,48.5802637],[2.246891,48.5806404],[2.2467779,48.5807102],[2.2452553,48.5801904],[2.2443046,48.5799544],[2.2425188,48.5793376],[2.2424362,48.5792996],[2.2421371,48.5789667],[2.2415267,48.5785317],[2.2444841,48.5767808],[2.244331,48.576631],[2.2449982,48.5762773],[2.2451476,48.5764465],[2.2486504,48.57557],[2.248524,48.5753529],[2.2512548,48.5746205],[2.2515382,48.5750842],[2.2541269,48.5745193],[2.253611,48.5735912],[2.2544137,48.5733869],[2.2555068,48.5731861],[2.2561811,48.5729864],[2.2568126,48.5727571]]]]},"properties":{"code_section":"914570000C","code_commune":"91457","section_courte":"C"}},{"type":"Feature","geometry":{"type":"MultiPolygon","coordinates":[[[[2.2694634,48.5907583],[2.2694561,48.5908327],[2.2683992,48.591353],[2.2683409,48.591444],[2.2683541,48.5916829],[2.2673907,48.5918704],[2.2665322,48.5922863],[2.2653281,48.5926484],[2.2648152,48.5929116],[2.2638729,48.5932357],[2.2632813,48.5933688],[2.2626017,48.5934605],[2.2620571,48.5929264],[2.2616632,48.5926471],[2.2579511,48.5911513],[2.258318,48.5906257],[2.258318,48.5905778],[2.2588798,48.5901177],[2.2592378,48.5897538],[2.2600496,48.5892875],[2.2608785,48.5892457],[2.2613069,48.5891709],[2.2617794,48.5890292],[2.262236,48.5887927],[2.2634274,48.5890127],[2.2637617,48.5888492],[2.2653796,48.5868188],[2.2666169,48.5876112],[2.2673229,48.5883685],[2.2681037,48.5881537],[2.2687206,48.5880301],[2.2702378,48.5898633],[2.2703285,48.5899325],[2.2694634,48.5907583]]]]},"properties":{"code_section":"91457000AB","code_commune":"91457","section_courte":"AB"}},{"type":"Feature","geometry":{"type":"MultiPolygon","coordinates":[[[[2.2617154,48.5857478],[2.2620432,48.585664],[2.262664,48.5853988],[2.2640675,48.5859712],[2.2653796,48.5868188],[2.2637617,48.5888492],[2.2634274,48.5890127],[2.262236,48.5887927],[2.2617794,48.5890292],[2.2613069,48.5891709],[2.2608785,48.5892457],[2.2600496,48.5892875],[2.2592378,48.5897538],[2.2588798,48.5901177],[2.2583238,48.5905732],[2.2582345,48.5904319],[2.2573887,48.5899214],[2.257206,48.5897432],[2.257283,48.5894962],[2.2575211,48.5890957],[2.2570214,48.5891124],[2.2553973,48.5889765],[2.2547735,48.5890608],[2.2552791,48.5880629],[2.2548544,48.5879581],[2.254469,48.5878009],[2.2543118,48.5877674],[2.2526118,48.5875599],[2.2517745,48.5873535],[2.2526505,48.5864559],[2.253091,48.5866005],[2.2533896,48.5866055],[2.2545058,48.5864184],[2.2556056,48.58638],[2.2562345,48.5862061],[2.2572193,48.5856872],[2.2574551,48.5855997],[2.2578518,48.5855256],[2.25887,48.5853933],[2.2590025,48.5855188],[2.2597144,48.5856514],[2.2606508,48.5856594],[2.261292,48.585742],[2.2617154,48.5857478]]]]},"properties":{"code_section":"91457000AC","code_commune":"91457","section_courte":"AC"}},{"type":"Feature","geometry":{"type":"MultiPolygon","coordinates":[[[[2.2629196,48.5791453],[2.2630607,48.5792408],[2.263192,48.5791583],[2.2633069,48.5792424],[2.2634699,48.5791421],[2.2636734,48.5792865],[2.2639029,48.5791364],[2.2643264,48.5794279],[2.264673,48.5792189],[2.2659364,48.5801757],[2.2670443,48.5811012],[2.2671291,48.5811359],[2.2673228,48.581118],[2.2677151,48.5811904],[2.2685058,48.5814508],[2.2653633,48.5821974],[2.2672671,48.5837417],[2.2666988,48.5840541],[2.2648078,48.5845294],[2.2641351,48.5847652],[2.2620432,48.585664],[2.2617154,48.5857478],[2.261292,48.585742],[2.2606508,48.5856594],[2.2597144,48.5856514],[2.2590025,48.5855188],[2.2588921,48.5854142],[2.2593244,48.5850355],[2.2602946,48.5839682],[2.2607581,48.5831533],[2.261029,48.5821637],[2.2625828,48.580478],[2.2616846,48.5799834],[2.2618983,48.5797881],[2.2617243,48.5797274],[2.2620272,48.5794832],[2.262774,48.5790381],[2.2629196,48.5791453]]]]},"properties":{"code_section":"91457000AD","code_commune":"91457","section_courte":"AD"}},{"type":"Feature","geometry":{"type":"MultiPolygon","coordinates":[[[[2.261888,48.5811982],[2.261029,48.5821637],[2.2607581,48.5831533],[2.2602946,48.5839682],[2.2593244,48.5850355],[2.2588921,48.5854142],[2.25887,48.5853933],[2.2574551,48.5855997],[2.2572193,48.5856872],[2.2562345,48.5862061],[2.2556056,48.58638],[2.2545058,48.5864184],[2.2533896,48.5866055],[2.253091,48.5866005],[2.2526505,48.5864559],[2.2548037,48.5842412],[2.255845,48.583003],[2.256527,48.5815862],[2.2564356,48.5805757],[2.2569816,48.5802959],[2.258142,48.5802864],[2.2589134,48.5804694],[2.259337,48.5806559],[2.2599619,48.5807916],[2.2607759,48.5808697],[2.261888,48.5811982]]]]},"properties":{"code_section":"91457000AE","code_commune":"91457","section_courte":"AE"}},{"type":"Feature","geometry":{"type":"MultiPolygon","coordinates":[[[[2.256527,48.5815862],[2.255845,48.583003],[2.2548037,48.5842412],[2.252829,48.5862717],[2.2518604,48.5858754],[2.2519725,48.5857165],[2.2517211,48.5856329],[2.2507334,48.5853538],[2.2498526,48.585205],[2.2488258,48.5849829],[2.2488997,48.584528],[2.2489992,48.5829922],[2.248892,48.582018],[2.2489397,48.5818813],[2.2490932,48.5816797],[2.2492003,48.5816836],[2.249797,48.5815741],[2.2502402,48.5813094],[2.2508356,48.5808865],[2.2512047,48.580742],[2.2517494,48.5807187],[2.2536978,48.5808877],[2.25464,48.5809186],[2.2552154,48.5808616],[2.256343,48.5806232],[2.2564356,48.5805757],[2.256527,48.5815862]]]]},"properties":{"code_section":"91457000AH","code_commune":"91457","section_courte":"AH"}},{"type":"Feature","geometry":{"type":"MultiPolygon","coordinates":[[[[2.2488154,48.5817528],[2.2480656,48.5811915],[2.2467779,48.5807102],[2.246891,48.5806404],[2.2470465,48.5802637],[2.24706,48.5798053],[2.2482421,48.5796532],[2.2480964,48.5794169],[2.2500646,48.5791227],[2.2502507,48.5791456],[2.2507901,48.5790389],[2.2533395,48.5783721],[2.2548703,48.5780504],[2.2550251,48.5785256],[2.2551831,48.5788211],[2.2553608,48.5790752],[2.2561861,48.5799379],[2.256343,48.5806232],[2.2552154,48.5808616],[2.25464,48.5809186],[2.2536978,48.5808877],[2.2517494,48.5807187],[2.2512047,48.580742],[2.2508356,48.5808865],[2.2502402,48.5813094],[2.249797,48.5815741],[2.2492003,48.5816836],[2.2490932,48.5816797],[2.2489397,48.5818813],[2.2488154,48.5817528]]]]},"properties":{"code_section":"91457000AI","code_commune":"91457","section_courte":"AI"}},{"type":"Feature","geometry":{"type":"MultiPolygon","coordinates":[[[[2.2625828,48.580478],[2.261888,48.5811982],[2.2607759,48.5808697],[2.2599619,48.5807916],[2.259337,48.5806559],[2.2589134,48.5804694],[2.258142,48.5802864],[2.2569816,48.5802959],[2.256343,48.5806232],[2.2561861,48.5799379],[2.2553608,48.5790752],[2.2551831,48.5788211],[2.2549686,48.57838],[2.2548049,48.5778115],[2.2577308,48.5775305],[2.2574856,48.5785489],[2.2598721,48.5771275],[2.2616945,48.5785122],[2.2631644,48.5778172],[2.2648307,48.5790928],[2.2643264,48.5794279],[2.2639029,48.5791364],[2.2636734,48.5792865],[2.2634699,48.5791421],[2.2633069,48.5792424],[2.263192,48.5791583],[2.2630607,48.5792408],[2.262774,48.5790381],[2.2620272,48.5794832],[2.2617243,48.5797274],[2.2618983,48.5797881],[2.2616846,48.5799834],[2.2625828,48.580478]]]]},"properties":{"code_section":"91457000AK","code_commune":"91457","section_courte":"AK"}},{"type":"Feature","geometry":{"type":"MultiPolygon","coordinates":[[[[2.2451043,48.5761679],[2.2468257,48.5755347],[2.2471211,48.5756571],[2.2484614,48.5752732],[2.2484887,48.5753277],[2.2485404,48.575313],[2.2485591,48.5753434],[2.248524,48.5753529],[2.2486504,48.57557],[2.2451476,48.5764465],[2.2449725,48.576227],[2.2451043,48.5761679]]],[[[2.2664494,48.5738377],[2.268719,48.5761019],[2.2666493,48.5766129],[2.2657453,48.5769217],[2.264885,48.5773732],[2.2644886,48.5770314],[2.2632064,48.5777976],[2.2615299,48.5761402],[2.2574856,48.5785489],[2.2584021,48.574974],[2.2587768,48.5741282],[2.2609229,48.5739607],[2.2610182,48.573916],[2.2609803,48.573616],[2.2610332,48.573582],[2.2623,48.5734437],[2.2626288,48.5734412],[2.2627923,48.5733414],[2.2642989,48.5744512],[2.2660147,48.573406],[2.2664494,48.5738377]]]]},"properties":{"code_section":"91457000ZA","code_commune":"91457","section_courte":"ZA"}}]}