{"type":"FeatureCollection","features":[{"type":"Feature","geometry":{"type":"MultiPolygon","coordinates":[[[[2.446014,48.577288],[2.4462404,48.57702],[2.4466143,48.5769088],[2.4467298,48.5767878],[2.4472961,48.5763738],[2.4488636,48.5756821],[2.4498889,48.575452],[2.4511515,48.5752752],[2.4524001,48.5749971],[2.4530385,48.5747495],[2.4543846,48.5740549],[2.4548342,48.5738682],[2.4551889,48.5737753],[2.4557863,48.5737163],[2.4563781,48.5743494],[2.4562049,48.5744666],[2.4554928,48.5747221],[2.455097,48.5749095],[2.4550195,48.5750185],[2.4550205,48.5751314],[2.4557414,48.5774469],[2.4565809,48.5772232],[2.4572246,48.577017],[2.4573813,48.5774319],[2.4568258,48.5782276],[2.4559342,48.5786561],[2.4552078,48.5788217],[2.4541915,48.5787948],[2.4538425,48.5787322],[2.4536457,48.5783473],[2.453389,48.5782284],[2.4531428,48.5782338],[2.4526646,48.5783875],[2.451936,48.5783967],[2.4515078,48.578477],[2.451217,48.5786276],[2.4507808,48.578708],[2.4502769,48.5786555],[2.449838,48.5785319],[2.4494324,48.5784898],[2.4478892,48.578607],[2.4467333,48.5785966],[2.4462489,48.5788096],[2.4456808,48.5789036],[2.4449544,48.5787053],[2.4448643,48.5786323],[2.4432009,48.5777912],[2.4429357,48.5773817],[2.44251,48.5772298],[2.4417913,48.577237],[2.4415921,48.5770255],[2.4421467,48.5769239],[2.4427404,48.5768778],[2.4431193,48.5768945],[2.443339,48.5769369],[2.4434926,48.5770393],[2.4438683,48.5770463],[2.4440894,48.5770102],[2.4444751,48.5770098],[2.4449976,48.5772965],[2.4458178,48.5775387],[2.446014,48.577288]]],[[[2.4627622,48.5704998],[2.4589083,48.5696719],[2.4591679,48.569517],[2.4597515,48.569324],[2.4613886,48.5689548],[2.4625113,48.5685959],[2.4633538,48.5682725],[2.4654821,48.5702119],[2.4658535,48.5707319],[2.4663179,48.5712728],[2.4627622,48.5704998]]],[[[2.4529518,48.5704217],[2.4528771,48.5699963],[2.4515171,48.5700194],[2.4510991,48.5699986],[2.4520372,48.568152],[2.4552882,48.5688663],[2.4553038,48.5692654],[2.4555447,48.5702582],[2.4561962,48.5702097],[2.4561204,48.5703318],[2.4559648,48.5710898],[2.4558134,48.5715522],[2.4556286,48.5717763],[2.4550359,48.5722578],[2.4541765,48.5728171],[2.4538206,48.573118],[2.4502437,48.5743287],[2.4493371,48.5745749],[2.4484094,48.5746669],[2.4483281,48.573907],[2.4517952,48.5735178],[2.4515609,48.5725772],[2.4534083,48.5727487],[2.4528428,48.5707937],[2.4530239,48.5707539],[2.4529518,48.5704217]]]]},"properties":{"code_section":"914680000A","code_commune":"91468","section_courte":"A"}},{"type":"Feature","geometry":{"type":"MultiPolygon","coordinates":[[[[2.4686571,48.5770573],[2.4680761,48.576972],[2.4676411,48.5770006],[2.4656086,48.5775737],[2.4648788,48.5770446],[2.463011,48.5764852],[2.4626988,48.5764429],[2.4624722,48.5762847],[2.4619662,48.5762235],[2.460914,48.5762989],[2.4599826,48.5762517],[2.4591938,48.5762607],[2.4587669,48.5763416],[2.4584155,48.5765012],[2.4581638,48.5765521],[2.4576396,48.5765221],[2.4573242,48.576598],[2.4571958,48.5767076],[2.4571671,48.576831],[2.4572246,48.577017],[2.4565809,48.5772232],[2.4557414,48.5774469],[2.4550205,48.5751314],[2.4550195,48.5750185],[2.455097,48.5749095],[2.4554928,48.5747221],[2.4562049,48.5744666],[2.4563781,48.5743494],[2.4557863,48.5737163],[2.4573264,48.5736119],[2.4577296,48.5736079],[2.4591488,48.5737257],[2.4625313,48.5733748],[2.4642044,48.5732718],[2.4645816,48.5732825],[2.4650744,48.5733558],[2.4661517,48.5738171],[2.4669024,48.5742326],[2.4680307,48.5749699],[2.4688024,48.5756017],[2.4691585,48.5760201],[2.469558,48.5766088],[2.4699038,48.5772928],[2.4704307,48.578683],[2.470527,48.5787928],[2.4705048,48.578868],[2.4705943,48.5790343],[2.4704731,48.5790543],[2.4702942,48.5786957],[2.4698071,48.5787598],[2.4696228,48.5782149],[2.469391,48.5777277],[2.4694631,48.5774816],[2.4686571,48.5770573]]]]},"properties":{"code_section":"914680000B","code_commune":"91468","section_courte":"B"}},{"type":"Feature","geometry":{"type":"MultiPolygon","coordinates":[[[[2.4484473,48.5749324],[2.4484094,48.5746669],[2.4493371,48.5745749],[2.4502437,48.5743287],[2.4538206,48.573118],[2.4531889,48.5735768],[2.4542793,48.5731769],[2.4548483,48.5738067],[2.4548342,48.5738682],[2.4543846,48.5740549],[2.4530385,48.5747495],[2.4524001,48.5749971],[2.4511515,48.5752752],[2.4498889,48.575452],[2.4488636,48.5756821],[2.4472961,48.5763738],[2.4467298,48.5767878],[2.4466143,48.5769088],[2.4462404,48.57702],[2.4458178,48.5775387],[2.4449976,48.5772965],[2.4445202,48.5770199],[2.4440894,48.5770102],[2.444199,48.5766195],[2.4443856,48.5765525],[2.4445066,48.5761804],[2.4444153,48.5761746],[2.4444946,48.5758679],[2.444625,48.5756526],[2.4447717,48.5752557],[2.4454938,48.5752933],[2.4465075,48.5752608],[2.4470139,48.5752775],[2.4484306,48.575399],[2.4484473,48.5749324]]]]},"properties":{"code_section":"91468000AA","code_commune":"91468","section_courte":"AA"}},{"type":"Feature","geometry":{"type":"MultiPolygon","coordinates":[[[[2.4645816,48.5732825],[2.4642044,48.5732718],[2.4623569,48.5733859],[2.4591488,48.5737257],[2.4581405,48.5736324],[2.4573264,48.5736119],[2.4551889,48.5737753],[2.4548342,48.5738682],[2.4548355,48.5737764],[2.4542793,48.5731769],[2.4531889,48.5735768],[2.453778,48.5731672],[2.4541765,48.5728171],[2.4550359,48.5722578],[2.4556286,48.5717763],[2.4558549,48.5714509],[2.4561204,48.5703318],[2.4561962,48.5702097],[2.4565733,48.5701838],[2.4571445,48.570235],[2.4579434,48.5703658],[2.4581785,48.5703158],[2.4583309,48.5702145],[2.4589083,48.5696719],[2.4684831,48.5717428],[2.4684671,48.5718823],[2.4669975,48.5736595],[2.466769,48.5735638],[2.4668694,48.5737987],[2.4669404,48.5738474],[2.4667073,48.5741253],[2.4661517,48.5738171],[2.4651222,48.573363],[2.4645816,48.5732825]]]]},"properties":{"code_section":"91468000AB","code_commune":"91468","section_courte":"AB"}},{"type":"Feature","geometry":{"type":"MultiPolygon","coordinates":[[[[2.4698703,48.577226],[2.4693978,48.5763547],[2.4687464,48.5755462],[2.467873,48.5748586],[2.4667073,48.5741253],[2.4669404,48.5738474],[2.4668694,48.5737987],[2.466769,48.5735638],[2.4669975,48.5736595],[2.4684671,48.5718823],[2.4684831,48.5717428],[2.4690263,48.5718595],[2.4693872,48.5720123],[2.4723017,48.5740021],[2.472339,48.5743535],[2.4728635,48.5756015],[2.472895,48.5758],[2.4728426,48.5762391],[2.4729143,48.5764722],[2.4735014,48.5771984],[2.473812,48.5777807],[2.4726281,48.5779587],[2.4723103,48.5780703],[2.4715971,48.578404],[2.4711098,48.5785396],[2.4709176,48.5788584],[2.4709209,48.5789475],[2.4706209,48.5789993],[2.4705048,48.578868],[2.470527,48.5787928],[2.4704307,48.578683],[2.4698703,48.577226]]]]},"properties":{"code_section":"91468000AC","code_commune":"91468","section_courte":"AC"}},{"type":"Feature","geometry":{"type":"MultiPolygon","coordinates":[[[[2.4514673,48.5700194],[2.4528771,48.5699963],[2.4530239,48.5707539],[2.4528428,48.5707937],[2.4534083,48.5727487],[2.4515609,48.5725772],[2.4517952,48.5735178],[2.4483281,48.573907],[2.4484029,48.5735168],[2.4486829,48.5727427],[2.4488361,48.5724188],[2.4492173,48.5718871],[2.4507736,48.5704287],[2.4510991,48.5699986],[2.4514673,48.5700194]]],[[[2.4554619,48.5699391],[2.4553038,48.5692654],[2.4552882,48.5688663],[2.4520372,48.568152],[2.4520458,48.5680866],[2.4522116,48.5676701],[2.4524386,48.5673497],[2.4542645,48.5651368],[2.4545211,48.5649196],[2.455126,48.5644996],[2.4562758,48.5638301],[2.4580407,48.5651359],[2.4593411,48.5660103],[2.4598658,48.5663037],[2.4620965,48.5674032],[2.4628787,48.5679039],[2.4633538,48.5682725],[2.4625113,48.5685959],[2.4613886,48.5689548],[2.4597515,48.569324],[2.4591679,48.569517],[2.4589083,48.5696719],[2.4583309,48.5702145],[2.4581785,48.5703158],[2.4579434,48.5703658],[2.4571445,48.570235],[2.4565733,48.5701838],[2.4555447,48.5702582],[2.4554619,48.5699391]]]]},"properties":{"code_section":"91468000ZA","code_commune":"91468","section_courte":"ZA"}}]}