{"type":"FeatureCollection","features":[{"type":"Feature","geometry":{"type":"MultiPolygon","coordinates":[[[[2.2265823,48.6107952],[2.2278646,48.6110411],[2.2275969,48.6115863],[2.2273138,48.6119422],[2.2287112,48.6119098],[2.2293256,48.6119376],[2.2295988,48.6120073],[2.230321,48.6123556],[2.2312475,48.6126801],[2.2321543,48.6129005],[2.2326107,48.6130537],[2.2331856,48.6131669],[2.2336867,48.6132053],[2.2335849,48.6140826],[2.2334761,48.6144651],[2.2332431,48.6150721],[2.2329432,48.6155542],[2.2328214,48.616085],[2.2325147,48.616643],[2.2326651,48.6176096],[2.2328436,48.6182507],[2.2324257,48.6191798],[2.2313953,48.6190455],[2.2308239,48.6192246],[2.2295851,48.6191381],[2.2291135,48.6191543],[2.228842,48.6192123],[2.2281526,48.6195101],[2.2276889,48.6195973],[2.2273642,48.6196914],[2.2261487,48.6197687],[2.2262379,48.6216123],[2.2246515,48.6216564],[2.2234015,48.6217864],[2.2241308,48.6223638],[2.2240073,48.6223748],[2.2255127,48.628655],[2.2236329,48.6292259],[2.2218452,48.6295765],[2.2209174,48.6297879],[2.2196667,48.6299777],[2.2187348,48.6300404],[2.2174806,48.6301814],[2.2165523,48.6302497],[2.2150845,48.6305553],[2.213981,48.6306894],[2.2140386,48.6307564],[2.205193,48.6310655],[2.2049939,48.6307364],[2.2049472,48.6293965],[2.2040267,48.6287967],[2.2036049,48.6285946],[2.2031469,48.6285025],[2.2029507,48.6283624],[2.1999617,48.6266862],[2.1997869,48.6266048],[2.1996726,48.6267202],[2.1996194,48.6267051],[2.1986741,48.6262633],[2.1978101,48.625557],[2.1975327,48.6251836],[2.1971882,48.6233015],[2.1971908,48.6218635],[2.1972035,48.6208842],[2.1975279,48.6198884],[2.1977073,48.6195019],[2.1978834,48.6189057],[2.1979993,48.6187576],[2.1984499,48.6183451],[2.1994169,48.617711],[2.1996483,48.6176007],[2.2009299,48.6173114],[2.2015196,48.6170375],[2.2018703,48.6169515],[2.2040884,48.6161132],[2.2043589,48.6159387],[2.2059556,48.6153268],[2.2082508,48.6147348],[2.2066041,48.6118364],[2.2060879,48.61195],[2.2054256,48.611065],[2.2130992,48.6069815],[2.2136864,48.6067223],[2.2153812,48.607427],[2.2153768,48.6074991],[2.2199718,48.6093997],[2.2211843,48.6097499],[2.2265823,48.6107952]]]]},"properties":{"code_section":"914610000A","code_commune":"91461","section_courte":"A"}},{"type":"Feature","geometry":{"type":"MultiPolygon","coordinates":[[[[2.2264088,48.6025367],[2.2269544,48.6028426],[2.2270463,48.602844],[2.2271342,48.602784],[2.2276667,48.6030117],[2.2286187,48.6024611],[2.2291948,48.6031853],[2.2305833,48.6027139],[2.231674,48.60394],[2.2317866,48.6039381],[2.2329428,48.6047126],[2.2323766,48.6058925],[2.2330828,48.6063043],[2.2320219,48.607062],[2.2330079,48.6078311],[2.2363527,48.6064824],[2.2375031,48.6073948],[2.2371976,48.6077268],[2.2372389,48.6077454],[2.2373247,48.607699],[2.2384707,48.6079274],[2.2377179,48.6106069],[2.236909,48.6132224],[2.2361845,48.6132003],[2.2344445,48.6132982],[2.2331856,48.6131669],[2.2326107,48.6130537],[2.2321543,48.6129005],[2.230849,48.6125588],[2.230321,48.6123556],[2.2295988,48.6120073],[2.2293256,48.6119376],[2.2287112,48.6119098],[2.2273138,48.6119422],[2.2275969,48.6115863],[2.2278646,48.6110411],[2.2211843,48.6097499],[2.2199718,48.6093997],[2.2153768,48.6074991],[2.215746,48.6027944],[2.2263024,48.6014014],[2.2269231,48.6021041],[2.2262646,48.6024544],[2.2264088,48.6025367]]]]},"properties":{"code_section":"914610000B","code_commune":"91461","section_courte":"B"}},{"type":"Feature","geometry":{"type":"MultiPolygon","coordinates":[[[[2.2226122,48.601885],[2.215746,48.6027944],[2.2161579,48.5971603],[2.216358,48.5950136],[2.217933,48.5951779],[2.2205951,48.5953383],[2.2219118,48.5953849],[2.2220288,48.5954971],[2.2226625,48.5956122],[2.2222506,48.5976358],[2.222777,48.5976971],[2.2222212,48.6005382],[2.2227281,48.6005604],[2.2226122,48.601885]]]]},"properties":{"code_section":"914610000C","code_commune":"91461","section_courte":"C"}},{"type":"Feature","geometry":{"type":"MultiPolygon","coordinates":[[[[2.2130439,48.5855335],[2.2127475,48.5861547],[2.2130536,48.5861834],[2.2131574,48.5874513],[2.2131086,48.5880403],[2.2132571,48.5883544],[2.2135337,48.5886397],[2.213681,48.5888825],[2.2138809,48.589346],[2.2134087,48.589438],[2.2135533,48.5897884],[2.2127732,48.5898627],[2.2121388,48.5898803],[2.211757,48.5898681],[2.2113947,48.5898039],[2.2114939,48.5909713],[2.2100594,48.5909864],[2.2097813,48.5910214],[2.2094649,48.5911055],[2.2082487,48.5916059],[2.2082515,48.5917952],[2.2090265,48.5923237],[2.2107649,48.5930307],[2.2107636,48.592983],[2.2120943,48.593517],[2.2126348,48.5934474],[2.2129726,48.5935188],[2.2131467,48.5935246],[2.2134225,48.5934503],[2.2135211,48.5934509],[2.213317,48.5935301],[2.2133679,48.5935324],[2.2130512,48.5938889],[2.2130633,48.5939562],[2.2133076,48.5940503],[2.2138622,48.5942531],[2.2151595,48.5946323],[2.2159789,48.5947987],[2.2163357,48.5948129],[2.216358,48.5950136],[2.2161579,48.5971603],[2.2153812,48.607427],[2.2136864,48.6067223],[2.2136049,48.6067587],[2.2097575,48.6051436],[2.2061068,48.6013192],[2.2054351,48.6006963],[2.2045962,48.6001182],[2.2034829,48.5996162],[2.2020638,48.59923],[2.2023472,48.5986595],[2.202367,48.5984171],[2.2022662,48.5980848],[2.2021186,48.5980837],[2.2019131,48.5974009],[2.2025838,48.5974383],[2.2023282,48.597185],[2.2021113,48.5971595],[2.2016614,48.5963247],[2.2015763,48.596045],[2.2015139,48.5955112],[2.2013297,48.5949012],[2.2010468,48.5943694],[2.2009268,48.5937389],[2.201,48.5932959],[2.2012235,48.5929791],[2.201689,48.5924874],[2.2017878,48.5923151],[2.2021227,48.5922975],[2.2021981,48.5920655],[2.2025495,48.59162],[2.2029232,48.5909686],[2.2029297,48.5903045],[2.2025639,48.5891146],[2.2025046,48.5891082],[2.2025815,48.5885094],[2.2027124,48.5882652],[2.2028253,48.5874043],[2.2027264,48.5870158],[2.2027522,48.5860172],[2.2029224,48.5854613],[2.2030377,48.5853488],[2.2032211,48.5843403],[2.2038047,48.5843042],[2.2039735,48.5839152],[2.205942,48.5841074],[2.2062751,48.5841053],[2.2084767,48.5842673],[2.2086656,48.5842653],[2.2086829,48.5841266],[2.2089007,48.5840815],[2.2094479,48.5842135],[2.2101464,48.584209],[2.2102601,48.5842382],[2.2106342,48.5844301],[2.211777,48.5847897],[2.2119184,48.5848908],[2.2120529,48.5851174],[2.2121302,48.5851796],[2.2130439,48.5855335]]]]},"properties":{"code_section":"914610000D","code_commune":"91461","section_courte":"D"}},{"type":"Feature","geometry":{"type":"MultiPolygon","coordinates":[[[[2.2411846,48.6070305],[2.2405387,48.6080642],[2.2402703,48.6081231],[2.2400007,48.6081367],[2.2384844,48.6079049],[2.2384783,48.6079286],[2.2383973,48.6079166],[2.2373247,48.607699],[2.2372389,48.6077454],[2.2371976,48.6077268],[2.2375031,48.6073948],[2.2363527,48.6064824],[2.2330079,48.6078311],[2.2320219,48.607062],[2.2330828,48.6063043],[2.2333347,48.6060069],[2.2334545,48.6057927],[2.2346111,48.6053225],[2.2349294,48.6051584],[2.2359609,48.604442],[2.2363595,48.6042317],[2.2374949,48.6034806],[2.2387066,48.6022992],[2.2390986,48.6016418],[2.2402937,48.6009871],[2.2403295,48.6010518],[2.2402994,48.6014538],[2.2401547,48.6019458],[2.2399081,48.6025125],[2.2398743,48.6026314],[2.2399045,48.6027946],[2.2409082,48.602926],[2.240894,48.6033169],[2.2435866,48.6037673],[2.242734,48.6051253],[2.2417283,48.6062936],[2.241171,48.6069855],[2.2411846,48.6070305]]]]},"properties":{"code_section":"91461000AA","code_commune":"91461","section_courte":"AA"}},{"type":"Feature","geometry":{"type":"MultiPolygon","coordinates":[[[[2.2326312,48.6060414],[2.2323766,48.6058925],[2.2329428,48.6047126],[2.2317866,48.6039381],[2.231674,48.60394],[2.2305833,48.6027139],[2.2291948,48.6031853],[2.2286187,48.6024611],[2.2276667,48.6030117],[2.2271342,48.602784],[2.2270463,48.602844],[2.2269544,48.6028426],[2.2262646,48.6024544],[2.2269231,48.6021041],[2.2263024,48.6014014],[2.2387474,48.5997551],[2.2402378,48.6008922],[2.2402937,48.6009871],[2.2390986,48.6016418],[2.2387066,48.6022992],[2.2376288,48.6033673],[2.2369466,48.6038489],[2.2363595,48.6042317],[2.2359609,48.604442],[2.2349294,48.6051584],[2.2346111,48.6053225],[2.2334545,48.6057927],[2.2333347,48.6060069],[2.2330828,48.6063043],[2.2326312,48.6060414]]]]},"properties":{"code_section":"91461000AB","code_commune":"91461","section_courte":"AB"}},{"type":"Feature","geometry":{"type":"MultiPolygon","coordinates":[[[[2.2305946,48.5971186],[2.2309736,48.5966078],[2.2323206,48.5968852],[2.232938,48.5970854],[2.2334485,48.5973781],[2.2336513,48.5975545],[2.2338023,48.5977522],[2.2339319,48.5980431],[2.2339951,48.5984972],[2.2345119,48.5981669],[2.2353461,48.5985942],[2.2360642,48.5991321],[2.2362395,48.5991967],[2.2370422,48.5996182],[2.237903,48.5998685],[2.2300177,48.600911],[2.229194,48.6003317],[2.2292812,48.5996343],[2.2280206,48.5995129],[2.2278936,48.5993981],[2.2280957,48.5980787],[2.2294801,48.5981914],[2.2305946,48.5971186]]]]},"properties":{"code_section":"91461000AC","code_commune":"91461","section_courte":"AC"}},{"type":"Feature","geometry":{"type":"MultiPolygon","coordinates":[[[[2.2280206,48.5995129],[2.2292812,48.5996343],[2.229194,48.6003317],[2.2300177,48.600911],[2.2226122,48.601885],[2.2227281,48.6005604],[2.2222212,48.6005382],[2.222777,48.5976971],[2.2222506,48.5976358],[2.2226625,48.5956122],[2.2220288,48.5954971],[2.2219118,48.5953849],[2.2243378,48.5952022],[2.2254154,48.5951476],[2.2260548,48.5951757],[2.2267514,48.5953213],[2.2295514,48.5962884],[2.2309736,48.5966078],[2.2305946,48.5971186],[2.2294801,48.5981914],[2.2280957,48.5980787],[2.2278936,48.5993981],[2.2280206,48.5995129]]]]},"properties":{"code_section":"91461000AD","code_commune":"91461","section_courte":"AD"}},{"type":"Feature","geometry":{"type":"MultiPolygon","coordinates":[[[[2.2295514,48.5962884],[2.2267514,48.5953213],[2.2260548,48.5951757],[2.2254154,48.5951476],[2.2243378,48.5952022],[2.2241056,48.5937753],[2.2241197,48.5933786],[2.2249597,48.5931857],[2.2254359,48.5930139],[2.2260308,48.5927218],[2.2268925,48.5921501],[2.2283008,48.5919033],[2.2292298,48.5917013],[2.229958,48.5915898],[2.2319084,48.5910908],[2.2333667,48.5910931],[2.2345496,48.5909562],[2.2354106,48.5909159],[2.2352122,48.5914959],[2.2348295,48.5921556],[2.2347307,48.5924289],[2.2346716,48.5928672],[2.2347778,48.5935667],[2.2346472,48.5937859],[2.2341783,48.5942339],[2.2335943,48.5950011],[2.2329493,48.5956184],[2.2324832,48.596171],[2.232196,48.5963731],[2.2318878,48.5964732],[2.2312739,48.5965963],[2.2309736,48.5966078],[2.2295514,48.5962884]]]]},"properties":{"code_section":"91461000AE","code_commune":"91461","section_courte":"AE"}},{"type":"Feature","geometry":{"type":"MultiPolygon","coordinates":[[[[2.2241293,48.5929699],[2.2240414,48.5926216],[2.2239495,48.592446],[2.2237564,48.5922122],[2.2234133,48.5921458],[2.2230793,48.5919791],[2.2230499,48.591818],[2.2225727,48.5916623],[2.2219359,48.5916081],[2.2218361,48.5916847],[2.2218189,48.5918968],[2.2216987,48.5919595],[2.2197244,48.5919537],[2.2179094,48.5917907],[2.2165629,48.5917239],[2.2165807,48.5915079],[2.2169041,48.5904895],[2.217437,48.5900653],[2.2180452,48.5898925],[2.2182785,48.5896593],[2.218375,48.589362],[2.2194377,48.5894455],[2.2204223,48.5894713],[2.2217315,48.5897007],[2.2239627,48.5902292],[2.2254145,48.5904092],[2.226919,48.5903198],[2.2272917,48.5903405],[2.2291619,48.5907588],[2.2297171,48.5907982],[2.2315669,48.5910775],[2.2319084,48.5910908],[2.229958,48.5915898],[2.2292298,48.5917013],[2.2283008,48.5919033],[2.2268925,48.5921501],[2.2260308,48.5927218],[2.2254359,48.5930139],[2.2249597,48.5931857],[2.2241197,48.5933786],[2.2241293,48.5929699]]]]},"properties":{"code_section":"91461000AH","code_commune":"91461","section_courte":"AH"}},{"type":"Feature","geometry":{"type":"MultiPolygon","coordinates":[[[[2.2367539,48.5908884],[2.2367425,48.59092],[2.2361185,48.5908758],[2.2345738,48.5909543],[2.2333667,48.5910931],[2.2315669,48.5910775],[2.2297171,48.5907982],[2.2291619,48.5907588],[2.2272917,48.5903405],[2.226919,48.5903198],[2.2254145,48.5904092],[2.2239627,48.5902292],[2.2230582,48.5900225],[2.2232535,48.5896367],[2.2234463,48.5894423],[2.223908,48.5891518],[2.2243319,48.5884005],[2.2247183,48.5884977],[2.2251047,48.5879219],[2.2257652,48.587168],[2.2266879,48.5875436],[2.2271114,48.5866437],[2.2281883,48.5869845],[2.2293001,48.5860353],[2.2295851,48.5862772],[2.2306565,48.5869857],[2.2313087,48.5872362],[2.2316807,48.5874474],[2.2321298,48.5876175],[2.2331734,48.5881231],[2.2333701,48.5881533],[2.2335768,48.5881245],[2.2336591,48.5881396],[2.2337413,48.5881782],[2.2338498,48.5883192],[2.2344538,48.5887917],[2.2349552,48.5889506],[2.2342684,48.5895835],[2.2346272,48.5896262],[2.2350879,48.589998],[2.2354626,48.5901979],[2.2360507,48.5902461],[2.2369173,48.5904263],[2.2367539,48.5908884]]]]},"properties":{"code_section":"91461000AI","code_commune":"91461","section_courte":"AI"}},{"type":"Feature","geometry":{"type":"MultiPolygon","coordinates":[[[[2.2291731,48.5861433],[2.2281883,48.5869845],[2.2271114,48.5866437],[2.2266879,48.5875436],[2.2257652,48.587168],[2.2251047,48.5879219],[2.2247183,48.5884977],[2.2243319,48.5884005],[2.223908,48.5891518],[2.2234463,48.5894423],[2.2232535,48.5896367],[2.2230582,48.5900225],[2.2217315,48.5897007],[2.2204223,48.5894713],[2.2194377,48.5894455],[2.218375,48.589362],[2.2186554,48.5887824],[2.2186617,48.5886334],[2.2185436,48.5883626],[2.2182751,48.5881143],[2.2181798,48.5879161],[2.2182411,48.587276],[2.2181792,48.5861025],[2.2186236,48.5860485],[2.2194693,48.5858151],[2.2211353,48.5859399],[2.2215542,48.5839728],[2.2222307,48.5840536],[2.2229714,48.5840625],[2.2234257,48.5841022],[2.2244537,48.5842008],[2.2250497,48.5842972],[2.225872,48.5843373],[2.2260842,48.5843933],[2.2268354,48.5846815],[2.2275189,48.5848771],[2.2284574,48.5852769],[2.2287752,48.5856834],[2.2293001,48.5860353],[2.2291731,48.5861433]]]]},"properties":{"code_section":"91461000AK","code_commune":"91461","section_courte":"AK"}},{"type":"Feature","geometry":{"type":"MultiPolygon","coordinates":[[[[2.2130194,48.5855964],[2.2130439,48.5855335],[2.2126506,48.5853953],[2.2130973,48.5829706],[2.213195,48.5829573],[2.2134056,48.5827507],[2.2136701,48.5826655],[2.2137752,48.5826732],[2.2138228,48.5827449],[2.2137949,48.5829261],[2.2138248,48.5829861],[2.2142226,48.5831287],[2.2144621,48.5833397],[2.2146264,48.5834008],[2.2149257,48.5833742],[2.2152228,48.5833851],[2.218397,48.5836703],[2.2190828,48.5837644],[2.2199064,48.583774],[2.2215542,48.5839728],[2.2211353,48.5859399],[2.2194693,48.5858151],[2.2186236,48.5860485],[2.2181792,48.5861025],[2.2182411,48.587276],[2.2181798,48.5879161],[2.217296,48.5876794],[2.21694,48.5876192],[2.2160967,48.5875589],[2.2161788,48.5868808],[2.2156205,48.5865844],[2.2149598,48.5864779],[2.2138895,48.5862546],[2.2127475,48.5861547],[2.2130194,48.5855964]]]]},"properties":{"code_section":"91461000AL","code_commune":"91461","section_courte":"AL"}},{"type":"Feature","geometry":{"type":"MultiPolygon","coordinates":[[[[2.2137774,48.5890733],[2.2135337,48.5886397],[2.2131787,48.5882341],[2.2131086,48.5880403],[2.2131574,48.5874513],[2.2130536,48.5861834],[2.2138895,48.5862546],[2.2149598,48.5864779],[2.2156205,48.5865844],[2.2161788,48.5868808],[2.2160967,48.5875589],[2.21694,48.5876192],[2.217296,48.5876794],[2.2181798,48.5879161],[2.2182751,48.5881143],[2.2185436,48.5883626],[2.2186617,48.5886334],[2.2186554,48.5887824],[2.2183207,48.5894826],[2.2182785,48.5896593],[2.2180452,48.5898925],[2.217437,48.5900653],[2.2169041,48.5904895],[2.2160078,48.5905587],[2.2149237,48.59057],[2.213571,48.5907709],[2.2114939,48.5909713],[2.2113947,48.5898039],[2.211757,48.5898681],[2.2121388,48.5898803],[2.2127732,48.5898627],[2.2135533,48.5897884],[2.2134087,48.589438],[2.2138809,48.589346],[2.2137774,48.5890733]]]]},"properties":{"code_section":"91461000AM","code_commune":"91461","section_courte":"AM"}},{"type":"Feature","geometry":{"type":"MultiPolygon","coordinates":[[[[2.2212929,48.59537],[2.217933,48.5951779],[2.216358,48.5950136],[2.2163357,48.5948129],[2.216545,48.5923528],[2.2165629,48.5917239],[2.2179094,48.5917907],[2.2197244,48.5919537],[2.2216987,48.5919595],[2.2218189,48.5918968],[2.2218361,48.5916847],[2.2219359,48.5916081],[2.2225727,48.5916623],[2.2230499,48.591818],[2.2230793,48.5919791],[2.2234133,48.5921458],[2.2237564,48.5922122],[2.2239495,48.592446],[2.2240414,48.5926216],[2.2241293,48.5929699],[2.2241056,48.5937753],[2.2243378,48.5952022],[2.2219118,48.5953849],[2.2212929,48.59537]]]]},"properties":{"code_section":"91461000AN","code_commune":"91461","section_courte":"AN"}},{"type":"Feature","geometry":{"type":"MultiPolygon","coordinates":[[[[2.2369173,48.5904263],[2.2372906,48.5905376],[2.2374863,48.5905637],[2.2375498,48.5906189],[2.2378284,48.5907019],[2.239035,48.5907492],[2.2400004,48.5909316],[2.2399979,48.591042],[2.2390673,48.5910842],[2.2385219,48.5911566],[2.2382406,48.5911613],[2.2375864,48.5936937],[2.2374327,48.5947366],[2.2370708,48.5959236],[2.2366301,48.5967709],[2.236461,48.5970075],[2.2361339,48.5972952],[2.2345119,48.5981669],[2.2339951,48.5984972],[2.2339319,48.5980431],[2.2338248,48.5977885],[2.2336513,48.5975545],[2.2332365,48.5972343],[2.232938,48.5970854],[2.2323206,48.5968852],[2.2309736,48.5966078],[2.2312739,48.5965963],[2.2318878,48.5964732],[2.232196,48.5963731],[2.2325021,48.5961529],[2.2329493,48.5956184],[2.2335943,48.5950011],[2.2341783,48.5942339],[2.2346472,48.5937859],[2.2347778,48.5935667],[2.2346716,48.5928672],[2.2347307,48.5924289],[2.2348295,48.5921556],[2.2352122,48.5914959],[2.2354106,48.5909159],[2.2361185,48.5908758],[2.2367425,48.59092],[2.2369173,48.5904263]]]]},"properties":{"code_section":"91461000AP","code_commune":"91461","section_courte":"AP"}},{"type":"Feature","geometry":{"type":"MultiPolygon","coordinates":[[[[2.213571,48.5907709],[2.2149237,48.59057],[2.2160078,48.5905587],[2.2169041,48.5904895],[2.2165767,48.5915286],[2.216545,48.5923528],[2.2163357,48.5948129],[2.2159789,48.5947987],[2.2151595,48.5946323],[2.2138622,48.5942531],[2.2133076,48.5940503],[2.2130633,48.5939562],[2.2130512,48.5938889],[2.2133679,48.5935324],[2.213317,48.5935301],[2.2135211,48.5934509],[2.2134225,48.5934503],[2.2131467,48.5935246],[2.2129726,48.5935188],[2.2126348,48.5934474],[2.2120943,48.593517],[2.2107636,48.592983],[2.2107649,48.5930307],[2.2090265,48.5923237],[2.2082515,48.5917952],[2.2082487,48.5916059],[2.2094649,48.5911055],[2.2097813,48.5910214],[2.2100594,48.5909864],[2.2114939,48.5909713],[2.213571,48.5907709]]]]},"properties":{"code_section":"91461000AR","code_commune":"91461","section_courte":"AR"}}]}