{"type":"FeatureCollection","features":[{"type":"Feature","geometry":{"type":"MultiPolygon","coordinates":[[[[2.1846095,48.7183071],[2.1829636,48.7181151],[2.1833134,48.717982],[2.1830597,48.7164733],[2.1825184,48.7145459],[2.17978,48.7151263],[2.1776493,48.7153703],[2.1750172,48.7155049],[2.1742673,48.7157074],[2.1727467,48.7152565],[2.1725804,48.7148414],[2.174138,48.7138121],[2.1744093,48.7132954],[2.1751332,48.7122004],[2.1756647,48.7129196],[2.1772934,48.712589],[2.178194,48.7123406],[2.1775489,48.7115604],[2.1798563,48.710738],[2.1791807,48.7098437],[2.1785988,48.7098868],[2.1780928,48.70903],[2.1795159,48.7080885],[2.180273,48.7076282],[2.1807183,48.7072166],[2.181104,48.7069896],[2.1814258,48.706883],[2.1821044,48.7067261],[2.1826255,48.7065338],[2.182902,48.7064934],[2.1852243,48.707686],[2.1852371,48.7077074],[2.1850126,48.7076987],[2.1849452,48.7079382],[2.1868112,48.7082486],[2.1864165,48.7087272],[2.186189,48.7089214],[2.1862447,48.7089413],[2.1862095,48.7089931],[2.1860243,48.7091359],[2.1859222,48.7092704],[2.1855348,48.71006],[2.1851941,48.7099321],[2.1849647,48.7106094],[2.184843,48.7106234],[2.1844254,48.7109221],[2.1840498,48.7110481],[2.1834558,48.7111937],[2.1838881,48.711576],[2.1843222,48.7118823],[2.1854751,48.7115162],[2.1862537,48.7111358],[2.1866694,48.7113654],[2.1870406,48.7111468],[2.1874436,48.7107104],[2.1877608,48.710626],[2.1878823,48.7104844],[2.188485,48.7106911],[2.1885491,48.7099695],[2.1886909,48.7099945],[2.1890106,48.7099296],[2.1897495,48.709593],[2.1908247,48.710074],[2.1909588,48.7093647],[2.1911969,48.7089087],[2.1916034,48.7086199],[2.1923224,48.7093739],[2.192728,48.7092613],[2.1944492,48.7114641],[2.1917401,48.712305],[2.1933569,48.7185355],[2.1929931,48.7186437],[2.1918909,48.7188549],[2.1913376,48.7188802],[2.1900418,48.7187389],[2.1875479,48.7185231],[2.1872018,48.7184433],[2.1865854,48.7183827],[2.1858826,48.718363],[2.1857938,48.718315],[2.1846095,48.7183071]]]]},"properties":{"code_section":"91471000AB","code_commune":"91471","section_courte":"AB"}},{"type":"Feature","geometry":{"type":"MultiPolygon","coordinates":[[[[2.1696165,48.7015543],[2.1695993,48.7011398],[2.1713843,48.7012864],[2.1725939,48.7013226],[2.1731213,48.7011165],[2.1736845,48.7010156],[2.1743267,48.7008447],[2.1748621,48.7005004],[2.1753158,48.7005736],[2.1756663,48.7005528],[2.1761344,48.7004013],[2.1763994,48.7002674],[2.1770171,48.7000372],[2.1775075,48.6999632],[2.1794306,48.700144],[2.1795396,48.6999766],[2.180296,48.6998492],[2.1808159,48.6995934],[2.1812114,48.6995691],[2.1818594,48.6993624],[2.1820282,48.6993467],[2.1822167,48.6993783],[2.1825356,48.6995003],[2.1835433,48.6994929],[2.1836849,48.6995367],[2.1836042,48.7002074],[2.1836999,48.7002711],[2.1840014,48.7003437],[2.1839076,48.700462],[2.183526,48.7002946],[2.1825471,48.7001486],[2.1826078,48.7005246],[2.1836829,48.7010688],[2.1837448,48.7015423],[2.1833084,48.701581],[2.1836753,48.7033983],[2.1832314,48.7033833],[2.18318,48.7037841],[2.1842614,48.7038495],[2.1842413,48.7039836],[2.18475,48.7040471],[2.1847695,48.703991],[2.1853222,48.70406],[2.1852571,48.7045007],[2.1855375,48.7045362],[2.185534,48.7045872],[2.185742,48.7046034],[2.1856985,48.7048313],[2.1859727,48.7049024],[2.1858669,48.7050276],[2.185679,48.705142],[2.1852136,48.7052933],[2.1850723,48.7054391],[2.1849603,48.7058742],[2.1850327,48.7061136],[2.1849847,48.706263],[2.1847398,48.7064124],[2.1844613,48.7064703],[2.1841041,48.7064304],[2.182902,48.7064934],[2.1826255,48.7065338],[2.1821044,48.7067261],[2.1814258,48.706883],[2.181104,48.7069896],[2.1807183,48.7072166],[2.180273,48.7076282],[2.1799837,48.7077942],[2.1766543,48.7077222],[2.1769102,48.7079392],[2.176494,48.7078545],[2.1731845,48.7079249],[2.1731875,48.708073],[2.1726795,48.7080891],[2.1726819,48.7081428],[2.1716124,48.7082867],[2.1700285,48.7049153],[2.169723,48.7032671],[2.1697737,48.7032717],[2.1696165,48.7015543]]]]},"properties":{"code_section":"91471000AC","code_commune":"91471","section_courte":"AC"}},{"type":"Feature","geometry":{"type":"MultiPolygon","coordinates":[[[[2.1875817,48.703462],[2.1889145,48.703688],[2.1895275,48.7042248],[2.1903869,48.704339],[2.1911601,48.7048799],[2.1909084,48.7051528],[2.1892982,48.7064097],[2.1873339,48.7060884],[2.1861039,48.7059572],[2.1856454,48.7058053],[2.1850108,48.7056722],[2.1850723,48.7054391],[2.1851801,48.7053156],[2.185679,48.705142],[2.1858669,48.7050276],[2.1859727,48.7049024],[2.1856985,48.7048313],[2.185742,48.7046034],[2.185534,48.7045872],[2.1855375,48.7045362],[2.1852571,48.7045007],[2.1853222,48.70406],[2.1847695,48.703991],[2.18475,48.7040471],[2.1842413,48.7039836],[2.1842614,48.7038495],[2.18318,48.7037841],[2.1832314,48.7033833],[2.1848588,48.7034716],[2.1863668,48.7034395],[2.1875817,48.703462]]]]},"properties":{"code_section":"91471000AD","code_commune":"91471","section_courte":"AD"}},{"type":"Feature","geometry":{"type":"MultiPolygon","coordinates":[[[[2.1841785,48.7110071],[2.1844647,48.7109004],[2.184843,48.7106234],[2.1849647,48.7106094],[2.1851941,48.7099321],[2.1855348,48.71006],[2.1859222,48.7092704],[2.1860243,48.7091359],[2.1862095,48.7089931],[2.1862447,48.7089413],[2.186189,48.7089214],[2.1864165,48.7087272],[2.1868112,48.7082486],[2.1849452,48.7079382],[2.1850126,48.7076987],[2.1852371,48.7077074],[2.1852243,48.707686],[2.182902,48.7064934],[2.1841041,48.7064304],[2.1844613,48.7064703],[2.1847398,48.7064124],[2.1849847,48.706263],[2.1850327,48.7061136],[2.1849603,48.7058742],[2.1850108,48.7056722],[2.1856454,48.7058053],[2.1861039,48.7059572],[2.1873339,48.7060884],[2.1892982,48.7064097],[2.1909521,48.7051117],[2.1921242,48.7060447],[2.1923782,48.7058981],[2.1924863,48.705913],[2.1929865,48.7069334],[2.1928392,48.706995],[2.1929538,48.7073217],[2.1931149,48.7072729],[2.1931354,48.7073056],[2.1927918,48.7076072],[2.1922836,48.7081329],[2.1921211,48.7083767],[2.1916034,48.7086199],[2.1911969,48.7089087],[2.1909588,48.7093647],[2.1908247,48.710074],[2.1897495,48.709593],[2.1890106,48.7099296],[2.1886909,48.7099945],[2.1885491,48.7099695],[2.188485,48.7106911],[2.1878823,48.7104844],[2.1877608,48.710626],[2.1874436,48.7107104],[2.1870406,48.7111468],[2.1866694,48.7113654],[2.1862537,48.7111358],[2.1854751,48.7115162],[2.1843222,48.7118823],[2.1838881,48.711576],[2.1834558,48.7111937],[2.1841785,48.7110071]]]]},"properties":{"code_section":"91471000AE","code_commune":"91471","section_courte":"AE"}},{"type":"Feature","geometry":{"type":"MultiPolygon","coordinates":[[[[2.2038354,48.7068666],[2.203999,48.7073677],[2.2036826,48.7074261],[2.2034595,48.7075505],[2.2033819,48.7077007],[2.2034725,48.7077825],[2.2034611,48.7078726],[2.2031988,48.7080526],[2.202062,48.7084466],[2.2014331,48.708849],[2.2002871,48.7091945],[2.1998823,48.7092478],[2.1995337,48.7092568],[2.1986271,48.7092149],[2.1982428,48.7092376],[2.197695,48.708842],[2.1963198,48.7084865],[2.1957756,48.7085467],[2.1952527,48.7086481],[2.1923224,48.7093739],[2.1916034,48.7086199],[2.1921211,48.7083767],[2.1922836,48.7081329],[2.1927918,48.7076072],[2.1931354,48.7073056],[2.1931149,48.7072729],[2.1929538,48.7073217],[2.1928392,48.706995],[2.1929865,48.7069334],[2.1924863,48.705913],[2.1923782,48.7058981],[2.1921242,48.7060447],[2.1909521,48.7051117],[2.1913778,48.704695],[2.1917119,48.7040247],[2.1934668,48.704318],[2.194143,48.704654],[2.1944519,48.7047195],[2.1948298,48.7047214],[2.1965195,48.7048656],[2.1984375,48.705247],[2.1994308,48.7053332],[2.2014215,48.7051711],[2.201906,48.7052082],[2.2024961,48.7053563],[2.2036234,48.7055786],[2.2036323,48.7068805],[2.2038249,48.7068295],[2.2038354,48.7068666]]]]},"properties":{"code_section":"91471000AH","code_commune":"91471","section_courte":"AH"}},{"type":"Feature","geometry":{"type":"MultiPolygon","coordinates":[[[[2.1965195,48.7048656],[2.1948298,48.7047214],[2.1944519,48.7047195],[2.194143,48.704654],[2.1934668,48.704318],[2.1938925,48.704075],[2.195436,48.7013151],[2.1955664,48.7007959],[2.2026897,48.7022905],[2.202681,48.7023351],[2.2031936,48.7024354],[2.2038052,48.7026215],[2.2043367,48.7046117],[2.2041695,48.7056861],[2.2024961,48.7053563],[2.201906,48.7052082],[2.2014215,48.7051711],[2.1994308,48.7053332],[2.1984375,48.705247],[2.1965195,48.7048656]]]]},"properties":{"code_section":"91471000AI","code_commune":"91471","section_courte":"AI"}},{"type":"Feature","geometry":{"type":"MultiPolygon","coordinates":[[[[2.1939562,48.6988201],[2.1993335,48.6988839],[2.1993404,48.6998587],[2.1993333,48.6999342],[2.1990984,48.7000235],[2.1988023,48.7002449],[2.1984338,48.7003749],[2.1979438,48.7003841],[2.1978778,48.7004668],[2.1978317,48.7012743],[2.1955664,48.7007959],[2.195436,48.7013151],[2.1938925,48.704075],[2.1934668,48.704318],[2.1917119,48.7040247],[2.1917655,48.7038989],[2.1917817,48.703541],[2.1916826,48.7032199],[2.1914523,48.7028511],[2.1902653,48.7018004],[2.1897974,48.7015502],[2.1887593,48.7011942],[2.1884379,48.7009952],[2.1881834,48.7007553],[2.1881743,48.7002663],[2.1880589,48.6996096],[2.1878083,48.6990066],[2.188725,48.6988593],[2.1909063,48.6987838],[2.1939562,48.6988201]]]]},"properties":{"code_section":"91471000AK","code_commune":"91471","section_courte":"AK"}},{"type":"Feature","geometry":{"type":"MultiPolygon","coordinates":[[[[2.1895189,48.6966995],[2.1894653,48.6965534],[2.1897402,48.6956651],[2.1908293,48.6946372],[2.1910558,48.6942977],[2.1911517,48.6942702],[2.192069,48.6944681],[2.1929482,48.6947692],[2.1937071,48.6948559],[2.1936496,48.695058],[2.1939851,48.6949197],[2.194475,48.6950114],[2.1946421,48.6948002],[2.1968291,48.6951054],[2.198578,48.6951589],[2.1987132,48.698877],[2.1909063,48.6987838],[2.188725,48.6988593],[2.1876507,48.6990338],[2.1878821,48.6978213],[2.1887982,48.6976613],[2.1892897,48.6967775],[2.1895189,48.6966995]]]]},"properties":{"code_section":"91471000AL","code_commune":"91471","section_courte":"AL"}},{"type":"Feature","geometry":{"type":"MultiPolygon","coordinates":[[[[2.2077947,48.6989495],[2.2083879,48.6990288],[2.2088198,48.6999169],[2.2089267,48.7004445],[2.2090112,48.700621],[2.2094274,48.7010964],[2.2096986,48.7016598],[2.2037082,48.7022543],[2.2038052,48.7026215],[2.2031936,48.7024354],[2.202681,48.7023351],[2.2026897,48.7022905],[2.1978317,48.7012743],[2.1978778,48.7004668],[2.1979438,48.7003841],[2.1984338,48.7003749],[2.1988023,48.7002449],[2.1990984,48.7000235],[2.1993333,48.6999342],[2.1993335,48.6988839],[2.2070272,48.6989719],[2.2077947,48.6989495]]]]},"properties":{"code_section":"91471000AM","code_commune":"91471","section_courte":"AM"}},{"type":"Feature","geometry":{"type":"MultiPolygon","coordinates":[[[[2.2083879,48.6990288],[2.2077947,48.6989495],[2.2070272,48.6989719],[2.1987132,48.698877],[2.198578,48.6951589],[2.1992925,48.6951834],[2.1998124,48.6952575],[2.2000702,48.6953457],[2.2020387,48.6956364],[2.206514,48.6966378],[2.2066387,48.6971895],[2.2065382,48.697616],[2.2066068,48.6977947],[2.207442,48.6984085],[2.2083879,48.6990288]]]]},"properties":{"code_section":"91471000AN","code_commune":"91471","section_courte":"AN"}},{"type":"Feature","geometry":{"type":"MultiPolygon","coordinates":[[[[2.1883029,48.6848061],[2.1886525,48.6846453],[2.188981,48.6853843],[2.1891802,48.6863389],[2.1894208,48.6869974],[2.1896888,48.687653],[2.1898624,48.6876506],[2.1898534,48.6880158],[2.1907075,48.6898467],[2.1909097,48.6904323],[2.1929632,48.6904102],[2.1938385,48.6904671],[2.1944507,48.6904058],[2.1947728,48.6903351],[2.19631,48.6898387],[2.1968992,48.6895918],[2.1990438,48.68915],[2.2008999,48.6894419],[2.2009894,48.69076],[2.2025016,48.690834],[2.2038955,48.6910016],[2.2041811,48.6916095],[2.2042575,48.6916274],[2.2042341,48.6918039],[2.2044074,48.6921624],[2.2045126,48.6922299],[2.204911,48.6923472],[2.207261,48.6928834],[2.2074425,48.6930144],[2.2077372,48.6935809],[2.2075294,48.6937888],[2.2065708,48.6942694],[2.205964,48.6946598],[2.2057947,48.6948934],[2.2054615,48.6950953],[2.2054035,48.6951792],[2.205407,48.6952782],[2.205476,48.6953418],[2.2061035,48.6955727],[2.2061877,48.6956388],[2.2064687,48.6966334],[2.2020387,48.6956364],[2.2000702,48.6953457],[2.1998124,48.6952575],[2.1992925,48.6951834],[2.1968291,48.6951054],[2.1946421,48.6948002],[2.194475,48.6950114],[2.1939851,48.6949197],[2.1936496,48.695058],[2.1937071,48.6948559],[2.1929482,48.6947692],[2.192069,48.6944681],[2.1911517,48.6942702],[2.1910558,48.6942977],[2.1910614,48.6941376],[2.1912236,48.6941551],[2.191333,48.6941334],[2.1913981,48.6939993],[2.1912907,48.6939007],[2.1902114,48.6938157],[2.1900157,48.6937158],[2.1899026,48.6935629],[2.1899294,48.6934746],[2.1888544,48.6933491],[2.1865956,48.6930156],[2.1846751,48.6928492],[2.1846314,48.6929653],[2.1843926,48.692928],[2.1844615,48.6925583],[2.1845054,48.6918466],[2.1846063,48.6914128],[2.184187,48.6912919],[2.1841209,48.6911872],[2.1841671,48.6911043],[2.1843283,48.6910313],[2.1846972,48.6909751],[2.184885,48.6909047],[2.1856784,48.6905],[2.1858655,48.6903739],[2.1861308,48.6900975],[2.1873626,48.6866069],[2.187349,48.6864748],[2.1872298,48.6862513],[2.1874543,48.6860894],[2.187657,48.6857837],[2.1881235,48.6848571],[2.188242,48.6848975],[2.1883029,48.6848061]]]]},"properties":{"code_section":"91471000AO","code_commune":"91471","section_courte":"AO"}},{"type":"Feature","geometry":{"type":"MultiPolygon","coordinates":[[[[2.1789449,48.6814051],[2.1783927,48.6814835],[2.1767023,48.6792467],[2.1776789,48.6789875],[2.1773871,48.6783534],[2.1802542,48.6769338],[2.1819624,48.6759368],[2.1819234,48.6758344],[2.1839501,48.6755088],[2.1854865,48.6804677],[2.1849025,48.6805466],[2.1849214,48.6805995],[2.1789449,48.6814051]]]]},"properties":{"code_section":"91471000AT","code_commune":"91471","section_courte":"AT"}},{"type":"Feature","geometry":{"type":"MultiPolygon","coordinates":[[[[2.1829899,48.6857971],[2.1824628,48.6857471],[2.1804173,48.6853021],[2.1789294,48.6846148],[2.1796117,48.6847442],[2.1804239,48.6849508],[2.1808314,48.6850099],[2.1815965,48.6850157],[2.1819847,48.6849695],[2.1822026,48.683614],[2.1823029,48.6836037],[2.1823544,48.6832969],[2.1813776,48.6831902],[2.1809224,48.6833758],[2.180806,48.6840184],[2.179742,48.6833566],[2.1784036,48.6817449],[2.1785449,48.681683],[2.1783927,48.6814835],[2.1849214,48.6805995],[2.1849025,48.6805466],[2.1854865,48.6804677],[2.1855913,48.6807993],[2.1854415,48.6808184],[2.1857181,48.6817367],[2.1885958,48.6836956],[2.1888,48.6837656],[2.188386,48.684583],[2.1881401,48.6847761],[2.1852421,48.6852388],[2.1849454,48.6853673],[2.1844558,48.6856608],[2.1841304,48.6857542],[2.1829899,48.6857971]]]]},"properties":{"code_section":"91471000AV","code_commune":"91471","section_courte":"AV"}},{"type":"Feature","geometry":{"type":"MultiPolygon","coordinates":[[[[2.1789294,48.6846148],[2.1804173,48.6853021],[2.1824628,48.6857471],[2.1829899,48.6857971],[2.1838438,48.6857605],[2.1839052,48.686588],[2.1834841,48.6867316],[2.1829145,48.6870412],[2.1823171,48.6870304],[2.1816443,48.6871205],[2.1809799,48.6872535],[2.1806702,48.6874117],[2.1796829,48.6875548],[2.1794305,48.68676],[2.1798245,48.686601],[2.1788965,48.6849648],[2.1791277,48.6847347],[2.178915,48.6846415],[2.1789294,48.6846148]]]]},"properties":{"code_section":"91471000AX","code_commune":"91471","section_courte":"AX"}},{"type":"Feature","geometry":{"type":"MultiPolygon","coordinates":[[[[2.1839978,48.6929407],[2.18362,48.6929375],[2.183599,48.6927553],[2.1830348,48.6926419],[2.1830447,48.6925148],[2.1824635,48.6925115],[2.1823863,48.6927683],[2.181929,48.6924408],[2.1818258,48.6922068],[2.1810609,48.6921077],[2.1816448,48.6889117],[2.1818777,48.6886344],[2.1829039,48.6882099],[2.183545,48.6889983],[2.1849747,48.6891858],[2.1853379,48.6893502],[2.1863484,48.6895141],[2.1861308,48.6900975],[2.1858655,48.6903739],[2.1856784,48.6905],[2.184885,48.6909047],[2.1846972,48.6909751],[2.1843283,48.6910313],[2.1841671,48.6911043],[2.1841209,48.6911872],[2.184187,48.6912919],[2.1846063,48.6914128],[2.1845054,48.6918466],[2.1844615,48.6925583],[2.1843926,48.692928],[2.1839978,48.6929407]]]]},"properties":{"code_section":"91471000AY","code_commune":"91471","section_courte":"AY"}},{"type":"Feature","geometry":{"type":"MultiPolygon","coordinates":[[[[2.1773141,48.6888251],[2.1779227,48.6884987],[2.1788877,48.6881397],[2.1790938,48.6879808],[2.179352,48.6876415],[2.1795696,48.6875461],[2.1796765,48.6875304],[2.1796829,48.6875548],[2.1806007,48.6874256],[2.1809799,48.6872535],[2.18197,48.6870707],[2.1823498,48.6870285],[2.1829145,48.6870412],[2.1834841,48.6867316],[2.1839052,48.686588],[2.1842002,48.6867985],[2.184589,48.6870154],[2.1840479,48.6877124],[2.1835721,48.6880033],[2.1829039,48.6882099],[2.1818777,48.6886344],[2.1816448,48.6889117],[2.1811216,48.6917719],[2.1802006,48.6917246],[2.1798564,48.6916493],[2.1798532,48.6917009],[2.1777753,48.6918619],[2.176028,48.6921569],[2.1753153,48.6922479],[2.1752522,48.6918281],[2.1751641,48.6916891],[2.1748732,48.6914147],[2.1741044,48.6909276],[2.1740378,48.6907631],[2.174244,48.6902875],[2.1755344,48.6902],[2.1754965,48.6900036],[2.1763286,48.68972],[2.177069,48.6894088],[2.1768796,48.6892758],[2.1769377,48.6892358],[2.176985,48.6892443],[2.1773141,48.6888251]]]]},"properties":{"code_section":"91471000AZ","code_commune":"91471","section_courte":"AZ"}},{"type":"Feature","geometry":{"type":"MultiPolygon","coordinates":[[[[2.1779836,48.6954269],[2.1779362,48.6962228],[2.1777504,48.6961902],[2.1776308,48.6964523],[2.1761057,48.6960312],[2.1761208,48.695891],[2.1760624,48.6958801],[2.1761697,48.6954029],[2.175421,48.6954047],[2.1731777,48.6952493],[2.1732415,48.6948486],[2.1736881,48.69485],[2.17368,48.6944824],[2.1743513,48.6944194],[2.1742467,48.6938993],[2.1748941,48.6938412],[2.174783,48.6932797],[2.1751083,48.6932424],[2.175185,48.6931214],[2.1753528,48.6927332],[2.1753153,48.6922479],[2.176028,48.6921569],[2.1777753,48.6918619],[2.1798532,48.6917009],[2.1798564,48.6916493],[2.1802006,48.6917246],[2.1811216,48.6917719],[2.1810609,48.6921077],[2.1810564,48.6925415],[2.1814494,48.6930815],[2.184707,48.6966226],[2.1814693,48.6962793],[2.1791493,48.6955233],[2.1779836,48.6954269]]]]},"properties":{"code_section":"91471000BA","code_commune":"91471","section_courte":"BA"}},{"type":"Feature","geometry":{"type":"MultiPolygon","coordinates":[[[[2.1848958,48.6966416],[2.184707,48.6966226],[2.1814494,48.6930815],[2.1810564,48.6925415],[2.1810609,48.6921077],[2.1818258,48.6922068],[2.181929,48.6924408],[2.1823863,48.6927683],[2.1824635,48.6925115],[2.1830447,48.6925148],[2.1830348,48.6926419],[2.183599,48.6927553],[2.18362,48.6929375],[2.1843926,48.692928],[2.1846314,48.6929653],[2.1846751,48.6928492],[2.1866553,48.6930225],[2.1888544,48.6933491],[2.1899294,48.6934746],[2.1899026,48.6935629],[2.1900157,48.6937158],[2.1902114,48.6938157],[2.1912907,48.6939007],[2.1913981,48.6939993],[2.191333,48.6941334],[2.1912236,48.6941551],[2.1910614,48.6941376],[2.1910558,48.6942977],[2.1908293,48.6946372],[2.1897402,48.6956651],[2.1894653,48.6965534],[2.1895189,48.6966995],[2.1892897,48.6967775],[2.1887982,48.6976613],[2.1878821,48.6978213],[2.1876989,48.6976822],[2.1874755,48.697288],[2.1868809,48.6968514],[2.1848958,48.6966416]]]]},"properties":{"code_section":"91471000BC","code_commune":"91471","section_courte":"BC"}},{"type":"Feature","geometry":{"type":"MultiPolygon","coordinates":[[[[2.1762268,48.6960629],[2.1776308,48.6964523],[2.1777504,48.6961902],[2.1779362,48.6962228],[2.1779836,48.6954269],[2.1791493,48.6955233],[2.1814693,48.6962793],[2.1844957,48.6965993],[2.1843499,48.6970662],[2.1842959,48.6980385],[2.1834077,48.6977113],[2.1832363,48.6980112],[2.1824321,48.6980659],[2.1820332,48.6981504],[2.1808144,48.6994461],[2.1808159,48.6995934],[2.180296,48.6998492],[2.1795396,48.6999766],[2.1794306,48.700144],[2.1775075,48.6999632],[2.1770171,48.7000372],[2.1763994,48.7002674],[2.1761344,48.7004013],[2.1756663,48.7005528],[2.1753158,48.7005736],[2.1748621,48.7005004],[2.175196,48.7003412],[2.1753459,48.700326],[2.1755256,48.7003671],[2.1760457,48.6965143],[2.1760155,48.6965077],[2.1762268,48.6960629]]]]},"properties":{"code_section":"91471000BD","code_commune":"91471","section_courte":"BD"}},{"type":"Feature","geometry":{"type":"MultiPolygon","coordinates":[[[[2.1834676,48.7023754],[2.1833084,48.701581],[2.1837448,48.7015423],[2.1836829,48.7010688],[2.1826078,48.7005246],[2.1825471,48.7001486],[2.183526,48.7002946],[2.1839076,48.700462],[2.1840014,48.7003437],[2.1844386,48.7004328],[2.1849089,48.7002973],[2.1850733,48.7002839],[2.1853463,48.7003368],[2.1859356,48.7003843],[2.1865635,48.7005925],[2.1868424,48.7005729],[2.1868089,48.7005174],[2.1871848,48.70043],[2.1871682,48.7003956],[2.1876313,48.7003049],[2.1881737,48.7002653],[2.1881834,48.7007553],[2.1884379,48.7009952],[2.1887593,48.7011942],[2.1897974,48.7015502],[2.1902653,48.7018004],[2.1914523,48.7028511],[2.1916826,48.7032199],[2.1917817,48.703541],[2.1917655,48.7038989],[2.1913778,48.704695],[2.1911601,48.7048799],[2.1903869,48.704339],[2.1895275,48.7042248],[2.1889145,48.703688],[2.1880724,48.7035378],[2.1875817,48.703462],[2.1863668,48.7034395],[2.1848588,48.7034716],[2.1836753,48.7033983],[2.1834676,48.7023754]]]]},"properties":{"code_section":"91471000BE","code_commune":"91471","section_courte":"BE"}},{"type":"Feature","geometry":{"type":"MultiPolygon","coordinates":[[[[2.1863484,48.6895141],[2.1853379,48.6893502],[2.1849747,48.6891858],[2.183545,48.6889983],[2.1829039,48.6882099],[2.1835721,48.6880033],[2.1840479,48.6877124],[2.184589,48.6870154],[2.1842002,48.6867985],[2.1839052,48.686588],[2.1838438,48.6857605],[2.1841304,48.6857542],[2.1844558,48.6856608],[2.1849454,48.6853673],[2.1852421,48.6852388],[2.1881401,48.6847761],[2.187657,48.6857837],[2.1874543,48.6860894],[2.1872298,48.6862513],[2.187349,48.6864748],[2.1873626,48.6866069],[2.1863484,48.6895141]]]]},"properties":{"code_section":"91471000BH","code_commune":"91471","section_courte":"BH"}},{"type":"Feature","geometry":{"type":"MultiPolygon","coordinates":[[[[2.1868424,48.7005729],[2.1865635,48.7005925],[2.1859356,48.7003843],[2.1853463,48.7003368],[2.1850733,48.7002839],[2.1849089,48.7002973],[2.1844386,48.7004328],[2.1836999,48.7002711],[2.1836042,48.7002074],[2.1836849,48.6995367],[2.1835433,48.6994929],[2.1825356,48.6995003],[2.1822167,48.6993783],[2.1820282,48.6993467],[2.1818594,48.6993624],[2.1812114,48.6995691],[2.1808159,48.6995934],[2.1808144,48.6994461],[2.1820332,48.6981504],[2.1824321,48.6980659],[2.1832363,48.6980112],[2.1834077,48.6977113],[2.1842959,48.6980385],[2.1843499,48.6970662],[2.1844957,48.6965993],[2.1868809,48.6968514],[2.1874755,48.697288],[2.1876989,48.6976822],[2.1878821,48.6978213],[2.1876507,48.6990338],[2.1878083,48.6990066],[2.1880589,48.6996096],[2.1881737,48.7002653],[2.1876313,48.7003049],[2.1871682,48.7003956],[2.1871848,48.70043],[2.1868089,48.7005174],[2.1868424,48.7005729]]]]},"properties":{"code_section":"91471000BI","code_commune":"91471","section_courte":"BI"}},{"type":"Feature","geometry":{"type":"MultiPolygon","coordinates":[[[[2.171918,48.7112408],[2.1716124,48.7082867],[2.1726819,48.7081428],[2.1726795,48.7080891],[2.1731875,48.708073],[2.1731845,48.7079249],[2.176494,48.7078545],[2.1769102,48.7079392],[2.1766543,48.7077222],[2.1799837,48.7077942],[2.1780928,48.70903],[2.1785988,48.7098868],[2.1791807,48.7098437],[2.1798563,48.710738],[2.1775489,48.7115604],[2.178194,48.7123406],[2.1772934,48.712589],[2.1756647,48.7129196],[2.1751332,48.7122004],[2.1744093,48.7132954],[2.174138,48.7138121],[2.1725804,48.7148414],[2.1722316,48.71391],[2.171918,48.7112408]]]]},"properties":{"code_section":"91471000ZR","code_commune":"91471","section_courte":"ZR"}},{"type":"Feature","geometry":{"type":"MultiPolygon","coordinates":[[[[2.1807429,48.7149148],[2.1825184,48.7145459],[2.1830597,48.7164733],[2.1833134,48.717982],[2.1829636,48.7181151],[2.1742673,48.7157074],[2.1750172,48.7155049],[2.1776493,48.7153703],[2.17978,48.7151263],[2.1807429,48.7149148]]]]},"properties":{"code_section":"91471000ZS","code_commune":"91471","section_courte":"ZS"}}]}