{"type":"FeatureCollection","features":[{"type":"Feature","geometry":{"type":"MultiPolygon","coordinates":[[[[2.4080508,48.656649],[2.4056881,48.6585886],[2.4049465,48.6592748],[2.4028021,48.6610627],[2.3995886,48.6579525],[2.3994046,48.6577392],[2.3992407,48.6574824],[2.399168,48.6572374],[2.3989028,48.6568602],[2.398181,48.6559924],[2.3970724,48.6544156],[2.3970437,48.6544208],[2.3968983,48.6541642],[2.3966901,48.6535196],[2.3961528,48.6526955],[2.3993675,48.6520573],[2.4013928,48.651716],[2.4035278,48.6511263],[2.404368,48.6530332],[2.4053548,48.6545549],[2.4063788,48.6555749],[2.4066363,48.6561511],[2.4066929,48.6561916],[2.4068235,48.6562025],[2.4072847,48.6565697],[2.4074859,48.6564511],[2.4076529,48.6565637],[2.4077711,48.656493],[2.4080508,48.656649]]]]},"properties":{"code_section":"91521000AB","code_commune":"91521","section_courte":"AB"}},{"type":"Feature","geometry":{"type":"MultiPolygon","coordinates":[[[[2.4085099,48.658983],[2.4090153,48.6593439],[2.4085347,48.6596155],[2.4103155,48.6607396],[2.410707,48.6605982],[2.412251,48.6621249],[2.4129816,48.6617239],[2.4130223,48.6617571],[2.4132276,48.6616497],[2.4133641,48.6617824],[2.4140916,48.6621969],[2.4141722,48.6622002],[2.413379,48.6631929],[2.4128504,48.6637344],[2.4123064,48.6642514],[2.4110789,48.665307],[2.4104851,48.6657438],[2.4092627,48.6664476],[2.408667,48.6667493],[2.4073591,48.667261],[2.4040743,48.6649626],[2.4044621,48.6646762],[2.404096,48.6643866],[2.4037586,48.6646218],[2.400903,48.6626814],[2.4049465,48.6592748],[2.4072379,48.6593713],[2.4074783,48.6593226],[2.4083947,48.6588972],[2.4085099,48.658983]]]]},"properties":{"code_section":"91521000AC","code_commune":"91521","section_courte":"AC"}},{"type":"Feature","geometry":{"type":"MultiPolygon","coordinates":[[[[2.4163146,48.6585042],[2.4167092,48.6588713],[2.4166652,48.6588894],[2.4177421,48.6599335],[2.4170686,48.6603148],[2.4163486,48.6609253],[2.414881,48.661696],[2.4141722,48.6622002],[2.4140916,48.6621969],[2.4133641,48.6617824],[2.4132276,48.6616497],[2.4130223,48.6617571],[2.4129816,48.6617239],[2.412251,48.6621249],[2.410707,48.6605982],[2.4103155,48.6607396],[2.4085347,48.6596155],[2.4090153,48.6593439],[2.4083947,48.6588972],[2.4074783,48.6593226],[2.4072379,48.6593713],[2.4049465,48.6592748],[2.4056881,48.6585886],[2.4073824,48.6571799],[2.4088409,48.6560652],[2.4114859,48.6537787],[2.4163146,48.6585042]]]]},"properties":{"code_section":"91521000AD","code_commune":"91521","section_courte":"AD"}},{"type":"Feature","geometry":{"type":"MultiPolygon","coordinates":[[[[2.4153426,48.6487881],[2.4167022,48.6493164],[2.4088409,48.6560652],[2.4080508,48.656649],[2.4077711,48.656493],[2.4076529,48.6565637],[2.4074859,48.6564511],[2.4072847,48.6565697],[2.4068235,48.6562025],[2.4066929,48.6561916],[2.4066363,48.6561511],[2.4063788,48.6555749],[2.4053548,48.6545549],[2.4052543,48.6544152],[2.4042946,48.6529113],[2.4035278,48.6511263],[2.4051061,48.6507223],[2.4047188,48.6502346],[2.4061585,48.6498298],[2.4088673,48.6494639],[2.4091827,48.6493996],[2.4079922,48.6485968],[2.4076843,48.648319],[2.4071386,48.6473936],[2.4112343,48.6440464],[2.4116266,48.6449304],[2.4122783,48.6466456],[2.4151582,48.6486951],[2.4153426,48.6487881]]]]},"properties":{"code_section":"91521000AE","code_commune":"91521","section_courte":"AE"}},{"type":"Feature","geometry":{"type":"MultiPolygon","coordinates":[[[[2.4231261,48.6561544],[2.4237093,48.6566643],[2.4203319,48.6585322],[2.418999,48.6591935],[2.4177421,48.6599335],[2.4166652,48.6588894],[2.4167092,48.6588713],[2.4114859,48.6537787],[2.4163572,48.6496287],[2.4166246,48.6498445],[2.4231261,48.6561544]]]]},"properties":{"code_section":"91521000AH","code_commune":"91521","section_courte":"AH"}},{"type":"Feature","geometry":{"type":"MultiPolygon","coordinates":[[[[2.4116617,48.644924],[2.4116266,48.6449304],[2.4102023,48.6417209],[2.4095899,48.6405675],[2.4090373,48.6396849],[2.4093832,48.6395591],[2.4119719,48.6391208],[2.4125719,48.6406985],[2.4128672,48.6410517],[2.4136483,48.6416652],[2.4163967,48.6409339],[2.4165227,48.6409109],[2.4169727,48.6409301],[2.416937,48.6413055],[2.4167909,48.641982],[2.4167221,48.6426485],[2.4164184,48.6434222],[2.4164467,48.643643],[2.4116617,48.644924]]]]},"properties":{"code_section":"91521000AI","code_commune":"91521","section_courte":"AI"}},{"type":"Feature","geometry":{"type":"MultiPolygon","coordinates":[[[[2.3956978,48.6389929],[2.3955449,48.6390917],[2.3949252,48.6387503],[2.3946129,48.6385032],[2.3941307,48.6379999],[2.3940425,48.6379865],[2.3939746,48.6380359],[2.3936518,48.6379824],[2.396953,48.6293317],[2.3985968,48.6321503],[2.3997265,48.6333627],[2.3996365,48.6334049],[2.3998662,48.6337371],[2.3997929,48.6337683],[2.400093,48.634094],[2.4002749,48.633901],[2.4014342,48.6352611],[2.3972708,48.6379163],[2.3956978,48.6389929]]]]},"properties":{"code_section":"91521000AM","code_commune":"91521","section_courte":"AM"}},{"type":"Feature","geometry":{"type":"MultiPolygon","coordinates":[[[[2.4000905,48.6340902],[2.3997929,48.6337683],[2.3998662,48.6337371],[2.3996365,48.6334049],[2.3997265,48.6333627],[2.3985968,48.6321503],[2.398495,48.6319752],[2.4008263,48.6307819],[2.4013115,48.6305854],[2.4013715,48.6299344],[2.4012171,48.6299209],[2.401424,48.6292667],[2.4015076,48.6290754],[2.4017556,48.6287297],[2.4020398,48.6284119],[2.402344,48.628165],[2.4026637,48.6280169],[2.4032542,48.6278205],[2.403431,48.6279602],[2.4042775,48.6275267],[2.4042561,48.6279545],[2.4044503,48.6291477],[2.4045417,48.6301923],[2.4048777,48.6300697],[2.4058632,48.6312639],[2.406438,48.6321435],[2.4014342,48.6352611],[2.4002749,48.633901],[2.4000905,48.6340902]]]]},"properties":{"code_section":"91521000AN","code_commune":"91521","section_courte":"AN"}},{"type":"Feature","geometry":{"type":"MultiPolygon","coordinates":[[[[2.3989197,48.624159],[2.3981112,48.6262469],[2.4000537,48.6269234],[2.4020956,48.6269538],[2.4036639,48.6264721],[2.4040286,48.6269335],[2.4042775,48.6275267],[2.403431,48.6279602],[2.4032542,48.6278205],[2.4026637,48.6280169],[2.402344,48.628165],[2.4020398,48.6284119],[2.4017556,48.6287297],[2.4015076,48.6290754],[2.401424,48.6292667],[2.4012171,48.6299209],[2.4013715,48.6299344],[2.4013115,48.6305854],[2.4008263,48.6307819],[2.398495,48.6319752],[2.3961632,48.6279853],[2.3957684,48.6275214],[2.3954961,48.6272843],[2.3951472,48.6270262],[2.3941962,48.6264737],[2.3945176,48.6262608],[2.3945688,48.6261665],[2.3955237,48.625587],[2.3963113,48.6251682],[2.3964949,48.6249753],[2.396509,48.6249177],[2.3964029,48.6247354],[2.3975542,48.6240161],[2.3977119,48.6239906],[2.3979674,48.6239989],[2.3985553,48.6238817],[2.3990482,48.6238283],[2.3989197,48.624159]]]]},"properties":{"code_section":"91521000AO","code_commune":"91521","section_courte":"AO"}},{"type":"Feature","geometry":{"type":"MultiPolygon","coordinates":[[[[2.3927175,48.6412512],[2.392986,48.6411613],[2.3891419,48.6384344],[2.3880464,48.6377617],[2.3875405,48.6373154],[2.3872459,48.6368289],[2.3872087,48.6368459],[2.3832555,48.6301328],[2.3876415,48.6313328],[2.3877958,48.6312571],[2.3884047,48.6271398],[2.3889187,48.6270456],[2.3890878,48.6269475],[2.3893735,48.6268974],[2.389807,48.6269839],[2.3903434,48.6269841],[2.3908997,48.626943],[2.3911526,48.6270247],[2.3912864,48.6270137],[2.3928225,48.626477],[2.3929208,48.6264637],[2.3932111,48.626497],[2.3938037,48.6264633],[2.3940101,48.6263859],[2.3951472,48.6270262],[2.3957684,48.6275214],[2.3962938,48.6281815],[2.396953,48.6293317],[2.3936518,48.6379824],[2.3939746,48.6380359],[2.3940425,48.6379865],[2.3941307,48.6379999],[2.3946129,48.6385032],[2.3949252,48.6387503],[2.3955449,48.6390917],[2.3956978,48.6389929],[2.3919989,48.642506],[2.3922313,48.6418265],[2.391596,48.6424774],[2.3913735,48.6430978],[2.3912139,48.6432489],[2.3902563,48.6420834],[2.3927175,48.6412512]]]]},"properties":{"code_section":"91521000AP","code_commune":"91521","section_courte":"AP"}},{"type":"Feature","geometry":{"type":"MultiPolygon","coordinates":[[[[2.4064986,48.6322639],[2.4065491,48.632371],[2.4069306,48.6326256],[2.406715,48.6326919],[2.4065495,48.6328155],[2.4064048,48.6330673],[2.4063667,48.6333761],[2.4064384,48.6335893],[2.4066986,48.6340333],[2.4069896,48.6343176],[2.4073488,48.6345434],[2.4078916,48.6347261],[2.4088957,48.6347847],[2.4102767,48.634969],[2.4116248,48.6352247],[2.412434,48.6354261],[2.4126756,48.6354988],[2.4128135,48.6356409],[2.4130059,48.6360821],[2.412531,48.6361998],[2.4123668,48.6361512],[2.411243,48.6363771],[2.4099118,48.6373201],[2.4053893,48.6378558],[2.4051339,48.6378997],[2.4051479,48.6379375],[2.4039036,48.6381478],[2.4038028,48.6378838],[2.4028706,48.6380409],[2.402657,48.6377293],[2.401728,48.63588],[2.4013136,48.6353358],[2.406438,48.6321435],[2.4064986,48.6322639]]]]},"properties":{"code_section":"91521000AS","code_commune":"91521","section_courte":"AS"}},{"type":"Feature","geometry":{"type":"MultiPolygon","coordinates":[[[[2.3940224,48.6408197],[2.3938721,48.6407319],[2.3956978,48.6389929],[2.3972708,48.6379163],[2.4013136,48.6353358],[2.401728,48.63588],[2.4027351,48.6378607],[2.4041231,48.6395589],[2.4006991,48.6400025],[2.4004262,48.6400004],[2.3975675,48.6403918],[2.3943742,48.640721],[2.3940224,48.6408197]]]]},"properties":{"code_section":"91521000AT","code_commune":"91521","section_courte":"AT"}},{"type":"Feature","geometry":{"type":"MultiPolygon","coordinates":[[[[2.3936113,48.6409802],[2.3938721,48.6407319],[2.3940224,48.6408197],[2.3943742,48.640721],[2.3975675,48.6403918],[2.3994548,48.6401277],[2.4005231,48.6416176],[2.4008759,48.6427353],[2.401914,48.6428786],[2.4013653,48.6437119],[2.4010325,48.644127],[2.3991954,48.6452297],[2.3981995,48.6462413],[2.3975952,48.6456097],[2.394624,48.6468372],[2.392842,48.6445344],[2.3923998,48.6441275],[2.3913796,48.6434259],[2.3912139,48.6432489],[2.3913735,48.6430978],[2.391596,48.6424774],[2.3922313,48.6418265],[2.3919989,48.642506],[2.3936113,48.6409802]]]]},"properties":{"code_section":"91521000AV","code_commune":"91521","section_courte":"AV"}},{"type":"Feature","geometry":{"type":"MultiPolygon","coordinates":[[[[2.3975952,48.6456097],[2.3981995,48.6462413],[2.3985768,48.6466962],[2.4019959,48.6515378],[2.4013928,48.651716],[2.3981787,48.6522818],[2.39669,48.6500061],[2.3957807,48.6484205],[2.3953615,48.6478045],[2.3946038,48.6468459],[2.3975952,48.6456097]]]]},"properties":{"code_section":"91521000AW","code_commune":"91521","section_courte":"AW"}},{"type":"Feature","geometry":{"type":"MultiPolygon","coordinates":[[[[2.4035278,48.6511263],[2.4019959,48.6515378],[2.3985768,48.6466962],[2.3981995,48.6462413],[2.3991954,48.6452297],[2.4010325,48.644127],[2.4016986,48.6432222],[2.4022073,48.6423937],[2.4029544,48.6419533],[2.4030835,48.6421938],[2.4041542,48.6432216],[2.4053607,48.6440752],[2.4055938,48.644388],[2.406878,48.6469547],[2.4076843,48.648319],[2.4079922,48.6485968],[2.4091827,48.6493996],[2.4088673,48.6494639],[2.4061585,48.6498298],[2.4047188,48.6502346],[2.4051061,48.6507223],[2.4035278,48.6511263]]]]},"properties":{"code_section":"91521000AX","code_commune":"91521","section_courte":"AX"}},{"type":"Feature","geometry":{"type":"MultiPolygon","coordinates":[[[[2.4071386,48.6473936],[2.4063503,48.6459375],[2.4055336,48.6442926],[2.4053607,48.6440752],[2.4041542,48.6432216],[2.4030835,48.6421938],[2.4029544,48.6419533],[2.403026,48.6413758],[2.4039737,48.641257],[2.4046634,48.6410456],[2.4052087,48.6405524],[2.4053953,48.6404964],[2.4061473,48.6404053],[2.4070864,48.6403328],[2.4080194,48.6400835],[2.4090373,48.6396849],[2.4095899,48.6405675],[2.4102023,48.6417209],[2.4112343,48.6440464],[2.4071386,48.6473936]]]]},"properties":{"code_section":"91521000AY","code_commune":"91521","section_courte":"AY"}},{"type":"Feature","geometry":{"type":"MultiPolygon","coordinates":[[[[2.4030348,48.6380137],[2.4038028,48.6378838],[2.4039036,48.6381478],[2.4051479,48.6379375],[2.4051339,48.6378997],[2.4053893,48.6378558],[2.4099118,48.6373201],[2.4082311,48.6385064],[2.4087713,48.6397898],[2.4080194,48.6400835],[2.4070864,48.6403328],[2.405444,48.6404872],[2.4052087,48.6405524],[2.4046634,48.6410456],[2.4039737,48.641257],[2.403026,48.6413758],[2.4029544,48.6419533],[2.4022073,48.6423937],[2.401914,48.6428786],[2.4008759,48.6427353],[2.4005231,48.6416176],[2.3994548,48.6401277],[2.4004262,48.6400004],[2.4006991,48.6400025],[2.4041231,48.6395589],[2.4028706,48.6380409],[2.4030348,48.6380137]]]]},"properties":{"code_section":"91521000AZ","code_commune":"91521","section_courte":"AZ"}},{"type":"Feature","geometry":{"type":"MultiPolygon","coordinates":[[[[2.4157444,48.6385846],[2.4158502,48.6387644],[2.4167177,48.6391363],[2.416946,48.6393049],[2.4170417,48.6394355],[2.4170612,48.6395085],[2.416983,48.6399332],[2.417031,48.640275],[2.4169727,48.6409301],[2.4165227,48.6409109],[2.4163967,48.6409339],[2.4136483,48.6416652],[2.4128672,48.6410517],[2.4125719,48.6406985],[2.4119719,48.6391208],[2.4093832,48.6395591],[2.4087713,48.6397898],[2.4082311,48.6385064],[2.411243,48.6363771],[2.4123668,48.6361512],[2.412531,48.6361998],[2.4130059,48.6360821],[2.4131712,48.6362747],[2.4139105,48.6368007],[2.4144684,48.6371511],[2.4152003,48.6377091],[2.4154667,48.6380387],[2.4157444,48.6385846]]]]},"properties":{"code_section":"91521000BA","code_commune":"91521","section_courte":"BA"}},{"type":"Feature","geometry":{"type":"MultiPolygon","coordinates":[[[[2.42045,48.6417704],[2.4210209,48.6438152],[2.4212303,48.6443783],[2.4215076,48.644692],[2.421886,48.6447471],[2.4221455,48.6447281],[2.4196982,48.6468127],[2.4189555,48.6461094],[2.4187223,48.6455702],[2.4179723,48.6449984],[2.4177292,48.6448855],[2.4171697,48.6447103],[2.4168292,48.6441469],[2.4164467,48.643643],[2.4164184,48.6434222],[2.4167221,48.6426485],[2.4167909,48.641982],[2.416937,48.6413055],[2.417031,48.640275],[2.416983,48.6399332],[2.4170612,48.6395085],[2.416946,48.6393049],[2.4167177,48.6391363],[2.4158502,48.6387644],[2.4157245,48.6385357],[2.4192181,48.6381464],[2.4194068,48.6380988],[2.42045,48.6417704]]]]},"properties":{"code_section":"91521000BB","code_commune":"91521","section_courte":"BB"}},{"type":"Feature","geometry":{"type":"MultiPolygon","coordinates":[[[[2.4116617,48.644924],[2.4164467,48.643643],[2.4168292,48.6441469],[2.4171697,48.6447103],[2.4177292,48.6448855],[2.4179723,48.6449984],[2.4187223,48.6455702],[2.4189555,48.6461094],[2.4196982,48.6468127],[2.4167022,48.6493164],[2.4152333,48.6487461],[2.4122783,48.6466456],[2.4116266,48.6449304],[2.4116617,48.644924]]]]},"properties":{"code_section":"91521000BC","code_commune":"91521","section_courte":"BC"}},{"type":"Feature","geometry":{"type":"MultiPolygon","coordinates":[[[[2.4196982,48.6468127],[2.4197419,48.6467732],[2.4201745,48.647106],[2.420541,48.6474735],[2.4205895,48.6475756],[2.4207378,48.6477262],[2.4210111,48.6483364],[2.4213323,48.6489239],[2.4215423,48.6491775],[2.4215706,48.649454],[2.4219052,48.6502504],[2.4225092,48.6511312],[2.4224563,48.6514554],[2.4224974,48.6516117],[2.4226027,48.6517702],[2.4230644,48.6520362],[2.4239853,48.6527419],[2.4209682,48.6540736],[2.4166246,48.6498445],[2.4163572,48.6496287],[2.4196982,48.6468127]]]]},"properties":{"code_section":"91521000BD","code_commune":"91521","section_courte":"BD"}},{"type":"Feature","geometry":{"type":"MultiPolygon","coordinates":[[[[2.4224042,48.6449458],[2.4257241,48.6483475],[2.4262036,48.6481298],[2.4270218,48.648959],[2.4262284,48.6493259],[2.4261602,48.6494759],[2.4263298,48.6496649],[2.4252764,48.650135],[2.4252291,48.6502848],[2.4264753,48.6515452],[2.4264883,48.6516162],[2.4239853,48.6527419],[2.4230644,48.6520362],[2.4226027,48.6517702],[2.4224974,48.6516117],[2.4224563,48.6514554],[2.4225092,48.6511312],[2.4219052,48.6502504],[2.4215706,48.649454],[2.4215423,48.6491775],[2.4213323,48.6489239],[2.4210111,48.6483364],[2.4207378,48.6477262],[2.4205895,48.6475756],[2.420541,48.6474735],[2.4201745,48.647106],[2.4197419,48.6467732],[2.4221718,48.6447057],[2.4224042,48.6449458]]]]},"properties":{"code_section":"91521000BE","code_commune":"91521","section_courte":"BE"}},{"type":"Feature","geometry":{"type":"MultiPolygon","coordinates":[[[[2.4229863,48.6560254],[2.4209682,48.6540736],[2.4258592,48.651915],[2.4259371,48.651983],[2.4263539,48.6519164],[2.4266723,48.6519584],[2.4269326,48.6520941],[2.4272653,48.6524299],[2.4281528,48.6525274],[2.4287447,48.6522094],[2.4290776,48.6524928],[2.4299869,48.6531637],[2.4292202,48.6536306],[2.4270423,48.654805],[2.4237093,48.6566643],[2.4229863,48.6560254]]]]},"properties":{"code_section":"91521000BH","code_commune":"91521","section_courte":"BH"}},{"type":"Feature","geometry":{"type":"MultiPolygon","coordinates":[[[[2.4292323,48.6526071],[2.4287447,48.6522094],[2.4281528,48.6525274],[2.4272653,48.6524299],[2.4269326,48.6520941],[2.4266723,48.6519584],[2.4263539,48.6519164],[2.4259371,48.651983],[2.4258477,48.6519021],[2.4264883,48.6516162],[2.4264753,48.6515452],[2.4252291,48.6502848],[2.4252764,48.650135],[2.4263298,48.6496649],[2.4261602,48.6494759],[2.4261778,48.649381],[2.4262748,48.6492988],[2.4303184,48.6473927],[2.4303474,48.6474157],[2.4310073,48.6471769],[2.4311887,48.6471913],[2.4313512,48.6470312],[2.4324401,48.6463337],[2.4328912,48.6459179],[2.433613,48.6455219],[2.434819,48.646283],[2.4350633,48.6466041],[2.435075,48.6466574],[2.4349874,48.6467583],[2.4349993,48.6467997],[2.435233,48.6469326],[2.4355191,48.6472844],[2.4363337,48.6477176],[2.4377166,48.6485336],[2.4324167,48.6518554],[2.431545,48.6523543],[2.4299869,48.6531637],[2.4292323,48.6526071]]]]},"properties":{"code_section":"91521000BI","code_commune":"91521","section_courte":"BI"}},{"type":"Feature","geometry":{"type":"MultiPolygon","coordinates":[[[[2.4224042,48.6449458],[2.4221718,48.6447057],[2.4221455,48.6447281],[2.4219415,48.6447383],[2.4263595,48.6410178],[2.4302894,48.6434984],[2.4308579,48.6438742],[2.4308888,48.6439442],[2.4316976,48.6444547],[2.433613,48.6455219],[2.4328912,48.6459179],[2.4324401,48.6463337],[2.4313512,48.6470312],[2.4311887,48.6471913],[2.4310073,48.6471769],[2.4303474,48.6474157],[2.4303184,48.6473927],[2.4270218,48.648959],[2.4262036,48.6481298],[2.4257241,48.6483475],[2.4224042,48.6449458]]]]},"properties":{"code_section":"91521000BK","code_commune":"91521","section_courte":"BK"}}]}