{"type":"FeatureCollection","features":[{"type":"Feature","geometry":{"type":"MultiPolygon","coordinates":[[[[2.3208041,48.6609635],[2.3194265,48.6615071],[2.3175791,48.6620676],[2.318531,48.6654419],[2.3187705,48.6657872],[2.3167828,48.6652063],[2.3159824,48.6650544],[2.3157165,48.6649752],[2.3156521,48.6649519],[2.3155753,48.6648583],[2.3156455,48.6645138],[2.3156751,48.6638281],[2.3153405,48.6626757],[2.314734,48.6617272],[2.313649,48.6601843],[2.3133166,48.6598796],[2.3125025,48.6594127],[2.3121357,48.6587554],[2.3114529,48.6583625],[2.3107495,48.6576986],[2.3097687,48.6574008],[2.3093131,48.6571372],[2.3133586,48.6542644],[2.3154971,48.655446],[2.3154553,48.6555],[2.317543,48.6566646],[2.3178678,48.656885],[2.318232,48.6568133],[2.3182576,48.6568387],[2.3185684,48.6568355],[2.3186232,48.6567854],[2.3188093,48.6568017],[2.319555,48.6577413],[2.3233917,48.6598843],[2.3211279,48.6602529],[2.3213871,48.6607322],[2.3208041,48.6609635]]]]},"properties":{"code_section":"91549000AA","code_commune":"91549","section_courte":"AA"}},{"type":"Feature","geometry":{"type":"MultiPolygon","coordinates":[[[[2.3219667,48.6575878],[2.322137,48.6576449],[2.3204759,48.6582567],[2.319555,48.6577413],[2.3188093,48.6568017],[2.3186232,48.6567854],[2.3185684,48.6568355],[2.3182576,48.6568387],[2.318232,48.6568133],[2.3178678,48.656885],[2.317543,48.6566646],[2.3154553,48.6555],[2.3154971,48.655446],[2.3131939,48.6541687],[2.3137795,48.6536532],[2.3141481,48.653452],[2.3141776,48.6533893],[2.3149854,48.6528302],[2.317082,48.651243],[2.3246816,48.6562648],[2.3241578,48.6566103],[2.3239634,48.6564819],[2.3234321,48.6568319],[2.3233961,48.656809],[2.3227336,48.6572447],[2.3226245,48.6571937],[2.3223972,48.6571801],[2.3219667,48.6575878]]]]},"properties":{"code_section":"91549000AB","code_commune":"91549","section_courte":"AB"}},{"type":"Feature","geometry":{"type":"MultiPolygon","coordinates":[[[[2.3246795,48.6562635],[2.317082,48.651243],[2.3195411,48.6493504],[2.3227395,48.6484895],[2.3254626,48.6509476],[2.3260022,48.6516818],[2.3261371,48.6521187],[2.3270504,48.6520346],[2.3269469,48.6527346],[2.3295134,48.6539375],[2.3263729,48.6554463],[2.3261487,48.655564],[2.3262254,48.6556236],[2.3258318,48.6558604],[2.3257803,48.6558216],[2.3253182,48.656087],[2.3251317,48.6559588],[2.3246795,48.6562635]]]]},"properties":{"code_section":"91549000AC","code_commune":"91549","section_courte":"AC"}},{"type":"Feature","geometry":{"type":"MultiPolygon","coordinates":[[[[2.3270504,48.6520346],[2.3261371,48.6521187],[2.3260022,48.6516818],[2.3254626,48.6509476],[2.3227395,48.6484894],[2.3296155,48.6465852],[2.3331458,48.6522028],[2.3295134,48.6539375],[2.3269469,48.6527346],[2.3270504,48.6520346]]]]},"properties":{"code_section":"91549000AD","code_commune":"91549","section_courte":"AD"}},{"type":"Feature","geometry":{"type":"MultiPolygon","coordinates":[[[[2.3348196,48.6450594],[2.3367897,48.6504506],[2.3331458,48.6522028],[2.3296155,48.6465852],[2.3348196,48.6450594]]]]},"properties":{"code_section":"91549000AE","code_commune":"91549","section_courte":"AE"}},{"type":"Feature","geometry":{"type":"MultiPolygon","coordinates":[[[[2.3367897,48.6504506],[2.3348196,48.6450594],[2.3440122,48.6469109],[2.3367897,48.6504506]]]]},"properties":{"code_section":"91549000AH","code_commune":"91549","section_courte":"AH"}},{"type":"Feature","geometry":{"type":"MultiPolygon","coordinates":[[[[2.3396258,48.6428209],[2.3405606,48.642565],[2.3469941,48.6454784],[2.3440122,48.6469109],[2.3348196,48.6450594],[2.3358126,48.6424434],[2.3396258,48.6428209]]]]},"properties":{"code_section":"91549000AI","code_commune":"91549","section_courte":"AI"}},{"type":"Feature","geometry":{"type":"MultiPolygon","coordinates":[[[[2.3393404,48.6392155],[2.3395734,48.6392515],[2.3401579,48.6394449],[2.3413504,48.6394219],[2.341845,48.6396395],[2.3424266,48.6390738],[2.343755,48.6390362],[2.3441518,48.6401699],[2.3438388,48.6404837],[2.3437605,48.6405178],[2.3438374,48.6406373],[2.3449191,48.6436942],[2.3456514,48.644432],[2.3458374,48.6448954],[2.3458108,48.6448834],[2.3457667,48.6449226],[2.3405606,48.642565],[2.3398619,48.6427723],[2.3396258,48.6428209],[2.3394468,48.6428208],[2.3358126,48.6424434],[2.3369963,48.6393249],[2.3393509,48.6392499],[2.3393404,48.6392155]]]]},"properties":{"code_section":"91549000AK","code_commune":"91549","section_courte":"AK"}},{"type":"Feature","geometry":{"type":"MultiPolygon","coordinates":[[[[2.3424068,48.6390933],[2.341845,48.6396395],[2.3413504,48.6394219],[2.3401579,48.6394449],[2.3396003,48.6392594],[2.339394,48.6392185],[2.3393404,48.6392155],[2.3393509,48.6392499],[2.3393173,48.6392514],[2.3369963,48.6393249],[2.3364698,48.6407119],[2.3351602,48.640131],[2.332775,48.6394003],[2.3326039,48.6389655],[2.3329484,48.6372756],[2.3378782,48.6365179],[2.3380777,48.6364107],[2.3392844,48.6354406],[2.339807,48.6351287],[2.3405766,48.6348136],[2.3414604,48.6345742],[2.3426291,48.6344482],[2.3431232,48.6344608],[2.3437882,48.6345381],[2.3436935,48.6355192],[2.3439504,48.6366533],[2.3441498,48.6369934],[2.3444585,48.6372153],[2.3448721,48.6373966],[2.3454313,48.6375124],[2.3453782,48.6378823],[2.3453859,48.63821],[2.3440374,48.6383699],[2.3440667,48.6387601],[2.3437447,48.6390073],[2.343755,48.6390362],[2.3424266,48.6390738],[2.3424068,48.6390933]]]]},"properties":{"code_section":"91549000AL","code_commune":"91549","section_courte":"AL"}},{"type":"Feature","geometry":{"type":"MultiPolygon","coordinates":[[[[2.3505328,48.6420203],[2.3520536,48.6417863],[2.3526625,48.6427252],[2.3469941,48.6454784],[2.3457667,48.6449226],[2.3458108,48.6448834],[2.3458374,48.6448954],[2.3456515,48.644432],[2.3449191,48.6436942],[2.3438374,48.6406373],[2.3437605,48.6405178],[2.3438388,48.6404837],[2.3441518,48.6401699],[2.3437447,48.6390073],[2.3440667,48.6387601],[2.3440374,48.6383699],[2.3453859,48.63821],[2.3453782,48.6378823],[2.3454313,48.6375124],[2.3453556,48.6374966],[2.3454253,48.6373022],[2.3456881,48.6369827],[2.3461083,48.6367524],[2.3464536,48.6366711],[2.3467956,48.6366513],[2.3470662,48.6366764],[2.3474799,48.6367908],[2.3480445,48.6371676],[2.3483343,48.6374203],[2.3487751,48.6378918],[2.349073,48.6383788],[2.3491574,48.6386359],[2.3492002,48.6389855],[2.3491147,48.6395078],[2.3490053,48.6397608],[2.3488153,48.6400554],[2.3488958,48.6400743],[2.3491723,48.6400302],[2.349617,48.6412557],[2.3494056,48.64131],[2.3496929,48.6415031],[2.349822,48.6417133],[2.3498203,48.6419404],[2.3496799,48.6421745],[2.349764,48.6422109],[2.350556,48.6420859],[2.3505328,48.6420203]]]]},"properties":{"code_section":"91549000AM","code_commune":"91549","section_courte":"AM"}},{"type":"Feature","geometry":{"type":"MultiPolygon","coordinates":[[[[2.3565442,48.6376389],[2.3563093,48.6378148],[2.3570363,48.6385849],[2.3561462,48.6399349],[2.3553429,48.6414306],[2.3526625,48.6427252],[2.3520536,48.6417863],[2.3505328,48.6420203],[2.350556,48.6420859],[2.349764,48.6422109],[2.3496799,48.6421745],[2.3498203,48.6419404],[2.349822,48.6417133],[2.3496929,48.6415031],[2.3494056,48.64131],[2.349617,48.6412557],[2.3491723,48.6400302],[2.3488958,48.6400743],[2.3488153,48.6400554],[2.3490465,48.6396774],[2.34918,48.6392483],[2.3491888,48.6388102],[2.349073,48.6383788],[2.3488363,48.6379697],[2.3484177,48.6375042],[2.3479659,48.6371046],[2.347586,48.6368494],[2.3477115,48.6362465],[2.3480458,48.6359855],[2.3480577,48.6359307],[2.3481206,48.6358964],[2.3483201,48.6359136],[2.3484245,48.6353484],[2.3509074,48.6354776],[2.3538688,48.6355232],[2.3544644,48.6355589],[2.3554863,48.6355589],[2.3565682,48.6376153],[2.3565442,48.6376389]]]]},"properties":{"code_section":"91549000AN","code_commune":"91549","section_courte":"AN"}},{"type":"Feature","geometry":{"type":"MultiPolygon","coordinates":[[[[2.3539595,48.6355272],[2.3509074,48.6354776],[2.3484245,48.6353484],[2.3483201,48.6359136],[2.3481206,48.6358964],[2.3480577,48.6359307],[2.3480458,48.6359855],[2.3477115,48.6362465],[2.347586,48.6368494],[2.3473657,48.6367481],[2.347023,48.6366704],[2.3466167,48.6366551],[2.346281,48.6367011],[2.3459364,48.6368308],[2.345658,48.6370077],[2.3454686,48.6372257],[2.3453556,48.6374966],[2.3448721,48.6373966],[2.3444585,48.6372153],[2.3441498,48.6369934],[2.3439504,48.6366533],[2.3436935,48.6355192],[2.3437882,48.6345381],[2.3434921,48.632928],[2.3456982,48.632503],[2.345374,48.631776],[2.3464701,48.6315732],[2.3513274,48.6304009],[2.3528491,48.63154],[2.3533587,48.6319975],[2.3541671,48.6332329],[2.3542514,48.6331989],[2.3554866,48.6355589],[2.3544644,48.6355589],[2.3539595,48.6355272]]]]},"properties":{"code_section":"91549000AO","code_commune":"91549","section_courte":"AO"}},{"type":"Feature","geometry":{"type":"MultiPolygon","coordinates":[[[[2.3493991,48.6308658],[2.3464701,48.6315732],[2.345374,48.631776],[2.3456982,48.632503],[2.3434921,48.632928],[2.3434365,48.6326273],[2.34299,48.6320572],[2.3429709,48.631717],[2.3433983,48.6307846],[2.3436263,48.6304695],[2.3438258,48.6300725],[2.3439302,48.6298017],[2.3439018,48.6296568],[2.3446618,48.6293228],[2.3457164,48.6290864],[2.3463243,48.6288659],[2.3441594,48.6273341],[2.3448332,48.6267771],[2.3451883,48.6265292],[2.3474551,48.6266324],[2.3488677,48.6265947],[2.351071,48.6265007],[2.352632,48.6263165],[2.3526889,48.6264561],[2.3522511,48.6265539],[2.3518865,48.6267113],[2.3512024,48.6271987],[2.3508417,48.6274071],[2.3494202,48.6278758],[2.3495769,48.6282485],[2.3498737,48.6285091],[2.3501382,48.6289063],[2.3503337,48.6295803],[2.3508053,48.6301002],[2.3513274,48.6304009],[2.3493991,48.6308658]]]]},"properties":{"code_section":"91549000AP","code_commune":"91549","section_courte":"AP"}},{"type":"Feature","geometry":{"type":"MultiPolygon","coordinates":[[[[2.352632,48.6263165],[2.351071,48.6265007],[2.3474551,48.6266324],[2.3467049,48.6265981],[2.3468153,48.6251242],[2.3465173,48.625113],[2.3466172,48.6236785],[2.3454875,48.6237389],[2.3452903,48.62383],[2.3442614,48.6238991],[2.3441444,48.6239713],[2.3441256,48.6238296],[2.344037,48.6237314],[2.3446422,48.623695],[2.3448778,48.6215193],[2.3445397,48.6215208],[2.3445489,48.6207639],[2.3444101,48.6202705],[2.3498826,48.6202487],[2.3506704,48.6220812],[2.3518518,48.6243851],[2.352632,48.6263165]]]]},"properties":{"code_section":"91549000AR","code_commune":"91549","section_courte":"AR"}},{"type":"Feature","geometry":{"type":"MultiPolygon","coordinates":[[[[2.3467236,48.6263946],[2.3467049,48.6265981],[2.3451883,48.6265292],[2.3448332,48.6267771],[2.3437715,48.6276547],[2.3433978,48.6278728],[2.3431399,48.6274564],[2.3427809,48.6272779],[2.3426162,48.6272532],[2.3415322,48.6272582],[2.3403509,48.6272036],[2.3407171,48.6260585],[2.3384342,48.6257589],[2.3384945,48.6240605],[2.3381986,48.6240784],[2.3380272,48.6240168],[2.3372496,48.6229309],[2.3369886,48.6227761],[2.336688,48.6227146],[2.3368201,48.6226552],[2.3369286,48.6224887],[2.3369762,48.622501],[2.3372104,48.6221074],[2.3373486,48.6219915],[2.3387223,48.6215572],[2.338455,48.6211644],[2.3383786,48.6211879],[2.3381279,48.6202711],[2.3378802,48.620177],[2.3444101,48.6202705],[2.3445489,48.6207639],[2.3445397,48.6215208],[2.3448778,48.6215193],[2.3446422,48.623695],[2.344037,48.6237314],[2.3441256,48.6238296],[2.3441444,48.6239713],[2.3442614,48.6238991],[2.3452909,48.62383],[2.3454875,48.6237389],[2.3466172,48.6236785],[2.3465173,48.625113],[2.3468153,48.6251242],[2.3467236,48.6263946]]]]},"properties":{"code_section":"91549000AS","code_commune":"91549","section_courte":"AS"}},{"type":"Feature","geometry":{"type":"MultiPolygon","coordinates":[[[[2.3384466,48.6254108],[2.3384342,48.6257589],[2.3329721,48.6250418],[2.333143,48.6245044],[2.3331238,48.6243189],[2.3328064,48.6231081],[2.3326358,48.6220385],[2.3324415,48.6215074],[2.3323085,48.6213766],[2.3317248,48.6210921],[2.3303686,48.6203033],[2.330547,48.6201838],[2.3330889,48.6201181],[2.335227,48.6201263],[2.3378802,48.620177],[2.3381279,48.6202711],[2.3383786,48.6211879],[2.338455,48.6211644],[2.3387223,48.6215572],[2.3373486,48.6219915],[2.3372104,48.6221074],[2.3369762,48.622501],[2.3369286,48.6224887],[2.3368201,48.6226552],[2.336688,48.6227146],[2.3369886,48.6227761],[2.3372496,48.6229309],[2.3380272,48.6240168],[2.3381986,48.6240784],[2.3384945,48.6240605],[2.3384466,48.6254108]]]]},"properties":{"code_section":"91549000AT","code_commune":"91549","section_courte":"AT"}},{"type":"Feature","geometry":{"type":"MultiPolygon","coordinates":[[[[2.3378837,48.6276484],[2.3358705,48.6280257],[2.3357964,48.6282041],[2.333776,48.6285901],[2.3337235,48.6288933],[2.3334039,48.6293686],[2.3332806,48.6297229],[2.328807,48.6311172],[2.3286274,48.6309926],[2.3283951,48.6308906],[2.3278718,48.6307123],[2.3276942,48.6305676],[2.3275178,48.6303063],[2.3273844,48.6299923],[2.3271624,48.6288966],[2.328858,48.6280468],[2.3299225,48.6276613],[2.3299581,48.6275181],[2.3300938,48.6273259],[2.3313665,48.6256281],[2.331376,48.6254268],[2.3314451,48.6254011],[2.3326115,48.6251571],[2.3329349,48.6251594],[2.3329721,48.6250418],[2.3407171,48.6260585],[2.3403509,48.6272036],[2.3400775,48.6272324],[2.3400439,48.6272917],[2.3401461,48.6274037],[2.3401187,48.6275229],[2.3400486,48.6274047],[2.3398998,48.6272707],[2.3378837,48.6276484]]]]},"properties":{"code_section":"91549000AV","code_commune":"91549","section_courte":"AV"}},{"type":"Feature","geometry":{"type":"MultiPolygon","coordinates":[[[[2.3401896,48.6272065],[2.3415322,48.6272582],[2.3426162,48.6272532],[2.3427809,48.6272779],[2.3431399,48.6274564],[2.3433978,48.6278728],[2.3437715,48.6276547],[2.3441594,48.6273341],[2.3463243,48.6288659],[2.3457164,48.6290864],[2.3446618,48.6293228],[2.3439018,48.6296568],[2.3439302,48.6298017],[2.3438258,48.6300725],[2.3436263,48.6304695],[2.3433983,48.6307846],[2.3429709,48.631717],[2.34299,48.6320572],[2.3412026,48.6313014],[2.3408497,48.6310675],[2.3407056,48.6309051],[2.3406409,48.6307618],[2.3404376,48.6296897],[2.3381183,48.6311516],[2.337406,48.6300539],[2.3368809,48.6302508],[2.3359754,48.6292402],[2.3359067,48.6281844],[2.3357964,48.6282041],[2.3358705,48.6280257],[2.3398998,48.6272707],[2.3400486,48.6274047],[2.3401187,48.6275229],[2.3401461,48.6274037],[2.3400439,48.6272917],[2.3400775,48.6272324],[2.3401896,48.6272065]]]]},"properties":{"code_section":"91549000AW","code_commune":"91549","section_courte":"AW"}},{"type":"Feature","geometry":{"type":"MultiPolygon","coordinates":[[[[2.3381183,48.6311516],[2.3359273,48.6325536],[2.334305,48.634253],[2.3337616,48.6332667],[2.3315705,48.63369],[2.3303288,48.6342029],[2.3298263,48.632417],[2.328807,48.6311172],[2.3332806,48.6297229],[2.3334039,48.6293686],[2.3337235,48.6288933],[2.333776,48.6285901],[2.3359067,48.6281844],[2.3359754,48.6292402],[2.336881,48.6302509],[2.337406,48.6300539],[2.3381183,48.6311516]]]]},"properties":{"code_section":"91549000AX","code_commune":"91549","section_courte":"AX"}},{"type":"Feature","geometry":{"type":"MultiPolygon","coordinates":[[[[2.3329484,48.6372756],[2.3329651,48.6371605],[2.3303554,48.6342933],[2.3303288,48.6342029],[2.3315705,48.63369],[2.3337616,48.6332667],[2.334305,48.634253],[2.3359273,48.6325536],[2.3360802,48.6324364],[2.3404376,48.6296897],[2.3406409,48.6307618],[2.3407056,48.6309051],[2.3408497,48.6310675],[2.3412026,48.6313014],[2.34299,48.6320572],[2.3434365,48.6326273],[2.3437882,48.6345381],[2.3431232,48.6344608],[2.3426291,48.6344482],[2.3414604,48.6345742],[2.3405766,48.6348136],[2.339807,48.6351287],[2.3392844,48.6354406],[2.3380777,48.6364107],[2.3378782,48.6365179],[2.3329484,48.6372756]]]]},"properties":{"code_section":"91549000AY","code_commune":"91549","section_courte":"AY"}},{"type":"Feature","geometry":{"type":"MultiPolygon","coordinates":[[[[2.3303554,48.6342933],[2.3329651,48.6371605],[2.3326074,48.6389743],[2.3308132,48.6394904],[2.3307754,48.6391187],[2.3257111,48.6405453],[2.3242792,48.6382689],[2.3231715,48.6384088],[2.3229095,48.6363989],[2.3239008,48.6362936],[2.3261854,48.6358553],[2.3257095,48.6355878],[2.3250979,48.6350664],[2.3261754,48.6349157],[2.326826,48.6347631],[2.3281274,48.6345883],[2.3291977,48.6343964],[2.3296793,48.6343783],[2.3303554,48.6342933]]]]},"properties":{"code_section":"91549000AZ","code_commune":"91549","section_courte":"AZ"}},{"type":"Feature","geometry":{"type":"MultiPolygon","coordinates":[[[[2.3307754,48.6391187],[2.3308132,48.6394904],[2.3326074,48.6389743],[2.332775,48.6394003],[2.3351602,48.640131],[2.3364698,48.6407119],[2.3348196,48.6450594],[2.3258943,48.6408431],[2.3257111,48.6405453],[2.3307754,48.6391187]]]]},"properties":{"code_section":"91549000BA","code_commune":"91549","section_courte":"BA"}},{"type":"Feature","geometry":{"type":"MultiPolygon","coordinates":[[[[2.3279328,48.64664],[2.3225843,48.6417746],[2.3258943,48.6408431],[2.3348196,48.6450594],[2.3296,48.6465898],[2.3276389,48.6471329],[2.3279328,48.64664]]]]},"properties":{"code_section":"91549000BB","code_commune":"91549","section_courte":"BB"}},{"type":"Feature","geometry":{"type":"MultiPolygon","coordinates":[[[[2.3150428,48.6419098],[2.3145724,48.6400609],[2.3143419,48.6394864],[2.3143121,48.6390787],[2.314214,48.6386898],[2.3140936,48.638435],[2.314089,48.6382965],[2.3183819,48.6386508],[2.3200454,48.6387557],[2.3204083,48.6387411],[2.3242792,48.6382689],[2.3258943,48.6408431],[2.3185209,48.6429179],[2.3183536,48.642655],[2.3150428,48.6419098]]]]},"properties":{"code_section":"91549000BC","code_commune":"91549","section_courte":"BC"}},{"type":"Feature","geometry":{"type":"MultiPolygon","coordinates":[[[[2.3207687,48.6451871],[2.3194981,48.6443894],[2.3167221,48.6433957],[2.3185217,48.6429192],[2.3225843,48.6417746],[2.3279328,48.64664],[2.3276389,48.6471329],[2.3227356,48.6484904],[2.3235486,48.6461827],[2.3217834,48.6458046],[2.3207687,48.6451871]]]]},"properties":{"code_section":"91549000BD","code_commune":"91549","section_courte":"BD"}},{"type":"Feature","geometry":{"type":"MultiPolygon","coordinates":[[[[2.3143152,48.6478794],[2.3141658,48.6450528],[2.3141661,48.6441076],[2.3167221,48.6433957],[2.3194981,48.6443894],[2.3217834,48.6458046],[2.3235486,48.6461827],[2.3227356,48.6484904],[2.3195411,48.6493504],[2.3171394,48.6482413],[2.3173902,48.6466011],[2.3143152,48.6478794]]]]},"properties":{"code_section":"91549000BE","code_commune":"91549","section_courte":"BE"}},{"type":"Feature","geometry":{"type":"MultiPolygon","coordinates":[[[[2.3090326,48.6508227],[2.3084846,48.6503713],[2.3089981,48.6501198],[2.3173902,48.6466011],[2.3171394,48.6482413],[2.3195411,48.6493504],[2.3149854,48.6528302],[2.3141776,48.6533893],[2.3141481,48.653452],[2.3137795,48.6536532],[2.3136986,48.6537336],[2.3128449,48.6532507],[2.3128121,48.6531217],[2.3122786,48.6527606],[2.3115365,48.6524113],[2.3105084,48.6518579],[2.3097066,48.6513293],[2.3090326,48.6508227]]]]},"properties":{"code_section":"91549000BH","code_commune":"91549","section_courte":"BH"}},{"type":"Feature","geometry":{"type":"MultiPolygon","coordinates":[[[[2.306982,48.6487874],[2.3067449,48.6484928],[2.3073845,48.6482702],[2.3072544,48.6455957],[2.3085077,48.6456459],[2.3087633,48.6456186],[2.3141661,48.6441076],[2.3141658,48.6450528],[2.3143152,48.6478794],[2.3089981,48.6501198],[2.3084921,48.6503676],[2.3077205,48.6496426],[2.306982,48.6487874]]]]},"properties":{"code_section":"91549000BI","code_commune":"91549","section_courte":"BI"}},{"type":"Feature","geometry":{"type":"MultiPolygon","coordinates":[[[[2.3072544,48.6455957],[2.3073845,48.6482702],[2.3062919,48.6486858],[2.3059672,48.6490225],[2.3052533,48.6495243],[2.3038305,48.6485592],[2.3014621,48.6498938],[2.3013136,48.6497321],[2.2982093,48.6494675],[2.2981998,48.6494017],[2.2983439,48.6491718],[2.2983596,48.6490512],[2.2982214,48.6487189],[2.2978017,48.6482222],[2.2978826,48.6480573],[2.2980906,48.6477953],[2.2981576,48.6475791],[2.2981593,48.6473988],[2.2979777,48.6472255],[2.2974655,48.6469103],[2.2972107,48.6467065],[2.2970825,48.6465443],[2.2972559,48.6463663],[2.2982209,48.6459826],[2.2982766,48.6459016],[2.2982788,48.6458244],[2.2981401,48.6456283],[2.2978139,48.645266],[2.2978053,48.6443803],[2.3012892,48.6446206],[2.3016502,48.6447244],[2.3021473,48.6449265],[2.3027839,48.6450536],[2.3047085,48.6452519],[2.3055598,48.6455046],[2.3059546,48.6455556],[2.3072544,48.6455957]]]]},"properties":{"code_section":"91549000BK","code_commune":"91549","section_courte":"BK"}},{"type":"Feature","geometry":{"type":"MultiPolygon","coordinates":[[[[2.3060616,48.6535213],[2.3060019,48.6535507],[2.3058343,48.6533851],[2.3056255,48.6535366],[2.3055646,48.653549],[2.3050007,48.6534333],[2.3048853,48.6532199],[2.3044454,48.6530236],[2.3033874,48.6537315],[2.3020798,48.6528671],[2.3014482,48.6525132],[2.3010822,48.6522615],[2.3002611,48.6513978],[2.2988505,48.650034],[2.2982839,48.6496187],[2.2982093,48.6494675],[2.3013136,48.6497321],[2.3014621,48.6498938],[2.3038305,48.6485592],[2.3052533,48.6495243],[2.3059672,48.6490225],[2.3062919,48.6486858],[2.3067449,48.6484928],[2.3077205,48.6496426],[2.3085158,48.6504142],[2.3095544,48.6512208],[2.3087448,48.6517069],[2.3086099,48.6516299],[2.3076144,48.6521961],[2.3075677,48.6527355],[2.3060412,48.6534964],[2.3060616,48.6535213]]]]},"properties":{"code_section":"91549000BL","code_commune":"91549","section_courte":"BL"}},{"type":"Feature","geometry":{"type":"MultiPolygon","coordinates":[[[[2.3128449,48.6532507],[2.3136986,48.6537336],[2.3131939,48.6541687],[2.3133586,48.6542644],[2.3093245,48.657129],[2.3087768,48.656725],[2.3081287,48.656337],[2.3077101,48.6560097],[2.3072259,48.6558065],[2.3070455,48.6556964],[2.306706,48.6553789],[2.3058944,48.6549826],[2.305571,48.6546505],[2.3046285,48.6544604],[2.3041235,48.654214],[2.303382,48.653735],[2.3044454,48.6530236],[2.3048853,48.6532199],[2.3050007,48.6534333],[2.3055646,48.653549],[2.3056255,48.6535366],[2.3058343,48.6533851],[2.3060019,48.6535507],[2.3060616,48.6535213],[2.3060412,48.6534964],[2.3075677,48.6527355],[2.3076144,48.6521961],[2.3086099,48.6516299],[2.3087448,48.6517069],[2.3095544,48.6512208],[2.3106806,48.6519623],[2.3122786,48.6527606],[2.3128121,48.6531217],[2.3128449,48.6532507]]]]},"properties":{"code_section":"91549000BM","code_commune":"91549","section_courte":"BM"}}]}