{"type":"FeatureCollection","features":[{"type":"Feature","geometry":{"type":"MultiPolygon","coordinates":[[[[2.4765701,48.6211334],[2.4766838,48.6211796],[2.4767477,48.6211045],[2.4768423,48.6213325],[2.4789146,48.6221439],[2.4790243,48.6217747],[2.4792969,48.6211583],[2.4797694,48.6204079],[2.4806737,48.6207152],[2.480882,48.6207071],[2.4812818,48.6205107],[2.4816848,48.620559],[2.4821521,48.6206888],[2.4823218,48.6208696],[2.4828658,48.6211645],[2.4832779,48.6221656],[2.4832857,48.6225856],[2.4834113,48.6227727],[2.4836988,48.6229321],[2.4837918,48.6229295],[2.4842229,48.6232055],[2.4843663,48.6233419],[2.4845329,48.6234261],[2.4845212,48.6235296],[2.4847131,48.62369],[2.4848614,48.6237515],[2.4850457,48.6236405],[2.4853371,48.6237686],[2.4855042,48.6238983],[2.4858124,48.6239376],[2.4856009,48.624151],[2.4856406,48.6242132],[2.4872572,48.6249192],[2.4875721,48.624898],[2.4878154,48.6247869],[2.4887729,48.6250521],[2.4891158,48.6252035],[2.4886022,48.6258879],[2.4870192,48.6274141],[2.486999,48.6274385],[2.4870803,48.6274178],[2.4862324,48.628436],[2.4853308,48.629061],[2.4851606,48.6292201],[2.4834908,48.6313355],[2.4833807,48.6312757],[2.4842389,48.6301585],[2.4817615,48.6290655],[2.4813562,48.6295096],[2.4798759,48.6289026],[2.4797697,48.6290662],[2.4786805,48.6285849],[2.4777681,48.6279702],[2.4775654,48.6280958],[2.4768111,48.6276299],[2.4764158,48.627446],[2.4763622,48.6274862],[2.4754328,48.6270969],[2.4754865,48.6270057],[2.4738842,48.6264994],[2.4738371,48.6264751],[2.47397,48.6263613],[2.4738374,48.6263017],[2.473645,48.6262781],[2.4731288,48.6261316],[2.471065,48.6249194],[2.4725395,48.6238409],[2.473149,48.6233532],[2.4741819,48.6224067],[2.4756653,48.6207825],[2.4765701,48.6211334]]]]},"properties":{"code_section":"915530000A","code_commune":"91553","section_courte":"A"}},{"type":"Feature","geometry":{"type":"MultiPolygon","coordinates":[[[[2.5081845,48.6228487],[2.5089228,48.6236532],[2.5096186,48.6247127],[2.5091632,48.6248892],[2.5085718,48.6254449],[2.5076349,48.6265988],[2.5072071,48.6273537],[2.5069857,48.6281132],[2.5063803,48.6291061],[2.5046381,48.629902],[2.5042178,48.630058],[2.5038496,48.630138],[2.5028153,48.6302547],[2.5020735,48.6302946],[2.5003473,48.6302098],[2.4996436,48.6300858],[2.4992786,48.6299415],[2.4980215,48.6293253],[2.4980089,48.6292693],[2.4980601,48.6292572],[2.4981989,48.6289828],[2.4982083,48.6288312],[2.4980093,48.6285829],[2.4981303,48.6285302],[2.501596,48.629169],[2.5056101,48.6253217],[2.50815,48.6228282],[2.5081845,48.6228487]]],[[[2.4798592,48.6203452],[2.4800162,48.6200688],[2.4805573,48.6195847],[2.4814924,48.6189273],[2.4826352,48.6177408],[2.4829618,48.6178361],[2.4831882,48.618174],[2.4837018,48.618665],[2.4840199,48.61885],[2.4843267,48.6189844],[2.484719,48.6191073],[2.4855723,48.6193054],[2.4858252,48.6194476],[2.4857789,48.619487],[2.4856611,48.6198122],[2.4853628,48.6211246],[2.4866224,48.6212683],[2.4865537,48.6214704],[2.4866886,48.6214917],[2.4867543,48.6217566],[2.486826,48.6218578],[2.4871302,48.6220213],[2.4870107,48.6221691],[2.4871274,48.6222162],[2.4870425,48.6224303],[2.4870281,48.6224502],[2.4869454,48.6224399],[2.4869144,48.6224862],[2.4869758,48.6225267],[2.4869181,48.6226113],[2.4869904,48.6226361],[2.4869717,48.6226657],[2.4889151,48.623492],[2.4888065,48.6236705],[2.489012,48.6237561],[2.4888893,48.6239644],[2.4892453,48.6242694],[2.4893859,48.6244538],[2.4894273,48.6245788],[2.4893616,48.6248217],[2.4890634,48.625177],[2.4887729,48.6250521],[2.4878154,48.6247869],[2.4875721,48.624898],[2.4872572,48.6249192],[2.4856406,48.6242132],[2.4856009,48.624151],[2.4858124,48.6239376],[2.4855042,48.6238983],[2.4853371,48.6237686],[2.4850457,48.6236405],[2.4848614,48.6237515],[2.4847131,48.62369],[2.4845212,48.6235296],[2.4845329,48.6234261],[2.4843663,48.6233419],[2.4842229,48.6232055],[2.4837918,48.6229295],[2.4836988,48.6229321],[2.4834113,48.6227727],[2.4832857,48.6225856],[2.4832779,48.6221656],[2.4828658,48.6211645],[2.4823218,48.6208696],[2.4821521,48.6206888],[2.4816848,48.620559],[2.4812818,48.6205107],[2.480882,48.6207071],[2.4806737,48.6207152],[2.4797946,48.6204048],[2.4798592,48.6203452]]]]},"properties":{"code_section":"915530000B","code_commune":"91553","section_courte":"B"}},{"type":"Feature","geometry":{"type":"MultiPolygon","coordinates":[[[[2.4864418,48.6157585],[2.4873845,48.6156591],[2.4893459,48.6160117],[2.4906681,48.6160775],[2.4894162,48.6182928],[2.4893489,48.6185455],[2.4893237,48.6188998],[2.4893893,48.6192098],[2.4894902,48.619444],[2.4902628,48.6205625],[2.4904135,48.6209688],[2.4902346,48.6218934],[2.4902675,48.6223069],[2.490969,48.6234592],[2.490332,48.6232026],[2.490104,48.6234314],[2.4896011,48.6231214],[2.4892821,48.6233457],[2.4892239,48.623354],[2.4892278,48.6234059],[2.489012,48.6237561],[2.4888065,48.6236705],[2.4889151,48.623492],[2.4869717,48.6226657],[2.4869904,48.6226361],[2.4869181,48.6226113],[2.4869758,48.6225267],[2.4869144,48.6224862],[2.4869454,48.6224399],[2.4870281,48.6224502],[2.4870425,48.6224303],[2.4871274,48.6222162],[2.4870107,48.6221691],[2.4871302,48.6220213],[2.486826,48.6218578],[2.4867543,48.6217566],[2.4866886,48.6214917],[2.4865537,48.6214704],[2.4866224,48.6212683],[2.4853628,48.6211246],[2.4856611,48.6198122],[2.4857789,48.619487],[2.4858252,48.6194476],[2.4855723,48.6193054],[2.484719,48.6191073],[2.4843267,48.6189844],[2.4840199,48.61885],[2.4837018,48.618665],[2.4831882,48.618174],[2.4829618,48.6178361],[2.4829586,48.6177723],[2.4832642,48.6178478],[2.4834007,48.6177371],[2.4834423,48.6175897],[2.4832872,48.6175715],[2.4833361,48.61738],[2.4835935,48.6170604],[2.4837131,48.6170963],[2.4838883,48.6169033],[2.4843067,48.6170497],[2.4845626,48.6167437],[2.4844358,48.6166931],[2.4846547,48.6163708],[2.4848881,48.616184],[2.4845264,48.6159863],[2.4849391,48.6156116],[2.484912,48.6155959],[2.4850288,48.615482],[2.4851499,48.6155282],[2.4852309,48.6154301],[2.4852653,48.6154415],[2.4852348,48.6154801],[2.4854874,48.6155609],[2.4856728,48.6154432],[2.4858367,48.6152619],[2.4862097,48.6152999],[2.4861547,48.6155202],[2.4862003,48.6156559],[2.4862839,48.6157683],[2.4864418,48.6157585]]]]},"properties":{"code_section":"91553000AA","code_commune":"91553","section_courte":"AA"}},{"type":"Feature","geometry":{"type":"MultiPolygon","coordinates":[[[[2.490969,48.6234592],[2.4902675,48.6223069],[2.4911982,48.6223965],[2.4915004,48.6223687],[2.4918659,48.6222678],[2.4921276,48.6221311],[2.4923319,48.6219533],[2.4926144,48.6213913],[2.4927677,48.6211971],[2.4929999,48.6210086],[2.4934855,48.620783],[2.4938311,48.6207013],[2.4940949,48.620672],[2.4946418,48.6206965],[2.4951286,48.6208216],[2.4985896,48.6223271],[2.4992871,48.6229122],[2.4993789,48.6231486],[2.4990882,48.6233745],[2.4985868,48.6234812],[2.4982022,48.6238722],[2.4978082,48.6239954],[2.4973136,48.62441],[2.4976143,48.6247073],[2.4975224,48.6249995],[2.4969358,48.6253021],[2.4966706,48.6256082],[2.49646,48.6263073],[2.4963014,48.6266154],[2.4962446,48.6267018],[2.4958987,48.6269567],[2.4957149,48.6268942],[2.4956019,48.6269274],[2.4954564,48.6268495],[2.495263,48.6268303],[2.4953188,48.626669],[2.4948915,48.6267667],[2.494815,48.6266689],[2.4943476,48.6265413],[2.4939215,48.6264967],[2.4934579,48.6263279],[2.4931558,48.6263359],[2.4930484,48.6262836],[2.4928671,48.6262875],[2.4927998,48.6262502],[2.492526,48.6262151],[2.4922721,48.6262092],[2.4918898,48.6262496],[2.4915335,48.6262119],[2.4916623,48.6253238],[2.4916869,48.6247888],[2.4916281,48.6245127],[2.4914502,48.6241819],[2.490969,48.6234592]]]]},"properties":{"code_section":"91553000AB","code_commune":"91553","section_courte":"AB"}},{"type":"Feature","geometry":{"type":"MultiPolygon","coordinates":[[[[2.5014601,48.6291444],[2.4981303,48.6285302],[2.4980093,48.6285829],[2.4982083,48.6288312],[2.4981989,48.6289828],[2.4980601,48.6292572],[2.4980089,48.6292693],[2.4976135,48.6289384],[2.4970485,48.627946],[2.4961677,48.6271334],[2.4958987,48.6269567],[2.4962446,48.6267018],[2.4963014,48.6266154],[2.49646,48.6263073],[2.4966706,48.6256082],[2.4969358,48.6253021],[2.4975224,48.6249995],[2.4976143,48.6247073],[2.4973136,48.62441],[2.4978082,48.6239954],[2.4982022,48.6238722],[2.4985868,48.6234812],[2.4990882,48.6233745],[2.4993789,48.6231486],[2.4992871,48.6229122],[2.4985896,48.6223271],[2.5005728,48.623188],[2.5009419,48.6228097],[2.5017617,48.6231674],[2.5013359,48.6235962],[2.5055149,48.6254118],[2.501596,48.629169],[2.5014601,48.6291444]]]]},"properties":{"code_section":"91553000AC","code_commune":"91553","section_courte":"AC"}},{"type":"Feature","geometry":{"type":"MultiPolygon","coordinates":[[[[2.5001412,48.6230006],[2.4952082,48.620854],[2.4948203,48.6207294],[2.4942333,48.6206676],[2.4938311,48.6207013],[2.4935294,48.6207696],[2.4929999,48.6210086],[2.4927677,48.6211971],[2.4926144,48.6213913],[2.4930323,48.6204828],[2.492445,48.6197051],[2.4922512,48.6197697],[2.4920933,48.619559],[2.4986097,48.6174038],[2.4995723,48.6177179],[2.5021324,48.6187104],[2.5032397,48.6192158],[2.5038587,48.6195765],[2.5044425,48.6199575],[2.5057271,48.6209086],[2.5042643,48.621457],[2.5030002,48.6227359],[2.5017617,48.6231674],[2.5009419,48.6228097],[2.5005728,48.623188],[2.5001412,48.6230006]]]]},"properties":{"code_section":"91553000AD","code_commune":"91553","section_courte":"AD"}},{"type":"Feature","geometry":{"type":"MultiPolygon","coordinates":[[[[2.5013929,48.6235381],[2.5017617,48.6231674],[2.5030002,48.6227359],[2.5042643,48.621457],[2.5057271,48.6209086],[2.5073018,48.6220889],[2.50815,48.6228282],[2.5055149,48.6254118],[2.5013359,48.6235962],[2.5013929,48.6235381]]]]},"properties":{"code_section":"91553000AE","code_commune":"91553","section_courte":"AE"}},{"type":"Feature","geometry":{"type":"MultiPolygon","coordinates":[[[[2.4984477,48.6174054],[2.498534,48.6174239],[2.4920933,48.619559],[2.4922512,48.6197697],[2.492445,48.6197051],[2.4930323,48.6204828],[2.4923955,48.6218708],[2.4922412,48.6220432],[2.492073,48.6221657],[2.491814,48.6222874],[2.4915628,48.6223566],[2.4910855,48.6223952],[2.4902675,48.6223069],[2.4902346,48.6218934],[2.4904135,48.6209688],[2.4902628,48.6205625],[2.4894902,48.619444],[2.4893893,48.6192098],[2.4893237,48.6188998],[2.4893489,48.6185455],[2.4894162,48.6182928],[2.4906681,48.6160775],[2.4921534,48.6162295],[2.4951018,48.6166783],[2.4984477,48.6174054]]]]},"properties":{"code_section":"91553000AH","code_commune":"91553","section_courte":"AH"}},{"type":"Feature","geometry":{"type":"MultiPolygon","coordinates":[[[[2.4892821,48.6233457],[2.4896011,48.6231214],[2.490104,48.6234314],[2.490332,48.6232026],[2.490969,48.6234592],[2.4914502,48.6241819],[2.4916281,48.6245127],[2.4916869,48.6247888],[2.4916623,48.6253238],[2.4915335,48.6262119],[2.4918898,48.6262496],[2.4922721,48.6262092],[2.492526,48.6262151],[2.4927998,48.6262502],[2.4928671,48.6262875],[2.4930484,48.6262836],[2.4931558,48.6263359],[2.4934579,48.6263279],[2.4939215,48.6264967],[2.4943476,48.6265413],[2.494815,48.6266689],[2.4948915,48.6267667],[2.4953188,48.626669],[2.495263,48.6268303],[2.4954564,48.6268495],[2.4956019,48.6269274],[2.4957149,48.6268942],[2.4959498,48.6269759],[2.4961677,48.6271334],[2.4970485,48.627946],[2.4976135,48.6289384],[2.4980089,48.6292693],[2.4969276,48.6308307],[2.496753,48.6307588],[2.4963446,48.6307225],[2.4951535,48.6300866],[2.4930288,48.6292481],[2.4918235,48.6288761],[2.491331,48.6286458],[2.4912355,48.6284347],[2.491183,48.6281628],[2.491259,48.6276693],[2.4888388,48.6269572],[2.4888483,48.6269195],[2.4873056,48.6273186],[2.486999,48.6274385],[2.4886022,48.6258879],[2.4891158,48.6252035],[2.4890634,48.625177],[2.4893616,48.6248217],[2.4894276,48.6246203],[2.4893859,48.6244538],[2.4892107,48.624233],[2.4888893,48.6239644],[2.4892278,48.6234059],[2.4892239,48.623354],[2.4892821,48.6233457]]]]},"properties":{"code_section":"91553000AI","code_commune":"91553","section_courte":"AI"}},{"type":"Feature","geometry":{"type":"MultiPolygon","coordinates":[[[[2.4890216,48.6270122],[2.491259,48.6276693],[2.491183,48.6281628],[2.4912355,48.6284347],[2.491331,48.6286458],[2.4915442,48.628753],[2.4918235,48.6288761],[2.4930288,48.6292481],[2.4951535,48.6300866],[2.4963446,48.6307225],[2.496753,48.6307588],[2.4969276,48.6308307],[2.4966805,48.6314335],[2.4961929,48.6320437],[2.4935353,48.6319194],[2.4931187,48.6316361],[2.4903156,48.6313419],[2.4878399,48.6309427],[2.4858629,48.6304122],[2.4845728,48.6299526],[2.4852703,48.6291122],[2.4862324,48.628436],[2.4870803,48.6274178],[2.4873056,48.6273186],[2.4888483,48.6269195],[2.4888388,48.6269572],[2.4890216,48.6270122]]]]},"properties":{"code_section":"91553000AK","code_commune":"91553","section_courte":"AK"}},{"type":"Feature","geometry":{"type":"MultiPolygon","coordinates":[[[[2.4931187,48.6316361],[2.4935353,48.6319194],[2.4961716,48.6320291],[2.4928353,48.6369787],[2.4927833,48.6371267],[2.4917151,48.6366974],[2.490998,48.6365022],[2.4895832,48.6362375],[2.4876961,48.6359851],[2.4877088,48.6352486],[2.48526,48.632701],[2.485461,48.6322356],[2.4853534,48.6322757],[2.4834908,48.6313355],[2.4845728,48.6299526],[2.4858629,48.6304122],[2.4878399,48.6309427],[2.4903156,48.6313419],[2.4931187,48.6316361]]]]},"properties":{"code_section":"91553000AL","code_commune":"91553","section_courte":"AL"}},{"type":"Feature","geometry":{"type":"MultiPolygon","coordinates":[[[[2.4926849,48.6371832],[2.49202,48.6383709],[2.4915079,48.6398202],[2.4907752,48.6388761],[2.4901117,48.6381945],[2.4898344,48.6377893],[2.4894491,48.6369516],[2.4890685,48.6363786],[2.4888473,48.6361315],[2.4895832,48.6362375],[2.490998,48.6365022],[2.4917151,48.6366974],[2.4927833,48.6371267],[2.4926849,48.6371832]]]]},"properties":{"code_section":"91553000AM","code_commune":"91553","section_courte":"AM"}},{"type":"Feature","geometry":{"type":"MultiPolygon","coordinates":[[[[2.5057271,48.6209086],[2.5044425,48.6199575],[2.5032397,48.6192158],[2.5021324,48.6187104],[2.5006253,48.6181128],[2.4995723,48.6177179],[2.4986097,48.6174038],[2.498534,48.6174239],[2.4984477,48.6174054],[2.5020799,48.6161928],[2.5026158,48.6161024],[2.5036683,48.6170607],[2.5051035,48.6181103],[2.5076313,48.6196001],[2.51289,48.6226129],[2.5129696,48.6226341],[2.5130189,48.6227175],[2.5102278,48.6230946],[2.5097982,48.623101],[2.5081845,48.6228487],[2.5073018,48.6220889],[2.5057271,48.6209086]]]]},"properties":{"code_section":"91553000AN","code_commune":"91553","section_courte":"AN"}},{"type":"Feature","geometry":{"type":"MultiPolygon","coordinates":[[[[2.5042178,48.630058],[2.5046381,48.629902],[2.5054182,48.6313837],[2.5028576,48.6315696],[2.498585,48.6317867],[2.4966805,48.6314335],[2.4969276,48.6308307],[2.4980089,48.6292693],[2.4980215,48.6293253],[2.4992786,48.6299415],[2.4996436,48.6300858],[2.5002575,48.6301986],[2.5020735,48.6302946],[2.5028153,48.6302547],[2.5038496,48.630138],[2.5042178,48.630058]]]]},"properties":{"code_section":"91553000ZA","code_commune":"91553","section_courte":"ZA"}}]}