{"type":"FeatureCollection","features":[{"type":"Feature","geometry":{"type":"MultiPolygon","coordinates":[[[[2.3063132,48.6404647],[2.3072973,48.6405371],[2.3072713,48.6456022],[2.3059546,48.6455556],[2.3055598,48.6455046],[2.3047664,48.64527],[2.3028597,48.6450593],[2.3025737,48.6450054],[2.302089,48.644905],[2.3015099,48.6446607],[2.3012017,48.6446026],[2.2978234,48.6443776],[2.2978216,48.6440374],[2.2976365,48.642883],[2.2978501,48.6423099],[2.2978585,48.6419759],[2.2979146,48.6417174],[2.2981803,48.6411748],[2.2983432,48.6404958],[2.2986503,48.6404908],[2.2988456,48.6404553],[2.3008968,48.6398541],[2.3019232,48.639638],[2.3029934,48.6394853],[2.3034929,48.6407156],[2.3058379,48.6404533],[2.3063132,48.6404647]]]]},"properties":{"code_section":"91570000AA","code_commune":"91570","section_courte":"AA"}},{"type":"Feature","geometry":{"type":"MultiPolygon","coordinates":[[[[2.3147246,48.6406099],[2.3150438,48.6419068],[2.3183457,48.642654],[2.3185429,48.6429209],[2.3163032,48.6435055],[2.3088035,48.6456],[2.3085826,48.6456427],[2.3072713,48.6456022],[2.3072946,48.6415587],[2.3084845,48.6414304],[2.308509,48.6413759],[2.3112909,48.6409877],[2.3115196,48.6413091],[2.3134824,48.6409365],[2.3147246,48.6406099]]]]},"properties":{"code_section":"91570000AB","code_commune":"91570","section_courte":"AB"}},{"type":"Feature","geometry":{"type":"MultiPolygon","coordinates":[[[[2.3084845,48.6414304],[2.3072946,48.6415587],[2.3073144,48.638064],[2.3074006,48.6378944],[2.3082466,48.6369114],[2.3102378,48.6377713],[2.3108631,48.6380058],[2.3112298,48.6380908],[2.3141153,48.6383088],[2.3141056,48.6384592],[2.3142049,48.6386467],[2.3143076,48.6390242],[2.3143571,48.6395047],[2.314559,48.6400209],[2.3147246,48.6406099],[2.3134824,48.6409365],[2.3115196,48.6413091],[2.3112909,48.6409877],[2.308509,48.6413759],[2.3084845,48.6414304]]]]},"properties":{"code_section":"91570000AC","code_commune":"91570","section_courte":"AC"}},{"type":"Feature","geometry":{"type":"MultiPolygon","coordinates":[[[[2.3002131,48.6371526],[2.299577,48.634846],[2.2992174,48.6343998],[2.2992059,48.6342525],[2.3022543,48.6343571],[2.3064388,48.6361285],[2.3065351,48.6362462],[2.30682,48.6363687],[2.3068292,48.6363164],[2.3082466,48.6369114],[2.3074006,48.6378944],[2.3073144,48.638064],[2.3072973,48.6405371],[2.3058379,48.6404533],[2.3034929,48.6407156],[2.3029934,48.6394853],[2.3019232,48.639638],[2.3008968,48.6398541],[2.3005882,48.638484],[2.3002131,48.6371526]]]]},"properties":{"code_section":"91570000AD","code_commune":"91570","section_courte":"AD"}},{"type":"Feature","geometry":{"type":"MultiPolygon","coordinates":[[[[2.2983432,48.6404958],[2.2986209,48.6398633],[2.2986198,48.6396296],[2.2980293,48.6391355],[2.2979963,48.638818],[2.2978998,48.6386677],[2.2971102,48.6384806],[2.2970983,48.6384481],[2.2971729,48.6383777],[2.2975514,48.6382076],[2.2974098,48.6378296],[2.2972752,48.6377331],[2.2971346,48.6376886],[2.2965625,48.6376847],[2.2964544,48.6376598],[2.2963808,48.6376031],[2.2963665,48.6374362],[2.2966007,48.6361559],[2.2960317,48.6357458],[2.2958671,48.6356995],[2.2956588,48.6356975],[2.2948866,48.6357887],[2.2947343,48.6357494],[2.2942205,48.6349961],[2.2942196,48.6348479],[2.2940445,48.6342951],[2.2940288,48.6340792],[2.2992059,48.6342525],[2.2992174,48.6343998],[2.299577,48.634846],[2.3005882,48.638484],[2.3008968,48.6398541],[2.2988456,48.6404553],[2.2986503,48.6404908],[2.2983432,48.6404958]]]]},"properties":{"code_section":"91570000AE","code_commune":"91570","section_courte":"AE"}},{"type":"Feature","geometry":{"type":"MultiPolygon","coordinates":[[[[2.3026796,48.6322486],[2.3023691,48.6323559],[2.3020795,48.632417],[2.3023148,48.633331],[2.3022436,48.6343567],[2.2937941,48.634074],[2.2937587,48.6336157],[2.2936413,48.6331486],[2.2936483,48.6326179],[2.2935613,48.6321914],[2.2933761,48.631665],[2.2934624,48.6312817],[2.2934073,48.6311211],[2.2971466,48.6306072],[2.2971246,48.6303448],[2.2974832,48.6302935],[2.2974812,48.6296646],[2.2980988,48.6296491],[2.2981007,48.629855],[2.2990552,48.6298001],[2.2990831,48.6299065],[2.2991329,48.629896],[2.2993283,48.6304609],[2.3007625,48.6299435],[2.3017667,48.6295264],[2.3023757,48.6298309],[2.3027299,48.6299252],[2.3030395,48.6304578],[2.3030974,48.6308272],[2.30306,48.6312518],[2.3032183,48.6317158],[2.3029748,48.6319937],[2.3026796,48.6322486]]]]},"properties":{"code_section":"91570000AH","code_commune":"91570","section_courte":"AH"}},{"type":"Feature","geometry":{"type":"MultiPolygon","coordinates":[[[[2.299087,48.6299055],[2.2990552,48.6298001],[2.2981007,48.629855],[2.2980988,48.6296491],[2.2974812,48.6296646],[2.2974832,48.6302935],[2.2971246,48.6303448],[2.2971466,48.6306072],[2.2934073,48.6311211],[2.2931063,48.6305369],[2.2931463,48.6299278],[2.2927828,48.6293209],[2.2928749,48.6289302],[2.2927869,48.6285379],[2.2927465,48.6277938],[2.2928686,48.6275831],[2.2929641,48.6269348],[2.2928273,48.6266652],[2.2928293,48.6266241],[2.292967,48.6265025],[2.292892,48.6261729],[2.2971803,48.6262633],[2.3002744,48.626042],[2.3003573,48.6261849],[2.3003811,48.6263312],[2.3002865,48.6269092],[2.3000486,48.6274856],[2.2996193,48.6283284],[2.2993661,48.6290175],[2.2990955,48.6295887],[2.2991329,48.629896],[2.299087,48.6299055]]]]},"properties":{"code_section":"91570000AI","code_commune":"91570","section_courte":"AI"}},{"type":"Feature","geometry":{"type":"MultiPolygon","coordinates":[[[[2.3085558,48.6252045],[2.3085479,48.6252574],[2.3142888,48.6252956],[2.3130102,48.6267202],[2.3126725,48.6273205],[2.3121939,48.627544],[2.311997,48.6280845],[2.311872,48.6286718],[2.310012,48.6289755],[2.3099393,48.6287554],[2.3085542,48.6289722],[2.3084724,48.629155],[2.3084582,48.6293116],[2.3085256,48.6299104],[2.3080187,48.6297327],[2.3080118,48.6297053],[2.3078756,48.6296712],[2.3075117,48.629652],[2.3074997,48.6295504],[2.3082021,48.6243211],[2.3086155,48.6242408],[2.3086813,48.6243149],[2.3085558,48.6252045]]]]},"properties":{"code_section":"91570000AK","code_commune":"91570","section_courte":"AK"}},{"type":"Feature","geometry":{"type":"MultiPolygon","coordinates":[[[[2.3024154,48.6330308],[2.3022227,48.6330429],[2.3020795,48.632417],[2.3023691,48.6323559],[2.3026796,48.6322486],[2.3029748,48.6319937],[2.3032183,48.6317158],[2.30306,48.6312518],[2.3030974,48.6308272],[2.3030395,48.6304578],[2.3027299,48.6299252],[2.3033463,48.6298517],[2.3047676,48.6294457],[2.3055128,48.6293696],[2.3064,48.6295159],[2.3075117,48.629652],[2.3078756,48.6296712],[2.3085256,48.6299104],[2.3084582,48.6293116],[2.3084724,48.629155],[2.3085542,48.6289722],[2.3099393,48.6287554],[2.310012,48.6289755],[2.3119065,48.628668],[2.3117384,48.6291922],[2.3111329,48.6305621],[2.3112006,48.630604],[2.3124802,48.6304724],[2.3131138,48.6304425],[2.3131447,48.6317783],[2.3130527,48.6317796],[2.313046,48.6318725],[2.3129127,48.6318728],[2.3128561,48.6329641],[2.3124361,48.6328358],[2.3121914,48.6327924],[2.3120521,48.6326859],[2.3116999,48.6325552],[2.3113736,48.6325512],[2.3105261,48.6327335],[2.3101728,48.6327539],[2.3097466,48.6329342],[2.3086537,48.6329109],[2.3082172,48.6328474],[2.3080321,48.6328683],[2.3077058,48.6329726],[2.307505,48.6329236],[2.3067264,48.6328952],[2.3066604,48.6331173],[2.3064978,48.6331426],[2.3060349,48.6330098],[2.3057492,48.6328383],[2.3056229,48.6328045],[2.3051239,48.6327272],[2.3045524,48.6326832],[2.3028458,48.6329609],[2.3024994,48.633083],[2.3024154,48.6330308]]]]},"properties":{"code_section":"91570000AL","code_commune":"91570","section_courte":"AL"}},{"type":"Feature","geometry":{"type":"MultiPolygon","coordinates":[[[[2.3128561,48.6329641],[2.3129942,48.6330094],[2.3129057,48.6343643],[2.3129544,48.6343949],[2.3128681,48.6344341],[2.3122524,48.6345383],[2.3119986,48.6346392],[2.3115498,48.6349046],[2.3097846,48.6343196],[2.3096917,48.6348034],[2.3091659,48.6357505],[2.3082466,48.6369114],[2.3068292,48.6363164],[2.30682,48.6363687],[2.3065351,48.6362462],[2.3064388,48.6361285],[2.3022436,48.6343567],[2.3023148,48.633331],[2.3022227,48.6330429],[2.3024154,48.6330308],[2.3024994,48.633083],[2.3028458,48.6329609],[2.3045524,48.6326832],[2.3051239,48.6327272],[2.3056229,48.6328045],[2.3057492,48.6328383],[2.3060349,48.6330098],[2.3064465,48.6331441],[2.3066604,48.6331173],[2.3067264,48.6328952],[2.307505,48.6329236],[2.3077058,48.6329726],[2.3080321,48.6328683],[2.3082172,48.6328474],[2.3086537,48.6329109],[2.3097466,48.6329342],[2.3101728,48.6327539],[2.3105261,48.6327335],[2.3113736,48.6325512],[2.3116999,48.6325552],[2.3120521,48.6326859],[2.3121914,48.6327924],[2.3124361,48.6328358],[2.3128561,48.6329641]]]]},"properties":{"code_section":"91570000AM","code_commune":"91570","section_courte":"AM"}},{"type":"Feature","geometry":{"type":"MultiPolygon","coordinates":[[[[2.3141203,48.6383092],[2.3112298,48.6380908],[2.3108631,48.6380058],[2.3102378,48.6377713],[2.3082466,48.6369114],[2.3091659,48.6357505],[2.3096917,48.6348034],[2.3097846,48.6343196],[2.3115498,48.6349046],[2.3119986,48.6346392],[2.3122524,48.6345383],[2.3125916,48.6344627],[2.3139447,48.6344058],[2.3158739,48.634207],[2.3162692,48.6341901],[2.3169352,48.6342209],[2.3175057,48.6343375],[2.3180369,48.6345204],[2.3184696,48.6347098],[2.3189893,48.6350378],[2.3195097,48.6355465],[2.318703,48.635842],[2.3172584,48.6364577],[2.3159619,48.6371839],[2.3149603,48.6378424],[2.3143881,48.6383317],[2.3141203,48.6383092]]]]},"properties":{"code_section":"91570000AN","code_commune":"91570","section_courte":"AN"}},{"type":"Feature","geometry":{"type":"MultiPolygon","coordinates":[[[[2.3226077,48.6384727],[2.3201011,48.6387619],[2.3143881,48.6383317],[2.3149603,48.6378424],[2.3159619,48.6371839],[2.3172584,48.6364577],[2.318703,48.635842],[2.3195097,48.6355465],[2.3214117,48.6347677],[2.3224008,48.6342842],[2.3234047,48.6337281],[2.3255652,48.635506],[2.3261076,48.6358685],[2.3239008,48.6362936],[2.3229095,48.6363989],[2.3231715,48.6384088],[2.3226077,48.6384727]]]]},"properties":{"code_section":"91570000AO","code_commune":"91570","section_courte":"AO"}},{"type":"Feature","geometry":{"type":"MultiPolygon","coordinates":[[[[2.3283436,48.634534],[2.3271471,48.6347063],[2.3262544,48.6348986],[2.3251837,48.6350531],[2.3251037,48.6351038],[2.3234047,48.6337281],[2.3240445,48.6333116],[2.3224771,48.6322873],[2.3218554,48.6313909],[2.3215606,48.6304613],[2.3240201,48.6300273],[2.3244558,48.6303916],[2.3253684,48.6299843],[2.3253886,48.6299129],[2.3252949,48.6296832],[2.3272434,48.6293704],[2.3274024,48.6300382],[2.3275112,48.6302984],[2.3276979,48.6305726],[2.3278739,48.6307144],[2.3286143,48.6309827],[2.3288471,48.6311427],[2.3298281,48.6324108],[2.3303475,48.6342788],[2.3283436,48.634534]]]]},"properties":{"code_section":"91570000AP","code_commune":"91570","section_courte":"AP"}},{"type":"Feature","geometry":{"type":"MultiPolygon","coordinates":[[[[2.3131155,48.6304869],[2.3131218,48.6304421],[2.3142546,48.6304539],[2.3162499,48.6307734],[2.3163012,48.630723],[2.3168734,48.6308329],[2.3171724,48.6308586],[2.3181983,48.6307775],[2.3181882,48.6308762],[2.3199674,48.6307217],[2.3203759,48.6306263],[2.3215606,48.6304613],[2.3218554,48.6313909],[2.3224771,48.6322873],[2.3240445,48.6333116],[2.323393,48.6337357],[2.3224008,48.6342842],[2.3214117,48.6347677],[2.3195097,48.6355465],[2.3189893,48.6350378],[2.3184696,48.6347098],[2.3180369,48.6345204],[2.3175057,48.6343375],[2.3169352,48.6342209],[2.3162692,48.6341901],[2.3158739,48.634207],[2.3139447,48.6344058],[2.3128681,48.6344341],[2.3129544,48.6343949],[2.3129057,48.6343643],[2.3129942,48.6330094],[2.3128561,48.6329641],[2.3128828,48.6321376],[2.3129127,48.6318728],[2.313046,48.6318725],[2.3130527,48.6317796],[2.3131447,48.6317783],[2.3131155,48.6304869]]]]},"properties":{"code_section":"91570000AR","code_commune":"91570","section_courte":"AR"}},{"type":"Feature","geometry":{"type":"MultiPolygon","coordinates":[[[[2.3191323,48.6272385],[2.319457,48.6278001],[2.319905,48.6283634],[2.3201645,48.6287997],[2.3203533,48.6290445],[2.3214649,48.6301592],[2.3215606,48.6304613],[2.3203759,48.6306263],[2.3199674,48.6307217],[2.3181882,48.6308762],[2.3181983,48.6307775],[2.3171724,48.6308586],[2.3168734,48.6308329],[2.3163012,48.630723],[2.3162499,48.6307734],[2.3142546,48.6304539],[2.3131218,48.6304421],[2.3124802,48.6304724],[2.3112006,48.630604],[2.3111329,48.6305621],[2.3118387,48.6289244],[2.311997,48.6280845],[2.3121939,48.627544],[2.3126725,48.6273205],[2.3130102,48.6267202],[2.3142888,48.6252956],[2.3205295,48.6253614],[2.3204794,48.6257416],[2.3210085,48.6263049],[2.3191323,48.6272385]]]]},"properties":{"code_section":"91570000AS","code_commune":"91570","section_courte":"AS"}},{"type":"Feature","geometry":{"type":"MultiPolygon","coordinates":[[[[2.3285194,48.6282179],[2.3271497,48.6289102],[2.3272434,48.6293704],[2.3252949,48.6296832],[2.3253886,48.6299129],[2.3253684,48.6299843],[2.3244558,48.6303916],[2.3240201,48.6300273],[2.3215606,48.6304613],[2.3214649,48.6301592],[2.3203533,48.6290445],[2.3201645,48.6287997],[2.319905,48.6283634],[2.319457,48.6278001],[2.3191323,48.6272385],[2.3210085,48.6263049],[2.3204794,48.6257416],[2.3205295,48.6253614],[2.3330134,48.6249872],[2.3330095,48.6251621],[2.3326187,48.6251564],[2.3313929,48.6254181],[2.3313585,48.6256541],[2.3299572,48.62752],[2.3299225,48.6276613],[2.3288815,48.6280349],[2.3285194,48.6282179]]]]},"properties":{"code_section":"91570000AT","code_commune":"91570","section_courte":"AT"}},{"type":"Feature","geometry":{"type":"MultiPolygon","coordinates":[[[[2.3205295,48.6253614],[2.3085479,48.6252574],[2.3086813,48.6243149],[2.3086155,48.6242408],[2.3110915,48.6235135],[2.3117329,48.6232122],[2.3127625,48.6228596],[2.3146176,48.622376],[2.316894,48.6218734],[2.3194511,48.6210337],[2.3216918,48.6203864],[2.323233,48.620075],[2.3248245,48.6198121],[2.3256363,48.6197404],[2.3266995,48.619771],[2.329224,48.6196506],[2.3317519,48.6211018],[2.3323971,48.6214208],[2.3326334,48.6219771],[2.3327899,48.6230295],[2.3331257,48.6243061],[2.3331477,48.6244881],[2.3329993,48.6249876],[2.3205295,48.6253614]]]]},"properties":{"code_section":"91570000AV","code_commune":"91570","section_courte":"AV"}},{"type":"Feature","geometry":{"type":"MultiPolygon","coordinates":[[[[2.3081762,48.6243222],[2.3075117,48.629652],[2.3064,48.6295159],[2.3055128,48.6293696],[2.3053651,48.6293728],[2.3047676,48.6294457],[2.3033463,48.6298517],[2.3027581,48.6299327],[2.3023757,48.6298309],[2.3017667,48.6295264],[2.3007625,48.6299435],[2.2993283,48.6304609],[2.2991163,48.6298418],[2.2990955,48.6295887],[2.2993661,48.6290175],[2.2996193,48.6283284],[2.3000486,48.6274856],[2.3002865,48.6269092],[2.3003811,48.6263312],[2.3003573,48.6261849],[2.3002744,48.626042],[2.3024346,48.6257477],[2.3033073,48.6257381],[2.3035003,48.6257041],[2.3038345,48.6256069],[2.3053024,48.6250671],[2.3066309,48.6246338],[2.3073658,48.6244445],[2.3081762,48.6243222]]]]},"properties":{"code_section":"91570000AW","code_commune":"91570","section_courte":"AW"}}]}