{"type":"FeatureCollection","features":[{"type":"Feature","geometry":{"type":"MultiPolygon","coordinates":[[[[2.1817325,48.5642023],[2.182495,48.5641949],[2.1858842,48.5645944],[2.1864972,48.5646156],[2.1872657,48.5645868],[2.1880932,48.5644898],[2.1887229,48.5643754],[2.1894897,48.56417],[2.1896791,48.5640932],[2.1892892,48.5646164],[2.1886564,48.5652901],[2.1886128,48.5653613],[2.1887081,48.5654967],[2.1897636,48.566274],[2.1898386,48.5662997],[2.1900505,48.5661975],[2.1907193,48.5668972],[2.1918247,48.5678759],[2.1921056,48.5681735],[2.1923206,48.5680827],[2.1926912,48.5685969],[2.1932071,48.5690252],[2.1934783,48.5692043],[2.1945184,48.5702588],[2.1949856,48.5700491],[2.1955101,48.5705668],[2.1939297,48.5713855],[2.1939968,48.5714382],[2.1928933,48.5720143],[2.1927459,48.5721731],[2.193158,48.5725375],[2.193368,48.5726602],[2.1967643,48.5739061],[2.196831,48.5738435],[2.1972002,48.5739618],[2.1983379,48.5742388],[2.1987691,48.5739127],[2.1993227,48.5740275],[2.1993306,48.573862],[2.1994246,48.5738812],[2.1998594,48.5745543],[2.1997823,48.5746244],[2.1996543,48.5745786],[2.1993147,48.5749067],[2.1986098,48.5754657],[2.198788,48.5755512],[2.1986993,48.5756693],[2.1985778,48.575743],[2.1983172,48.5755322],[2.1976893,48.575226],[2.1973158,48.5752885],[2.1970745,48.5752292],[2.1965632,48.5749195],[2.1961128,48.5745651],[2.195783,48.5744066],[2.1953848,48.5743505],[2.1951941,48.5742845],[2.1949664,48.5741345],[2.1943115,48.5739555],[2.1938599,48.5736243],[2.1935835,48.5733317],[2.1930085,48.5730117],[2.1926645,48.5729231],[2.1923049,48.5726628],[2.1921106,48.572423],[2.1916271,48.5721895],[2.1913002,48.5715797],[2.1908438,48.5711182],[2.1902975,48.5709425],[2.1900717,48.5707401],[2.1896935,48.5706304],[2.1894442,48.5703651],[2.189098,48.5701462],[2.1888765,48.5698044],[2.188536,48.5697216],[2.188253,48.5696955],[2.1880861,48.5695832],[2.1876771,48.5697007],[2.1876133,48.5696463],[2.1876232,48.5695306],[2.1874236,48.5693892],[2.1870408,48.5694596],[2.1868809,48.5694484],[2.1867285,48.5693802],[2.1866576,48.569379],[2.1864006,48.5696189],[2.1862572,48.5696343],[2.1860324,48.569521],[2.185662,48.5691828],[2.1853478,48.5690315],[2.1850933,48.568996],[2.1849965,48.5689507],[2.1843636,48.568558],[2.1843088,48.5685011],[2.1842763,48.568368],[2.1842413,48.5678507],[2.1841862,48.567777],[2.1836026,48.5671042],[2.1832046,48.5668726],[2.1824895,48.5663646],[2.1823251,48.5661975],[2.1822192,48.5659261],[2.1819927,48.5657529],[2.181941,48.5653399],[2.1818648,48.5652556],[2.1818468,48.56507],[2.1817189,48.5649418],[2.1816808,48.5648138],[2.1816671,48.5644865],[2.1817283,48.5643669],[2.1817325,48.5642023]]]]},"properties":{"code_section":"915810000A","code_commune":"91581","section_courte":"A"}},{"type":"Feature","geometry":{"type":"MultiPolygon","coordinates":[[[[2.177826,48.549462],[2.1780675,48.5494012],[2.1781511,48.5493469],[2.1805945,48.5493381],[2.1807596,48.5491508],[2.1813131,48.5488438],[2.1816712,48.5485118],[2.1819179,48.5483907],[2.1820901,48.54816],[2.1831302,48.5476693],[2.1841464,48.5474103],[2.1847945,48.5473287],[2.1851396,48.5472399],[2.1860416,48.5471207],[2.1864312,48.54703],[2.186836,48.5469138],[2.1870516,48.5467434],[2.1874533,48.5465111],[2.1880407,48.5468488],[2.1883231,48.5469764],[2.1881011,48.5472002],[2.1881149,48.5472562],[2.1884673,48.5477001],[2.188577,48.5481047],[2.1887694,48.548371],[2.1894712,48.5487514],[2.1900334,48.5488827],[2.1909022,48.5491705],[2.1916866,48.549503],[2.19225,48.5497051],[2.1925419,48.5498543],[2.1934883,48.5507691],[2.1941639,48.5515765],[2.1954897,48.552604],[2.1966716,48.5534487],[2.197218,48.5535929],[2.1974311,48.5537984],[2.1975164,48.5539185],[2.1974288,48.5543697],[2.1974715,48.5548557],[2.1956242,48.5552562],[2.1956529,48.5553123],[2.1937072,48.5557282],[2.1940289,48.5567745],[2.1960199,48.5564482],[2.1963459,48.5572996],[2.1947917,48.5573306],[2.1950053,48.5582644],[2.194236,48.5578756],[2.1939981,48.5577242],[2.1933155,48.5584258],[2.1927453,48.5588776],[2.1936972,48.5597427],[2.1930324,48.5601311],[2.1920718,48.559282],[2.1913989,48.5596793],[2.1906234,48.5592241],[2.1902944,48.5595277],[2.1915903,48.5606761],[2.1913316,48.5606846],[2.1904399,48.5608381],[2.1894705,48.561233],[2.1899599,48.5617646],[2.1901974,48.5619381],[2.190249,48.5619217],[2.1913796,48.5621768],[2.1914977,48.5623049],[2.1930035,48.5626846],[2.1919581,48.5630508],[2.1906917,48.5636999],[2.1898868,48.5640509],[2.1887229,48.5643754],[2.1880932,48.5644898],[2.1872657,48.5645868],[2.1864972,48.5646156],[2.1858842,48.5645944],[2.182495,48.5641949],[2.1817325,48.5642023],[2.1817965,48.5640871],[2.181365,48.5637667],[2.1812822,48.5634747],[2.181096,48.563234],[2.1810597,48.5630048],[2.1808974,48.5627308],[2.1807737,48.5626076],[2.1800922,48.5621674],[2.1801006,48.5620468],[2.1798747,48.5618681],[2.1799718,48.5617129],[2.1798956,48.5616398],[2.179841,48.5614994],[2.1797078,48.5613965],[2.1796656,48.5613128],[2.1794783,48.5612208],[2.1794497,48.5610413],[2.1792362,48.5609349],[2.1790594,48.5607801],[2.1790365,48.5606155],[2.1790983,48.5604109],[2.1797717,48.5600924],[2.1798679,48.5601013],[2.179921,48.5604639],[2.1813733,48.559873],[2.1809232,48.5587319],[2.1804292,48.5570424],[2.1798815,48.5553943],[2.1799689,48.5553931],[2.1800953,48.5553305],[2.1799088,48.555171],[2.1798069,48.5550277],[2.1793364,48.5541358],[2.1790427,48.5537515],[2.1777895,48.5538686],[2.1773765,48.554],[2.1771641,48.5540802],[2.1758794,48.5548688],[2.1748867,48.5553149],[2.1743469,48.5554305],[2.1740053,48.5551008],[2.1737449,48.5546569],[2.1736494,48.5544136],[2.1737756,48.5542206],[2.1739124,48.5541696],[2.1740921,48.5540272],[2.1742102,48.553786],[2.1742658,48.5534117],[2.1739649,48.5529707],[2.1739867,48.5527827],[2.1739315,48.5526283],[2.1739968,48.5524381],[2.1738975,48.5520518],[2.1739281,48.5519088],[2.1737192,48.5517144],[2.1734543,48.5512344],[2.1734606,48.5510644],[2.1732463,48.5507806],[2.1732537,48.5506416],[2.173178,48.5505094],[2.1730599,48.5504163],[2.1730978,48.5502166],[2.1733142,48.5501734],[2.1735584,48.5506744],[2.175595,48.5500695],[2.176617,48.5498245],[2.177826,48.549462]]]]},"properties":{"code_section":"915810000B","code_commune":"91581","section_courte":"B"}},{"type":"Feature","geometry":{"type":"MultiPolygon","coordinates":[[[[2.1802211,48.5564247],[2.1809232,48.5587319],[2.1813733,48.559873],[2.179921,48.5604639],[2.1798679,48.5601013],[2.1797717,48.5600924],[2.1797449,48.5599817],[2.1794263,48.5597157],[2.1789346,48.5591988],[2.1785948,48.5588994],[2.1783425,48.5586],[2.1781401,48.5581221],[2.1778618,48.5578846],[2.1775262,48.5577072],[2.1769672,48.5573025],[2.1766127,48.5571196],[2.1760713,48.5567626],[2.1758586,48.556475],[2.1757258,48.5561387],[2.1756142,48.5559999],[2.1746112,48.5556931],[2.174499,48.5556212],[2.1743469,48.5554305],[2.1748867,48.5553149],[2.1755389,48.5550331],[2.1758794,48.5548688],[2.1771641,48.5540802],[2.1775698,48.5539284],[2.1777895,48.5538686],[2.1790427,48.5537515],[2.1793364,48.5541358],[2.1798069,48.5550277],[2.1799088,48.555171],[2.1800953,48.5553305],[2.1799689,48.5553931],[2.1798815,48.5553943],[2.1802211,48.5564247]]]]},"properties":{"code_section":"91581000ZA","code_commune":"91581","section_courte":"ZA"}},{"type":"Feature","geometry":{"type":"MultiPolygon","coordinates":[[[[2.1925849,48.568449],[2.1923206,48.5680827],[2.1921056,48.5681735],[2.1918247,48.5678759],[2.1907193,48.5668972],[2.1900505,48.5661975],[2.1898386,48.5662997],[2.1897636,48.566274],[2.1888063,48.5655873],[2.1886128,48.5653613],[2.1892892,48.5646164],[2.1896791,48.5640932],[2.1898868,48.5640509],[2.1904992,48.5637898],[2.1916405,48.5631958],[2.1921443,48.5639225],[2.1928406,48.5651964],[2.1949077,48.5681426],[2.1961509,48.5693952],[2.1971037,48.5702458],[2.1973813,48.5705968],[2.1979002,48.5715488],[2.199294,48.573795],[2.1993306,48.573862],[2.1993227,48.5740275],[2.1987691,48.5739127],[2.1983379,48.5742388],[2.1972002,48.5739618],[2.196831,48.5738435],[2.1967643,48.5739061],[2.1934663,48.5727023],[2.1932779,48.5726148],[2.1930685,48.5724634],[2.1927459,48.5721731],[2.1928933,48.5720143],[2.1939968,48.5714382],[2.1939297,48.5713855],[2.1955101,48.5705668],[2.1949856,48.5700491],[2.1945184,48.5702588],[2.1934783,48.5692043],[2.192869,48.5687525],[2.1926912,48.5685969],[2.1925849,48.568449]]]]},"properties":{"code_section":"91581000ZB","code_commune":"91581","section_courte":"ZB"}},{"type":"Feature","geometry":{"type":"MultiPolygon","coordinates":[[[[2.2076803,48.5640068],[2.2109601,48.5696573],[2.2108068,48.5696068],[2.2094985,48.5704482],[2.2077659,48.5711558],[2.2049728,48.572775],[2.2032656,48.5733457],[2.2012947,48.5739155],[2.1998594,48.5745543],[2.1994246,48.5738812],[2.1993306,48.573862],[2.1979002,48.5715488],[2.1972553,48.5704202],[2.1970702,48.5702132],[2.1961509,48.5693952],[2.1949077,48.5681426],[2.1928406,48.5651964],[2.1921443,48.5639225],[2.1916405,48.5631958],[2.1925577,48.5628227],[2.1932822,48.562604],[2.2029963,48.5602133],[2.2032541,48.5601606],[2.20349,48.5601782],[2.2036317,48.559898],[2.2040862,48.5599541],[2.2051672,48.559676],[2.2062004,48.5614529],[2.2060432,48.5616276],[2.2064781,48.5619181],[2.2076803,48.5640068]]]]},"properties":{"code_section":"91581000ZC","code_commune":"91581","section_courte":"ZC"}},{"type":"Feature","geometry":{"type":"MultiPolygon","coordinates":[[[[2.1901974,48.5619381],[2.1899599,48.5617646],[2.1894705,48.561233],[2.1904399,48.5608381],[2.1913316,48.5606846],[2.1915903,48.5606761],[2.1902944,48.5595277],[2.1906234,48.5592241],[2.1913989,48.5596793],[2.1920718,48.559282],[2.1930324,48.5601311],[2.1936972,48.5597427],[2.1927453,48.5588776],[2.1933155,48.5584258],[2.1939981,48.5577242],[2.194236,48.5578756],[2.1950053,48.5582644],[2.1947917,48.5573306],[2.1963459,48.5572996],[2.1960199,48.5564482],[2.1940289,48.5567745],[2.1937072,48.5557282],[2.1956529,48.5553123],[2.1956242,48.5552562],[2.1974715,48.5548557],[2.1974734,48.5549635],[2.1975902,48.5549305],[2.1981498,48.556112],[2.1987419,48.5560536],[2.2003441,48.5563545],[2.2011175,48.5564163],[2.2014841,48.5564038],[2.201502,48.5564251],[2.2015681,48.5564162],[2.2015707,48.5563874],[2.2017963,48.556357],[2.2024147,48.5573123],[2.2038222,48.559686],[2.2036035,48.5597133],[2.2036317,48.559898],[2.20349,48.5601782],[2.2032541,48.5601606],[2.2027615,48.5602693],[2.1930035,48.5626846],[2.1914977,48.5623049],[2.1913796,48.5621768],[2.190249,48.5619217],[2.1901974,48.5619381]]]]},"properties":{"code_section":"91581000ZD","code_commune":"91581","section_courte":"ZD"}}]}