{"type":"FeatureCollection","features":[{"type":"Feature","geometry":{"type":"MultiPolygon","coordinates":[[[[2.3426328,48.6807796],[2.3418663,48.6793122],[2.3416965,48.679084],[2.3413288,48.6779721],[2.34114,48.6777697],[2.3404575,48.6773902],[2.340887,48.6770923],[2.3410791,48.6767664],[2.3412511,48.6765621],[2.3416822,48.6764014],[2.3422388,48.6764508],[2.3423089,48.6765263],[2.3429157,48.6762318],[2.3438838,48.6759926],[2.3450857,48.6755142],[2.3454282,48.6754208],[2.3456418,48.6753962],[2.3470927,48.6748391],[2.3489754,48.6740597],[2.3492993,48.6744492],[2.3498439,48.6748467],[2.3500308,48.6748399],[2.3504364,48.674616],[2.3505642,48.6746018],[2.3506718,48.6746368],[2.3513211,48.6754556],[2.3506089,48.6758204],[2.3514132,48.6760108],[2.349849,48.6768685],[2.3501291,48.6772274],[2.3492504,48.6779754],[2.3482623,48.6786339],[2.3471446,48.6793198],[2.3432201,48.68196],[2.3426328,48.6807796]]]]},"properties":{"code_section":"91589000AB","code_commune":"91589","section_courte":"AB"}},{"type":"Feature","geometry":{"type":"MultiPolygon","coordinates":[[[[2.3554452,48.6708819],[2.3553318,48.6711793],[2.3552298,48.6713222],[2.3537122,48.6727166],[2.3526272,48.6734093],[2.3531593,48.6736954],[2.3534743,48.6739063],[2.3536385,48.6740698],[2.3526144,48.6745116],[2.3539699,48.6754835],[2.3546778,48.6750703],[2.3547794,48.6750699],[2.3562497,48.6764454],[2.3562822,48.6765691],[2.3561114,48.6770909],[2.3561777,48.6772618],[2.3560463,48.6773168],[2.3550889,48.6780766],[2.3548081,48.6780566],[2.3545439,48.6782548],[2.3541367,48.6780901],[2.3532735,48.6778362],[2.3531695,48.6777722],[2.3526082,48.6773371],[2.352445,48.6769917],[2.3524101,48.6768075],[2.3519687,48.6764315],[2.3514132,48.6760108],[2.3506089,48.6758204],[2.3513211,48.6754556],[2.3506718,48.6746368],[2.3505642,48.6746018],[2.3504364,48.674616],[2.3500308,48.6748399],[2.3498439,48.6748467],[2.3491987,48.6743445],[2.3489754,48.6740597],[2.3499436,48.6739346],[2.3500862,48.6739609],[2.3512501,48.6738509],[2.3515465,48.6737482],[2.3505802,48.672917],[2.3505876,48.6728754],[2.3502232,48.6725309],[2.3494043,48.6722649],[2.3491708,48.672124],[2.3494357,48.6712793],[2.3493527,48.6712322],[2.3494041,48.6710785],[2.3493121,48.6709916],[2.349505,48.6708918],[2.3496579,48.6703357],[2.3502201,48.6705077],[2.3517648,48.6708836],[2.3528188,48.6712816],[2.3530472,48.671332],[2.3534771,48.671357],[2.3538377,48.6713025],[2.3543498,48.6709856],[2.354668,48.6708783],[2.3552121,48.6708303],[2.3554452,48.6708819]]]]},"properties":{"code_section":"91589000AC","code_commune":"91589","section_courte":"AC"}},{"type":"Feature","geometry":{"type":"MultiPolygon","coordinates":[[[[2.3321113,48.6808536],[2.3324684,48.6814814],[2.3327208,48.6820413],[2.333248,48.68285],[2.3340901,48.6840228],[2.3344961,48.6844936],[2.3317908,48.6853762],[2.3314516,48.6855201],[2.3312142,48.6856835],[2.3305083,48.6863575],[2.329971,48.6867293],[2.3289219,48.6872207],[2.3283727,48.6875773],[2.3276408,48.6871409],[2.3274139,48.6870482],[2.3266769,48.6866429],[2.3296972,48.6830889],[2.3312407,48.6815153],[2.3314178,48.6814419],[2.3321113,48.6808536]]]]},"properties":{"code_section":"91589000AD","code_commune":"91589","section_courte":"AD"}},{"type":"Feature","geometry":{"type":"MultiPolygon","coordinates":[[[[2.3492087,48.6720566],[2.3491708,48.672124],[2.348532,48.6718874],[2.3477591,48.6716964],[2.3470819,48.6715812],[2.3443312,48.6703229],[2.3437343,48.670097],[2.3429755,48.6699154],[2.3423824,48.6698296],[2.341473,48.66983],[2.3406521,48.6698847],[2.3381449,48.6697312],[2.3380813,48.66976],[2.3379801,48.6699036],[2.3378416,48.6698945],[2.3379295,48.6697308],[2.3384354,48.6694409],[2.3384629,48.6693882],[2.3383863,48.6692062],[2.3384089,48.6691395],[2.3385174,48.6690652],[2.3388849,48.6689457],[2.3388585,48.6687648],[2.3391439,48.6685372],[2.3387664,48.668392],[2.3386375,48.6681158],[2.3382046,48.6678622],[2.3380932,48.6677475],[2.3381176,48.6676498],[2.3379652,48.6675391],[2.3383762,48.667578],[2.3397127,48.667518],[2.3405166,48.6675244],[2.3430027,48.6677736],[2.3435051,48.6678418],[2.344243,48.6679997],[2.3453115,48.6683503],[2.3496579,48.6703357],[2.349505,48.6708918],[2.3493121,48.6709916],[2.3494041,48.6710785],[2.3493527,48.6712322],[2.3494357,48.6712793],[2.3492087,48.6720566]]]]},"properties":{"code_section":"91589000AE","code_commune":"91589","section_courte":"AE"}},{"type":"Feature","geometry":{"type":"MultiPolygon","coordinates":[[[[2.3500168,48.6739384],[2.3492435,48.6740083],[2.3489754,48.6740597],[2.3470927,48.6748391],[2.3456418,48.6753962],[2.3454282,48.6754208],[2.3450857,48.6755142],[2.3438838,48.6759926],[2.3430582,48.6761957],[2.3429737,48.6758291],[2.3429816,48.6746825],[2.3432543,48.6739177],[2.3422994,48.6727721],[2.3419857,48.6721964],[2.341635,48.6717093],[2.341593,48.6711566],[2.342004,48.6706859],[2.3421954,48.670517],[2.3422981,48.6702582],[2.3423824,48.6698296],[2.3429755,48.6699154],[2.3437343,48.670097],[2.3443312,48.6703229],[2.3470819,48.6715812],[2.3477591,48.6716964],[2.348532,48.6718874],[2.3491708,48.672124],[2.3494043,48.6722649],[2.3502232,48.6725309],[2.3505876,48.6728754],[2.3505802,48.672917],[2.3515465,48.6737482],[2.3512501,48.6738509],[2.3500862,48.6739609],[2.3500168,48.6739384]]]]},"properties":{"code_section":"91589000AH","code_commune":"91589","section_courte":"AH"}},{"type":"Feature","geometry":{"type":"MultiPolygon","coordinates":[[[[2.3421954,48.670517],[2.342004,48.6706859],[2.341593,48.6711566],[2.341635,48.6717093],[2.3419857,48.6721964],[2.3422994,48.6727721],[2.3432543,48.6739177],[2.3429816,48.6746825],[2.3429737,48.6758291],[2.3430582,48.6761957],[2.3429157,48.6762318],[2.3423089,48.6765263],[2.3422388,48.6764508],[2.3418411,48.6763994],[2.3416822,48.6764014],[2.341467,48.6764612],[2.3412511,48.6765621],[2.3410791,48.6767664],[2.3402348,48.6765513],[2.3397276,48.6764944],[2.3391751,48.6764705],[2.3383686,48.6769512],[2.3376875,48.6765922],[2.3376129,48.6764549],[2.3373402,48.6766242],[2.3372345,48.6766551],[2.3368475,48.6764377],[2.3363917,48.6760907],[2.3352238,48.6749003],[2.3356104,48.6743567],[2.3362647,48.6728403],[2.3359258,48.6724688],[2.3358516,48.672323],[2.3360207,48.6720247],[2.3366168,48.6713524],[2.3366376,48.6712678],[2.3365802,48.6709096],[2.3366251,48.6707742],[2.3367292,48.6706971],[2.3372758,48.6705152],[2.3377773,48.670098],[2.3378416,48.6698945],[2.3379801,48.6699036],[2.3380813,48.66976],[2.3381449,48.6697312],[2.3406521,48.6698847],[2.341473,48.66983],[2.3423824,48.6698296],[2.3422981,48.6702582],[2.3421954,48.670517]]]]},"properties":{"code_section":"91589000AI","code_commune":"91589","section_courte":"AI"}},{"type":"Feature","geometry":{"type":"MultiPolygon","coordinates":[[[[2.3373402,48.6766242],[2.3376129,48.6764549],[2.3376875,48.6765922],[2.3383686,48.6769512],[2.3391752,48.6764706],[2.3397276,48.6764944],[2.3402348,48.6765513],[2.3410791,48.6767664],[2.340887,48.6770923],[2.3404575,48.6773902],[2.34114,48.6777697],[2.3413288,48.6779721],[2.3416965,48.679084],[2.3418663,48.6793122],[2.3424096,48.6803338],[2.3411415,48.6806576],[2.3403789,48.6810422],[2.339649,48.6814658],[2.3376616,48.6831212],[2.3377261,48.6831985],[2.3371012,48.6837109],[2.3355324,48.6842632],[2.3344961,48.6844936],[2.3340901,48.6840228],[2.333248,48.68285],[2.3327208,48.6820413],[2.3324684,48.6814814],[2.3321113,48.6808536],[2.3316277,48.6802598],[2.3325841,48.6796447],[2.3333777,48.6792382],[2.3345625,48.6786945],[2.3351367,48.678346],[2.3355922,48.677898],[2.335971,48.6773284],[2.3359257,48.6772969],[2.3360635,48.6771331],[2.3369107,48.6768401],[2.3373402,48.6766242]]]]},"properties":{"code_section":"91589000AK","code_commune":"91589","section_courte":"AK"}},{"type":"Feature","geometry":{"type":"MultiPolygon","coordinates":[[[[2.3393962,48.6850908],[2.3376616,48.6831212],[2.339649,48.6814658],[2.3403789,48.6810422],[2.3411415,48.6806576],[2.3424096,48.6803338],[2.3432201,48.68196],[2.3434701,48.6822988],[2.3442649,48.6829593],[2.3450517,48.6837391],[2.3452883,48.6840263],[2.3457252,48.6848138],[2.3471648,48.6864807],[2.3467252,48.6864191],[2.3465091,48.6864549],[2.3463128,48.6865476],[2.3457903,48.6874414],[2.3456268,48.6875967],[2.3453774,48.687714],[2.3450747,48.6877649],[2.3442136,48.6878234],[2.3433716,48.6877183],[2.3428391,48.6885098],[2.3397931,48.6855575],[2.3393962,48.6850908]]]]},"properties":{"code_section":"91589000AL","code_commune":"91589","section_courte":"AL"}},{"type":"Feature","geometry":{"type":"MultiPolygon","coordinates":[[[[2.3371012,48.6837109],[2.3377261,48.6831985],[2.3397931,48.6855575],[2.3412599,48.6869765],[2.3406878,48.688314],[2.339783,48.6897182],[2.3392431,48.6904346],[2.3391745,48.6902964],[2.3385719,48.6897882],[2.3367974,48.688019],[2.3364982,48.687458],[2.336006,48.6866764],[2.3356912,48.6859845],[2.3345558,48.6845762],[2.3343797,48.6845219],[2.3355324,48.6842632],[2.3371012,48.6837109]]]]},"properties":{"code_section":"91589000AM","code_commune":"91589","section_courte":"AM"}},{"type":"Feature","geometry":{"type":"MultiPolygon","coordinates":[[[[2.3442136,48.6878234],[2.3444311,48.6878178],[2.3484491,48.6919156],[2.3438665,48.6938931],[2.3441443,48.6941915],[2.3425788,48.6942755],[2.3413871,48.6927113],[2.3409128,48.6921721],[2.3400735,48.6913609],[2.3392431,48.6904346],[2.339783,48.6897182],[2.3406878,48.688314],[2.3412599,48.6869765],[2.3428391,48.6885098],[2.3433716,48.6877183],[2.3442136,48.6878234]]]]},"properties":{"code_section":"91589000AN","code_commune":"91589","section_courte":"AN"}},{"type":"Feature","geometry":{"type":"MultiPolygon","coordinates":[[[[2.3471968,48.6984594],[2.3462255,48.6976351],[2.3455936,48.6969776],[2.3447399,48.6961801],[2.3435183,48.6953097],[2.3425788,48.6942755],[2.3441443,48.6941915],[2.3438665,48.6938931],[2.3484491,48.6919156],[2.3503415,48.6938433],[2.3494732,48.6969543],[2.3498447,48.6975901],[2.3471968,48.6984594]]]]},"properties":{"code_section":"91589000AO","code_commune":"91589","section_courte":"AO"}},{"type":"Feature","geometry":{"type":"MultiPolygon","coordinates":[[[[2.359189,48.6995335],[2.3594498,48.6997992],[2.3573148,48.7005689],[2.3547754,48.7013551],[2.3534784,48.7018822],[2.3517565,48.7027148],[2.3517568,48.7026695],[2.3516157,48.702736],[2.351635,48.7027747],[2.3515751,48.7028043],[2.3510955,48.7020626],[2.3504559,48.7012606],[2.3499422,48.700741],[2.3471968,48.6984594],[2.3498447,48.6975901],[2.3502961,48.6983003],[2.3506315,48.6981368],[2.3527531,48.7002937],[2.3527237,48.7003498],[2.3529653,48.7005926],[2.3530221,48.7005797],[2.3544637,48.6978161],[2.3569903,48.697965],[2.3580442,48.6990442],[2.3585074,48.6988446],[2.359189,48.6995335]]]]},"properties":{"code_section":"91589000AP","code_commune":"91589","section_courte":"AP"}},{"type":"Feature","geometry":{"type":"MultiPolygon","coordinates":[[[[2.3576319,48.6947344],[2.3558576,48.6948423],[2.3556621,48.6954398],[2.3554608,48.6958514],[2.3530221,48.7005797],[2.3529653,48.7005926],[2.3527237,48.7003498],[2.3527531,48.7002937],[2.3506315,48.6981368],[2.3502961,48.6983003],[2.3494732,48.6969543],[2.3503415,48.6938433],[2.353578,48.6937249],[2.35407,48.6936507],[2.3552873,48.6936972],[2.3561629,48.6938827],[2.3563255,48.6933979],[2.3576319,48.6947344]]]]},"properties":{"code_section":"91589000AR","code_commune":"91589","section_courte":"AR"}},{"type":"Feature","geometry":{"type":"MultiPolygon","coordinates":[[[[2.3580609,48.6940689],[2.3572986,48.6943972],[2.3563255,48.6933979],[2.3561629,48.6938827],[2.3552873,48.6936972],[2.35407,48.6936507],[2.353578,48.6937249],[2.3503415,48.6938433],[2.3484491,48.6919156],[2.3557894,48.6887649],[2.3603471,48.6934145],[2.3594316,48.6938046],[2.3592471,48.6936174],[2.3583336,48.6940087],[2.358293,48.693967],[2.3580609,48.6940689]]]]},"properties":{"code_section":"91589000AS","code_commune":"91589","section_courte":"AS"}},{"type":"Feature","geometry":{"type":"MultiPolygon","coordinates":[[[[2.3646962,48.6912276],[2.3644099,48.6909527],[2.3630559,48.6915753],[2.3641386,48.6923428],[2.3645071,48.6926421],[2.3659844,48.6941174],[2.3611946,48.6936959],[2.3607952,48.6938706],[2.3557894,48.6887649],[2.3577557,48.6879204],[2.3583913,48.6882882],[2.3624686,48.6861176],[2.363698,48.6880223],[2.3641235,48.6885166],[2.3650772,48.6894128],[2.3653095,48.6896712],[2.3660151,48.6906259],[2.3646962,48.6912276]]]]},"properties":{"code_section":"91589000AT","code_commune":"91589","section_courte":"AT"}},{"type":"Feature","geometry":{"type":"MultiPolygon","coordinates":[[[[2.369895,48.6878079],[2.3700342,48.687903],[2.3688817,48.6885224],[2.3699701,48.6894131],[2.3681743,48.6899313],[2.3682197,48.6899866],[2.3660217,48.6906349],[2.3653095,48.6896712],[2.3650772,48.6894128],[2.3641235,48.6885166],[2.363698,48.6880223],[2.3627177,48.6864997],[2.3646821,48.685237],[2.3650356,48.6855185],[2.3661787,48.6845956],[2.3671011,48.684628],[2.3667182,48.6834933],[2.3668162,48.6835007],[2.3670567,48.6832538],[2.3673478,48.6830355],[2.3672345,48.6829696],[2.3683632,48.6820825],[2.3689636,48.6822808],[2.3690767,48.6823743],[2.3702123,48.6837172],[2.3703513,48.6841072],[2.370459,48.6842216],[2.3708016,48.6844378],[2.3711975,48.6849852],[2.3717203,48.6856024],[2.3709051,48.6850975],[2.3697777,48.684465],[2.3704725,48.6864676],[2.3696442,48.6869337],[2.3704798,48.6874771],[2.369895,48.6878079]]]]},"properties":{"code_section":"91589000AV","code_commune":"91589","section_courte":"AV"}},{"type":"Feature","geometry":{"type":"MultiPolygon","coordinates":[[[[2.3668162,48.6835007],[2.3667182,48.6834933],[2.3671011,48.684628],[2.3661787,48.6845956],[2.3633175,48.6840413],[2.3614037,48.6834694],[2.3604154,48.6830611],[2.3572191,48.6814245],[2.3578302,48.680702],[2.3586773,48.6809145],[2.3587553,48.6807657],[2.3582479,48.6798414],[2.3583248,48.6798088],[2.3583239,48.6794627],[2.3582623,48.6794584],[2.3583856,48.6792805],[2.3587468,48.6789123],[2.3614026,48.6771312],[2.3615299,48.6772167],[2.3615885,48.6773086],[2.3618401,48.6773697],[2.3623886,48.6776016],[2.3638195,48.6781207],[2.3644581,48.6787649],[2.3650498,48.6789713],[2.3658339,48.6791076],[2.3660008,48.679216],[2.3663433,48.6796984],[2.3666466,48.6800379],[2.3669537,48.6802734],[2.3671607,48.6806687],[2.3673243,48.6808115],[2.3679123,48.6811264],[2.3684036,48.6816655],[2.3689668,48.6822058],[2.3689636,48.6822808],[2.3683632,48.6820825],[2.3672345,48.6829696],[2.3673478,48.6830355],[2.3670567,48.6832538],[2.3668162,48.6835007]]]]},"properties":{"code_section":"91589000AW","code_commune":"91589","section_courte":"AW"}},{"type":"Feature","geometry":{"type":"MultiPolygon","coordinates":[[[[2.3613327,48.6770997],[2.3614026,48.6771312],[2.3587468,48.6789123],[2.3585601,48.6790963],[2.3563075,48.6774503],[2.3560463,48.6773168],[2.3561777,48.6772618],[2.3561114,48.6770909],[2.3562822,48.6765691],[2.3562497,48.6764454],[2.3547794,48.6750699],[2.3546778,48.6750703],[2.3539699,48.6754835],[2.3526144,48.6745116],[2.3536385,48.6740698],[2.3534743,48.6739063],[2.3531593,48.6736954],[2.3526272,48.6734093],[2.3537122,48.6727166],[2.3552298,48.6713222],[2.3553318,48.6711793],[2.3554452,48.6708819],[2.3555643,48.6709904],[2.3556785,48.6711738],[2.3558362,48.6712872],[2.3564667,48.6714356],[2.3571937,48.6716648],[2.3574269,48.6717741],[2.3576659,48.6720303],[2.3578862,48.672508],[2.3580862,48.6726623],[2.3587602,48.673012],[2.3588902,48.6731103],[2.3589525,48.6732794],[2.3588092,48.6739463],[2.3588343,48.6742907],[2.3589374,48.6745765],[2.3593421,48.6753586],[2.3596972,48.6764507],[2.3598768,48.6765809],[2.360736,48.6768582],[2.3613327,48.6770997]]]]},"properties":{"code_section":"91589000AX","code_commune":"91589","section_courte":"AX"}},{"type":"Feature","geometry":{"type":"MultiPolygon","coordinates":[[[[2.3572191,48.6814245],[2.3571753,48.6814044],[2.3538147,48.6837018],[2.3471446,48.6793198],[2.3490602,48.6781186],[2.3501291,48.6772274],[2.349849,48.6768685],[2.3514132,48.6760108],[2.3524101,48.6768075],[2.352445,48.6769917],[2.3526082,48.6773371],[2.3532735,48.6778362],[2.3541367,48.6780901],[2.3545439,48.6782548],[2.3548081,48.6780566],[2.3550889,48.6780766],[2.3560463,48.6773168],[2.3563075,48.6774503],[2.3585601,48.6790963],[2.3582621,48.6794585],[2.3583239,48.6794627],[2.3583248,48.6798088],[2.3582479,48.6798414],[2.3587553,48.6807657],[2.3586773,48.6809145],[2.3578302,48.680702],[2.3572191,48.6814245]]]]},"properties":{"code_section":"91589000AY","code_commune":"91589","section_courte":"AY"}},{"type":"Feature","geometry":{"type":"MultiPolygon","coordinates":[[[[2.3530638,48.6832038],[2.3538147,48.6837018],[2.3500394,48.6861809],[2.347886,48.6857758],[2.3474788,48.6865411],[2.3471648,48.6864807],[2.3457252,48.6848138],[2.3452883,48.6840263],[2.3450517,48.6837391],[2.3442649,48.6829593],[2.3434701,48.6822988],[2.3432201,48.68196],[2.3471446,48.6793198],[2.3530638,48.6832038]]]]},"properties":{"code_section":"91589000AZ","code_commune":"91589","section_courte":"AZ"}},{"type":"Feature","geometry":{"type":"MultiPolygon","coordinates":[[[[2.3516748,48.6851059],[2.3523816,48.6846433],[2.3570219,48.6877017],[2.3575833,48.6878452],[2.3577557,48.6879204],[2.3484491,48.6919156],[2.3444311,48.6878178],[2.345202,48.6877518],[2.3453774,48.687714],[2.3456268,48.6875967],[2.3458295,48.6873833],[2.3463128,48.6865476],[2.3465091,48.6864549],[2.3468312,48.6864205],[2.3474788,48.6865411],[2.347886,48.6857758],[2.3500394,48.6861809],[2.3516748,48.6851059]]]]},"properties":{"code_section":"91589000BC","code_commune":"91589","section_courte":"BC"}},{"type":"Feature","geometry":{"type":"MultiPolygon","coordinates":[[[[2.3531156,48.6841611],[2.3571753,48.6814044],[2.3602606,48.6829879],[2.3614037,48.6834694],[2.3633175,48.6840413],[2.3661787,48.6845956],[2.3650356,48.6855185],[2.3646821,48.685237],[2.3627177,48.6864997],[2.3624686,48.6861176],[2.3583913,48.6882882],[2.3577928,48.6879346],[2.3575833,48.6878452],[2.3570219,48.6877017],[2.3523816,48.6846433],[2.3531156,48.6841611]]]]},"properties":{"code_section":"91589000BD","code_commune":"91589","section_courte":"BD"}},{"type":"Feature","geometry":{"type":"MultiPolygon","coordinates":[[[[2.3375298,48.6925486],[2.3363536,48.6934003],[2.3362931,48.6935005],[2.3362789,48.6936993],[2.3363476,48.6944106],[2.3360566,48.6945818],[2.3345411,48.6950991],[2.3339154,48.693996],[2.3333089,48.6930677],[2.3315475,48.6906648],[2.3303985,48.6892263],[2.3299002,48.6887139],[2.3283727,48.6875773],[2.3289219,48.6872207],[2.329971,48.6867293],[2.3305083,48.6863575],[2.3312142,48.6856835],[2.3314516,48.6855201],[2.3357486,48.6911535],[2.3382952,48.6900374],[2.3386049,48.6903329],[2.3387041,48.6902876],[2.339054,48.6906264],[2.3384784,48.6913341],[2.3378284,48.6923018],[2.3375298,48.6925486]]]]},"properties":{"code_section":"91589000BE","code_commune":"91589","section_courte":"BE"}},{"type":"Feature","geometry":{"type":"MultiPolygon","coordinates":[[[[2.3314516,48.6855201],[2.3317908,48.6853762],[2.3343797,48.6845219],[2.3345558,48.6845762],[2.3356912,48.6859845],[2.336006,48.6866764],[2.3364982,48.687458],[2.3367974,48.688019],[2.3385719,48.6897882],[2.3391745,48.6902964],[2.3392431,48.6904346],[2.339054,48.6906264],[2.3387041,48.6902876],[2.3386049,48.6903329],[2.3382952,48.6900374],[2.3357486,48.6911535],[2.3314516,48.6855201]]]]},"properties":{"code_section":"91589000BH","code_commune":"91589","section_courte":"BH"}}]}