{"type":"FeatureCollection","features":[{"type":"Feature","geometry":{"type":"MultiPolygon","coordinates":[[[[2.5600181,48.6837968],[2.5607594,48.6838605],[2.5614378,48.6838172],[2.5621557,48.6838095],[2.5640477,48.6840833],[2.5651905,48.6839873],[2.5661133,48.6838578],[2.5668186,48.6836376],[2.5677147,48.6834105],[2.5689533,48.6865243],[2.5699438,48.6864506],[2.5703702,48.6880137],[2.5715914,48.6877968],[2.5718378,48.6885234],[2.5676916,48.6889001],[2.5682831,48.6904153],[2.5697018,48.6907513],[2.5697341,48.6918818],[2.5661381,48.6917462],[2.5659258,48.6909941],[2.5635133,48.690997],[2.5625607,48.6908983],[2.5618172,48.6907807],[2.5618145,48.6907421],[2.5610733,48.6906594],[2.5611874,48.6896514],[2.5610421,48.6896531],[2.557115,48.6888959],[2.5580381,48.687281],[2.5585157,48.6865737],[2.5590934,48.6858964],[2.5592384,48.6855805],[2.5593558,48.6852536],[2.5594396,48.6847071],[2.559416,48.6841525],[2.5592998,48.6838088],[2.5593207,48.6837647],[2.5594507,48.6837504],[2.5600181,48.6837968]]]]},"properties":{"code_section":"916310000B","code_commune":"91631","section_courte":"B"}},{"type":"Feature","geometry":{"type":"MultiPolygon","coordinates":[[[[2.5846575,48.6775591],[2.584959,48.6778773],[2.5847859,48.6779716],[2.5856357,48.6789494],[2.5853427,48.6791075],[2.5850347,48.6792094],[2.5840275,48.6794435],[2.5833503,48.6795917],[2.582933,48.6796372],[2.5816024,48.6796013],[2.5814181,48.67967],[2.5810134,48.6797282],[2.5789077,48.6798759],[2.5786913,48.6798748],[2.5780688,48.6795823],[2.5761295,48.679563],[2.5755541,48.6797773],[2.5752062,48.679819],[2.5748458,48.6797814],[2.5744704,48.6796353],[2.5744127,48.6795856],[2.5741376,48.6792536],[2.5738611,48.6787634],[2.5737966,48.6787159],[2.573494,48.6786525],[2.5732552,48.6785647],[2.5724738,48.6780938],[2.5722722,48.6778904],[2.5720788,48.6775034],[2.5719364,48.6773165],[2.5704179,48.6761989],[2.5699744,48.6756618],[2.5697074,48.674998],[2.5702137,48.674791],[2.5701972,48.6747681],[2.5708213,48.6746171],[2.5709541,48.6749186],[2.5711157,48.6750498],[2.5720463,48.6753836],[2.5724513,48.6755833],[2.5725378,48.6756015],[2.5728101,48.6755837],[2.5728714,48.6757635],[2.5731491,48.675957],[2.5733004,48.675936],[2.5733384,48.6758769],[2.5734576,48.6758141],[2.5738546,48.6763137],[2.5740956,48.6764887],[2.5743635,48.6766134],[2.5751163,48.6767139],[2.5762011,48.6769247],[2.5793994,48.6776922],[2.5799037,48.6777501],[2.5804458,48.6777554],[2.5809588,48.6776867],[2.5820528,48.6776103],[2.5832738,48.6776031],[2.5834606,48.6775375],[2.5840061,48.6771384],[2.5846575,48.6775591]]]]},"properties":{"code_section":"916310000C","code_commune":"91631","section_courte":"C"}},{"type":"Feature","geometry":{"type":"MultiPolygon","coordinates":[[[[2.5599669,48.6746136],[2.5599043,48.6747265],[2.5581502,48.6740532],[2.5595275,48.6722273],[2.5599052,48.6718754],[2.5605467,48.6713578],[2.5610017,48.670625],[2.5616241,48.6697846],[2.5631329,48.6681272],[2.5632926,48.6680077],[2.5636073,48.667846],[2.5653152,48.6672285],[2.5654403,48.6672077],[2.5655016,48.6672793],[2.5659272,48.6673271],[2.566191,48.6673136],[2.5672792,48.6671315],[2.5679976,48.66688],[2.5684383,48.6668258],[2.5686434,48.6666852],[2.5689946,48.6667967],[2.5696541,48.6670916],[2.5700147,48.6672909],[2.57025,48.6675136],[2.5703875,48.6678042],[2.5708158,48.6681663],[2.5711772,48.6683251],[2.571556,48.6684105],[2.5717616,48.668503],[2.5717694,48.6686417],[2.5718738,48.6688479],[2.5719827,48.6697264],[2.571902,48.6701483],[2.5718109,48.6702348],[2.571409,48.6704182],[2.5711371,48.6706193],[2.5709429,48.6708817],[2.5708468,48.6711208],[2.5706659,48.6718396],[2.5704837,48.6722095],[2.5704635,48.6724025],[2.5704927,48.6730316],[2.5707385,48.6740752],[2.5708213,48.6746171],[2.5701972,48.6747681],[2.5702137,48.674791],[2.5697074,48.674998],[2.5699744,48.6756618],[2.5702672,48.6760444],[2.5705748,48.6763377],[2.5715268,48.676992],[2.5719364,48.6773165],[2.5720788,48.6775034],[2.5722722,48.6778904],[2.5724738,48.6780938],[2.5732552,48.6785647],[2.573494,48.6786525],[2.5737966,48.6787159],[2.5738611,48.6787634],[2.5741376,48.6792536],[2.5744704,48.6796353],[2.5727686,48.6798041],[2.5724586,48.6797983],[2.5717602,48.6796659],[2.5714513,48.6790062],[2.5712487,48.6790544],[2.5704814,48.6781574],[2.5700922,48.6782897],[2.5697236,48.6778409],[2.5696064,48.6778854],[2.5688635,48.6771673],[2.5681611,48.6774714],[2.5680299,48.677351],[2.5677139,48.6775651],[2.5685217,48.6783168],[2.5684452,48.6783477],[2.5686325,48.6785176],[2.5682021,48.6787121],[2.5681486,48.6787748],[2.5675604,48.6788575],[2.5656218,48.6788863],[2.5648625,48.6789251],[2.564489,48.6789706],[2.5638198,48.6791894],[2.5630369,48.6791552],[2.5633723,48.6783578],[2.5617307,48.6773746],[2.5620648,48.6771288],[2.5595393,48.6758916],[2.5605139,48.6748801],[2.5599669,48.6746136]]]]},"properties":{"code_section":"916310000D","code_commune":"91631","section_courte":"D"}},{"type":"Feature","geometry":{"type":"MultiPolygon","coordinates":[[[[2.5422586,48.6793585],[2.5432508,48.6781767],[2.5440729,48.6773405],[2.5444353,48.6769979],[2.54535,48.676354],[2.5457316,48.676027],[2.5477877,48.6766185],[2.5476321,48.6769128],[2.5473389,48.6782999],[2.5474775,48.67929],[2.5479188,48.6815033],[2.5476038,48.6815369],[2.5475717,48.6830599],[2.5479344,48.6829953],[2.5490239,48.6853963],[2.5500095,48.6884551],[2.5489016,48.6890908],[2.547772,48.6885626],[2.5465133,48.6881121],[2.5449649,48.687778],[2.544167,48.6874802],[2.5439042,48.687309],[2.5435333,48.6869733],[2.5433101,48.6867459],[2.5431892,48.6865589],[2.5420769,48.6855427],[2.5419918,48.6852345],[2.542024,48.6851305],[2.542331,48.6846798],[2.542339,48.6845723],[2.5422902,48.684518],[2.5417029,48.6842177],[2.5413733,48.683941],[2.5406633,48.6831911],[2.5404998,48.6829121],[2.540465,48.6827152],[2.5405956,48.6820751],[2.5406612,48.681416],[2.5407835,48.6810803],[2.5411621,48.6804708],[2.5422586,48.6793585]]],[[[2.5510985,48.673183],[2.5510427,48.6731974],[2.5510219,48.6729748],[2.5475159,48.6718617],[2.5478135,48.6712481],[2.5481539,48.6703754],[2.5482937,48.6701496],[2.5484405,48.6700062],[2.5487719,48.6697983],[2.5492043,48.6692518],[2.5495157,48.6690315],[2.549564,48.6690521],[2.5496074,48.6689977],[2.5496892,48.6690225],[2.5496879,48.6689341],[2.5496426,48.6689059],[2.5496871,48.6688471],[2.5502109,48.6690425],[2.5506622,48.6693631],[2.5509208,48.669602],[2.551128,48.6698704],[2.5514563,48.6704514],[2.5519338,48.6711696],[2.5520236,48.6715411],[2.5520443,48.6719184],[2.5521694,48.67233],[2.5521666,48.672889],[2.5510985,48.673183]]]]},"properties":{"code_section":"916310000G","code_commune":"91631","section_courte":"G"}},{"type":"Feature","geometry":{"type":"MultiPolygon","coordinates":[[[[2.5677251,48.6834367],[2.5677147,48.6834105],[2.5680852,48.6832766],[2.568592,48.6830148],[2.5690669,48.6826847],[2.5691844,48.6825269],[2.569196,48.6823441],[2.5691535,48.6822275],[2.5691843,48.6821799],[2.5703662,48.6816036],[2.5705499,48.6814442],[2.5705734,48.6812204],[2.5704248,48.6806909],[2.5704765,48.6806128],[2.5717384,48.6800445],[2.5723244,48.6798259],[2.5724586,48.6797983],[2.5731383,48.6797734],[2.5744704,48.6796353],[2.5748458,48.6797814],[2.5752062,48.679819],[2.5755541,48.6797773],[2.5761295,48.679563],[2.5780688,48.6795823],[2.5786913,48.6798748],[2.5789077,48.6798759],[2.5810134,48.6797282],[2.5814181,48.67967],[2.5816024,48.6796013],[2.582933,48.6796372],[2.5833503,48.6795917],[2.5850347,48.6792094],[2.5852827,48.6791246],[2.5799364,48.6863067],[2.5799118,48.6863435],[2.5800221,48.6864033],[2.569949,48.6864692],[2.5699438,48.6864506],[2.5689533,48.6865243],[2.5677251,48.6834367]]]]},"properties":{"code_section":"916310000V","code_commune":"91631","section_courte":"V"}},{"type":"Feature","geometry":{"type":"MultiPolygon","coordinates":[[[[2.5620648,48.6771288],[2.560542,48.6783005],[2.5603005,48.6784039],[2.5600451,48.6784655],[2.5597148,48.6783851],[2.5596539,48.6791627],[2.5595815,48.6793255],[2.5585471,48.680288],[2.5583332,48.6804298],[2.5581608,48.6804999],[2.5576985,48.6805608],[2.5570636,48.6809565],[2.5566823,48.6813079],[2.5561855,48.6816679],[2.5552906,48.6820992],[2.5548619,48.6812657],[2.5547007,48.6808247],[2.5546614,48.6806451],[2.5547284,48.6801882],[2.5547132,48.6799789],[2.554486,48.6791137],[2.5541292,48.6784237],[2.5556664,48.6777303],[2.5562585,48.6779302],[2.5566288,48.6779548],[2.5574351,48.6776618],[2.558131,48.6773163],[2.5572085,48.6766225],[2.5562525,48.6759602],[2.5563548,48.675916],[2.5567039,48.6759831],[2.5569959,48.6759401],[2.5571805,48.6758426],[2.5576532,48.675465],[2.5579016,48.6750178],[2.5579456,48.6748631],[2.5579637,48.674675],[2.557881,48.6744534],[2.5579537,48.6742817],[2.5581502,48.6740532],[2.5599043,48.6747265],[2.5599669,48.6746136],[2.5605139,48.6748801],[2.5595393,48.6758916],[2.5620648,48.6771288]]]]},"properties":{"code_section":"91631000AA","code_commune":"91631","section_courte":"AA"}},{"type":"Feature","geometry":{"type":"MultiPolygon","coordinates":[[[[2.5562525,48.6759602],[2.5572085,48.6766225],[2.558131,48.6773163],[2.5574351,48.6776618],[2.5566288,48.6779548],[2.5562585,48.6779302],[2.5556664,48.6777303],[2.5541292,48.6784237],[2.5540613,48.6784216],[2.5535411,48.6778285],[2.5532849,48.677234],[2.5533134,48.6772302],[2.55307,48.6767858],[2.5527993,48.676824],[2.5526765,48.6764454],[2.5526157,48.6764537],[2.552571,48.6762795],[2.552685,48.67626],[2.5522168,48.6758021],[2.5523269,48.6754409],[2.5490232,48.6759406],[2.549056,48.676036],[2.5480719,48.6761868],[2.547976,48.6762806],[2.5477877,48.6766185],[2.5457316,48.676027],[2.5464991,48.6752062],[2.5471304,48.6746185],[2.5473335,48.6743471],[2.5473545,48.6741499],[2.5470419,48.6739116],[2.5469837,48.6738089],[2.5469749,48.6735527],[2.5471616,48.6728066],[2.5473179,48.6724907],[2.5475159,48.6718617],[2.5510219,48.6729748],[2.5510427,48.6731974],[2.5521666,48.672889],[2.5522904,48.6735755],[2.5523988,48.673914],[2.552519,48.6740903],[2.5526914,48.6742351],[2.5549149,48.6756527],[2.5554571,48.6759012],[2.5558101,48.6760204],[2.5559389,48.6760472],[2.5561092,48.6760261],[2.5562525,48.6759602]]]]},"properties":{"code_section":"91631000AB","code_commune":"91631","section_courte":"AB"}},{"type":"Feature","geometry":{"type":"MultiPolygon","coordinates":[[[[2.5533138,48.6772864],[2.5535411,48.6778285],[2.5540613,48.6784216],[2.5541292,48.6784237],[2.554486,48.6791137],[2.5547336,48.6801042],[2.5546614,48.6806451],[2.5547007,48.6808247],[2.5548619,48.6812657],[2.5552906,48.6820992],[2.5545617,48.6824953],[2.5540098,48.682593],[2.5527998,48.6827379],[2.5522133,48.6829003],[2.5520911,48.6828765],[2.5515994,48.6826041],[2.5510905,48.6825347],[2.5501538,48.6824831],[2.5495661,48.68257],[2.5482647,48.6829391],[2.5475717,48.6830599],[2.5476038,48.6815369],[2.5479188,48.6815033],[2.5474775,48.67929],[2.5473389,48.6782999],[2.5476321,48.6769128],[2.5480462,48.6762072],[2.5483009,48.6761418],[2.549056,48.676036],[2.5490232,48.6759406],[2.5523269,48.6754409],[2.5522168,48.6758021],[2.552685,48.67626],[2.552571,48.6762795],[2.5526157,48.6764537],[2.5526765,48.6764454],[2.5527993,48.676824],[2.55307,48.6767858],[2.5533138,48.6772864]]]]},"properties":{"code_section":"91631000AC","code_commune":"91631","section_courte":"AC"}},{"type":"Feature","geometry":{"type":"MultiPolygon","coordinates":[[[[2.5537576,48.6876204],[2.553717,48.6876208],[2.5539633,48.6883186],[2.5514729,48.6884976],[2.5514601,48.6884553],[2.5509175,48.6884623],[2.5504068,48.6884421],[2.5504063,48.6884224],[2.5500119,48.6884628],[2.5490239,48.6853963],[2.5479344,48.6829953],[2.5482647,48.6829391],[2.5495661,48.68257],[2.5501538,48.6824831],[2.5510905,48.6825347],[2.5515994,48.6826041],[2.5521682,48.6829016],[2.5527998,48.6827379],[2.5535589,48.6826547],[2.5535762,48.6830623],[2.5537244,48.6836093],[2.5542979,48.6838706],[2.5545723,48.6840292],[2.5560949,48.6851081],[2.556645,48.6854184],[2.556999,48.685565],[2.5579045,48.685843],[2.5589683,48.6860539],[2.5585157,48.6865737],[2.5580381,48.687281],[2.557115,48.6888959],[2.5548279,48.6884593],[2.5550152,48.687611],[2.5537576,48.6876204]]]]},"properties":{"code_section":"91631000AD","code_commune":"91631","section_courte":"AD"}},{"type":"Feature","geometry":{"type":"MultiPolygon","coordinates":[[[[2.5633723,48.6783578],[2.5630369,48.6791552],[2.5638198,48.6791894],[2.563837,48.6793757],[2.5630598,48.6802668],[2.5625631,48.6813058],[2.562477,48.6820482],[2.5625464,48.6822743],[2.5626247,48.682386],[2.5631974,48.6828683],[2.5634562,48.6831577],[2.5635595,48.6833839],[2.5636266,48.6837517],[2.5637303,48.6839428],[2.5637051,48.6840238],[2.5621557,48.6838095],[2.5614378,48.6838172],[2.5607594,48.6838605],[2.5594507,48.6837504],[2.5593207,48.6837647],[2.5592998,48.6838088],[2.559416,48.6841525],[2.5594159,48.6849878],[2.5592384,48.6855805],[2.5590934,48.6858964],[2.5589683,48.6860539],[2.5579045,48.685843],[2.556999,48.685565],[2.556645,48.6854184],[2.5560949,48.6851081],[2.5545723,48.6840292],[2.5542979,48.6838706],[2.5537244,48.6836093],[2.5535762,48.6830623],[2.5535589,48.6826547],[2.5543448,48.6825436],[2.5546307,48.6824699],[2.5552906,48.6820992],[2.5561855,48.6816679],[2.5566823,48.6813079],[2.5570636,48.6809565],[2.5576985,48.6805608],[2.5581608,48.6804999],[2.5583968,48.6803893],[2.5585471,48.680288],[2.5595815,48.6793255],[2.5596539,48.6791627],[2.5597148,48.6783851],[2.5600451,48.6784655],[2.5603005,48.6784039],[2.560542,48.6783005],[2.5617307,48.6773746],[2.5633723,48.6783578]]]]},"properties":{"code_section":"91631000AE","code_commune":"91631","section_courte":"AE"}},{"type":"Feature","geometry":{"type":"MultiPolygon","coordinates":[[[[2.5717602,48.6796659],[2.5724586,48.6797983],[2.5717384,48.6800445],[2.5704765,48.6806128],[2.5704248,48.6806909],[2.5705734,48.6812204],[2.5705499,48.6814442],[2.5703662,48.6816036],[2.5691843,48.6821799],[2.5691535,48.6822275],[2.5692,48.6824302],[2.5691353,48.6826051],[2.5688713,48.6828467],[2.568592,48.6830148],[2.5678908,48.6833553],[2.5668186,48.6836376],[2.5661133,48.6838578],[2.5651905,48.6839873],[2.5640477,48.6840833],[2.5637051,48.6840238],[2.5637303,48.6839428],[2.5636266,48.6837517],[2.5635595,48.6833839],[2.5634562,48.6831577],[2.5631974,48.6828683],[2.5626247,48.682386],[2.5625464,48.6822743],[2.562477,48.6820482],[2.5625336,48.6814078],[2.5627383,48.6809305],[2.5630899,48.6802171],[2.563837,48.6793757],[2.5638198,48.6791894],[2.5646137,48.6789474],[2.5656218,48.6788863],[2.5675604,48.6788575],[2.5681486,48.6787748],[2.5682021,48.6787121],[2.5686325,48.6785176],[2.5684452,48.6783477],[2.5685217,48.6783168],[2.5677139,48.6775651],[2.5680299,48.677351],[2.5681611,48.6774714],[2.5688635,48.6771673],[2.5696064,48.6778854],[2.5697236,48.6778409],[2.5700922,48.6782897],[2.5704814,48.6781574],[2.5712487,48.6790544],[2.5714513,48.6790062],[2.5717602,48.6796659]]]]},"properties":{"code_section":"91631000AH","code_commune":"91631","section_courte":"AH"}},{"type":"Feature","geometry":{"type":"MultiPolygon","coordinates":[[[[2.5753169,48.6918804],[2.5717937,48.6920291],[2.5717563,48.6920031],[2.5697272,48.6916432],[2.5697018,48.6907513],[2.5682831,48.6904153],[2.5676916,48.6889001],[2.5718378,48.6885234],[2.5715914,48.6877968],[2.5703702,48.6880137],[2.569949,48.6864692],[2.5800221,48.6864033],[2.5812056,48.6870346],[2.5817239,48.6889957],[2.5819347,48.6895357],[2.5795811,48.6900152],[2.5778336,48.6904655],[2.5767724,48.6911949],[2.5756304,48.6915048],[2.5753169,48.6918804]]]]},"properties":{"code_section":"91631000YA","code_commune":"91631","section_courte":"YA"}}]}