{"type":"FeatureCollection","features":[{"type":"Feature","geometry":{"type":"MultiPolygon","coordinates":[[[[2.1984635,48.7266771],[2.1978932,48.7268503],[2.1971171,48.72703],[2.1969029,48.7270369],[2.1953466,48.726932],[2.1948661,48.7270259],[2.1942546,48.7272473],[2.1940649,48.7273472],[2.1921728,48.7287311],[2.1914312,48.7291645],[2.1890202,48.7299724],[2.1874367,48.7307085],[2.1861808,48.7308871],[2.1850812,48.7309855],[2.1847457,48.7309936],[2.1844332,48.7309592],[2.1829769,48.730591],[2.1827498,48.729178],[2.1826472,48.7292078],[2.1817813,48.7280602],[2.1821468,48.727954],[2.1826442,48.7277475],[2.1846122,48.7267593],[2.1852087,48.7265728],[2.1870134,48.7261084],[2.1874908,48.7259217],[2.1885205,48.7254037],[2.1888252,48.7250413],[2.1892737,48.7247221],[2.191397,48.7235523],[2.1925953,48.7229307],[2.1936182,48.722452],[2.1940897,48.7222815],[2.1943291,48.7222643],[2.1955973,48.7217663],[2.19601,48.7216518],[2.1964671,48.7215768],[2.1990951,48.7214419],[2.2014821,48.7213544],[2.2027042,48.7212738],[2.2031614,48.721202],[2.2036684,48.7210546],[2.2057832,48.7243749],[2.2077793,48.7256573],[2.208384,48.7262364],[2.2088843,48.7268581],[2.2064267,48.7269382],[2.2050424,48.7268225],[2.2038426,48.7266761],[2.2029593,48.7270781],[2.2020338,48.727678],[2.201358,48.7271546],[2.2011851,48.72709],[2.2002952,48.7269205],[2.1984635,48.7266771]]]]},"properties":{"code_section":"916350000Y","code_commune":"91635","section_courte":"Y"}},{"type":"Feature","geometry":{"type":"MultiPolygon","coordinates":[[[[2.1836132,48.7311692],[2.1833273,48.7306705],[2.183796,48.7308151],[2.1844332,48.7309592],[2.1847457,48.7309936],[2.1861808,48.7308871],[2.1874367,48.7307085],[2.1875983,48.7306523],[2.1890202,48.7299724],[2.1914312,48.7291645],[2.1921728,48.7287311],[2.1940649,48.7273472],[2.1942546,48.7272473],[2.1948661,48.7270259],[2.1953466,48.726932],[2.1969029,48.7270369],[2.1971171,48.72703],[2.1978932,48.7268503],[2.1984635,48.7266771],[2.1985546,48.7266767],[2.2007415,48.7269911],[2.201358,48.7271546],[2.2020338,48.727678],[2.2026793,48.7280982],[2.2023365,48.7282229],[2.2011712,48.7284553],[2.1992852,48.7289746],[2.1975758,48.7290858],[2.1972665,48.7291548],[2.1970305,48.7293284],[2.1968589,48.7295501],[2.1963599,48.7306648],[2.194954,48.7321641],[2.1954424,48.7323001],[2.1962741,48.732645],[2.1966873,48.7338143],[2.1967155,48.7340484],[2.196607,48.7341741],[2.1957222,48.7345734],[2.1953475,48.7349362],[2.1952949,48.7353971],[2.1953665,48.7357604],[2.194815,48.7361555],[2.1939353,48.7364927],[2.1931874,48.7366929],[2.1927829,48.7368496],[2.1922509,48.736991],[2.1921685,48.7370452],[2.1917488,48.7371708],[2.1916513,48.7372257],[2.1915229,48.7372427],[2.1911996,48.7373551],[2.1910749,48.7374598],[2.1909219,48.7376997],[2.1908121,48.7377785],[2.1906797,48.737813],[2.1901875,48.738079],[2.1895804,48.7381293],[2.1893358,48.738093],[2.1891937,48.73802],[2.1879951,48.7382983],[2.1878655,48.7383647],[2.187278,48.7378077],[2.1865418,48.7371905],[2.1859491,48.7368425],[2.1858192,48.7336559],[2.1851043,48.7326957],[2.1848851,48.7325724],[2.1839052,48.7316811],[2.1837805,48.7315387],[2.1836132,48.7311692]]]]},"properties":{"code_section":"916350000Z","code_commune":"91635","section_courte":"Z"}},{"type":"Feature","geometry":{"type":"MultiPolygon","coordinates":[[[[2.1919168,48.7385902],[2.1907926,48.7391979],[2.1904144,48.7393373],[2.1903049,48.7393429],[2.1900798,48.7391441],[2.1894498,48.7388695],[2.1888591,48.7386398],[2.1878655,48.7383647],[2.1879951,48.7382983],[2.1891937,48.73802],[2.1893358,48.738093],[2.1895804,48.7381293],[2.1902155,48.7380724],[2.1909219,48.7376997],[2.1910749,48.7374598],[2.1911996,48.7373551],[2.1915229,48.7372427],[2.1916513,48.7372257],[2.1917488,48.7371708],[2.1921685,48.7370452],[2.1922509,48.736991],[2.1927829,48.7368496],[2.1935751,48.7365726],[2.1939353,48.7364927],[2.1942447,48.7363591],[2.1945498,48.7362733],[2.194815,48.7361555],[2.1952191,48.7358482],[2.1955347,48.7356847],[2.1969619,48.7352276],[2.1983237,48.7346139],[2.1984416,48.7346178],[2.1986774,48.7354511],[2.1982403,48.7355076],[2.1982161,48.7354667],[2.1977634,48.7356465],[2.1980495,48.7364271],[2.1983498,48.73653],[2.1985941,48.7372175],[2.1955155,48.7374321],[2.1939865,48.7378727],[2.1919168,48.7385902]]]]},"properties":{"code_section":"91635000AB","code_commune":"91635","section_courte":"AB"}},{"type":"Feature","geometry":{"type":"MultiPolygon","coordinates":[[[[2.1983498,48.73653],[2.1980495,48.7364271],[2.1977634,48.7356465],[2.1982161,48.7354667],[2.1982403,48.7355076],[2.1986774,48.7354511],[2.1984416,48.7346178],[2.1987463,48.734496],[2.2007783,48.7340946],[2.2013969,48.7339123],[2.2017847,48.7336665],[2.2021826,48.7332696],[2.202283,48.7331155],[2.2035504,48.7332851],[2.2040416,48.7334288],[2.2045878,48.7336826],[2.2047406,48.7330432],[2.2046777,48.732549],[2.2047111,48.732377],[2.2049879,48.7321445],[2.2050865,48.7320149],[2.2051301,48.7317549],[2.2058392,48.7320545],[2.2060495,48.7321753],[2.2064833,48.7325457],[2.2065569,48.732671],[2.2066214,48.7329786],[2.2065966,48.7331432],[2.206215,48.733946],[2.2061261,48.7342921],[2.2070164,48.7341834],[2.2072489,48.7342007],[2.2075935,48.7342883],[2.2088199,48.734746],[2.2084432,48.7351154],[2.208039,48.7353059],[2.2073176,48.7355438],[2.2073989,48.7358372],[2.2073977,48.7363411],[2.2070026,48.7364314],[2.2069221,48.7365344],[2.2068511,48.7368627],[2.2056963,48.7368419],[2.2045974,48.7368826],[2.2036404,48.7370156],[2.2032951,48.7370342],[2.2019764,48.736986],[2.2008818,48.737018],[2.1985941,48.7372175],[2.1983498,48.73653]]]]},"properties":{"code_section":"91635000AC","code_commune":"91635","section_courte":"AC"}},{"type":"Feature","geometry":{"type":"MultiPolygon","coordinates":[[[[2.2167601,48.737333],[2.2167842,48.7373456],[2.2166728,48.7376144],[2.216926,48.7377317],[2.2169091,48.7380069],[2.2149251,48.7383265],[2.2149508,48.738348],[2.2147423,48.7387209],[2.2137652,48.7384308],[2.2128044,48.7380451],[2.2119368,48.7378244],[2.211233,48.7377018],[2.2100417,48.7372834],[2.2096806,48.7372059],[2.2088962,48.7371673],[2.2082194,48.7370608],[2.2075253,48.7369028],[2.2068511,48.7368627],[2.2069221,48.7365344],[2.2070026,48.7364314],[2.2073977,48.7363411],[2.2073989,48.7358372],[2.2073176,48.7355438],[2.208039,48.7353059],[2.2084432,48.7351154],[2.2088199,48.734746],[2.2075935,48.7342883],[2.2077428,48.7341243],[2.207932,48.7340023],[2.2095436,48.7335398],[2.2106859,48.7330899],[2.210989,48.7330161],[2.2114545,48.732995],[2.2116019,48.7330265],[2.2122828,48.733475],[2.2138616,48.7338726],[2.2141467,48.7339176],[2.2148067,48.7341185],[2.2151278,48.7341701],[2.2152086,48.7342757],[2.2153695,48.7343461],[2.2153019,48.7344531],[2.2152886,48.7345712],[2.2153733,48.7346173],[2.215365,48.7346886],[2.2154211,48.7346961],[2.2155854,48.734637],[2.21564,48.7346614],[2.2156531,48.7346404],[2.2158594,48.7347743],[2.2159413,48.7347165],[2.2160247,48.7347523],[2.216084,48.7347192],[2.2160909,48.7347837],[2.2162206,48.7347509],[2.2162531,48.7347698],[2.2165441,48.7354581],[2.2165915,48.7354974],[2.2174852,48.735644],[2.2172919,48.7361471],[2.2175897,48.7363141],[2.2167601,48.737333]]]]},"properties":{"code_section":"91635000AD","code_commune":"91635","section_courte":"AD"}},{"type":"Feature","geometry":{"type":"MultiPolygon","coordinates":[[[[2.2063407,48.7323209],[2.2065001,48.7323216],[2.2068546,48.7322274],[2.2070683,48.7322732],[2.2065146,48.7316596],[2.2068306,48.7315052],[2.2065246,48.7310396],[2.2066543,48.7309752],[2.2069603,48.7307087],[2.207349,48.7299129],[2.2079899,48.730208],[2.2084411,48.7304875],[2.2086725,48.7306495],[2.209117,48.7310644],[2.209433,48.7312797],[2.2097527,48.7313542],[2.2107832,48.7312816],[2.2110929,48.7312951],[2.2112298,48.7313478],[2.2114487,48.7316139],[2.2134324,48.7306351],[2.2134948,48.7307346],[2.21421,48.7312909],[2.2152053,48.7319882],[2.2153391,48.7327189],[2.2151724,48.733687],[2.2149815,48.7341433],[2.2122828,48.733475],[2.2116019,48.7330265],[2.2114545,48.732995],[2.210989,48.7330161],[2.2106859,48.7330899],[2.2095436,48.7335398],[2.207932,48.7340023],[2.2077428,48.7341243],[2.2075935,48.7342883],[2.2072489,48.7342007],[2.2070164,48.7341834],[2.2061261,48.7342921],[2.206215,48.733946],[2.2065029,48.7333622],[2.2066231,48.7330214],[2.2065569,48.732671],[2.2064833,48.7325457],[2.2062789,48.7323513],[2.2063407,48.7323209]]]]},"properties":{"code_section":"91635000AE","code_commune":"91635","section_courte":"AE"}},{"type":"Feature","geometry":{"type":"MultiPolygon","coordinates":[[[[2.2066578,48.7322763],[2.2062789,48.7323513],[2.2058552,48.7320622],[2.2051301,48.7317549],[2.2043374,48.73075],[2.204286,48.7306381],[2.2043085,48.7305643],[2.2047301,48.7302084],[2.2053591,48.7297611],[2.2054099,48.7296218],[2.2048625,48.7294575],[2.2047138,48.7293601],[2.2045891,48.7290719],[2.20471,48.7288217],[2.2027018,48.728109],[2.2020338,48.727678],[2.2029593,48.7270781],[2.2038426,48.7266761],[2.2050424,48.7268225],[2.2064267,48.7269382],[2.2088843,48.7268581],[2.2093191,48.7273244],[2.2094689,48.727378],[2.2101102,48.7274422],[2.210566,48.7275908],[2.2115103,48.7282241],[2.2123749,48.7285992],[2.2131411,48.7290848],[2.2133174,48.7292351],[2.2134448,48.7293869],[2.2135728,48.7296324],[2.213604,48.7299025],[2.2134336,48.7304182],[2.2134324,48.7306351],[2.2114487,48.7316139],[2.2112298,48.7313478],[2.2110929,48.7312951],[2.2107832,48.7312816],[2.2097527,48.7313542],[2.209433,48.7312797],[2.209117,48.7310644],[2.2086725,48.7306495],[2.2084411,48.7304875],[2.2079899,48.730208],[2.207349,48.7299129],[2.2069603,48.7307087],[2.2066543,48.7309752],[2.2065246,48.7310396],[2.2068306,48.7315052],[2.2065146,48.7316596],[2.2070683,48.7322732],[2.2068969,48.7322258],[2.2066578,48.7322763]]]]},"properties":{"code_section":"91635000AH","code_commune":"91635","section_courte":"AH"}},{"type":"Feature","geometry":{"type":"MultiPolygon","coordinates":[[[[2.1962741,48.732645],[2.1954424,48.7323001],[2.194954,48.7321641],[2.1963599,48.7306648],[2.1968589,48.7295501],[2.1970305,48.7293284],[2.1972665,48.7291548],[2.1976194,48.7290792],[2.1992852,48.7289746],[2.2011712,48.7284553],[2.2023365,48.7282229],[2.2026793,48.7280982],[2.20471,48.7288217],[2.2045891,48.7290719],[2.2047138,48.7293601],[2.2048625,48.7294575],[2.2054099,48.7296218],[2.2053591,48.7297611],[2.2047301,48.7302084],[2.2043085,48.7305643],[2.204286,48.7306381],[2.2043374,48.73075],[2.2051301,48.7317549],[2.2050865,48.7320149],[2.2049879,48.7321445],[2.2047111,48.732377],[2.2046777,48.732549],[2.2047406,48.7330432],[2.2045878,48.7336826],[2.2040416,48.7334288],[2.2035504,48.7332851],[2.202283,48.7331155],[2.2021826,48.7332696],[2.2017847,48.7336665],[2.2013969,48.7339123],[2.2007783,48.7340946],[2.1990011,48.7344403],[2.1987463,48.734496],[2.1984416,48.7346178],[2.1983237,48.7346139],[2.1970112,48.7352094],[2.1959532,48.7355434],[2.1953665,48.7357604],[2.1952949,48.7353971],[2.1953475,48.7349362],[2.1957222,48.7345734],[2.196607,48.7341741],[2.1967155,48.7340484],[2.1966873,48.7338143],[2.1962741,48.732645]]]]},"properties":{"code_section":"91635000AI","code_commune":"91635","section_courte":"AI"}}]}