{"type":"FeatureCollection","features":[{"type":"Feature","geometry":{"type":"MultiPolygon","coordinates":[[[[2.2688701,48.7613349],[2.2690191,48.7618929],[2.2689632,48.7619898],[2.26887,48.7620315],[2.2671943,48.7623463],[2.2669017,48.7621756],[2.2656468,48.7616912],[2.2649263,48.7614539],[2.2624008,48.7600933],[2.2620278,48.7598033],[2.2595645,48.760972],[2.2580155,48.76122],[2.2554437,48.7614595],[2.2552361,48.7614611],[2.2550532,48.7614181],[2.2544558,48.7611397],[2.2533442,48.7610741],[2.2517355,48.7607552],[2.2514567,48.7607335],[2.2502804,48.7613202],[2.2502084,48.7614124],[2.2492499,48.7617995],[2.2469832,48.7608341],[2.2452509,48.762634],[2.2407353,48.7637331],[2.2385826,48.7664702],[2.2330668,48.7661974],[2.2326422,48.7655745],[2.2323074,48.7652453],[2.2317733,48.7649305],[2.2310493,48.7645779],[2.2306013,48.7642969],[2.2301223,48.7639413],[2.2296527,48.7631831],[2.227785,48.7622513],[2.2266558,48.7613987],[2.2257538,48.7608014],[2.225875,48.7606683],[2.2256587,48.7604751],[2.2252693,48.7602645],[2.2250701,48.7600331],[2.224921,48.7600944],[2.2244076,48.7595051],[2.2241236,48.7591062],[2.2239304,48.7582423],[2.2236507,48.7575573],[2.2235701,48.757251],[2.2236505,48.7568449],[2.2239548,48.7562368],[2.2236199,48.7554734],[2.2236255,48.7552652],[2.2242272,48.7546118],[2.2245245,48.7535587],[2.225192,48.7521482],[2.2251156,48.7519581],[2.2244218,48.751081],[2.2251775,48.751114],[2.2253787,48.7510701],[2.2255023,48.7510077],[2.22641,48.7500689],[2.2267409,48.7498019],[2.2269253,48.749744],[2.2282047,48.7495959],[2.2284622,48.7494841],[2.2287478,48.7492594],[2.2275987,48.7484537],[2.2280345,48.748161],[2.2279363,48.7480877],[2.2302555,48.74715],[2.2302536,48.7468196],[2.2303045,48.7465761],[2.2302649,48.74641],[2.2299286,48.7461689],[2.2288324,48.745605],[2.229155,48.7455688],[2.2293481,48.745518],[2.2294388,48.7454556],[2.2295642,48.7451687],[2.2300141,48.744566],[2.2303921,48.7443348],[2.2305166,48.7437881],[2.2304428,48.7436059],[2.2305531,48.7431186],[2.2307656,48.7426663],[2.2310058,48.7424851],[2.2309986,48.7424259],[2.2308614,48.7422591],[2.2308733,48.742163],[2.2311059,48.7420935],[2.2311878,48.7419229],[2.2313661,48.7417897],[2.2317753,48.7416143],[2.2326931,48.7417164],[2.2328628,48.7416634],[2.2330729,48.7417172],[2.2334165,48.741695],[2.2336766,48.7417105],[2.2339917,48.7416445],[2.2343017,48.7417339],[2.2347441,48.741737],[2.2350489,48.7416517],[2.2352124,48.7416632],[2.2356341,48.7414882],[2.2359144,48.7414117],[2.2361545,48.7412456],[2.2366081,48.7411008],[2.236785,48.7413069],[2.2370074,48.7418364],[2.2371604,48.7417437],[2.2373253,48.7419278],[2.2375427,48.741819],[2.2382726,48.7423576],[2.2384527,48.7422731],[2.239228,48.7424271],[2.2402574,48.7422987],[2.240271,48.7423786],[2.2403758,48.7423755],[2.2403818,48.7426153],[2.241023,48.7425233],[2.241553,48.7423906],[2.242071,48.74234],[2.2422912,48.7427279],[2.24331,48.7426886],[2.2436533,48.7424713],[2.2441697,48.7424527],[2.2449712,48.7423251],[2.2449678,48.7420209],[2.2451504,48.741758],[2.2451971,48.7415709],[2.245807,48.7415459],[2.2458249,48.7415946],[2.2458673,48.7415949],[2.2459332,48.7416601],[2.2467196,48.7415881],[2.2467182,48.7415487],[2.2470206,48.7415345],[2.247106,48.7415005],[2.247126,48.741573],[2.2476704,48.7415598],[2.2478815,48.7411153],[2.2486212,48.7412898],[2.2483505,48.7416187],[2.2481534,48.7415597],[2.2477942,48.7421724],[2.2476548,48.7421355],[2.2476867,48.7425344],[2.2494003,48.7448201],[2.2495864,48.7449961],[2.2498733,48.7451829],[2.2501195,48.7453962],[2.2504061,48.745569],[2.2515331,48.7461596],[2.2514098,48.7463451],[2.248211,48.7458743],[2.2482527,48.7460673],[2.2481226,48.7472462],[2.2492587,48.7484126],[2.2494284,48.7484424],[2.2520921,48.7482171],[2.2520884,48.7482619],[2.2532483,48.7481564],[2.2532747,48.7481918],[2.2526581,48.7483571],[2.2523654,48.7484704],[2.2529248,48.7489297],[2.2518514,48.7492403],[2.251848,48.7495526],[2.2523037,48.7501954],[2.252067,48.7503015],[2.2520375,48.7503507],[2.2517295,48.7520707],[2.2531176,48.7520766],[2.2535051,48.7521433],[2.2536171,48.7520694],[2.2535407,48.7519341],[2.2535934,48.7514301],[2.2539926,48.7511403],[2.2548985,48.7514909],[2.2549707,48.7514406],[2.2552832,48.7513844],[2.2554843,48.7513815],[2.2555728,48.7513392],[2.2562187,48.7512573],[2.2570382,48.751216],[2.2573444,48.7510772],[2.2575547,48.7509111],[2.2575852,48.7508289],[2.2577214,48.7508228],[2.2581255,48.7509932],[2.2580182,48.7510992],[2.2579005,48.7513227],[2.2578648,48.7517719],[2.2579367,48.7517229],[2.2582423,48.7516854],[2.259903,48.7517221],[2.2606423,48.7523789],[2.2599451,48.7527215],[2.2605412,48.75322],[2.2611806,48.7530002],[2.2612255,48.7528852],[2.2620372,48.7533844],[2.2621839,48.7533057],[2.262547,48.7535862],[2.2626932,48.7537943],[2.2629831,48.7544144],[2.2635677,48.7554407],[2.264928,48.7570387],[2.2658088,48.7576843],[2.2674088,48.7590561],[2.2678121,48.75948],[2.2682745,48.7603721],[2.2685429,48.7606719],[2.2687044,48.7607004],[2.2687599,48.76105],[2.2688701,48.7613349]]]]},"properties":{"code_section":"916450000A","code_commune":"91645","section_courte":"A"}},{"type":"Feature","geometry":{"type":"MultiPolygon","coordinates":[[[[2.2705923,48.7596675],[2.2710067,48.760693],[2.2687044,48.7607004],[2.2685429,48.7606719],[2.2682745,48.7603721],[2.2678121,48.75948],[2.2674088,48.7590561],[2.2657464,48.7576325],[2.264928,48.7570387],[2.2638692,48.7557671],[2.2645382,48.7555563],[2.2675694,48.7547767],[2.2682723,48.7554589],[2.2684875,48.7557658],[2.2686919,48.7561616],[2.2691703,48.7573102],[2.2702913,48.7591008],[2.2705923,48.7596675]]]]},"properties":{"code_section":"91645000AA","code_commune":"91645","section_courte":"AA"}},{"type":"Feature","geometry":{"type":"MultiPolygon","coordinates":[[[[2.2729474,48.757394],[2.271387,48.7577439],[2.271044,48.7577947],[2.2704185,48.7578123],[2.2693933,48.7576348],[2.2691703,48.7573102],[2.2686919,48.7561616],[2.2684875,48.7557658],[2.2682723,48.7554589],[2.2675694,48.7547767],[2.2665891,48.7539311],[2.2663697,48.7536947],[2.2662308,48.7533867],[2.2665234,48.7533676],[2.2669735,48.753446],[2.2674314,48.7535701],[2.2679344,48.7537651],[2.2681059,48.7536572],[2.2685875,48.7539256],[2.2695958,48.7546676],[2.2701669,48.7538506],[2.2705351,48.7531982],[2.2711839,48.7523316],[2.2723007,48.7522884],[2.2726595,48.7529343],[2.2734351,48.7537218],[2.2747693,48.7549091],[2.2761326,48.7566346],[2.2757087,48.7567743],[2.2729474,48.757394]]]]},"properties":{"code_section":"91645000AB","code_commune":"91645","section_courte":"AB"}},{"type":"Feature","geometry":{"type":"MultiPolygon","coordinates":[[[[2.2645382,48.7555563],[2.2638692,48.7557671],[2.2635677,48.7554407],[2.2629831,48.7544144],[2.2626932,48.7537943],[2.262547,48.7535862],[2.2621839,48.7533057],[2.2620372,48.7533844],[2.2612255,48.7528852],[2.2611806,48.7530002],[2.2605412,48.75322],[2.2599451,48.7527215],[2.2606423,48.7523789],[2.259903,48.7517221],[2.260804,48.7516894],[2.2616688,48.7515465],[2.2625322,48.7514463],[2.2629838,48.7513242],[2.2634181,48.7511647],[2.2651906,48.7504429],[2.2664778,48.7500523],[2.2672029,48.7498677],[2.2672923,48.7501225],[2.2675479,48.7505405],[2.2686516,48.7514557],[2.2704451,48.7506271],[2.2711645,48.7512413],[2.2711839,48.7523316],[2.2705351,48.7531982],[2.2701669,48.7538506],[2.2695958,48.7546676],[2.2685875,48.7539256],[2.2681059,48.7536572],[2.2679344,48.7537651],[2.2674314,48.7535701],[2.2669735,48.753446],[2.2665234,48.7533676],[2.266271,48.7533728],[2.2662308,48.7533867],[2.2662605,48.7535071],[2.2665318,48.7538721],[2.2675694,48.7547767],[2.2645382,48.7555563]]]]},"properties":{"code_section":"91645000AC","code_commune":"91645","section_courte":"AC"}},{"type":"Feature","geometry":{"type":"MultiPolygon","coordinates":[[[[2.2686516,48.7514557],[2.2675479,48.7505405],[2.2672923,48.7501225],[2.2672029,48.7498677],[2.2664778,48.7500523],[2.2651906,48.7504429],[2.2645919,48.7506695],[2.264297,48.7501504],[2.264034,48.7497775],[2.2631272,48.7487278],[2.2617481,48.7475212],[2.2618101,48.7474164],[2.2627037,48.7475511],[2.2644816,48.7479378],[2.2647608,48.747968],[2.265768,48.7476419],[2.2656412,48.747254],[2.2658622,48.7471486],[2.2662273,48.7470344],[2.267747,48.7468035],[2.2691545,48.7461912],[2.2696385,48.7460196],[2.2702269,48.7459138],[2.27045,48.7459422],[2.271679,48.7464351],[2.2725192,48.7464656],[2.2732767,48.7465392],[2.274981,48.746816],[2.2736519,48.749283],[2.273201,48.7495538],[2.2720487,48.7501614],[2.272107,48.7506993],[2.2720082,48.7507056],[2.271899,48.7507723],[2.2710621,48.7508069],[2.2707114,48.7507708],[2.2706616,48.750801],[2.2704451,48.7506271],[2.2686516,48.7514557]]]]},"properties":{"code_section":"91645000AD","code_commune":"91645","section_courte":"AD"}},{"type":"Feature","geometry":{"type":"MultiPolygon","coordinates":[[[[2.2738904,48.7497038],[2.2752056,48.749994],[2.2773912,48.7503043],[2.2790503,48.7505989],[2.2797562,48.7508275],[2.2811383,48.7514629],[2.2808238,48.7518166],[2.2804901,48.7522924],[2.2797688,48.7528882],[2.2796181,48.7530879],[2.2785842,48.7534816],[2.2782303,48.753562],[2.2777833,48.7537157],[2.2772682,48.753822],[2.2773773,48.7540012],[2.2768062,48.7541705],[2.2760794,48.7544705],[2.2755743,48.7547648],[2.2754469,48.7549261],[2.2752403,48.7550686],[2.2749826,48.7551825],[2.2747693,48.7549091],[2.2734351,48.7537218],[2.2726595,48.7529343],[2.2723007,48.7522884],[2.2711839,48.7523316],[2.2711645,48.7512413],[2.2706616,48.750801],[2.2707114,48.7507708],[2.2710621,48.7508069],[2.2719466,48.7507625],[2.2720082,48.7507056],[2.272107,48.7506993],[2.2720487,48.7501614],[2.273201,48.7495538],[2.2738904,48.7497038]]]]},"properties":{"code_section":"91645000AE","code_commune":"91645","section_courte":"AE"}},{"type":"Feature","geometry":{"type":"MultiPolygon","coordinates":[[[[2.2758835,48.7500863],[2.2752056,48.749994],[2.273201,48.7495538],[2.2736519,48.749283],[2.274981,48.746816],[2.2761995,48.7469317],[2.2761766,48.7469735],[2.2771592,48.7470759],[2.2771434,48.7471112],[2.277301,48.7471443],[2.2773269,48.7470984],[2.2781552,48.7471789],[2.2781754,48.7471515],[2.2783976,48.7471899],[2.2785234,48.7472631],[2.2807389,48.74785],[2.2804298,48.7480756],[2.2805484,48.7481922],[2.2804615,48.7483171],[2.2810354,48.7493037],[2.2819008,48.7505556],[2.2820073,48.7507835],[2.2814956,48.7510672],[2.2811383,48.7514629],[2.2797562,48.7508275],[2.2792195,48.7506416],[2.2786367,48.7505102],[2.2758835,48.7500863]]]]},"properties":{"code_section":"91645000AH","code_commune":"91645","section_courte":"AH"}},{"type":"Feature","geometry":{"type":"MultiPolygon","coordinates":[[[[2.2742247,48.7456465],[2.2757987,48.7442022],[2.2759234,48.7442134],[2.2769527,48.7446537],[2.2769699,48.7446031],[2.2773717,48.7447049],[2.2776471,48.7449692],[2.2778887,48.7449562],[2.2781238,48.7448896],[2.2783717,48.7447439],[2.2785225,48.7449153],[2.278725,48.7450625],[2.2788665,48.7451028],[2.2789083,48.745158],[2.2792196,48.7451988],[2.2794552,48.7451429],[2.2794884,48.7451823],[2.2798848,48.7449981],[2.280248,48.7446938],[2.2806296,48.7448732],[2.28101,48.7445191],[2.280863,48.7444529],[2.2811221,48.7442031],[2.2809224,48.744094],[2.2811986,48.7438424],[2.2813535,48.7438387],[2.2814458,48.7438932],[2.2814924,48.7440284],[2.28182,48.7442749],[2.2819783,48.7443651],[2.2823101,48.7444864],[2.2823872,48.7446384],[2.282473,48.7446566],[2.2827406,48.7446372],[2.282996,48.7448812],[2.2833778,48.7448931],[2.2835026,48.7450195],[2.2840388,48.7452128],[2.2846397,48.7454965],[2.2848494,48.7456274],[2.2840895,48.7461431],[2.2848929,48.7471504],[2.2853692,48.7475038],[2.2852089,48.7476013],[2.284824,48.7480154],[2.2847034,48.748074],[2.2843013,48.7483856],[2.2838541,48.7487498],[2.2837468,48.7488813],[2.2836172,48.7489549],[2.2835195,48.7490709],[2.2833561,48.7491249],[2.2831603,48.7493244],[2.2831612,48.7493673],[2.2830536,48.7493985],[2.2830565,48.7494691],[2.2827809,48.7495813],[2.2827321,48.7496591],[2.2826534,48.7496942],[2.2822722,48.7500853],[2.2819816,48.7505308],[2.2820406,48.7507173],[2.2820073,48.7507835],[2.2819008,48.7505556],[2.2810354,48.7493037],[2.2804615,48.7483171],[2.2805484,48.7481922],[2.2804298,48.7480756],[2.2807389,48.74785],[2.2785234,48.7472631],[2.2783976,48.7471899],[2.2781754,48.7471515],[2.2781552,48.7471789],[2.2773269,48.7470984],[2.277301,48.7471443],[2.2771434,48.7471112],[2.2771592,48.7470759],[2.2761766,48.7469735],[2.2761995,48.7469317],[2.274981,48.746816],[2.2736072,48.7465825],[2.2742247,48.7456465]]]]},"properties":{"code_section":"91645000AI","code_commune":"91645","section_courte":"AI"}},{"type":"Feature","geometry":{"type":"MultiPolygon","coordinates":[[[[2.2742247,48.7456465],[2.2736072,48.7465825],[2.2725192,48.7464656],[2.271679,48.7464351],[2.27045,48.7459422],[2.2702945,48.7459179],[2.2701424,48.7459206],[2.2696385,48.7460196],[2.2692588,48.7453151],[2.2693374,48.7452005],[2.2706921,48.744804],[2.2710423,48.7446532],[2.2711803,48.7445536],[2.274429,48.7409992],[2.2745425,48.7407049],[2.2749225,48.7407316],[2.2750739,48.7408029],[2.2756674,48.7406766],[2.2759241,48.7406747],[2.2761828,48.7407473],[2.2763292,48.7408539],[2.2768741,48.7416707],[2.2769907,48.7417127],[2.2772756,48.7417367],[2.2774179,48.741894],[2.2779786,48.7421513],[2.2783322,48.7423718],[2.2787592,48.74241],[2.2787265,48.7425316],[2.2787574,48.7426068],[2.2788232,48.7426477],[2.279015,48.7426862],[2.2791304,48.7427918],[2.2793659,48.7427476],[2.2794037,48.7427841],[2.2793343,48.7429812],[2.2793547,48.7430239],[2.2794782,48.7430684],[2.2796989,48.7430723],[2.2796976,48.7431551],[2.2798003,48.7432269],[2.2798634,48.7432237],[2.279922,48.7431706],[2.2800003,48.7431919],[2.280114,48.7433306],[2.2804224,48.7435774],[2.2806318,48.7436196],[2.2807866,48.7436998],[2.28107,48.743671],[2.2811039,48.7438175],[2.2811986,48.7438424],[2.2809224,48.744094],[2.2811221,48.7442031],[2.280863,48.7444529],[2.28101,48.7445191],[2.2806296,48.7448732],[2.280248,48.7446938],[2.280075,48.7448579],[2.2797728,48.7450623],[2.2794884,48.7451823],[2.2794552,48.7451429],[2.2792196,48.7451988],[2.2789083,48.745158],[2.2788665,48.7451028],[2.278725,48.7450625],[2.2785225,48.7449153],[2.2783717,48.7447439],[2.2781238,48.7448896],[2.2778887,48.7449562],[2.2776471,48.7449692],[2.2773717,48.7447049],[2.2769699,48.7446031],[2.2769527,48.7446537],[2.2759234,48.7442134],[2.2757987,48.7442022],[2.2742247,48.7456465]]]]},"properties":{"code_section":"91645000AK","code_commune":"91645","section_courte":"AK"}},{"type":"Feature","geometry":{"type":"MultiPolygon","coordinates":[[[[2.2679671,48.7436483],[2.2672301,48.7434777],[2.2666321,48.7440963],[2.2630869,48.7425967],[2.2654463,48.7410601],[2.2659517,48.7406691],[2.2675443,48.7381113],[2.2678548,48.737536],[2.2680956,48.7375456],[2.2683566,48.7376439],[2.2689099,48.7376067],[2.2691065,48.7376627],[2.2693317,48.7378862],[2.2695101,48.7380067],[2.2695073,48.7380958],[2.2696862,48.7381241],[2.2697779,48.7381851],[2.2697988,48.7381709],[2.2701545,48.7383649],[2.2701116,48.7383952],[2.2706302,48.7386092],[2.2707738,48.7387209],[2.2717555,48.7390669],[2.271807,48.7392294],[2.2719886,48.7392935],[2.272172,48.7394179],[2.2725371,48.7394154],[2.2726957,48.7395385],[2.2729032,48.7395134],[2.2730383,48.7395664],[2.2730239,48.7396807],[2.2730663,48.7397112],[2.2733256,48.7397335],[2.2738144,48.7399174],[2.273897,48.7401041],[2.2742382,48.7402365],[2.2743442,48.7403105],[2.274382,48.7403598],[2.2743121,48.7404858],[2.2743346,48.7405807],[2.2745425,48.7407049],[2.274429,48.7409992],[2.2711803,48.7445536],[2.2709379,48.7447037],[2.2706921,48.744804],[2.2696868,48.7450914],[2.2693603,48.7444846],[2.2689261,48.7440656],[2.2686712,48.7438935],[2.2681581,48.7436937],[2.2679671,48.7436483]]]]},"properties":{"code_section":"91645000AL","code_commune":"91645","section_courte":"AL"}},{"type":"Feature","geometry":{"type":"MultiPolygon","coordinates":[[[[2.2666321,48.7440963],[2.2672301,48.7434777],[2.2681581,48.7436937],[2.2686712,48.7438935],[2.2688123,48.743981],[2.2693603,48.7444846],[2.2696868,48.7450914],[2.2693374,48.7452005],[2.2692588,48.7453151],[2.2696385,48.7460196],[2.2691545,48.7461912],[2.267747,48.7468035],[2.2662273,48.7470344],[2.2657782,48.7471816],[2.2656412,48.747254],[2.265768,48.7476419],[2.2647608,48.747968],[2.2645269,48.7479461],[2.2627037,48.7475511],[2.2618101,48.7474164],[2.2610182,48.7468608],[2.2602909,48.7472759],[2.2601051,48.7471797],[2.2595538,48.7470534],[2.2576871,48.7473564],[2.258367,48.7464945],[2.2597463,48.7451618],[2.2593866,48.7449623],[2.2596427,48.7447846],[2.2603358,48.7443979],[2.261424,48.7439007],[2.2622391,48.7431961],[2.2630869,48.7425967],[2.2666321,48.7440963]]]]},"properties":{"code_section":"91645000AM","code_commune":"91645","section_courte":"AM"}},{"type":"Feature","geometry":{"type":"MultiPolygon","coordinates":[[[[2.2625123,48.7481963],[2.2631272,48.7487278],[2.264034,48.7497775],[2.264297,48.7501504],[2.2645919,48.7506695],[2.2629838,48.7513242],[2.2623741,48.7514794],[2.2616688,48.7515465],[2.260804,48.7516894],[2.2601303,48.7517272],[2.2582423,48.7516854],[2.2579367,48.7517229],[2.2578648,48.7517719],[2.2579005,48.7513227],[2.2580182,48.7510992],[2.2581255,48.7509932],[2.2577214,48.7508228],[2.2575852,48.7508289],[2.2575547,48.7509111],[2.2573444,48.7510772],[2.2570382,48.751216],[2.2562187,48.7512573],[2.2555728,48.7513392],[2.2554843,48.7513815],[2.2552832,48.7513844],[2.2549707,48.7514406],[2.2548985,48.7514909],[2.2539926,48.7511403],[2.2535934,48.7514301],[2.2535407,48.7519341],[2.2536171,48.7520694],[2.2535051,48.7521433],[2.2531176,48.7520766],[2.2517295,48.7520707],[2.2520375,48.7503507],[2.252067,48.7503015],[2.2523037,48.7501954],[2.251848,48.7495526],[2.2518514,48.7492403],[2.2529248,48.7489297],[2.2523654,48.7484704],[2.2525592,48.7483903],[2.2532747,48.7481918],[2.2532483,48.7481564],[2.2540513,48.7479681],[2.2552697,48.7477643],[2.2564824,48.7475123],[2.2584932,48.7472364],[2.2593074,48.7470785],[2.2596733,48.7470628],[2.2601051,48.7471797],[2.2602909,48.7472759],[2.2610182,48.7468608],[2.2618101,48.7474164],[2.2617481,48.7475212],[2.2625123,48.7481963]]]]},"properties":{"code_section":"91645000AN","code_commune":"91645","section_courte":"AN"}},{"type":"Feature","geometry":{"type":"MultiPolygon","coordinates":[[[[2.2564824,48.7475123],[2.2552697,48.7477643],[2.2540513,48.7479681],[2.2530867,48.7481768],[2.2520884,48.7482619],[2.2520921,48.7482171],[2.2494284,48.7484424],[2.2492587,48.7484126],[2.2481081,48.7472153],[2.2482527,48.7460673],[2.248211,48.7458743],[2.2514098,48.7463451],[2.2515331,48.7461596],[2.250736,48.7457625],[2.251235,48.7452698],[2.2515256,48.7450889],[2.2518663,48.7449739],[2.2523597,48.7448734],[2.2525053,48.7448498],[2.2531217,48.7450463],[2.2539959,48.7454634],[2.2543111,48.74511],[2.2545031,48.7449599],[2.2546444,48.7448896],[2.2552275,48.7447825],[2.2560045,48.744745],[2.2577151,48.7448896],[2.2585233,48.7448313],[2.2588894,48.744962],[2.2592807,48.7450356],[2.2593866,48.7449623],[2.2597463,48.7451618],[2.258367,48.7464945],[2.2576871,48.7473564],[2.2564824,48.7475123]]]]},"properties":{"code_section":"91645000AO","code_commune":"91645","section_courte":"AO"}},{"type":"Feature","geometry":{"type":"MultiPolygon","coordinates":[[[[2.2562476,48.7404824],[2.2582456,48.7406981],[2.2586109,48.7407634],[2.2593986,48.7409724],[2.2597328,48.7411232],[2.2606977,48.7415792],[2.2605503,48.7417363],[2.2622391,48.7431961],[2.261424,48.7439007],[2.2603358,48.7443979],[2.2596427,48.7447846],[2.2592807,48.7450356],[2.2588894,48.744962],[2.2585233,48.7448313],[2.2577151,48.7448896],[2.2560045,48.744745],[2.2552275,48.7447825],[2.2546444,48.7448896],[2.2545031,48.7449599],[2.2543111,48.74511],[2.2539959,48.7454634],[2.2532656,48.7451027],[2.2525053,48.7448498],[2.2518663,48.7449739],[2.2515256,48.7450889],[2.251235,48.7452698],[2.2507289,48.7457602],[2.2501195,48.7453962],[2.2498733,48.7451829],[2.2495864,48.7449961],[2.2494003,48.7448201],[2.2489518,48.7442253],[2.2508008,48.7423938],[2.2514809,48.7413123],[2.2512895,48.7413067],[2.2517318,48.7409308],[2.2540655,48.7405812],[2.2548563,48.7404994],[2.2555476,48.7404541],[2.2562476,48.7404824]]]]},"properties":{"code_section":"91645000AP","code_commune":"91645","section_courte":"AP"}},{"type":"Feature","geometry":{"type":"MultiPolygon","coordinates":[[[[2.2562476,48.7404824],[2.2555476,48.7404541],[2.2540655,48.7405812],[2.2538784,48.7404413],[2.253797,48.740334],[2.253712,48.7400382],[2.253323,48.7391918],[2.2531625,48.7386332],[2.2535611,48.7385694],[2.2545453,48.7385128],[2.2550411,48.7384267],[2.2554316,48.7382339],[2.2555825,48.737943],[2.2557687,48.7378221],[2.2562387,48.7379175],[2.2568379,48.7378969],[2.2569419,48.7378676],[2.2571237,48.7376705],[2.2576894,48.7375552],[2.2581781,48.7375152],[2.2583511,48.7376059],[2.258603,48.7375838],[2.2587888,48.7376224],[2.2593673,48.7375165],[2.2595471,48.7375473],[2.2599345,48.7375515],[2.2601638,48.737673],[2.2615452,48.7379958],[2.2617744,48.7381665],[2.2620112,48.7382188],[2.2622197,48.7383316],[2.2624455,48.7383013],[2.263166,48.7383254],[2.2653967,48.7382001],[2.2667967,48.7384216],[2.2672751,48.7385388],[2.2659517,48.7406691],[2.2654463,48.7410601],[2.2630869,48.7425967],[2.2622391,48.7431961],[2.2605503,48.7417363],[2.2606977,48.7415792],[2.2597328,48.7411232],[2.2593986,48.7409724],[2.2586109,48.7407634],[2.2582456,48.7406981],[2.2562476,48.7404824]]]]},"properties":{"code_section":"91645000AR","code_commune":"91645","section_courte":"AR"}},{"type":"Feature","geometry":{"type":"MultiPolygon","coordinates":[[[[2.2531527,48.740716],[2.2517318,48.7409308],[2.2512895,48.7413067],[2.2514809,48.7413123],[2.2508008,48.7423938],[2.2489518,48.7442253],[2.2476867,48.7425344],[2.2476548,48.7421355],[2.2477942,48.7421724],[2.2481534,48.7415597],[2.2483505,48.7416187],[2.2486212,48.7412898],[2.2478815,48.7411153],[2.2476704,48.7415598],[2.247126,48.741573],[2.247106,48.7415005],[2.2470206,48.7415345],[2.2467182,48.7415487],[2.2467196,48.7415881],[2.2459332,48.7416601],[2.2458673,48.7415949],[2.2458249,48.7415946],[2.245807,48.7415459],[2.2451971,48.7415709],[2.2451695,48.7409678],[2.244802,48.7409531],[2.2444589,48.7392669],[2.2441821,48.739123],[2.243989,48.7389365],[2.2440414,48.7386118],[2.244446,48.7385224],[2.2445632,48.73844],[2.2445909,48.738351],[2.2447059,48.7382695],[2.2447781,48.7380226],[2.2460633,48.7377944],[2.2465137,48.7374753],[2.2471897,48.7369247],[2.248044,48.7367738],[2.2482348,48.7367982],[2.2496214,48.7374069],[2.2506344,48.7379439],[2.251003,48.738013],[2.2521253,48.7384559],[2.2526648,48.7386166],[2.2528146,48.7386487],[2.2530996,48.7385963],[2.2531625,48.7386332],[2.253323,48.7391918],[2.253712,48.7400382],[2.253797,48.740334],[2.2538784,48.7404413],[2.2540655,48.7405812],[2.2531527,48.740716]]]]},"properties":{"code_section":"91645000AS","code_commune":"91645","section_courte":"AS"}},{"type":"Feature","geometry":{"type":"MultiPolygon","coordinates":[[[[2.2402117,48.7401354],[2.2419261,48.7396883],[2.2421418,48.73952],[2.2426143,48.7390524],[2.2427849,48.7389655],[2.2429744,48.7389314],[2.243989,48.7389365],[2.2441821,48.739123],[2.2444589,48.7392669],[2.244802,48.7409531],[2.2451695,48.7409678],[2.2451971,48.7415709],[2.2451504,48.741758],[2.2449678,48.7420209],[2.2449712,48.7423251],[2.2441697,48.7424527],[2.2436533,48.7424713],[2.24331,48.7426886],[2.2422912,48.7427279],[2.242071,48.74234],[2.241553,48.7423906],[2.241023,48.7425233],[2.2403818,48.7426153],[2.2403758,48.7423755],[2.240271,48.7423786],[2.2402574,48.7422987],[2.239228,48.7424271],[2.2384527,48.7422731],[2.2382726,48.7423576],[2.2375427,48.741819],[2.2373253,48.7419278],[2.2371604,48.7417437],[2.2374571,48.7415768],[2.2376524,48.7415068],[2.239142,48.7410401],[2.2398157,48.740335],[2.2402117,48.7401354]]]]},"properties":{"code_section":"91645000AT","code_commune":"91645","section_courte":"AT"}},{"type":"Feature","geometry":{"type":"MultiPolygon","coordinates":[[[[2.2402117,48.7401354],[2.2398157,48.740335],[2.239142,48.7410401],[2.2374571,48.7415768],[2.2370074,48.7418364],[2.236785,48.7413069],[2.2366081,48.7411008],[2.2358666,48.7404126],[2.2359591,48.7403522],[2.2360919,48.7401713],[2.2363223,48.7391951],[2.2364631,48.7388797],[2.2366456,48.7386116],[2.2366121,48.7385164],[2.2366673,48.7383992],[2.2367522,48.7383545],[2.2369375,48.7380757],[2.2374439,48.7378784],[2.2372115,48.7377604],[2.2372198,48.7376829],[2.2372837,48.7376104],[2.2376773,48.7375029],[2.2378249,48.7374987],[2.2381195,48.7373519],[2.2373651,48.7363531],[2.2385352,48.7357506],[2.2406257,48.7361963],[2.2409322,48.7363082],[2.2419557,48.736946],[2.2421575,48.7370305],[2.2428919,48.7371676],[2.2435286,48.7371809],[2.2436368,48.7373187],[2.2438654,48.7371776],[2.2439276,48.7371752],[2.2441516,48.737472],[2.2443064,48.7378494],[2.2445133,48.7378378],[2.2445151,48.738034],[2.2447781,48.7380226],[2.2447059,48.7382695],[2.2445909,48.738351],[2.2445632,48.73844],[2.244446,48.7385224],[2.2440414,48.7386118],[2.243989,48.7389365],[2.2429744,48.7389314],[2.2427849,48.7389655],[2.2426143,48.7390524],[2.2421418,48.73952],[2.2419261,48.7396883],[2.2402117,48.7401354]]]]},"properties":{"code_section":"91645000AV","code_commune":"91645","section_courte":"AV"}}]}