{"type":"FeatureCollection","features":[{"type":"Feature","geometry":{"type":"MultiPolygon","coordinates":[[[[2.4386559,48.5784808],[2.4391166,48.5771586],[2.439598,48.5771723],[2.4406257,48.5770016],[2.4409307,48.5769961],[2.4413915,48.5771716],[2.4417025,48.5772358],[2.4419548,48.5772649],[2.4425919,48.5772683],[2.4429645,48.5774384],[2.4432361,48.5778017],[2.4433509,48.5778832],[2.4446271,48.5785488],[2.4453201,48.5788331],[2.4454846,48.5788685],[2.4457213,48.5788774],[2.4459999,48.5788381],[2.4467522,48.5785687],[2.4476049,48.5786226],[2.4480191,48.5785587],[2.4492767,48.578474],[2.4497321,48.5785185],[2.4501872,48.5786226],[2.4509262,48.5786987],[2.4512164,48.5786327],[2.4515531,48.5784568],[2.4518261,48.5783679],[2.4526608,48.5783674],[2.453111,48.5782406],[2.4534142,48.5782404],[2.4536638,48.5783626],[2.4538412,48.5786779],[2.454003,48.5787585],[2.4545553,48.5787968],[2.4549781,48.5789101],[2.4551762,48.5788701],[2.4553062,48.578958],[2.4557525,48.5789012],[2.4558428,48.5790972],[2.4555189,48.57923],[2.4560216,48.5796937],[2.4565285,48.5806034],[2.4570056,48.5811572],[2.4571799,48.581417],[2.4572984,48.5816177],[2.4574852,48.5824391],[2.4572711,48.5825773],[2.4564059,48.5820039],[2.4562176,48.5821643],[2.4553644,48.5823082],[2.4542114,48.5824556],[2.453042,48.5826675],[2.4518861,48.5828017],[2.4502425,48.5827588],[2.4502847,48.5819954],[2.4502314,48.5805491],[2.4492356,48.5805526],[2.449086,48.5805316],[2.4474935,48.5801592],[2.4477584,48.5791651],[2.4470541,48.5792605],[2.4470349,48.5792075],[2.4469731,48.5792161],[2.4469611,48.5791669],[2.4456199,48.5793567],[2.4453593,48.5791277],[2.4447394,48.5790556],[2.4446758,48.5790696],[2.4445547,48.5793849],[2.440086,48.5787122],[2.4391648,48.5821345],[2.4392551,48.5821485],[2.4389514,48.5828634],[2.438811,48.5833796],[2.4390118,48.5834322],[2.4389282,48.5837334],[2.4393414,48.5837866],[2.4393395,48.5838248],[2.4353985,48.5834388],[2.4354885,48.5831572],[2.4354406,48.58314],[2.4360843,48.5818195],[2.4386888,48.578498],[2.4386559,48.5784808]]]]},"properties":{"code_section":"916590000A","code_commune":"91659","section_courte":"A"}},{"type":"Feature","geometry":{"type":"MultiPolygon","coordinates":[[[[2.4527689,48.5920672],[2.4526975,48.5921909],[2.4536223,48.5927252],[2.4545177,48.5921161],[2.4556358,48.5912841],[2.4558488,48.591367],[2.4567173,48.591957],[2.4572311,48.5923621],[2.459509,48.5942525],[2.4596779,48.5944572],[2.4597365,48.5946228],[2.4593803,48.595762],[2.4590799,48.5956723],[2.4588311,48.5956839],[2.4575311,48.5959621],[2.4574215,48.5959913],[2.4573733,48.5961251],[2.457181,48.5963317],[2.4564438,48.595991],[2.4558368,48.5965691],[2.4547311,48.5961419],[2.4544844,48.5963808],[2.4527791,48.5956578],[2.4526564,48.5957843],[2.4509333,48.5950634],[2.4506524,48.5954631],[2.4502442,48.5952624],[2.4502873,48.5952363],[2.4492876,48.5948052],[2.4488197,48.5952907],[2.4474291,48.5947524],[2.4473744,48.5947709],[2.4466163,48.5944786],[2.4466179,48.5945444],[2.4460904,48.5943372],[2.4459124,48.5945774],[2.4449317,48.5943065],[2.4451638,48.5939238],[2.4456763,48.5934],[2.4462953,48.5926352],[2.448408,48.5908749],[2.448777,48.5906709],[2.4490736,48.5904612],[2.4493321,48.5900751],[2.4515684,48.5912466],[2.4521278,48.5915978],[2.4527689,48.5920672]]],[[[2.462017,48.5792777],[2.4606111,48.5803082],[2.4574852,48.5824391],[2.4572984,48.5816177],[2.4571799,48.581417],[2.4570056,48.5811572],[2.4565285,48.5806034],[2.4560216,48.5796937],[2.4555189,48.57923],[2.4558428,48.5790972],[2.4557868,48.5789484],[2.4557525,48.5789012],[2.4553062,48.578958],[2.4551762,48.5788701],[2.4554379,48.5787525],[2.4561707,48.5785462],[2.4569238,48.5781594],[2.4574284,48.5774943],[2.4572175,48.5767908],[2.4572837,48.5766702],[2.4574564,48.5765716],[2.4577729,48.576523],[2.4583409,48.576534],[2.458989,48.5762987],[2.4598651,48.5762475],[2.4613988,48.5763017],[2.4620135,48.5762284],[2.4629005,48.576329],[2.4633568,48.5764765],[2.4640459,48.5767804],[2.4646105,48.5769222],[2.4652064,48.5771792],[2.4653768,48.5773458],[2.4655727,48.577618],[2.4660255,48.5774431],[2.4668062,48.5772261],[2.4680324,48.5769706],[2.4687201,48.5770706],[2.4693688,48.577416],[2.4696173,48.5783566],[2.4694357,48.5787429],[2.4695124,48.5793716],[2.4698037,48.579551],[2.4703987,48.5796335],[2.470479,48.5799489],[2.4701523,48.5804427],[2.4696486,48.580671],[2.4696779,48.5809144],[2.4697469,48.5809548],[2.4699029,48.5809469],[2.4686085,48.5814594],[2.4686304,48.5814849],[2.4680952,48.5819151],[2.4681244,48.5820345],[2.4678464,48.5822559],[2.4678023,48.5821362],[2.4677145,48.5822147],[2.4667397,48.5833302],[2.4663364,48.5833605],[2.4659009,48.5824236],[2.4650517,48.5808195],[2.4647381,48.5802548],[2.4646054,48.5800866],[2.4643454,48.5798635],[2.4637072,48.5794195],[2.4625501,48.5788264],[2.462017,48.5792777]]]]},"properties":{"code_section":"916590000B","code_commune":"91659","section_courte":"B"}},{"type":"Feature","geometry":{"type":"MultiPolygon","coordinates":[[[[2.4404174,48.5936689],[2.4405311,48.5935424],[2.440208,48.5934282],[2.4403355,48.5932899],[2.4388327,48.5927585],[2.4370072,48.591771],[2.4384639,48.5914102],[2.4393801,48.59137],[2.4400293,48.5913778],[2.4406226,48.5914233],[2.4416529,48.5916143],[2.4436768,48.5924302],[2.4438651,48.5922409],[2.4439516,48.5921982],[2.4449292,48.5924149],[2.4449427,48.5924727],[2.4448212,48.5926313],[2.4459501,48.5930805],[2.4451638,48.5939238],[2.4449317,48.5943065],[2.4437438,48.5958578],[2.4415957,48.5951555],[2.4396818,48.5944783],[2.4404174,48.5936689]]]]},"properties":{"code_section":"91659000AA","code_commune":"91659","section_courte":"AA"}},{"type":"Feature","geometry":{"type":"MultiPolygon","coordinates":[[[[2.4484975,48.5859894],[2.4507203,48.5874254],[2.4505554,48.5874641],[2.451829,48.5882371],[2.4510835,48.5887002],[2.4501104,48.5894293],[2.4499927,48.5894468],[2.4496798,48.5896445],[2.4492997,48.589983],[2.449268,48.5900527],[2.4493321,48.5900751],[2.4490736,48.5904612],[2.448777,48.5906709],[2.448408,48.5908749],[2.4462953,48.5926352],[2.4459501,48.5930805],[2.4448212,48.5926313],[2.4449427,48.5924727],[2.4449292,48.5924149],[2.4439516,48.5921982],[2.4438651,48.5922409],[2.4436768,48.5924302],[2.4416529,48.5916143],[2.4414875,48.5915739],[2.4406226,48.5914233],[2.4400293,48.5913778],[2.4393801,48.59137],[2.4384639,48.5914102],[2.4394386,48.5912882],[2.4395894,48.591118],[2.4395078,48.5906861],[2.4395934,48.5902622],[2.4397691,48.5899865],[2.4400686,48.5897405],[2.44337,48.588102],[2.4439036,48.5877415],[2.4441283,48.5875228],[2.4443121,48.5872611],[2.4451918,48.5853794],[2.4458633,48.5846555],[2.4460639,48.584802],[2.4464468,48.5849086],[2.4468478,48.5851805],[2.4476966,48.585551],[2.4484975,48.5859894]]]]},"properties":{"code_section":"91659000AB","code_commune":"91659","section_courte":"AB"}},{"type":"Feature","geometry":{"type":"MultiPolygon","coordinates":[[[[2.4589922,48.5859],[2.4595808,48.5860484],[2.4601182,48.5862268],[2.461941,48.5872099],[2.46165,48.5875089],[2.4599114,48.5888093],[2.459821,48.5889734],[2.4597678,48.5892406],[2.4587756,48.5897839],[2.4586023,48.5898083],[2.4585205,48.5897546],[2.4577281,48.5901454],[2.4572155,48.590404],[2.4558369,48.591209],[2.4556358,48.5912841],[2.4545177,48.5921161],[2.4536223,48.5927252],[2.4526975,48.5921909],[2.4527689,48.5920672],[2.4521278,48.5915978],[2.4515684,48.5912466],[2.449268,48.5900527],[2.4492997,48.589983],[2.4496798,48.5896445],[2.4499927,48.5894468],[2.4501104,48.5894293],[2.4510835,48.5887002],[2.451829,48.5882371],[2.4505554,48.5874641],[2.4507203,48.5874254],[2.450435,48.587238],[2.4519752,48.586181],[2.4522166,48.5863504],[2.4524805,48.586601],[2.4528219,48.5870805],[2.4532553,48.5874508],[2.4542234,48.586777],[2.4548775,48.5863908],[2.456607,48.5872663],[2.4567164,48.5873152],[2.4567356,48.5873001],[2.4573004,48.5876213],[2.4576257,48.5873328],[2.4579444,48.5871559],[2.4589922,48.5859]]]]},"properties":{"code_section":"91659000AC","code_commune":"91659","section_courte":"AC"}},{"type":"Feature","geometry":{"type":"MultiPolygon","coordinates":[[[[2.4593803,48.595762],[2.4597365,48.5946228],[2.4596779,48.5944572],[2.459509,48.5942525],[2.458331,48.593254],[2.4567173,48.591957],[2.4558488,48.591367],[2.4556358,48.5912841],[2.4558369,48.591209],[2.4572155,48.590404],[2.4585205,48.5897546],[2.4586023,48.5898083],[2.4586915,48.5898116],[2.4586982,48.5899088],[2.4609694,48.5918504],[2.4617901,48.5923531],[2.4618845,48.5923735],[2.4626845,48.591857],[2.464326,48.5907137],[2.4662114,48.5913025],[2.4659158,48.5923673],[2.4657032,48.5929287],[2.4636164,48.5954279],[2.4627865,48.5952722],[2.4617124,48.5950078],[2.4616375,48.5950342],[2.4614357,48.5952704],[2.4613039,48.5953542],[2.4608349,48.5955244],[2.4605548,48.5956609],[2.4601001,48.5957189],[2.4595221,48.5956961],[2.4593803,48.595762]]]]},"properties":{"code_section":"91659000AD","code_commune":"91659","section_courte":"AD"}},{"type":"Feature","geometry":{"type":"MultiPolygon","coordinates":[[[[2.4690589,48.5861867],[2.4690867,48.5863044],[2.4692917,48.5865282],[2.469577,48.5869664],[2.4697813,48.587193],[2.4697827,48.5872469],[2.469708,48.5873411],[2.4694294,48.5875373],[2.4691106,48.5879281],[2.4690893,48.5881052],[2.4691634,48.5884755],[2.4691573,48.5886613],[2.4690239,48.588765],[2.4685548,48.5889193],[2.4683989,48.5889983],[2.4682826,48.5890839],[2.4681877,48.5892167],[2.4681795,48.5893089],[2.468299,48.5897045],[2.4679002,48.5906257],[2.4665339,48.5902956],[2.4663819,48.5906588],[2.4662114,48.5913025],[2.464326,48.5907137],[2.4626845,48.591857],[2.4618845,48.5923735],[2.4617901,48.5923531],[2.4609694,48.5918504],[2.4586686,48.5898637],[2.4586915,48.5898116],[2.4597678,48.5892406],[2.459821,48.5889734],[2.4599114,48.5888093],[2.46165,48.5875089],[2.461941,48.5872099],[2.4624793,48.5874007],[2.4626332,48.5873199],[2.4632528,48.5866557],[2.4634103,48.5864392],[2.464405,48.5848137],[2.464989,48.584946],[2.4649975,48.5849876],[2.4660067,48.5851874],[2.4661784,48.5852698],[2.4665617,48.585261],[2.4673698,48.5853881],[2.4675919,48.5854696],[2.467715,48.5855508],[2.4677624,48.5856249],[2.4676969,48.5859971],[2.4685548,48.5859121],[2.4688458,48.5861495],[2.4690589,48.5861867]]]]},"properties":{"code_section":"91659000AE","code_commune":"91659","section_courte":"AE"}},{"type":"Feature","geometry":{"type":"MultiPolygon","coordinates":[[[[2.4661784,48.5852698],[2.4660067,48.5851874],[2.4649975,48.5849876],[2.464989,48.584946],[2.4608166,48.5838669],[2.4608998,48.5836878],[2.4609389,48.58301],[2.4596915,48.5828487],[2.4576781,48.5827936],[2.4575907,48.582771],[2.4572711,48.5825773],[2.4606111,48.5803082],[2.462017,48.5792777],[2.4625501,48.5788264],[2.4637072,48.5794195],[2.4643454,48.5798635],[2.4646054,48.5800866],[2.4647381,48.5802548],[2.4650517,48.5808195],[2.4659009,48.5824236],[2.4663364,48.5833605],[2.4667397,48.5833302],[2.4677145,48.5822147],[2.4678023,48.5821362],[2.4678464,48.5822559],[2.4681244,48.5820345],[2.4680952,48.5819151],[2.4686304,48.5814849],[2.4686085,48.5814594],[2.4699029,48.5809469],[2.4701869,48.5809483],[2.4704994,48.5812471],[2.4706046,48.5816763],[2.4707538,48.5819783],[2.4707553,48.5821809],[2.4706635,48.5824479],[2.4703637,48.5828302],[2.4702854,48.583044],[2.4703285,48.5831318],[2.4705649,48.5833592],[2.4705975,48.5835018],[2.4704818,48.5836585],[2.4703293,48.5837636],[2.4701739,48.583801],[2.4698239,48.5838192],[2.4693247,48.583961],[2.4691748,48.5840351],[2.4690523,48.5841575],[2.468852,48.584658],[2.4690261,48.5853909],[2.468999,48.5856319],[2.4690767,48.5859067],[2.4690589,48.5861867],[2.4688458,48.5861495],[2.4685548,48.5859121],[2.4676969,48.5859971],[2.4677624,48.5856249],[2.467715,48.5855508],[2.4675919,48.5854696],[2.4673698,48.5853881],[2.4665617,48.585261],[2.4661784,48.5852698]]]]},"properties":{"code_section":"91659000AH","code_commune":"91659","section_courte":"AH"}},{"type":"Feature","geometry":{"type":"MultiPolygon","coordinates":[[[[2.4550877,48.5864863],[2.4548775,48.5863908],[2.4542234,48.586777],[2.4532553,48.5874508],[2.4528219,48.5870805],[2.4524805,48.586601],[2.4522166,48.5863504],[2.4519752,48.586181],[2.4572711,48.5825773],[2.4575907,48.582771],[2.4576781,48.5827936],[2.4596915,48.5828487],[2.4609389,48.58301],[2.4608998,48.5836878],[2.4608166,48.5838669],[2.464405,48.5848137],[2.4633021,48.5865903],[2.4626332,48.5873199],[2.4624793,48.5874007],[2.461941,48.5872099],[2.4601182,48.5862268],[2.4595808,48.5860484],[2.4589922,48.5859],[2.4579444,48.5871559],[2.4576257,48.5873328],[2.4573004,48.5876213],[2.4567356,48.5873001],[2.4567164,48.5873152],[2.456607,48.5872663],[2.4550877,48.5864863]]]]},"properties":{"code_section":"91659000AI","code_commune":"91659","section_courte":"AI"}},{"type":"Feature","geometry":{"type":"MultiPolygon","coordinates":[[[[2.4562176,48.5821643],[2.4564059,48.5820039],[2.4572711,48.5825773],[2.450435,48.587238],[2.4484975,48.5859894],[2.4476966,48.585551],[2.4468478,48.5851805],[2.4464468,48.5849086],[2.4460639,48.584802],[2.4458633,48.5846555],[2.4452955,48.5844137],[2.4455101,48.5834752],[2.4458098,48.5834447],[2.4460732,48.5833598],[2.446314,48.5833346],[2.4478538,48.5834064],[2.448294,48.5834],[2.4496959,48.583108],[2.4498035,48.5830335],[2.4499694,48.5828129],[2.450185,48.5827197],[2.4502316,48.5827161],[2.4502425,48.5827588],[2.4518861,48.5828017],[2.453042,48.5826675],[2.4542114,48.5824556],[2.4553644,48.5823082],[2.4562176,48.5821643]]]]},"properties":{"code_section":"91659000AK","code_commune":"91659","section_courte":"AK"}},{"type":"Feature","geometry":{"type":"MultiPolygon","coordinates":[[[[2.4444891,48.5793791],[2.4445547,48.5793849],[2.4446758,48.5790696],[2.4447394,48.5790556],[2.4453593,48.5791277],[2.4456199,48.5793567],[2.4469611,48.5791669],[2.4469731,48.5792161],[2.4470349,48.5792075],[2.4470541,48.5792605],[2.4477584,48.5791651],[2.4474935,48.5801592],[2.449086,48.5805316],[2.4492356,48.5805526],[2.4502314,48.5805491],[2.4502847,48.5819954],[2.4502316,48.5827161],[2.449991,48.5827967],[2.4498035,48.5830335],[2.4496959,48.583108],[2.448294,48.5834],[2.4478538,48.5834064],[2.446314,48.5833346],[2.4460732,48.5833598],[2.4458098,48.5834447],[2.4455101,48.5834752],[2.4452955,48.5844137],[2.4447795,48.5842773],[2.442456,48.5839198],[2.4415179,48.5850707],[2.4399482,48.5847375],[2.4401884,48.5840328],[2.4401763,48.5839361],[2.4401318,48.5839005],[2.4393395,48.5838248],[2.4393414,48.5837866],[2.4389282,48.5837334],[2.4390118,48.5834322],[2.438811,48.5833796],[2.4389514,48.5828634],[2.4392551,48.5821485],[2.4391648,48.5821345],[2.440086,48.5787122],[2.4444891,48.5793791]]]]},"properties":{"code_section":"91659000AL","code_commune":"91659","section_courte":"AL"}},{"type":"Feature","geometry":{"type":"MultiPolygon","coordinates":[[[[2.436447,48.5871518],[2.4337726,48.5863132],[2.4351239,48.5837261],[2.435209,48.5834209],[2.4401318,48.5839005],[2.4401763,48.5839361],[2.4401884,48.5840328],[2.4399482,48.5847375],[2.4415179,48.5850707],[2.442456,48.5839198],[2.4447795,48.5842773],[2.4453725,48.5844341],[2.4458633,48.5846555],[2.4451918,48.5853794],[2.4443619,48.5871682],[2.4441283,48.5875228],[2.443839,48.5877969],[2.4434575,48.5880542],[2.4418601,48.5888488],[2.436447,48.5871518]]]]},"properties":{"code_section":"91659000AM","code_commune":"91659","section_courte":"AM"}},{"type":"Feature","geometry":{"type":"MultiPolygon","coordinates":[[[[2.434166,48.5899898],[2.4323657,48.5889433],[2.4337726,48.5863132],[2.4418601,48.5888488],[2.4402184,48.5896523],[2.4398137,48.5899395],[2.4396592,48.5901365],[2.4395498,48.5903893],[2.4395078,48.5906861],[2.4395894,48.591118],[2.4394386,48.5912882],[2.4384639,48.5914102],[2.4370072,48.591771],[2.4361164,48.5911699],[2.4361031,48.5911232],[2.434166,48.5899898]]]]},"properties":{"code_section":"91659000AN","code_commune":"91659","section_courte":"AN"}}]}