{"type":"FeatureCollection","features":[{"type":"Feature","geometry":{"type":"MultiPolygon","coordinates":[[[[2.2624304,48.6553325],[2.2623854,48.6553388],[2.2622791,48.6552212],[2.2612226,48.6552476],[2.2617381,48.6558967],[2.2618755,48.6561819],[2.261579,48.656305],[2.2613108,48.6566051],[2.2610673,48.6567147],[2.2612899,48.6569847],[2.26088,48.6572085],[2.2610154,48.6573496],[2.2608144,48.6574612],[2.260646,48.657753],[2.2602346,48.6576855],[2.2601795,48.6577455],[2.2598432,48.65773],[2.2591032,48.6574451],[2.2574055,48.6570593],[2.2576359,48.6553065],[2.2575874,48.6552254],[2.2581235,48.655053],[2.2582981,48.6546646],[2.2589074,48.6537834],[2.2582736,48.6531208],[2.2589521,48.652887],[2.2571086,48.6511579],[2.2576588,48.6505742],[2.2585652,48.6500881],[2.2597909,48.6501758],[2.2602337,48.6501823],[2.260775,48.6502824],[2.2611413,48.650314],[2.2615617,48.650504],[2.2619149,48.6505481],[2.2622167,48.6505463],[2.262709,48.6504124],[2.2626348,48.6507536],[2.2628727,48.650761],[2.2626636,48.6508485],[2.2626374,48.6510707],[2.262582,48.651069],[2.2625531,48.6516658],[2.2627333,48.6516729],[2.2626304,48.6521026],[2.2630877,48.6521027],[2.2636159,48.6521442],[2.2636451,48.6522106],[2.2638763,48.6521993],[2.2639172,48.652306],[2.2645736,48.6522255],[2.2644446,48.6524298],[2.2643538,48.6524992],[2.264385,48.6525739],[2.2646241,48.6527097],[2.2647669,48.653012],[2.2637523,48.6533965],[2.2638579,48.6536891],[2.2637329,48.6537048],[2.2637677,48.6538358],[2.2632788,48.6538994],[2.2633919,48.654157],[2.2632071,48.6541884],[2.2635611,48.6546484],[2.2627781,48.6548096],[2.2629195,48.655223],[2.2624304,48.6553325]]]]},"properties":{"code_section":"916650000E","code_commune":"91665","section_courte":"E"}},{"type":"Feature","geometry":{"type":"MultiPolygon","coordinates":[[[[2.253388,48.656955],[2.2537856,48.6568958],[2.2554364,48.6567937],[2.2559443,48.6568065],[2.2574055,48.6570593],[2.2573697,48.6570912],[2.2574692,48.657905],[2.2574748,48.6589741],[2.2579125,48.6621694],[2.2541005,48.6627322],[2.2533052,48.662939],[2.250201,48.6638427],[2.2498682,48.6635356],[2.2498597,48.6633611],[2.2503029,48.6631892],[2.2502466,48.6617327],[2.2509098,48.6616269],[2.2519161,48.6610823],[2.2527671,48.6607623],[2.2527502,48.6606302],[2.2527931,48.6604502],[2.2524771,48.6596152],[2.2530496,48.6596065],[2.253009,48.6593177],[2.2528512,48.658778],[2.2524989,48.6584813],[2.2529335,48.6580534],[2.253137,48.6573112],[2.253388,48.656955]]]]},"properties":{"code_section":"916650000F","code_commune":"91665","section_courte":"F"}},{"type":"Feature","geometry":{"type":"MultiPolygon","coordinates":[[[[2.2578377,48.6654847],[2.258991,48.6656145],[2.2589893,48.6659836],[2.2590327,48.6660523],[2.2599959,48.6664161],[2.2606434,48.6667719],[2.2608943,48.6668527],[2.2613244,48.6669356],[2.2616558,48.6669371],[2.262237,48.6666753],[2.2624001,48.6666298],[2.2628332,48.6666426],[2.2633922,48.666143],[2.2635778,48.6660867],[2.2636907,48.6660807],[2.2643446,48.6661849],[2.2648032,48.6662042],[2.2650404,48.6662727],[2.2656054,48.666567],[2.2658664,48.6666596],[2.2662233,48.6666614],[2.2666278,48.6666226],[2.2668838,48.6665392],[2.267389,48.6665406],[2.2670238,48.6676136],[2.2668664,48.6678517],[2.2661434,48.668526],[2.2654284,48.6692977],[2.2649828,48.6695884],[2.2641445,48.6699455],[2.2638515,48.6701047],[2.2635755,48.6701668],[2.2630741,48.6702496],[2.2622379,48.6703132],[2.2615562,48.6702276],[2.261455,48.6701989],[2.2613297,48.6701079],[2.2605066,48.6692936],[2.2603452,48.6690788],[2.260094,48.6689362],[2.2596305,48.6687724],[2.257665,48.6683026],[2.2567554,48.6681435],[2.2568222,48.6681183],[2.2564322,48.6680457],[2.255724,48.6678062],[2.2561948,48.6670086],[2.2562987,48.6670693],[2.2567811,48.6662975],[2.2574918,48.6654329],[2.2578377,48.6654847]]]]},"properties":{"code_section":"916650000H","code_commune":"91665","section_courte":"H"}},{"type":"Feature","geometry":{"type":"MultiPolygon","coordinates":[[[[2.2650052,48.6706831],[2.2638515,48.6701047],[2.2641445,48.6699455],[2.2649828,48.6695884],[2.2652957,48.6693985],[2.2657572,48.6689597],[2.2661434,48.668526],[2.2668664,48.6678517],[2.2670878,48.6674721],[2.2671993,48.6670244],[2.267389,48.6665406],[2.2686154,48.6666336],[2.2711108,48.6662],[2.2733974,48.6653801],[2.2741897,48.6652076],[2.2743193,48.6654597],[2.2750135,48.6653182],[2.2750922,48.66551],[2.2759629,48.6653071],[2.2760446,48.6654689],[2.2777013,48.6651302],[2.2777945,48.6653476],[2.2779952,48.6653085],[2.2799251,48.670337],[2.2796869,48.670293],[2.2792833,48.6703191],[2.2787366,48.6702054],[2.2767468,48.6702356],[2.2746667,48.6702125],[2.2735908,48.6701256],[2.2725212,48.6701026],[2.2721424,48.6701008],[2.2712598,48.6702023],[2.2697242,48.6700188],[2.2687965,48.6697947],[2.2686583,48.6696979],[2.2685363,48.669711],[2.2679339,48.6699024],[2.267465,48.66977],[2.2667641,48.670033],[2.2661084,48.6703741],[2.2650052,48.6706831]]]]},"properties":{"code_section":"91665000AB","code_commune":"91665","section_courte":"AB"}},{"type":"Feature","geometry":{"type":"MultiPolygon","coordinates":[[[[2.2686011,48.6666159],[2.2671042,48.6665284],[2.2668838,48.6665392],[2.2666278,48.6666226],[2.2662233,48.6666614],[2.2658664,48.6666596],[2.2656054,48.666567],[2.2649742,48.6662485],[2.264599,48.6661818],[2.2641203,48.6661605],[2.2636907,48.6660807],[2.2633922,48.666143],[2.2630996,48.6663749],[2.2630195,48.6663498],[2.2629999,48.6660684],[2.2630546,48.6654693],[2.2631901,48.6646112],[2.2634182,48.6638768],[2.2634309,48.6637088],[2.2635237,48.6636038],[2.2638629,48.6634723],[2.2640617,48.6631475],[2.2641128,48.6624279],[2.264014,48.662058],[2.2644917,48.6620096],[2.2646903,48.6619546],[2.2662609,48.6613874],[2.2675121,48.6610782],[2.2674343,48.6607898],[2.2679694,48.660793],[2.2680276,48.6608894],[2.2687625,48.6608444],[2.2689002,48.6608635],[2.2699449,48.6612651],[2.2694866,48.6614771],[2.2697228,48.6623326],[2.2695707,48.6623204],[2.2699438,48.6630528],[2.270018,48.6630716],[2.2701948,48.663393],[2.2706775,48.6643588],[2.2707638,48.6643981],[2.270795,48.6646118],[2.2712102,48.6645767],[2.2709461,48.6647461],[2.2716147,48.6660293],[2.2711108,48.6662],[2.2691639,48.6665459],[2.2686154,48.6666336],[2.2686011,48.6666159]]]]},"properties":{"code_section":"91665000AC","code_commune":"91665","section_courte":"AC"}},{"type":"Feature","geometry":{"type":"MultiPolygon","coordinates":[[[[2.2739158,48.665267],[2.2733974,48.6653801],[2.2716147,48.6660293],[2.2709461,48.6647461],[2.2712102,48.6645767],[2.270795,48.6646118],[2.2707638,48.6643981],[2.2706775,48.6643588],[2.2701948,48.663393],[2.270018,48.6630716],[2.2699438,48.6630528],[2.2695707,48.6623204],[2.2697228,48.6623326],[2.2694866,48.6614771],[2.2699449,48.6612651],[2.270829,48.6610852],[2.2721307,48.6607298],[2.2728222,48.6605984],[2.2737794,48.6604448],[2.2760554,48.6602938],[2.2779952,48.6653085],[2.2777945,48.6653476],[2.2777013,48.6651302],[2.2760446,48.6654689],[2.2759629,48.6653071],[2.2750922,48.66551],[2.2750135,48.6653182],[2.2743193,48.6654597],[2.2741897,48.6652076],[2.2739158,48.665267]]]]},"properties":{"code_section":"91665000AD","code_commune":"91665","section_courte":"AD"}},{"type":"Feature","geometry":{"type":"MultiPolygon","coordinates":[[[[2.2666918,48.6606882],[2.2662611,48.660618],[2.2664248,48.6603251],[2.2665841,48.6602531],[2.2666538,48.6601775],[2.2667699,48.6599022],[2.2669543,48.6591473],[2.2669075,48.658715],[2.2668122,48.6583845],[2.2665584,48.6581294],[2.2676654,48.6579112],[2.2685396,48.6577913],[2.2699844,48.6576576],[2.2700451,48.6577023],[2.2700605,48.657797],[2.2708039,48.6576486],[2.2708522,48.6576055],[2.2718408,48.6572438],[2.2736536,48.6567931],[2.2740589,48.655197],[2.2760554,48.6602938],[2.2737794,48.6604448],[2.2732841,48.6605215],[2.2721307,48.6607298],[2.270829,48.6610852],[2.2699449,48.6612651],[2.2689002,48.6608635],[2.2687625,48.6608444],[2.2680276,48.6608894],[2.2679694,48.660793],[2.2674343,48.6607898],[2.2666918,48.6606882]]]]},"properties":{"code_section":"91665000AE","code_commune":"91665","section_courte":"AE"}},{"type":"Feature","geometry":{"type":"MultiPolygon","coordinates":[[[[2.2652493,48.6578923],[2.2649822,48.6572139],[2.2649344,48.6568761],[2.2647689,48.6564651],[2.265309,48.6563261],[2.266582,48.6560661],[2.2671027,48.6559992],[2.2680569,48.6558032],[2.269123,48.6555263],[2.2697611,48.6553262],[2.270271,48.6551285],[2.2706147,48.6550558],[2.2712843,48.6550343],[2.2738796,48.6547338],[2.2740589,48.655197],[2.2736536,48.6567931],[2.2718408,48.6572438],[2.2708522,48.6576055],[2.2708039,48.6576486],[2.2700605,48.657797],[2.2700451,48.6577023],[2.2699844,48.6576576],[2.2685396,48.6577913],[2.2676654,48.6579112],[2.2654101,48.6583445],[2.2652493,48.6578923]]]]},"properties":{"code_section":"91665000AH","code_commune":"91665","section_courte":"AH"}},{"type":"Feature","geometry":{"type":"MultiPolygon","coordinates":[[[[2.2715006,48.6508897],[2.2719855,48.6510662],[2.2722618,48.651243],[2.2724671,48.6519222],[2.2726136,48.6520694],[2.2728384,48.6520563],[2.2738796,48.6547338],[2.2712843,48.6550343],[2.2706147,48.6550558],[2.270271,48.6551285],[2.2695884,48.6553855],[2.268787,48.6556132],[2.268224,48.6548163],[2.2680035,48.6541536],[2.2679719,48.653715],[2.2680481,48.6522959],[2.2683404,48.6513945],[2.2687375,48.6504137],[2.2688592,48.650251],[2.2689548,48.6501869],[2.2692794,48.6502539],[2.2697841,48.6502429],[2.269935,48.6503176],[2.2700628,48.6504735],[2.2703178,48.6505423],[2.2706215,48.6506984],[2.2711059,48.6507469],[2.2715006,48.6508897]]]]},"properties":{"code_section":"91665000AI","code_commune":"91665","section_courte":"AI"}},{"type":"Feature","geometry":{"type":"MultiPolygon","coordinates":[[[[2.2628725,48.6503843],[2.2642915,48.6499369],[2.2651491,48.6497041],[2.265335,48.6495947],[2.265722,48.6495069],[2.2658934,48.6494158],[2.2660148,48.6494051],[2.2665614,48.6494],[2.2669659,48.6494555],[2.2671089,48.6495281],[2.2671922,48.649734],[2.2675818,48.6498883],[2.2679603,48.6501028],[2.2685329,48.650269],[2.2687534,48.6502865],[2.2688592,48.650251],[2.2686433,48.6506004],[2.2680481,48.6522959],[2.2679728,48.6535303],[2.2673321,48.6534999],[2.2671213,48.653526],[2.2670117,48.6535772],[2.2661943,48.6537747],[2.2661162,48.6536847],[2.2657587,48.6537548],[2.2645957,48.653896],[2.2640149,48.654054],[2.2633919,48.654157],[2.2632788,48.6538994],[2.2637677,48.6538358],[2.2637329,48.6537048],[2.2638579,48.6536891],[2.2637523,48.6533965],[2.2647669,48.653012],[2.2646241,48.6527097],[2.264385,48.6525739],[2.2643538,48.6524992],[2.2644446,48.6524298],[2.2645736,48.6522255],[2.2639172,48.652306],[2.2638763,48.6521993],[2.2636451,48.6522106],[2.2636159,48.6521442],[2.2630877,48.6521027],[2.2626304,48.6521026],[2.2627333,48.6516729],[2.2625531,48.6516658],[2.262582,48.651069],[2.2626374,48.6510707],[2.2626636,48.6508485],[2.2628727,48.650761],[2.2626348,48.6507536],[2.262709,48.6504124],[2.2628725,48.6503843]]]]},"properties":{"code_section":"91665000AK","code_commune":"91665","section_courte":"AK"}},{"type":"Feature","geometry":{"type":"MultiPolygon","coordinates":[[[[2.2670117,48.6535772],[2.2671213,48.653526],[2.2673321,48.6534999],[2.2679728,48.6535303],[2.2680035,48.6541536],[2.2681202,48.6545595],[2.2683533,48.6550378],[2.268787,48.6556132],[2.2675703,48.6559089],[2.266582,48.6560661],[2.265309,48.6563261],[2.2636252,48.6568133],[2.2632896,48.6568687],[2.2621011,48.657616],[2.2595048,48.6586802],[2.2594114,48.6587065],[2.2592846,48.6586967],[2.2591901,48.6586467],[2.2591266,48.6585014],[2.2591576,48.6582793],[2.2592838,48.6581578],[2.2598671,48.657802],[2.2598432,48.65773],[2.2601795,48.6577455],[2.2602346,48.6576855],[2.260646,48.657753],[2.2608144,48.6574612],[2.2610154,48.6573496],[2.26088,48.6572085],[2.2612899,48.6569847],[2.2610673,48.6567147],[2.2613108,48.6566051],[2.261579,48.656305],[2.2618755,48.6561819],[2.2617381,48.6558967],[2.2612226,48.6552476],[2.2622791,48.6552212],[2.2623854,48.6553388],[2.2629195,48.655223],[2.2627781,48.6548096],[2.2635611,48.6546484],[2.2632071,48.6541884],[2.2640149,48.654054],[2.2645957,48.653896],[2.2657587,48.6537548],[2.2661162,48.6536847],[2.2661943,48.6537747],[2.2670117,48.6535772]]]]},"properties":{"code_section":"91665000AL","code_commune":"91665","section_courte":"AL"}},{"type":"Feature","geometry":{"type":"MultiPolygon","coordinates":[[[[2.2577414,48.6609447],[2.2574748,48.6589741],[2.2574692,48.657905],[2.2573697,48.6570912],[2.2574055,48.6570593],[2.2591032,48.6574451],[2.2598432,48.65773],[2.2598671,48.657802],[2.2592838,48.6581578],[2.2591576,48.6582793],[2.2591433,48.6585762],[2.2591901,48.6586467],[2.2592846,48.6586967],[2.2594114,48.6587065],[2.2599624,48.65851],[2.2621011,48.657616],[2.2632896,48.6568687],[2.2636252,48.6568133],[2.2647689,48.6564651],[2.2649344,48.6568761],[2.2649822,48.6572139],[2.2654101,48.6583445],[2.2665584,48.6581294],[2.2668122,48.6583845],[2.2669515,48.6590244],[2.266934,48.6592591],[2.2667699,48.6599022],[2.2666538,48.6601775],[2.2665841,48.6602531],[2.2664248,48.6603251],[2.2662611,48.660618],[2.2674343,48.6607898],[2.2675121,48.6610782],[2.2662609,48.6613874],[2.2646903,48.6619546],[2.2644917,48.6620096],[2.264014,48.662058],[2.2587041,48.6620948],[2.2579125,48.6621694],[2.2577414,48.6609447]]]]},"properties":{"code_section":"91665000AM","code_commune":"91665","section_courte":"AM"}},{"type":"Feature","geometry":{"type":"MultiPolygon","coordinates":[[[[2.2630996,48.6663749],[2.2628332,48.6666426],[2.2624001,48.6666298],[2.262237,48.6666753],[2.2616558,48.6669371],[2.2613244,48.6669356],[2.2608943,48.6668527],[2.2606434,48.6667719],[2.2598473,48.6663519],[2.2590327,48.6660523],[2.2589893,48.6659836],[2.258991,48.6656145],[2.2576062,48.665467],[2.2574918,48.6654329],[2.2573406,48.6653202],[2.2572846,48.6651736],[2.2575166,48.6649359],[2.2575478,48.6648524],[2.2575097,48.664563],[2.2570359,48.6643542],[2.2563495,48.6641226],[2.2558589,48.6641577],[2.2535721,48.663962],[2.2537039,48.6636291],[2.2544284,48.6631051],[2.2548505,48.6629067],[2.2556429,48.6626095],[2.2557055,48.6625618],[2.2557028,48.6625087],[2.2567393,48.6623454],[2.2584275,48.6621057],[2.264014,48.662058],[2.2641128,48.6624279],[2.2640617,48.6631475],[2.2638629,48.6634723],[2.2635237,48.6636038],[2.2634309,48.6637088],[2.2634182,48.6638768],[2.2631901,48.6646112],[2.2629999,48.6660684],[2.2630195,48.6663498],[2.2630996,48.6663749]]]]},"properties":{"code_section":"91665000AN","code_commune":"91665","section_courte":"AN"}},{"type":"Feature","geometry":{"type":"MultiPolygon","coordinates":[[[[2.2558339,48.6676134],[2.255724,48.6678062],[2.2564322,48.6680457],[2.2568222,48.6681183],[2.2565511,48.6682061],[2.2563865,48.6682053],[2.2557598,48.6681539],[2.2539567,48.6680811],[2.2523139,48.6676638],[2.2489412,48.6665704],[2.2493929,48.6651631],[2.2505533,48.6648899],[2.2507516,48.6647828],[2.2502082,48.6638407],[2.2533052,48.662939],[2.2541005,48.6627322],[2.2557028,48.6625087],[2.2557055,48.6625618],[2.2556429,48.6626095],[2.2546546,48.6629895],[2.2541532,48.6632831],[2.2537039,48.6636291],[2.2535721,48.663962],[2.2558589,48.6641577],[2.2563495,48.6641226],[2.2570359,48.6643542],[2.2575097,48.664563],[2.2575478,48.6648524],[2.2575166,48.6649359],[2.2572846,48.6651736],[2.2573406,48.6653202],[2.2574918,48.6654329],[2.2567811,48.6662975],[2.2562987,48.6670693],[2.2561948,48.6670086],[2.2558339,48.6676134]]]]},"properties":{"code_section":"91665000AO","code_commune":"91665","section_courte":"AO"}}]}