{"type":"FeatureCollection","features":[{"type":"Feature","geometry":{"type":"MultiPolygon","coordinates":[[[[2.2348278,48.6904404],[2.2337447,48.6911967],[2.2335518,48.6913051],[2.2333275,48.6913282],[2.2303378,48.6891532],[2.2276873,48.6864835],[2.227058,48.685984],[2.2244265,48.6841438],[2.2252768,48.6839173],[2.2266903,48.683873],[2.2278727,48.6831052],[2.229236,48.6822965],[2.2310834,48.6813387],[2.2311247,48.6813752],[2.23065,48.6816231],[2.2327761,48.6830992],[2.2340203,48.683281],[2.2344623,48.6832896],[2.2348598,48.6832619],[2.234839,48.6833075],[2.2345544,48.6834519],[2.2358811,48.6844028],[2.2359061,48.6843777],[2.2372212,48.6851349],[2.2371077,48.6852555],[2.236891,48.6853694],[2.2374411,48.6856646],[2.237901,48.6852529],[2.2388615,48.6856971],[2.2385315,48.686072],[2.2384956,48.6861745],[2.2383214,48.6873424],[2.2379488,48.6883579],[2.2375206,48.6889172],[2.2370185,48.6894155],[2.2367051,48.6896542],[2.2364792,48.6897533],[2.2358678,48.689777],[2.2355817,48.6898513],[2.2348278,48.6904404]]]]},"properties":{"code_section":"916660000B","code_commune":"91666","section_courte":"B"}},{"type":"Feature","geometry":{"type":"MultiPolygon","coordinates":[[[[2.2325039,48.6804943],[2.2325304,48.68056],[2.2317986,48.6809932],[2.229236,48.6822965],[2.2278727,48.6831052],[2.2267553,48.6838184],[2.2268,48.6838262],[2.2266903,48.683873],[2.2252768,48.6839173],[2.2245093,48.6841172],[2.2242674,48.6836878],[2.2239598,48.6833236],[2.2237483,48.6831927],[2.2210311,48.6819077],[2.2199983,48.6815485],[2.2183782,48.6811084],[2.2178412,48.6809302],[2.2167136,48.6804871],[2.213104,48.6793271],[2.2143371,48.6787815],[2.2148364,48.6785019],[2.2170275,48.6776111],[2.2187938,48.6774208],[2.2207732,48.6770613],[2.2214689,48.6768575],[2.2218825,48.6765968],[2.222533,48.6763065],[2.2230435,48.6761742],[2.2236706,48.6760774],[2.2243939,48.6758259],[2.2246798,48.6756898],[2.2251562,48.6753926],[2.2252207,48.675313],[2.2253724,48.6747698],[2.225525,48.6745035],[2.2254834,48.6743742],[2.2259656,48.6741519],[2.2263231,48.6740588],[2.2265833,48.673951],[2.2271577,48.6736759],[2.2281514,48.6734417],[2.2283938,48.673297],[2.2286257,48.673236],[2.2296953,48.673096],[2.2318966,48.6730517],[2.2338107,48.6735462],[2.2341013,48.6735872],[2.2349297,48.6736519],[2.2368172,48.6736453],[2.2380398,48.6737594],[2.2390093,48.6736945],[2.2390828,48.6741859],[2.238938,48.6755026],[2.2391516,48.6759101],[2.2399699,48.6785197],[2.2399794,48.6786533],[2.2399206,48.678828],[2.2397857,48.6788844],[2.2391644,48.678915],[2.2385997,48.6789793],[2.2368492,48.6793679],[2.2344006,48.6797496],[2.233962,48.6798764],[2.2325039,48.6804943]]]]},"properties":{"code_section":"916660000C","code_commune":"91666","section_courte":"C"}},{"type":"Feature","geometry":{"type":"MultiPolygon","coordinates":[[[[2.218401,48.6729321],[2.2184564,48.6727983],[2.2184199,48.6724391],[2.2179685,48.6718858],[2.2191932,48.671189],[2.2205514,48.6703239],[2.2211137,48.6700228],[2.2220599,48.6696],[2.2226604,48.6693827],[2.2241654,48.6685151],[2.2245097,48.6683745],[2.2253921,48.6681043],[2.2268985,48.6676963],[2.2293174,48.6672859],[2.2304646,48.6714858],[2.2307995,48.6730715],[2.2296953,48.673096],[2.2286257,48.673236],[2.2283938,48.673297],[2.2281514,48.6734417],[2.2271577,48.6736759],[2.2263231,48.6740588],[2.2258395,48.6742019],[2.2254834,48.6743742],[2.225525,48.6745035],[2.2253724,48.6747698],[2.2252207,48.675313],[2.2251562,48.6753926],[2.2246798,48.6756898],[2.2243939,48.6758259],[2.2236706,48.6760774],[2.2230435,48.6761742],[2.222533,48.6763065],[2.2218825,48.6765968],[2.2214689,48.6768575],[2.2205387,48.6771128],[2.2187938,48.6774208],[2.2170275,48.6776111],[2.2148366,48.6785019],[2.2143371,48.6787815],[2.213104,48.6793271],[2.2120473,48.6791151],[2.2119583,48.679069],[2.2126234,48.6786749],[2.2131643,48.6783064],[2.2136644,48.6778079],[2.2146395,48.6766537],[2.2145946,48.6766423],[2.2147635,48.6764351],[2.2150665,48.6760859],[2.2151029,48.6760968],[2.2153501,48.6757821],[2.2158541,48.6750845],[2.2161311,48.6744365],[2.2163005,48.6742366],[2.2168579,48.6738013],[2.2182235,48.6730718],[2.218401,48.6729321]]]]},"properties":{"code_section":"916660000D","code_commune":"91666","section_courte":"D"}},{"type":"Feature","geometry":{"type":"MultiPolygon","coordinates":[[[[2.1957304,48.6695271],[2.195741,48.6694471],[2.1955531,48.6687323],[2.1961852,48.6682918],[2.1966071,48.6680838],[2.1968038,48.6679188],[2.1974971,48.6677606],[2.1982999,48.6676663],[2.2013237,48.667412],[2.2055547,48.6668425],[2.2072194,48.666552],[2.2085113,48.6661887],[2.2117421,48.6695434],[2.2123409,48.6710346],[2.213465,48.6708591],[2.2133166,48.6718909],[2.214725,48.6721031],[2.215227,48.6720835],[2.2164288,48.6719519],[2.2179685,48.6718858],[2.2184199,48.6724391],[2.2184564,48.6727983],[2.218401,48.6729321],[2.2182235,48.6730718],[2.2168579,48.6738013],[2.2163005,48.6742366],[2.2161311,48.6744365],[2.2158541,48.6750845],[2.2153501,48.6757821],[2.2151029,48.6760968],[2.2150665,48.6760859],[2.2147635,48.6764351],[2.2145946,48.6766423],[2.2146395,48.6766537],[2.2136644,48.6778079],[2.2131643,48.6783064],[2.2126234,48.6786749],[2.2119583,48.679069],[2.2110082,48.6786872],[2.2101322,48.678045],[2.2096636,48.67762],[2.2093131,48.6770566],[2.2088576,48.6765169],[2.2081766,48.6758628],[2.2072123,48.6752464],[2.2064046,48.6748958],[2.205797,48.6745602],[2.2045095,48.6736416],[2.2040815,48.6734383],[2.2022173,48.6727132],[2.2017681,48.6726223],[2.2012736,48.6725663],[2.1993547,48.6724852],[2.1991568,48.6725496],[2.1988988,48.6725828],[2.1986658,48.6725301],[2.1975939,48.6717348],[2.1968892,48.6708537],[2.1961023,48.6704338],[2.1959197,48.6702082],[2.1958772,48.6699513],[2.1957796,48.6698875],[2.1958888,48.6696589],[2.1957972,48.6696486],[2.1957304,48.6695271]]]]},"properties":{"code_section":"916660000E","code_commune":"91666","section_courte":"E"}},{"type":"Feature","geometry":{"type":"MultiPolygon","coordinates":[[[[2.239938,48.6787819],[2.2409546,48.6786951],[2.2412078,48.6787277],[2.241379,48.678784],[2.2415349,48.6788767],[2.2419839,48.6794601],[2.2422147,48.679683],[2.2425017,48.6798724],[2.243315,48.6802426],[2.2433442,48.680359],[2.2426414,48.6809491],[2.241772,48.6811415],[2.2417389,48.6811055],[2.2402224,48.6811575],[2.2378689,48.6817193],[2.2384139,48.6824982],[2.2391068,48.6826068],[2.239407,48.6826906],[2.2391842,48.6838881],[2.2384716,48.6839332],[2.2380134,48.6838718],[2.237264,48.6837249],[2.2368373,48.683478],[2.2358811,48.6844028],[2.2345508,48.6834485],[2.234839,48.6833075],[2.2348598,48.6832619],[2.2344623,48.6832896],[2.2340203,48.683281],[2.2327761,48.6830992],[2.23065,48.6816231],[2.2325304,48.68056],[2.2325039,48.6804943],[2.233962,48.6798764],[2.2344006,48.6797496],[2.2368492,48.6793679],[2.2385997,48.6789793],[2.2391644,48.678915],[2.2397857,48.6788844],[2.2399206,48.678828],[2.239938,48.6787819]]]]},"properties":{"code_section":"91666000AA","code_commune":"91666","section_courte":"AA"}},{"type":"Feature","geometry":{"type":"MultiPolygon","coordinates":[[[[2.2453166,48.6839984],[2.2449065,48.6842555],[2.2449062,48.6844406],[2.2440183,48.6842552],[2.243482,48.6843846],[2.2433157,48.6844483],[2.2429245,48.6847092],[2.2426542,48.6850652],[2.2426242,48.6852513],[2.2425692,48.6852951],[2.2424616,48.6853413],[2.2413843,48.6853265],[2.240982,48.6853538],[2.2407944,48.6855236],[2.2407303,48.6857039],[2.2393208,48.685043],[2.2392641,48.6850629],[2.239228,48.685168],[2.2388615,48.6856971],[2.237901,48.6852529],[2.2374411,48.6856646],[2.236891,48.6853694],[2.2371077,48.6852555],[2.2372212,48.6851349],[2.2359061,48.6843777],[2.2368373,48.683478],[2.237264,48.6837249],[2.2380134,48.6838718],[2.2384716,48.6839332],[2.2391842,48.6838881],[2.239407,48.6826906],[2.2391068,48.6826068],[2.2384139,48.6824982],[2.2378689,48.6817193],[2.2402224,48.6811575],[2.2417389,48.6811055],[2.241772,48.6811415],[2.2426909,48.680933],[2.2420776,48.6819089],[2.2446635,48.6823744],[2.2447835,48.6823257],[2.2451058,48.6817364],[2.2451303,48.6822147],[2.2454444,48.682314],[2.2454379,48.6823784],[2.2458682,48.6824449],[2.2445094,48.6830775],[2.2457954,48.6836979],[2.2453166,48.6839984]]]]},"properties":{"code_section":"91666000AB","code_commune":"91666","section_courte":"AB"}},{"type":"Feature","geometry":{"type":"MultiPolygon","coordinates":[[[[2.2452743,48.6738908],[2.2457443,48.6749907],[2.2454831,48.6751602],[2.2451796,48.6752387],[2.245336,48.6753457],[2.245551,48.6756979],[2.24578,48.6765363],[2.2452706,48.6777511],[2.2412134,48.6778943],[2.2412263,48.6778645],[2.2405591,48.6779124],[2.2403972,48.677947],[2.24026,48.678567],[2.2399699,48.6785197],[2.2391516,48.6759101],[2.238938,48.6755026],[2.2390828,48.6741859],[2.2390093,48.6736945],[2.2397001,48.6736357],[2.240574,48.6736219],[2.2413535,48.6738557],[2.2418872,48.6740838],[2.2423616,48.6741341],[2.2452136,48.6737515],[2.2452743,48.6738908]]]]},"properties":{"code_section":"91666000AC","code_commune":"91666","section_courte":"AC"}},{"type":"Feature","geometry":{"type":"MultiPolygon","coordinates":[[[[2.2450913,48.6812182],[2.2451058,48.6817364],[2.2447835,48.6823257],[2.2446635,48.6823744],[2.2420776,48.6819089],[2.2426909,48.680933],[2.2433442,48.680359],[2.243315,48.6802426],[2.2425017,48.6798724],[2.2422147,48.679683],[2.2419839,48.6794601],[2.2415349,48.6788767],[2.241379,48.678784],[2.2412078,48.6787277],[2.2409546,48.6786951],[2.239938,48.6787819],[2.2399699,48.6785197],[2.24026,48.678567],[2.2403972,48.677947],[2.2405591,48.6779124],[2.2412263,48.6778645],[2.2412134,48.6778943],[2.2452706,48.6777511],[2.2450045,48.678622],[2.2450913,48.6812182]]]]},"properties":{"code_section":"91666000AD","code_commune":"91666","section_courte":"AD"}},{"type":"Feature","geometry":{"type":"MultiPolygon","coordinates":[[[[2.2027084,48.6842185],[2.2027499,48.6820621],[2.203225,48.6820416],[2.2038097,48.681869],[2.2043595,48.6817804],[2.2044963,48.6808867],[2.2054204,48.6808062],[2.2055649,48.6807669],[2.2058465,48.6806248],[2.2071372,48.680385],[2.2141762,48.6855819],[2.2131464,48.6856887],[2.2111036,48.6861139],[2.2106,48.6861276],[2.210142,48.686078],[2.204722,48.6851986],[2.2047148,48.6849852],[2.2035675,48.6850708],[2.2026951,48.6851707],[2.2027084,48.6842185]]]]},"properties":{"code_section":"91666000AE","code_commune":"91666","section_courte":"AE"}},{"type":"Feature","geometry":{"type":"MultiPolygon","coordinates":[[[[2.2099559,48.6802061],[2.2103011,48.6799027],[2.2108488,48.6795453],[2.2119583,48.679069],[2.2120473,48.6791151],[2.213104,48.6793271],[2.2167136,48.6804871],[2.2191911,48.6854435],[2.2185159,48.6854196],[2.2171856,48.6854362],[2.215276,48.6854939],[2.2141762,48.6855819],[2.2071372,48.680385],[2.2078481,48.6802573],[2.2092184,48.6797264],[2.2099559,48.6802061]]]]},"properties":{"code_section":"91666000AH","code_commune":"91666","section_courte":"AH"}},{"type":"Feature","geometry":{"type":"MultiPolygon","coordinates":[[[[2.2191911,48.6854435],[2.2167136,48.6804871],[2.2178412,48.6809302],[2.2183782,48.6811084],[2.220229,48.6816188],[2.2209511,48.6818754],[2.2216529,48.6821849],[2.2237483,48.6831927],[2.2239598,48.6833236],[2.2242674,48.6836878],[2.2245093,48.6841172],[2.2216997,48.6851345],[2.2213345,48.6852379],[2.2204324,48.6854048],[2.2198693,48.6854452],[2.2191911,48.6854435]]]]},"properties":{"code_section":"91666000AI","code_commune":"91666","section_courte":"AI"}}]}