{"type":"FeatureCollection","features":[{"type":"Feature","geometry":{"type":"MultiPolygon","coordinates":[[[[2.2232048,48.6960121],[2.2190354,48.6962597],[2.2182906,48.6953908],[2.2180925,48.695259],[2.2168291,48.694914],[2.2164809,48.6944048],[2.2160393,48.6943075],[2.2153916,48.6938043],[2.215413,48.6936836],[2.2156951,48.6937303],[2.2163302,48.6937451],[2.2174358,48.6936241],[2.2185386,48.6937538],[2.2203522,48.6935482],[2.2212374,48.6933501],[2.2218562,48.6930697],[2.2225475,48.6926347],[2.2235957,48.6923442],[2.2243496,48.691926],[2.2243032,48.691905],[2.2248292,48.6915313],[2.2251146,48.6911061],[2.2253537,48.6910269],[2.2256285,48.6910081],[2.2255721,48.6911451],[2.2256039,48.6912852],[2.2254481,48.6914263],[2.2252283,48.6918222],[2.2251264,48.6918595],[2.2250204,48.6920283],[2.2250407,48.6920753],[2.2254176,48.6922972],[2.2254099,48.6926698],[2.2255288,48.6928853],[2.2254362,48.6930228],[2.2254523,48.6930638],[2.2254933,48.6931287],[2.2257888,48.6933146],[2.2259284,48.6935485],[2.2259482,48.6939476],[2.2258532,48.6941934],[2.2259028,48.6942851],[2.225713,48.6944854],[2.2259062,48.6948546],[2.2258492,48.6949961],[2.225858,48.6950968],[2.2255966,48.6950508],[2.225094,48.6947561],[2.2246653,48.6951104],[2.2235079,48.6958856],[2.2232048,48.6960121]]]]},"properties":{"code_section":"916610000A","code_commune":"91661","section_courte":"A"}},{"type":"Feature","geometry":{"type":"MultiPolygon","coordinates":[[[[2.2358567,48.6934693],[2.2367308,48.6935145],[2.237201,48.6937207],[2.2375611,48.6939837],[2.2381074,48.6945998],[2.2385782,48.6948945],[2.2397733,48.6957655],[2.2395757,48.6958902],[2.2392232,48.6960062],[2.2388462,48.6960592],[2.2383452,48.6960723],[2.2382159,48.6962657],[2.2380109,48.6967348],[2.2375255,48.6981812],[2.2373782,48.6982476],[2.2366875,48.698209],[2.236038,48.6981246],[2.2343566,48.6980343],[2.2338842,48.6979754],[2.2336378,48.6979106],[2.2317515,48.6977453],[2.2309209,48.6973468],[2.2305143,48.6972116],[2.2297873,48.697059],[2.2286775,48.696949],[2.2285852,48.6969838],[2.2285265,48.6971076],[2.2283699,48.6970351],[2.2281848,48.6970316],[2.2278019,48.6971275],[2.227666,48.6971181],[2.2274953,48.6970554],[2.2274195,48.6969827],[2.2273983,48.6968684],[2.2276026,48.6961763],[2.2274363,48.6961677],[2.227344,48.6964332],[2.2268484,48.6963537],[2.2266388,48.6960938],[2.2265424,48.6960554],[2.226564,48.6960079],[2.2260637,48.6953823],[2.2259605,48.6951529],[2.225858,48.6950968],[2.2258492,48.6949961],[2.2259062,48.6948546],[2.225713,48.6944854],[2.2259028,48.6942851],[2.2258532,48.6941934],[2.2259482,48.6939476],[2.2259284,48.6935485],[2.2257888,48.6933146],[2.2254933,48.6931287],[2.2254523,48.6930638],[2.2254362,48.6930228],[2.2255288,48.6928853],[2.2254099,48.6926698],[2.2253948,48.6924569],[2.2254341,48.6923257],[2.2250407,48.6920753],[2.2250317,48.6919899],[2.2251264,48.6918595],[2.2274325,48.6929475],[2.2290025,48.6935795],[2.2293154,48.6934556],[2.2298829,48.6931487],[2.2301313,48.6929465],[2.2315728,48.6921377],[2.2332951,48.6913907],[2.2352342,48.6931411],[2.2354677,48.693324],[2.2358567,48.6934693]]]]},"properties":{"code_section":"916610000B","code_commune":"91661","section_courte":"B"}},{"type":"Feature","geometry":{"type":"MultiPolygon","coordinates":[[[[2.2547664,48.6930867],[2.2550476,48.6930635],[2.255277,48.6931029],[2.2554845,48.6930722],[2.2558762,48.6931603],[2.2560739,48.693167],[2.2563565,48.6932766],[2.2567415,48.6933769],[2.2574296,48.6936383],[2.257671,48.6937617],[2.2571002,48.6944153],[2.2575876,48.695444],[2.2576384,48.6956847],[2.257701,48.6957786],[2.2580891,48.6960202],[2.2582036,48.695902],[2.2583031,48.6958984],[2.2595656,48.6961047],[2.2615947,48.6971939],[2.2636203,48.6965426],[2.2639574,48.696341],[2.2647129,48.6961292],[2.2651663,48.6966229],[2.2652518,48.6966125],[2.2653124,48.6966762],[2.265611,48.6967595],[2.2656518,48.6968144],[2.2656237,48.6970069],[2.2656798,48.6970733],[2.265628,48.6971054],[2.267696,48.6993101],[2.2676583,48.6993267],[2.2676618,48.6994003],[2.2682628,48.6998678],[2.2683644,48.7000228],[2.2683745,48.7002234],[2.2682548,48.700358],[2.2681343,48.7004409],[2.267812,48.7005671],[2.2676226,48.7006156],[2.2672833,48.7006459],[2.2664494,48.7006384],[2.2637738,48.7005002],[2.263653,48.7005302],[2.2636344,48.7004985],[2.2592402,48.701559],[2.2585756,48.7012486],[2.2583225,48.7010251],[2.2579649,48.7008929],[2.2576783,48.7007308],[2.2571137,48.7000157],[2.254235,48.7007141],[2.2540006,48.7007319],[2.2535093,48.7006357],[2.2524842,48.7009327],[2.2498321,48.6981647],[2.2497167,48.6980952],[2.2456523,48.693925],[2.2456337,48.6938112],[2.2457307,48.6936168],[2.2485365,48.6939665],[2.2485605,48.6939948],[2.2495717,48.6939187],[2.2493706,48.6932041],[2.2503855,48.6930272],[2.2510805,48.6928617],[2.2504938,48.6921434],[2.2507339,48.6920755],[2.2505094,48.6916438],[2.2501697,48.6917375],[2.2497951,48.6910873],[2.249248,48.6912972],[2.2490137,48.6912551],[2.2483783,48.690928],[2.2482552,48.691037],[2.2480107,48.6909532],[2.2481429,48.6908585],[2.2478886,48.6907364],[2.2477002,48.6909944],[2.2468534,48.690675],[2.2470099,48.6903089],[2.2476321,48.6898655],[2.2504499,48.6887372],[2.2509081,48.688621],[2.2510163,48.6891631],[2.2510668,48.6899007],[2.2511996,48.6902932],[2.2514962,48.6905892],[2.2520981,48.6910912],[2.252372,48.6912798],[2.2526513,48.6914169],[2.2528664,48.6917567],[2.2536928,48.6923109],[2.2532771,48.6925118],[2.2540052,48.6925406],[2.254094,48.6925737],[2.254485,48.6929838],[2.2547664,48.6930867]]]]},"properties":{"code_section":"916610000D","code_commune":"91661","section_courte":"D"}},{"type":"Feature","geometry":{"type":"MultiPolygon","coordinates":[[[[2.2457158,48.6936417],[2.2456337,48.6938112],[2.2456523,48.693925],[2.2497167,48.6980952],[2.2498321,48.6981647],[2.2475353,48.6989601],[2.2468538,48.6981631],[2.246629,48.6976929],[2.2463936,48.697633],[2.245986,48.698336],[2.2458958,48.698581],[2.2457174,48.6983301],[2.2441275,48.698998],[2.2433209,48.6985953],[2.2419206,48.6980698],[2.2380109,48.6967348],[2.2382159,48.6962657],[2.2383452,48.6960723],[2.2388462,48.6960592],[2.2392232,48.6960062],[2.2395757,48.6958902],[2.2397733,48.6957655],[2.2385782,48.6948945],[2.2381074,48.6945998],[2.2375611,48.6939837],[2.237201,48.6937207],[2.2367308,48.6935145],[2.2358567,48.6934693],[2.2354677,48.693324],[2.2333731,48.6914452],[2.2340652,48.6910172],[2.2352705,48.6901983],[2.2354267,48.6900048],[2.235554,48.6899316],[2.2359983,48.6897983],[2.2365145,48.6898024],[2.236961,48.6895302],[2.2373776,48.6891453],[2.237907,48.6884387],[2.2380751,48.6878864],[2.2382548,48.6875317],[2.2385589,48.6860763],[2.2386358,48.6859407],[2.2389009,48.6856761],[2.23909,48.6853994],[2.2391658,48.6851747],[2.239233,48.6851202],[2.2393596,48.6851148],[2.2394171,48.6852189],[2.2401741,48.6855045],[2.2407543,48.6858172],[2.2408103,48.6856718],[2.2409729,48.685478],[2.241244,48.6854083],[2.2414512,48.6853958],[2.2419396,48.6857198],[2.2423439,48.6860612],[2.2425178,48.6862953],[2.2426461,48.6866542],[2.2428181,48.6868802],[2.2432108,48.6869859],[2.2438411,48.6870752],[2.2440144,48.6869953],[2.2443389,48.6869397],[2.2451004,48.6867289],[2.2456015,48.6865522],[2.2459026,48.6864166],[2.2459903,48.6862453],[2.2460434,48.6862387],[2.2463038,48.6862913],[2.247532,48.6868065],[2.2479296,48.6866362],[2.2479915,48.6866387],[2.248426,48.6868969],[2.2484717,48.6868814],[2.2498503,48.6878002],[2.2509081,48.688621],[2.2504499,48.6887372],[2.2476321,48.6898655],[2.2470099,48.6903089],[2.2467668,48.6908724],[2.2460911,48.6905664],[2.2457807,48.690888],[2.245574,48.6913207],[2.2450632,48.6922033],[2.2450837,48.6927653],[2.2450478,48.6928205],[2.2462071,48.6927535],[2.245774,48.6936221],[2.2457158,48.6936417]]]]},"properties":{"code_section":"916610000E","code_commune":"91661","section_courte":"E"}},{"type":"Feature","geometry":{"type":"MultiPolygon","coordinates":[[[[2.2130724,48.7019941],[2.2128018,48.7019587],[2.212645,48.7017995],[2.2121655,48.7019035],[2.2119941,48.7018741],[2.2118412,48.7017612],[2.2117155,48.701762],[2.2113666,48.7018483],[2.21086,48.7018401],[2.2104604,48.7017966],[2.2098622,48.7016633],[2.209787,48.7017736],[2.2096067,48.7015185],[2.2094185,48.7011051],[2.209099,48.7007751],[2.2089743,48.7005827],[2.2088166,48.6999716],[2.2086913,48.6996736],[2.2081985,48.6990095],[2.2093699,48.6991968],[2.2102096,48.6993801],[2.2121254,48.7000448],[2.2124567,48.700072],[2.2138847,48.7000215],[2.2140851,48.6999707],[2.2138712,48.6995365],[2.2142804,48.699503],[2.2146987,48.6993861],[2.2176975,48.698242],[2.2199545,48.697341],[2.2204843,48.6979418],[2.2208442,48.6986749],[2.2209446,48.6991529],[2.2209307,48.7003722],[2.2208765,48.7013149],[2.2207741,48.7014934],[2.2209798,48.7018926],[2.220163,48.702029],[2.2200647,48.7020834],[2.2199152,48.7023141],[2.2198078,48.7023566],[2.2196278,48.7022887],[2.2194233,48.7021206],[2.219366,48.7020218],[2.2192582,48.7019949],[2.2191435,48.7020148],[2.2189095,48.7021281],[2.2187269,48.7021288],[2.2184181,48.7020504],[2.2179761,48.7019838],[2.2174734,48.7021385],[2.217141,48.7020511],[2.2165216,48.7020765],[2.2161477,48.7021462],[2.2159534,48.7020411],[2.2157024,48.7016886],[2.2153401,48.7015894],[2.2150779,48.7015922],[2.2148254,48.7017022],[2.2147428,48.7018039],[2.2146881,48.7020523],[2.2145485,48.702118],[2.2142481,48.7021954],[2.2140282,48.7023067],[2.2139445,48.7023041],[2.2135503,48.702074],[2.2135517,48.7018824],[2.2134541,48.7017854],[2.2133558,48.7017912],[2.2131835,48.7019546],[2.2130724,48.7019941]]]]},"properties":{"code_section":"91661000AB","code_commune":"91661","section_courte":"AB"}},{"type":"Feature","geometry":{"type":"MultiPolygon","coordinates":[[[[2.2127865,48.6972135],[2.2140851,48.6999707],[2.2138847,48.7000215],[2.2124567,48.700072],[2.2121254,48.7000448],[2.2102096,48.6993801],[2.2093699,48.6991968],[2.2084073,48.699036],[2.2074696,48.6984278],[2.2066393,48.6977835],[2.2065549,48.6976227],[2.2066418,48.6972184],[2.2066224,48.6970093],[2.2061878,48.6956402],[2.2055293,48.6953717],[2.2054181,48.6952556],[2.2054239,48.6951544],[2.205779,48.6948767],[2.2059837,48.6946402],[2.2066902,48.6942079],[2.207574,48.6937906],[2.2077695,48.693529],[2.2087086,48.6937847],[2.2091585,48.6938735],[2.2099728,48.6939327],[2.2105587,48.693933],[2.2109788,48.6938688],[2.2118029,48.6936704],[2.2118548,48.6938922],[2.2118081,48.6940144],[2.2111083,48.6945332],[2.2113282,48.6953422],[2.211829,48.6955577],[2.2123104,48.6955512],[2.2123155,48.696121],[2.2124314,48.6964923],[2.2127865,48.6972135]]]]},"properties":{"code_section":"91661000AC","code_commune":"91661","section_courte":"AC"}},{"type":"Feature","geometry":{"type":"MultiPolygon","coordinates":[[[[2.2198703,48.6972391],[2.2199545,48.697341],[2.2158805,48.6989461],[2.2146987,48.6993861],[2.2142804,48.699503],[2.2138712,48.6995365],[2.2124314,48.6964923],[2.2123155,48.696121],[2.2123104,48.6955512],[2.211829,48.6955577],[2.2113282,48.6953422],[2.2111083,48.6945332],[2.2118081,48.6940144],[2.2118548,48.6938922],[2.2118029,48.6936704],[2.2121881,48.6935883],[2.2129278,48.6935571],[2.2147187,48.6935779],[2.215413,48.6936836],[2.2153916,48.6938043],[2.2160393,48.6943075],[2.2164809,48.6944048],[2.2168291,48.694914],[2.2180925,48.695259],[2.2182906,48.6953908],[2.2198703,48.6972391]]]]},"properties":{"code_section":"91661000AD","code_commune":"91661","section_courte":"AD"}},{"type":"Feature","geometry":{"type":"MultiPolygon","coordinates":[[[[2.2292616,48.6996997],[2.2296886,48.7011726],[2.2294921,48.7011891],[2.2294518,48.7013646],[2.2293497,48.7013004],[2.2292071,48.7013019],[2.2288867,48.7014103],[2.228644,48.7014423],[2.2282734,48.7015426],[2.2281356,48.701627],[2.2279118,48.7016964],[2.227706,48.7017215],[2.2275166,48.7016628],[2.227442,48.7016097],[2.2273686,48.7015004],[2.2273401,48.7013607],[2.2272466,48.7013341],[2.2269415,48.7013546],[2.2267972,48.7014195],[2.2266473,48.7016381],[2.2262846,48.7017855],[2.2258866,48.7018454],[2.2258019,48.7018349],[2.2256554,48.701732],[2.2251987,48.7012471],[2.2247214,48.7011774],[2.2245332,48.7011767],[2.2244249,48.7012535],[2.2243384,48.7014408],[2.2240153,48.701557],[2.2233792,48.701896],[2.2231357,48.7018684],[2.2229951,48.7017716],[2.2228855,48.7016348],[2.2227542,48.7016098],[2.2224082,48.7016903],[2.2223709,48.7017239],[2.2223609,48.7020503],[2.2222041,48.7021168],[2.2220892,48.7021057],[2.221956,48.7020505],[2.2217841,48.7018965],[2.2216691,48.7018517],[2.2212341,48.701835],[2.2209895,48.701918],[2.2207741,48.7014934],[2.2208765,48.7013149],[2.2209307,48.7003722],[2.2209446,48.6991529],[2.2208442,48.6986749],[2.2223364,48.6983436],[2.2231595,48.6980432],[2.2236011,48.6979177],[2.2246884,48.6993763],[2.225886,48.6987762],[2.2263147,48.6986492],[2.2268496,48.6985464],[2.226949,48.6988987],[2.2271672,48.6992065],[2.227869,48.69974],[2.2291923,48.6994413],[2.2292616,48.6996997]]]]},"properties":{"code_section":"91661000AE","code_commune":"91661","section_courte":"AE"}},{"type":"Feature","geometry":{"type":"MultiPolygon","coordinates":[[[[2.2339332,48.7009353],[2.2338761,48.7010002],[2.2335241,48.7011231],[2.2334177,48.701118],[2.2329282,48.7009795],[2.231763,48.7009661],[2.2310244,48.7011599],[2.2303897,48.7014944],[2.2301474,48.7015603],[2.2298432,48.7015637],[2.2295239,48.7014427],[2.2294486,48.7013484],[2.2294921,48.7011891],[2.2296886,48.7011726],[2.2291923,48.6994413],[2.227869,48.69974],[2.2271881,48.6992308],[2.226949,48.6988987],[2.2268527,48.6985938],[2.2268496,48.6985464],[2.2284373,48.6985753],[2.2292396,48.6985078],[2.2285265,48.6971076],[2.2285852,48.6969838],[2.2286775,48.696949],[2.2297873,48.697059],[2.2305143,48.6972116],[2.2309209,48.6973468],[2.2317515,48.6977453],[2.2336378,48.6979106],[2.2338842,48.6979754],[2.2343566,48.6980343],[2.236038,48.6981246],[2.2366875,48.698209],[2.237304,48.6982451],[2.2373782,48.6982476],[2.2375255,48.6981812],[2.2380109,48.6967348],[2.2404079,48.6975532],[2.2396839,48.6985858],[2.2393659,48.6991179],[2.2395836,48.6991493],[2.2389838,48.7003084],[2.2387719,48.7005379],[2.2384625,48.7004885],[2.2380148,48.7011122],[2.2378775,48.7013722],[2.2378988,48.701453],[2.237789,48.701508],[2.2374673,48.7015213],[2.2369327,48.7013682],[2.2367159,48.7011727],[2.2360956,48.701195],[2.2359999,48.70115],[2.2359995,48.7009383],[2.235843,48.7008505],[2.2356626,48.7008211],[2.2350175,48.7008053],[2.234837,48.7008722],[2.2343739,48.7008612],[2.234064,48.7008946],[2.2339332,48.7009353]]]]},"properties":{"code_section":"91661000AH","code_commune":"91661","section_courte":"AH"}},{"type":"Feature","geometry":{"type":"MultiPolygon","coordinates":[[[[2.2485767,48.7039828],[2.2485817,48.7041835],[2.2487378,48.7048183],[2.248481,48.7049542],[2.2476274,48.7055869],[2.2453643,48.7045092],[2.2448345,48.7041699],[2.2436145,48.7037003],[2.2434328,48.7035825],[2.2430696,48.7032527],[2.242775,48.7038735],[2.2425744,48.7041528],[2.2423237,48.704279],[2.2421296,48.7038581],[2.2419855,48.7037191],[2.2417979,48.7036809],[2.2413217,48.7036879],[2.2412037,48.7036316],[2.2411346,48.7032743],[2.2407456,48.7028307],[2.2407434,48.7026185],[2.2405419,48.7023447],[2.2403208,48.7022904],[2.2399554,48.7023581],[2.2397303,48.7023011],[2.2396916,48.7022613],[2.2396987,48.7020647],[2.2396095,48.7018989],[2.2394129,48.701748],[2.2390562,48.7015821],[2.2389224,48.7014845],[2.2383774,48.7014611],[2.2382358,48.701394],[2.2378966,48.7014436],[2.2378775,48.7013722],[2.2380148,48.7011122],[2.2384625,48.7004885],[2.2387719,48.7005379],[2.2389838,48.7003084],[2.2395836,48.6991493],[2.2393659,48.6991179],[2.2396839,48.6985858],[2.2404079,48.6975532],[2.2419206,48.6980698],[2.2433209,48.6985953],[2.2441275,48.698998],[2.2450781,48.6995138],[2.2462879,48.7003376],[2.2473278,48.701244],[2.2480395,48.7010336],[2.2486035,48.7011027],[2.2492593,48.7010929],[2.2498233,48.7021292],[2.2490239,48.7023964],[2.2484286,48.7025602],[2.2490474,48.7036802],[2.2485279,48.7037926],[2.2485767,48.7039828]]]]},"properties":{"code_section":"91661000AI","code_commune":"91661","section_courte":"AI"}},{"type":"Feature","geometry":{"type":"MultiPolygon","coordinates":[[[[2.2508571,48.6992362],[2.2524842,48.7009327],[2.2535093,48.7006357],[2.2540006,48.7007319],[2.254235,48.7007141],[2.2571137,48.7000157],[2.2576783,48.7007308],[2.2579649,48.7008929],[2.2583225,48.7010251],[2.2585756,48.7012486],[2.2592402,48.701559],[2.2636344,48.7004985],[2.263653,48.7005302],[2.2637738,48.7005002],[2.2669021,48.7006541],[2.2676226,48.7006156],[2.267812,48.7005671],[2.2681343,48.7004409],[2.2683745,48.7002234],[2.2683644,48.7000228],[2.2682628,48.6998678],[2.2676618,48.6994003],[2.2676583,48.6993267],[2.2678747,48.6992316],[2.2690116,48.7004495],[2.2687506,48.7005677],[2.2687097,48.700769],[2.2683048,48.700974],[2.2682228,48.7010745],[2.2682809,48.7011664],[2.2686329,48.7013179],[2.268675,48.701364],[2.2685555,48.701552],[2.2685302,48.7018162],[2.2683653,48.7021934],[2.2681496,48.7031164],[2.2675542,48.7030066],[2.2673269,48.7033584],[2.2675183,48.7034628],[2.2681065,48.703391],[2.2680889,48.7036194],[2.2681431,48.7040773],[2.2680711,48.7042795],[2.2678351,48.7044688],[2.2673868,48.7047212],[2.2668287,48.7048338],[2.266486,48.7049972],[2.2657793,48.7050859],[2.2653832,48.7053321],[2.2652529,48.7052903],[2.2651879,48.7050444],[2.2649463,48.7049704],[2.2647301,48.7049484],[2.2638919,48.7052185],[2.2635249,48.7054381],[2.2631082,48.7054978],[2.2627619,48.7055002],[2.262184,48.7058101],[2.2617659,48.7061016],[2.2613478,48.7062235],[2.2611501,48.7063273],[2.2609186,48.7063667],[2.2607548,48.706514],[2.2592007,48.70651],[2.2579313,48.7064594],[2.2569217,48.7066005],[2.2566955,48.7066006],[2.2561292,48.7065183],[2.2549283,48.7066725],[2.2545905,48.7068216],[2.2537299,48.7073669],[2.2536938,48.7074309],[2.253696,48.7077508],[2.25309,48.7080443],[2.2522055,48.708715],[2.2514401,48.7083967],[2.2505432,48.7084585],[2.2503651,48.7084321],[2.2498811,48.7085613],[2.2495167,48.7085779],[2.2492414,48.7085304],[2.2486186,48.7082002],[2.2476372,48.7081815],[2.2467714,48.7082611],[2.2462763,48.7081508],[2.2454169,48.7078615],[2.2451853,48.7074591],[2.2444862,48.7073256],[2.2441463,48.7071468],[2.2435334,48.7066676],[2.2433953,48.7065186],[2.2432926,48.7062445],[2.2431709,48.7057976],[2.2432106,48.7055513],[2.2428307,48.7052106],[2.2422911,48.704286],[2.2425744,48.7041528],[2.242775,48.7038735],[2.2430696,48.7032527],[2.2434328,48.7035825],[2.2436145,48.7037003],[2.2448345,48.7041699],[2.2453643,48.7045092],[2.2476274,48.7055869],[2.248481,48.7049542],[2.2487378,48.7048183],[2.2485279,48.7037926],[2.2490474,48.7036802],[2.2484286,48.7025602],[2.2490239,48.7023964],[2.2498233,48.7021292],[2.2492593,48.7010929],[2.2486035,48.7011027],[2.2480395,48.7010336],[2.2473278,48.701244],[2.2462879,48.7003376],[2.2450781,48.6995138],[2.2441275,48.698998],[2.2457174,48.6983301],[2.2458958,48.698581],[2.245986,48.698336],[2.2463936,48.697633],[2.246629,48.6976929],[2.2468538,48.6981631],[2.2475353,48.6989601],[2.2498321,48.6981647],[2.2508571,48.6992362]]]]},"properties":{"code_section":"91661000AK","code_commune":"91661","section_courte":"AK"}},{"type":"Feature","geometry":{"type":"MultiPolygon","coordinates":[[[[2.2450478,48.6928205],[2.2450837,48.6927653],[2.2450632,48.6922033],[2.245574,48.6913207],[2.2457807,48.690888],[2.2460911,48.6905664],[2.2467668,48.6908724],[2.2468534,48.690675],[2.2477002,48.6909944],[2.2478886,48.6907364],[2.2481429,48.6908585],[2.2480107,48.6909532],[2.2482552,48.691037],[2.2483783,48.690928],[2.2490137,48.6912551],[2.249248,48.6912972],[2.2497951,48.6910873],[2.2501697,48.6917375],[2.2505094,48.6916438],[2.2507339,48.6920755],[2.2504938,48.6921434],[2.2510805,48.6928617],[2.2503855,48.6930272],[2.2493706,48.6932041],[2.2495717,48.6939187],[2.2485605,48.6939948],[2.2485365,48.6939665],[2.245774,48.6936221],[2.2462071,48.6927535],[2.2450478,48.6928205]]]]},"properties":{"code_section":"91661000AL","code_commune":"91661","section_courte":"AL"}},{"type":"Feature","geometry":{"type":"MultiPolygon","coordinates":[[[[2.2235079,48.6958856],[2.2246653,48.6951104],[2.225094,48.6947561],[2.2255966,48.6950508],[2.225858,48.6950968],[2.2259605,48.6951529],[2.2260637,48.6953823],[2.226564,48.6960079],[2.2265424,48.6960554],[2.2266388,48.6960938],[2.2268484,48.6963537],[2.227344,48.6964332],[2.2274363,48.6961677],[2.2276026,48.6961763],[2.2273983,48.6968684],[2.2274195,48.6969827],[2.2274953,48.6970554],[2.227666,48.6971181],[2.2278019,48.6971275],[2.2281848,48.6970316],[2.2283699,48.6970351],[2.2285265,48.6971076],[2.2292396,48.6985078],[2.2284373,48.6985753],[2.2267552,48.6985506],[2.225886,48.6987762],[2.2246884,48.6993763],[2.2236011,48.6979177],[2.2231595,48.6980432],[2.2223364,48.6983436],[2.2208442,48.6986749],[2.2204843,48.6979418],[2.2190354,48.6962597],[2.2232048,48.6960121],[2.2235079,48.6958856]]]]},"properties":{"code_section":"91661000AN","code_commune":"91661","section_courte":"AN"}},{"type":"Feature","geometry":{"type":"MultiPolygon","coordinates":[[[[2.2115128,48.6899725],[2.2118864,48.6924572],[2.2119558,48.6925656],[2.2120795,48.692636],[2.2122768,48.6926663],[2.2155021,48.6924524],[2.2156951,48.6937303],[2.2147187,48.6935779],[2.2129278,48.6935571],[2.2121881,48.6935883],[2.2109788,48.6938688],[2.2105587,48.693933],[2.2099728,48.6939327],[2.2091585,48.6938735],[2.2087086,48.6937847],[2.2077695,48.693529],[2.2074572,48.6930079],[2.2073337,48.6929076],[2.2045359,48.692262],[2.2043646,48.6920305],[2.2042488,48.6918065],[2.2047131,48.6884274],[2.2061641,48.6883551],[2.2063901,48.6897465],[2.2065319,48.6898188],[2.2066626,48.6898291],[2.2108334,48.6895597],[2.2113716,48.6896548],[2.2113973,48.6897443],[2.2114921,48.6898351],[2.2115128,48.6899725]]]]},"properties":{"code_section":"91661000AO","code_commune":"91661","section_courte":"AO"}},{"type":"Feature","geometry":{"type":"MultiPolygon","coordinates":[[[[2.213905,48.6892163],[2.2139741,48.6891574],[2.2154502,48.6898924],[2.2169456,48.6885708],[2.2170899,48.6881489],[2.2174446,48.687808],[2.224601,48.6917056],[2.2243032,48.691905],[2.2243496,48.691926],[2.2235957,48.6923442],[2.2225475,48.6926347],[2.2218562,48.6930697],[2.2212374,48.6933501],[2.2203522,48.6935482],[2.2185386,48.6937538],[2.2174358,48.6936241],[2.2163302,48.6937451],[2.2156951,48.6937303],[2.2155021,48.6924524],[2.2122768,48.6926663],[2.2120166,48.6926075],[2.2118864,48.6924572],[2.211499,48.6898546],[2.2113973,48.6897443],[2.2113913,48.6895121],[2.2120176,48.6887893],[2.2131869,48.6890418],[2.2138313,48.6892795],[2.213905,48.6892163]]]]},"properties":{"code_section":"91661000AP","code_commune":"91661","section_courte":"AP"}},{"type":"Feature","geometry":{"type":"MultiPolygon","coordinates":[[[[2.2151684,48.6897517],[2.2139741,48.6891574],[2.2138313,48.6892795],[2.2131869,48.6890418],[2.2120176,48.6887893],[2.2113913,48.6895121],[2.2114144,48.6895723],[2.2113716,48.6896548],[2.2108334,48.6895597],[2.2066626,48.6898291],[2.2065319,48.6898188],[2.2063901,48.6897465],[2.2061641,48.6883551],[2.2047131,48.6884274],[2.204854,48.6874027],[2.2047228,48.685229],[2.2058358,48.6853736],[2.21053,48.6861513],[2.210876,48.6861497],[2.2114053,48.6860886],[2.2124917,48.6858604],[2.2174446,48.687808],[2.2170899,48.6881489],[2.2169456,48.6885708],[2.2154502,48.6898924],[2.2151684,48.6897517]]]]},"properties":{"code_section":"91661000AR","code_commune":"91661","section_courte":"AR"}},{"type":"Feature","geometry":{"type":"MultiPolygon","coordinates":[[[[2.2256336,48.6910226],[2.2253537,48.6910269],[2.2251146,48.6911061],[2.2248292,48.6915313],[2.224601,48.6917056],[2.2174446,48.687808],[2.2124917,48.6858604],[2.2139131,48.6855481],[2.2151447,48.6854367],[2.2158595,48.6854057],[2.2195782,48.6854234],[2.220343,48.6854057],[2.2210285,48.6853263],[2.2217343,48.6851188],[2.2244654,48.6841204],[2.2275964,48.6863864],[2.2297509,48.6885603],[2.2306403,48.6893988],[2.2333386,48.6913737],[2.2315728,48.6921377],[2.2301313,48.6929465],[2.2298829,48.6931487],[2.2293154,48.6934556],[2.2290025,48.6935795],[2.2274325,48.6929475],[2.2251264,48.6918595],[2.2252283,48.6918222],[2.2254481,48.6914263],[2.2256039,48.6912852],[2.2255721,48.6911451],[2.2256336,48.6910226]]]]},"properties":{"code_section":"91661000AS","code_commune":"91661","section_courte":"AS"}}]}