{"type":"FeatureCollection","features":[{"type":"Feature","geometry":{"type":"MultiPolygon","coordinates":[[[[2.1031728,48.7376777],[2.1028838,48.7375687],[2.1025607,48.7376946],[2.1024091,48.7376921],[2.1023404,48.7376474],[2.1023054,48.7374904],[2.0984641,48.7352436],[2.0980715,48.7348377],[2.0980223,48.7342053],[2.0984455,48.7339681],[2.1024977,48.732696],[2.1033436,48.7328926],[2.1035731,48.7328728],[2.1044358,48.7337401],[2.106652,48.736196],[2.1090202,48.7392612],[2.1088804,48.739193],[2.1049202,48.7381222],[2.1033558,48.7375936],[2.1031728,48.7376777]]]]},"properties":{"code_section":"916790000A","code_commune":"91679","section_courte":"A"}},{"type":"Feature","geometry":{"type":"MultiPolygon","coordinates":[[[[2.1460238,48.7296461],[2.1463836,48.7297164],[2.1467332,48.7315571],[2.145732,48.7317731],[2.1454769,48.7312041],[2.1441298,48.731277],[2.1443709,48.7317758],[2.144345,48.7318225],[2.1411052,48.7333937],[2.135099,48.7372898],[2.1345387,48.7373901],[2.128059,48.7375442],[2.1283729,48.736081],[2.1289086,48.7328494],[2.1288063,48.7325856],[2.1268728,48.7329074],[2.1271698,48.7312124],[2.1275448,48.7296891],[2.1276285,48.7290979],[2.1277185,48.7287883],[2.1269384,48.7276793],[2.1260307,48.7266843],[2.1256428,48.726139],[2.1267827,48.7256791],[2.1268255,48.725553],[2.1271308,48.7256865],[2.1296882,48.7259749],[2.1297935,48.7260137],[2.131483,48.72616],[2.1337258,48.7256988],[2.1364026,48.725525],[2.1376427,48.7251044],[2.13843,48.7245816],[2.1380117,48.7239035],[2.138119,48.7237712],[2.1384325,48.7237968],[2.1388635,48.7240146],[2.1412632,48.7235514],[2.1433815,48.7232421],[2.1457739,48.729277],[2.1460238,48.7296461]]]]},"properties":{"code_section":"916790000B","code_commune":"91679","section_courte":"B"}},{"type":"Feature","geometry":{"type":"MultiPolygon","coordinates":[[[[2.1295627,48.7259608],[2.1271308,48.7256865],[2.1268255,48.725553],[2.1267827,48.7256791],[2.1259691,48.7260073],[2.1254584,48.7256314],[2.1252443,48.7254182],[2.1246905,48.7251739],[2.1244921,48.7244225],[2.1239259,48.7240882],[2.1241939,48.7234789],[2.1241887,48.7233535],[2.124022,48.7232342],[2.1233058,48.722963],[2.1227698,48.7226495],[2.1226058,48.7224644],[2.1223869,48.7221006],[2.1222926,48.7218644],[2.1222347,48.7214774],[2.1222232,48.720652],[2.1221302,48.7203341],[2.121943,48.7200139],[2.1213931,48.7192764],[2.1211404,48.7189806],[2.1206571,48.718557],[2.1199377,48.7176437],[2.1200275,48.7175228],[2.1197083,48.7174714],[2.1193707,48.7172086],[2.1191967,48.7169534],[2.118519,48.7164245],[2.1184131,48.7162956],[2.1183548,48.7160647],[2.118426,48.7159216],[2.118406,48.7156857],[2.1180628,48.7150037],[2.1181254,48.7148297],[2.1193249,48.715162],[2.1211657,48.7153758],[2.1219916,48.7156689],[2.1229422,48.7156912],[2.1232073,48.7157755],[2.123109,48.7159535],[2.1227831,48.7173299],[2.1221893,48.718224],[2.1224082,48.7184397],[2.1228263,48.7187369],[2.1234372,48.7198172],[2.1235167,48.7198977],[2.124014,48.7201984],[2.1243889,48.7210739],[2.1246126,48.7212325],[2.1250782,48.7213975],[2.1251574,48.7215127],[2.1251807,48.721681],[2.1251438,48.7218369],[2.1251773,48.7219211],[2.1254124,48.7222297],[2.1255813,48.7222362],[2.1259141,48.7221629],[2.1273442,48.7214583],[2.1281124,48.7209369],[2.1284185,48.7208811],[2.1286558,48.7206624],[2.1285948,48.7206309],[2.1286977,48.7205342],[2.1289716,48.7205887],[2.1295125,48.7203816],[2.1308684,48.7200015],[2.1313507,48.7206667],[2.1318773,48.7209488],[2.1321737,48.7210023],[2.1337911,48.7217261],[2.1348047,48.7223649],[2.1360367,48.7232667],[2.1369663,48.7236543],[2.1381515,48.7236325],[2.1382024,48.7237782],[2.138119,48.7237712],[2.1380117,48.7239035],[2.13843,48.7245816],[2.1376427,48.7251044],[2.1364026,48.725525],[2.1337258,48.7256988],[2.131483,48.72616],[2.1297935,48.7260137],[2.1295627,48.7259608]]]]},"properties":{"code_section":"916790000C","code_commune":"91679","section_courte":"C"}},{"type":"Feature","geometry":{"type":"MultiPolygon","coordinates":[[[[2.113951,48.7141744],[2.1141129,48.7141403],[2.1150175,48.7143963],[2.1162365,48.7143417],[2.1174554,48.7146574],[2.1180739,48.7149726],[2.118406,48.7156857],[2.118426,48.7159216],[2.1183548,48.7160647],[2.1184131,48.7162956],[2.118519,48.7164245],[2.1191967,48.7169534],[2.1190252,48.7171138],[2.1190277,48.7172034],[2.1181082,48.7182129],[2.1180296,48.7183677],[2.1180095,48.71857],[2.1177445,48.7188539],[2.1173486,48.7190701],[2.1171723,48.7192205],[2.1167003,48.7192924],[2.1164681,48.7194163],[2.1160848,48.7195225],[2.1150689,48.7201426],[2.1147188,48.7202379],[2.1143489,48.7205095],[2.1142034,48.7206784],[2.113863,48.7207678],[2.1132708,48.721271],[2.1132286,48.7213596],[2.1131643,48.7213705],[2.1127466,48.7216309],[2.1125663,48.7217987],[2.1124028,48.7220589],[2.1121529,48.7222103],[2.1118604,48.7222141],[2.1115292,48.722428],[2.1100553,48.7214812],[2.1099578,48.7213428],[2.1083969,48.7205172],[2.108276,48.7205786],[2.1079095,48.7204637],[2.1071301,48.7201424],[2.1071871,48.7201014],[2.1061508,48.7193449],[2.1061151,48.719289],[2.106176,48.7191301],[2.1061301,48.7189816],[2.1061822,48.7189178],[2.1065117,48.7187975],[2.1072915,48.718112],[2.1076136,48.7179012],[2.1076403,48.7177405],[2.1075936,48.7177175],[2.1098477,48.7158327],[2.1098982,48.7153279],[2.1098395,48.7148294],[2.1100531,48.7147878],[2.1104368,48.7147714],[2.1106008,48.7146977],[2.1107536,48.7147275],[2.1111677,48.7146109],[2.1112126,48.7145688],[2.1115721,48.7145228],[2.1116375,48.7145308],[2.1117988,48.714635],[2.1119247,48.7146409],[2.1121591,48.7145378],[2.1123656,48.7145998],[2.1123933,48.7145428],[2.1124468,48.7145315],[2.1124346,48.7145554],[2.1125085,48.7146013],[2.1125681,48.7146001],[2.1125772,48.714526],[2.1126975,48.7145685],[2.1130254,48.7143572],[2.1131201,48.7143837],[2.1132908,48.7143281],[2.1134213,48.7143695],[2.1135061,48.714291],[2.1136006,48.7143173],[2.113951,48.7141744]]]]},"properties":{"code_section":"916790000D","code_commune":"91679","section_courte":"D"}},{"type":"Feature","geometry":{"type":"MultiPolygon","coordinates":[[[[2.1102354,48.7252028],[2.1103964,48.7250672],[2.1107073,48.724535],[2.1108946,48.724341],[2.1113253,48.7239982],[2.1117457,48.7232462],[2.1119583,48.7231013],[2.112361,48.7229644],[2.1125127,48.7228375],[2.1119542,48.7228317],[2.1118871,48.722781],[2.1117719,48.7225621],[2.1115649,48.7224067],[2.1118604,48.7222141],[2.1121529,48.7222103],[2.1124028,48.7220589],[2.1125663,48.7217987],[2.1127466,48.7216309],[2.1131643,48.7213705],[2.1132286,48.7213596],[2.1132708,48.721271],[2.113863,48.7207678],[2.1142034,48.7206784],[2.1143489,48.7205095],[2.1147188,48.7202379],[2.1150689,48.7201426],[2.1160848,48.7195225],[2.1164681,48.7194163],[2.1167003,48.7192924],[2.1171723,48.7192205],[2.1173486,48.7190701],[2.1177445,48.7188539],[2.1180095,48.71857],[2.1180296,48.7183677],[2.1181082,48.7182129],[2.1190277,48.7172034],[2.1190252,48.7171138],[2.1191967,48.7169534],[2.1193707,48.7172086],[2.1197083,48.7174714],[2.1200275,48.7175228],[2.1199377,48.7176437],[2.1206571,48.718557],[2.1211404,48.7189806],[2.1213931,48.7192764],[2.121943,48.7200139],[2.1221302,48.7203341],[2.1222232,48.720652],[2.1222347,48.7214774],[2.1222926,48.7218644],[2.1223869,48.7221006],[2.1226058,48.7224644],[2.1227698,48.7226495],[2.1233058,48.722963],[2.124022,48.7232342],[2.1241887,48.7233535],[2.1241939,48.7234789],[2.1239259,48.7240882],[2.1244921,48.7244225],[2.1246905,48.7251739],[2.1252443,48.7254182],[2.1254584,48.7256314],[2.1259691,48.7260073],[2.1256428,48.726139],[2.1260307,48.7266843],[2.1269384,48.7276793],[2.1277185,48.7287883],[2.1276285,48.7290979],[2.1275448,48.7296891],[2.1242792,48.7301815],[2.1136456,48.7318639],[2.1123832,48.7319812],[2.1103634,48.7319855],[2.1088421,48.7318831],[2.1082533,48.7319044],[2.1064618,48.7321742],[2.1036762,48.7328478],[2.102769,48.7319484],[2.1022018,48.7311882],[2.1021718,48.7309864],[2.1023932,48.7306695],[2.1026885,48.730512],[2.1040183,48.7300987],[2.1048367,48.7295877],[2.1056689,48.7292942],[2.1059534,48.7291415],[2.1069024,48.7287941],[2.1075858,48.7282335],[2.1081546,48.7279294],[2.1085501,48.7276711],[2.1086884,48.727546],[2.1089823,48.7267441],[2.1095355,48.7259906],[2.1095578,48.7257717],[2.1096637,48.7256413],[2.1102474,48.7252575],[2.1102354,48.7252028]]]]},"properties":{"code_section":"916790000E","code_commune":"91679","section_courte":"E"}},{"type":"Feature","geometry":{"type":"MultiPolygon","coordinates":[[[[2.1252253,48.7401963],[2.1224113,48.741066],[2.1209035,48.7416338],[2.1200334,48.7420619],[2.1179238,48.7412444],[2.1162146,48.7406952],[2.1162413,48.7396135],[2.1139255,48.7396754],[2.1134146,48.7393615],[2.1125331,48.7396754],[2.110978,48.7397841],[2.1108244,48.7395616],[2.1090202,48.7392612],[2.106652,48.736196],[2.1044358,48.7337401],[2.1035731,48.7328728],[2.1064618,48.7321742],[2.1082533,48.7319044],[2.1088421,48.7318831],[2.1103634,48.7319855],[2.1123832,48.7319812],[2.1136456,48.7318639],[2.1242792,48.7301815],[2.1275448,48.7296891],[2.1271698,48.7312124],[2.1268728,48.7329074],[2.1288063,48.7325856],[2.1289086,48.7328494],[2.1283729,48.736081],[2.128059,48.7375442],[2.1272078,48.7375645],[2.1260223,48.7376763],[2.1254918,48.7399845],[2.1254465,48.7401054],[2.1252253,48.7401963]]]]},"properties":{"code_section":"91679000ZA","code_commune":"91679","section_courte":"ZA"}}]}