{"type":"FeatureCollection","features":[{"type":"Feature","geometry":{"type":"MultiPolygon","coordinates":[[[[2.2969898,48.6635668],[2.3018702,48.6615761],[2.3028214,48.6611078],[2.3029935,48.6615209],[2.3031614,48.6624189],[2.3033395,48.6627181],[2.3043946,48.6639366],[2.3045243,48.6641463],[2.304563,48.664546],[2.3046505,48.6647955],[2.3050876,48.665531],[2.3051663,48.6658759],[2.3037968,48.6678781],[2.3013887,48.6692299],[2.3013202,48.6692284],[2.3002786,48.6698097],[2.2980365,48.6670837],[2.2970147,48.6659556],[2.2960064,48.6649246],[2.2946695,48.6653876],[2.2941122,48.6646585],[2.2969898,48.6635668]]]]},"properties":{"code_section":"916850000Z","code_commune":"91685","section_courte":"Z"}},{"type":"Feature","geometry":{"type":"MultiPolygon","coordinates":[[[[2.3058295,48.663292],[2.3049526,48.6637066],[2.3045243,48.6641463],[2.3043946,48.6639366],[2.3032481,48.6625848],[2.3031224,48.6622701],[2.3029935,48.6615209],[2.3028065,48.6610721],[2.3035698,48.6608841],[2.3042457,48.6606544],[2.3062407,48.6597314],[2.3065105,48.6601464],[2.3076511,48.6610461],[2.3080682,48.6616509],[2.3074415,48.6625664],[2.3064407,48.663054],[2.3058295,48.663292]]]]},"properties":{"code_section":"91685000AA","code_commune":"91685","section_courte":"AA"}},{"type":"Feature","geometry":{"type":"MultiPolygon","coordinates":[[[[2.2951805,48.6615097],[2.2996053,48.6603445],[2.3008921,48.6597182],[2.3027444,48.6609227],[2.3028214,48.6611078],[2.3018702,48.6615761],[2.2969898,48.6635668],[2.2941122,48.6646585],[2.293824,48.6642905],[2.293661,48.6637848],[2.2933782,48.6625962],[2.2934891,48.6625598],[2.2935272,48.6624938],[2.2935851,48.6624867],[2.2939937,48.6621103],[2.2944211,48.6618502],[2.2944076,48.6618317],[2.2951805,48.6615097]]]]},"properties":{"code_section":"91685000AB","code_commune":"91685","section_courte":"AB"}},{"type":"Feature","geometry":{"type":"MultiPolygon","coordinates":[[[[2.2951805,48.6615097],[2.2944076,48.6618317],[2.2944211,48.6618502],[2.2939937,48.6621103],[2.2935851,48.6624867],[2.2935272,48.6624938],[2.2934891,48.6625598],[2.2933782,48.6625962],[2.2933483,48.6616159],[2.293038,48.6603678],[2.2922382,48.6591615],[2.2958065,48.6583044],[2.2964266,48.6582716],[2.2968428,48.6583556],[2.2970058,48.6583427],[2.2970962,48.6583994],[2.2971571,48.6585285],[2.2981055,48.6588346],[2.2988615,48.6589986],[2.2996931,48.6591052],[2.2999813,48.6591714],[2.3002768,48.6593083],[2.3008921,48.6597182],[2.2996053,48.6603445],[2.2951805,48.6615097]]]]},"properties":{"code_section":"91685000AC","code_commune":"91685","section_courte":"AC"}},{"type":"Feature","geometry":{"type":"MultiPolygon","coordinates":[[[[2.2997587,48.656682],[2.3004552,48.6572764],[2.3013256,48.6579027],[2.3024658,48.6583662],[2.3027549,48.6584125],[2.3037729,48.6583561],[2.3044146,48.6584784],[2.3049965,48.6587649],[2.305493,48.6590885],[2.3061105,48.6596545],[2.3062407,48.6597314],[2.3042457,48.6606544],[2.3035698,48.6608841],[2.3028065,48.6610721],[2.3027444,48.6609227],[2.3001452,48.6592387],[2.2996931,48.6591052],[2.2988615,48.6589986],[2.2983521,48.6588937],[2.2971571,48.6585285],[2.2970962,48.6583994],[2.2970058,48.6583427],[2.2983407,48.6579705],[2.2985312,48.6579933],[2.2989628,48.6578103],[2.2992355,48.6575527],[2.299617,48.6573123],[2.2994257,48.6571507],[2.2994735,48.6571238],[2.2992513,48.6569536],[2.2997587,48.656682]]]]},"properties":{"code_section":"91685000AD","code_commune":"91685","section_courte":"AD"}},{"type":"Feature","geometry":{"type":"MultiPolygon","coordinates":[[[[2.3093272,48.6571309],[2.3086385,48.6574627],[2.307656,48.658303],[2.3063736,48.6596563],[2.3062407,48.6597314],[2.3061105,48.6596545],[2.305493,48.6590885],[2.3049965,48.6587649],[2.3044146,48.6584784],[2.3037729,48.6583561],[2.3027549,48.6584125],[2.3023403,48.6583342],[2.3019275,48.6581652],[2.3022752,48.6579839],[2.3033546,48.6575481],[2.3039745,48.6568721],[2.305368,48.6558743],[2.3056928,48.655584],[2.3057311,48.65547],[2.3060716,48.6550681],[2.3066903,48.6553657],[2.3070431,48.6556948],[2.3072018,48.6557954],[2.3077088,48.6560073],[2.3081475,48.6563476],[2.3087545,48.6567089],[2.3093272,48.6571309]]]]},"properties":{"code_section":"91685000AE","code_commune":"91685","section_courte":"AE"}},{"type":"Feature","geometry":{"type":"MultiPolygon","coordinates":[[[[2.3056928,48.655584],[2.305368,48.6558743],[2.3039745,48.6568721],[2.3033546,48.6575481],[2.3022752,48.6579839],[2.3019275,48.6581652],[2.3013256,48.6579027],[2.3002418,48.6571004],[2.2995135,48.6564432],[2.2993892,48.6559963],[2.3001909,48.6555867],[2.300575,48.6552749],[2.300845,48.655028],[2.301222,48.6544578],[2.3006072,48.6540413],[2.3001595,48.6536244],[2.3018007,48.6527111],[2.3022634,48.6529901],[2.3028142,48.6533923],[2.3042212,48.6542734],[2.304756,48.6544991],[2.305533,48.6546444],[2.3058609,48.6549613],[2.3060716,48.6550681],[2.3057311,48.65547],[2.3056928,48.655584]]]]},"properties":{"code_section":"91685000AH","code_commune":"91685","section_courte":"AH"}},{"type":"Feature","geometry":{"type":"MultiPolygon","coordinates":[[[[2.2972639,48.6582724],[2.2970058,48.6583427],[2.2968428,48.6583556],[2.2964266,48.6582716],[2.2958065,48.6583044],[2.2922382,48.6591615],[2.2916032,48.6577366],[2.2915222,48.6576559],[2.2913916,48.6575992],[2.2912939,48.6570426],[2.293149,48.6562837],[2.2934418,48.6566545],[2.2942806,48.6563287],[2.2939215,48.6558993],[2.294687,48.6556235],[2.2954599,48.6554766],[2.2952837,48.6551079],[2.2964933,48.6546526],[2.2965494,48.6545594],[2.2975805,48.654036],[2.297851,48.6542238],[2.29877,48.6551964],[2.299091,48.6554424],[2.299264,48.6556241],[2.2995135,48.6564432],[2.2997587,48.656682],[2.2992513,48.6569536],[2.2994735,48.6571238],[2.2994257,48.6571507],[2.299617,48.6573123],[2.2992355,48.6575527],[2.2989628,48.6578103],[2.2985312,48.6579933],[2.2983407,48.6579705],[2.2972639,48.6582724]]]]},"properties":{"code_section":"91685000AI","code_commune":"91685","section_courte":"AI"}},{"type":"Feature","geometry":{"type":"MultiPolygon","coordinates":[[[[2.2932149,48.6563722],[2.293149,48.6562837],[2.2912939,48.6570426],[2.2910694,48.6558409],[2.2901176,48.6542302],[2.2900647,48.6539314],[2.2901326,48.6535623],[2.2901071,48.6533507],[2.2899639,48.6530848],[2.2896474,48.6527463],[2.289931,48.652619],[2.2901315,48.6524798],[2.2905764,48.6525182],[2.290814,48.6524906],[2.2912944,48.6523734],[2.2914702,48.652204],[2.2917764,48.6522081],[2.291914,48.6521135],[2.2921247,48.6521328],[2.2924598,48.6519951],[2.2926658,48.6519646],[2.2929926,48.6517063],[2.2942127,48.6513775],[2.2969378,48.6536735],[2.2975805,48.654036],[2.2965494,48.6545594],[2.2964933,48.6546526],[2.2952837,48.6551079],[2.2954599,48.6554766],[2.294687,48.6556235],[2.2939215,48.6558993],[2.2942806,48.6563287],[2.2934418,48.6566545],[2.2932149,48.6563722]]]]},"properties":{"code_section":"91685000AK","code_commune":"91685","section_courte":"AK"}},{"type":"Feature","geometry":{"type":"MultiPolygon","coordinates":[[[[2.3002204,48.6535895],[2.3001595,48.6536244],[2.3006072,48.6540413],[2.301222,48.6544578],[2.300845,48.655028],[2.300575,48.6552749],[2.3001909,48.6555867],[2.2993892,48.6559963],[2.2992328,48.6555869],[2.29877,48.6551964],[2.2977655,48.654147],[2.2969378,48.6536735],[2.2942127,48.6513775],[2.2944323,48.6513079],[2.2950148,48.6510189],[2.2961018,48.6509345],[2.2965878,48.6507423],[2.2970243,48.6507457],[2.2974608,48.6508206],[2.298884,48.65036],[2.2991759,48.6503591],[2.3001923,48.6513159],[2.3010368,48.6522354],[2.3018007,48.652711],[2.3002204,48.6535895]]]]},"properties":{"code_section":"91685000AL","code_commune":"91685","section_courte":"AL"}}]}