{"type":"FeatureCollection","features":[{"type":"Feature","geometry":{"type":"MultiPolygon","coordinates":[[[[2.1738381,48.6928895],[2.1730397,48.6930386],[2.171756,48.6931674],[2.1709311,48.6932103],[2.169632,48.6932276],[2.1690063,48.6932681],[2.1683451,48.6932603],[2.1680145,48.6932029],[2.167416,48.6931539],[2.1658353,48.6942798],[2.1658888,48.6946008],[2.1661773,48.6947508],[2.1661431,48.6948515],[2.1641128,48.6943755],[2.1648152,48.6940351],[2.1660192,48.6929388],[2.1658133,48.6928284],[2.1658444,48.6927789],[2.1661017,48.6928653],[2.1663181,48.6926718],[2.1655186,48.6922803],[2.1658968,48.6919893],[2.1661918,48.6920505],[2.1664854,48.6921962],[2.1666417,48.6922305],[2.1666231,48.6920434],[2.1667204,48.691828],[2.1668737,48.6916955],[2.167139,48.6915651],[2.1674994,48.691448],[2.1682233,48.6913535],[2.1687859,48.6914868],[2.1690329,48.6915145],[2.1698823,48.6913451],[2.1705547,48.6911473],[2.1715392,48.6905276],[2.1717492,48.6921099],[2.1731375,48.692195],[2.1738144,48.6924539],[2.1741668,48.6924887],[2.1746388,48.6924133],[2.1747268,48.6927463],[2.1738381,48.6928895]]]]},"properties":{"code_section":"91692000BE","code_commune":"91692","section_courte":"BE"}},{"type":"Feature","geometry":{"type":"MultiPolygon","coordinates":[[[[2.1641806,48.6874456],[2.1642092,48.6875139],[2.1669632,48.6870695],[2.1734974,48.686698],[2.1739328,48.6901225],[2.1738798,48.6902745],[2.174169,48.6903134],[2.1738535,48.6907201],[2.1731375,48.692195],[2.1717492,48.6921099],[2.1715392,48.6905276],[2.1705547,48.6911473],[2.1698823,48.6913451],[2.1690329,48.6915145],[2.1687859,48.6914868],[2.1682233,48.6913535],[2.1674994,48.691448],[2.167139,48.6915651],[2.1668737,48.6916955],[2.1667204,48.691828],[2.1666231,48.6920434],[2.1666417,48.6922305],[2.1664854,48.6921962],[2.1661918,48.6920505],[2.1658968,48.6919893],[2.1655677,48.6922327],[2.165074,48.6920271],[2.164461,48.6917142],[2.163927,48.6914117],[2.1627392,48.6906514],[2.1615913,48.6897696],[2.1608461,48.6890966],[2.1612547,48.6888552],[2.1611711,48.6886979],[2.1611939,48.6883436],[2.1614333,48.6880537],[2.1617586,48.6878328],[2.1622647,48.6876701],[2.164142,48.6873536],[2.1641806,48.6874456]]]]},"properties":{"code_section":"91692000BH","code_commune":"91692","section_courte":"BH"}},{"type":"Feature","geometry":{"type":"MultiPolygon","coordinates":[[[[2.1754738,48.6853878],[2.174619,48.6866346],[2.1669632,48.6870695],[2.1642092,48.6875139],[2.162583,48.6835921],[2.1649589,48.6832261],[2.1651594,48.683128],[2.1654517,48.6828054],[2.1685026,48.6826316],[2.1694896,48.6824968],[2.1703018,48.6825261],[2.1726615,48.6823962],[2.1740086,48.6828801],[2.1737602,48.6831841],[2.1739018,48.6841819],[2.1741157,48.684165],[2.1742263,48.6842577],[2.1740952,48.6845548],[2.1741024,48.6846203],[2.1744297,48.6846014],[2.1744355,48.6846415],[2.1744915,48.6846395],[2.1745349,48.6849422],[2.1748622,48.6850493],[2.1748893,48.6851328],[2.1753141,48.6852631],[2.1755086,48.6853606],[2.1754738,48.6853878]]]]},"properties":{"code_section":"91692000BI","code_commune":"91692","section_courte":"BI"}},{"type":"Feature","geometry":{"type":"MultiPolygon","coordinates":[[[[2.1705198,48.6786525],[2.1708745,48.6785331],[2.1712028,48.6785089],[2.1714414,48.6785678],[2.1719071,48.6787808],[2.1721646,48.6788101],[2.1739303,48.6785449],[2.1740734,48.6785447],[2.1761652,48.6789374],[2.1765501,48.6792851],[2.1767009,48.6792457],[2.1785508,48.6816838],[2.178411,48.681748],[2.1789755,48.6824357],[2.1768867,48.6824339],[2.1767565,48.6824631],[2.1763256,48.6826598],[2.1756904,48.6826754],[2.1755621,48.6827528],[2.175122,48.6832804],[2.1726615,48.6823962],[2.1703018,48.6825261],[2.1695566,48.6824992],[2.1692624,48.6804188],[2.1691129,48.6803005],[2.1688916,48.6802612],[2.1688809,48.6800444],[2.1687763,48.6799102],[2.1683592,48.6797238],[2.1683839,48.6794911],[2.1685785,48.6793805],[2.1690372,48.6792724],[2.1703623,48.6791547],[2.1704613,48.6787778],[2.1703952,48.6787115],[2.1705198,48.6786525]]]]},"properties":{"code_section":"91692000BK","code_commune":"91692","section_courte":"BK"}},{"type":"Feature","geometry":{"type":"MultiPolygon","coordinates":[[[[2.169466,48.6818698],[2.1695566,48.6824992],[2.1685026,48.6826316],[2.1654517,48.6828054],[2.1651594,48.683128],[2.1649191,48.6832349],[2.162583,48.6835921],[2.1620506,48.6837118],[2.1612289,48.6837318],[2.1613519,48.6803429],[2.1619045,48.6799367],[2.1621424,48.6797112],[2.162309,48.6794767],[2.1623827,48.6793305],[2.1622822,48.6792936],[2.1635156,48.6767194],[2.1618555,48.6758992],[2.1618801,48.6758804],[2.1613964,48.6756374],[2.1632854,48.6754719],[2.1632279,48.6753786],[2.1641201,48.675126],[2.1651585,48.6749736],[2.1653975,48.6748442],[2.1657971,48.6761343],[2.1672162,48.6760378],[2.167077,48.6769149],[2.1677071,48.6782615],[2.167814,48.678324],[2.1680032,48.6783344],[2.1694382,48.6780657],[2.169918,48.6791805],[2.168924,48.679293],[2.1685785,48.6793805],[2.1683839,48.6794911],[2.1683592,48.6797238],[2.1687763,48.6799102],[2.1688809,48.6800444],[2.1688916,48.6802612],[2.1691129,48.6803005],[2.1692624,48.6804188],[2.169466,48.6818698]]]]},"properties":{"code_section":"91692000BL","code_commune":"91692","section_courte":"BL"}},{"type":"Feature","geometry":{"type":"MultiPolygon","coordinates":[[[[2.1783883,48.6765641],[2.1789279,48.6775927],[2.177393,48.6783547],[2.1776758,48.6789857],[2.1765501,48.6792851],[2.1761652,48.6789374],[2.1740734,48.6785447],[2.1739303,48.6785449],[2.1721271,48.6788103],[2.1718628,48.6787664],[2.1713373,48.6785334],[2.1711391,48.6785055],[2.1709128,48.6785252],[2.1703971,48.678707],[2.1704613,48.6787778],[2.1703623,48.6791547],[2.169918,48.6791805],[2.1694382,48.6780657],[2.1680032,48.6783344],[2.1678542,48.6783331],[2.1677253,48.6782788],[2.167077,48.6769149],[2.1672162,48.6760378],[2.1679097,48.6759943],[2.1681846,48.6771412],[2.1717558,48.6767747],[2.1715888,48.676049],[2.1715387,48.6756379],[2.1716128,48.6750633],[2.1715633,48.6746568],[2.1714892,48.6744047],[2.1713963,48.6743126],[2.174873,48.6742652],[2.1773835,48.6744117],[2.1770267,48.6744725],[2.1768256,48.6745379],[2.1766867,48.6746261],[2.1765207,48.6747994],[2.1761194,48.6753865],[2.1757693,48.6761974],[2.1757093,48.6764794],[2.1758175,48.6766245],[2.1759652,48.676739],[2.1760711,48.6767878],[2.1762891,48.6768237],[2.1783076,48.6764094],[2.1783883,48.6765641]]]]},"properties":{"code_section":"91692000BM","code_commune":"91692","section_courte":"BM"}},{"type":"Feature","geometry":{"type":"MultiPolygon","coordinates":[[[[2.1936498,48.6766889],[2.1933341,48.6772286],[2.192018,48.6791635],[2.1912555,48.678926],[2.1914129,48.6786296],[2.1907717,48.678488],[2.1907003,48.6784224],[2.1918716,48.6767508],[2.191885,48.6765707],[2.1918061,48.6764027],[2.1916632,48.676279],[2.1913899,48.6761685],[2.1894573,48.6759322],[2.1891465,48.675987],[2.188201,48.6758751],[2.1839569,48.6755881],[2.1839362,48.6755162],[2.1819286,48.6758331],[2.1819617,48.675934],[2.1802715,48.676914],[2.1789279,48.6775927],[2.1783076,48.6764094],[2.1763051,48.6768233],[2.1760711,48.6767878],[2.1759652,48.676739],[2.1758175,48.6766245],[2.1757093,48.6764794],[2.1757693,48.6761974],[2.1761194,48.6753865],[2.1765207,48.6747994],[2.1766867,48.6746261],[2.1768256,48.6745379],[2.1770267,48.6744725],[2.1773835,48.6744117],[2.174873,48.6742652],[2.1713963,48.6743126],[2.1713301,48.6742518],[2.171646,48.6740731],[2.171862,48.6740485],[2.1723727,48.6737888],[2.1725029,48.6739186],[2.1726772,48.6740041],[2.1732203,48.6740841],[2.1749926,48.6740587],[2.1760936,48.6739295],[2.1787423,48.6733794],[2.1788717,48.6733798],[2.1794879,48.6732509],[2.1801781,48.6728633],[2.1803256,48.672721],[2.1812836,48.6722725],[2.183758,48.6718174],[2.1841459,48.6717955],[2.1868895,48.6718493],[2.1904233,48.671585],[2.1902188,48.6702377],[2.1876828,48.6704982],[2.1874227,48.6701439],[2.186754,48.6703757],[2.185912,48.6704398],[2.1846243,48.6706809],[2.1849818,48.6704736],[2.1853204,48.6700221],[2.1856809,48.6699318],[2.1858163,48.6698622],[2.1861564,48.6699422],[2.186285,48.6698817],[2.1864626,48.6699229],[2.1870159,48.6697484],[2.1877214,48.669051],[2.1878291,48.6690054],[2.1898383,48.6690373],[2.1899726,48.6688698],[2.1902437,48.6686762],[2.1903154,48.6685765],[2.190799,48.6685189],[2.1911846,48.6683705],[2.1921473,48.6688841],[2.1927695,48.6697169],[2.1931917,48.669593],[2.1933606,48.6695791],[2.193599,48.669609],[2.1937238,48.6695789],[2.1941718,48.6693157],[2.195584,48.6689498],[2.1957316,48.6698494],[2.1946676,48.6719254],[2.1945989,48.6721631],[2.1942476,48.6752997],[2.1942585,48.6754617],[2.1944784,48.6757713],[2.1944959,48.6759933],[2.1943509,48.6762277],[2.1939073,48.6764499],[2.1936498,48.6766889]]]]},"properties":{"code_section":"91692000BN","code_commune":"91692","section_courte":"BN"}},{"type":"Feature","geometry":{"type":"MultiPolygon","coordinates":[[[[2.2022497,48.6806428],[2.2019711,48.6804924],[2.2016513,48.6803809],[2.2013025,48.6803199],[2.2009657,48.6803034],[2.1948661,48.6806998],[2.1946883,48.6795093],[2.1933893,48.679589],[2.192018,48.6791635],[2.1933341,48.6772286],[2.1936498,48.6766889],[2.1939073,48.6764499],[2.1943509,48.6762277],[2.1944759,48.6760579],[2.1945056,48.6759294],[2.1944784,48.6757713],[2.1942585,48.6754617],[2.1942476,48.6752997],[2.1946076,48.6721154],[2.1946676,48.6719254],[2.1957316,48.6698494],[2.1957748,48.6701329],[2.1959523,48.6703399],[2.1969002,48.6709197],[2.1971544,48.6712003],[2.1974833,48.6717426],[2.1976581,48.6718464],[2.1982915,48.6723898],[2.1985781,48.6725497],[2.1989163,48.6725799],[2.1995953,48.6724791],[2.2000353,48.6724796],[2.2009616,48.6725313],[2.201895,48.6726281],[2.2035904,48.6732505],[2.2045488,48.6736941],[2.2059954,48.6746693],[2.2063505,48.6748662],[2.2072855,48.67528],[2.2079559,48.6757106],[2.2086624,48.6762788],[2.2093693,48.677152],[2.209647,48.6775948],[2.2099168,48.6778813],[2.2109167,48.6786131],[2.2113085,48.6788088],[2.2119467,48.6790484],[2.2119951,48.6790978],[2.211145,48.6794432],[2.2105949,48.6797094],[2.2098879,48.680178],[2.2093027,48.679737],[2.209237,48.6797255],[2.2079582,48.6802243],[2.2059719,48.6805689],[2.2054041,48.6807964],[2.204532,48.6808917],[2.204354,48.6813686],[2.2043606,48.6817879],[2.2039096,48.6818845],[2.2022497,48.6806428]]]]},"properties":{"code_section":"91692000BO","code_commune":"91692","section_courte":"BO"}},{"type":"Feature","geometry":{"type":"MultiPolygon","coordinates":[[[[2.1891914,48.6759686],[2.1895007,48.6759359],[2.1913899,48.6761685],[2.1915958,48.6762433],[2.1917564,48.6763479],[2.1918617,48.6764945],[2.1918897,48.6766419],[2.191821,48.6768456],[2.1907085,48.6783936],[2.1907055,48.6784442],[2.1907717,48.678488],[2.1914129,48.6786296],[2.1887754,48.6838255],[2.1857201,48.6817339],[2.185456,48.6808111],[2.1855897,48.6807934],[2.1839569,48.6755881],[2.188201,48.6758751],[2.1891465,48.675987],[2.1891914,48.6759686]]]]},"properties":{"code_section":"91692000BP","code_commune":"91692","section_courte":"BP"}},{"type":"Feature","geometry":{"type":"MultiPolygon","coordinates":[[[[2.204844,48.6871862],[2.2048733,48.6875063],[2.2042823,48.6916465],[2.2042139,48.6916502],[2.2038943,48.690996],[2.2028027,48.6908631],[2.2009892,48.6907522],[2.2008821,48.68944],[2.1990255,48.689137],[2.1968696,48.6895815],[2.1963308,48.6898052],[2.1950282,48.6902345],[2.1944531,48.6903844],[2.1937838,48.69045],[2.1929433,48.6903869],[2.1908882,48.6904116],[2.1906882,48.6898504],[2.1898612,48.6880275],[2.189874,48.6876375],[2.1896751,48.6876417],[2.1893102,48.6867268],[2.1891816,48.6863457],[2.1889779,48.6853982],[2.1887984,48.6849829],[2.1884011,48.6845445],[2.1912555,48.678926],[2.1933893,48.679589],[2.1946883,48.6795093],[2.1948661,48.6806998],[2.2009657,48.6803034],[2.2013025,48.6803199],[2.2016513,48.6803809],[2.2019711,48.6804924],[2.2022497,48.6806428],[2.2039096,48.6818845],[2.2032462,48.6820403],[2.2027251,48.6820621],[2.2027303,48.6851778],[2.2037584,48.6850408],[2.2046983,48.6849564],[2.204844,48.6871862]]]]},"properties":{"code_section":"91692000BR","code_commune":"91692","section_courte":"BR"}},{"type":"Feature","geometry":{"type":"MultiPolygon","coordinates":[[[[2.1754738,48.6853878],[2.1755086,48.6853606],[2.1753141,48.6852631],[2.1748893,48.6851328],[2.1748622,48.6850493],[2.1745349,48.6849422],[2.1744915,48.6846395],[2.1744355,48.6846415],[2.1744297,48.6846014],[2.1741024,48.6846203],[2.1740952,48.6845548],[2.1742263,48.6842577],[2.1741157,48.684165],[2.1739018,48.6841819],[2.1737602,48.6831841],[2.1740086,48.6828801],[2.175122,48.6832804],[2.1755621,48.6827528],[2.1756904,48.6826754],[2.1763256,48.6826598],[2.1767565,48.6824631],[2.1768867,48.6824339],[2.1789755,48.6824357],[2.1797186,48.6833431],[2.1807678,48.6840024],[2.1808918,48.6833576],[2.1813359,48.6831769],[2.1822939,48.6832887],[2.1822481,48.6835936],[2.1821764,48.6836011],[2.1819378,48.6849537],[2.1813544,48.6850073],[2.1807483,48.6849876],[2.1789048,48.6846025],[2.1788334,48.6846785],[2.1790457,48.6847724],[2.1788523,48.6849755],[2.1797997,48.6866071],[2.1794015,48.6867694],[2.1796493,48.6875252],[2.1793462,48.6876219],[2.1790784,48.6879684],[2.1788659,48.6881358],[2.1779302,48.6884837],[2.1773297,48.6887928],[2.1771164,48.6890114],[2.176967,48.689242],[2.1769257,48.6892305],[2.1768616,48.6892721],[2.1770478,48.6893892],[2.1762286,48.6897328],[2.1754717,48.6899912],[2.1755061,48.6901791],[2.1742429,48.6902817],[2.1741867,48.6902614],[2.1741465,48.6903104],[2.1738798,48.6902745],[2.1739328,48.6901225],[2.1734974,48.686698],[2.174619,48.6866346],[2.1754738,48.6853878]]]]},"properties":{"code_section":"91692000BS","code_commune":"91692","section_courte":"BS"}}]}