{"type":"FeatureCollection","features":[{"type":"Feature","geometry":{"type":"MultiPolygon","coordinates":[[[[2.3366091,48.8585828],[2.3360808,48.8575974],[2.3363545,48.8574857],[2.3364919,48.8572547],[2.336773,48.8552982],[2.3378031,48.8552832],[2.3398381,48.8563876],[2.3403816,48.8568249],[2.3375467,48.8583886],[2.3366091,48.8585828]]]]},"properties":{"code_section":"75106000AB","code_commune":"75106","section_courte":"AB"}},{"type":"Feature","geometry":{"type":"MultiPolygon","coordinates":[[[[2.3398381,48.8563876],[2.3378031,48.8552832],[2.336773,48.8552982],[2.3369603,48.8538693],[2.3371038,48.8538706],[2.3384656,48.8536745],[2.3393162,48.8546934],[2.3405861,48.8542696],[2.3406995,48.8543919],[2.3421903,48.8542387],[2.3428044,48.8548967],[2.340963,48.8564697],[2.3403816,48.8568249],[2.3398381,48.8563876]]]]},"properties":{"code_section":"75106000AC","code_commune":"75106","section_courte":"AC"}},{"type":"Feature","geometry":{"type":"MultiPolygon","coordinates":[[[[2.3401865,48.853468],[2.3405861,48.8542696],[2.3393162,48.8546934],[2.3384656,48.8536745],[2.3371038,48.8538706],[2.3369603,48.8538693],[2.3369887,48.852902],[2.3404726,48.8520457],[2.3407442,48.8530465],[2.3409588,48.8533752],[2.3401753,48.8534439],[2.3401865,48.853468]]]]},"properties":{"code_section":"75106000AD","code_commune":"75106","section_courte":"AD"}},{"type":"Feature","geometry":{"type":"MultiPolygon","coordinates":[[[[2.3421598,48.8542419],[2.3406995,48.8543919],[2.3405854,48.8542688],[2.3401753,48.8534439],[2.3409588,48.8533752],[2.3407442,48.8530465],[2.3405942,48.8524984],[2.341697,48.8523764],[2.342884,48.853014],[2.3438275,48.8527691],[2.3442834,48.8537496],[2.3445925,48.8540491],[2.3428044,48.8548967],[2.3421903,48.8542387],[2.3421598,48.8542419]]]]},"properties":{"code_section":"75106000AE","code_commune":"75106","section_courte":"AE"}},{"type":"Feature","geometry":{"type":"MultiPolygon","coordinates":[[[[2.34144,48.8524048],[2.3405942,48.8524984],[2.3404726,48.8520457],[2.3389415,48.8524228],[2.339729,48.8519504],[2.3402347,48.8514705],[2.3411885,48.8508775],[2.3413057,48.8508832],[2.3426778,48.8503576],[2.3438275,48.8527691],[2.342884,48.853014],[2.341697,48.8523764],[2.34144,48.8524048]]]]},"properties":{"code_section":"75106000AF","code_commune":"75106","section_courte":"AF"}},{"type":"Feature","geometry":{"type":"MultiPolygon","coordinates":[[[[2.3382555,48.8502949],[2.3384405,48.8498763],[2.3390192,48.8498824],[2.3390203,48.8497969],[2.3426778,48.8503576],[2.3413057,48.8508832],[2.3411885,48.8508775],[2.3402347,48.8514705],[2.339729,48.8519504],[2.3389415,48.8524228],[2.3369887,48.852902],[2.3370548,48.8514669],[2.3382381,48.8515446],[2.3380704,48.8507134],[2.3382555,48.8502949]]]]},"properties":{"code_section":"75106000AG","code_commune":"75106","section_courte":"AG"}},{"type":"Feature","geometry":{"type":"MultiPolygon","coordinates":[[[[2.3320266,48.8513805],[2.3331593,48.8512217],[2.3356959,48.85132],[2.3370548,48.8514669],[2.3369887,48.852902],[2.3360609,48.8531286],[2.3351555,48.8528997],[2.3344287,48.8527589],[2.3344218,48.8527995],[2.3336761,48.8526532],[2.3330517,48.8526472],[2.3320155,48.8524729],[2.3319094,48.8513975],[2.3320266,48.8513805]]]]},"properties":{"code_section":"75106000AH","code_commune":"75106","section_courte":"AH"}},{"type":"Feature","geometry":{"type":"MultiPolygon","coordinates":[[[[2.3318145,48.8484647],[2.3328527,48.8487457],[2.3333882,48.8488556],[2.3359617,48.8492873],[2.3356959,48.85132],[2.3331593,48.8512217],[2.3320266,48.8513805],[2.3318033,48.8502718],[2.3316542,48.8484186],[2.3318145,48.8484647]]]]},"properties":{"code_section":"75106000AI","code_commune":"75106","section_courte":"AI"}},{"type":"Feature","geometry":{"type":"MultiPolygon","coordinates":[[[[2.3381541,48.851129],[2.3382381,48.8515446],[2.3370548,48.8514669],[2.3356959,48.85132],[2.3359617,48.8492873],[2.3377489,48.8493007],[2.3390443,48.8491007],[2.3390192,48.8498824],[2.3384405,48.8498763],[2.3380704,48.8507134],[2.3381541,48.851129]]]]},"properties":{"code_section":"75106000AJ","code_commune":"75106","section_courte":"AJ"}},{"type":"Feature","geometry":{"type":"MultiPolygon","coordinates":[[[[2.3395511,48.8482879],[2.3400886,48.8476613],[2.3409247,48.8474837],[2.3426778,48.8503576],[2.3390203,48.8497969],[2.3390443,48.8490996],[2.3390134,48.8489143],[2.3395511,48.8482879]]]]},"properties":{"code_section":"75106000AK","code_commune":"75106","section_courte":"AK"}},{"type":"Feature","geometry":{"type":"MultiPolygon","coordinates":[[[[2.340312,48.8467512],[2.340499,48.8467122],[2.3409247,48.8474837],[2.3400886,48.8476613],[2.3390134,48.8489143],[2.3390443,48.8491007],[2.3377489,48.8493007],[2.3363387,48.8492929],[2.3362786,48.8481157],[2.3361837,48.8481178],[2.3361983,48.8479792],[2.3362996,48.8478609],[2.3364955,48.8477737],[2.3372348,48.8477434],[2.3372244,48.847231],[2.3378358,48.8472123],[2.3380128,48.8471816],[2.3382063,48.8470775],[2.3382844,48.8468913],[2.3384471,48.8468894],[2.3384427,48.8468411],[2.3386818,48.8467887],[2.340312,48.8467512]]]]},"properties":{"code_section":"75106000AL","code_commune":"75106","section_courte":"AL"}},{"type":"Feature","geometry":{"type":"MultiPolygon","coordinates":[[[[2.3326022,48.8471193],[2.3357111,48.8470548],[2.3359547,48.8469839],[2.3359529,48.8469482],[2.3361125,48.846948],[2.3362091,48.847121],[2.3364104,48.8472285],[2.3365816,48.8472525],[2.3372244,48.847231],[2.3372348,48.8477434],[2.3364955,48.8477737],[2.3362996,48.8478609],[2.3361983,48.8479792],[2.3361837,48.8481178],[2.3362786,48.8481157],[2.3363387,48.8492929],[2.3359617,48.8492873],[2.3343249,48.8490309],[2.3328527,48.8487457],[2.3316542,48.8484186],[2.3315749,48.8470547],[2.3324611,48.8470311],[2.3324672,48.8471176],[2.3326022,48.8471193]]]]},"properties":{"code_section":"75106000AM","code_commune":"75106","section_courte":"AM"}},{"type":"Feature","geometry":{"type":"MultiPolygon","coordinates":[[[[2.3315749,48.8470547],[2.3314994,48.8457927],[2.3328669,48.8443824],[2.3370211,48.8442718],[2.3372244,48.847231],[2.3365816,48.8472525],[2.3364104,48.8472285],[2.3362091,48.847121],[2.3361125,48.846948],[2.3359529,48.8469482],[2.3359547,48.8469839],[2.3357111,48.8470548],[2.3326022,48.8471193],[2.3324672,48.8471176],[2.3324611,48.8470311],[2.3315749,48.8470547]]]]},"properties":{"code_section":"75106000AN","code_commune":"75106","section_courte":"AN"}},{"type":"Feature","geometry":{"type":"MultiPolygon","coordinates":[[[[2.3370211,48.8442718],[2.3376931,48.844257],[2.3389735,48.8439565],[2.3404985,48.8467123],[2.340372,48.8467498],[2.3386818,48.8467887],[2.3384427,48.8468411],[2.3384471,48.8468894],[2.3382844,48.8468913],[2.3382063,48.8470775],[2.3380128,48.8471816],[2.3378358,48.8472123],[2.3372244,48.847231],[2.3370211,48.8442718]]]]},"properties":{"code_section":"75106000AO","code_commune":"75106","section_courte":"AO"}},{"type":"Feature","geometry":{"type":"MultiPolygon","coordinates":[[[[2.3381686,48.8425004],[2.3389739,48.8439565],[2.3376931,48.844257],[2.3328669,48.8443824],[2.3345903,48.8425914],[2.3381686,48.8425004]]]]},"properties":{"code_section":"75106000AP","code_commune":"75106","section_courte":"AP"}},{"type":"Feature","geometry":{"type":"MultiPolygon","coordinates":[[[[2.3361408,48.8409942],[2.336435,48.8407984],[2.336789,48.8406972],[2.3370148,48.8407207],[2.3371931,48.8408103],[2.3373035,48.8409259],[2.3381761,48.8425002],[2.3345903,48.8425914],[2.3361408,48.8409942]]]]},"properties":{"code_section":"75106000AQ","code_commune":"75106","section_courte":"AQ"}},{"type":"Feature","geometry":{"type":"MultiPolygon","coordinates":[[[[2.3335838,48.8421106],[2.3325774,48.8416299],[2.3322474,48.8418524],[2.3320892,48.8420462],[2.3310771,48.8415118],[2.3367287,48.8396535],[2.336789,48.8406972],[2.3364817,48.8407775],[2.3361587,48.8409769],[2.3345903,48.8425914],[2.3335838,48.8421106]]]]},"properties":{"code_section":"75106000AR","code_commune":"75106","section_courte":"AR"}},{"type":"Feature","geometry":{"type":"MultiPolygon","coordinates":[[[[2.3315179,48.8444257],[2.3306337,48.8439919],[2.3315332,48.843163],[2.3320892,48.8420462],[2.3322474,48.8418524],[2.3325774,48.8416299],[2.3345903,48.8425914],[2.3324021,48.8448593],[2.3315179,48.8444257]]]]},"properties":{"code_section":"75106000AS","code_commune":"75106","section_courte":"AS"}},{"type":"Feature","geometry":{"type":"MultiPolygon","coordinates":[[[[2.3311785,48.8415653],[2.3320892,48.8420462],[2.3315332,48.843163],[2.3306337,48.8439919],[2.3303637,48.844186],[2.3293474,48.8447693],[2.3271122,48.8428228],[2.3310771,48.8415118],[2.3311785,48.8415653]]]]},"properties":{"code_section":"75106000AT","code_commune":"75106","section_courte":"AT"}},{"type":"Feature","geometry":{"type":"MultiPolygon","coordinates":[[[[2.3303637,48.844186],[2.3306337,48.8439919],[2.3324021,48.8448593],[2.3310373,48.8462725],[2.3300228,48.8462908],[2.3284797,48.8454809],[2.3288167,48.8443013],[2.3293474,48.8447693],[2.3303637,48.844186]]]]},"properties":{"code_section":"75106000AU","code_commune":"75106","section_courte":"AU"}},{"type":"Feature","geometry":{"type":"MultiPolygon","coordinates":[[[[2.3314994,48.8457927],[2.3316542,48.8484186],[2.327,48.8470803],[2.3255455,48.8455967],[2.3265899,48.8455704],[2.3277151,48.845797],[2.3279832,48.8454959],[2.3282748,48.8453393],[2.3284797,48.8454809],[2.3300228,48.8462908],[2.3310373,48.8462725],[2.3314994,48.8457927]]]]},"properties":{"code_section":"75106000AV","code_commune":"75106","section_courte":"AV"}},{"type":"Feature","geometry":{"type":"MultiPolygon","coordinates":[[[[2.3260423,48.8455886],[2.3255455,48.8455967],[2.3238909,48.8438894],[2.3271122,48.8428228],[2.3288167,48.8443013],[2.3284797,48.8454809],[2.3282748,48.8453393],[2.3279832,48.8454959],[2.3277151,48.845797],[2.3265899,48.8455704],[2.3260423,48.8455886]]]]},"properties":{"code_section":"75106000AW","code_commune":"75106","section_courte":"AW"}},{"type":"Feature","geometry":{"type":"MultiPolygon","coordinates":[[[[2.3238791,48.8438931],[2.3256303,48.8456754],[2.3245351,48.8457517],[2.3241997,48.8462613],[2.3202033,48.8451134],[2.3238791,48.8438931]]]]},"properties":{"code_section":"75106000AX","code_commune":"75106","section_courte":"AX"}},{"type":"Feature","geometry":{"type":"MultiPolygon","coordinates":[[[[2.3241441,48.8462443],[2.3241997,48.8462613],[2.3245351,48.8457517],[2.3256303,48.8456754],[2.327,48.8470803],[2.3261055,48.8468416],[2.3246208,48.8485407],[2.3227962,48.8475557],[2.3241441,48.8462443]]]]},"properties":{"code_section":"75106000AY","code_commune":"75106","section_courte":"AY"}},{"type":"Feature","geometry":{"type":"MultiPolygon","coordinates":[[[[2.3214726,48.846881],[2.3208061,48.8465333],[2.319153,48.8455063],[2.3202033,48.8451134],[2.3241441,48.8462443],[2.3227962,48.8475557],[2.3214726,48.846881]]]]},"properties":{"code_section":"75106000AZ","code_commune":"75106","section_courte":"AZ"}},{"type":"Feature","geometry":{"type":"MultiPolygon","coordinates":[[[[2.3193552,48.8478449],[2.318043,48.8473381],[2.3165715,48.8468246],[2.319153,48.8455063],[2.3208061,48.8465333],[2.3214726,48.846881],[2.3201776,48.8482312],[2.3193552,48.8478449]]]]},"properties":{"code_section":"75106000BC","code_commune":"75106","section_courte":"BC"}},{"type":"Feature","geometry":{"type":"MultiPolygon","coordinates":[[[[2.3246208,48.8485407],[2.3232864,48.8498257],[2.3201776,48.8482312],[2.3214726,48.846881],[2.3227962,48.8475557],[2.3246208,48.8485407]]]]},"properties":{"code_section":"75106000BD","code_commune":"75106","section_courte":"BD"}},{"type":"Feature","geometry":{"type":"MultiPolygon","coordinates":[[[[2.3266387,48.8512615],[2.3241395,48.8502302],[2.3232864,48.8498257],[2.3246208,48.8485407],[2.326628,48.8496575],[2.3271628,48.8500404],[2.3268656,48.8514084],[2.3266387,48.8512615]]]]},"properties":{"code_section":"75106000BE","code_commune":"75106","section_courte":"BE"}},{"type":"Feature","geometry":{"type":"MultiPolygon","coordinates":[[[[2.326628,48.8496575],[2.3246208,48.8485407],[2.3261055,48.8468416],[2.3279295,48.8473494],[2.3273395,48.8494094],[2.3269781,48.8494862],[2.3266525,48.8494689],[2.326628,48.8496575]]]]},"properties":{"code_section":"75106000BF","code_commune":"75106","section_courte":"BF"}},{"type":"Feature","geometry":{"type":"MultiPolygon","coordinates":[[[[2.3280441,48.8499502],[2.3277285,48.8503963],[2.326628,48.8496575],[2.3266525,48.8494689],[2.3269781,48.8494862],[2.3273395,48.8494094],[2.3279295,48.8473494],[2.3316542,48.8484186],[2.3318033,48.8502718],[2.3299125,48.8502685],[2.3297726,48.8501091],[2.3280441,48.8499502]]]]},"properties":{"code_section":"75106000BG","code_commune":"75106","section_courte":"BG"}},{"type":"Feature","geometry":{"type":"MultiPolygon","coordinates":[[[[2.327193,48.8516254],[2.3268656,48.8514084],[2.3271628,48.8500404],[2.3277285,48.8503963],[2.3280441,48.8499502],[2.3297726,48.8501091],[2.3299125,48.8502685],[2.3318033,48.8502718],[2.3320266,48.8513805],[2.3319094,48.8513975],[2.3320155,48.8524729],[2.327193,48.8516254]]]]},"properties":{"code_section":"75106000BH","code_commune":"75106","section_courte":"BH"}},{"type":"Feature","geometry":{"type":"MultiPolygon","coordinates":[[[[2.3319144,48.8524541],[2.3331556,48.8538058],[2.3304327,48.8544171],[2.3293098,48.852614],[2.3284211,48.8518272],[2.3319144,48.8524541]]]]},"properties":{"code_section":"75106000BI","code_commune":"75106","section_courte":"BI"}},{"type":"Feature","geometry":{"type":"MultiPolygon","coordinates":[[[[2.3360588,48.8539755],[2.3357235,48.8539927],[2.3335742,48.8545237],[2.3331556,48.8538058],[2.3319144,48.8524541],[2.3330517,48.8526472],[2.3336761,48.8526532],[2.3344218,48.8527995],[2.3344287,48.8527589],[2.3351555,48.8528997],[2.3360609,48.8531286],[2.3369887,48.852902],[2.3369603,48.8538693],[2.3365179,48.853671],[2.3360588,48.8539755]]]]},"properties":{"code_section":"75106000BJ","code_commune":"75106","section_courte":"BJ"}},{"type":"Feature","geometry":{"type":"MultiPolygon","coordinates":[[[[2.3339361,48.8555051],[2.3336384,48.8545048],[2.3357235,48.8539927],[2.3360588,48.8539755],[2.3365179,48.853671],[2.3369603,48.8538693],[2.3367156,48.8556717],[2.3342229,48.8559391],[2.3339361,48.8555051]]]]},"properties":{"code_section":"75106000BK","code_commune":"75106","section_courte":"BK"}},{"type":"Feature","geometry":{"type":"MultiPolygon","coordinates":[[[[2.3335742,48.8545237],[2.3336384,48.8545048],[2.3339361,48.8555051],[2.3316728,48.8563143],[2.330841,48.8551987],[2.3304327,48.8544171],[2.3331556,48.8538058],[2.3335742,48.8545237]]]]},"properties":{"code_section":"75106000BL","code_commune":"75106","section_courte":"BL"}},{"type":"Feature","geometry":{"type":"MultiPolygon","coordinates":[[[[2.3339361,48.8555051],[2.3342229,48.8559391],[2.3367156,48.8556717],[2.3364919,48.8572547],[2.3363545,48.8574857],[2.3360808,48.8575974],[2.3362021,48.8578335],[2.3351297,48.8578149],[2.3332658,48.8582646],[2.3316728,48.8563143],[2.3339361,48.8555051]]]]},"properties":{"code_section":"75106000BM","code_commune":"75106","section_courte":"BM"}},{"type":"Feature","geometry":{"type":"MultiPolygon","coordinates":[[[[2.3365794,48.8585281],[2.3366091,48.8585828],[2.3329101,48.8593496],[2.3324457,48.8585085],[2.3332658,48.8582646],[2.3351297,48.8578149],[2.3362021,48.8578335],[2.3365794,48.8585281]]]]},"properties":{"code_section":"75106000BN","code_commune":"75106","section_courte":"BN"}}]}