{"type":"FeatureCollection","features":[{"type":"Feature","geometry":{"type":"MultiPolygon","coordinates":[[[[2.3290767,48.8596688],[2.3293238,48.8595874],[2.3287388,48.8587949],[2.33275,48.8576305],[2.3332658,48.8582646],[2.3324457,48.8585085],[2.3329101,48.8593496],[2.3300276,48.8601007],[2.3295234,48.8602679],[2.3290767,48.8596688]]]]},"properties":{"code_section":"75107000AB","code_commune":"75107","section_courte":"AB"}},{"type":"Feature","geometry":{"type":"MultiPolygon","coordinates":[[[[2.3316857,48.8563301],[2.33275,48.8576305],[2.3287388,48.8587949],[2.3279775,48.8577091],[2.3316857,48.8563301]]]]},"properties":{"code_section":"75107000AC","code_commune":"75107","section_courte":"AC"}},{"type":"Feature","geometry":{"type":"MultiPolygon","coordinates":[[[[2.3277156,48.8567892],[2.3268731,48.8566239],[2.3256693,48.8559222],[2.3260003,48.8547437],[2.3268794,48.8555866],[2.3277486,48.8552311],[2.3304577,48.8544601],[2.330841,48.8551987],[2.3316728,48.8563143],[2.3289019,48.8573576],[2.3285579,48.8569543],[2.3277156,48.8567892]]]]},"properties":{"code_section":"75107000AD","code_commune":"75107","section_courte":"AD"}},{"type":"Feature","geometry":{"type":"MultiPolygon","coordinates":[[[[2.3276019,48.8537611],[2.3278395,48.8536869],[2.3289608,48.8530284],[2.3293785,48.8527354],[2.3304577,48.8544601],[2.3277486,48.8552311],[2.3268794,48.8555866],[2.3260003,48.8547437],[2.3258612,48.854667],[2.3261847,48.8534159],[2.3271372,48.8531814],[2.3273639,48.8538353],[2.3276019,48.8537611]]]]},"properties":{"code_section":"75107000AE","code_commune":"75107","section_courte":"AE"}},{"type":"Feature","geometry":{"type":"MultiPolygon","coordinates":[[[[2.3266031,48.8533128],[2.3261847,48.8534159],[2.3264728,48.8524178],[2.324359,48.8517082],[2.3247991,48.8517136],[2.3252734,48.8506967],[2.3266387,48.8512615],[2.327193,48.8516254],[2.3284185,48.8518248],[2.3293098,48.852614],[2.3293785,48.8527354],[2.3289608,48.8530284],[2.3278395,48.8536869],[2.3273639,48.8538353],[2.3271372,48.8531814],[2.3266031,48.8533128]]]]},"properties":{"code_section":"75107000AF","code_commune":"75107","section_courte":"AF"}},{"type":"Feature","geometry":{"type":"MultiPolygon","coordinates":[[[[2.324359,48.8517082],[2.3264728,48.8524178],[2.3261847,48.8534159],[2.3238587,48.8539962],[2.3235256,48.8516923],[2.324359,48.8517082]]]]},"properties":{"code_section":"75107000AG","code_commune":"75107","section_courte":"AG"}},{"type":"Feature","geometry":{"type":"MultiPolygon","coordinates":[[[[2.319876,48.8505469],[2.3198674,48.8505716],[2.3195735,48.8505269],[2.320541,48.8484199],[2.322898,48.849635],[2.3241395,48.8502302],[2.3237364,48.8512001],[2.3229439,48.8511676],[2.3229532,48.8511432],[2.3228874,48.851132],[2.3229112,48.851071],[2.320151,48.8505954],[2.3201638,48.8505616],[2.3199079,48.8505209],[2.319876,48.8505469]]]]},"properties":{"code_section":"75107000AH","code_commune":"75107","section_courte":"AH"}},{"type":"Feature","geometry":{"type":"MultiPolygon","coordinates":[[[[2.3239379,48.8507151],[2.3241395,48.8502302],[2.3252734,48.8506967],[2.3247991,48.8517136],[2.3190373,48.8516945],[2.3195735,48.8505269],[2.3198674,48.8505716],[2.3199079,48.8505209],[2.3201638,48.8505616],[2.320151,48.8505954],[2.3229112,48.851071],[2.3228874,48.851132],[2.3229532,48.8511432],[2.3229439,48.8511676],[2.3237364,48.8512001],[2.3239379,48.8507151]]]]},"properties":{"code_section":"75107000AI","code_commune":"75107","section_courte":"AI"}},{"type":"Feature","geometry":{"type":"MultiPolygon","coordinates":[[[[2.3192064,48.8530211],[2.3191033,48.8527546],[2.3190373,48.8516945],[2.3235256,48.8516923],[2.3236641,48.8528114],[2.3214512,48.8530977],[2.3214098,48.8528675],[2.3196115,48.8529586],[2.3192064,48.8530211]]]]},"properties":{"code_section":"75107000AJ","code_commune":"75107","section_courte":"AJ"}},{"type":"Feature","geometry":{"type":"MultiPolygon","coordinates":[[[[2.3236641,48.8528114],[2.3238587,48.8539962],[2.3199501,48.8549492],[2.3192064,48.8530211],[2.3196115,48.8529586],[2.3214098,48.8528675],[2.3214512,48.8530977],[2.3236641,48.8528114]]]]},"properties":{"code_section":"75107000AK","code_commune":"75107","section_courte":"AK"}},{"type":"Feature","geometry":{"type":"MultiPolygon","coordinates":[[[[2.323004,48.8558277],[2.3225948,48.8560115],[2.3211206,48.8564745],[2.3199501,48.8549492],[2.3261847,48.8534159],[2.3258612,48.854667],[2.3260003,48.8547437],[2.3256693,48.8559222],[2.3255898,48.8558755],[2.3240943,48.8564092],[2.3234132,48.855644],[2.323004,48.8558277]]]]},"properties":{"code_section":"75107000AL","code_commune":"75107","section_courte":"AL"}},{"type":"Feature","geometry":{"type":"MultiPolygon","coordinates":[[[[2.324842,48.8561424],[2.3255898,48.8558755],[2.3258549,48.8560308],[2.3244815,48.8570685],[2.3231293,48.8585084],[2.3211206,48.8564745],[2.3225948,48.8560115],[2.3234132,48.855644],[2.3240943,48.8564092],[2.324842,48.8561424]]]]},"properties":{"code_section":"75107000AM","code_commune":"75107","section_courte":"AM"}},{"type":"Feature","geometry":{"type":"MultiPolygon","coordinates":[[[[2.3248131,48.8588339],[2.3238006,48.8592122],[2.3231293,48.8585084],[2.3244815,48.8570685],[2.3258549,48.8560308],[2.3268731,48.8566239],[2.3285579,48.8569543],[2.3289019,48.8573576],[2.3279775,48.8577091],[2.3283357,48.8582305],[2.326091,48.8588958],[2.3258258,48.8584556],[2.3248131,48.8588339]]]]},"properties":{"code_section":"75107000AN","code_commune":"75107","section_courte":"AN"}},{"type":"Feature","geometry":{"type":"MultiPolygon","coordinates":[[[[2.3252715,48.8606829],[2.3238006,48.8592122],[2.3258258,48.8584556],[2.326091,48.8588958],[2.3283357,48.8582305],[2.3293238,48.8595874],[2.3290767,48.8596688],[2.3295234,48.8602679],[2.3283271,48.860731],[2.3261023,48.8614781],[2.3252715,48.8606829]]]]},"properties":{"code_section":"75107000AO","code_commune":"75107","section_courte":"AO"}},{"type":"Feature","geometry":{"type":"MultiPolygon","coordinates":[[[[2.3198519,48.8624732],[2.3189765,48.8610262],[2.3229979,48.8595062],[2.3236026,48.8603289],[2.3245918,48.8600322],[2.3261023,48.8614781],[2.3203165,48.8632427],[2.3198519,48.8624732]]]]},"properties":{"code_section":"75107000AP","code_commune":"75107","section_courte":"AP"}},{"type":"Feature","geometry":{"type":"MultiPolygon","coordinates":[[[[2.3189765,48.8610262],[2.318548,48.8603861],[2.3182882,48.8604074],[2.3181511,48.8598085],[2.3189336,48.8596012],[2.3227934,48.8581577],[2.3245918,48.8600322],[2.3236026,48.8603289],[2.3229979,48.8595062],[2.3189765,48.8610262]]]]},"properties":{"code_section":"75107000AQ","code_commune":"75107","section_courte":"AQ"}},{"type":"Feature","geometry":{"type":"MultiPolygon","coordinates":[[[[2.318548,48.8603861],[2.318781,48.8607491],[2.3149645,48.8609756],[2.3148329,48.8599646],[2.3169487,48.8599253],[2.3181511,48.8598085],[2.3182882,48.8604074],[2.318548,48.8603861]]]]},"properties":{"code_section":"75107000AR","code_commune":"75107","section_courte":"AR"}},{"type":"Feature","geometry":{"type":"MultiPolygon","coordinates":[[[[2.3151829,48.8628127],[2.3149645,48.8609756],[2.3188039,48.8607476],[2.3203165,48.8632427],[2.3186067,48.8637696],[2.3152898,48.8637114],[2.3151829,48.8628127]]]]},"properties":{"code_section":"75107000AS","code_commune":"75107","section_courte":"AS"}},{"type":"Feature","geometry":{"type":"MultiPolygon","coordinates":[[[[2.3103862,48.8636269],[2.3104325,48.8627832],[2.3102799,48.8611224],[2.3115925,48.861124],[2.3149645,48.8609756],[2.3152898,48.8637114],[2.3103862,48.8636269]]]]},"properties":{"code_section":"75107000AT","code_commune":"75107","section_courte":"AT"}},{"type":"Feature","geometry":{"type":"MultiPolygon","coordinates":[[[[2.3101756,48.8599384],[2.3148329,48.8599646],[2.3149645,48.8609756],[2.3115925,48.861124],[2.3102799,48.8611224],[2.3101756,48.8599384]]]]},"properties":{"code_section":"75107000AU","code_commune":"75107","section_courte":"AU"}},{"type":"Feature","geometry":{"type":"MultiPolygon","coordinates":[[[[2.311728,48.8584409],[2.3122708,48.858458],[2.3136134,48.8583961],[2.3146189,48.8580858],[2.3148329,48.8599646],[2.3101756,48.8599384],[2.3100059,48.8580689],[2.3111545,48.8581265],[2.3111851,48.8584237],[2.311728,48.8584409]]]]},"properties":{"code_section":"75107000AV","code_commune":"75107","section_courte":"AV"}},{"type":"Feature","geometry":{"type":"MultiPolygon","coordinates":[[[[2.3185938,48.8590539],[2.3191754,48.8588625],[2.3195636,48.8593761],[2.3189336,48.8596012],[2.3181511,48.8598085],[2.3169487,48.8599253],[2.3148329,48.8599646],[2.3146189,48.8580858],[2.3165467,48.8577811],[2.3175176,48.8575654],[2.3180123,48.8592453],[2.3185938,48.8590539]]]]},"properties":{"code_section":"75107000AW","code_commune":"75107","section_courte":"AW"}},{"type":"Feature","geometry":{"type":"MultiPolygon","coordinates":[[[[2.3185938,48.8590539],[2.3180123,48.8592453],[2.3175176,48.8575654],[2.3182094,48.8573764],[2.3211206,48.8564745],[2.3227934,48.8581577],[2.3195636,48.8593761],[2.3191754,48.8588625],[2.3185938,48.8590539]]]]},"properties":{"code_section":"75107000AX","code_commune":"75107","section_courte":"AX"}},{"type":"Feature","geometry":{"type":"MultiPolygon","coordinates":[[[[2.3199501,48.8549492],[2.3211206,48.8564745],[2.3182094,48.8573764],[2.3175176,48.8575654],[2.3165467,48.8577811],[2.3152426,48.8579902],[2.3150186,48.8561647],[2.3199501,48.8549492]]]]},"properties":{"code_section":"75107000AY","code_commune":"75107","section_courte":"AY"}},{"type":"Feature","geometry":{"type":"MultiPolygon","coordinates":[[[[2.3149801,48.8558369],[2.3152426,48.8579902],[2.3146189,48.8580858],[2.3136134,48.8583961],[2.3122708,48.858458],[2.3111851,48.8584237],[2.3111545,48.8581265],[2.3100059,48.8580689],[2.3097759,48.8559855],[2.3104825,48.855949],[2.3104966,48.8560476],[2.3149801,48.8558369]]]]},"properties":{"code_section":"75107000AZ","code_commune":"75107","section_courte":"AZ"}},{"type":"Feature","geometry":{"type":"MultiPolygon","coordinates":[[[[2.3095442,48.8539557],[2.3121416,48.853823],[2.314728,48.8536497],[2.3149801,48.8558369],[2.3104966,48.8560476],[2.3104825,48.855949],[2.3097759,48.8559855],[2.3095442,48.8539557]]]]},"properties":{"code_section":"75107000BC","code_commune":"75107","section_courte":"BC"}},{"type":"Feature","geometry":{"type":"MultiPolygon","coordinates":[[[[2.3174955,48.8532422],[2.3192193,48.8530523],[2.3199501,48.8549492],[2.3150186,48.8561647],[2.314728,48.8536497],[2.3162792,48.8534629],[2.3163492,48.8537315],[2.316732,48.8536923],[2.3166682,48.8533721],[2.3175045,48.853274],[2.3174955,48.8532422]]]]},"properties":{"code_section":"75107000BD","code_commune":"75107","section_courte":"BD"}},{"type":"Feature","geometry":{"type":"MultiPolygon","coordinates":[[[[2.314728,48.8536497],[2.3145116,48.8518329],[2.3190373,48.8516945],[2.3191033,48.8527546],[2.3192193,48.8530523],[2.3174955,48.8532422],[2.3175045,48.853274],[2.3166682,48.8533721],[2.316732,48.8536923],[2.3163492,48.8537315],[2.3162792,48.8534629],[2.314728,48.8536497]]]]},"properties":{"code_section":"75107000BE","code_commune":"75107","section_courte":"BE"}},{"type":"Feature","geometry":{"type":"MultiPolygon","coordinates":[[[[2.315123,48.8494415],[2.3166524,48.8498915],[2.3185573,48.8503716],[2.3195735,48.8505269],[2.3190373,48.8516945],[2.3145116,48.8518329],[2.3144162,48.8507671],[2.315123,48.8494415]]]]},"properties":{"code_section":"75107000BF","code_commune":"75107","section_courte":"BF"}},{"type":"Feature","geometry":{"type":"MultiPolygon","coordinates":[[[[2.3190789,48.8477343],[2.3200835,48.84818],[2.320541,48.8484199],[2.3195735,48.8505269],[2.3185573,48.8503716],[2.3177236,48.8501672],[2.3190789,48.8477343]]]]},"properties":{"code_section":"75107000BG","code_commune":"75107","section_courte":"BG"}},{"type":"Feature","geometry":{"type":"MultiPolygon","coordinates":[[[[2.3180431,48.8473381],[2.3190789,48.8477343],[2.3177236,48.8501672],[2.3166524,48.8498915],[2.315123,48.8494415],[2.3159547,48.847929],[2.3174912,48.8482972],[2.3180431,48.8473381]]]]},"properties":{"code_section":"75107000BH","code_commune":"75107","section_courte":"BH"}},{"type":"Feature","geometry":{"type":"MultiPolygon","coordinates":[[[[2.3174912,48.8482972],[2.3159547,48.847929],[2.3157652,48.8482771],[2.3116257,48.8472811],[2.3137299,48.8459332],[2.3160976,48.8466629],[2.3180431,48.8473381],[2.3174912,48.8482972]]]]},"properties":{"code_section":"75107000BI","code_commune":"75107","section_courte":"BI"}},{"type":"Feature","geometry":{"type":"MultiPolygon","coordinates":[[[[2.3157652,48.8482771],[2.3151305,48.8494307],[2.3123272,48.848792],[2.3114213,48.8488312],[2.3112608,48.8475111],[2.3116257,48.8472811],[2.3157652,48.8482771]]]]},"properties":{"code_section":"75107000BJ","code_commune":"75107","section_courte":"BJ"}},{"type":"Feature","geometry":{"type":"MultiPolygon","coordinates":[[[[2.3151305,48.8494307],[2.3144162,48.8507671],[2.3145116,48.8518329],[2.3117479,48.8515777],[2.3114213,48.8488312],[2.3123272,48.848792],[2.3151305,48.8494307]]]]},"properties":{"code_section":"75107000BK","code_commune":"75107","section_courte":"BK"}},{"type":"Feature","geometry":{"type":"MultiPolygon","coordinates":[[[[2.3145116,48.8518329],[2.314728,48.8536497],[2.3121416,48.853823],[2.3097188,48.8514267],[2.3117479,48.8515777],[2.3145116,48.8518329]]]]},"properties":{"code_section":"75107000BL","code_commune":"75107","section_courte":"BL"}},{"type":"Feature","geometry":{"type":"MultiPolygon","coordinates":[[[[2.3115189,48.849666],[2.3117479,48.8515777],[2.3097188,48.8514267],[2.308608,48.850327],[2.31003,48.8500941],[2.3098971,48.8498817],[2.3105678,48.8497035],[2.3115189,48.849666]]]]},"properties":{"code_section":"75107000BM","code_commune":"75107","section_courte":"BM"}},{"type":"Feature","geometry":{"type":"MultiPolygon","coordinates":[[[[2.308608,48.850327],[2.3079206,48.8496515],[2.3112608,48.8475111],[2.3115189,48.849666],[2.3105678,48.8497035],[2.3098971,48.8498817],[2.31003,48.8500941],[2.308608,48.850327]]]]},"properties":{"code_section":"75107000BN","code_commune":"75107","section_courte":"BN"}},{"type":"Feature","geometry":{"type":"MultiPolygon","coordinates":[[[[2.3073398,48.8471393],[2.3080419,48.8473922],[2.3105257,48.8479876],[2.3079206,48.8496515],[2.3061491,48.8478998],[2.3073398,48.8471393]]]]},"properties":{"code_section":"75107000BO","code_commune":"75107","section_courte":"BO"}},{"type":"Feature","geometry":{"type":"MultiPolygon","coordinates":[[[[2.3062201,48.8507446],[2.3061993,48.8510848],[2.303746,48.8494392],[2.3061491,48.8478998],[2.3079206,48.8496515],[2.3062201,48.8507446]]]]},"properties":{"code_section":"75107000BP","code_commune":"75107","section_courte":"BP"}},{"type":"Feature","geometry":{"type":"MultiPolygon","coordinates":[[[[2.3064473,48.8512512],[2.3061993,48.8510848],[2.3062201,48.8507446],[2.3079206,48.8496515],[2.3100452,48.8517512],[2.3085627,48.8527041],[2.3064473,48.8512512]]]]},"properties":{"code_section":"75107000BQ","code_commune":"75107","section_courte":"BQ"}},{"type":"Feature","geometry":{"type":"MultiPolygon","coordinates":[[[[2.3100452,48.8517512],[2.3121416,48.853823],[2.3064628,48.8541286],[2.3063026,48.8541617],[2.3100452,48.8517512]]]]},"properties":{"code_section":"75107000BR","code_commune":"75107","section_courte":"BR"}},{"type":"Feature","geometry":{"type":"MultiPolygon","coordinates":[[[[2.3064473,48.8512512],[2.3085627,48.8527041],[2.3063026,48.8541617],[2.3055011,48.8543274],[2.3022056,48.8520703],[2.3032742,48.8513861],[2.3037539,48.8517023],[2.3040676,48.8515012],[2.3050317,48.8521547],[2.3064473,48.8512512]]]]},"properties":{"code_section":"75107000BS","code_commune":"75107","section_courte":"BS"}},{"type":"Feature","geometry":{"type":"MultiPolygon","coordinates":[[[[2.3022056,48.8520703],[2.3009646,48.8512301],[2.303746,48.8494392],[2.3064473,48.8512512],[2.3050317,48.8521547],[2.3040676,48.8515012],[2.3037539,48.8517023],[2.3032742,48.8513861],[2.3022056,48.8520703]]]]},"properties":{"code_section":"75107000BT","code_commune":"75107","section_courte":"BT"}},{"type":"Feature","geometry":{"type":"MultiPolygon","coordinates":[[[[2.2994844,48.8541247],[2.2979234,48.8530685],[2.3008838,48.8511761],[2.3038916,48.8532189],[2.3022655,48.8542774],[2.3008001,48.8532745],[2.2994844,48.8541247]]]]},"properties":{"code_section":"75107000BU","code_commune":"75107","section_courte":"BU"}},{"type":"Feature","geometry":{"type":"MultiPolygon","coordinates":[[[[2.3038916,48.8532189],[2.3054238,48.8542742],[2.3024474,48.8561612],[2.2994844,48.8541247],[2.3008001,48.8532745],[2.3022655,48.8542774],[2.3038916,48.8532189]]]]},"properties":{"code_section":"75107000BV","code_commune":"75107","section_courte":"BV"}},{"type":"Feature","geometry":{"type":"MultiPolygon","coordinates":[[[[2.3043017,48.8571352],[2.3036006,48.8568046],[2.3024474,48.8561612],[2.3054238,48.8542742],[2.3055011,48.8543274],[2.3055575,48.8543157],[2.3057077,48.8543887],[2.3071438,48.8553601],[2.306507,48.8565998],[2.304749,48.856199],[2.3043017,48.8571352]]]]},"properties":{"code_section":"75107000BW","code_commune":"75107","section_courte":"BW"}},{"type":"Feature","geometry":{"type":"MultiPolygon","coordinates":[[[[2.3056327,48.8543522],[2.3055575,48.8543157],[2.3064628,48.8541286],[2.3095442,48.8539557],[2.3098308,48.8564517],[2.3085033,48.855554],[2.3080229,48.8559611],[2.3056327,48.8543522]]]]},"properties":{"code_section":"75107000BX","code_commune":"75107","section_courte":"BX"}},{"type":"Feature","geometry":{"type":"MultiPolygon","coordinates":[[[[2.3082632,48.8557575],[2.3085033,48.855554],[2.3098308,48.8564517],[2.3100059,48.8580689],[2.3068171,48.8578788],[2.3059478,48.8576964],[2.3043017,48.8571352],[2.304749,48.856199],[2.306507,48.8565998],[2.3071438,48.8553601],[2.3080229,48.8559611],[2.3082632,48.8557575]]]]},"properties":{"code_section":"75107000BY","code_commune":"75107","section_courte":"BY"}},{"type":"Feature","geometry":{"type":"MultiPolygon","coordinates":[[[[2.3101756,48.8599384],[2.3079033,48.8597338],[2.306521,48.859522],[2.3051525,48.8592296],[2.3059478,48.8576964],[2.3068171,48.8578788],[2.3100059,48.8580689],[2.3101756,48.8599384]]]]},"properties":{"code_section":"75107000BZ","code_commune":"75107","section_courte":"BZ"}},{"type":"Feature","geometry":{"type":"MultiPolygon","coordinates":[[[[2.3024474,48.8561612],[2.3036006,48.8568046],[2.3043017,48.8571352],[2.3059478,48.8576964],[2.3051525,48.8592296],[2.3043124,48.8590528],[2.302559,48.8585383],[2.3001321,48.8576469],[2.3024474,48.8561612]]]]},"properties":{"code_section":"75107000CD","code_commune":"75107","section_courte":"CD"}},{"type":"Feature","geometry":{"type":"MultiPolygon","coordinates":[[[[2.2998294,48.8552365],[2.3004935,48.8548109],[2.3024474,48.8561612],[2.3003472,48.8575081],[2.297784,48.8557685],[2.29865,48.8552174],[2.2992316,48.8556194],[2.2998294,48.8552365]]]]},"properties":{"code_section":"75107000CE","code_commune":"75107","section_courte":"CE"}},{"type":"Feature","geometry":{"type":"MultiPolygon","coordinates":[[[[2.2982618,48.8554643],[2.297784,48.8557685],[2.297502,48.8556575],[2.2957456,48.8544659],[2.2979234,48.8530685],[2.3004935,48.8548109],[2.2992316,48.8556194],[2.29865,48.8552174],[2.2982618,48.8554643]]]]},"properties":{"code_section":"75107000CF","code_commune":"75107","section_courte":"CF"}},{"type":"Feature","geometry":{"type":"MultiPolygon","coordinates":[[[[2.2953628,48.8573189],[2.294908,48.8576103],[2.2929353,48.8562649],[2.2957456,48.8544659],[2.297502,48.8556575],[2.297784,48.8557685],[2.2985199,48.8562758],[2.2981905,48.8564907],[2.298033,48.8563834],[2.2963433,48.8574672],[2.2957585,48.8570655],[2.2953628,48.8573189]]]]},"properties":{"code_section":"75107000CG","code_commune":"75107","section_courte":"CG"}},{"type":"Feature","geometry":{"type":"MultiPolygon","coordinates":[[[[2.2985199,48.8562758],[2.3003472,48.8575081],[2.297474,48.8593506],[2.294908,48.8576103],[2.2957585,48.8570655],[2.2963433,48.8574672],[2.298033,48.8563834],[2.2981905,48.8564907],[2.2985199,48.8562758]]]]},"properties":{"code_section":"75107000CH","code_commune":"75107","section_courte":"CH"}},{"type":"Feature","geometry":{"type":"MultiPolygon","coordinates":[[[[2.2985263,48.8586793],[2.3006345,48.8591194],[2.3012108,48.8609705],[2.2984852,48.8604958],[2.2966254,48.8598942],[2.2985263,48.8586793]]]]},"properties":{"code_section":"75107000CI","code_commune":"75107","section_courte":"CI"}},{"type":"Feature","geometry":{"type":"MultiPolygon","coordinates":[[[[2.2995805,48.8588994],[2.2985263,48.8586793],[2.3001321,48.8576469],[2.302559,48.8585383],[2.3034926,48.8588166],[2.3030139,48.8598312],[2.3007684,48.8595914],[2.3006345,48.8591194],[2.2995805,48.8588994]]]]},"properties":{"code_section":"75107000CJ","code_commune":"75107","section_courte":"CJ"}},{"type":"Feature","geometry":{"type":"MultiPolygon","coordinates":[[[[2.3032533,48.859324],[2.3034926,48.8588166],[2.3043124,48.8590528],[2.3062915,48.8594732],[2.3054729,48.861138],[2.302278,48.8611597],[2.3012108,48.8609705],[2.3007684,48.8595914],[2.3030139,48.8598312],[2.3032533,48.859324]]]]},"properties":{"code_section":"75107000CK","code_commune":"75107","section_courte":"CK"}},{"type":"Feature","geometry":{"type":"MultiPolygon","coordinates":[[[[2.3062915,48.8594732],[2.3079033,48.8597338],[2.3101756,48.8599384],[2.3102799,48.8611224],[2.3054729,48.861138],[2.3062915,48.8594732]]]]},"properties":{"code_section":"75107000CL","code_commune":"75107","section_courte":"CL"}},{"type":"Feature","geometry":{"type":"MultiPolygon","coordinates":[[[[2.3054295,48.8622665],[2.3054729,48.861138],[2.3102799,48.8611224],[2.3104325,48.8627832],[2.3103862,48.8636269],[2.3053805,48.8635384],[2.3054295,48.8622665]]]]},"properties":{"code_section":"75107000CM","code_commune":"75107","section_courte":"CM"}},{"type":"Feature","geometry":{"type":"MultiPolygon","coordinates":[[[[2.3019203,48.8634799],[2.3019463,48.862468],[2.3016875,48.8624578],[2.3012108,48.8609705],[2.302278,48.8611597],[2.3054729,48.861138],[2.3053791,48.8635384],[2.3019203,48.8634799]]]]},"properties":{"code_section":"75107000CN","code_commune":"75107","section_courte":"CN"}},{"type":"Feature","geometry":{"type":"MultiPolygon","coordinates":[[[[2.2995522,48.8606857],[2.3012108,48.8609705],[2.3016875,48.8624578],[2.3019463,48.862468],[2.3019203,48.8634799],[2.3004783,48.8634163],[2.2992319,48.8632696],[2.2979213,48.8629837],[2.296843,48.8626652],[2.2977071,48.8615872],[2.2988842,48.8619196],[2.2995522,48.8606857]]]]},"properties":{"code_section":"75107000CO","code_commune":"75107","section_courte":"CO"}},{"type":"Feature","geometry":{"type":"MultiPolygon","coordinates":[[[[2.2950665,48.8609373],[2.2966254,48.8598942],[2.2984852,48.8604958],[2.2995522,48.8606857],[2.2988842,48.8619196],[2.2977071,48.8615872],[2.296843,48.8626652],[2.2958867,48.8623143],[2.2946604,48.8617615],[2.2941956,48.8615211],[2.2950665,48.8609373]]]]},"properties":{"code_section":"75107000CP","code_commune":"75107","section_courte":"CP"}},{"type":"Feature","geometry":{"type":"MultiPolygon","coordinates":[[[[2.293728,48.8597764],[2.2934483,48.8595855],[2.29375,48.8593934],[2.2943914,48.8598471],[2.2949643,48.8594996],[2.295289,48.8594501],[2.2955845,48.8593488],[2.2959355,48.8591143],[2.2960815,48.8589244],[2.296148,48.8587298],[2.2963472,48.858591],[2.297474,48.8593506],[2.2941956,48.8615211],[2.2926812,48.8604371],[2.293728,48.8597764]]]]},"properties":{"code_section":"75107000CQ","code_commune":"75107","section_courte":"CQ"}},{"type":"Feature","geometry":{"type":"MultiPolygon","coordinates":[[[[2.292217,48.8587369],[2.2924721,48.8589118],[2.2927806,48.8587157],[2.2921117,48.8582647],[2.2926607,48.8579149],[2.2928784,48.857589],[2.2931015,48.8573986],[2.2933369,48.8572759],[2.2938082,48.8571663],[2.2940538,48.8570277],[2.2963472,48.858591],[2.296148,48.8587298],[2.2960177,48.8590224],[2.2957753,48.8592421],[2.2953663,48.8594295],[2.2949643,48.8594996],[2.2943914,48.8598471],[2.29375,48.8593934],[2.2934483,48.8595855],[2.293728,48.8597764],[2.2926812,48.8604371],[2.291776,48.8597798],[2.2912513,48.8593527],[2.292217,48.8587369]]]]},"properties":{"code_section":"75107000CR","code_commune":"75107","section_courte":"CR"}},{"type":"Feature","geometry":{"type":"MultiPolygon","coordinates":[[[[2.2911737,48.8573891],[2.2929353,48.8562649],[2.2940538,48.8570277],[2.2938082,48.8571663],[2.2933369,48.8572759],[2.2931015,48.8573986],[2.2928784,48.857589],[2.2926607,48.8579149],[2.2921117,48.8582647],[2.2927806,48.8587157],[2.2924721,48.8589118],[2.292217,48.8587369],[2.2912513,48.8593527],[2.289839,48.8582408],[2.2911737,48.8573891]]]]},"properties":{"code_section":"75107000CS","code_commune":"75107","section_courte":"CS"}}]}