{"type":"FeatureCollection","features":[{"type":"Feature","geometry":{"type":"MultiPolygon","coordinates":[[[[2.3281403,48.8837082],[2.327828,48.8836065],[2.3271813,48.8834811],[2.3271206,48.8821277],[2.3280599,48.8821732],[2.3279537,48.8824027],[2.3316239,48.8815148],[2.3317155,48.8819343],[2.3325003,48.8838308],[2.3294429,48.8845532],[2.3281403,48.8837082]]]]},"properties":{"code_section":"75109000AA","code_commune":"75109","section_courte":"AA"}},{"type":"Feature","geometry":{"type":"MultiPolygon","coordinates":[[[[2.3279773,48.8821668],[2.3271206,48.8821277],[2.3270216,48.8796438],[2.3292081,48.8796857],[2.3291193,48.8798792],[2.3314049,48.8801675],[2.3314094,48.8804505],[2.3316239,48.8815148],[2.3279537,48.8824027],[2.3280599,48.8821732],[2.3279773,48.8821668]]]]},"properties":{"code_section":"75109000AB","code_commune":"75109","section_courte":"AB"}},{"type":"Feature","geometry":{"type":"MultiPolygon","coordinates":[[[[2.3361314,48.8812014],[2.3336487,48.8821674],[2.3317987,48.8821327],[2.3317155,48.8819343],[2.3314094,48.8804505],[2.3314082,48.8800585],[2.3347901,48.8792953],[2.3349243,48.8795811],[2.3357277,48.8809091],[2.3361314,48.8812014]]]]},"properties":{"code_section":"75109000AC","code_commune":"75109","section_courte":"AC"}},{"type":"Feature","geometry":{"type":"MultiPolygon","coordinates":[[[[2.3361314,48.8812014],[2.3371858,48.8819673],[2.3370444,48.8820434],[2.3369694,48.8821502],[2.3369728,48.8823235],[2.3370496,48.8824666],[2.3325003,48.8838308],[2.3317987,48.8821327],[2.3336487,48.8821674],[2.3361314,48.8812014]]]]},"properties":{"code_section":"75109000AD","code_commune":"75109","section_courte":"AD"}},{"type":"Feature","geometry":{"type":"MultiPolygon","coordinates":[[[[2.3361314,48.8812014],[2.340397,48.8804108],[2.3395862,48.8820572],[2.3378239,48.8823078],[2.3373039,48.8823953],[2.3370496,48.8824666],[2.3369728,48.8823235],[2.3369694,48.8821502],[2.3370444,48.8820434],[2.3371858,48.8819673],[2.3361314,48.8812014]]]]},"properties":{"code_section":"75109000AE","code_commune":"75109","section_courte":"AE"}},{"type":"Feature","geometry":{"type":"MultiPolygon","coordinates":[[[[2.3398137,48.8789171],[2.340397,48.8804108],[2.3361314,48.8812014],[2.3357277,48.8809091],[2.3349243,48.8795811],[2.3347901,48.8792953],[2.3370319,48.8788338],[2.3368478,48.8789863],[2.3370326,48.8793829],[2.3398137,48.8789171]]]]},"properties":{"code_section":"75109000AF","code_commune":"75109","section_courte":"AF"}},{"type":"Feature","geometry":{"type":"MultiPolygon","coordinates":[[[[2.3370856,48.8767128],[2.3381438,48.8768561],[2.3392285,48.8767927],[2.3398137,48.8789171],[2.3370326,48.8793829],[2.3368478,48.8789863],[2.3375557,48.8783995],[2.3370856,48.8767128]]]]},"properties":{"code_section":"75109000AG","code_commune":"75109","section_courte":"AG"}},{"type":"Feature","geometry":{"type":"MultiPolygon","coordinates":[[[[2.3319702,48.8777847],[2.332384,48.8767015],[2.3327951,48.8768395],[2.3343394,48.8769138],[2.3370856,48.8767128],[2.3375557,48.8783995],[2.3370319,48.8788338],[2.3347901,48.8792953],[2.3345107,48.8786174],[2.3342957,48.8777313],[2.3319702,48.8777847]]]]},"properties":{"code_section":"75109000AH","code_commune":"75109","section_courte":"AH"}},{"type":"Feature","geometry":{"type":"MultiPolygon","coordinates":[[[[2.3342957,48.8777313],[2.3345107,48.8786174],[2.3347901,48.8792953],[2.3314082,48.8800585],[2.3314207,48.8791558],[2.3319298,48.8778117],[2.3319702,48.8777847],[2.3342957,48.8777313]]]]},"properties":{"code_section":"75109000AI","code_commune":"75109","section_courte":"AI"}},{"type":"Feature","geometry":{"type":"MultiPolygon","coordinates":[[[[2.3270216,48.8796438],[2.3269482,48.8779045],[2.3301216,48.8781268],[2.3304713,48.8775381],[2.330912,48.8776191],[2.3310207,48.8777088],[2.331192,48.8777705],[2.3314317,48.87778],[2.3315597,48.8777421],[2.3319298,48.8778117],[2.3314207,48.8791558],[2.3314049,48.8801675],[2.3291193,48.8798792],[2.3292081,48.8796857],[2.3270216,48.8796438]]]]},"properties":{"code_section":"75109000AJ","code_commune":"75109","section_courte":"AJ"}},{"type":"Feature","geometry":{"type":"MultiPolygon","coordinates":[[[[2.3301216,48.8781268],[2.3269482,48.8779045],[2.3268522,48.8755734],[2.3301805,48.8759948],[2.3310957,48.8761908],[2.332384,48.8767015],[2.3319702,48.8777847],[2.3319298,48.8778117],[2.3315597,48.8777421],[2.3314317,48.87778],[2.331192,48.8777705],[2.3310207,48.8777088],[2.330912,48.8776191],[2.3304713,48.8775381],[2.3301216,48.8781268]]]]},"properties":{"code_section":"75109000AK","code_commune":"75109","section_courte":"AK"}},{"type":"Feature","geometry":{"type":"MultiPolygon","coordinates":[[[[2.3269381,48.874181],[2.33131,48.8742706],[2.3314101,48.8750176],[2.3310957,48.8761908],[2.3301805,48.8759948],[2.3268522,48.8755734],[2.3268467,48.8756258],[2.3265757,48.8755824],[2.3269381,48.874181]]]]},"properties":{"code_section":"75109000AL","code_commune":"75109","section_courte":"AL"}},{"type":"Feature","geometry":{"type":"MultiPolygon","coordinates":[[[[2.3327951,48.8768395],[2.3310957,48.8761908],[2.3314101,48.8750176],[2.3322574,48.8752751],[2.3351966,48.8752051],[2.3354499,48.8768306],[2.3343394,48.8769138],[2.3327951,48.8768395]]]]},"properties":{"code_section":"75109000AM","code_commune":"75109","section_courte":"AM"}},{"type":"Feature","geometry":{"type":"MultiPolygon","coordinates":[[[[2.3390512,48.8759477],[2.3393115,48.8766663],[2.3392285,48.8767927],[2.3381438,48.8768561],[2.3370856,48.8767128],[2.3354499,48.8768306],[2.3351966,48.8752051],[2.3384428,48.8751053],[2.3387662,48.8759648],[2.3390512,48.8759477]]]]},"properties":{"code_section":"75109000AN","code_commune":"75109","section_courte":"AN"}},{"type":"Feature","geometry":{"type":"MultiPolygon","coordinates":[[[[2.3353609,48.8726516],[2.3374238,48.8723623],[2.3384428,48.8751053],[2.3351966,48.8752051],[2.3352949,48.8742097],[2.3353609,48.8726516]]]]},"properties":{"code_section":"75109000AO","code_commune":"75109","section_courte":"AO"}},{"type":"Feature","geometry":{"type":"MultiPolygon","coordinates":[[[[2.3332534,48.8730807],[2.3353205,48.8736241],[2.3351966,48.8752051],[2.3322574,48.8752751],[2.3314101,48.8750176],[2.3311731,48.8732195],[2.333316,48.8729398],[2.3332534,48.8730807]]]]},"properties":{"code_section":"75109000AP","code_commune":"75109","section_courte":"AP"}},{"type":"Feature","geometry":{"type":"MultiPolygon","coordinates":[[[[2.3312417,48.8737451],[2.33131,48.8742706],[2.3269381,48.874181],[2.327053,48.8737362],[2.326754,48.8731401],[2.3264954,48.8721354],[2.3282014,48.872082],[2.3282291,48.8722998],[2.3298573,48.8721878],[2.3305872,48.871778],[2.3312924,48.8732039],[2.3311731,48.8732195],[2.3312417,48.8737451]]]]},"properties":{"code_section":"75109000AQ","code_commune":"75109","section_courte":"AQ"}},{"type":"Feature","geometry":{"type":"MultiPolygon","coordinates":[[[[2.3264954,48.8721354],[2.3258363,48.8695622],[2.3298403,48.8702319],[2.3305872,48.871778],[2.3298573,48.8721878],[2.3282291,48.8722998],[2.3282014,48.872082],[2.3264954,48.8721354]]]]},"properties":{"code_section":"75109000AR","code_commune":"75109","section_courte":"AR"}},{"type":"Feature","geometry":{"type":"MultiPolygon","coordinates":[[[[2.3341503,48.8709701],[2.333316,48.8729398],[2.3312924,48.8732039],[2.3298403,48.8702319],[2.3341503,48.8709701]]]]},"properties":{"code_section":"75109000AS","code_commune":"75109","section_courte":"AS"}},{"type":"Feature","geometry":{"type":"MultiPolygon","coordinates":[[[[2.3353442,48.87305],[2.3353205,48.8736241],[2.3332534,48.8730807],[2.3341503,48.8709701],[2.3370961,48.8714746],[2.3374238,48.8723623],[2.3353609,48.8726516],[2.3353442,48.87305]]]]},"properties":{"code_section":"75109000AT","code_commune":"75109","section_courte":"AT"}},{"type":"Feature","geometry":{"type":"MultiPolygon","coordinates":[[[[2.3400441,48.8719807],[2.3430688,48.8714888],[2.3431901,48.872108],[2.3430822,48.8730257],[2.342854,48.8735795],[2.3423566,48.8740457],[2.3380897,48.8741616],[2.3370961,48.8714746],[2.3400441,48.8719807]]]]},"properties":{"code_section":"75109000AU","code_commune":"75109","section_courte":"AU"}},{"type":"Feature","geometry":{"type":"MultiPolygon","coordinates":[[[[2.3431901,48.872108],[2.3430688,48.8714888],[2.3478803,48.8707041],[2.3479004,48.8720066],[2.3431401,48.8726914],[2.3431901,48.872108]]]]},"properties":{"code_section":"75109000AV","code_commune":"75109","section_courte":"AV"}},{"type":"Feature","geometry":{"type":"MultiPolygon","coordinates":[[[[2.3479119,48.8740238],[2.3423566,48.8740457],[2.342854,48.8735795],[2.3430822,48.8730257],[2.3431401,48.8726914],[2.3479004,48.8720066],[2.3479119,48.8740238]]]]},"properties":{"code_section":"75109000AW","code_commune":"75109","section_courte":"AW"}},{"type":"Feature","geometry":{"type":"MultiPolygon","coordinates":[[[[2.3451343,48.8740348],[2.3479119,48.8740238],[2.3482464,48.8757936],[2.348321,48.8760197],[2.3486613,48.876634],[2.3443841,48.8765535],[2.3437496,48.8759096],[2.3423214,48.8740802],[2.3423566,48.8740457],[2.3451343,48.8740348]]]]},"properties":{"code_section":"75109000AX","code_commune":"75109","section_courte":"AX"}},{"type":"Feature","geometry":{"type":"MultiPolygon","coordinates":[[[[2.3389088,48.8759562],[2.3387662,48.8759648],[2.3380897,48.8741616],[2.3423566,48.8740457],[2.3423214,48.8740802],[2.3437496,48.8759096],[2.3443565,48.8765257],[2.3431324,48.8765556],[2.3422839,48.8765124],[2.3402622,48.8765981],[2.3393115,48.8766663],[2.3390512,48.8759477],[2.3389088,48.8759562]]]]},"properties":{"code_section":"75109000AY","code_commune":"75109","section_courte":"AY"}},{"type":"Feature","geometry":{"type":"MultiPolygon","coordinates":[[[[2.3403711,48.8783214],[2.3396889,48.8784443],[2.3392285,48.8767927],[2.3393115,48.8766663],[2.3402622,48.8765981],[2.3422839,48.8765124],[2.3431324,48.8765556],[2.3443565,48.8765257],[2.3449846,48.8783398],[2.345311,48.8787587],[2.3432199,48.8792319],[2.3427151,48.8783119],[2.3412315,48.8785768],[2.3410535,48.8781985],[2.3403711,48.8783214]]]]},"properties":{"code_section":"75109000AZ","code_commune":"75109","section_courte":"AZ"}},{"type":"Feature","geometry":{"type":"MultiPolygon","coordinates":[[[[2.3442657,48.8789953],[2.345311,48.8787587],[2.3457604,48.8793727],[2.3455841,48.879769],[2.3437452,48.8801733],[2.340397,48.8804108],[2.3398137,48.8789171],[2.3396889,48.8784443],[2.3410535,48.8781985],[2.3412315,48.8785768],[2.3427151,48.8783119],[2.3432199,48.8792319],[2.3442657,48.8789953]]]]},"properties":{"code_section":"75109000BA","code_commune":"75109","section_courte":"BA"}},{"type":"Feature","geometry":{"type":"MultiPolygon","coordinates":[[[[2.3447516,48.8815967],[2.3450272,48.8816511],[2.3444467,48.8829327],[2.339816,48.8820235],[2.3395862,48.8820572],[2.340397,48.8804108],[2.3437452,48.8801733],[2.3444762,48.8815423],[2.3447516,48.8815967]]]]},"properties":{"code_section":"75109000BB","code_commune":"75109","section_courte":"BB"}},{"type":"Feature","geometry":{"type":"MultiPolygon","coordinates":[[[[2.3470954,48.883438],[2.3444467,48.8829327],[2.3450272,48.8816511],[2.3467027,48.8819721],[2.3498295,48.8810893],[2.3495872,48.8834956],[2.3495056,48.8837254],[2.3470954,48.883438]]]]},"properties":{"code_section":"75109000BC","code_commune":"75109","section_courte":"BC"}},{"type":"Feature","geometry":{"type":"MultiPolygon","coordinates":[[[[2.3490542,48.8795379],[2.3495244,48.8796851],[2.3498588,48.8806264],[2.3498295,48.8810893],[2.3467027,48.8819721],[2.3444762,48.8815423],[2.3437452,48.8801733],[2.3459892,48.8796764],[2.3482394,48.8794968],[2.3490542,48.8795379]]]]},"properties":{"code_section":"75109000BD","code_commune":"75109","section_courte":"BD"}},{"type":"Feature","geometry":{"type":"MultiPolygon","coordinates":[[[[2.3486469,48.8795174],[2.3482394,48.8794968],[2.3459892,48.8796764],[2.3455841,48.879769],[2.3457604,48.8793727],[2.3449846,48.8783398],[2.3470433,48.8778306],[2.3490849,48.8774225],[2.3491964,48.8785466],[2.3492916,48.8790484],[2.3495151,48.8796693],[2.3490542,48.8795379],[2.3486469,48.8795174]]]]},"properties":{"code_section":"75109000BE","code_commune":"75109","section_courte":"BE"}},{"type":"Feature","geometry":{"type":"MultiPolygon","coordinates":[[[[2.3486613,48.876634],[2.3490849,48.8774225],[2.3470433,48.8778306],[2.3449846,48.8783398],[2.3443841,48.8765535],[2.3486613,48.876634]]]]},"properties":{"code_section":"75109000BF","code_commune":"75109","section_courte":"BF"}}]}