{"type":"FeatureCollection","features":[{"type":"Feature","geometry":{"type":"MultiPolygon","coordinates":[[[[2.3224587,48.8650521],[2.3233264,48.8661766],[2.3182969,48.8677757],[2.3180505,48.8674369],[2.3178761,48.867436],[2.3177683,48.8673635],[2.3177613,48.8672533],[2.3178643,48.867175],[2.3174884,48.8666465],[2.3206457,48.8656308],[2.3204882,48.8654087],[2.3214461,48.8651189],[2.321614,48.865356],[2.3224587,48.8650521]]]]},"properties":{"code_section":"75108000AB","code_commune":"75108","section_courte":"AB"}},{"type":"Feature","geometry":{"type":"MultiPolygon","coordinates":[[[[2.3206457,48.8656308],[2.3174884,48.8666465],[2.3170362,48.8660291],[2.3171284,48.8659566],[2.3171173,48.8658734],[2.3170249,48.8658165],[2.3168813,48.8658199],[2.3163306,48.8650525],[2.3179457,48.8650882],[2.3215732,48.863917],[2.3224587,48.8650521],[2.321614,48.865356],[2.3214461,48.8651189],[2.3204882,48.8654087],[2.3206457,48.8656308]]]]},"properties":{"code_section":"75108000AC","code_commune":"75108","section_courte":"AC"}},{"type":"Feature","geometry":{"type":"MultiPolygon","coordinates":[[[[2.3212896,48.8635536],[2.3215732,48.863917],[2.3179457,48.8650882],[2.3164346,48.8650595],[2.3164061,48.8637306],[2.3186067,48.8637696],[2.3209029,48.8630573],[2.3212896,48.8635536]]]]},"properties":{"code_section":"75108000AD","code_commune":"75108","section_courte":"AD"}},{"type":"Feature","geometry":{"type":"MultiPolygon","coordinates":[[[[2.3178643,48.867175],[2.3177613,48.8672533],[2.3177683,48.8673635],[2.3178761,48.867436],[2.3180505,48.8674369],[2.3182969,48.8677757],[2.3164701,48.8683497],[2.3156551,48.8683165],[2.3154056,48.8683285],[2.3151694,48.8683765],[2.3148772,48.8685435],[2.3146278,48.8688455],[2.3138842,48.8678172],[2.3174884,48.8666465],[2.3178643,48.867175]]]]},"properties":{"code_section":"75108000AE","code_commune":"75108","section_courte":"AE"}},{"type":"Feature","geometry":{"type":"MultiPolygon","coordinates":[[[[2.3118198,48.8672498],[2.3123458,48.8673515],[2.3128151,48.8673608],[2.313391,48.8673046],[2.3137468,48.8677752],[2.3138842,48.8678172],[2.3147652,48.8690359],[2.311965,48.8699309],[2.3101117,48.8689742],[2.3102384,48.8668217],[2.3118198,48.8672498]]]]},"properties":{"code_section":"75108000AF","code_commune":"75108","section_courte":"AF"}},{"type":"Feature","geometry":{"type":"MultiPolygon","coordinates":[[[[2.3163306,48.8650525],[2.3168813,48.8658199],[2.3170249,48.8658165],[2.3171173,48.8658734],[2.3171284,48.8659566],[2.3170362,48.8660291],[2.3174884,48.8666465],[2.3138842,48.8678172],[2.3137468,48.8677752],[2.313391,48.8673046],[2.3139476,48.867147],[2.3137064,48.8650047],[2.3163306,48.8650525]]]]},"properties":{"code_section":"75108000AG","code_commune":"75108","section_courte":"AG"}},{"type":"Feature","geometry":{"type":"MultiPolygon","coordinates":[[[[2.3164251,48.8646147],[2.3164346,48.8650595],[2.3103232,48.8649227],[2.3103862,48.8636269],[2.3164061,48.8637306],[2.3164251,48.8646147]]]]},"properties":{"code_section":"75108000AH","code_commune":"75108","section_courte":"AH"}},{"type":"Feature","geometry":{"type":"MultiPolygon","coordinates":[[[[2.3103862,48.8636274],[2.3103232,48.8649227],[2.3055573,48.864818],[2.3056157,48.8635418],[2.3103862,48.8636274]]]]},"properties":{"code_section":"75108000AI","code_commune":"75108","section_courte":"AI"}},{"type":"Feature","geometry":{"type":"MultiPolygon","coordinates":[[[[2.3055573,48.864818],[2.3018159,48.8647383],[2.3013433,48.8645951],[2.3015167,48.8645247],[2.3015898,48.8634744],[2.3056157,48.8635418],[2.3055573,48.864818]]]]},"properties":{"code_section":"75108000AJ","code_commune":"75108","section_courte":"AJ"}},{"type":"Feature","geometry":{"type":"MultiPolygon","coordinates":[[[[2.3063229,48.8670147],[2.3020589,48.8648215],[2.3018159,48.8647383],[2.3079155,48.8648663],[2.3078175,48.8661999],[2.3063229,48.8670147]]]]},"properties":{"code_section":"75108000AK","code_commune":"75108","section_courte":"AK"}},{"type":"Feature","geometry":{"type":"MultiPolygon","coordinates":[[[[2.3103232,48.8649227],[2.3137064,48.8650047],[2.3139476,48.867147],[2.313391,48.8673046],[2.3128151,48.8673608],[2.3123458,48.8673515],[2.3118198,48.8672498],[2.3078175,48.8661999],[2.3079155,48.8648663],[2.3103232,48.8649227]]]]},"properties":{"code_section":"75108000AL","code_commune":"75108","section_courte":"AL"}},{"type":"Feature","geometry":{"type":"MultiPolygon","coordinates":[[[[2.3078175,48.8661999],[2.3102384,48.8668217],[2.3101117,48.8689742],[2.3063229,48.8670147],[2.3078175,48.8661999]]]]},"properties":{"code_section":"75108000AM","code_commune":"75108","section_courte":"AM"}},{"type":"Feature","geometry":{"type":"MultiPolygon","coordinates":[[[[2.3063229,48.8670147],[2.3036913,48.8686604],[2.3019244,48.8672256],[2.3026987,48.8667732],[2.304034,48.8658256],[2.3063229,48.8670147]]]]},"properties":{"code_section":"75108000AN","code_commune":"75108","section_courte":"AN"}},{"type":"Feature","geometry":{"type":"MultiPolygon","coordinates":[[[[2.3009722,48.867332],[2.3002714,48.8673047],[2.3002778,48.8672336],[2.2999289,48.867221],[2.2993415,48.8671404],[2.2998987,48.8653264],[2.3001987,48.865059],[2.3013433,48.8645951],[2.3020589,48.8648215],[2.304034,48.8658256],[2.3026987,48.8667732],[2.301221,48.8676402],[2.3012458,48.8673413],[2.3009722,48.867332]]]]},"properties":{"code_section":"75108000AO","code_commune":"75108","section_courte":"AO"}},{"type":"Feature","geometry":{"type":"MultiPolygon","coordinates":[[[[2.3019244,48.8672256],[2.3036913,48.8686604],[2.3012917,48.8701492],[2.3011899,48.8701018],[2.2982962,48.869612],[2.2989129,48.8685575],[2.2993415,48.8671404],[2.2999289,48.867221],[2.3002778,48.8672336],[2.3002714,48.8673047],[2.3012458,48.8673413],[2.301221,48.8676402],[2.3019244,48.8672256]]]]},"properties":{"code_section":"75108000AP","code_commune":"75108","section_courte":"AP"}},{"type":"Feature","geometry":{"type":"MultiPolygon","coordinates":[[[[2.3063229,48.8670147],[2.3101117,48.8689742],[2.3064735,48.8701505],[2.3048775,48.8693518],[2.3036913,48.8686604],[2.3063229,48.8670147]]]]},"properties":{"code_section":"75108000AQ","code_commune":"75108","section_courte":"AQ"}},{"type":"Feature","geometry":{"type":"MultiPolygon","coordinates":[[[[2.3036913,48.8686604],[2.3048775,48.8693518],[2.3064735,48.8701505],[2.3025776,48.8713818],[2.3018553,48.8705578],[2.3012917,48.8701492],[2.3036913,48.8686604]]]]},"properties":{"code_section":"75108000AR","code_commune":"75108","section_courte":"AR"}},{"type":"Feature","geometry":{"type":"MultiPolygon","coordinates":[[[[2.3018553,48.8705578],[2.3025776,48.8713818],[2.2995246,48.8723517],[2.2974932,48.8709671],[2.2982962,48.869612],[2.3011899,48.8701018],[2.3018553,48.8705578]]]]},"properties":{"code_section":"75108000AS","code_commune":"75108","section_courte":"AS"}},{"type":"Feature","geometry":{"type":"MultiPolygon","coordinates":[[[[2.2953112,48.873465],[2.2974932,48.8709671],[2.2995246,48.8723517],[2.2950396,48.8737786],[2.2953112,48.873465]]]]},"properties":{"code_section":"75108000AT","code_commune":"75108","section_courte":"AT"}},{"type":"Feature","geometry":{"type":"MultiPolygon","coordinates":[[[[2.3010426,48.871872],[2.305674,48.8748966],[2.3010947,48.8744001],[2.2995246,48.8723517],[2.3010426,48.871872]]]]},"properties":{"code_section":"75108000AU","code_commune":"75108","section_courte":"AU"}},{"type":"Feature","geometry":{"type":"MultiPolygon","coordinates":[[[[2.2955908,48.8736026],[2.2995246,48.8723517],[2.3010947,48.8744001],[2.3012627,48.8744188],[2.3018236,48.8748585],[2.2984493,48.8752011],[2.2969488,48.8745744],[2.2967601,48.8747711],[2.2963531,48.8750138],[2.2960135,48.8751226],[2.2950396,48.8737786],[2.2955908,48.8736026]]]]},"properties":{"code_section":"75108000AV","code_commune":"75108","section_courte":"AV"}},{"type":"Feature","geometry":{"type":"MultiPolygon","coordinates":[[[[2.3012627,48.8744188],[2.3055502,48.8748846],[2.3016878,48.8765457],[2.3012087,48.8763477],[2.301273,48.875929],[2.3010442,48.8749403],[2.3018236,48.8748585],[2.3012627,48.8744188]]]]},"properties":{"code_section":"75108000AW","code_commune":"75108","section_courte":"AW"}},{"type":"Feature","geometry":{"type":"MultiPolygon","coordinates":[[[[2.3010442,48.8749403],[2.301273,48.875929],[2.3012087,48.8763477],[2.3016878,48.8765457],[2.3003065,48.877143],[2.299647,48.877375],[2.2979755,48.8778279],[2.2960135,48.8751226],[2.2963531,48.8750138],[2.2967601,48.8747711],[2.2969488,48.8745744],[2.2984493,48.8752011],[2.3010442,48.8749403]]]]},"properties":{"code_section":"75108000AX","code_commune":"75108","section_courte":"AX"}},{"type":"Feature","geometry":{"type":"MultiPolygon","coordinates":[[[[2.3003065,48.877143],[2.3035842,48.8788903],[2.303092,48.8791408],[2.298155,48.878079],[2.2979755,48.8778279],[2.299647,48.877375],[2.3003065,48.877143]]]]},"properties":{"code_section":"75108000AY","code_commune":"75108","section_courte":"AY"}},{"type":"Feature","geometry":{"type":"MultiPolygon","coordinates":[[[[2.3016878,48.8765457],[2.3052372,48.8780421],[2.3035842,48.8788903],[2.3003065,48.877143],[2.3016878,48.8765457]]]]},"properties":{"code_section":"75108000AZ","code_commune":"75108","section_courte":"AZ"}},{"type":"Feature","geometry":{"type":"MultiPolygon","coordinates":[[[[2.3055502,48.8748846],[2.3060325,48.875004],[2.3078749,48.8763807],[2.3066898,48.8773519],[2.3052372,48.8780421],[2.3016878,48.8765457],[2.3055502,48.8748846]]]]},"properties":{"code_section":"75108000BC","code_commune":"75108","section_courte":"BC"}},{"type":"Feature","geometry":{"type":"MultiPolygon","coordinates":[[[[2.3076503,48.8741403],[2.3084516,48.8738265],[2.3095843,48.8745429],[2.309213,48.8749111],[2.309028,48.8751894],[2.3078749,48.8763807],[2.3060325,48.875004],[2.305674,48.8748966],[2.3051277,48.8745366],[2.3065215,48.8736986],[2.3074424,48.874209],[2.3076503,48.8741403]]]]},"properties":{"code_section":"75108000BD","code_commune":"75108","section_courte":"BD"}},{"type":"Feature","geometry":{"type":"MultiPolygon","coordinates":[[[[2.3085723,48.8724509],[2.3090661,48.8721495],[2.3106894,48.8728402],[2.3115151,48.8730779],[2.3105886,48.8738974],[2.3095843,48.8745429],[2.3084516,48.8738265],[2.3074424,48.874209],[2.3065215,48.8736986],[2.3073513,48.873196],[2.3069814,48.8722248],[2.3080781,48.8727523],[2.3085723,48.8724509]]]]},"properties":{"code_section":"75108000BE","code_commune":"75108","section_courte":"BE"}},{"type":"Feature","geometry":{"type":"MultiPolygon","coordinates":[[[[2.3051275,48.8721116],[2.3061267,48.8717956],[2.3069814,48.8722248],[2.3073513,48.873196],[2.3051277,48.8745366],[2.3010426,48.871872],[2.3024452,48.8714263],[2.3041283,48.8724277],[2.3051275,48.8721116]]]]},"properties":{"code_section":"75108000BF","code_commune":"75108","section_courte":"BF"}},{"type":"Feature","geometry":{"type":"MultiPolygon","coordinates":[[[[2.3051275,48.8721116],[2.3041283,48.8724277],[2.3024452,48.8714263],[2.3052883,48.8705332],[2.3090661,48.8721495],[2.3080781,48.8727523],[2.3061267,48.8717956],[2.3051275,48.8721116]]]]},"properties":{"code_section":"75108000BG","code_commune":"75108","section_courte":"BG"}},{"type":"Feature","geometry":{"type":"MultiPolygon","coordinates":[[[[2.3091294,48.8692918],[2.3101117,48.8689742],[2.311965,48.8699309],[2.3073229,48.8714132],[2.3052883,48.8705332],[2.3091294,48.8692918]]]]},"properties":{"code_section":"75108000BH","code_commune":"75108","section_courte":"BH"}},{"type":"Feature","geometry":{"type":"MultiPolygon","coordinates":[[[[2.3122613,48.8718269],[2.3125511,48.872209],[2.3106894,48.8728402],[2.3073229,48.8714132],[2.311965,48.8699309],[2.3129007,48.8704115],[2.3119712,48.8714446],[2.3122613,48.8718269]]]]},"properties":{"code_section":"75108000BI","code_commune":"75108","section_courte":"BI"}},{"type":"Feature","geometry":{"type":"MultiPolygon","coordinates":[[[[2.312433,48.8701712],[2.311965,48.8699309],[2.3134021,48.8694684],[2.3157191,48.8713401],[2.3125511,48.872209],[2.3119712,48.8714446],[2.3129007,48.8704115],[2.312433,48.8701712]]]]},"properties":{"code_section":"75108000BJ","code_commune":"75108","section_courte":"BJ"}},{"type":"Feature","geometry":{"type":"MultiPolygon","coordinates":[[[[2.3161307,48.8711679],[2.3158941,48.873919],[2.3122934,48.8733001],[2.3106894,48.8728402],[2.3125511,48.872209],[2.3157191,48.8713401],[2.3161307,48.8711679]]]]},"properties":{"code_section":"75108000BK","code_commune":"75108","section_courte":"BK"}},{"type":"Feature","geometry":{"type":"MultiPolygon","coordinates":[[[[2.3178625,48.8732274],[2.320809,48.8735103],[2.3199688,48.8747659],[2.3195839,48.8745504],[2.3158941,48.873919],[2.3159823,48.8728659],[2.3178625,48.8732274]]]]},"properties":{"code_section":"75108000BL","code_commune":"75108","section_courte":"BL"}},{"type":"Feature","geometry":{"type":"MultiPolygon","coordinates":[[[[2.3169225,48.8730467],[2.3159823,48.8728659],[2.3161307,48.8711679],[2.3164188,48.8710461],[2.3179958,48.8713947],[2.3184388,48.8716929],[2.3186746,48.8719285],[2.3192781,48.871875],[2.320887,48.8713639],[2.3216513,48.8711598],[2.3219427,48.8719097],[2.320809,48.8735103],[2.3178625,48.8732274],[2.3169225,48.8730467]]]]},"properties":{"code_section":"75108000BM","code_commune":"75108","section_courte":"BM"}},{"type":"Feature","geometry":{"type":"MultiPolygon","coordinates":[[[[2.3203536,48.8691673],[2.3216513,48.8711598],[2.320887,48.8713639],[2.3192781,48.871875],[2.3186746,48.8719285],[2.3184388,48.8716929],[2.3179958,48.8713947],[2.3164188,48.8710461],[2.3190019,48.869627],[2.3203536,48.8691673]]]]},"properties":{"code_section":"75108000BN","code_commune":"75108","section_courte":"BN"}},{"type":"Feature","geometry":{"type":"MultiPolygon","coordinates":[[[[2.3140837,48.8692522],[2.3147652,48.8690359],[2.3146278,48.8688455],[2.3148772,48.8685435],[2.3150938,48.868404],[2.3154056,48.8683285],[2.3161139,48.8683288],[2.3176627,48.8703426],[2.3164188,48.8710461],[2.3157191,48.8713401],[2.3134021,48.8694684],[2.3140837,48.8692522]]]]},"properties":{"code_section":"75108000BO","code_commune":"75108","section_courte":"BO"}},{"type":"Feature","geometry":{"type":"MultiPolygon","coordinates":[[[[2.3206241,48.8670358],[2.3218382,48.8688247],[2.321101,48.8689316],[2.3190019,48.869627],[2.3176627,48.8703426],[2.3161139,48.8683288],[2.3164886,48.8683456],[2.3206241,48.8670358]]]]},"properties":{"code_section":"75108000BP","code_commune":"75108","section_courte":"BP"}},{"type":"Feature","geometry":{"type":"MultiPolygon","coordinates":[[[[2.3225495,48.8686033],[2.3218382,48.8688247],[2.3206241,48.8670358],[2.3233264,48.8661766],[2.3253195,48.8690118],[2.3251592,48.8694488],[2.3246196,48.8693494],[2.3244736,48.8692523],[2.3239472,48.8693371],[2.3232606,48.8683819],[2.3225495,48.8686033]]]]},"properties":{"code_section":"75108000BQ","code_commune":"75108","section_courte":"BQ"}},{"type":"Feature","geometry":{"type":"MultiPolygon","coordinates":[[[[2.3224554,48.870975],[2.3216513,48.8711598],[2.3203536,48.8691673],[2.321101,48.8689316],[2.3218382,48.8688247],[2.3232606,48.8683819],[2.3239472,48.8693371],[2.3244736,48.8692523],[2.3246196,48.8693494],[2.3258363,48.8695622],[2.3260921,48.8705667],[2.3234985,48.8713873],[2.3232595,48.8707899],[2.3224554,48.870975]]]]},"properties":{"code_section":"75108000BR","code_commune":"75108","section_courte":"BR"}},{"type":"Feature","geometry":{"type":"MultiPolygon","coordinates":[[[[2.321797,48.8715348],[2.3216513,48.8711598],[2.3232595,48.8707899],[2.3234985,48.8713873],[2.3260921,48.8705667],[2.326754,48.8731401],[2.3236763,48.8733597],[2.320809,48.8735103],[2.3219427,48.8719097],[2.321797,48.8715348]]]]},"properties":{"code_section":"75108000BS","code_commune":"75108","section_courte":"BS"}},{"type":"Feature","geometry":{"type":"MultiPolygon","coordinates":[[[[2.3203889,48.8741382],[2.320809,48.8735103],[2.3236763,48.8733597],[2.3239324,48.8741781],[2.3237996,48.8751837],[2.3216173,48.8750487],[2.3202208,48.8749091],[2.3199688,48.8747659],[2.3203889,48.8741382]]]]},"properties":{"code_section":"75108000BT","code_commune":"75108","section_courte":"BT"}},{"type":"Feature","geometry":{"type":"MultiPolygon","coordinates":[[[[2.326754,48.8731401],[2.327053,48.8737362],[2.3265757,48.8755824],[2.3237996,48.8751837],[2.3239324,48.8741781],[2.3236763,48.8733597],[2.326754,48.8731401]]]]},"properties":{"code_section":"75108000BU","code_commune":"75108","section_courte":"BU"}},{"type":"Feature","geometry":{"type":"MultiPolygon","coordinates":[[[[2.3230754,48.8772082],[2.3217896,48.8770084],[2.3216353,48.8768229],[2.3217156,48.8768266],[2.3225654,48.8761397],[2.3232697,48.8756495],[2.3240337,48.8753853],[2.3241117,48.8752296],[2.3268467,48.8756258],[2.3269457,48.8778459],[2.3254009,48.8783487],[2.3252172,48.8781635],[2.3253495,48.8780754],[2.3233762,48.8772224],[2.3231028,48.8771565],[2.3230754,48.8772082]]]]},"properties":{"code_section":"75108000BV","code_commune":"75108","section_courte":"BV"}},{"type":"Feature","geometry":{"type":"MultiPolygon","coordinates":[[[[2.3183087,48.876133],[2.3199688,48.8747659],[2.3202208,48.8749091],[2.3216173,48.8750487],[2.3237753,48.8751808],[2.3241117,48.8752296],[2.3240337,48.8753853],[2.3232697,48.8756495],[2.3225654,48.8761397],[2.3217156,48.8768266],[2.3176881,48.8766409],[2.3183087,48.876133]]]]},"properties":{"code_section":"75108000BW","code_commune":"75108","section_courte":"BW"}},{"type":"Feature","geometry":{"type":"MultiPolygon","coordinates":[[[[2.3183301,48.8794134],[2.3182211,48.8795054],[2.3172284,48.879357],[2.3181776,48.8778643],[2.3190439,48.8767029],[2.3216353,48.8768229],[2.3226214,48.8780516],[2.3218521,48.8794792],[2.3184392,48.8793212],[2.3183301,48.8794134]]]]},"properties":{"code_section":"75108000BX","code_commune":"75108","section_courte":"BX"}},{"type":"Feature","geometry":{"type":"MultiPolygon","coordinates":[[[[2.3231028,48.8771565],[2.3233762,48.8772224],[2.3253495,48.8780754],[2.3252172,48.8781635],[2.3254009,48.8783487],[2.3269457,48.8778459],[2.3270208,48.879622],[2.3242612,48.8791917],[2.3233691,48.8789892],[2.3217896,48.8770084],[2.3230754,48.8772082],[2.3231028,48.8771565]]]]},"properties":{"code_section":"75108000BY","code_commune":"75108","section_courte":"BY"}},{"type":"Feature","geometry":{"type":"MultiPolygon","coordinates":[[[[2.3215897,48.8799778],[2.3226214,48.8780516],[2.3233691,48.8789892],[2.3242612,48.8791917],[2.3270208,48.879622],[2.327062,48.8808179],[2.3251549,48.8805303],[2.3247608,48.8807106],[2.3241267,48.879923],[2.323519,48.8805685],[2.3232053,48.8804399],[2.3229734,48.8807029],[2.3225732,48.8805325],[2.3228225,48.8802842],[2.3215897,48.8799778]]]]},"properties":{"code_section":"75108000BZ","code_commune":"75108","section_courte":"BZ"}},{"type":"Feature","geometry":{"type":"MultiPolygon","coordinates":[[[[2.3245604,48.8809238],[2.3246343,48.8807677],[2.3251549,48.8805303],[2.327062,48.8808179],[2.3271813,48.8834811],[2.3232944,48.8826826],[2.3245604,48.8809238]]]]},"properties":{"code_section":"75108000CD","code_commune":"75108","section_courte":"CD"}},{"type":"Feature","geometry":{"type":"MultiPolygon","coordinates":[[[[2.3238231,48.8802457],[2.3241267,48.879923],[2.3247608,48.8807106],[2.3246343,48.8807677],[2.3245604,48.8809238],[2.3232944,48.8826826],[2.3204528,48.8821069],[2.3215897,48.8799778],[2.3228225,48.8802842],[2.3225732,48.8805325],[2.3229734,48.8807029],[2.3232053,48.8804399],[2.323519,48.8805685],[2.3238231,48.8802457]]]]},"properties":{"code_section":"75108000CE","code_commune":"75108","section_courte":"CE"}},{"type":"Feature","geometry":{"type":"MultiPolygon","coordinates":[[[[2.3184392,48.8793212],[2.3218521,48.8794792],[2.3204528,48.8821069],[2.3164994,48.8813161],[2.3182211,48.8795054],[2.3184392,48.8793212]]]]},"properties":{"code_section":"75108000CF","code_commune":"75108","section_courte":"CF"}},{"type":"Feature","geometry":{"type":"MultiPolygon","coordinates":[[[[2.3142708,48.8794374],[2.314798,48.8789972],[2.3182211,48.8795054],[2.3164994,48.8813161],[2.3116334,48.880716],[2.3118435,48.8799531],[2.3118988,48.8798764],[2.312006,48.8798398],[2.3120859,48.8797151],[2.3134736,48.8801005],[2.3142708,48.8794374]]]]},"properties":{"code_section":"75108000CG","code_commune":"75108","section_courte":"CG"}},{"type":"Feature","geometry":{"type":"MultiPolygon","coordinates":[[[[2.3145346,48.8792173],[2.3142708,48.8794374],[2.3123687,48.8785217],[2.3125545,48.8776168],[2.3181776,48.8778643],[2.3172284,48.879357],[2.314798,48.8789972],[2.3145346,48.8792173]]]]},"properties":{"code_section":"75108000CH","code_commune":"75108","section_courte":"CH"}},{"type":"Feature","geometry":{"type":"MultiPolygon","coordinates":[[[[2.3183661,48.876672],[2.3190439,48.8767029],[2.3181776,48.8778643],[2.3125545,48.8776168],[2.3127909,48.8764923],[2.3127282,48.8764887],[2.3128319,48.8751783],[2.3157969,48.8752672],[2.3157928,48.8753595],[2.318929,48.8756248],[2.3176881,48.8766409],[2.3183661,48.876672]]]]},"properties":{"code_section":"75108000CI","code_commune":"75108","section_courte":"CI"}},{"type":"Feature","geometry":{"type":"MultiPolygon","coordinates":[[[[2.3150788,48.8752434],[2.3143607,48.8752194],[2.3144807,48.8736757],[2.3195839,48.8745504],[2.3199688,48.8747659],[2.318929,48.8756248],[2.3157928,48.8753595],[2.3157969,48.8752672],[2.3150788,48.8752434]]]]},"properties":{"code_section":"75108000CJ","code_commune":"75108","section_courte":"CJ"}},{"type":"Feature","geometry":{"type":"MultiPolygon","coordinates":[[[[2.3115151,48.8730779],[2.3122934,48.8733001],[2.3144807,48.8736757],[2.3143607,48.8752194],[2.309136,48.8750272],[2.3095046,48.8746034],[2.3105886,48.8738974],[2.3115151,48.8730779]]]]},"properties":{"code_section":"75108000CK","code_commune":"75108","section_courte":"CK"}},{"type":"Feature","geometry":{"type":"MultiPolygon","coordinates":[[[[2.309136,48.8750272],[2.3128319,48.8751783],[2.3127282,48.8764887],[2.3127909,48.8764923],[2.3125545,48.8776168],[2.3066898,48.8773519],[2.307805,48.8764519],[2.309028,48.8751894],[2.309136,48.8750272]]]]},"properties":{"code_section":"75108000CL","code_commune":"75108","section_courte":"CL"}},{"type":"Feature","geometry":{"type":"MultiPolygon","coordinates":[[[[2.3081764,48.8774259],[2.3099375,48.877512],[2.3106193,48.8775122],[2.3125545,48.8776168],[2.3123687,48.8785217],[2.3142708,48.8794374],[2.3134736,48.8801005],[2.3120859,48.8797151],[2.3121555,48.8796086],[2.3119935,48.8795202],[2.3119954,48.8793311],[2.3100528,48.8784036],[2.3099873,48.8783169],[2.310023,48.8782223],[2.3097714,48.8781628],[2.309701,48.8782494],[2.3095565,48.8782883],[2.3083932,48.8782373],[2.3081764,48.8774259]]]]},"properties":{"code_section":"75108000CM","code_commune":"75108","section_courte":"CM"}},{"type":"Feature","geometry":{"type":"MultiPolygon","coordinates":[[[[2.3116334,48.880716],[2.3091378,48.880415],[2.3055147,48.8796633],[2.3062305,48.8787164],[2.3062423,48.8786203],[2.3061607,48.8785512],[2.3063462,48.8783557],[2.3064811,48.8784063],[2.3065926,48.8784083],[2.3071273,48.878187],[2.3095565,48.8782883],[2.309701,48.8782494],[2.3097714,48.8781628],[2.310023,48.8782223],[2.3099873,48.8783169],[2.3100528,48.8784036],[2.3120095,48.8793448],[2.3119935,48.8795202],[2.3121555,48.8796086],[2.312006,48.8798398],[2.3118613,48.8799152],[2.3116334,48.880716]]]]},"properties":{"code_section":"75108000CN","code_commune":"75108","section_courte":"CN"}},{"type":"Feature","geometry":{"type":"MultiPolygon","coordinates":[[[[2.3055147,48.8796633],[2.303092,48.8791408],[2.3052372,48.8780421],[2.3066898,48.8773519],[2.3081764,48.8774259],[2.3083932,48.8782373],[2.3071273,48.878187],[2.3065926,48.8784083],[2.3064811,48.8784063],[2.3063462,48.8783557],[2.3061607,48.8785512],[2.3062423,48.8786203],[2.3062305,48.8787164],[2.3055147,48.8796633]]]]},"properties":{"code_section":"75108000CO","code_commune":"75108","section_courte":"CO"}}]}