{"type":"FeatureCollection","features":[{"type":"Feature","geometry":{"type":"MultiPolygon","coordinates":[[[[2.3674552,48.8860495],[2.3665679,48.8863848],[2.364686,48.8843689],[2.3680253,48.8841534],[2.3683853,48.884092],[2.3686968,48.8839601],[2.3708666,48.8856895],[2.3692298,48.8865332],[2.3683424,48.8857141],[2.3674552,48.8860495]]]]},"properties":{"code_section":"75119000AA","code_commune":"75119","section_courte":"AA"}},{"type":"Feature","geometry":{"type":"MultiPolygon","coordinates":[[[[2.3700788,48.8874857],[2.3674501,48.8883147],[2.3667929,48.8866413],[2.3665679,48.8863848],[2.3683424,48.8857141],[2.3692298,48.8865332],[2.3708666,48.8856895],[2.3723821,48.8869014],[2.370239,48.8875534],[2.370178,48.887454],[2.3700788,48.8874857]]]]},"properties":{"code_section":"75119000AB","code_commune":"75119","section_courte":"AB"}},{"type":"Feature","geometry":{"type":"MultiPolygon","coordinates":[[[[2.3723821,48.8869014],[2.3741386,48.8883397],[2.3728622,48.8888268],[2.3712613,48.8892682],[2.3681253,48.8897028],[2.3675797,48.8886451],[2.3674501,48.8883147],[2.370178,48.887454],[2.370239,48.8875534],[2.3723821,48.8869014]]]]},"properties":{"code_section":"75119000AC","code_commune":"75119","section_courte":"AC"}},{"type":"Feature","geometry":{"type":"MultiPolygon","coordinates":[[[[2.3686347,48.8908373],[2.3681255,48.8897029],[2.3712613,48.8892682],[2.3717563,48.8902707],[2.3686347,48.8908373]]]]},"properties":{"code_section":"75119000AD","code_commune":"75119","section_courte":"AD"}},{"type":"Feature","geometry":{"type":"MultiPolygon","coordinates":[[[[2.3717563,48.8902707],[2.3725916,48.8921162],[2.3695475,48.892976],[2.3686347,48.8908373],[2.3717563,48.8902707]]]]},"properties":{"code_section":"75119000AE","code_commune":"75119","section_courte":"AE"}},{"type":"Feature","geometry":{"type":"MultiPolygon","coordinates":[[[[2.3725916,48.8921162],[2.3733345,48.8937452],[2.3704242,48.894523],[2.3700236,48.8940291],[2.3695475,48.892976],[2.3725916,48.8921162]]]]},"properties":{"code_section":"75119000AH","code_commune":"75119","section_courte":"AH"}},{"type":"Feature","geometry":{"type":"MultiPolygon","coordinates":[[[[2.3750439,48.8921287],[2.3767792,48.8935042],[2.3733345,48.8937452],[2.3722411,48.8913483],[2.3737273,48.8910791],[2.3750439,48.8921287]]]]},"properties":{"code_section":"75119000AI","code_commune":"75119","section_courte":"AI"}},{"type":"Feature","geometry":{"type":"MultiPolygon","coordinates":[[[[2.3741386,48.8883397],[2.3769192,48.890545],[2.3737621,48.8911109],[2.3737273,48.8910791],[2.3722411,48.8913483],[2.3712613,48.8892682],[2.3728622,48.8888268],[2.3741386,48.8883397]]]]},"properties":{"code_section":"75119000AK","code_commune":"75119","section_courte":"AK"}},{"type":"Feature","geometry":{"type":"MultiPolygon","coordinates":[[[[2.3751076,48.8922073],[2.3737621,48.8911109],[2.3769192,48.890545],[2.3791281,48.8923147],[2.3767792,48.8935042],[2.3751076,48.8922073]]]]},"properties":{"code_section":"75119000AL","code_commune":"75119","section_courte":"AL"}},{"type":"Feature","geometry":{"type":"MultiPolygon","coordinates":[[[[2.3826709,48.8902527],[2.3821237,48.890728],[2.3791281,48.8923147],[2.3776122,48.8910997],[2.3809309,48.8893972],[2.3826709,48.8902527]]]]},"properties":{"code_section":"75119000AM","code_commune":"75119","section_courte":"AM"}},{"type":"Feature","geometry":{"type":"MultiPolygon","coordinates":[[[[2.3792028,48.8885435],[2.3809309,48.8893972],[2.3776122,48.8910997],[2.376008,48.8898237],[2.3784753,48.8886287],[2.3788955,48.8888338],[2.3792028,48.8885435]]]]},"properties":{"code_section":"75119000AN","code_commune":"75119","section_courte":"AN"}},{"type":"Feature","geometry":{"type":"MultiPolygon","coordinates":[[[[2.3784753,48.8886287],[2.376008,48.8898237],[2.373578,48.8878741],[2.375474,48.8871356],[2.3784753,48.8886287]]]]},"properties":{"code_section":"75119000AO","code_commune":"75119","section_courte":"AO"}},{"type":"Feature","geometry":{"type":"MultiPolygon","coordinates":[[[[2.373578,48.8878741],[2.3709912,48.8857769],[2.3717847,48.8853708],[2.3720551,48.8851422],[2.3747335,48.8864815],[2.3755825,48.8857375],[2.3770416,48.8864572],[2.3768117,48.886645],[2.3764486,48.8864616],[2.3755886,48.8871943],[2.375474,48.8871356],[2.373578,48.8878741]]]]},"properties":{"code_section":"75119000AP","code_commune":"75119","section_courte":"AP"}},{"type":"Feature","geometry":{"type":"MultiPolygon","coordinates":[[[[2.3717847,48.8853708],[2.3709912,48.8857769],[2.3686968,48.8839601],[2.3687962,48.8838648],[2.3690398,48.8833992],[2.3692225,48.8832142],[2.3694498,48.8830751],[2.3701117,48.8827797],[2.3743027,48.8838557],[2.373383,48.8846357],[2.3731395,48.884518],[2.3722863,48.8852559],[2.3720551,48.8851422],[2.3717847,48.8853708]]]]},"properties":{"code_section":"75119000AR","code_commune":"75119","section_courte":"AR"}},{"type":"Feature","geometry":{"type":"MultiPolygon","coordinates":[[[[2.370247,48.880729],[2.3702764,48.8779925],[2.3707943,48.8784792],[2.3722159,48.8799844],[2.3709697,48.8806041],[2.3707559,48.8806331],[2.3705354,48.8807365],[2.370247,48.880729]]]]},"properties":{"code_section":"75119000AS","code_commune":"75119","section_courte":"AS"}},{"type":"Feature","geometry":{"type":"MultiPolygon","coordinates":[[[[2.3722159,48.8799844],[2.3727412,48.8805368],[2.3728454,48.8808151],[2.3731467,48.8812053],[2.3733784,48.8813295],[2.373834,48.8817362],[2.3712194,48.8830495],[2.3701117,48.8827797],[2.3701908,48.8827242],[2.3702224,48.8826494],[2.370247,48.880729],[2.3705354,48.8807365],[2.3707559,48.8806331],[2.3709697,48.8806041],[2.3722159,48.8799844]]]]},"properties":{"code_section":"75119000AT","code_commune":"75119","section_courte":"AT"}},{"type":"Feature","geometry":{"type":"MultiPolygon","coordinates":[[[[2.3743027,48.8838557],[2.3712194,48.8830495],[2.373834,48.8817362],[2.3741662,48.8820119],[2.3778491,48.8840286],[2.3771024,48.8845842],[2.3743027,48.8838557]]]]},"properties":{"code_section":"75119000AV","code_commune":"75119","section_courte":"AV"}},{"type":"Feature","geometry":{"type":"MultiPolygon","coordinates":[[[[2.3755279,48.8857849],[2.3747335,48.8864815],[2.3722863,48.8852559],[2.3731395,48.884518],[2.373383,48.8846357],[2.3743027,48.8838557],[2.3787952,48.8850306],[2.3783417,48.8857363],[2.3770416,48.8864572],[2.3755825,48.8857375],[2.3755279,48.8857849]]]]},"properties":{"code_section":"75119000AW","code_commune":"75119","section_courte":"AW"}},{"type":"Feature","geometry":{"type":"MultiPolygon","coordinates":[[[[2.3771024,48.8845842],[2.3778491,48.8840286],[2.378755,48.8845268],[2.3822686,48.8858681],[2.3811833,48.8868184],[2.379636,48.8860787],[2.3783417,48.8857363],[2.3787952,48.8850306],[2.3771024,48.8845842]]]]},"properties":{"code_section":"75119000AX","code_commune":"75119","section_courte":"AX"}},{"type":"Feature","geometry":{"type":"MultiPolygon","coordinates":[[[[2.3792028,48.8885435],[2.3788955,48.8888338],[2.3755886,48.8871943],[2.3764486,48.8864616],[2.3768117,48.886645],[2.3770416,48.8864572],[2.3783417,48.8857363],[2.379636,48.8860787],[2.3811833,48.8868184],[2.3792028,48.8885435]]]]},"properties":{"code_section":"75119000AY","code_commune":"75119","section_courte":"AY"}},{"type":"Feature","geometry":{"type":"MultiPolygon","coordinates":[[[[2.381686,48.8884481],[2.3812042,48.8882388],[2.3803253,48.8875705],[2.3822686,48.8858681],[2.3829442,48.8861256],[2.3848328,48.8866182],[2.3845389,48.8878744],[2.3843152,48.8882869],[2.382398,48.8876742],[2.381686,48.8884481]]]]},"properties":{"code_section":"75119000AZ","code_commune":"75119","section_courte":"AZ"}},{"type":"Feature","geometry":{"type":"MultiPolygon","coordinates":[[[[2.379564,48.8882304],[2.3803253,48.8875705],[2.3812042,48.8882388],[2.381686,48.8884481],[2.382398,48.8876742],[2.3843152,48.8882869],[2.3837808,48.8892781],[2.3826709,48.8902527],[2.3792028,48.8885435],[2.379564,48.8882304]]]]},"properties":{"code_section":"75119000BA","code_commune":"75119","section_courte":"BA"}},{"type":"Feature","geometry":{"type":"MultiPolygon","coordinates":[[[[2.3861062,48.888519],[2.3862449,48.8883088],[2.3886028,48.8889128],[2.3881331,48.8897157],[2.3879399,48.8896632],[2.3879671,48.8896183],[2.3877657,48.8895636],[2.3870698,48.8906603],[2.3850162,48.8900059],[2.3836849,48.8893627],[2.3837808,48.8892781],[2.3843152,48.8882869],[2.3849903,48.8884874],[2.3859672,48.8887291],[2.3861062,48.888519]]]]},"properties":{"code_section":"75119000BB","code_commune":"75119","section_courte":"BB"}},{"type":"Feature","geometry":{"type":"MultiPolygon","coordinates":[[[[2.3836366,48.8907385],[2.3826709,48.8902527],[2.3836849,48.8893627],[2.3850162,48.8900059],[2.3870698,48.8906603],[2.3862086,48.8920594],[2.3836366,48.8907385]]]]},"properties":{"code_section":"75119000BC","code_commune":"75119","section_courte":"BC"}},{"type":"Feature","geometry":{"type":"MultiPolygon","coordinates":[[[[2.3937806,48.8958671],[2.3934451,48.8962582],[2.3930605,48.8965823],[2.3925529,48.8968938],[2.3920295,48.897122],[2.3915952,48.8972457],[2.391007,48.8973588],[2.3889105,48.8975267],[2.3886471,48.8976192],[2.385555,48.8976349],[2.3840755,48.8962471],[2.3847654,48.8951142],[2.3850358,48.8948452],[2.3863384,48.8927446],[2.3866725,48.892716],[2.386915,48.8926583],[2.3870853,48.8925816],[2.3872053,48.8924768],[2.3920876,48.8949123],[2.3920505,48.8950258],[2.3936462,48.8957493],[2.3937806,48.8958671]]]]},"properties":{"code_section":"75119000BD","code_commune":"75119","section_courte":"BD"}},{"type":"Feature","geometry":{"type":"MultiPolygon","coordinates":[[[[2.3854015,48.8923211],[2.3852973,48.8921368],[2.3852596,48.891967],[2.385342,48.8916301],[2.3862086,48.8920594],[2.3872053,48.8924768],[2.3870853,48.8925816],[2.386915,48.8926583],[2.3866725,48.892716],[2.3863384,48.8927446],[2.3855531,48.894017],[2.3848133,48.8938173],[2.3848986,48.8936789],[2.3841135,48.8930434],[2.3853711,48.8923791],[2.3854015,48.8923211]]]]},"properties":{"code_section":"75119000BE","code_commune":"75119","section_courte":"BE"}},{"type":"Feature","geometry":{"type":"MultiPolygon","coordinates":[[[[2.3849865,48.8914171],[2.385335,48.8916104],[2.3852638,48.8920148],[2.3854042,48.8923479],[2.3841135,48.8930434],[2.3824028,48.8916606],[2.3800638,48.8930433],[2.3791281,48.8923147],[2.3821237,48.890728],[2.3826709,48.8902527],[2.3849865,48.8914171]]]]},"properties":{"code_section":"75119000BH","code_commune":"75119","section_courte":"BH"}},{"type":"Feature","geometry":{"type":"MultiPolygon","coordinates":[[[[2.383031,48.8936183],[2.3817243,48.8943146],[2.3800638,48.8930433],[2.3824028,48.8916606],[2.3846123,48.8934511],[2.3836839,48.8939732],[2.3834289,48.893769],[2.383031,48.8936183]]]]},"properties":{"code_section":"75119000BI","code_commune":"75119","section_courte":"BI"}},{"type":"Feature","geometry":{"type":"MultiPolygon","coordinates":[[[[2.3855531,48.894017],[2.3850358,48.8948452],[2.3847654,48.8951142],[2.3841366,48.8961472],[2.3835056,48.8959752],[2.3834907,48.896],[2.381677,48.8958961],[2.3802726,48.8960774],[2.3796984,48.8959014],[2.3795623,48.8959202],[2.3792942,48.8956787],[2.3817243,48.8943146],[2.383031,48.8936183],[2.3834289,48.893769],[2.3836839,48.8939732],[2.3846123,48.8934511],[2.3848986,48.8936789],[2.3848133,48.8938173],[2.3855531,48.894017]]]]},"properties":{"code_section":"75119000BK","code_commune":"75119","section_courte":"BK"}},{"type":"Feature","geometry":{"type":"MultiPolygon","coordinates":[[[[2.3789642,48.895386],[2.3767792,48.8935042],[2.3791281,48.8923147],[2.3817243,48.8943146],[2.3799633,48.8953029],[2.3798622,48.8952277],[2.3797858,48.8952564],[2.3795583,48.895066],[2.3789642,48.895386]]]]},"properties":{"code_section":"75119000BL","code_commune":"75119","section_courte":"BL"}},{"type":"Feature","geometry":{"type":"MultiPolygon","coordinates":[[[[2.3790261,48.8953526],[2.3795583,48.895066],[2.3797858,48.8952564],[2.3798622,48.8952277],[2.3799633,48.8953029],[2.3792942,48.8956787],[2.3795623,48.8959202],[2.378082,48.8963792],[2.3767884,48.8966446],[2.3760659,48.896497],[2.3759291,48.8961],[2.3741463,48.894616],[2.3761814,48.893546],[2.3767792,48.8935042],[2.3789642,48.895386],[2.3790261,48.8953526]]]]},"properties":{"code_section":"75119000BM","code_commune":"75119","section_courte":"BM"}},{"type":"Feature","geometry":{"type":"MultiPolygon","coordinates":[[[[2.3750378,48.8953581],[2.3759291,48.8961],[2.3760659,48.896497],[2.3739929,48.8960774],[2.3718705,48.8953146],[2.371789,48.8954103],[2.370519,48.8946392],[2.3704242,48.894523],[2.3733345,48.8937452],[2.3761814,48.893546],[2.3741463,48.894616],[2.3750378,48.8953581]]]]},"properties":{"code_section":"75119000BN","code_commune":"75119","section_courte":"BN"}},{"type":"Feature","geometry":{"type":"MultiPolygon","coordinates":[[[[2.3714037,48.8957197],[2.3718705,48.8953146],[2.3739929,48.8960774],[2.3767884,48.8966446],[2.377219,48.8977076],[2.3748682,48.8975429],[2.3707187,48.8974464],[2.3705743,48.8978228],[2.3705807,48.8977017],[2.3703348,48.8977031],[2.3703883,48.8966323],[2.3712589,48.8959181],[2.3713012,48.8958039],[2.3714037,48.8957197]]]]},"properties":{"code_section":"75119000BO","code_commune":"75119","section_courte":"BO"}},{"type":"Feature","geometry":{"type":"MultiPolygon","coordinates":[[[[2.3767884,48.8966446],[2.378082,48.8963792],[2.3795623,48.8959202],[2.3796984,48.8959014],[2.3802726,48.8960774],[2.381677,48.8958961],[2.3834907,48.896],[2.3826007,48.8974953],[2.3823824,48.8976286],[2.3822995,48.8976251],[2.3821011,48.8979438],[2.3790179,48.8978266],[2.3779633,48.8977304],[2.3771821,48.8976172],[2.3767884,48.8966446]]]]},"properties":{"code_section":"75119000BP","code_commune":"75119","section_courte":"BP"}},{"type":"Feature","geometry":{"type":"MultiPolygon","coordinates":[[[[2.3784866,48.9002308],[2.3760958,48.9001887],[2.3762335,48.8976386],[2.377219,48.8977076],[2.3771821,48.8976172],[2.3779633,48.8977304],[2.3790179,48.8978266],[2.3821909,48.8979399],[2.3816103,48.8989157],[2.3820358,48.898924],[2.3811826,48.9002782],[2.3784866,48.9002308]]]]},"properties":{"code_section":"75119000BR","code_commune":"75119","section_courte":"BR"}},{"type":"Feature","geometry":{"type":"MultiPolygon","coordinates":[[[[2.3744727,48.9001888],[2.3725832,48.9001903],[2.3722695,48.9002294],[2.3716936,48.9003677],[2.3714899,48.900375],[2.3709833,48.9002154],[2.3705757,48.9002781],[2.3702226,48.9003893],[2.3703348,48.8977031],[2.3705807,48.8977017],[2.3705743,48.8978228],[2.3707187,48.8974464],[2.3748682,48.8975429],[2.3762335,48.8976386],[2.3760958,48.9001887],[2.3744727,48.9001888]]]]},"properties":{"code_section":"75119000BS","code_commune":"75119","section_courte":"BS"}},{"type":"Feature","geometry":{"type":"MultiPolygon","coordinates":[[[[2.3702933,48.9018596],[2.370166,48.9015743],[2.3702226,48.9003893],[2.3704746,48.900304],[2.3709833,48.9002154],[2.3714899,48.900375],[2.3716936,48.9003677],[2.3722695,48.9002294],[2.3725832,48.9001903],[2.3760958,48.9001887],[2.3759801,48.9019813],[2.3702933,48.9018596]]]]},"properties":{"code_section":"75119000BT","code_commune":"75119","section_courte":"BT"}},{"type":"Feature","geometry":{"type":"MultiPolygon","coordinates":[[[[2.3760958,48.9001887],[2.3811826,48.9002782],[2.3800556,48.9020697],[2.3759801,48.9019813],[2.3760958,48.9001887]]]]},"properties":{"code_section":"75119000BV","code_commune":"75119","section_courte":"BV"}},{"type":"Feature","geometry":{"type":"MultiPolygon","coordinates":[[[[2.3811826,48.9002781],[2.3814617,48.900283],[2.3815732,48.900102],[2.3841591,48.900027],[2.3846019,48.899983],[2.3854917,48.8997942],[2.3857561,48.8997827],[2.3860049,48.8998172],[2.3869731,48.9001941],[2.3869315,48.9007435],[2.3862607,48.9010909],[2.386866,48.9017052],[2.3844397,48.9021648],[2.3800556,48.9020697],[2.3811826,48.9002781]]]]},"properties":{"code_section":"75119000BW","code_commune":"75119","section_courte":"BW"}},{"type":"Feature","geometry":{"type":"MultiPolygon","coordinates":[[[[2.387852,48.8997784],[2.3877129,48.8997886],[2.3874749,48.8999814],[2.3869731,48.9001941],[2.3860049,48.8998172],[2.3856741,48.8997828],[2.3854015,48.8998053],[2.3848888,48.8999284],[2.3843077,48.9000174],[2.3815732,48.900102],[2.3814615,48.9002829],[2.3811826,48.9002782],[2.3820358,48.898924],[2.3829379,48.8989419],[2.3863083,48.8982461],[2.387852,48.8997784]]]]},"properties":{"code_section":"75119000BX","code_commune":"75119","section_courte":"BX"}},{"type":"Feature","geometry":{"type":"MultiPolygon","coordinates":[[[[2.3826007,48.8974953],[2.3835056,48.8959752],[2.3841366,48.8961472],[2.3840755,48.8962471],[2.3862355,48.8982611],[2.3829379,48.8989419],[2.3816103,48.8989157],[2.3821909,48.8979399],[2.3821072,48.8979363],[2.3822995,48.8976251],[2.3823824,48.8976286],[2.3826007,48.8974953]]]]},"properties":{"code_section":"75119000BY","code_commune":"75119","section_courte":"BY"}},{"type":"Feature","geometry":{"type":"MultiPolygon","coordinates":[[[[2.3913863,48.8995197],[2.387852,48.8997784],[2.3863083,48.8982461],[2.3862355,48.8982611],[2.385555,48.8976349],[2.3886471,48.8976192],[2.3889105,48.8975267],[2.3904001,48.897416],[2.3911193,48.8985891],[2.3911094,48.8987149],[2.3912744,48.8988545],[2.3913863,48.8995197]]]]},"properties":{"code_section":"75119000CB","code_commune":"75119","section_courte":"CB"}},{"type":"Feature","geometry":{"type":"MultiPolygon","coordinates":[[[[2.386866,48.9017052],[2.3862607,48.9010909],[2.3869315,48.9007435],[2.3869731,48.9001941],[2.3874749,48.8999814],[2.3877129,48.8997886],[2.3920954,48.8994691],[2.3927719,48.8998192],[2.3907141,48.9009751],[2.386866,48.9017052]]]]},"properties":{"code_section":"75119000CC","code_commune":"75119","section_courte":"CC"}},{"type":"Feature","geometry":{"type":"MultiPolygon","coordinates":[[[[2.3913863,48.8995197],[2.3912744,48.8988545],[2.3911092,48.8987149],[2.3911192,48.8985891],[2.3904001,48.897416],[2.3911673,48.8973339],[2.3920295,48.897122],[2.3919999,48.8972813],[2.3959916,48.8974986],[2.3955204,48.8982645],[2.3927719,48.8998192],[2.3920954,48.8994691],[2.3913863,48.8995197]]]]},"properties":{"code_section":"75119000CD","code_commune":"75119","section_courte":"CD"}},{"type":"Feature","geometry":{"type":"MultiPolygon","coordinates":[[[[2.3967325,48.8962946],[2.3959916,48.8974986],[2.3919999,48.8972813],[2.3920295,48.897122],[2.3926847,48.8968206],[2.3930605,48.8965823],[2.3934451,48.8962582],[2.3937806,48.8958671],[2.3941715,48.8951497],[2.3948403,48.8952045],[2.3948643,48.8950781],[2.3972747,48.8954135],[2.3967325,48.8962946]]]]},"properties":{"code_section":"75119000CK","code_commune":"75119","section_courte":"CK"}},{"type":"Feature","geometry":{"type":"MultiPolygon","coordinates":[[[[2.3948643,48.8950781],[2.3948403,48.8952045],[2.3941715,48.8951497],[2.3945375,48.8938329],[2.394756,48.8927731],[2.398154,48.8931388],[2.3977716,48.8946055],[2.3972747,48.8954135],[2.3948643,48.8950781]]]]},"properties":{"code_section":"75119000CL","code_commune":"75119","section_courte":"CL"}},{"type":"Feature","geometry":{"type":"MultiPolygon","coordinates":[[[[2.3955689,48.8894235],[2.3988173,48.8902738],[2.3986218,48.8913461],[2.398154,48.8931388],[2.394756,48.8927731],[2.3955689,48.8894235]]]]},"properties":{"code_section":"75119000CN","code_commune":"75119","section_courte":"CN"}},{"type":"Feature","geometry":{"type":"MultiPolygon","coordinates":[[[[2.3886028,48.8889128],[2.3892966,48.8877842],[2.3955689,48.8894235],[2.3942725,48.8948839],[2.3940533,48.8953926],[2.3937806,48.8958671],[2.3936462,48.8957493],[2.3920505,48.8950258],[2.3920876,48.8949123],[2.3872053,48.8924768],[2.3862086,48.8920594],[2.3877657,48.8895636],[2.3879671,48.8896183],[2.3879399,48.8896632],[2.3881331,48.8897157],[2.3886028,48.8889128]]]]},"properties":{"code_section":"75119000CR","code_commune":"75119","section_courte":"CR"}},{"type":"Feature","geometry":{"type":"MultiPolygon","coordinates":[[[[2.3843152,48.8882869],[2.3845389,48.8878744],[2.3848328,48.8866182],[2.3892966,48.8877842],[2.3886028,48.8889128],[2.3862449,48.8883088],[2.3859672,48.8887291],[2.3849903,48.8884874],[2.3843152,48.8882869]]]]},"properties":{"code_section":"75119000CS","code_commune":"75119","section_courte":"CS"}},{"type":"Feature","geometry":{"type":"MultiPolygon","coordinates":[[[[2.3848328,48.8866182],[2.3829442,48.8861256],[2.3822686,48.8858681],[2.3832741,48.8849907],[2.3868648,48.8856737],[2.3877456,48.885804],[2.3871573,48.8872262],[2.3848328,48.8866182]]]]},"properties":{"code_section":"75119000CT","code_commune":"75119","section_courte":"CT"}},{"type":"Feature","geometry":{"type":"MultiPolygon","coordinates":[[[[2.3855433,48.8830108],[2.3879242,48.883227],[2.3868648,48.8856737],[2.3832741,48.8849907],[2.3855433,48.8830108]]]]},"properties":{"code_section":"75119000CV","code_commune":"75119","section_courte":"CV"}},{"type":"Feature","geometry":{"type":"MultiPolygon","coordinates":[[[[2.3879242,48.883227],[2.388476,48.883306],[2.3889277,48.8834243],[2.3905702,48.88408],[2.3902481,48.8844359],[2.3900512,48.8854292],[2.389873,48.8860924],[2.3868648,48.8856737],[2.3879242,48.883227]]]]},"properties":{"code_section":"75119000CW","code_commune":"75119","section_courte":"CW"}},{"type":"Feature","geometry":{"type":"MultiPolygon","coordinates":[[[[2.3916914,48.8839171],[2.3945403,48.8845243],[2.3944264,48.8849249],[2.3943326,48.8864253],[2.3939901,48.8864545],[2.389873,48.8860924],[2.3900512,48.8854292],[2.3902481,48.8844359],[2.3905702,48.88408],[2.3912518,48.8843523],[2.3916914,48.8839171]]]]},"properties":{"code_section":"75119000CX","code_commune":"75119","section_courte":"CX"}},{"type":"Feature","geometry":{"type":"MultiPolygon","coordinates":[[[[2.3877456,48.885804],[2.3895444,48.8860637],[2.3928478,48.8863524],[2.3919417,48.8884742],[2.3871573,48.8872262],[2.3877456,48.885804]]]]},"properties":{"code_section":"75119000CY","code_commune":"75119","section_courte":"CY"}},{"type":"Feature","geometry":{"type":"MultiPolygon","coordinates":[[[[2.3950943,48.889299],[2.3919417,48.8884742],[2.3928478,48.8863524],[2.3939901,48.8864545],[2.395777,48.8885118],[2.3958235,48.8886266],[2.3958796,48.8892679],[2.3950943,48.889299]]]]},"properties":{"code_section":"75119000CZ","code_commune":"75119","section_courte":"CZ"}},{"type":"Feature","geometry":{"type":"MultiPolygon","coordinates":[[[[2.3988173,48.8902738],[2.3950943,48.889299],[2.3958796,48.8892679],[2.3958235,48.8886266],[2.3980024,48.8885091],[2.398071,48.8878023],[2.3991922,48.8876259],[2.399185,48.8882324],[2.3988173,48.8902738]]]]},"properties":{"code_section":"75119000DA","code_commune":"75119","section_courte":"DA"}},{"type":"Feature","geometry":{"type":"MultiPolygon","coordinates":[[[[2.3964021,48.8885955],[2.3958235,48.8886266],[2.395777,48.8885118],[2.3939901,48.8864545],[2.396528,48.886239],[2.3992099,48.8859129],[2.3991922,48.8876259],[2.398071,48.8878023],[2.3980024,48.8885091],[2.3964021,48.8885955]]]]},"properties":{"code_section":"75119000DB","code_commune":"75119","section_courte":"DB"}},{"type":"Feature","geometry":{"type":"MultiPolygon","coordinates":[[[[2.3970699,48.8836735],[2.3986711,48.8839292],[2.400431,48.8835295],[2.4001079,48.8838124],[2.399214,48.8854162],[2.3992099,48.8859129],[2.396528,48.886239],[2.3943326,48.8864253],[2.3944264,48.8849249],[2.3945133,48.8846211],[2.396932,48.8840458],[2.3970699,48.8836735]]]]},"properties":{"code_section":"75119000DC","code_commune":"75119","section_courte":"DC"}},{"type":"Feature","geometry":{"type":"MultiPolygon","coordinates":[[[[2.3949834,48.8831915],[2.3952063,48.8829611],[2.39599,48.8826714],[2.3961175,48.8828311],[2.3965207,48.8829003],[2.3964801,48.8830064],[2.3974426,48.8831806],[2.3971474,48.8835197],[2.396932,48.8840458],[2.3945133,48.8846211],[2.3945403,48.8845243],[2.3916914,48.8839171],[2.3927758,48.8828458],[2.3948011,48.8837407],[2.3949834,48.8831915]]]]},"properties":{"code_section":"75119000DD","code_commune":"75119","section_courte":"DD"}},{"type":"Feature","geometry":{"type":"MultiPolygon","coordinates":[[[[2.3903773,48.8825194],[2.3900413,48.8818368],[2.3904011,48.8813095],[2.392785,48.8820103],[2.392851,48.8818799],[2.3933164,48.881966],[2.3932522,48.8821501],[2.3933698,48.8822481],[2.3912518,48.8843523],[2.3889277,48.8834243],[2.388476,48.883306],[2.3879242,48.883227],[2.3879553,48.8831562],[2.3904214,48.8826086],[2.3903773,48.8825194]]]]},"properties":{"code_section":"75119000DE","code_commune":"75119","section_courte":"DE"}},{"type":"Feature","geometry":{"type":"MultiPolygon","coordinates":[[[[2.3888369,48.8813525],[2.3891995,48.8809562],[2.3904011,48.8813095],[2.3900413,48.8818368],[2.3904214,48.8826086],[2.3879553,48.8831562],[2.3879242,48.883227],[2.3855433,48.8830108],[2.3883389,48.8805666],[2.3884741,48.8817488],[2.3888369,48.8813525]]]]},"properties":{"code_section":"75119000DH","code_commune":"75119","section_courte":"DH"}},{"type":"Feature","geometry":{"type":"MultiPolygon","coordinates":[[[[2.3889405,48.8795589],[2.3883756,48.879565],[2.3883139,48.8791934],[2.3898418,48.8790594],[2.3899323,48.8791062],[2.391124,48.879013],[2.3913034,48.8794698],[2.3924317,48.8791618],[2.3926386,48.8792433],[2.3942546,48.8795001],[2.3940301,48.8811995],[2.3937168,48.8811606],[2.3935101,48.8819235],[2.3933164,48.881966],[2.392851,48.8818799],[2.392785,48.8820103],[2.3891995,48.8809562],[2.3884741,48.8817488],[2.3883389,48.8805666],[2.3895053,48.8795527],[2.3889405,48.8795589]]]]},"properties":{"code_section":"75119000DI","code_commune":"75119","section_courte":"DI"}},{"type":"Feature","geometry":{"type":"MultiPolygon","coordinates":[[[[2.3955955,48.8795765],[2.3965238,48.8795873],[2.3964188,48.8792979],[2.398189,48.8793085],[2.3984068,48.8801099],[2.3986045,48.8801798],[2.3973174,48.8808584],[2.3967864,48.8812071],[2.3935101,48.8819235],[2.3937168,48.8811606],[2.3940301,48.8811995],[2.3942546,48.8795001],[2.3946669,48.8795655],[2.3955955,48.8795765]]]]},"properties":{"code_section":"75119000DK","code_commune":"75119","section_courte":"DK"}},{"type":"Feature","geometry":{"type":"MultiPolygon","coordinates":[[[[2.3932522,48.8821501],[2.3933164,48.881966],[2.3967864,48.8812071],[2.3961156,48.8820089],[2.3961542,48.8824293],[2.39599,48.8826714],[2.3952063,48.8829611],[2.3949834,48.8831915],[2.3948011,48.8837407],[2.3927758,48.8828458],[2.3933698,48.8822481],[2.3932522,48.8821501]]]]},"properties":{"code_section":"75119000DL","code_commune":"75119","section_courte":"DL"}},{"type":"Feature","geometry":{"type":"MultiPolygon","coordinates":[[[[2.3971089,48.8809863],[2.3986045,48.8801798],[2.400051,48.8806914],[2.4000348,48.8808699],[2.400076,48.8810746],[2.4001966,48.8812465],[2.4004993,48.8815415],[2.40062,48.8817704],[2.400628,48.8820273],[2.4005115,48.8822728],[2.4000837,48.8825234],[2.3996429,48.8826762],[2.3981486,48.8828875],[2.3977695,48.8830067],[2.3974426,48.8831806],[2.3964801,48.8830064],[2.3965207,48.8829003],[2.3961175,48.8828311],[2.39599,48.8826714],[2.3961542,48.8824293],[2.3961156,48.8820089],[2.3967864,48.8812071],[2.3971089,48.8809863]]]]},"properties":{"code_section":"75119000DM","code_commune":"75119","section_courte":"DM"}},{"type":"Feature","geometry":{"type":"MultiPolygon","coordinates":[[[[2.4017009,48.8811029],[2.4026077,48.8821202],[2.4014948,48.8826132],[2.4004373,48.883528],[2.3986711,48.8839292],[2.3970699,48.8836735],[2.3973441,48.8832664],[2.3975181,48.8831325],[2.3977695,48.8830067],[2.3982492,48.8828672],[2.3996429,48.8826762],[2.4000837,48.8825234],[2.4005115,48.8822728],[2.4006365,48.8819761],[2.4006032,48.8817199],[2.4004993,48.8815415],[2.4001966,48.8812465],[2.4000863,48.8810901],[2.4000348,48.8808699],[2.400379,48.8810486],[2.4008039,48.8811633],[2.4010674,48.8811743],[2.4017009,48.8811029]]]]},"properties":{"code_section":"75119000DN","code_commune":"75119","section_courte":"DN"}},{"type":"Feature","geometry":{"type":"MultiPolygon","coordinates":[[[[2.4026077,48.8821202],[2.4017009,48.8811029],[2.4018657,48.8810613],[2.4041605,48.8799815],[2.4063899,48.879566],[2.4073293,48.8803976],[2.4071561,48.8805422],[2.407067,48.880728],[2.4046276,48.8812266],[2.4026077,48.8821202]]]]},"properties":{"code_section":"75119000DO","code_commune":"75119","section_courte":"DO"}},{"type":"Feature","geometry":{"type":"MultiPolygon","coordinates":[[[[2.407067,48.880728],[2.4071561,48.8805422],[2.4073293,48.8803976],[2.4063942,48.8795759],[2.4070997,48.8791384],[2.4075559,48.8787774],[2.4079809,48.8780912],[2.4080792,48.8776322],[2.410825,48.8784192],[2.4093422,48.8802617],[2.407067,48.880728]]]]},"properties":{"code_section":"75119000DP","code_commune":"75119","section_courte":"DP"}},{"type":"Feature","geometry":{"type":"MultiPolygon","coordinates":[[[[2.4034257,48.8782774],[2.4060349,48.8777863],[2.406364,48.8775994],[2.4066783,48.8771767],[2.4069374,48.8772228],[2.4080792,48.8776322],[2.4079809,48.8780912],[2.4075559,48.8787774],[2.4070997,48.8791384],[2.4063942,48.8795759],[2.4041605,48.8799815],[2.4034257,48.8782774]]]]},"properties":{"code_section":"75119000DR","code_commune":"75119","section_courte":"DR"}},{"type":"Feature","geometry":{"type":"MultiPolygon","coordinates":[[[[2.399115,48.8794145],[2.3996886,48.8795988],[2.4012542,48.8788449],[2.402658,48.8784291],[2.4034257,48.8782774],[2.4041605,48.8799815],[2.4018657,48.8810613],[2.4010674,48.8811743],[2.4008039,48.8811633],[2.400379,48.8810486],[2.4000348,48.8808699],[2.400051,48.8806914],[2.3984068,48.8801099],[2.3981078,48.8790025],[2.3985416,48.8792301],[2.399115,48.8794145]]]]},"properties":{"code_section":"75119000DS","code_commune":"75119","section_courte":"DS"}},{"type":"Feature","geometry":{"type":"MultiPolygon","coordinates":[[[[2.4025321,48.8760021],[2.4059718,48.8770094],[2.4066783,48.8771767],[2.4063981,48.8775649],[2.4061944,48.8777187],[2.4059202,48.8778178],[2.402658,48.8784291],[2.4015922,48.878745],[2.4018467,48.8775481],[2.4025321,48.8760021]]]]},"properties":{"code_section":"75119000DT","code_commune":"75119","section_courte":"DT"}},{"type":"Feature","geometry":{"type":"MultiPolygon","coordinates":[[[[2.3997322,48.8766164],[2.4000472,48.8773615],[2.4001692,48.8774214],[2.4018467,48.8775481],[2.4015922,48.878745],[2.4012542,48.8788449],[2.3996886,48.8795988],[2.3985416,48.8792301],[2.3981078,48.8790025],[2.3978906,48.8782235],[2.3979272,48.876565],[2.3997322,48.8766164]]]]},"properties":{"code_section":"75119000DV","code_commune":"75119","section_courte":"DV"}},{"type":"Feature","geometry":{"type":"MultiPolygon","coordinates":[[[[2.3979272,48.876565],[2.3979395,48.8754539],[2.3989322,48.8754803],[2.3993268,48.8755683],[2.4025321,48.8760021],[2.4018467,48.8775481],[2.4001692,48.8774214],[2.4000472,48.8773615],[2.3997322,48.8766164],[2.3979272,48.876565]]]]},"properties":{"code_section":"75119000DW","code_commune":"75119","section_courte":"DW"}},{"type":"Feature","geometry":{"type":"MultiPolygon","coordinates":[[[[2.3955454,48.8770185],[2.3955625,48.8773184],[2.3955263,48.877373],[2.3953282,48.8775235],[2.3951135,48.8775904],[2.3938037,48.8775079],[2.392739,48.8773254],[2.3925007,48.8766107],[2.3922455,48.8764521],[2.3920645,48.8762023],[2.3919819,48.8758267],[2.3919683,48.87545],[2.3953301,48.8752536],[2.3973005,48.8754348],[2.3979395,48.8754539],[2.3979174,48.8769867],[2.3955283,48.8767185],[2.3955454,48.8770185]]]]},"properties":{"code_section":"75119000DX","code_commune":"75119","section_courte":"DX"}},{"type":"Feature","geometry":{"type":"MultiPolygon","coordinates":[[[[2.3965238,48.8795873],[2.3946669,48.8795655],[2.3926386,48.8792433],[2.3924317,48.8791618],[2.3926358,48.878758],[2.3938037,48.8775079],[2.3951135,48.8775904],[2.3952871,48.8775416],[2.3954434,48.8774539],[2.3955625,48.8773184],[2.3955283,48.8767185],[2.3979174,48.8769867],[2.3978906,48.8782235],[2.398189,48.8793085],[2.3964188,48.8792979],[2.3965238,48.8795873]]]]},"properties":{"code_section":"75119000DY","code_commune":"75119","section_courte":"DY"}},{"type":"Feature","geometry":{"type":"MultiPolygon","coordinates":[[[[2.3903603,48.8790729],[2.3899323,48.8791062],[2.3898418,48.8790594],[2.3883139,48.8791934],[2.3882139,48.8786125],[2.3879259,48.8775474],[2.387872,48.8771056],[2.3904,48.8767829],[2.3925007,48.8766107],[2.392739,48.8773254],[2.3938037,48.8775079],[2.3926358,48.878758],[2.3924317,48.8791618],[2.3913034,48.8794698],[2.391124,48.879013],[2.3903603,48.8790729]]]]},"properties":{"code_section":"75119000DZ","code_commune":"75119","section_courte":"DZ"}},{"type":"Feature","geometry":{"type":"MultiPolygon","coordinates":[[[[2.3925007,48.8766107],[2.3904,48.8767829],[2.387872,48.8771056],[2.3878387,48.8768515],[2.3874152,48.875869],[2.387441,48.874671],[2.3882109,48.8747147],[2.3885479,48.8747873],[2.3897767,48.8753352],[2.3903972,48.8754457],[2.3919683,48.87545],[2.3919819,48.8758267],[2.392088,48.8762553],[2.3922644,48.8764685],[2.3925007,48.8766107]]]]},"properties":{"code_section":"75119000EA","code_commune":"75119","section_courte":"EA"}},{"type":"Feature","geometry":{"type":"MultiPolygon","coordinates":[[[[2.3838625,48.8754369],[2.3856939,48.8741044],[2.3863003,48.8744115],[2.386768,48.8745967],[2.386929,48.8746369],[2.387441,48.874671],[2.3874152,48.875869],[2.3876099,48.8763196],[2.3859845,48.8767629],[2.3856776,48.8767891],[2.3852794,48.876764],[2.3852863,48.876801],[2.3838902,48.8767844],[2.3830186,48.8769458],[2.3818807,48.8755935],[2.3822961,48.875254],[2.3835788,48.8757856],[2.3838625,48.8754369]]]]},"properties":{"code_section":"75119000EB","code_commune":"75119","section_courte":"EB"}},{"type":"Feature","geometry":{"type":"MultiPolygon","coordinates":[[[[2.3805568,48.8747445],[2.3795779,48.8747819],[2.3797361,48.8739175],[2.3798528,48.8728406],[2.3822348,48.8733401],[2.3831005,48.8734836],[2.3844461,48.873655],[2.3849223,48.8737525],[2.3852133,48.8738591],[2.3856939,48.8741044],[2.3838625,48.8754369],[2.3835788,48.8757856],[2.3822961,48.875254],[2.3818807,48.8755935],[2.3810388,48.8746737],[2.3805568,48.8747445]]]]},"properties":{"code_section":"75119000EC","code_commune":"75119","section_courte":"EC"}},{"type":"Feature","geometry":{"type":"MultiPolygon","coordinates":[[[[2.374714,48.8741031],[2.3769887,48.8720621],[2.3798528,48.8728406],[2.3797361,48.8739175],[2.3795779,48.8747819],[2.3788808,48.8746383],[2.3769542,48.8741247],[2.3765342,48.8740878],[2.3755092,48.8740622],[2.3760011,48.8745109],[2.3761836,48.8747886],[2.3755993,48.8749766],[2.374714,48.8741031]]]]},"properties":{"code_section":"75119000ED","code_commune":"75119","section_courte":"ED"}},{"type":"Feature","geometry":{"type":"MultiPolygon","coordinates":[[[[2.3761488,48.8747132],[2.3760011,48.8745109],[2.3755092,48.8740622],[2.3765342,48.8740878],[2.3769542,48.8741247],[2.3788808,48.8746383],[2.3795779,48.8747819],[2.3805568,48.8747445],[2.3810388,48.8746737],[2.3818807,48.8755935],[2.3813588,48.8760092],[2.3796586,48.876325],[2.3796543,48.8763019],[2.3782554,48.8764493],[2.3774339,48.8764613],[2.3768892,48.8764358],[2.3761488,48.8747132]]]]},"properties":{"code_section":"75119000EE","code_commune":"75119","section_courte":"EE"}},{"type":"Feature","geometry":{"type":"MultiPolygon","coordinates":[[[[2.3818807,48.8755935],[2.3830186,48.8769458],[2.3827671,48.8770071],[2.3823923,48.8771781],[2.3829685,48.8782102],[2.381757,48.8783536],[2.3814836,48.8780703],[2.3812716,48.8777141],[2.3803731,48.8780756],[2.3793292,48.8783149],[2.3789391,48.8785327],[2.3787897,48.878176],[2.3788547,48.877765],[2.3789903,48.8774439],[2.3791308,48.8772407],[2.3793233,48.8770619],[2.3796325,48.8768497],[2.3797663,48.8766793],[2.3798039,48.8764997],[2.3796586,48.876325],[2.3813588,48.8760092],[2.3818807,48.8755935]]]]},"properties":{"code_section":"75119000EH","code_commune":"75119","section_courte":"EH"}},{"type":"Feature","geometry":{"type":"MultiPolygon","coordinates":[[[[2.3855316,48.8779334],[2.3829685,48.8782102],[2.3823923,48.8771781],[2.3827671,48.8770071],[2.3838902,48.8767844],[2.3852863,48.876801],[2.3852794,48.876764],[2.3856776,48.8767891],[2.3859845,48.8767629],[2.3876099,48.8763196],[2.3878387,48.8768515],[2.3878869,48.8772163],[2.3866672,48.877351],[2.3854561,48.8775608],[2.3855316,48.8779334]]]]},"properties":{"code_section":"75119000EI","code_commune":"75119","section_courte":"EI"}},{"type":"Feature","geometry":{"type":"MultiPolygon","coordinates":[[[[2.3854561,48.8775608],[2.3866672,48.877351],[2.3878869,48.8772163],[2.3879259,48.8775474],[2.3882139,48.8786125],[2.3883689,48.8795243],[2.3869875,48.8795234],[2.3860227,48.8794845],[2.3852341,48.8794212],[2.384241,48.8792906],[2.3833614,48.8791027],[2.3828257,48.8789322],[2.382179,48.8786302],[2.381757,48.8783536],[2.3855316,48.8779334],[2.3854561,48.8775608]]]]},"properties":{"code_section":"75119000EK","code_commune":"75119","section_courte":"EK"}},{"type":"Feature","geometry":{"type":"MultiPolygon","coordinates":[[[[2.3801109,48.8781478],[2.3805422,48.8780172],[2.3812716,48.8777141],[2.3815554,48.8781562],[2.381757,48.8783536],[2.3820317,48.8785424],[2.3824914,48.8787913],[2.3828257,48.8789322],[2.3835474,48.8791481],[2.3845114,48.8793334],[2.3856271,48.8794578],[2.3869875,48.8795234],[2.3883689,48.8795243],[2.3883756,48.879565],[2.3895053,48.8795527],[2.3855433,48.8830108],[2.3841546,48.8828492],[2.3833623,48.8826894],[2.3826236,48.8824724],[2.3820651,48.8822438],[2.3816417,48.8820242],[2.380851,48.8815193],[2.380299,48.8810749],[2.3797973,48.880605],[2.3792703,48.8800223],[2.3789241,48.8795783],[2.3784628,48.8788827],[2.3785549,48.8788767],[2.3786758,48.8788171],[2.3789391,48.8785327],[2.3792559,48.8783444],[2.3795558,48.878247],[2.3801109,48.8781478]]]]},"properties":{"code_section":"75119000EL","code_commune":"75119","section_courte":"EL"}},{"type":"Feature","geometry":{"type":"MultiPolygon","coordinates":[[[[2.3826236,48.8824724],[2.3833623,48.8826894],[2.3838598,48.8827988],[2.3855433,48.8830108],[2.3832741,48.8849907],[2.3828071,48.8849041],[2.3812608,48.8847916],[2.3826236,48.8824724]]]]},"properties":{"code_section":"75119000EM","code_commune":"75119","section_courte":"EM"}},{"type":"Feature","geometry":{"type":"MultiPolygon","coordinates":[[[[2.3828071,48.8849041],[2.3832741,48.8849907],[2.3822686,48.8858681],[2.3796404,48.8848634],[2.3810949,48.8832422],[2.3820043,48.8835321],[2.3812608,48.8847916],[2.3828071,48.8849041]]]]},"properties":{"code_section":"75119000EN","code_commune":"75119","section_courte":"EN"}},{"type":"Feature","geometry":{"type":"MultiPolygon","coordinates":[[[[2.3817784,48.8825245],[2.3796404,48.8848634],[2.378755,48.8845268],[2.3756439,48.8828012],[2.3817784,48.8825245]]]]},"properties":{"code_section":"75119000EO","code_commune":"75119","section_courte":"EO"}},{"type":"Feature","geometry":{"type":"MultiPolygon","coordinates":[[[[2.3786837,48.8811669],[2.380851,48.8815193],[2.3818255,48.8821251],[2.3826236,48.8824724],[2.3820043,48.8835321],[2.3810949,48.8832422],[2.3817784,48.8825245],[2.3774192,48.8827225],[2.3773818,48.8824035],[2.3778514,48.8823845],[2.3785977,48.8815817],[2.3785277,48.8815533],[2.3786837,48.8811669]]]]},"properties":{"code_section":"75119000EP","code_commune":"75119","section_courte":"EP"}},{"type":"Feature","geometry":{"type":"MultiPolygon","coordinates":[[[[2.3784628,48.8788827],[2.3789241,48.8795783],[2.3795662,48.8803613],[2.3800882,48.8808862],[2.380851,48.8815193],[2.3779188,48.8810425],[2.3756928,48.8801551],[2.3754417,48.8785428],[2.3784628,48.8788827]]]]},"properties":{"code_section":"75119000ER","code_commune":"75119","section_courte":"ER"}},{"type":"Feature","geometry":{"type":"MultiPolygon","coordinates":[[[[2.3774192,48.8827225],[2.3756439,48.8828012],[2.3741662,48.8820119],[2.3733784,48.8813295],[2.3732446,48.8812597],[2.3756928,48.8801551],[2.3779188,48.8810425],[2.3786837,48.8811669],[2.3785277,48.8815533],[2.3785977,48.8815817],[2.3778514,48.8823845],[2.3773818,48.8824035],[2.3774192,48.8827225]]]]},"properties":{"code_section":"75119000ES","code_commune":"75119","section_courte":"ES"}},{"type":"Feature","geometry":{"type":"MultiPolygon","coordinates":[[[[2.3728454,48.8808151],[2.3727412,48.8805368],[2.3712688,48.8789795],[2.3730264,48.8782763],[2.3754417,48.8785428],[2.3756928,48.8801551],[2.3732446,48.8812597],[2.3731467,48.8812053],[2.3728454,48.8808151]]]]},"properties":{"code_section":"75119000ET","code_commune":"75119","section_courte":"ET"}},{"type":"Feature","geometry":{"type":"MultiPolygon","coordinates":[[[[2.378823,48.8786394],[2.3786758,48.8788171],[2.3784739,48.8788834],[2.3742537,48.8784068],[2.3740658,48.8775546],[2.3741422,48.8772288],[2.3743292,48.8769397],[2.3745424,48.8767503],[2.3748979,48.8765462],[2.3751812,48.8764428],[2.3755702,48.8763604],[2.3761116,48.8763403],[2.3768892,48.8764358],[2.3777541,48.8764629],[2.3785232,48.8764329],[2.3796543,48.8763019],[2.3798039,48.8764997],[2.3797663,48.8766793],[2.3796325,48.8768497],[2.3793233,48.8770619],[2.3791308,48.8772407],[2.3788957,48.8776483],[2.3787858,48.8781221],[2.3788312,48.8783353],[2.3789391,48.8785327],[2.378823,48.8786394]]]]},"properties":{"code_section":"75119000EV","code_commune":"75119","section_courte":"EV"}},{"type":"Feature","geometry":{"type":"MultiPolygon","coordinates":[[[[2.3761836,48.8747886],[2.3768892,48.8764358],[2.3762472,48.8763503],[2.3758992,48.8763346],[2.3755702,48.8763604],[2.3751812,48.8764428],[2.3748101,48.8765878],[2.3745424,48.8767503],[2.3742784,48.877],[2.3741422,48.8772288],[2.3737458,48.8767428],[2.3731823,48.87646],[2.3728556,48.8767419],[2.3721141,48.8763872],[2.374714,48.8741031],[2.3755993,48.8749766],[2.3761836,48.8747886]]]]},"properties":{"code_section":"75119000EW","code_commune":"75119","section_courte":"EW"}},{"type":"Feature","geometry":{"type":"MultiPolygon","coordinates":[[[[2.3712688,48.8789795],[2.3702764,48.8779925],[2.3721141,48.8763872],[2.3728556,48.8767419],[2.3731823,48.87646],[2.3737458,48.8767428],[2.3741422,48.8772288],[2.3740663,48.8776274],[2.3742537,48.8784068],[2.3730264,48.8782763],[2.3712688,48.8789795]]]]},"properties":{"code_section":"75119000EX","code_commune":"75119","section_courte":"EX"}}]}