{"type":"FeatureCollection","features":[{"type":"Feature","geometry":{"type":"MultiPolygon","coordinates":[[[[2.2817288,48.8789115],[2.282354,48.8793795],[2.2822152,48.8794581],[2.2821628,48.8795997],[2.2820625,48.879651],[2.2817196,48.8797748],[2.2813966,48.8798174],[2.2812492,48.8797881],[2.280963,48.8796374],[2.2806089,48.8792482],[2.2801708,48.8796046],[2.2799639,48.8787026],[2.279801,48.878654],[2.2837823,48.877352],[2.2839326,48.8777188],[2.2838071,48.8779288],[2.2835871,48.8781505],[2.2833155,48.8783211],[2.282839,48.8785075],[2.2823781,48.8785994],[2.2819457,48.878597],[2.2817288,48.8789115]]]]},"properties":{"code_section":"75117000AA","code_commune":"75117","section_courte":"AA"}},{"type":"Feature","geometry":{"type":"MultiPolygon","coordinates":[[[[2.2801708,48.8796046],[2.2806089,48.8792482],[2.280963,48.8796374],[2.2812492,48.8797881],[2.2813966,48.8798174],[2.2816277,48.879797],[2.2819812,48.8796871],[2.2821628,48.8795997],[2.2822152,48.8794581],[2.2841465,48.880962],[2.2806611,48.8817642],[2.2801708,48.8796046]]]]},"properties":{"code_section":"75117000AB","code_commune":"75117","section_courte":"AB"}},{"type":"Feature","geometry":{"type":"MultiPolygon","coordinates":[[[[2.2859594,48.880259],[2.2868848,48.880337],[2.2841465,48.880962],[2.2822152,48.8794581],[2.282354,48.8793795],[2.2817288,48.8789115],[2.2819457,48.878597],[2.2822858,48.8786058],[2.282624,48.8785602],[2.2832334,48.8783597],[2.2836495,48.8780983],[2.2838071,48.8779288],[2.2839326,48.8777188],[2.2850336,48.8801812],[2.2859594,48.880259]]]]},"properties":{"code_section":"75117000AC","code_commune":"75117","section_courte":"AC"}},{"type":"Feature","geometry":{"type":"MultiPolygon","coordinates":[[[[2.2874312,48.8802104],[2.2868848,48.880337],[2.2850336,48.8801812],[2.2837823,48.877352],[2.2839302,48.8773052],[2.2853945,48.8783699],[2.288372,48.8799934],[2.2874312,48.8802104]]]]},"properties":{"code_section":"75117000AD","code_commune":"75117","section_courte":"AD"}},{"type":"Feature","geometry":{"type":"MultiPolygon","coordinates":[[[[2.2850876,48.878154],[2.2847808,48.877938],[2.2881089,48.8779704],[2.2914744,48.8792768],[2.288372,48.8799934],[2.2853945,48.8783699],[2.2850876,48.878154]]]]},"properties":{"code_section":"75117000AE","code_commune":"75117","section_courte":"AE"}},{"type":"Feature","geometry":{"type":"MultiPolygon","coordinates":[[[[2.2890163,48.8761244],[2.2881089,48.8779704],[2.2847808,48.877938],[2.2839302,48.8773052],[2.2891982,48.8756325],[2.2890163,48.8761244]]]]},"properties":{"code_section":"75117000AF","code_commune":"75117","section_courte":"AF"}},{"type":"Feature","geometry":{"type":"MultiPolygon","coordinates":[[[[2.2901938,48.8766781],[2.2904444,48.8764082],[2.2921919,48.8771124],[2.2909605,48.879058],[2.2881089,48.8779704],[2.289109,48.875936],[2.289943,48.8769478],[2.2901938,48.8766781]]]]},"properties":{"code_section":"75117000AG","code_commune":"75117","section_courte":"AG"}},{"type":"Feature","geometry":{"type":"MultiPolygon","coordinates":[[[[2.2946381,48.8772943],[2.29485,48.8772092],[2.2957177,48.8783037],[2.2914744,48.8792768],[2.2909605,48.879058],[2.2921919,48.8771124],[2.2929634,48.8774873],[2.2932347,48.8777103],[2.2940172,48.8762838],[2.2945145,48.8768473],[2.2944261,48.8773793],[2.2946381,48.8772943]]]]},"properties":{"code_section":"75117000AH","code_commune":"75117","section_courte":"AH"}},{"type":"Feature","geometry":{"type":"MultiPolygon","coordinates":[[[[2.2901938,48.8766781],[2.289943,48.8769478],[2.289109,48.875936],[2.2891982,48.8756325],[2.2930045,48.8744229],[2.2931912,48.8746467],[2.2933906,48.874811],[2.2938696,48.8750611],[2.2921919,48.8771124],[2.2904444,48.8764082],[2.2901938,48.8766781]]]]},"properties":{"code_section":"75117000AI","code_commune":"75117","section_courte":"AI"}},{"type":"Feature","geometry":{"type":"MultiPolygon","coordinates":[[[[2.2960135,48.8751226],[2.2955491,48.8752399],[2.2951487,48.8752768],[2.2947765,48.8752656],[2.2942751,48.8751831],[2.2938696,48.8750611],[2.2935531,48.8749137],[2.2932595,48.8747091],[2.2930045,48.8744229],[2.2950396,48.8737786],[2.2960135,48.8751226]]]]},"properties":{"code_section":"75117000AJ","code_commune":"75117","section_courte":"AJ"}},{"type":"Feature","geometry":{"type":"MultiPolygon","coordinates":[[[[2.2936259,48.8769971],[2.2932347,48.8777103],[2.2929634,48.8774873],[2.2921919,48.8771124],[2.2938696,48.8750611],[2.2944079,48.8752118],[2.2950244,48.8752776],[2.2955491,48.8752399],[2.2960135,48.8751226],[2.2979755,48.8778279],[2.2957177,48.8783037],[2.29485,48.8772092],[2.2944261,48.8773793],[2.2945145,48.8768473],[2.2940172,48.8762838],[2.2936259,48.8769971]]]]},"properties":{"code_section":"75117000AK","code_commune":"75117","section_courte":"AK"}},{"type":"Feature","geometry":{"type":"MultiPolygon","coordinates":[[[[2.2988634,48.8782311],[2.3009686,48.8786835],[2.2975539,48.8809029],[2.2947625,48.8797661],[2.2942197,48.8786545],[2.2957177,48.8783037],[2.2979755,48.8778279],[2.298155,48.878079],[2.2988634,48.8782311]]]]},"properties":{"code_section":"75117000AL","code_commune":"75117","section_courte":"AL"}},{"type":"Feature","geometry":{"type":"MultiPolygon","coordinates":[[[[2.2982054,48.8804756],[2.2988573,48.8800483],[2.2996524,48.8804812],[2.2963856,48.8829286],[2.2947625,48.8797661],[2.2975539,48.8809029],[2.2982054,48.8804756]]]]},"properties":{"code_section":"75117000AM","code_commune":"75117","section_courte":"AM"}},{"type":"Feature","geometry":{"type":"MultiPolygon","coordinates":[[[[2.295539,48.8812634],[2.2963856,48.8829286],[2.2952988,48.8837488],[2.2913235,48.8815808],[2.2921343,48.8809158],[2.2938293,48.8817979],[2.2944698,48.8812121],[2.2951997,48.8815549],[2.295539,48.8812634]]]]},"properties":{"code_section":"75117000AN","code_commune":"75117","section_courte":"AN"}},{"type":"Feature","geometry":{"type":"MultiPolygon","coordinates":[[[[2.2944698,48.8812121],[2.2907425,48.8794543],[2.2942197,48.8786545],[2.295539,48.8812634],[2.2951997,48.8815549],[2.2944698,48.8812121]]]]},"properties":{"code_section":"75117000AO","code_commune":"75117","section_courte":"AO"}},{"type":"Feature","geometry":{"type":"MultiPolygon","coordinates":[[[[2.2917289,48.8812483],[2.2913235,48.8815808],[2.288372,48.8799934],[2.2907425,48.8794543],[2.2944698,48.8812121],[2.2938293,48.8817979],[2.2921343,48.8809158],[2.2917289,48.8812483]]]]},"properties":{"code_section":"75117000AP","code_commune":"75117","section_courte":"AP"}},{"type":"Feature","geometry":{"type":"MultiPolygon","coordinates":[[[[2.2899543,48.8808487],[2.2919711,48.881936],[2.2904667,48.8831563],[2.2885115,48.8821522],[2.2899543,48.8808487]]]]},"properties":{"code_section":"75117000AQ","code_commune":"75117","section_courte":"AQ"}},{"type":"Feature","geometry":{"type":"MultiPolygon","coordinates":[[[[2.2853547,48.881718],[2.2841465,48.880962],[2.288372,48.8799934],[2.2899543,48.8808487],[2.2874954,48.8830576],[2.2853547,48.881718]]]]},"properties":{"code_section":"75117000AR","code_commune":"75117","section_courte":"AR"}},{"type":"Feature","geometry":{"type":"MultiPolygon","coordinates":[[[[2.2806611,48.8817642],[2.2841465,48.880962],[2.2874954,48.8830576],[2.2862456,48.8840605],[2.2847023,48.883066],[2.2845818,48.883153],[2.2844938,48.8831464],[2.2843551,48.8832407],[2.284216,48.883163],[2.2836421,48.8834841],[2.2832964,48.8832762],[2.2829435,48.8830016],[2.2827947,48.8828583],[2.282682,48.8826675],[2.2818631,48.8836211],[2.2809077,48.8828791],[2.2806611,48.8817642]]]]},"properties":{"code_section":"75117000AS","code_commune":"75117","section_courte":"AS"}},{"type":"Feature","geometry":{"type":"MultiPolygon","coordinates":[[[[2.2847023,48.883066],[2.2862456,48.8840605],[2.2844592,48.8856377],[2.2818631,48.8836211],[2.282682,48.8826675],[2.2827947,48.8828583],[2.2829435,48.8830016],[2.2832964,48.8832762],[2.2836421,48.8834841],[2.284216,48.883163],[2.2843551,48.8832407],[2.2844938,48.8831464],[2.2845818,48.883153],[2.2847023,48.883066]]]]},"properties":{"code_section":"75117000AT","code_commune":"75117","section_courte":"AT"}},{"type":"Feature","geometry":{"type":"MultiPolygon","coordinates":[[[[2.2862456,48.8840605],[2.2892841,48.88595],[2.2854986,48.8864449],[2.2844593,48.8856378],[2.2862456,48.8840605]]]]},"properties":{"code_section":"75117000AU","code_commune":"75117","section_courte":"AU"}},{"type":"Feature","geometry":{"type":"MultiPolygon","coordinates":[[[[2.2893442,48.8840997],[2.2909992,48.88515],[2.2909097,48.8852142],[2.2916414,48.8856767],[2.2892841,48.88595],[2.2862456,48.8840605],[2.2874954,48.8830576],[2.2892577,48.8841679],[2.2893442,48.8840997]]]]},"properties":{"code_section":"75117000AV","code_commune":"75117","section_courte":"AV"}},{"type":"Feature","geometry":{"type":"MultiPolygon","coordinates":[[[[2.2919711,48.881936],[2.293748,48.8828923],[2.2927003,48.8838399],[2.2893442,48.8840997],[2.2892577,48.8841679],[2.2874954,48.8830576],[2.2885115,48.8821522],[2.2904667,48.8831563],[2.2919711,48.881936]]]]},"properties":{"code_section":"75117000AW","code_commune":"75117","section_courte":"AW"}},{"type":"Feature","geometry":{"type":"MultiPolygon","coordinates":[[[[2.293748,48.8828923],[2.2952988,48.8837488],[2.2944041,48.8844194],[2.2945316,48.8844797],[2.2931992,48.8855331],[2.2916414,48.8856767],[2.2909097,48.8852142],[2.2909992,48.88515],[2.2893442,48.8840997],[2.2927003,48.8838399],[2.293748,48.8828923]]]]},"properties":{"code_section":"75117000AX","code_commune":"75117","section_courte":"AX"}},{"type":"Feature","geometry":{"type":"MultiPolygon","coordinates":[[[[2.2931938,48.8866268],[2.2947019,48.8875522],[2.2938329,48.8884182],[2.2916349,48.8874003],[2.2892841,48.88595],[2.2916414,48.8856767],[2.2931992,48.8855331],[2.2923668,48.8861242],[2.2931938,48.8866268]]]]},"properties":{"code_section":"75117000AY","code_commune":"75117","section_courte":"AY"}},{"type":"Feature","geometry":{"type":"MultiPolygon","coordinates":[[[[2.2856621,48.8865719],[2.2854986,48.8864449],[2.2892841,48.88595],[2.2901046,48.8864609],[2.2886631,48.8880433],[2.2856621,48.8865719]]]]},"properties":{"code_section":"75117000AZ","code_commune":"75117","section_courte":"AZ"}},{"type":"Feature","geometry":{"type":"MultiPolygon","coordinates":[[[[2.2886631,48.8880433],[2.2901046,48.8864609],[2.2916349,48.8874003],[2.2926455,48.8878684],[2.2911755,48.8892751],[2.2886631,48.8880433]]]]},"properties":{"code_section":"75117000BA","code_commune":"75117","section_courte":"BA"}},{"type":"Feature","geometry":{"type":"MultiPolygon","coordinates":[[[[2.2926455,48.8878684],[2.2938329,48.8884182],[2.2946509,48.8876031],[2.2969146,48.8890886],[2.2971535,48.8891012],[2.2977895,48.8894918],[2.2971628,48.8900176],[2.2967781,48.8898163],[2.2960807,48.8904046],[2.2950403,48.889865],[2.2915081,48.8894615],[2.2911527,48.8892968],[2.2926455,48.8878684]]]]},"properties":{"code_section":"75117000BB","code_commune":"75117","section_courte":"BB"}},{"type":"Feature","geometry":{"type":"MultiPolygon","coordinates":[[[[2.2944885,48.8860002],[2.2981894,48.887312],[2.2971283,48.8874438],[2.2959433,48.8877701],[2.2957497,48.8877933],[2.2956601,48.8877766],[2.2947203,48.8875344],[2.2947019,48.8875522],[2.2923668,48.8861242],[2.2931992,48.8855331],[2.2944885,48.8860002]]]]},"properties":{"code_section":"75117000BC","code_commune":"75117","section_courte":"BC"}},{"type":"Feature","geometry":{"type":"MultiPolygon","coordinates":[[[[2.2948372,48.8875706],[2.2952452,48.8876852],[2.2957833,48.8877917],[2.2959947,48.8877577],[2.2971283,48.8874438],[2.2981894,48.887312],[2.2997314,48.88806],[2.297845,48.8888345],[2.2974467,48.8892748],[2.2971535,48.8891012],[2.2969146,48.8890886],[2.2946509,48.8876031],[2.2947203,48.8875344],[2.2948372,48.8875706]]]]},"properties":{"code_section":"75117000BD","code_commune":"75117","section_courte":"BD"}},{"type":"Feature","geometry":{"type":"MultiPolygon","coordinates":[[[[2.3011552,48.8869029],[2.2997314,48.88806],[2.2981894,48.887312],[2.2957779,48.8864672],[2.2969436,48.8852963],[2.2971741,48.8853597],[2.2974754,48.8853565],[2.2977397,48.8852618],[2.2978928,48.885119],[2.2987757,48.8855799],[2.2995285,48.8859167],[2.3003404,48.8862275],[2.3015352,48.8866021],[2.3011552,48.8869029]]]]},"properties":{"code_section":"75117000BE","code_commune":"75117","section_courte":"BE"}},{"type":"Feature","geometry":{"type":"MultiPolygon","coordinates":[[[[2.2963607,48.8858819],[2.2957779,48.8864672],[2.2931992,48.8855331],[2.2945316,48.8844797],[2.2944041,48.8844194],[2.2952988,48.8837488],[2.2968794,48.8846064],[2.2971433,48.8844921],[2.2974539,48.8844946],[2.2978054,48.8846194],[2.2979706,48.8847947],[2.2979582,48.885012],[2.2977737,48.8852398],[2.2975821,48.8853312],[2.297382,48.8853675],[2.2971741,48.8853597],[2.2969436,48.8852963],[2.2963607,48.8858819]]]]},"properties":{"code_section":"75117000BF","code_commune":"75117","section_courte":"BF"}},{"type":"Feature","geometry":{"type":"MultiPolygon","coordinates":[[[[2.2979855,48.8848385],[2.2978376,48.8846405],[2.2975054,48.8845043],[2.2971869,48.8844842],[2.2970199,48.8845285],[2.2968794,48.8846064],[2.2952988,48.8837488],[2.2970529,48.8824285],[2.3003127,48.8839632],[2.2983091,48.8848135],[2.2979855,48.8848385]]]]},"properties":{"code_section":"75117000BG","code_commune":"75117","section_courte":"BG"}},{"type":"Feature","geometry":{"type":"MultiPolygon","coordinates":[[[[2.299311,48.8843883],[2.3019395,48.8832693],[2.3033833,48.8852467],[2.2983119,48.885343],[2.2978928,48.885119],[2.2979892,48.8848531],[2.2983091,48.8848135],[2.299311,48.8843883]]]]},"properties":{"code_section":"75117000BH","code_commune":"75117","section_courte":"BH"}},{"type":"Feature","geometry":{"type":"MultiPolygon","coordinates":[[[[2.3071062,48.885183],[2.3033833,48.8852467],[2.3019395,48.8832693],[2.30299,48.8828309],[2.3068007,48.8849476],[2.3071062,48.885183]]]]},"properties":{"code_section":"75117000BI","code_commune":"75117","section_courte":"BI"}},{"type":"Feature","geometry":{"type":"MultiPolygon","coordinates":[[[[2.2985337,48.881321],[2.3011886,48.8818325],[2.30299,48.8828309],[2.3003127,48.8839632],[2.2970529,48.8824285],[2.2985337,48.881321]]]]},"properties":{"code_section":"75117000BJ","code_commune":"75117","section_courte":"BJ"}},{"type":"Feature","geometry":{"type":"MultiPolygon","coordinates":[[[[2.3009686,48.8786835],[2.303092,48.8791408],[2.3005363,48.8817129],[2.2985337,48.881321],[2.2996524,48.8804812],[2.2988573,48.8800483],[2.3009686,48.8786835]]]]},"properties":{"code_section":"75117000BK","code_commune":"75117","section_courte":"BK"}},{"type":"Feature","geometry":{"type":"MultiPolygon","coordinates":[[[[2.303092,48.8791408],[2.3088391,48.8803627],[2.3056024,48.8817221],[2.3021898,48.8800751],[2.303092,48.8791408]]]]},"properties":{"code_section":"75117000BL","code_commune":"75117","section_courte":"BL"}},{"type":"Feature","geometry":{"type":"MultiPolygon","coordinates":[[[[2.3013633,48.8808939],[2.3021898,48.8800751],[2.3056024,48.8817221],[2.30299,48.8828309],[2.3011886,48.8818325],[2.3005363,48.8817129],[2.3013633,48.8808939]]]]},"properties":{"code_section":"75117000BM","code_commune":"75117","section_courte":"BM"}},{"type":"Feature","geometry":{"type":"MultiPolygon","coordinates":[[[[2.3063529,48.8814069],[2.3091325,48.8828816],[2.304773,48.8838158],[2.30299,48.8828309],[2.3063529,48.8814069]]]]},"properties":{"code_section":"75117000BN","code_commune":"75117","section_courte":"BN"}},{"type":"Feature","geometry":{"type":"MultiPolygon","coordinates":[[[[2.3125677,48.8808313],[2.3112819,48.8819043],[2.3117374,48.8823335],[2.3091325,48.8828816],[2.3063529,48.8814069],[2.3088391,48.8803627],[2.3125677,48.8808313]]]]},"properties":{"code_section":"75117000BO","code_commune":"75117","section_courte":"BO"}},{"type":"Feature","geometry":{"type":"MultiPolygon","coordinates":[[[[2.3131013,48.8834836],[2.3127959,48.8832998],[2.3112819,48.8819043],[2.3125677,48.8808313],[2.3164994,48.8813161],[2.3137133,48.8837726],[2.3136403,48.8838082],[2.3131013,48.8834836]]]]},"properties":{"code_section":"75117000BP","code_commune":"75117","section_courte":"BP"}},{"type":"Feature","geometry":{"type":"MultiPolygon","coordinates":[[[[2.3122667,48.8828166],[2.3127959,48.8832998],[2.3136403,48.8838082],[2.3108789,48.8851348],[2.3072665,48.8832847],[2.3117374,48.8823335],[2.3122667,48.8828166]]]]},"properties":{"code_section":"75117000BQ","code_commune":"75117","section_courte":"BQ"}},{"type":"Feature","geometry":{"type":"MultiPolygon","coordinates":[[[[2.3072665,48.8832847],[2.3108789,48.8851348],[2.310329,48.885401],[2.3095745,48.8859732],[2.3071062,48.885183],[2.3068007,48.8849476],[2.304773,48.8838158],[2.3072665,48.8832847]]]]},"properties":{"code_section":"75117000BR","code_commune":"75117","section_courte":"BR"}},{"type":"Feature","geometry":{"type":"MultiPolygon","coordinates":[[[[2.3033833,48.8852467],[2.3071062,48.885183],[2.3095745,48.8859732],[2.3074872,48.8875331],[2.3048101,48.8872026],[2.3033833,48.8852467]]]]},"properties":{"code_section":"75117000BS","code_commune":"75117","section_courte":"BS"}},{"type":"Feature","geometry":{"type":"MultiPolygon","coordinates":[[[[2.3033833,48.8852467],[2.3048101,48.8872026],[2.3031142,48.8869594],[2.3015352,48.8866021],[2.300678,48.8863422],[2.2999302,48.8860769],[2.2993623,48.8858471],[2.2983119,48.885343],[2.3033833,48.8852467]]]]},"properties":{"code_section":"75117000BT","code_commune":"75117","section_courte":"BT"}},{"type":"Feature","geometry":{"type":"MultiPolygon","coordinates":[[[[2.3015352,48.8866021],[2.3031142,48.8869594],[2.3048101,48.8872026],[2.3040416,48.8896099],[2.3036418,48.8893816],[2.3031653,48.8890528],[2.3026747,48.8886126],[2.3016612,48.8870377],[2.3011552,48.8869029],[2.3015352,48.8866021]]]]},"properties":{"code_section":"75117000BU","code_commune":"75117","section_courte":"BU"}},{"type":"Feature","geometry":{"type":"MultiPolygon","coordinates":[[[[2.3055927,48.8889511],[2.3040299,48.8901207],[2.3038946,48.8900593],[2.3048101,48.8872026],[2.3074872,48.8875331],[2.3055927,48.8889511]]]]},"properties":{"code_section":"75117000BV","code_commune":"75117","section_courte":"BV"}},{"type":"Feature","geometry":{"type":"MultiPolygon","coordinates":[[[[2.2997314,48.88806],[2.3011552,48.8869029],[2.3016612,48.8870377],[2.3026747,48.8886126],[2.3031653,48.8890528],[2.3036418,48.8893816],[2.3040416,48.8896099],[2.3038979,48.8900318],[2.2997314,48.88806]]]]},"properties":{"code_section":"75117000BW","code_commune":"75117","section_courte":"BW"}},{"type":"Feature","geometry":{"type":"MultiPolygon","coordinates":[[[[2.2994217,48.8905243],[2.2974467,48.8892748],[2.297845,48.8888345],[2.2997314,48.88806],[2.3038979,48.8900318],[2.3025488,48.8910656],[2.3001626,48.8899231],[2.2994217,48.8905243]]]]},"properties":{"code_section":"75117000BX","code_commune":"75117","section_courte":"BX"}},{"type":"Feature","geometry":{"type":"MultiPolygon","coordinates":[[[[2.2960807,48.8904046],[2.2967781,48.8898163],[2.2971628,48.8900176],[2.2977895,48.8894918],[2.2994217,48.8905243],[2.3001626,48.8899231],[2.3025488,48.8910656],[2.3015726,48.8918467],[2.3016403,48.8918925],[2.3006045,48.8926722],[2.2985725,48.8917134],[2.2960807,48.8904046]]]]},"properties":{"code_section":"75117000BY","code_commune":"75117","section_courte":"BY"}},{"type":"Feature","geometry":{"type":"MultiPolygon","coordinates":[[[[2.3006045,48.8926722],[2.3016403,48.8918925],[2.3015726,48.8918467],[2.3030274,48.8907076],[2.3037868,48.8911506],[2.3039079,48.8910646],[2.3040132,48.8911437],[2.3040895,48.8910742],[2.3051299,48.891766],[2.3063491,48.8921308],[2.3059435,48.8923756],[2.3062341,48.8925347],[2.3060629,48.892637],[2.3057531,48.8924994],[2.3043163,48.8934018],[2.3042173,48.8933398],[2.3041847,48.8933625],[2.303792,48.8931241],[2.3028136,48.8937088],[2.3006045,48.8926722]]]]},"properties":{"code_section":"75117000BZ","code_commune":"75117","section_courte":"BZ"}},{"type":"Feature","geometry":{"type":"MultiPolygon","coordinates":[[[[2.3056932,48.8950594],[2.3056698,48.8950725],[2.3028136,48.8937088],[2.303792,48.8931241],[2.3041847,48.8933625],[2.3042173,48.8933398],[2.3043163,48.8934018],[2.3057531,48.8924994],[2.3060629,48.892637],[2.3062341,48.8925347],[2.3071012,48.8930062],[2.3093797,48.8939227],[2.308438,48.8950419],[2.3068342,48.8944303],[2.3056932,48.8950594]]]]},"properties":{"code_section":"75117000CA","code_commune":"75117","section_courte":"CA"}},{"type":"Feature","geometry":{"type":"MultiPolygon","coordinates":[[[[2.3038946,48.8900593],[2.3084757,48.892232],[2.30812,48.8923608],[2.3071012,48.8930062],[2.3059435,48.8923756],[2.3063491,48.8921308],[2.3051299,48.891766],[2.3040895,48.8910742],[2.3040132,48.8911437],[2.3039079,48.8910646],[2.3037868,48.8911506],[2.3030274,48.8907076],[2.3038946,48.8900593]]]]},"properties":{"code_section":"75117000CB","code_commune":"75117","section_courte":"CB"}},{"type":"Feature","geometry":{"type":"MultiPolygon","coordinates":[[[[2.3043681,48.8902836],[2.3071987,48.8893322],[2.3074854,48.88954],[2.3068371,48.8899365],[2.3069394,48.890069],[2.3070133,48.8900442],[2.3076737,48.8905197],[2.3077464,48.8906916],[2.3077116,48.8907564],[2.3090377,48.8917288],[2.3083527,48.8921748],[2.3043681,48.8902836]]]]},"properties":{"code_section":"75117000CC","code_commune":"75117","section_courte":"CC"}},{"type":"Feature","geometry":{"type":"MultiPolygon","coordinates":[[[[2.3104491,48.8882506],[2.3043681,48.8902836],[2.3040299,48.8901207],[2.3074872,48.8875331],[2.3091005,48.8877516],[2.3099659,48.8878232],[2.3110619,48.8878697],[2.3104491,48.8882506]]]]},"properties":{"code_section":"75117000CD","code_commune":"75117","section_courte":"CD"}},{"type":"Feature","geometry":{"type":"MultiPolygon","coordinates":[[[[2.3092884,48.8886316],[2.309436,48.8888163],[2.3112881,48.8902341],[2.3099411,48.8910256],[2.310028,48.8910833],[2.3090377,48.8917288],[2.3077116,48.8907564],[2.3077464,48.8906916],[2.3076737,48.8905197],[2.3070133,48.8900442],[2.3069394,48.890069],[2.3068371,48.8899365],[2.3074854,48.88954],[2.3071987,48.8893322],[2.3092884,48.8886316]]]]},"properties":{"code_section":"75117000CE","code_commune":"75117","section_courte":"CE"}},{"type":"Feature","geometry":{"type":"MultiPolygon","coordinates":[[[[2.3092884,48.8886316],[2.3104491,48.8882506],[2.3110619,48.8878697],[2.3118218,48.8878173],[2.3123197,48.8877462],[2.3134146,48.8875241],[2.3141286,48.8873376],[2.3150091,48.8879353],[2.3152556,48.8881915],[2.3150979,48.8882841],[2.3149998,48.8882145],[2.3147212,48.888378],[2.3145377,48.8882436],[2.3143361,48.8883617],[2.3146517,48.8885938],[2.3131866,48.88946],[2.3129358,48.8892657],[2.3112881,48.8902341],[2.309436,48.8888163],[2.3092884,48.8886316]]]]},"properties":{"code_section":"75117000CF","code_commune":"75117","section_courte":"CF"}},{"type":"Feature","geometry":{"type":"MultiPolygon","coordinates":[[[[2.3108789,48.8851348],[2.3141286,48.8873376],[2.3134146,48.8875241],[2.3123197,48.8877462],[2.3118218,48.8878173],[2.3110619,48.8878697],[2.3099659,48.8878232],[2.3091005,48.8877516],[2.3074872,48.8875331],[2.310329,48.885401],[2.3108789,48.8851348]]]]},"properties":{"code_section":"75117000CG","code_commune":"75117","section_courte":"CG"}},{"type":"Feature","geometry":{"type":"MultiPolygon","coordinates":[[[[2.3136403,48.8838082],[2.3148339,48.8844874],[2.313998,48.8860962],[2.3131134,48.88665],[2.3108789,48.8851348],[2.3136403,48.8838082]]]]},"properties":{"code_section":"75117000CH","code_commune":"75117","section_courte":"CH"}},{"type":"Feature","geometry":{"type":"MultiPolygon","coordinates":[[[[2.313998,48.8860962],[2.3148339,48.8844874],[2.3168303,48.8856764],[2.3161575,48.8862637],[2.3155657,48.8866684],[2.3149951,48.8869801],[2.3141286,48.8873376],[2.3131134,48.88665],[2.313998,48.8860962]]]]},"properties":{"code_section":"75117000CI","code_commune":"75117","section_courte":"CI"}},{"type":"Feature","geometry":{"type":"MultiPolygon","coordinates":[[[[2.3176406,48.8828655],[2.3192608,48.8832862],[2.3168303,48.8856764],[2.3136403,48.8838082],[2.3147497,48.8828701],[2.3167072,48.8837386],[2.3176406,48.8828655]]]]},"properties":{"code_section":"75117000CJ","code_commune":"75117","section_courte":"CJ"}},{"type":"Feature","geometry":{"type":"MultiPolygon","coordinates":[[[[2.3167072,48.8837386],[2.3147497,48.8828701],[2.3164994,48.8813161],[2.3204528,48.8821069],[2.3192608,48.8832862],[2.3176406,48.8828655],[2.3167072,48.8837386]]]]},"properties":{"code_section":"75117000CK","code_commune":"75117","section_courte":"CK"}},{"type":"Feature","geometry":{"type":"MultiPolygon","coordinates":[[[[2.318799,48.8841621],[2.3185018,48.8840311],[2.3204528,48.8821069],[2.3243294,48.8828951],[2.320779,48.8850364],[2.318799,48.8841621]]]]},"properties":{"code_section":"75117000CL","code_commune":"75117","section_courte":"CL"}},{"type":"Feature","geometry":{"type":"MultiPolygon","coordinates":[[[[2.3254231,48.8852206],[2.3240854,48.8843435],[2.3224118,48.8840295],[2.3243294,48.8828951],[2.3274291,48.8835218],[2.3263574,48.8858311],[2.3254231,48.8852206]]]]},"properties":{"code_section":"75117000CM","code_commune":"75117","section_courte":"CM"}},{"type":"Feature","geometry":{"type":"MultiPolygon","coordinates":[[[[2.3254231,48.8852206],[2.3263574,48.8858311],[2.3255901,48.8874974],[2.3246271,48.8880312],[2.3230386,48.8869702],[2.3243008,48.8861254],[2.3254231,48.8852206]]]]},"properties":{"code_section":"75117000CN","code_commune":"75117","section_courte":"CN"}},{"type":"Feature","geometry":{"type":"MultiPolygon","coordinates":[[[[2.3224118,48.8840295],[2.3240854,48.8843435],[2.3254231,48.8852206],[2.3243008,48.8861254],[2.3230386,48.8869702],[2.320779,48.8850364],[2.3224118,48.8840295]]]]},"properties":{"code_section":"75117000CO","code_commune":"75117","section_courte":"CO"}},{"type":"Feature","geometry":{"type":"MultiPolygon","coordinates":[[[[2.320779,48.8850364],[2.3230386,48.8869702],[2.3210449,48.8881352],[2.3182949,48.886531],[2.320779,48.8850364]]]]},"properties":{"code_section":"75117000CP","code_commune":"75117","section_courte":"CP"}},{"type":"Feature","geometry":{"type":"MultiPolygon","coordinates":[[[[2.320779,48.8850364],[2.3182949,48.886531],[2.3168303,48.8856764],[2.3185018,48.8840311],[2.320779,48.8850364]]]]},"properties":{"code_section":"75117000CQ","code_commune":"75117","section_courte":"CQ"}},{"type":"Feature","geometry":{"type":"MultiPolygon","coordinates":[[[[2.3141286,48.8873376],[2.3149951,48.8869801],[2.3155657,48.8866684],[2.3161575,48.8862637],[2.3168303,48.8856764],[2.3201901,48.8876423],[2.3189492,48.8883672],[2.3183553,48.8877693],[2.3172834,48.8884131],[2.3167198,48.8879955],[2.3156554,48.8886272],[2.3150091,48.8879353],[2.3141286,48.8873376]]]]},"properties":{"code_section":"75117000CR","code_commune":"75117","section_courte":"CR"}},{"type":"Feature","geometry":{"type":"MultiPolygon","coordinates":[[[[2.3201901,48.8876423],[2.3210449,48.8881352],[2.3195468,48.8890002],[2.3172103,48.8902597],[2.3156554,48.8886272],[2.3167198,48.8879955],[2.3172834,48.8884131],[2.3183553,48.8877693],[2.3189492,48.8883672],[2.3201901,48.8876423]]]]},"properties":{"code_section":"75117000CS","code_commune":"75117","section_courte":"CS"}},{"type":"Feature","geometry":{"type":"MultiPolygon","coordinates":[[[[2.3149998,48.8882145],[2.3150979,48.8882841],[2.3152556,48.8881915],[2.3173374,48.8903896],[2.3171015,48.8905025],[2.317031,48.8904288],[2.3161067,48.890952],[2.3161214,48.890972],[2.3155139,48.8912628],[2.3147296,48.890653],[2.3147839,48.890623],[2.3141266,48.8901188],[2.3140754,48.890147],[2.3131866,48.88946],[2.3146517,48.8885938],[2.3143361,48.8883617],[2.3145377,48.8882436],[2.3147212,48.888378],[2.3149998,48.8882145]]]]},"properties":{"code_section":"75117000CT","code_commune":"75117","section_courte":"CT"}},{"type":"Feature","geometry":{"type":"MultiPolygon","coordinates":[[[[2.3112881,48.8902341],[2.3129358,48.8892657],[2.3140754,48.890147],[2.3141266,48.8901188],[2.3147839,48.890623],[2.3147296,48.890653],[2.3155139,48.8912628],[2.3131892,48.8924599],[2.3123391,48.8921827],[2.3114255,48.8920127],[2.3106775,48.8915154],[2.3106181,48.8915204],[2.3106195,48.8914769],[2.3099411,48.8910256],[2.3112881,48.8902341]]]]},"properties":{"code_section":"75117000CU","code_commune":"75117","section_courte":"CU"}},{"type":"Feature","geometry":{"type":"MultiPolygon","coordinates":[[[[2.3112851,48.8934568],[2.3102485,48.8930535],[2.3083527,48.8921748],[2.310028,48.8910833],[2.3106195,48.8914769],[2.3106181,48.8915204],[2.3106775,48.8915154],[2.3114255,48.8920127],[2.3123391,48.8921827],[2.3131933,48.8924591],[2.3112851,48.8934568]]]]},"properties":{"code_section":"75117000CV","code_commune":"75117","section_courte":"CV"}},{"type":"Feature","geometry":{"type":"MultiPolygon","coordinates":[[[[2.3084757,48.892232],[2.3104568,48.893143],[2.3136245,48.8943855],[2.3122904,48.8951426],[2.3120152,48.8949346],[2.3118447,48.8950326],[2.3112465,48.8943662],[2.311319,48.8943018],[2.3095397,48.893864],[2.3094696,48.8938172],[2.3093797,48.8939227],[2.3071012,48.8930062],[2.30812,48.8923608],[2.3084757,48.892232]]]]},"properties":{"code_section":"75117000CW","code_commune":"75117","section_courte":"CW"}},{"type":"Feature","geometry":{"type":"MultiPolygon","coordinates":[[[[2.3122904,48.8951426],[2.3095455,48.8967088],[2.3075013,48.8959381],[2.3056753,48.8950694],[2.3068342,48.8944303],[2.308438,48.8950419],[2.3094696,48.8938172],[2.3095397,48.893864],[2.311319,48.8943018],[2.3112465,48.8943662],[2.3118447,48.8950326],[2.3120152,48.8949346],[2.3122904,48.8951426]]]]},"properties":{"code_section":"75117000CX","code_commune":"75117","section_courte":"CX"}},{"type":"Feature","geometry":{"type":"MultiPolygon","coordinates":[[[[2.3145505,48.8960739],[2.3146323,48.8960391],[2.315978,48.8965521],[2.3133844,48.8980749],[2.3122744,48.8977377],[2.3095455,48.8967088],[2.3120565,48.8952754],[2.3136504,48.8964584],[2.3145505,48.8960739]]]]},"properties":{"code_section":"75117000CY","code_commune":"75117","section_courte":"CY"}},{"type":"Feature","geometry":{"type":"MultiPolygon","coordinates":[[[[2.3157492,48.8966859],[2.315978,48.8965521],[2.3200068,48.8980884],[2.3179129,48.8991165],[2.3185026,48.8996362],[2.3133964,48.898068],[2.3157492,48.8966859]]]]},"properties":{"code_section":"75117000CZ","code_commune":"75117","section_courte":"CZ"}},{"type":"Feature","geometry":{"type":"MultiPolygon","coordinates":[[[[2.3197449,48.8982163],[2.3200068,48.8980884],[2.3221182,48.8988928],[2.3232121,48.8986136],[2.3234821,48.8986119],[2.3239149,48.8990395],[2.3234809,48.9008683],[2.320386,48.9007641],[2.3185026,48.8996362],[2.3179129,48.8991165],[2.3197449,48.8982163]]]]},"properties":{"code_section":"75117000DA","code_commune":"75117","section_courte":"DA"}},{"type":"Feature","geometry":{"type":"MultiPolygon","coordinates":[[[[2.3184182,48.8961473],[2.3218486,48.8974336],[2.3232686,48.8974776],[2.3232121,48.8986136],[2.3221182,48.8988928],[2.31754,48.8971486],[2.3184182,48.8961473]]]]},"properties":{"code_section":"75117000DB","code_commune":"75117","section_courte":"DB"}},{"type":"Feature","geometry":{"type":"MultiPolygon","coordinates":[[[[2.3141005,48.8962663],[2.3136504,48.8964584],[2.3120565,48.8952754],[2.3136245,48.8943855],[2.3158363,48.8952179],[2.3162436,48.895318],[2.3184182,48.8961473],[2.31754,48.8971486],[2.3146323,48.8960391],[2.3141005,48.8962663]]]]},"properties":{"code_section":"75117000DC","code_commune":"75117","section_courte":"DC"}},{"type":"Feature","geometry":{"type":"MultiPolygon","coordinates":[[[[2.3160392,48.892979],[2.3170505,48.8938482],[2.3173994,48.893739],[2.3175619,48.8939524],[2.3186065,48.8936204],[2.3193118,48.8946204],[2.3181201,48.8949034],[2.318452,48.8950338],[2.3183477,48.8961203],[2.3162436,48.895318],[2.3158363,48.8952179],[2.3136245,48.8943855],[2.3160392,48.892979]]]]},"properties":{"code_section":"75117000DD","code_commune":"75117","section_courte":"DD"}},{"type":"Feature","geometry":{"type":"MultiPolygon","coordinates":[[[[2.3145442,48.8938498],[2.3136245,48.8943855],[2.3112851,48.8934568],[2.3139036,48.8920787],[2.3147157,48.8925673],[2.3155584,48.8932591],[2.3145442,48.8938498]]]]},"properties":{"code_section":"75117000DE","code_commune":"75117","section_courte":"DE"}},{"type":"Feature","geometry":{"type":"MultiPolygon","coordinates":[[[[2.3155139,48.8912628],[2.3161214,48.890972],[2.3161067,48.890952],[2.317031,48.8904288],[2.3171015,48.8905025],[2.3173374,48.8903896],[2.3184936,48.8915668],[2.3155584,48.8932591],[2.3147157,48.8925673],[2.3139036,48.8920787],[2.3155139,48.8912628]]]]},"properties":{"code_section":"75117000DF","code_commune":"75117","section_courte":"DF"}},{"type":"Feature","geometry":{"type":"MultiPolygon","coordinates":[[[[2.3160392,48.892979],[2.3184936,48.8915668],[2.3206145,48.8942286],[2.3198752,48.8944871],[2.3193118,48.8946204],[2.3186065,48.8936204],[2.3175619,48.8939524],[2.3173994,48.893739],[2.3170505,48.8938482],[2.3160392,48.892979]]]]},"properties":{"code_section":"75117000DG","code_commune":"75117","section_courte":"DG"}},{"type":"Feature","geometry":{"type":"MultiPolygon","coordinates":[[[[2.3190444,48.8912362],[2.3211903,48.8916998],[2.3226575,48.8935731],[2.3206145,48.8942286],[2.3184936,48.8915668],[2.3190444,48.8912362]]]]},"properties":{"code_section":"75117000DH","code_commune":"75117","section_courte":"DH"}},{"type":"Feature","geometry":{"type":"MultiPolygon","coordinates":[[[[2.318769,48.8914017],[2.3184936,48.8915668],[2.3172103,48.8902597],[2.3186814,48.8894613],[2.3201872,48.890587],[2.3217137,48.8897068],[2.3238476,48.8914715],[2.3223497,48.891942],[2.3190444,48.8912362],[2.318769,48.8914017]]]]},"properties":{"code_section":"75117000DI","code_commune":"75117","section_courte":"DI"}},{"type":"Feature","geometry":{"type":"MultiPolygon","coordinates":[[[[2.3210449,48.8881352],[2.3227334,48.8891187],[2.3201872,48.890587],[2.3186814,48.8894613],[2.3195468,48.8890002],[2.3210449,48.8881352]]]]},"properties":{"code_section":"75117000DJ","code_commune":"75117","section_courte":"DJ"}},{"type":"Feature","geometry":{"type":"MultiPolygon","coordinates":[[[[2.3230187,48.8889501],[2.3227334,48.8891187],[2.3210449,48.8881352],[2.3230386,48.8869702],[2.3246271,48.8880312],[2.3255901,48.8874974],[2.3259143,48.888533],[2.3249393,48.8888836],[2.3246603,48.8886692],[2.3237029,48.8890831],[2.3233042,48.8887815],[2.3230187,48.8889501]]]]},"properties":{"code_section":"75117000DK","code_commune":"75117","section_courte":"DK"}},{"type":"Feature","geometry":{"type":"MultiPolygon","coordinates":[[[[2.3241816,48.8888762],[2.3246603,48.8886692],[2.3249393,48.8888836],[2.3259143,48.888533],[2.326616,48.8905828],[2.3238476,48.8914715],[2.3217137,48.8897068],[2.3233042,48.8887815],[2.3237029,48.8890831],[2.3241816,48.8888762]]]]},"properties":{"code_section":"75117000DL","code_commune":"75117","section_courte":"DL"}},{"type":"Feature","geometry":{"type":"MultiPolygon","coordinates":[[[[2.3238476,48.8914715],[2.326616,48.8905828],[2.3274433,48.893055],[2.3249147,48.8935579],[2.3234147,48.8935077],[2.3226575,48.8935731],[2.3211903,48.8916998],[2.3223497,48.891942],[2.3238476,48.8914715]]]]},"properties":{"code_section":"75117000DM","code_commune":"75117","section_courte":"DM"}},{"type":"Feature","geometry":{"type":"MultiPolygon","coordinates":[[[[2.3274433,48.893055],[2.328291,48.8955593],[2.3270443,48.8955802],[2.325391,48.8957288],[2.3251188,48.8957908],[2.3236903,48.8958365],[2.3221305,48.8937415],[2.3226575,48.8935731],[2.3234147,48.8935077],[2.3249147,48.8935579],[2.3274433,48.893055]]]]},"properties":{"code_section":"75117000DN","code_commune":"75117","section_courte":"DN"}},{"type":"Feature","geometry":{"type":"MultiPolygon","coordinates":[[[[2.3193118,48.8946204],[2.3198752,48.8944871],[2.3221305,48.8937415],[2.3236903,48.8958365],[2.3229498,48.8958117],[2.3230115,48.8958847],[2.3218642,48.8957937],[2.3219601,48.8959171],[2.320999,48.8957849],[2.3199479,48.8955795],[2.3197435,48.8955695],[2.3188023,48.8953101],[2.3184354,48.89519],[2.318452,48.8950338],[2.3181201,48.8949034],[2.3193118,48.8946204]]]]},"properties":{"code_section":"75117000DO","code_commune":"75117","section_courte":"DO"}},{"type":"Feature","geometry":{"type":"MultiPolygon","coordinates":[[[[2.322438,48.8958392],[2.3230115,48.8958847],[2.3243411,48.897503],[2.3218486,48.8974336],[2.3183477,48.8961203],[2.3184354,48.89519],[2.3197435,48.8955695],[2.3199479,48.8955795],[2.320999,48.8957849],[2.3219601,48.8959171],[2.3218642,48.8957937],[2.322438,48.8958392]]]]},"properties":{"code_section":"75117000DP","code_commune":"75117","section_courte":"DP"}},{"type":"Feature","geometry":{"type":"MultiPolygon","coordinates":[[[[2.328291,48.8955593],[2.3289847,48.8976282],[2.3243411,48.897503],[2.3229498,48.8958117],[2.3244609,48.8958282],[2.3251188,48.8957908],[2.325391,48.8957288],[2.3265742,48.8956119],[2.327441,48.8955636],[2.328291,48.8955593]]]]},"properties":{"code_section":"75117000DQ","code_commune":"75117","section_courte":"DQ"}},{"type":"Feature","geometry":{"type":"MultiPolygon","coordinates":[[[[2.3238718,48.8989969],[2.3234821,48.8986119],[2.3232121,48.8986136],[2.3232686,48.8974776],[2.3289847,48.8976282],[2.3294602,48.8989935],[2.3239553,48.8988631],[2.3239149,48.8990395],[2.3238718,48.8989969]]]]},"properties":{"code_section":"75117000DR","code_commune":"75117","section_courte":"DR"}},{"type":"Feature","geometry":{"type":"MultiPolygon","coordinates":[[[[2.3238849,48.8991555],[2.3239553,48.8988631],[2.3294602,48.8989935],[2.3301499,48.9010373],[2.3263913,48.9009662],[2.3234809,48.9008683],[2.3238849,48.8991555]]]]},"properties":{"code_section":"75117000DS","code_commune":"75117","section_courte":"DS"}}]}