{"type":"FeatureCollection","features":[{"type":"Feature","geometry":{"type":"MultiPolygon","coordinates":[[[[2.3336351,48.899023],[2.334362,48.8990375],[2.3344398,48.8991352],[2.3347362,48.8991416],[2.3346803,48.900476],[2.3354918,48.9004905],[2.3351027,48.901147],[2.3301499,48.9010373],[2.3294406,48.8989371],[2.3336351,48.899023]]]]},"properties":{"code_section":"75118000AA","code_commune":"75118","section_courte":"AA"}},{"type":"Feature","geometry":{"type":"MultiPolygon","coordinates":[[[[2.3346803,48.900476],[2.3347362,48.8991416],[2.3400958,48.8992568],[2.3400251,48.9012494],[2.3351027,48.901147],[2.3354918,48.9004905],[2.3346803,48.900476]]]]},"properties":{"code_section":"75118000AB","code_commune":"75118","section_courte":"AB"}},{"type":"Feature","geometry":{"type":"MultiPolygon","coordinates":[[[[2.3342643,48.8989148],[2.3354965,48.8977503],[2.3391794,48.8978411],[2.3401084,48.8990437],[2.3400958,48.8992568],[2.3344398,48.8991352],[2.3342643,48.8989148]]]]},"properties":{"code_section":"75118000AC","code_commune":"75118","section_courte":"AC"}},{"type":"Feature","geometry":{"type":"MultiPolygon","coordinates":[[[[2.3342643,48.8989148],[2.334362,48.8990375],[2.3294406,48.8989371],[2.3289847,48.8976282],[2.3354965,48.8977503],[2.3342643,48.8989148]]]]},"properties":{"code_section":"75118000AD","code_commune":"75118","section_courte":"AD"}},{"type":"Feature","geometry":{"type":"MultiPolygon","coordinates":[[[[2.3296448,48.895636],[2.332971,48.8960583],[2.3330766,48.8962688],[2.3341136,48.897716],[2.3289847,48.8976282],[2.3282822,48.8955337],[2.3296448,48.895636]]]]},"properties":{"code_section":"75118000AE","code_commune":"75118","section_courte":"AE"}},{"type":"Feature","geometry":{"type":"MultiPolygon","coordinates":[[[[2.3381232,48.8961103],[2.3385431,48.8966883],[2.3374115,48.8977968],[2.3341136,48.897716],[2.3330766,48.8962688],[2.332971,48.8960583],[2.3360578,48.8964588],[2.3381232,48.8961103]]]]},"properties":{"code_section":"75118000AF","code_commune":"75118","section_courte":"AF"}},{"type":"Feature","geometry":{"type":"MultiPolygon","coordinates":[[[[2.3360578,48.8964588],[2.332971,48.8960583],[2.3324896,48.8941658],[2.3363485,48.8936273],[2.3381232,48.8961103],[2.3360578,48.8964588]]]]},"properties":{"code_section":"75118000AG","code_commune":"75118","section_courte":"AG"}},{"type":"Feature","geometry":{"type":"MultiPolygon","coordinates":[[[[2.3324896,48.8941658],[2.332971,48.8960583],[2.3296448,48.895636],[2.3282822,48.8955337],[2.3274353,48.8930309],[2.3324896,48.8941658]]]]},"properties":{"code_section":"75118000AH","code_commune":"75118","section_courte":"AH"}},{"type":"Feature","geometry":{"type":"MultiPolygon","coordinates":[[[[2.3335101,48.8918547],[2.3338964,48.8917776],[2.3349821,48.8916709],[2.3363485,48.8936273],[2.3324896,48.8941658],[2.3301072,48.8936182],[2.3305152,48.8924508],[2.3335101,48.8918547]]]]},"properties":{"code_section":"75118000AI","code_commune":"75118","section_courte":"AI"}},{"type":"Feature","geometry":{"type":"MultiPolygon","coordinates":[[[[2.3301072,48.8936182],[2.3274353,48.8930309],[2.326873,48.8913506],[2.3314063,48.8909677],[2.3335101,48.8918547],[2.3305152,48.8924508],[2.3301072,48.8936182]]]]},"properties":{"code_section":"75118000AJ","code_commune":"75118","section_courte":"AJ"}},{"type":"Feature","geometry":{"type":"MultiPolygon","coordinates":[[[[2.3337693,48.8894963],[2.3342118,48.8894005],[2.3347415,48.8892204],[2.3349298,48.8893862],[2.3351125,48.889453],[2.3357548,48.8895045],[2.3357097,48.8899763],[2.3357989,48.8903493],[2.3343112,48.8905522],[2.3349821,48.8916709],[2.3338964,48.8917776],[2.3335101,48.8918547],[2.3314063,48.8909677],[2.3310275,48.8909828],[2.3318459,48.888611],[2.3324988,48.8895272],[2.3329299,48.8894031],[2.333375,48.8894414],[2.3334099,48.8893547],[2.3335713,48.8893405],[2.3336809,48.8895193],[2.3337693,48.8894963]]]]},"properties":{"code_section":"75118000AK","code_commune":"75118","section_courte":"AK"}},{"type":"Feature","geometry":{"type":"MultiPolygon","coordinates":[[[[2.326616,48.8905828],[2.3262816,48.8896058],[2.3278815,48.8887983],[2.3287461,48.8897929],[2.3292774,48.8900631],[2.3318003,48.888742],[2.3310275,48.8909828],[2.326873,48.8913506],[2.326616,48.8905828]]]]},"properties":{"code_section":"75118000AL","code_commune":"75118","section_courte":"AL"}},{"type":"Feature","geometry":{"type":"MultiPolygon","coordinates":[[[[2.3259143,48.888533],[2.3257541,48.8880213],[2.3263614,48.8878336],[2.3268647,48.8874865],[2.3269641,48.8874536],[2.3271481,48.8875915],[2.3276953,48.8876072],[2.3280755,48.8877845],[2.3282021,48.8876695],[2.3294635,48.8884585],[2.3302124,48.8879423],[2.3305852,48.8881822],[2.3311123,48.8883227],[2.3313926,48.888366],[2.3315461,48.8884547],[2.3315978,48.888566],[2.3318459,48.888611],[2.3318003,48.888742],[2.3292774,48.8900631],[2.3287461,48.8897929],[2.3278815,48.8887983],[2.3262816,48.8896058],[2.3259143,48.888533]]]]},"properties":{"code_section":"75118000AM","code_commune":"75118","section_courte":"AM"}},{"type":"Feature","geometry":{"type":"MultiPolygon","coordinates":[[[[2.3325665,48.8865644],[2.3318459,48.888611],[2.3315978,48.888566],[2.3315461,48.8884547],[2.3313926,48.888366],[2.3311123,48.8883227],[2.3305852,48.8881822],[2.3302124,48.8879423],[2.3294635,48.8884585],[2.3282021,48.8876695],[2.3286452,48.8872645],[2.3277359,48.8867088],[2.3286416,48.8859167],[2.3291531,48.8856222],[2.329599,48.8859422],[2.3303053,48.8856162],[2.330689,48.8854994],[2.3307855,48.885435],[2.3310054,48.8855765],[2.3311123,48.8855036],[2.3314402,48.8860925],[2.332202,48.8865812],[2.3323847,48.8864606],[2.3325665,48.8865644]]]]},"properties":{"code_section":"75118000AN","code_commune":"75118","section_courte":"AN"}},{"type":"Feature","geometry":{"type":"MultiPolygon","coordinates":[[[[2.3269641,48.8874536],[2.3268647,48.8874865],[2.3263614,48.8878336],[2.3257541,48.8880213],[2.3255901,48.8874974],[2.3267836,48.8849132],[2.3278283,48.8851557],[2.3289026,48.8857665],[2.3286416,48.8859167],[2.3277359,48.8867088],[2.3286452,48.8872645],[2.3280755,48.8877845],[2.3276953,48.8876072],[2.3271481,48.8875915],[2.3269641,48.8874536]]]]},"properties":{"code_section":"75118000AO","code_commune":"75118","section_courte":"AO"}},{"type":"Feature","geometry":{"type":"MultiPolygon","coordinates":[[[[2.3267836,48.8849132],[2.3274291,48.8835218],[2.3278388,48.8836091],[2.3281403,48.8837082],[2.3307855,48.885435],[2.330689,48.8854994],[2.3303053,48.8856162],[2.329599,48.8859422],[2.3291531,48.8856222],[2.3289026,48.8857665],[2.3278283,48.8851557],[2.3267836,48.8849132]]]]},"properties":{"code_section":"75118000AP","code_commune":"75118","section_courte":"AP"}},{"type":"Feature","geometry":{"type":"MultiPolygon","coordinates":[[[[2.3294429,48.8845532],[2.3324419,48.8838495],[2.3326861,48.8837703],[2.3347779,48.8858339],[2.3345369,48.8859557],[2.3339597,48.8861161],[2.3326075,48.8865879],[2.3323847,48.8864606],[2.332202,48.8865812],[2.3314402,48.8860925],[2.3311123,48.8855036],[2.3310054,48.8855765],[2.3294429,48.8845532]]]]},"properties":{"code_section":"75118000AQ","code_commune":"75118","section_courte":"AQ"}},{"type":"Feature","geometry":{"type":"MultiPolygon","coordinates":[[[[2.334325,48.885391],[2.3326861,48.8837703],[2.3370496,48.8824666],[2.3373039,48.8823953],[2.3378239,48.8823078],[2.3390999,48.8839314],[2.3385588,48.8841672],[2.3380341,48.8845318],[2.337737,48.8847833],[2.3375355,48.8850188],[2.3374427,48.8848749],[2.33721,48.8849758],[2.3369467,48.8843487],[2.334325,48.885391]]]]},"properties":{"code_section":"75118000AR","code_commune":"75118","section_courte":"AR"}},{"type":"Feature","geometry":{"type":"MultiPolygon","coordinates":[[[[2.3374427,48.8848749],[2.3379563,48.8856485],[2.3378891,48.885894],[2.3380093,48.8862388],[2.3382679,48.8863313],[2.338753,48.8862977],[2.3390875,48.8867132],[2.3393204,48.8869069],[2.3390616,48.8867984],[2.3387709,48.8867492],[2.3384537,48.8867878],[2.3375005,48.8872203],[2.3371422,48.8872771],[2.3361566,48.8873541],[2.3355978,48.8865926],[2.3338778,48.8871389],[2.3333602,48.8874894],[2.3326075,48.8865879],[2.3339597,48.8861161],[2.3345369,48.8859557],[2.3347779,48.8858339],[2.334325,48.885391],[2.3369467,48.8843487],[2.33721,48.8849758],[2.3374427,48.8848749]]]]},"properties":{"code_section":"75118000AS","code_commune":"75118","section_courte":"AS"}},{"type":"Feature","geometry":{"type":"MultiPolygon","coordinates":[[[[2.3358922,48.8874382],[2.3362732,48.8880363],[2.3358177,48.8881786],[2.3355796,48.88837],[2.3355142,48.8885595],[2.3355797,48.8887507],[2.3358149,48.8889423],[2.3357548,48.8895045],[2.3351125,48.889453],[2.3349298,48.8893862],[2.3347415,48.8892204],[2.3342118,48.8894005],[2.3336809,48.8895193],[2.3335713,48.8893405],[2.3334099,48.8893547],[2.333375,48.8894414],[2.3329299,48.8894031],[2.3324988,48.8895272],[2.3318459,48.888611],[2.3325665,48.8865644],[2.3333602,48.8874894],[2.3338778,48.8871389],[2.3355978,48.8865926],[2.3361566,48.8873541],[2.3358597,48.8873871],[2.3358922,48.8874382]]]]},"properties":{"code_section":"75118000AT","code_commune":"75118","section_courte":"AT"}},{"type":"Feature","geometry":{"type":"MultiPolygon","coordinates":[[[[2.3358177,48.8881786],[2.3362732,48.8880363],[2.3358597,48.8873871],[2.3371422,48.8872771],[2.3375005,48.8872203],[2.3384537,48.8867878],[2.3387709,48.8867492],[2.3390616,48.8867984],[2.3393204,48.8869069],[2.3394842,48.8870468],[2.3396944,48.8870309],[2.3397599,48.888243],[2.3401884,48.8896837],[2.3357548,48.8895045],[2.3358149,48.8889423],[2.3355797,48.8887507],[2.3355142,48.8885595],[2.3355796,48.88837],[2.3358177,48.8881786]]]]},"properties":{"code_section":"75118000AU","code_commune":"75118","section_courte":"AU"}},{"type":"Feature","geometry":{"type":"MultiPolygon","coordinates":[[[[2.3357187,48.8901056],[2.3357548,48.8895045],[2.3401884,48.8896837],[2.3406555,48.8912698],[2.339614,48.8911545],[2.3393509,48.8912223],[2.3349821,48.8916709],[2.3343112,48.8905522],[2.3357989,48.8903493],[2.3357187,48.8901056]]]]},"properties":{"code_section":"75118000AV","code_commune":"75118","section_courte":"AV"}},{"type":"Feature","geometry":{"type":"MultiPolygon","coordinates":[[[[2.339614,48.8911545],[2.3402177,48.8931046],[2.3363485,48.8936273],[2.3349821,48.8916709],[2.3393509,48.8912223],[2.339614,48.8911545]]]]},"properties":{"code_section":"75118000AW","code_commune":"75118","section_courte":"AW"}},{"type":"Feature","geometry":{"type":"MultiPolygon","coordinates":[[[[2.3402177,48.8931046],[2.3407458,48.8948344],[2.3413606,48.8957769],[2.3395421,48.8957502],[2.3375564,48.8953122],[2.3363485,48.8936273],[2.3402177,48.8931046]]]]},"properties":{"code_section":"75118000AX","code_commune":"75118","section_courte":"AX"}},{"type":"Feature","geometry":{"type":"MultiPolygon","coordinates":[[[[2.3427298,48.8979155],[2.3374115,48.8977968],[2.3385431,48.8966883],[2.3375564,48.8953122],[2.3395421,48.8957502],[2.3413606,48.8957769],[2.3427298,48.8979155]]]]},"properties":{"code_section":"75118000AY","code_commune":"75118","section_courte":"AY"}},{"type":"Feature","geometry":{"type":"MultiPolygon","coordinates":[[[[2.3391794,48.8978411],[2.344162,48.8979481],[2.3441088,48.899308],[2.3400978,48.8992252],[2.3401084,48.8990437],[2.3391794,48.8978411]]]]},"properties":{"code_section":"75118000AZ","code_commune":"75118","section_courte":"AZ"}},{"type":"Feature","geometry":{"type":"MultiPolygon","coordinates":[[[[2.3441166,48.9013314],[2.3400251,48.9012494],[2.3400978,48.8992252],[2.3441088,48.899308],[2.3441166,48.9013314]]]]},"properties":{"code_section":"75118000BA","code_commune":"75118","section_courte":"BA"}},{"type":"Feature","geometry":{"type":"MultiPolygon","coordinates":[[[[2.3474989,48.9014002],[2.3441166,48.9013314],[2.344101,48.8994428],[2.3475945,48.8995068],[2.3474989,48.9014002]]]]},"properties":{"code_section":"75118000BB","code_commune":"75118","section_courte":"BB"}},{"type":"Feature","geometry":{"type":"MultiPolygon","coordinates":[[[[2.3454673,48.8994679],[2.344101,48.8994428],[2.344162,48.8979481],[2.3446893,48.897556],[2.3469218,48.8978083],[2.3468335,48.8994928],[2.3454673,48.8994679]]]]},"properties":{"code_section":"75118000BC","code_commune":"75118","section_courte":"BC"}},{"type":"Feature","geometry":{"type":"MultiPolygon","coordinates":[[[[2.3434763,48.896169],[2.3433928,48.8957943],[2.3461786,48.895835],[2.3472314,48.8978212],[2.3463529,48.8977582],[2.3446893,48.897556],[2.344162,48.8979481],[2.3427298,48.8979155],[2.3420454,48.8968314],[2.3436278,48.8964055],[2.3434763,48.896169]]]]},"properties":{"code_section":"75118000BD","code_commune":"75118","section_courte":"BD"}},{"type":"Feature","geometry":{"type":"MultiPolygon","coordinates":[[[[2.3434763,48.896169],[2.3436278,48.8964055],[2.3420454,48.8968314],[2.3407458,48.8948344],[2.3414481,48.8942516],[2.3418386,48.8949992],[2.3422016,48.8951181],[2.3431159,48.8949147],[2.3453635,48.8943264],[2.3461786,48.895835],[2.3433928,48.8957943],[2.3434763,48.896169]]]]},"properties":{"code_section":"75118000BE","code_commune":"75118","section_courte":"BE"}},{"type":"Feature","geometry":{"type":"MultiPolygon","coordinates":[[[[2.3491029,48.8933932],[2.3495626,48.8954717],[2.348299,48.8956059],[2.3484051,48.8958495],[2.346399,48.8962518],[2.3453635,48.8943264],[2.3479208,48.8936532],[2.3480249,48.893586],[2.3491029,48.8933932]]]]},"properties":{"code_section":"75118000BF","code_commune":"75118","section_courte":"BF"}},{"type":"Feature","geometry":{"type":"MultiPolygon","coordinates":[[[[2.3479731,48.8936195],[2.3479208,48.8936532],[2.3453635,48.8943264],[2.3450104,48.8936662],[2.3443059,48.8925289],[2.3487333,48.8917151],[2.3491029,48.8933932],[2.3480249,48.893586],[2.3479731,48.8936195]]]]},"properties":{"code_section":"75118000BG","code_commune":"75118","section_courte":"BG"}},{"type":"Feature","geometry":{"type":"MultiPolygon","coordinates":[[[[2.3410969,48.894543],[2.3407458,48.8948344],[2.3402177,48.8931046],[2.3443059,48.8925289],[2.3450104,48.8936662],[2.3453635,48.8943264],[2.3431159,48.8949147],[2.3422016,48.8951181],[2.3418386,48.8949992],[2.3414481,48.8942516],[2.3410969,48.894543]]]]},"properties":{"code_section":"75118000BH","code_commune":"75118","section_courte":"BH"}},{"type":"Feature","geometry":{"type":"MultiPolygon","coordinates":[[[[2.3442931,48.8910811],[2.3449929,48.8924],[2.3443059,48.8925289],[2.3402177,48.8931046],[2.339614,48.8911545],[2.3409408,48.8913057],[2.3435866,48.8912145],[2.3442931,48.8910811]]]]},"properties":{"code_section":"75118000BI","code_commune":"75118","section_courte":"BI"}},{"type":"Feature","geometry":{"type":"MultiPolygon","coordinates":[[[[2.3443132,48.8911104],[2.3468394,48.8903119],[2.3473725,48.8903255],[2.3484506,48.8904344],[2.3487333,48.8917151],[2.3449929,48.8924],[2.3443132,48.8911104]]]]},"properties":{"code_section":"75118000BJ","code_commune":"75118","section_courte":"BJ"}},{"type":"Feature","geometry":{"type":"MultiPolygon","coordinates":[[[[2.3456167,48.8890575],[2.3465803,48.8887957],[2.3459776,48.8898267],[2.3453628,48.8907682],[2.3443132,48.8911104],[2.3442931,48.8910811],[2.3435866,48.8912145],[2.3409408,48.8913057],[2.3406555,48.8912698],[2.3401663,48.8896197],[2.3438601,48.8889304],[2.3446529,48.8893192],[2.3456167,48.8890575]]]]},"properties":{"code_section":"75118000BK","code_commune":"75118","section_courte":"BK"}},{"type":"Feature","geometry":{"type":"MultiPolygon","coordinates":[[[[2.3451233,48.8870129],[2.3450653,48.8863862],[2.3476259,48.8869225],[2.3465803,48.8887957],[2.3446529,48.8893192],[2.3438601,48.8889304],[2.3437541,48.8889494],[2.3433965,48.8882278],[2.3433372,48.8879397],[2.3434327,48.8871502],[2.3447351,48.8875721],[2.3451812,48.8876395],[2.3451233,48.8870129]]]]},"properties":{"code_section":"75118000BL","code_commune":"75118","section_courte":"BL"}},{"type":"Feature","geometry":{"type":"MultiPolygon","coordinates":[[[[2.3415039,48.8873794],[2.3414114,48.8871444],[2.3424201,48.8870026],[2.3428058,48.8872463],[2.3429645,48.8872848],[2.3434133,48.8873054],[2.3433372,48.8879397],[2.3433965,48.8882278],[2.3437541,48.8889494],[2.3401663,48.8896197],[2.3397599,48.888243],[2.3397338,48.8877845],[2.3409129,48.8876166],[2.3415964,48.8876146],[2.3415039,48.8873794]]]]},"properties":{"code_section":"75118000BM","code_commune":"75118","section_courte":"BM"}},{"type":"Feature","geometry":{"type":"MultiPolygon","coordinates":[[[[2.3392041,48.8868101],[2.338753,48.8862977],[2.3388508,48.8862901],[2.3424302,48.8852462],[2.3423705,48.885741],[2.3425071,48.8857493],[2.3430307,48.8858803],[2.3436803,48.8859235],[2.3438086,48.8859872],[2.3439108,48.8861041],[2.3450653,48.8863862],[2.3451812,48.8876395],[2.3447351,48.8875721],[2.3434327,48.8871502],[2.3434133,48.8873054],[2.3429645,48.8872848],[2.3426804,48.8871859],[2.3424201,48.8870026],[2.3414114,48.8871444],[2.3415964,48.8876146],[2.3409129,48.8876166],[2.3397338,48.8877845],[2.3396944,48.8870309],[2.3394842,48.8870468],[2.3392041,48.8868101]]]]},"properties":{"code_section":"75118000BN","code_commune":"75118","section_courte":"BN"}},{"type":"Feature","geometry":{"type":"MultiPolygon","coordinates":[[[[2.3388087,48.8843009],[2.3414038,48.8839882],[2.341571,48.884062],[2.3425423,48.884296],[2.3424302,48.8852462],[2.3388508,48.8862901],[2.3381892,48.8863206],[2.3380093,48.8862388],[2.3378891,48.885894],[2.3379563,48.8856485],[2.3375355,48.8850188],[2.337737,48.8847833],[2.3380341,48.8845318],[2.3385588,48.8841672],[2.3386222,48.8841353],[2.3388087,48.8843009]]]]},"properties":{"code_section":"75118000BO","code_commune":"75118","section_courte":"BO"}},{"type":"Feature","geometry":{"type":"MultiPolygon","coordinates":[[[[2.3450041,48.8858509],[2.3450653,48.8863862],[2.3439108,48.8861041],[2.3438086,48.8859872],[2.3436803,48.8859235],[2.3430307,48.8858803],[2.3425071,48.8857493],[2.3423705,48.885741],[2.3425423,48.884296],[2.342701,48.8843341],[2.3448459,48.8844558],[2.3450041,48.8858509]]]]},"properties":{"code_section":"75118000BP","code_commune":"75118","section_courte":"BP"}},{"type":"Feature","geometry":{"type":"MultiPolygon","coordinates":[[[[2.3384619,48.8831196],[2.3378239,48.8823078],[2.339816,48.8820235],[2.343904,48.8828226],[2.3433141,48.8843681],[2.342701,48.8843341],[2.341571,48.884062],[2.3414038,48.8839882],[2.3388087,48.8843009],[2.3386222,48.8841353],[2.3390999,48.8839314],[2.3384619,48.8831196]]]]},"properties":{"code_section":"75118000BQ","code_commune":"75118","section_courte":"BQ"}},{"type":"Feature","geometry":{"type":"MultiPolygon","coordinates":[[[[2.3495056,48.8837254],[2.3494751,48.8838018],[2.3494922,48.8844792],[2.3472676,48.8850437],[2.3471797,48.8846001],[2.3448862,48.8848182],[2.3448459,48.8844558],[2.3433141,48.8843681],[2.343904,48.8828226],[2.3469503,48.8834207],[2.3495056,48.8837254]]]]},"properties":{"code_section":"75118000BR","code_commune":"75118","section_courte":"BR"}},{"type":"Feature","geometry":{"type":"MultiPolygon","coordinates":[[[[2.349802,48.8856443],[2.3507366,48.8867063],[2.3475338,48.8862967],[2.3476565,48.8868696],[2.3476259,48.8869225],[2.3450653,48.8863862],[2.3448862,48.8848182],[2.3471797,48.8846001],[2.3472676,48.8850437],[2.3494922,48.8844792],[2.3495119,48.8853272],[2.349802,48.8856443]]]]},"properties":{"code_section":"75118000BS","code_commune":"75118","section_courte":"BS"}},{"type":"Feature","geometry":{"type":"MultiPolygon","coordinates":[[[[2.3475952,48.8865831],[2.3475338,48.8862967],[2.3507366,48.8867063],[2.3509981,48.8871662],[2.3515265,48.8882934],[2.3480062,48.8884021],[2.3465803,48.8887957],[2.3476565,48.8868696],[2.3475952,48.8865831]]]]},"properties":{"code_section":"75118000BT","code_commune":"75118","section_courte":"BT"}},{"type":"Feature","geometry":{"type":"MultiPolygon","coordinates":[[[[2.3465803,48.8887957],[2.3480062,48.8884021],[2.3515265,48.8882934],[2.3515662,48.8883688],[2.3516327,48.8891594],[2.351459,48.8904651],[2.3508075,48.8905796],[2.3484506,48.8904344],[2.3473725,48.8903255],[2.3468394,48.8903119],[2.3453628,48.8907682],[2.3459776,48.8898267],[2.3465803,48.8887957]]]]},"properties":{"code_section":"75118000BU","code_commune":"75118","section_courte":"BU"}},{"type":"Feature","geometry":{"type":"MultiPolygon","coordinates":[[[[2.3487333,48.8917151],[2.3484506,48.8904344],[2.3508075,48.8905796],[2.351459,48.8904651],[2.3516738,48.8913806],[2.3523442,48.8926484],[2.3490729,48.8932708],[2.3487333,48.8917151]]]]},"properties":{"code_section":"75118000BV","code_commune":"75118","section_courte":"BV"}},{"type":"Feature","geometry":{"type":"MultiPolygon","coordinates":[[[[2.3523442,48.8926484],[2.3526192,48.893179],[2.3528355,48.8942155],[2.3529067,48.8951137],[2.3495626,48.8954717],[2.3490729,48.8932708],[2.3523442,48.8926484]]]]},"properties":{"code_section":"75118000BW","code_commune":"75118","section_courte":"BW"}},{"type":"Feature","geometry":{"type":"MultiPolygon","coordinates":[[[[2.3495626,48.8954717],[2.3529067,48.8951137],[2.3529442,48.8956342],[2.3529129,48.8959547],[2.3527113,48.8971531],[2.3525316,48.8979333],[2.3472314,48.8978212],[2.346399,48.8962518],[2.3484051,48.8958495],[2.348299,48.8956059],[2.3495626,48.8954717]]]]},"properties":{"code_section":"75118000BX","code_commune":"75118","section_courte":"BX"}},{"type":"Feature","geometry":{"type":"MultiPolygon","coordinates":[[[[2.3525043,48.898199],[2.3523238,48.8996091],[2.3468335,48.8994928],[2.3469218,48.8978083],[2.3525316,48.8979333],[2.3525043,48.898199]]]]},"properties":{"code_section":"75118000BY","code_commune":"75118","section_courte":"BY"}},{"type":"Feature","geometry":{"type":"MultiPolygon","coordinates":[[[[2.3475945,48.8995068],[2.3523238,48.8996091],[2.3519568,48.9014922],[2.3474989,48.9014002],[2.3475945,48.8995068]]]]},"properties":{"code_section":"75118000BZ","code_commune":"75118","section_courte":"BZ"}},{"type":"Feature","geometry":{"type":"MultiPolygon","coordinates":[[[[2.3519568,48.9014922],[2.3522439,48.900011],[2.3553466,48.9001857],[2.3551593,48.9015506],[2.3519568,48.9014922]]]]},"properties":{"code_section":"75118000CA","code_commune":"75118","section_courte":"CA"}},{"type":"Feature","geometry":{"type":"MultiPolygon","coordinates":[[[[2.3556057,48.898297],[2.3553466,48.9001857],[2.3522439,48.900011],[2.3525015,48.8982256],[2.3556057,48.898297]]]]},"properties":{"code_section":"75118000CB","code_commune":"75118","section_courte":"CB"}},{"type":"Feature","geometry":{"type":"MultiPolygon","coordinates":[[[[2.3531274,48.8982399],[2.3525015,48.8982256],[2.3529033,48.8960111],[2.3539671,48.896078],[2.3539729,48.8958916],[2.3540788,48.8958435],[2.3541117,48.8957462],[2.3558332,48.8957973],[2.355688,48.8979402],[2.3566854,48.8979733],[2.3566628,48.8983191],[2.3531274,48.8982399]]]]},"properties":{"code_section":"75118000CC","code_commune":"75118","section_courte":"CC"}},{"type":"Feature","geometry":{"type":"MultiPolygon","coordinates":[[[[2.3529033,48.8960111],[2.3529442,48.8956342],[2.3528355,48.8942155],[2.3526638,48.8934032],[2.3547512,48.893203],[2.3565188,48.8932589],[2.3563615,48.8952843],[2.3558689,48.8952719],[2.3558332,48.8957973],[2.3541117,48.8957462],[2.3540788,48.8958435],[2.3539729,48.8958916],[2.3539671,48.896078],[2.3529033,48.8960111]]]]},"properties":{"code_section":"75118000CD","code_commune":"75118","section_courte":"CD"}},{"type":"Feature","geometry":{"type":"MultiPolygon","coordinates":[[[[2.3526638,48.8934032],[2.3526192,48.893179],[2.3516738,48.8913806],[2.351459,48.8904651],[2.3537934,48.8903409],[2.3558127,48.8903775],[2.3563783,48.8903603],[2.3560809,48.8912587],[2.356113,48.8912615],[2.3552639,48.8932169],[2.3547512,48.893203],[2.3526638,48.8934032]]]]},"properties":{"code_section":"75118000CE","code_commune":"75118","section_courte":"CE"}},{"type":"Feature","geometry":{"type":"MultiPolygon","coordinates":[[[[2.35485,48.8878957],[2.356193,48.8880088],[2.3559476,48.8891695],[2.3558127,48.8903775],[2.3537934,48.8903409],[2.351459,48.8904651],[2.3516327,48.8891594],[2.3515662,48.8883688],[2.3513706,48.8879586],[2.3530062,48.8876327],[2.3534914,48.8876154],[2.353507,48.8877825],[2.35485,48.8878957]]]]},"properties":{"code_section":"75118000CF","code_commune":"75118","section_courte":"CF"}},{"type":"Feature","geometry":{"type":"MultiPolygon","coordinates":[[[[2.3532488,48.887624],[2.3530062,48.8876327],[2.3513706,48.8879586],[2.3507366,48.8867063],[2.350092,48.8859612],[2.3518075,48.8859538],[2.3521355,48.8859241],[2.3540273,48.8854174],[2.3545129,48.8857933],[2.3556193,48.885878],[2.3566127,48.8860393],[2.356193,48.8880088],[2.353507,48.8877825],[2.3534914,48.8876154],[2.3532488,48.887624]]]]},"properties":{"code_section":"75118000CG","code_commune":"75118","section_courte":"CG"}},{"type":"Feature","geometry":{"type":"MultiPolygon","coordinates":[[[[2.3547935,48.8847654],[2.3555139,48.8849224],[2.3555077,48.8850235],[2.3551645,48.885044],[2.355037,48.8858334],[2.3545129,48.8857933],[2.3540273,48.8854174],[2.3521355,48.8859241],[2.3518075,48.8859538],[2.350092,48.8859612],[2.3495119,48.8853272],[2.3494751,48.8838018],[2.3495056,48.8837254],[2.3541208,48.8840717],[2.3540734,48.8846083],[2.3547935,48.8847654]]]]},"properties":{"code_section":"75118000CH","code_commune":"75118","section_courte":"CH"}},{"type":"Feature","geometry":{"type":"MultiPolygon","coordinates":[[[[2.3555139,48.8849224],[2.3540734,48.8846083],[2.3541208,48.8840717],[2.359299,48.8844259],[2.3593513,48.8853575],[2.3594786,48.8861128],[2.3565973,48.8860857],[2.3566127,48.8860393],[2.3556193,48.885878],[2.355037,48.8858334],[2.3551645,48.885044],[2.3555077,48.8850235],[2.3555139,48.8849224]]]]},"properties":{"code_section":"75118000CI","code_commune":"75118","section_courte":"CI"}},{"type":"Feature","geometry":{"type":"MultiPolygon","coordinates":[[[[2.3560482,48.8887003],[2.3565973,48.8860857],[2.3594786,48.8861128],[2.3598358,48.8877937],[2.3598987,48.889064],[2.3560482,48.8887003]]]]},"properties":{"code_section":"75118000CJ","code_commune":"75118","section_courte":"CJ"}},{"type":"Feature","geometry":{"type":"MultiPolygon","coordinates":[[[[2.3598987,48.889064],[2.359904,48.8902768],[2.3587006,48.8902752],[2.3558127,48.8903775],[2.3559476,48.8891695],[2.3560482,48.8887003],[2.3598987,48.889064]]]]},"properties":{"code_section":"75118000CK","code_commune":"75118","section_courte":"CK"}},{"type":"Feature","geometry":{"type":"MultiPolygon","coordinates":[[[[2.3563783,48.8903603],[2.3587006,48.8902752],[2.359904,48.8902768],[2.3598287,48.8920047],[2.3597178,48.8927037],[2.3580414,48.8926715],[2.3580255,48.8929531],[2.3565486,48.8929037],[2.3565188,48.8932589],[2.3552639,48.8932169],[2.356113,48.8912615],[2.3560809,48.8912587],[2.3563783,48.8903603]]]]},"properties":{"code_section":"75118000CL","code_commune":"75118","section_courte":"CL"}},{"type":"Feature","geometry":{"type":"MultiPolygon","coordinates":[[[[2.3597178,48.8927037],[2.3593813,48.8947857],[2.3593274,48.8954624],[2.3590619,48.8954526],[2.3589792,48.8953602],[2.3563615,48.8952843],[2.3565486,48.8929037],[2.3580255,48.8929531],[2.3580414,48.8926715],[2.3597178,48.8927037]]]]},"properties":{"code_section":"75118000CM","code_commune":"75118","section_courte":"CM"}},{"type":"Feature","geometry":{"type":"MultiPolygon","coordinates":[[[[2.3589792,48.8953602],[2.3590619,48.8954526],[2.3593274,48.8954624],[2.3590871,48.8983693],[2.3566628,48.8983191],[2.3566854,48.8979733],[2.355688,48.8979402],[2.3558689,48.8952719],[2.3589792,48.8953602]]]]},"properties":{"code_section":"75118000CN","code_commune":"75118","section_courte":"CN"}},{"type":"Feature","geometry":{"type":"MultiPolygon","coordinates":[[[[2.3556057,48.898297],[2.3590871,48.8983693],[2.3589908,48.8997488],[2.3580588,48.8997422],[2.356304,48.9007209],[2.3558799,48.9004097],[2.3553466,48.9001857],[2.3556057,48.898297]]]]},"properties":{"code_section":"75118000CO","code_commune":"75118","section_courte":"CO"}},{"type":"Feature","geometry":{"type":"MultiPolygon","coordinates":[[[[2.3589908,48.8997488],[2.3588495,48.9016246],[2.3551593,48.9015506],[2.3553466,48.9001857],[2.3558799,48.9004097],[2.356304,48.9007209],[2.3580588,48.8997422],[2.3589908,48.8997488]]]]},"properties":{"code_section":"75118000CP","code_commune":"75118","section_courte":"CP"}},{"type":"Feature","geometry":{"type":"MultiPolygon","coordinates":[[[[2.3620883,48.9016933],[2.3588495,48.9016246],[2.3589908,48.8997488],[2.3598331,48.8997496],[2.3600324,48.8998322],[2.3622217,48.9002003],[2.3623282,48.9002534],[2.3644722,48.900465],[2.3643553,48.9017378],[2.3620883,48.9016933]]]]},"properties":{"code_section":"75118000CQ","code_commune":"75118","section_courte":"CQ"}},{"type":"Feature","geometry":{"type":"MultiPolygon","coordinates":[[[[2.3651265,48.8991099],[2.3666797,48.8997807],[2.3702483,48.8998453],[2.3701648,48.9015208],[2.370282,48.9018412],[2.3643555,48.9017367],[2.3645268,48.8998749],[2.3644951,48.8996838],[2.3645265,48.8993528],[2.3648811,48.8993661],[2.3651265,48.8991099]]]]},"properties":{"code_section":"75118000CR","code_commune":"75118","section_courte":"CR"}},{"type":"Feature","geometry":{"type":"MultiPolygon","coordinates":[[[[2.3644722,48.900465],[2.3623282,48.9002534],[2.3622217,48.9002003],[2.3600324,48.8998322],[2.3598331,48.8997496],[2.3589908,48.8997488],[2.3590871,48.8983693],[2.364224,48.8984996],[2.3643486,48.898779],[2.3651265,48.8991099],[2.3648811,48.8993661],[2.3645265,48.8993528],[2.3644722,48.900465]]]]},"properties":{"code_section":"75118000CS","code_commune":"75118","section_courte":"CS"}},{"type":"Feature","geometry":{"type":"MultiPolygon","coordinates":[[[[2.3649402,48.8979645],[2.3656764,48.8979528],[2.366573,48.8978935],[2.3690971,48.8978571],[2.3696645,48.8978163],[2.370077,48.897755],[2.370084,48.8977085],[2.3703348,48.8977031],[2.3702483,48.8998453],[2.3666797,48.8997807],[2.3643486,48.898779],[2.3640201,48.8980296],[2.3649402,48.8979645]]]]},"properties":{"code_section":"75118000CT","code_commune":"75118","section_courte":"CT"}},{"type":"Feature","geometry":{"type":"MultiPolygon","coordinates":[[[[2.3653514,48.8955175],[2.3653409,48.8952716],[2.367023,48.8950934],[2.3696325,48.8958822],[2.3699477,48.8953442],[2.3711291,48.895641],[2.3713874,48.8957331],[2.3713012,48.8958039],[2.3712589,48.8959181],[2.3703883,48.8966323],[2.3703348,48.8977031],[2.370084,48.8977085],[2.370077,48.897755],[2.3696645,48.8978163],[2.3690971,48.8978571],[2.366573,48.8978935],[2.3647698,48.8979793],[2.3650501,48.8966055],[2.365398,48.8966046],[2.3653514,48.8955175]]]]},"properties":{"code_section":"75118000CU","code_commune":"75118","section_courte":"CU"}},{"type":"Feature","geometry":{"type":"MultiPolygon","coordinates":[[[[2.364224,48.8984996],[2.3590871,48.8983693],[2.3593072,48.8956283],[2.3608146,48.8956518],[2.3607882,48.8959797],[2.3653514,48.8955175],[2.365398,48.8966046],[2.3650501,48.8966055],[2.3647698,48.8979793],[2.3640201,48.8980296],[2.364224,48.8984996]]]]},"properties":{"code_section":"75118000CV","code_commune":"75118","section_courte":"CV"}},{"type":"Feature","geometry":{"type":"MultiPolygon","coordinates":[[[[2.3611633,48.8943716],[2.3634592,48.8932047],[2.3657809,48.8942126],[2.3655257,48.894431],[2.3657251,48.8952291],[2.3653409,48.8952716],[2.3653514,48.8955175],[2.3607882,48.8959797],[2.3608146,48.8956518],[2.3593072,48.8956283],[2.359448,48.8943765],[2.3611087,48.8943209],[2.3611633,48.8943716]]]]},"properties":{"code_section":"75118000CW","code_commune":"75118","section_courte":"CW"}},{"type":"Feature","geometry":{"type":"MultiPolygon","coordinates":[[[[2.3686434,48.8943526],[2.3700098,48.8939986],[2.370519,48.8946392],[2.371789,48.8954103],[2.3713881,48.8957324],[2.3711291,48.895641],[2.3699477,48.8953442],[2.3696325,48.8958822],[2.367023,48.8950934],[2.3657251,48.8952291],[2.3655257,48.894431],[2.3657809,48.8942126],[2.3662084,48.8943989],[2.3674878,48.8934217],[2.3676913,48.8935348],[2.3686434,48.8943526]]]]},"properties":{"code_section":"75118000CX","code_commune":"75118","section_courte":"CX"}},{"type":"Feature","geometry":{"type":"MultiPolygon","coordinates":[[[[2.3662084,48.8943989],[2.3634594,48.8932046],[2.3654104,48.8922142],[2.3654596,48.8921366],[2.3661176,48.8923047],[2.3689499,48.8915769],[2.3700098,48.8939986],[2.3686434,48.8943526],[2.3676913,48.8935348],[2.3674878,48.8934217],[2.3662084,48.8943989]]]]},"properties":{"code_section":"75118000CY","code_commune":"75118","section_courte":"CY"}},{"type":"Feature","geometry":{"type":"MultiPolygon","coordinates":[[[[2.3599453,48.8943599],[2.359448,48.8943765],[2.3598287,48.8920047],[2.3611759,48.8921397],[2.3618189,48.8920997],[2.3654736,48.8917248],[2.3655256,48.892032],[2.3654104,48.8922142],[2.3611633,48.8943716],[2.3611087,48.8943209],[2.3599453,48.8943599]]]]},"properties":{"code_section":"75118000CZ","code_commune":"75118","section_courte":"CZ"}},{"type":"Feature","geometry":{"type":"MultiPolygon","coordinates":[[[[2.365369,48.8911126],[2.3654736,48.8917248],[2.3618189,48.8920997],[2.3611759,48.8921397],[2.3598287,48.8920047],[2.3599177,48.8902128],[2.3628317,48.8899266],[2.3638062,48.8899102],[2.3640069,48.8912129],[2.365369,48.8911126]]]]},"properties":{"code_section":"75118000DA","code_commune":"75118","section_courte":"DA"}},{"type":"Feature","geometry":{"type":"MultiPolygon","coordinates":[[[[2.3654596,48.8921366],[2.3655256,48.892032],[2.365369,48.8911126],[2.3640069,48.8912129],[2.3638062,48.8899102],[2.3681253,48.8897028],[2.3689499,48.8915769],[2.3661176,48.8923047],[2.3654596,48.8921366]]]]},"properties":{"code_section":"75118000DB","code_commune":"75118","section_courte":"DB"}},{"type":"Feature","geometry":{"type":"MultiPolygon","coordinates":[[[[2.3670895,48.8873964],[2.3675797,48.8886451],[2.3681253,48.8897028],[2.3638062,48.8899102],[2.3630953,48.8899217],[2.3621236,48.8882983],[2.3642331,48.8877516],[2.3640904,48.887512],[2.364407,48.88743],[2.3647488,48.8880032],[2.3670895,48.8873964]]]]},"properties":{"code_section":"75118000DC","code_commune":"75118","section_courte":"DC"}},{"type":"Feature","geometry":{"type":"MultiPolygon","coordinates":[[[[2.3611969,48.8867643],[2.3630953,48.8899217],[2.3628317,48.8899266],[2.3599177,48.8902128],[2.3598358,48.8877937],[2.359631,48.8868322],[2.3611969,48.8867643]]]]},"properties":{"code_section":"75118000DD","code_commune":"75118","section_courte":"DD"}},{"type":"Feature","geometry":{"type":"MultiPolygon","coordinates":[[[[2.3621236,48.8882983],[2.3611746,48.8867247],[2.3658034,48.8855442],[2.3667929,48.8866413],[2.3670895,48.8873964],[2.3647488,48.8880032],[2.364407,48.88743],[2.3640904,48.887512],[2.3642331,48.8877516],[2.3621236,48.8882983]]]]},"properties":{"code_section":"75118000DE","code_commune":"75118","section_courte":"DE"}},{"type":"Feature","geometry":{"type":"MultiPolygon","coordinates":[[[[2.3604105,48.884418],[2.364686,48.8843689],[2.3658034,48.8855442],[2.3611746,48.8867247],[2.3611969,48.8867643],[2.359631,48.8868322],[2.3593513,48.8853575],[2.359299,48.8844259],[2.3604105,48.884418]]]]},"properties":{"code_section":"75118000DF","code_commune":"75118","section_courte":"DF"}}]}