{"type":"FeatureCollection","features":[{"type":"Feature","geometry":{"type":"MultiPolygon","coordinates":[[[[2.3990446,48.8477354],[2.3989714,48.847373],[2.402312,48.8451158],[2.4024953,48.8450337],[2.4031568,48.845736],[2.4034521,48.8477179],[2.3991176,48.8480977],[2.3990446,48.8477354]]]]},"properties":{"code_section":"75112000AA","code_commune":"75112","section_courte":"AA"}},{"type":"Feature","geometry":{"type":"MultiPolygon","coordinates":[[[[2.404239,48.8447911],[2.4057336,48.8446601],[2.4063141,48.8474421],[2.4034521,48.8477179],[2.4031568,48.845736],[2.4024953,48.8450337],[2.402744,48.8449223],[2.404239,48.8447911]]]]},"properties":{"code_section":"75112000AB","code_commune":"75112","section_courte":"AB"}},{"type":"Feature","geometry":{"type":"MultiPolygon","coordinates":[[[[2.4024464,48.8433403],[2.4052592,48.8429458],[2.4057336,48.8446601],[2.402744,48.8449223],[2.402312,48.8451158],[2.4015172,48.8429802],[2.4023049,48.8428614],[2.4023176,48.8433585],[2.4024464,48.8433403]]]]},"properties":{"code_section":"75112000AC","code_commune":"75112","section_courte":"AC"}},{"type":"Feature","geometry":{"type":"MultiPolygon","coordinates":[[[[2.4046928,48.8408946],[2.4052592,48.8429458],[2.4023176,48.8433585],[2.4023049,48.8428614],[2.4015172,48.8429802],[2.4008559,48.8412062],[2.4046928,48.8408946]]]]},"properties":{"code_section":"75112000AD","code_commune":"75112","section_courte":"AD"}},{"type":"Feature","geometry":{"type":"MultiPolygon","coordinates":[[[[2.4079658,48.8431356],[2.4078912,48.8429448],[2.4053576,48.843326],[2.4046928,48.8408946],[2.4078499,48.8406324],[2.4091667,48.840669],[2.4097708,48.8426431],[2.4092195,48.8427171],[2.4092802,48.8429447],[2.4086776,48.8429992],[2.4079658,48.8431356]]]]},"properties":{"code_section":"75112000AE","code_commune":"75112","section_courte":"AE"}},{"type":"Feature","geometry":{"type":"MultiPolygon","coordinates":[[[[2.4080752,48.843117],[2.4086776,48.8429992],[2.4092802,48.8429447],[2.4092195,48.8427171],[2.4097708,48.8426431],[2.4103124,48.8442746],[2.4057336,48.8446601],[2.4053576,48.843326],[2.4078912,48.8429448],[2.4079658,48.8431356],[2.4080752,48.843117]]]]},"properties":{"code_section":"75112000AH","code_commune":"75112","section_courte":"AH"}},{"type":"Feature","geometry":{"type":"MultiPolygon","coordinates":[[[[2.4103124,48.8442746],[2.411155,48.8470348],[2.4063141,48.8474421],[2.4057336,48.8446601],[2.4103124,48.8442746]]]]},"properties":{"code_section":"75112000AI","code_commune":"75112","section_courte":"AI"}},{"type":"Feature","geometry":{"type":"MultiPolygon","coordinates":[[[[2.4130701,48.8440405],[2.4136143,48.8468231],[2.411155,48.8470348],[2.4103124,48.8442746],[2.4130701,48.8440405]]]]},"properties":{"code_section":"75112000AK","code_commune":"75112","section_courte":"AK"}},{"type":"Feature","geometry":{"type":"MultiPolygon","coordinates":[[[[2.4159937,48.8466125],[2.4136143,48.8468231],[2.4130701,48.8440405],[2.415304,48.8438527],[2.4156907,48.8451059],[2.4159937,48.8466125]]]]},"properties":{"code_section":"75112000AL","code_commune":"75112","section_courte":"AL"}},{"type":"Feature","geometry":{"type":"MultiPolygon","coordinates":[[[[2.411648,48.8424633],[2.4122701,48.8424941],[2.4132306,48.8425899],[2.4132535,48.8424282],[2.4134451,48.8424402],[2.4134239,48.842615],[2.4147317,48.8427854],[2.4146096,48.8431878],[2.4151144,48.843238],[2.415304,48.8438527],[2.4103124,48.8442746],[2.409743,48.8425588],[2.4115262,48.8423108],[2.4115303,48.8424534],[2.411648,48.8424633]]]]},"properties":{"code_section":"75112000AM","code_commune":"75112","section_courte":"AM"}},{"type":"Feature","geometry":{"type":"MultiPolygon","coordinates":[[[[2.4115303,48.8424534],[2.4115262,48.8423108],[2.409743,48.8425588],[2.4091225,48.8405224],[2.4097949,48.8405433],[2.4097865,48.8405116],[2.409981,48.8405163],[2.4110943,48.8405913],[2.4122637,48.8407855],[2.4131961,48.8410005],[2.4133647,48.8403472],[2.4142773,48.8404869],[2.4151144,48.843238],[2.4146096,48.8431878],[2.4147317,48.8427854],[2.4134239,48.842615],[2.4134451,48.8424402],[2.4132535,48.8424282],[2.4132306,48.8425899],[2.4122701,48.8424941],[2.4115303,48.8424534]]]]},"properties":{"code_section":"75112000AN","code_commune":"75112","section_courte":"AN"}},{"type":"Feature","geometry":{"type":"MultiPolygon","coordinates":[[[[2.4099241,48.8378399],[2.4098445,48.8377137],[2.4135116,48.8384574],[2.4134573,48.8382703],[2.4136188,48.8382497],[2.4142773,48.8404869],[2.4133647,48.8403472],[2.4131961,48.8410005],[2.4122637,48.8407855],[2.4110943,48.8405913],[2.409981,48.8405163],[2.4097865,48.8405116],[2.4097949,48.8405433],[2.4091225,48.8405224],[2.4084017,48.8381723],[2.4100039,48.8379661],[2.4099241,48.8378399]]]]},"properties":{"code_section":"75112000AO","code_commune":"75112","section_courte":"AO"}},{"type":"Feature","geometry":{"type":"MultiPolygon","coordinates":[[[[2.4062268,48.8407687],[2.4046928,48.8408946],[2.4044669,48.8400789],[2.4047341,48.8400782],[2.4048129,48.8391664],[2.4049081,48.8386452],[2.4053963,48.8381051],[2.4086717,48.8389843],[2.4091667,48.840669],[2.4078499,48.8406324],[2.4062268,48.8407687]]]]},"properties":{"code_section":"75112000AP","code_commune":"75112","section_courte":"AP"}},{"type":"Feature","geometry":{"type":"MultiPolygon","coordinates":[[[[2.4002866,48.8396689],[2.4003113,48.8395273],[2.400469,48.8393637],[2.4006248,48.8393883],[2.4025467,48.839351],[2.4025538,48.8392644],[2.4041754,48.8390371],[2.4042402,48.8392489],[2.4048129,48.8391664],[2.4047341,48.8400782],[2.4044669,48.8400789],[2.4046928,48.8408946],[2.4008559,48.8412062],[2.4002866,48.8396689]]]]},"properties":{"code_section":"75112000AR","code_commune":"75112","section_courte":"AR"}},{"type":"Feature","geometry":{"type":"MultiPolygon","coordinates":[[[[2.400469,48.8393637],[2.4012743,48.8386046],[2.4022704,48.8373609],[2.4021989,48.8371446],[2.404061,48.8364717],[2.4053963,48.8381051],[2.4049081,48.8386452],[2.4048129,48.8391664],[2.4042402,48.8392489],[2.4041754,48.8390371],[2.4025538,48.8392644],[2.4025467,48.839351],[2.4006248,48.8393883],[2.400469,48.8393637]]]]},"properties":{"code_section":"75112000AS","code_commune":"75112","section_courte":"AS"}},{"type":"Feature","geometry":{"type":"MultiPolygon","coordinates":[[[[2.4056345,48.8358926],[2.4066439,48.8368652],[2.4067916,48.8369466],[2.4081125,48.8372993],[2.4086717,48.8389843],[2.4053723,48.8380977],[2.404061,48.8364717],[2.4056345,48.8358926]]]]},"properties":{"code_section":"75112000AT","code_commune":"75112","section_courte":"AT"}},{"type":"Feature","geometry":{"type":"MultiPolygon","coordinates":[[[[2.4135116,48.8384574],[2.4098445,48.8377137],[2.4100039,48.8379661],[2.4084017,48.8381723],[2.4079408,48.8367797],[2.4077208,48.8364875],[2.4089967,48.8360549],[2.4093673,48.836532],[2.4093874,48.8369171],[2.4105117,48.8364501],[2.4120394,48.8359226],[2.4128989,48.8362319],[2.4136188,48.8382497],[2.4134573,48.8382703],[2.4135116,48.8384574]]]]},"properties":{"code_section":"75112000AV","code_commune":"75112","section_courte":"AV"}},{"type":"Feature","geometry":{"type":"MultiPolygon","coordinates":[[[[2.4093874,48.8369171],[2.4093673,48.836532],[2.4089967,48.8360549],[2.4077208,48.8364875],[2.4076288,48.8363248],[2.4066784,48.8355564],[2.4064087,48.8354024],[2.4079993,48.8348187],[2.4083025,48.8348953],[2.4113209,48.8339169],[2.4122788,48.8345514],[2.4128989,48.8362319],[2.4120394,48.8359226],[2.4105117,48.8364501],[2.4093874,48.8369171]]]]},"properties":{"code_section":"75112000AW","code_commune":"75112","section_courte":"AW"}},{"type":"Feature","geometry":{"type":"MultiPolygon","coordinates":[[[[2.4076288,48.8363248],[2.4079408,48.8367797],[2.4081125,48.8372993],[2.4067916,48.8369466],[2.4066439,48.8368652],[2.4056345,48.8358926],[2.4021992,48.8371445],[2.4044562,48.8342345],[2.4066784,48.8355564],[2.4076288,48.8363248]]]]},"properties":{"code_section":"75112000AX","code_commune":"75112","section_courte":"AX"}},{"type":"Feature","geometry":{"type":"MultiPolygon","coordinates":[[[[2.4057227,48.8333598],[2.4076594,48.8344201],[2.4079993,48.8348187],[2.4064087,48.8354024],[2.4044562,48.8342345],[2.4021886,48.8334217],[2.4034385,48.8325921],[2.4037282,48.8324648],[2.4041727,48.8323585],[2.404426,48.8329629],[2.4055846,48.8332843],[2.4057227,48.8333598]]]]},"properties":{"code_section":"75112000AY","code_commune":"75112","section_courte":"AY"}},{"type":"Feature","geometry":{"type":"MultiPolygon","coordinates":[[[[2.4197239,48.8289104],[2.4202552,48.8297034],[2.4209144,48.8295673],[2.4220126,48.8294102],[2.4228605,48.8293668],[2.4239384,48.8293799],[2.4247586,48.8293283],[2.4258239,48.8291528],[2.4268289,48.8288608],[2.4293612,48.8322828],[2.4294265,48.8327612],[2.4295921,48.8332895],[2.4293186,48.8338256],[2.4289974,48.8342383],[2.4285449,48.8346595],[2.4280611,48.8349961],[2.4276912,48.8352009],[2.4268509,48.8354904],[2.4261304,48.8356903],[2.4253887,48.8358533],[2.4246302,48.8359789],[2.4240678,48.8360385],[2.4227727,48.8360702],[2.4224756,48.8359683],[2.4215922,48.835549],[2.4188697,48.8345193],[2.417264,48.8340248],[2.4165646,48.8338501],[2.4156988,48.8336946],[2.4147733,48.8335965],[2.4140073,48.8335705],[2.4127884,48.8336312],[2.4112278,48.8338666],[2.4113209,48.8339169],[2.4083025,48.8348953],[2.4079993,48.8348187],[2.4076594,48.8344201],[2.4055846,48.8332843],[2.404426,48.8329629],[2.4041727,48.8323585],[2.405118,48.8323042],[2.4061749,48.8321695],[2.4068733,48.8320187],[2.4075351,48.8318084],[2.4081161,48.8315584],[2.4085265,48.8313357],[2.4090368,48.8309868],[2.4094729,48.8305965],[2.411249,48.8296599],[2.4131465,48.8288339],[2.4144716,48.8283481],[2.4153181,48.8280903],[2.4161305,48.8279226],[2.4170717,48.8278165],[2.4179222,48.827797],[2.418947,48.8278681],[2.4193402,48.8282907],[2.4197239,48.8289104]]]]},"properties":{"code_section":"75112000AZ","code_commune":"75112","section_courte":"AZ"}},{"type":"Feature","geometry":{"type":"MultiPolygon","coordinates":[[[[2.4305312,48.8345818],[2.4308206,48.8347681],[2.4310607,48.8349829],[2.4312935,48.8353036],[2.4313964,48.8355617],[2.4352249,48.8351017],[2.4358888,48.8384587],[2.4363012,48.8389767],[2.4360592,48.8397161],[2.4371912,48.8408914],[2.4336768,48.8411939],[2.4336378,48.840987],[2.4250499,48.8417251],[2.4247405,48.8417739],[2.4247981,48.8419006],[2.4245568,48.8419458],[2.4236999,48.8426866],[2.4227608,48.844003],[2.4224525,48.8443003],[2.4221062,48.8444981],[2.4198821,48.8434269],[2.4199208,48.843229],[2.4198781,48.8430429],[2.4197647,48.8428862],[2.4195414,48.8426977],[2.4194229,48.8424839],[2.4195703,48.8415332],[2.4198562,48.8410687],[2.4202294,48.8407256],[2.420418,48.8404991],[2.4208629,48.8396235],[2.4212932,48.8382558],[2.4216032,48.8368763],[2.4221781,48.8358148],[2.4224756,48.8359683],[2.4227727,48.8360702],[2.4240678,48.8360385],[2.4250112,48.8359209],[2.4257617,48.8357764],[2.4264934,48.8355949],[2.4272024,48.8353773],[2.4276912,48.8352009],[2.4278851,48.8350983],[2.42823,48.8348888],[2.4286904,48.8345383],[2.4292211,48.8339662],[2.4294065,48.8336821],[2.4295921,48.8332895],[2.4298912,48.8338932],[2.4301513,48.8342804],[2.4302995,48.8344691],[2.4305312,48.8345818]]]]},"properties":{"code_section":"75112000BA","code_commune":"75112","section_courte":"BA"}},{"type":"Feature","geometry":{"type":"MultiPolygon","coordinates":[[[[2.4473443,48.8434238],[2.4473328,48.8435584],[2.4471757,48.8436761],[2.4474109,48.8438935],[2.4466763,48.844455],[2.4465139,48.844707],[2.4464754,48.8449247],[2.4464111,48.844931],[2.4465535,48.845729],[2.4465275,48.8457497],[2.4407671,48.845916],[2.4406947,48.8452084],[2.4408747,48.8452091],[2.4408086,48.844872],[2.4406165,48.8448882],[2.4405117,48.8443453],[2.4379399,48.8445687],[2.4371912,48.8408914],[2.4360592,48.8397161],[2.4363012,48.8389767],[2.4358888,48.8384587],[2.4352249,48.8351017],[2.4449317,48.833935],[2.4452013,48.8339254],[2.4483584,48.8344744],[2.4495781,48.8347654],[2.4507994,48.8350834],[2.4519976,48.8354444],[2.4531606,48.8358383],[2.4526911,48.8364417],[2.4519428,48.837532],[2.4484333,48.8393914],[2.4476812,48.8396352],[2.44652,48.8397984],[2.4473443,48.8434238]]]]},"properties":{"code_section":"75112000BB","code_commune":"75112","section_courte":"BB"}},{"type":"Feature","geometry":{"type":"MultiPolygon","coordinates":[[[[2.4697606,48.8363832],[2.4697011,48.836586],[2.4693887,48.8370346],[2.4684504,48.8378781],[2.4672394,48.839084],[2.4665195,48.8399661],[2.4659667,48.8404839],[2.465173,48.8411058],[2.4644199,48.8416068],[2.463603,48.8420229],[2.4627088,48.8423772],[2.4618639,48.8426572],[2.4609854,48.8428876],[2.4580696,48.8434542],[2.4531075,48.8440965],[2.4493794,48.8446389],[2.4464754,48.8449247],[2.4465139,48.844707],[2.4466763,48.844455],[2.4474109,48.8438935],[2.4471757,48.8436761],[2.4473328,48.8435584],[2.4473443,48.8434238],[2.44652,48.8397984],[2.4476812,48.8396352],[2.4484333,48.8393914],[2.4519428,48.837532],[2.4526911,48.8364417],[2.4531606,48.8358383],[2.4533738,48.8359167],[2.453603,48.8359524],[2.4545417,48.8359006],[2.4545256,48.836294],[2.4545942,48.836666],[2.4547998,48.8371271],[2.4549567,48.8373545],[2.4552524,48.8376744],[2.4556719,48.8380136],[2.4561028,48.8382762],[2.4565645,48.8384872],[2.4571121,48.8386672],[2.4578605,48.838816],[2.4605366,48.838948],[2.4697606,48.8363832]]]]},"properties":{"code_section":"75112000BC","code_commune":"75112","section_courte":"BC"}},{"type":"Feature","geometry":{"type":"MultiPolygon","coordinates":[[[[2.4580532,48.8388382],[2.4572949,48.8387131],[2.4565645,48.8384872],[2.455953,48.8381933],[2.4553662,48.8377744],[2.4549567,48.8373545],[2.4546848,48.8369086],[2.4545392,48.8364187],[2.4545417,48.8359006],[2.453603,48.8359524],[2.4533738,48.8359167],[2.4531606,48.8358383],[2.4547919,48.8341823],[2.4557272,48.8334356],[2.4563442,48.83299],[2.4625444,48.8288319],[2.4633111,48.8282329],[2.4644797,48.827155],[2.4647795,48.8275177],[2.4647644,48.8275987],[2.4646093,48.8276274],[2.4645511,48.8279395],[2.4645156,48.8286079],[2.4646387,48.8293557],[2.4651136,48.830865],[2.4653688,48.8314174],[2.4658224,48.8319961],[2.4663543,48.8324684],[2.4667269,48.8327222],[2.468356,48.8335263],[2.4687525,48.8338107],[2.4689889,48.834047],[2.4693195,48.8344915],[2.4695303,48.8349473],[2.4697051,48.835557],[2.4697606,48.8363832],[2.4605366,48.838948],[2.4580532,48.8388382]]]]},"properties":{"code_section":"75112000BD","code_commune":"75112","section_courte":"BD"}},{"type":"Feature","geometry":{"type":"MultiPolygon","coordinates":[[[[2.4566272,48.8251208],[2.4572335,48.8245231],[2.4578131,48.8238548],[2.4591639,48.8246244],[2.4604872,48.8251593],[2.4615341,48.8256214],[2.4625487,48.8261158],[2.4644797,48.827155],[2.4633111,48.8282329],[2.4625444,48.8288319],[2.4563442,48.83299],[2.4557272,48.8334356],[2.4547919,48.8341823],[2.4531606,48.8358383],[2.4519976,48.8354444],[2.4507994,48.8350834],[2.4495781,48.8347654],[2.4483584,48.8344744],[2.4452013,48.8339254],[2.4437884,48.8276674],[2.4544708,48.8270378],[2.4566272,48.8251208]]]]},"properties":{"code_section":"75112000BE","code_commune":"75112","section_courte":"BE"}},{"type":"Feature","geometry":{"type":"MultiPolygon","coordinates":[[[[2.4575514,48.8241705],[2.4566272,48.8251208],[2.4544708,48.8270378],[2.4465917,48.8275036],[2.4463839,48.8263197],[2.4459387,48.8218996],[2.4458007,48.8213431],[2.4455061,48.8208386],[2.4451652,48.820366],[2.444406,48.8195551],[2.4436705,48.8190559],[2.4432568,48.8188395],[2.4427159,48.8186172],[2.4426655,48.8179567],[2.447624,48.8180274],[2.4496352,48.8179617],[2.4508263,48.8178084],[2.4532094,48.8172481],[2.4545459,48.8171371],[2.4571482,48.817018],[2.4586314,48.8170117],[2.4592489,48.8172449],[2.4591958,48.8173339],[2.4597659,48.8175446],[2.4628047,48.8190288],[2.4628103,48.8190756],[2.4625234,48.8192675],[2.4626381,48.8193428],[2.4629071,48.8202041],[2.4646662,48.8232732],[2.4647181,48.8232776],[2.4652483,48.824499],[2.4651473,48.8249902],[2.4653584,48.8250034],[2.4657609,48.8262809],[2.4661762,48.8273317],[2.4654332,48.827569],[2.4652292,48.82767],[2.4650858,48.8275387],[2.4647644,48.8275987],[2.4647564,48.8274548],[2.4645786,48.8273017],[2.4644797,48.827155],[2.4625487,48.8261158],[2.4615341,48.8256214],[2.4604872,48.8251593],[2.4591639,48.8246244],[2.4578131,48.8238548],[2.4575514,48.8241705]]]]},"properties":{"code_section":"75112000BH","code_commune":"75112","section_courte":"BH"}},{"type":"Feature","geometry":{"type":"MultiPolygon","coordinates":[[[[2.4449317,48.833935],[2.4313964,48.8355617],[2.4312935,48.8353036],[2.4310607,48.8349829],[2.4307293,48.8347026],[2.4302995,48.8344691],[2.4300154,48.8340885],[2.4297792,48.8336947],[2.429562,48.8332137],[2.4294265,48.8327612],[2.4293612,48.8322828],[2.4268289,48.8288608],[2.4276759,48.82841],[2.4288686,48.8278418],[2.4304427,48.8271962],[2.4320397,48.8266349],[2.4335577,48.8261748],[2.4351141,48.8257746],[2.4370055,48.8253775],[2.4372359,48.8253626],[2.4374891,48.8253978],[2.4437884,48.8276674],[2.4452013,48.8339254],[2.4449317,48.833935]]]]},"properties":{"code_section":"75112000BI","code_commune":"75112","section_courte":"BI"}},{"type":"Feature","geometry":{"type":"MultiPolygon","coordinates":[[[[2.4430396,48.8187404],[2.4438666,48.8191728],[2.4442345,48.8194226],[2.444555,48.8196921],[2.4449745,48.8201363],[2.4453425,48.8206002],[2.4458007,48.8213431],[2.4459387,48.8218996],[2.4463839,48.8263197],[2.4465917,48.8275036],[2.4437884,48.8276674],[2.4375944,48.8254302],[2.4373781,48.8253755],[2.4371199,48.8253645],[2.4359048,48.8255972],[2.4343315,48.8259672],[2.4327938,48.8263975],[2.4312968,48.8268867],[2.4298091,48.8274428],[2.4288686,48.8278418],[2.4276759,48.82841],[2.4268289,48.8288608],[2.426336,48.829021],[2.4255622,48.829208],[2.4247586,48.8293283],[2.4242129,48.8293705],[2.4234273,48.8293772],[2.4236681,48.8287469],[2.423853,48.8277535],[2.4239519,48.8268531],[2.4239393,48.8263033],[2.4238594,48.8256191],[2.4236591,48.8247897],[2.4234484,48.8242354],[2.4244242,48.8242689],[2.4254011,48.8242575],[2.426242,48.824207],[2.4273141,48.8240887],[2.4281819,48.8239482],[2.4290732,48.8237549],[2.4298361,48.8235382],[2.4306922,48.8232343],[2.4303715,48.822882],[2.4321897,48.8216188],[2.4326247,48.8219017],[2.4328898,48.8216902],[2.4324754,48.8214207],[2.4343032,48.8201557],[2.4341797,48.8192807],[2.4343235,48.8193858],[2.4345006,48.8193731],[2.4348711,48.8195672],[2.4351554,48.8196479],[2.4361824,48.8195739],[2.4369326,48.8193759],[2.4372661,48.8192349],[2.4374702,48.8191043],[2.4373498,48.8182196],[2.4398294,48.8183648],[2.4400886,48.8183385],[2.4416364,48.8180421],[2.4421401,48.8179787],[2.4426655,48.8179567],[2.4427159,48.8186172],[2.4430396,48.8187404]]]]},"properties":{"code_section":"75112000BK","code_commune":"75112","section_courte":"BK"}},{"type":"Feature","geometry":{"type":"MultiPolygon","coordinates":[[[[2.4193402,48.8282907],[2.418947,48.8278681],[2.4179222,48.827797],[2.4170717,48.8278165],[2.4164075,48.8278819],[2.4158561,48.8279708],[2.4150554,48.8281611],[2.4131465,48.8288339],[2.411249,48.8296599],[2.4094729,48.8305965],[2.4090368,48.8309868],[2.4087043,48.8312244],[2.4083413,48.8314416],[2.4077457,48.8317256],[2.4070985,48.8319552],[2.4066439,48.8320758],[2.4061749,48.8321695],[2.4053472,48.832281],[2.4041727,48.8323585],[2.4039718,48.8323981],[2.4030264,48.8316824],[2.4024046,48.8313762],[2.4019318,48.8312378],[2.4009915,48.8310352],[2.3993197,48.830773],[2.4014942,48.8293658],[2.4024872,48.829647],[2.4033409,48.8293172],[2.4042256,48.8289242],[2.4051664,48.8283515],[2.4073406,48.8267255],[2.4082359,48.8261348],[2.4093972,48.8255181],[2.4099888,48.8252757],[2.4104633,48.8251292],[2.4116304,48.8249148],[2.4128385,48.8248033],[2.4138661,48.8247973],[2.4147901,48.8248534],[2.4155702,48.8248588],[2.4166101,48.8248045],[2.4174439,48.8246772],[2.4191817,48.8242694],[2.4200698,48.8241429],[2.4213756,48.8241368],[2.4234484,48.8242354],[2.4236591,48.8247897],[2.4238594,48.8256191],[2.4239393,48.8263033],[2.4239519,48.8268531],[2.423853,48.8277535],[2.4236681,48.8287469],[2.4234273,48.8293772],[2.422577,48.8293734],[2.4220126,48.8294102],[2.4209144,48.8295673],[2.4202552,48.8297034],[2.4193402,48.8282907]]]]},"properties":{"code_section":"75112000BL","code_commune":"75112","section_courte":"BL"}},{"type":"Feature","geometry":{"type":"MultiPolygon","coordinates":[[[[2.3993197,48.830773],[2.4009915,48.8310352],[2.4019318,48.8312378],[2.4024046,48.8313762],[2.4030264,48.8316824],[2.4039718,48.8323981],[2.4037282,48.8324648],[2.4034385,48.8325921],[2.4021886,48.8334217],[2.3985743,48.8320816],[2.3977934,48.8317502],[2.3993197,48.830773]]]]},"properties":{"code_section":"75112000BM","code_commune":"75112","section_courte":"BM"}},{"type":"Feature","geometry":{"type":"MultiPolygon","coordinates":[[[[2.3965351,48.8325655],[2.3977934,48.8317502],[2.3985743,48.8320816],[2.4021886,48.8334217],[2.4017362,48.8337187],[2.4008025,48.8346558],[2.3989358,48.8332744],[2.3984852,48.8336631],[2.3976288,48.8330853],[2.3973197,48.8330968],[2.3965351,48.8325655]]]]},"properties":{"code_section":"75112000BN","code_commune":"75112","section_courte":"BN"}},{"type":"Feature","geometry":{"type":"MultiPolygon","coordinates":[[[[2.4017362,48.8337187],[2.4021886,48.8334217],[2.4044562,48.8342345],[2.4029217,48.8362246],[2.4008025,48.8346558],[2.4017362,48.8337187]]]]},"properties":{"code_section":"75112000BO","code_commune":"75112","section_courte":"BO"}},{"type":"Feature","geometry":{"type":"MultiPolygon","coordinates":[[[[2.398442,48.8367218],[2.3970688,48.8356182],[2.4008025,48.8346558],[2.4029217,48.8362246],[2.4022274,48.8370999],[2.3995974,48.8358193],[2.398442,48.8367218]]]]},"properties":{"code_section":"75112000BP","code_commune":"75112","section_courte":"BP"}},{"type":"Feature","geometry":{"type":"MultiPolygon","coordinates":[[[[2.3984852,48.8336631],[2.3989358,48.8332744],[2.4008025,48.8346558],[2.3977794,48.8354341],[2.3969512,48.8345882],[2.3968164,48.8346398],[2.3948689,48.8336193],[2.3965351,48.8325655],[2.3973197,48.8330968],[2.3976288,48.8330853],[2.3984852,48.8336631]]]]},"properties":{"code_section":"75112000BR","code_commune":"75112","section_courte":"BR"}},{"type":"Feature","geometry":{"type":"MultiPolygon","coordinates":[[[[2.3969512,48.8345882],[2.3977794,48.8354341],[2.3931604,48.8366303],[2.3929032,48.8363776],[2.3921767,48.8360764],[2.392725,48.8353319],[2.3941732,48.8340626],[2.3948689,48.8336193],[2.3968164,48.8346398],[2.3969512,48.8345882]]]]},"properties":{"code_section":"75112000BS","code_commune":"75112","section_courte":"BS"}},{"type":"Feature","geometry":{"type":"MultiPolygon","coordinates":[[[[2.394655,48.8362393],[2.3953986,48.8368154],[2.3953302,48.8368463],[2.3953908,48.8369076],[2.3955472,48.8369833],[2.3947973,48.8376662],[2.3945047,48.8378694],[2.394435,48.8378638],[2.3931842,48.8385639],[2.3912098,48.8373064],[2.3921767,48.8360764],[2.3929032,48.8363776],[2.3931604,48.8366303],[2.394655,48.8362393]]]]},"properties":{"code_section":"75112000BT","code_commune":"75112","section_courte":"BT"}},{"type":"Feature","geometry":{"type":"MultiPolygon","coordinates":[[[[2.3972081,48.8377019],[2.3987162,48.8384329],[2.3966843,48.8391774],[2.3966803,48.8396282],[2.3951977,48.8399474],[2.3949516,48.8394673],[2.3945578,48.839434],[2.3931842,48.8385639],[2.394435,48.8378638],[2.3945047,48.8378694],[2.3962489,48.8387063],[2.3972081,48.8377019]]]]},"properties":{"code_section":"75112000BV","code_commune":"75112","section_courte":"BV"}},{"type":"Feature","geometry":{"type":"MultiPolygon","coordinates":[[[[2.394655,48.8362393],[2.3970688,48.8356182],[2.398442,48.8367218],[2.3972081,48.8377019],[2.3962489,48.8387063],[2.3945047,48.8378694],[2.3947973,48.8376662],[2.3955472,48.8369833],[2.3953908,48.8369076],[2.3953302,48.8368463],[2.3953986,48.8368154],[2.394655,48.8362393]]]]},"properties":{"code_section":"75112000BW","code_commune":"75112","section_courte":"BW"}},{"type":"Feature","geometry":{"type":"MultiPolygon","coordinates":[[[[2.3987162,48.8384329],[2.3972081,48.8377019],[2.3995974,48.8358193],[2.4022274,48.8370999],[2.4021989,48.8371446],[2.4022704,48.8373609],[2.4012743,48.8386046],[2.4010382,48.8388245],[2.3996262,48.8381007],[2.3987162,48.8384329]]]]},"properties":{"code_section":"75112000BX","code_commune":"75112","section_courte":"BX"}},{"type":"Feature","geometry":{"type":"MultiPolygon","coordinates":[[[[2.3989273,48.8410686],[2.398831,48.8410719],[2.3961522,48.8397263],[2.3966803,48.8396282],[2.3966843,48.8391774],[2.3996262,48.8381007],[2.4010382,48.8388245],[2.4003495,48.8394768],[2.400293,48.8395674],[2.4002866,48.8396689],[2.4006002,48.8405156],[2.3994584,48.8404584],[2.3989273,48.8410686]]]]},"properties":{"code_section":"75112000BY","code_commune":"75112","section_courte":"BY"}},{"type":"Feature","geometry":{"type":"MultiPolygon","coordinates":[[[[2.3994584,48.8404584],[2.4006002,48.8405156],[2.4015427,48.8430483],[2.3995751,48.8429527],[2.3974756,48.842719],[2.3994584,48.8404584]]]]},"properties":{"code_section":"75112000BZ","code_commune":"75112","section_courte":"BZ"}},{"type":"Feature","geometry":{"type":"MultiPolygon","coordinates":[[[[2.3944263,48.8404095],[2.3941941,48.8402979],[2.3940379,48.8399927],[2.395102,48.8397607],[2.3951977,48.8399474],[2.3961522,48.8397263],[2.398831,48.8410719],[2.3989273,48.8410686],[2.3974756,48.842719],[2.3940471,48.8410097],[2.3946497,48.8405167],[2.3944263,48.8404095]]]]},"properties":{"code_section":"75112000CA","code_commune":"75112","section_courte":"CA"}},{"type":"Feature","geometry":{"type":"MultiPolygon","coordinates":[[[[2.3895801,48.8390167],[2.3892646,48.83899],[2.3896381,48.8386099],[2.3912098,48.8373064],[2.3945578,48.839434],[2.3949516,48.8394673],[2.395102,48.8397607],[2.392484,48.8403417],[2.3900134,48.8392784],[2.3898955,48.8390432],[2.3895801,48.8390167]]]]},"properties":{"code_section":"75112000CB","code_commune":"75112","section_courte":"CB"}},{"type":"Feature","geometry":{"type":"MultiPolygon","coordinates":[[[[2.3869514,48.8415836],[2.3873655,48.8411555],[2.3892646,48.83899],[2.3898955,48.8390432],[2.3900134,48.8392784],[2.392484,48.8403417],[2.3916526,48.8405229],[2.3918006,48.8408203],[2.3904252,48.8411264],[2.3905265,48.8420658],[2.3876534,48.8422106],[2.3869514,48.8415836]]]]},"properties":{"code_section":"75112000CC","code_commune":"75112","section_courte":"CC"}},{"type":"Feature","geometry":{"type":"MultiPolygon","coordinates":[[[[2.3940379,48.8399927],[2.3941941,48.8402979],[2.3946497,48.8405167],[2.3937997,48.8412386],[2.3937783,48.84133],[2.3915292,48.8431744],[2.3906027,48.8427506],[2.3904252,48.8411264],[2.3918006,48.8408203],[2.3916526,48.8405229],[2.3940379,48.8399927]]]]},"properties":{"code_section":"75112000CD","code_commune":"75112","section_courte":"CD"}},{"type":"Feature","geometry":{"type":"MultiPolygon","coordinates":[[[[2.390904,48.8436962],[2.3899431,48.8444992],[2.3881853,48.8437016],[2.3874965,48.8442601],[2.3866305,48.8437876],[2.3853287,48.84324],[2.3869514,48.8415836],[2.3876534,48.8422106],[2.3905265,48.8420658],[2.3906027,48.8427506],[2.3915292,48.8431744],[2.390904,48.8436962]]]]},"properties":{"code_section":"75112000CE","code_commune":"75112","section_courte":"CE"}},{"type":"Feature","geometry":{"type":"MultiPolygon","coordinates":[[[[2.3925904,48.8453219],[2.3902834,48.8442141],[2.3921391,48.8426652],[2.3941107,48.8436207],[2.3940007,48.843724],[2.3946925,48.8440569],[2.3952746,48.8435168],[2.3963639,48.8440471],[2.3950641,48.845589],[2.3938982,48.8450583],[2.3937239,48.845216],[2.3935085,48.845116],[2.3934748,48.8450473],[2.3932751,48.8450612],[2.3932662,48.8450035],[2.3930546,48.8449058],[2.3925904,48.8453219]]]]},"properties":{"code_section":"75112000CH","code_commune":"75112","section_courte":"CH"}},{"type":"Feature","geometry":{"type":"MultiPolygon","coordinates":[[[[2.3921391,48.8426652],[2.3937783,48.84133],[2.3937997,48.8412386],[2.3940471,48.8410097],[2.3974756,48.842719],[2.3963639,48.8440471],[2.3952746,48.8435168],[2.3946925,48.8440569],[2.3940007,48.843724],[2.3941107,48.8436207],[2.3921391,48.8426652]]]]},"properties":{"code_section":"75112000CI","code_commune":"75112","section_courte":"CI"}},{"type":"Feature","geometry":{"type":"MultiPolygon","coordinates":[[[[2.3963639,48.8440471],[2.3974756,48.842719],[2.3995751,48.8429527],[2.4015427,48.8430483],[2.4022533,48.8449582],[2.3980274,48.8453254],[2.398057,48.844427],[2.3969423,48.844422],[2.3961191,48.8443438],[2.3963639,48.8440471]]]]},"properties":{"code_section":"75112000CK","code_commune":"75112","section_courte":"CK"}},{"type":"Feature","geometry":{"type":"MultiPolygon","coordinates":[[[[2.402312,48.8451158],[2.3991189,48.8472745],[2.3982102,48.8473645],[2.3977647,48.8473418],[2.3969841,48.8471046],[2.3983182,48.8452999],[2.4022533,48.8449582],[2.402312,48.8451158]]]]},"properties":{"code_section":"75112000CL","code_commune":"75112","section_courte":"CL"}},{"type":"Feature","geometry":{"type":"MultiPolygon","coordinates":[[[[2.3948227,48.8470777],[2.3948073,48.8470462],[2.3942036,48.8474446],[2.3936788,48.8471424],[2.3953509,48.845268],[2.3961191,48.8443438],[2.3969423,48.844422],[2.398057,48.844427],[2.3980274,48.8453254],[2.3983182,48.8452999],[2.3970078,48.8470736],[2.3965506,48.846925],[2.3959448,48.846809],[2.3956352,48.846837],[2.3956594,48.8469602],[2.395173,48.8470059],[2.3948227,48.8470777]]]]},"properties":{"code_section":"75112000CM","code_commune":"75112","section_courte":"CM"}},{"type":"Feature","geometry":{"type":"MultiPolygon","coordinates":[[[[2.3982102,48.8473645],[2.3991189,48.8472745],[2.3989714,48.847373],[2.3991176,48.8480977],[2.3959164,48.8483846],[2.3933682,48.8487627],[2.3932001,48.848082],[2.3928524,48.8480416],[2.3936788,48.8471424],[2.3942036,48.8474446],[2.3948073,48.8470462],[2.3948227,48.8470777],[2.395173,48.8470059],[2.3956594,48.8469602],[2.3956352,48.846837],[2.3959448,48.846809],[2.3965506,48.846925],[2.3970078,48.8470736],[2.3969841,48.8471046],[2.3977647,48.8473418],[2.3982102,48.8473645]]]]},"properties":{"code_section":"75112000CN","code_commune":"75112","section_courte":"CN"}},{"type":"Feature","geometry":{"type":"MultiPolygon","coordinates":[[[[2.3950641,48.845589],[2.3936788,48.8471424],[2.3922913,48.8464614],[2.3919848,48.8465],[2.3913346,48.8461746],[2.3909002,48.84655],[2.3887462,48.8454933],[2.3902834,48.8442141],[2.3925904,48.8453219],[2.3930546,48.8449058],[2.3932662,48.8450035],[2.3932751,48.8450612],[2.3934748,48.8450473],[2.3935085,48.845116],[2.3937239,48.845216],[2.3938982,48.8450583],[2.3950641,48.845589]]]]},"properties":{"code_section":"75112000CO","code_commune":"75112","section_courte":"CO"}},{"type":"Feature","geometry":{"type":"MultiPolygon","coordinates":[[[[2.392138,48.8464808],[2.3922913,48.8464614],[2.3936788,48.8471424],[2.3928524,48.8480416],[2.3867789,48.8473494],[2.3871232,48.8469251],[2.3878407,48.8462617],[2.3887462,48.8454933],[2.3909002,48.84655],[2.3913346,48.8461746],[2.3919848,48.8465],[2.392138,48.8464808]]]]},"properties":{"code_section":"75112000CP","code_commune":"75112","section_courte":"CP"}},{"type":"Feature","geometry":{"type":"MultiPolygon","coordinates":[[[[2.3933682,48.8487627],[2.3894924,48.8493544],[2.3894468,48.8492319],[2.3872349,48.8475539],[2.387135,48.847388],[2.3932001,48.848082],[2.3933682,48.8487627]]]]},"properties":{"code_section":"75112000CR","code_commune":"75112","section_courte":"CR"}},{"type":"Feature","geometry":{"type":"MultiPolygon","coordinates":[[[[2.3872349,48.8475539],[2.3894468,48.8492319],[2.3894924,48.8493544],[2.3843434,48.8501315],[2.3837746,48.8470093],[2.387135,48.847388],[2.3872349,48.8475539]]]]},"properties":{"code_section":"75112000CS","code_commune":"75112","section_courte":"CS"}},{"type":"Feature","geometry":{"type":"MultiPolygon","coordinates":[[[[2.3872059,48.8454658],[2.3872065,48.8453473],[2.3889201,48.8453489],[2.3878407,48.8462617],[2.3871232,48.8469251],[2.3867789,48.8473494],[2.3837746,48.8470093],[2.3833819,48.8448531],[2.3834117,48.8448278],[2.3848318,48.8456324],[2.3850371,48.8457128],[2.3867822,48.845708],[2.3867842,48.8454662],[2.3872059,48.8454658]]]]},"properties":{"code_section":"75112000CT","code_commune":"75112","section_courte":"CT"}},{"type":"Feature","geometry":{"type":"MultiPolygon","coordinates":[[[[2.3867822,48.845708],[2.3850371,48.8457128],[2.3848318,48.8456324],[2.3834117,48.8448278],[2.3853287,48.84324],[2.3866305,48.8437876],[2.3874965,48.8442601],[2.3881853,48.8437016],[2.3899431,48.8444992],[2.3889201,48.8453489],[2.3872065,48.8453473],[2.3872059,48.8454658],[2.3867842,48.8454662],[2.3867822,48.845708]]]]},"properties":{"code_section":"75112000CV","code_commune":"75112","section_courte":"CV"}},{"type":"Feature","geometry":{"type":"MultiPolygon","coordinates":[[[[2.3816778,48.844333],[2.3800706,48.8437304],[2.3814999,48.842336],[2.3826529,48.8431933],[2.3843129,48.842397],[2.3856746,48.842903],[2.3854282,48.8431575],[2.3833819,48.8448531],[2.3830018,48.8448304],[2.3816778,48.844333]]]]},"properties":{"code_section":"75112000CW","code_commune":"75112","section_courte":"CW"}},{"type":"Feature","geometry":{"type":"MultiPolygon","coordinates":[[[[2.380099,48.8437024],[2.3800706,48.8437304],[2.3786027,48.8431799],[2.3763568,48.8421614],[2.3771642,48.8417095],[2.3784492,48.8408152],[2.3800392,48.8420618],[2.3814999,48.842336],[2.380099,48.8437024]]]]},"properties":{"code_section":"75112000CX","code_commune":"75112","section_courte":"CX"}},{"type":"Feature","geometry":{"type":"MultiPolygon","coordinates":[[[[2.3784492,48.8408152],[2.378999,48.8404432],[2.3796844,48.8398928],[2.3806746,48.8402489],[2.3829017,48.8398494],[2.3837375,48.8407752],[2.3829003,48.8411276],[2.382294,48.8415465],[2.3814999,48.842336],[2.3800392,48.8420618],[2.3784492,48.8408152]]]]},"properties":{"code_section":"75112000CY","code_commune":"75112","section_courte":"CY"}},{"type":"Feature","geometry":{"type":"MultiPolygon","coordinates":[[[[2.3834829,48.8427952],[2.3826529,48.8431933],[2.3814999,48.842336],[2.382294,48.8415465],[2.3829003,48.8411276],[2.3837375,48.8407752],[2.3855748,48.8414725],[2.386305,48.8407535],[2.3873655,48.8411555],[2.3856746,48.842903],[2.3843129,48.842397],[2.3834829,48.8427952]]]]},"properties":{"code_section":"75112000CZ","code_commune":"75112","section_courte":"CZ"}},{"type":"Feature","geometry":{"type":"MultiPolygon","coordinates":[[[[2.3892646,48.83899],[2.3873655,48.8411555],[2.386305,48.8407535],[2.3855748,48.8414725],[2.3837375,48.8407752],[2.3829017,48.8398494],[2.3882848,48.8389058],[2.3892646,48.83899]]]]},"properties":{"code_section":"75112000DA","code_commune":"75112","section_courte":"DA"}},{"type":"Feature","geometry":{"type":"MultiPolygon","coordinates":[[[[2.3806746,48.8402489],[2.3796844,48.8398928],[2.3801035,48.8395567],[2.3788056,48.8388354],[2.3798931,48.8380658],[2.3804764,48.8384407],[2.3814977,48.8375081],[2.382357,48.837897],[2.3829625,48.8375318],[2.3846947,48.8387088],[2.3843933,48.8388326],[2.3849076,48.8391702],[2.3850419,48.8394744],[2.3806746,48.8402489]]]]},"properties":{"code_section":"75112000DB","code_commune":"75112","section_courte":"DB"}},{"type":"Feature","geometry":{"type":"MultiPolygon","coordinates":[[[[2.3829625,48.8375318],[2.3860922,48.8356959],[2.38666,48.8360089],[2.3867919,48.8359025],[2.387952,48.8365315],[2.3887344,48.8367275],[2.3879682,48.8373431],[2.3846947,48.8387088],[2.3829625,48.8375318]]]]},"properties":{"code_section":"75112000DC","code_commune":"75112","section_courte":"DC"}},{"type":"Feature","geometry":{"type":"MultiPolygon","coordinates":[[[[2.3900258,48.8370511],[2.3914611,48.8370151],[2.3912749,48.8372526],[2.3896381,48.8386099],[2.3892646,48.83899],[2.3882848,48.8389058],[2.3850419,48.8394744],[2.3849076,48.8391702],[2.3843933,48.8388326],[2.3879682,48.8373431],[2.3887344,48.8367275],[2.3900258,48.8370511]]]]},"properties":{"code_section":"75112000DD","code_commune":"75112","section_courte":"DD"}},{"type":"Feature","geometry":{"type":"MultiPolygon","coordinates":[[[[2.3916517,48.8354475],[2.392201,48.8349383],[2.3928062,48.8352622],[2.3914611,48.8370151],[2.3900258,48.8370511],[2.387952,48.8365315],[2.3867919,48.8359025],[2.3890609,48.8340968],[2.3916517,48.8354475]]]]},"properties":{"code_section":"75112000DE","code_commune":"75112","section_courte":"DE"}},{"type":"Feature","geometry":{"type":"MultiPolygon","coordinates":[[[[2.3946891,48.8337242],[2.3941732,48.8340626],[2.3928062,48.8352622],[2.392201,48.8349383],[2.3916517,48.8354475],[2.3890609,48.8340968],[2.3892929,48.8339155],[2.3892316,48.8338808],[2.3908902,48.8325601],[2.3909469,48.8324591],[2.3928064,48.8324345],[2.3946891,48.8337242]]]]},"properties":{"code_section":"75112000DH","code_commune":"75112","section_courte":"DH"}},{"type":"Feature","geometry":{"type":"MultiPolygon","coordinates":[[[[2.3918281,48.8299622],[2.392621,48.8301903],[2.3945345,48.8306106],[2.3928064,48.8324345],[2.3909469,48.8324591],[2.390874,48.8323412],[2.3890703,48.8311434],[2.390187,48.8304151],[2.3905355,48.8306496],[2.3916779,48.8299096],[2.3918281,48.8299622]]]]},"properties":{"code_section":"75112000DI","code_commune":"75112","section_courte":"DI"}},{"type":"Feature","geometry":{"type":"MultiPolygon","coordinates":[[[[2.3965351,48.8325655],[2.3946891,48.8337242],[2.3928064,48.8324345],[2.3945345,48.8306106],[2.3962977,48.8311137],[2.3969185,48.8313529],[2.3977934,48.8317502],[2.3965351,48.8325655]]]]},"properties":{"code_section":"75112000DK","code_commune":"75112","section_courte":"DK"}},{"type":"Feature","geometry":{"type":"MultiPolygon","coordinates":[[[[2.3942661,48.8305461],[2.3951829,48.8291941],[2.3981314,48.829684],[2.3995234,48.8306392],[2.3977934,48.8317502],[2.3969185,48.8313529],[2.3962977,48.8311137],[2.3942661,48.8305461]]]]},"properties":{"code_section":"75112000DL","code_commune":"75112","section_courte":"DL"}},{"type":"Feature","geometry":{"type":"MultiPolygon","coordinates":[[[[2.4014942,48.8293658],[2.3995234,48.8306392],[2.3981314,48.829684],[2.3960959,48.8293459],[2.3977815,48.8283159],[2.4014942,48.8293658]]]]},"properties":{"code_section":"75112000DM","code_commune":"75112","section_courte":"DM"}},{"type":"Feature","geometry":{"type":"MultiPolygon","coordinates":[[[[2.3960959,48.8293459],[2.3946357,48.8290936],[2.3925923,48.8284465],[2.3921236,48.8281857],[2.3928048,48.827808],[2.3929576,48.8276501],[2.3931364,48.8273492],[2.3933875,48.8270925],[2.394352,48.8275135],[2.3957231,48.8277306],[2.3977815,48.8283159],[2.3960959,48.8293459]]]]},"properties":{"code_section":"75112000DN","code_commune":"75112","section_courte":"DN"}},{"type":"Feature","geometry":{"type":"MultiPolygon","coordinates":[[[[2.392621,48.8301903],[2.3916779,48.8299096],[2.3906472,48.8294612],[2.3907221,48.829179],[2.3908777,48.8289912],[2.3921236,48.8281857],[2.3925923,48.8284465],[2.3946357,48.8290936],[2.3951829,48.8291941],[2.3942661,48.8305461],[2.392621,48.8301903]]]]},"properties":{"code_section":"75112000DO","code_commune":"75112","section_courte":"DO"}},{"type":"Feature","geometry":{"type":"MultiPolygon","coordinates":[[[[2.3902582,48.8257274],[2.3933875,48.8270925],[2.3931364,48.8273492],[2.3929576,48.8276501],[2.3928048,48.827808],[2.3921236,48.8281857],[2.3912119,48.8281746],[2.3909894,48.8281211],[2.39077,48.8280174],[2.3905398,48.82786],[2.3903616,48.827663],[2.3901812,48.8272149],[2.3899566,48.826861],[2.3890623,48.826558],[2.3902582,48.8257274]]]]},"properties":{"code_section":"75112000DP","code_commune":"75112","section_courte":"DP"}},{"type":"Feature","geometry":{"type":"MultiPolygon","coordinates":[[[[2.3890623,48.826558],[2.3899566,48.826861],[2.3901812,48.8272149],[2.3903616,48.827663],[2.3905398,48.82786],[2.39077,48.8280174],[2.3909894,48.8281211],[2.3912119,48.8281746],[2.3921236,48.8281857],[2.3908777,48.8289912],[2.3907221,48.829179],[2.3906472,48.8294612],[2.3901994,48.829304],[2.3895498,48.829133],[2.388503,48.8286888],[2.3870625,48.8279798],[2.3890623,48.826558]]]]},"properties":{"code_section":"75112000DR","code_commune":"75112","section_courte":"DR"}},{"type":"Feature","geometry":{"type":"MultiPolygon","coordinates":[[[[2.3870625,48.8279798],[2.388503,48.8286888],[2.3895498,48.829133],[2.3901994,48.829304],[2.3906472,48.8294612],[2.3916779,48.8299096],[2.3905355,48.8306496],[2.390187,48.8304151],[2.3890703,48.8311434],[2.3870155,48.8297783],[2.3869643,48.829818],[2.3864887,48.829558],[2.3855185,48.8303309],[2.3847842,48.8299231],[2.3870625,48.8279798]]]]},"properties":{"code_section":"75112000DS","code_commune":"75112","section_courte":"DS"}},{"type":"Feature","geometry":{"type":"MultiPolygon","coordinates":[[[[2.3859846,48.8320133],[2.3856722,48.8317731],[2.3851784,48.8320521],[2.3848926,48.8318318],[2.3843607,48.8322606],[2.382842,48.8314505],[2.3847842,48.8299231],[2.3855185,48.8303309],[2.3864887,48.829558],[2.3869643,48.829818],[2.3870155,48.8297783],[2.3889372,48.8310549],[2.3882368,48.831465],[2.3885663,48.8317552],[2.3874566,48.8323324],[2.3866622,48.8316673],[2.3859846,48.8320133]]]]},"properties":{"code_section":"75112000DT","code_commune":"75112","section_courte":"DT"}},{"type":"Feature","geometry":{"type":"MultiPolygon","coordinates":[[[[2.3874566,48.8323324],[2.3885663,48.8317552],[2.3882368,48.831465],[2.3889372,48.8310549],[2.390874,48.8323412],[2.3909462,48.8324706],[2.3908902,48.8325601],[2.3892721,48.8338472],[2.3891285,48.8337723],[2.3889857,48.8338848],[2.3882063,48.8334571],[2.3879961,48.8336242],[2.3879753,48.8338458],[2.3877048,48.8339986],[2.3851784,48.8320521],[2.3856722,48.8317731],[2.3859846,48.8320133],[2.3866622,48.8316673],[2.3874566,48.8323324]]]]},"properties":{"code_section":"75112000DV","code_commune":"75112","section_courte":"DV"}},{"type":"Feature","geometry":{"type":"MultiPolygon","coordinates":[[[[2.3867919,48.8359025],[2.38666,48.8360089],[2.3833085,48.8341722],[2.3837017,48.8339237],[2.383174,48.8335495],[2.3837723,48.8331718],[2.3844394,48.8336185],[2.3846388,48.8334903],[2.3847319,48.8335587],[2.3849906,48.833409],[2.3849471,48.8333784],[2.3853319,48.833147],[2.3858438,48.8335265],[2.386,48.8334415],[2.3860212,48.8334568],[2.3865854,48.8331357],[2.3877048,48.8339986],[2.3879753,48.8338458],[2.3879961,48.8336242],[2.3882063,48.8334571],[2.3889857,48.8338848],[2.3891285,48.8337723],[2.3892721,48.8338472],[2.3892316,48.8338808],[2.3892929,48.8339155],[2.3867919,48.8359025]]]]},"properties":{"code_section":"75112000DW","code_commune":"75112","section_courte":"DW"}},{"type":"Feature","geometry":{"type":"MultiPolygon","coordinates":[[[[2.3833085,48.8341722],[2.3809925,48.8329081],[2.382842,48.8314505],[2.3843607,48.8322606],[2.3848926,48.8318318],[2.3865854,48.8331357],[2.3860212,48.8334568],[2.386,48.8334415],[2.3858438,48.8335265],[2.3853319,48.833147],[2.3849471,48.8333784],[2.3849906,48.833409],[2.3847319,48.8335587],[2.3846388,48.8334903],[2.3844394,48.8336185],[2.3837723,48.8331718],[2.383174,48.8335495],[2.3837017,48.8339237],[2.3833085,48.8341722]]]]},"properties":{"code_section":"75112000DX","code_commune":"75112","section_courte":"DX"}},{"type":"Feature","geometry":{"type":"MultiPolygon","coordinates":[[[[2.3809925,48.8329081],[2.3840072,48.8345534],[2.3822365,48.8357594],[2.3815914,48.8352752],[2.380998,48.8356238],[2.3798474,48.8349888],[2.379359,48.8353791],[2.3784565,48.83488],[2.3809925,48.8329081]]]]},"properties":{"code_section":"75112000DY","code_commune":"75112","section_courte":"DY"}},{"type":"Feature","geometry":{"type":"MultiPolygon","coordinates":[[[[2.3840072,48.8345534],[2.3860922,48.8356959],[2.3835128,48.8372153],[2.380998,48.8356238],[2.3815914,48.8352752],[2.3822365,48.8357594],[2.3840072,48.8345534]]]]},"properties":{"code_section":"75112000DZ","code_commune":"75112","section_courte":"DZ"}},{"type":"Feature","geometry":{"type":"MultiPolygon","coordinates":[[[[2.3801177,48.8376001],[2.3769826,48.8360992],[2.3784565,48.83488],[2.379359,48.8353791],[2.3798474,48.8349888],[2.380998,48.8356238],[2.3835128,48.8372153],[2.382357,48.837897],[2.3814977,48.8375081],[2.38096,48.8380021],[2.3801177,48.8376001]]]]},"properties":{"code_section":"75112000EA","code_commune":"75112","section_courte":"EA"}},{"type":"Feature","geometry":{"type":"MultiPolygon","coordinates":[[[[2.376277,48.8381846],[2.3757533,48.8386478],[2.3748072,48.838107],[2.3769826,48.8360992],[2.38096,48.8380021],[2.3804764,48.8384407],[2.3798931,48.8380658],[2.3788056,48.8388354],[2.3768009,48.8377216],[2.376277,48.8381846]]]]},"properties":{"code_section":"75112000EB","code_commune":"75112","section_courte":"EB"}},{"type":"Feature","geometry":{"type":"MultiPolygon","coordinates":[[[[2.3765038,48.8393021],[2.3760569,48.8396668],[2.3753518,48.8393647],[2.3747953,48.8398332],[2.3735984,48.83921],[2.3748072,48.838107],[2.3757533,48.8386478],[2.3768009,48.8377216],[2.3801035,48.8395567],[2.378999,48.8404432],[2.3766722,48.8391674],[2.3765038,48.8393021]]]]},"properties":{"code_section":"75112000EC","code_commune":"75112","section_courte":"EC"}},{"type":"Feature","geometry":{"type":"MultiPolygon","coordinates":[[[[2.3766722,48.8391674],[2.378999,48.8404432],[2.3771642,48.8417095],[2.3763568,48.8421614],[2.3724138,48.8401711],[2.3730895,48.8396745],[2.3735984,48.83921],[2.3747953,48.8398332],[2.3753518,48.8393647],[2.3760569,48.8396668],[2.3766722,48.8391674]]]]},"properties":{"code_section":"75112000ED","code_commune":"75112","section_courte":"ED"}},{"type":"Feature","geometry":{"type":"MultiPolygon","coordinates":[[[[2.3738808,48.8409117],[2.3763568,48.8421614],[2.3746645,48.8430913],[2.3736095,48.8424653],[2.373847,48.84226],[2.3727775,48.8416325],[2.3720238,48.8423173],[2.3705756,48.8415282],[2.3724138,48.8401711],[2.3738808,48.8409117]]]]},"properties":{"code_section":"75112000EE","code_commune":"75112","section_courte":"EE"}},{"type":"Feature","geometry":{"type":"MultiPolygon","coordinates":[[[[2.3737294,48.8436037],[2.3727939,48.8441162],[2.3724203,48.8443865],[2.3707754,48.8434221],[2.3684629,48.8430935],[2.3705756,48.8415282],[2.3720238,48.8423173],[2.3727775,48.8416325],[2.373847,48.84226],[2.3736095,48.8424653],[2.3746645,48.8430913],[2.3737294,48.8436037]]]]},"properties":{"code_section":"75112000EH","code_commune":"75112","section_courte":"EH"}},{"type":"Feature","geometry":{"type":"MultiPolygon","coordinates":[[[[2.3769034,48.8441828],[2.3738373,48.8458727],[2.3711035,48.8455562],[2.3724203,48.8443865],[2.3727939,48.8441162],[2.3751612,48.8428184],[2.3769034,48.8441828]]]]},"properties":{"code_section":"75112000EI","code_commune":"75112","section_courte":"EI"}},{"type":"Feature","geometry":{"type":"MultiPolygon","coordinates":[[[[2.3680095,48.8455484],[2.3676308,48.8458407],[2.3660292,48.8449302],[2.3684629,48.8430935],[2.3707754,48.8434221],[2.3724203,48.8443865],[2.3711035,48.8455562],[2.3683883,48.8452559],[2.3680095,48.8455484]]]]},"properties":{"code_section":"75112000EK","code_commune":"75112","section_courte":"EK"}},{"type":"Feature","geometry":{"type":"MultiPolygon","coordinates":[[[[2.3660292,48.8449302],[2.3676308,48.8458407],[2.3683883,48.8452559],[2.3702779,48.8454659],[2.3708286,48.8458543],[2.3676449,48.8480816],[2.3671966,48.8470795],[2.3665007,48.8473714],[2.3644297,48.8461397],[2.3660292,48.8449302]]]]},"properties":{"code_section":"75112000EL","code_commune":"75112","section_courte":"EL"}},{"type":"Feature","geometry":{"type":"MultiPolygon","coordinates":[[[[2.3718552,48.8470216],[2.3716911,48.8473866],[2.3700628,48.8463878],[2.3708286,48.8458543],[2.3702779,48.8454659],[2.3743692,48.8459331],[2.3751804,48.8471163],[2.3720192,48.8466564],[2.3718552,48.8470216]]]]},"properties":{"code_section":"75112000EM","code_commune":"75112","section_courte":"EM"}},{"type":"Feature","geometry":{"type":"MultiPolygon","coordinates":[[[[2.3694095,48.8468481],[2.3700628,48.8463878],[2.3716911,48.8473866],[2.3720192,48.8466564],[2.3751804,48.8471163],[2.3753192,48.8473007],[2.3715766,48.8491042],[2.371153,48.849361],[2.3707888,48.849682],[2.3710022,48.8489529],[2.3714342,48.8479906],[2.3694095,48.8468481]]]]},"properties":{"code_section":"75112000EN","code_commune":"75112","section_courte":"EN"}},{"type":"Feature","geometry":{"type":"MultiPolygon","coordinates":[[[[2.3671966,48.8470795],[2.3676449,48.8480816],[2.3694095,48.8468481],[2.3714342,48.8479906],[2.3710022,48.8489529],[2.3685446,48.8500611],[2.3680731,48.8490239],[2.3673092,48.8491759],[2.3665007,48.8473714],[2.3671966,48.8470795]]]]},"properties":{"code_section":"75112000EO","code_commune":"75112","section_courte":"EO"}},{"type":"Feature","geometry":{"type":"MultiPolygon","coordinates":[[[[2.3680731,48.8490239],[2.3685446,48.8500611],[2.3710022,48.8489529],[2.3707888,48.849682],[2.3705003,48.8500818],[2.3698986,48.8514132],[2.369621,48.8513825],[2.3684189,48.8516158],[2.3673092,48.8491759],[2.3680731,48.8490239]]]]},"properties":{"code_section":"75112000EP","code_commune":"75112","section_courte":"EP"}},{"type":"Feature","geometry":{"type":"MultiPolygon","coordinates":[[[[2.3700177,48.8511651],[2.3701368,48.8509171],[2.3710436,48.8510872],[2.3716511,48.8518778],[2.3737708,48.8500631],[2.3748499,48.8516043],[2.3737872,48.8518652],[2.3718188,48.852448],[2.3712985,48.8526836],[2.3703512,48.8532506],[2.3691401,48.8531629],[2.3684189,48.8516158],[2.369621,48.8513825],[2.3698986,48.8514132],[2.3700177,48.8511651]]]]},"properties":{"code_section":"75112000ER","code_commune":"75112","section_courte":"ER"}},{"type":"Feature","geometry":{"type":"MultiPolygon","coordinates":[[[[2.3726617,48.8498547],[2.3731771,48.8505714],[2.3716511,48.8518778],[2.3710436,48.8510872],[2.3701368,48.8509171],[2.3705003,48.8500818],[2.3707888,48.849682],[2.371047,48.849442],[2.3715766,48.8491042],[2.3719807,48.8489082],[2.3726617,48.8498547]]]]},"properties":{"code_section":"75112000ES","code_commune":"75112","section_courte":"ES"}},{"type":"Feature","geometry":{"type":"MultiPolygon","coordinates":[[[[2.3737708,48.8500631],[2.3745327,48.8494115],[2.3749006,48.8490064],[2.3760296,48.8483474],[2.3777728,48.8508853],[2.3748499,48.8516043],[2.3737708,48.8500631]]]]},"properties":{"code_section":"75112000ET","code_commune":"75112","section_courte":"ET"}},{"type":"Feature","geometry":{"type":"MultiPolygon","coordinates":[[[[2.3719807,48.8489082],[2.3753192,48.8473007],[2.3760296,48.8483474],[2.3749006,48.8490064],[2.3745327,48.8494115],[2.3731771,48.8505714],[2.3719807,48.8489082]]]]},"properties":{"code_section":"75112000EV","code_commune":"75112","section_courte":"EV"}},{"type":"Feature","geometry":{"type":"MultiPolygon","coordinates":[[[[2.3753192,48.8473007],[2.3743692,48.8459331],[2.3793271,48.8465003],[2.3785811,48.8485849],[2.37841,48.848551],[2.3782747,48.848563],[2.3778885,48.8486842],[2.3775809,48.8483019],[2.3769941,48.8484863],[2.3766407,48.8479909],[2.3760296,48.8483474],[2.3753192,48.8473007]]]]},"properties":{"code_section":"75112000EW","code_commune":"75112","section_courte":"EW"}},{"type":"Feature","geometry":{"type":"MultiPolygon","coordinates":[[[[2.3807136,48.8480044],[2.3790504,48.8501209],[2.3793965,48.8505509],[2.3788181,48.8506299],[2.3777728,48.8508853],[2.3760296,48.8483474],[2.3766407,48.8479909],[2.3769941,48.8484863],[2.3775809,48.8483019],[2.3778885,48.8486842],[2.3782747,48.848563],[2.37841,48.848551],[2.3785811,48.8485849],[2.3787318,48.8481642],[2.3795018,48.8482894],[2.3795607,48.8481231],[2.3807136,48.8480044]]]]},"properties":{"code_section":"75112000EX","code_commune":"75112","section_courte":"EX"}},{"type":"Feature","geometry":{"type":"MultiPolygon","coordinates":[[[[2.3809105,48.8484119],[2.3815495,48.8483345],[2.381647,48.8487024],[2.3834243,48.8484908],[2.3833532,48.8482209],[2.3839851,48.8481642],[2.3843434,48.8501315],[2.3837792,48.8502127],[2.3815748,48.8503852],[2.3801195,48.8504506],[2.3793965,48.8505509],[2.3790504,48.8501209],[2.3807136,48.8480044],[2.3808395,48.8484206],[2.3809105,48.8484119]]]]},"properties":{"code_section":"75112000EY","code_commune":"75112","section_courte":"EY"}},{"type":"Feature","geometry":{"type":"MultiPolygon","coordinates":[[[[2.3787318,48.8481642],[2.3793271,48.8465003],[2.3837746,48.8470093],[2.3839851,48.8481642],[2.3833532,48.8482209],[2.3834243,48.8484908],[2.381647,48.8487024],[2.3815495,48.8483345],[2.3808395,48.8484206],[2.3807136,48.8480044],[2.3795607,48.8481231],[2.3795018,48.8482894],[2.3787318,48.8481642]]]]},"properties":{"code_section":"75112000EZ","code_commune":"75112","section_courte":"EZ"}},{"type":"Feature","geometry":{"type":"MultiPolygon","coordinates":[[[[2.3834215,48.8450708],[2.3837746,48.8470093],[2.3774522,48.8462741],[2.3815711,48.844293],[2.3830018,48.8448304],[2.3833819,48.8448531],[2.3834215,48.8450708]]]]},"properties":{"code_section":"75112000HA","code_commune":"75112","section_courte":"HA"}},{"type":"Feature","geometry":{"type":"MultiPolygon","coordinates":[[[[2.3775394,48.8438374],[2.3801984,48.844958],[2.3774522,48.8462741],[2.3738373,48.8458727],[2.3775394,48.8438374]]]]},"properties":{"code_section":"75112000HB","code_commune":"75112","section_courte":"HB"}},{"type":"Feature","geometry":{"type":"MultiPolygon","coordinates":[[[[2.3751612,48.8428184],[2.3763568,48.8421614],[2.3786027,48.8431799],[2.3815711,48.844293],[2.3801984,48.844958],[2.3775394,48.8438374],[2.3769034,48.8441828],[2.3751612,48.8428184]]]]},"properties":{"code_section":"75112000HC","code_commune":"75112","section_courte":"HC"}}]}