{"type":"FeatureCollection","features":[{"type":"Feature","geometry":{"type":"MultiPolygon","coordinates":[[[[2.3660292,48.8449302],[2.3650327,48.8443463],[2.3649189,48.8442275],[2.3647888,48.8439637],[2.3646084,48.8437206],[2.365067,48.8436484],[2.3655015,48.843659],[2.3679641,48.8418514],[2.3691819,48.8425512],[2.3660292,48.8449302]]]]},"properties":{"code_section":"75113000AA","code_commune":"75113","section_courte":"AA"}},{"type":"Feature","geometry":{"type":"MultiPolygon","coordinates":[[[[2.3679641,48.8418514],[2.3655015,48.843659],[2.365067,48.8436484],[2.3646084,48.8437206],[2.3633231,48.841989],[2.3637334,48.8405929],[2.3655972,48.8409375],[2.3679641,48.8418514]]]]},"properties":{"code_section":"75113000AB","code_commune":"75113","section_courte":"AB"}},{"type":"Feature","geometry":{"type":"MultiPolygon","coordinates":[[[[2.3679641,48.8418514],[2.3709427,48.8396985],[2.3721205,48.8403942],[2.3691819,48.8425512],[2.3679641,48.8418514]]]]},"properties":{"code_section":"75113000AC","code_commune":"75113","section_courte":"AC"}},{"type":"Feature","geometry":{"type":"MultiPolygon","coordinates":[[[[2.3703423,48.8401327],[2.3679641,48.8418514],[2.3655972,48.8409375],[2.3654003,48.8409012],[2.3657963,48.8405047],[2.366003,48.8405953],[2.3665246,48.8401829],[2.3677199,48.8390103],[2.3685345,48.8392974],[2.3684278,48.8394248],[2.3690173,48.83964],[2.3691295,48.8395069],[2.3695862,48.8396675],[2.3694695,48.8398067],[2.3703423,48.8401327]]]]},"properties":{"code_section":"75113000AD","code_commune":"75113","section_courte":"AD"}},{"type":"Feature","geometry":{"type":"MultiPolygon","coordinates":[[[[2.368085,48.8386492],[2.368982,48.837761],[2.369556,48.8379778],[2.3698106,48.8376173],[2.3702462,48.8377759],[2.3700808,48.838176],[2.370338,48.8382731],[2.3706946,48.8379422],[2.3723848,48.838641],[2.3703423,48.8401327],[2.3694695,48.8398067],[2.3695862,48.8396675],[2.3691295,48.8395069],[2.3690173,48.83964],[2.3684278,48.8394248],[2.3685345,48.8392974],[2.3677199,48.8390103],[2.368085,48.8386492]]]]},"properties":{"code_section":"75113000AE","code_commune":"75113","section_courte":"AE"}},{"type":"Feature","geometry":{"type":"MultiPolygon","coordinates":[[[[2.3709427,48.8396985],[2.3723848,48.838641],[2.3737559,48.8375308],[2.3748072,48.838107],[2.3730895,48.8396745],[2.3721205,48.8403942],[2.3709427,48.8396985]]]]},"properties":{"code_section":"75113000AF","code_commune":"75113","section_courte":"AF"}},{"type":"Feature","geometry":{"type":"MultiPolygon","coordinates":[[[[2.3707461,48.8359519],[2.3737559,48.8375308],[2.3723848,48.838641],[2.3706946,48.8379422],[2.370338,48.8382731],[2.3700808,48.838176],[2.3702462,48.8377759],[2.3698106,48.8376173],[2.369556,48.8379778],[2.368982,48.837761],[2.3698977,48.836838],[2.3698562,48.8368223],[2.3707461,48.8359519]]]]},"properties":{"code_section":"75113000AG","code_commune":"75113","section_courte":"AG"}},{"type":"Feature","geometry":{"type":"MultiPolygon","coordinates":[[[[2.3655139,48.8361751],[2.3661051,48.8354031],[2.3662287,48.8354504],[2.3669877,48.8347186],[2.3672104,48.8346578],[2.3696609,48.835484],[2.3707461,48.8359519],[2.3698562,48.8368223],[2.3689039,48.8364669],[2.3684235,48.8371129],[2.3655139,48.8361751]]]]},"properties":{"code_section":"75113000AH","code_commune":"75113","section_courte":"AH"}},{"type":"Feature","geometry":{"type":"MultiPolygon","coordinates":[[[[2.3698977,48.836838],[2.368085,48.8386492],[2.3675358,48.838738],[2.3674227,48.8386022],[2.3650274,48.8378367],[2.3648821,48.8380144],[2.3634331,48.8375473],[2.3646392,48.8358975],[2.3684235,48.8371129],[2.3689039,48.8364669],[2.3698977,48.836838]]]]},"properties":{"code_section":"75113000AI","code_commune":"75113","section_courte":"AI"}},{"type":"Feature","geometry":{"type":"MultiPolygon","coordinates":[[[[2.368085,48.8386492],[2.3665651,48.8401406],[2.3661952,48.8400225],[2.3663458,48.8398139],[2.3661138,48.8397401],[2.3659092,48.8400216],[2.3624496,48.8389274],[2.3634331,48.8375473],[2.3648821,48.8380144],[2.3650274,48.8378367],[2.3674227,48.8386022],[2.3675358,48.838738],[2.368085,48.8386492]]]]},"properties":{"code_section":"75113000AJ","code_commune":"75113","section_courte":"AJ"}},{"type":"Feature","geometry":{"type":"MultiPolygon","coordinates":[[[[2.3637334,48.8405929],[2.3633231,48.841989],[2.3616589,48.8397485],[2.3619845,48.8396438],[2.3624981,48.8389429],[2.3659092,48.8400216],[2.3661138,48.8397401],[2.3663458,48.8398139],[2.3661952,48.8400225],[2.3665651,48.8401406],[2.366003,48.8405953],[2.3657963,48.8405047],[2.3654003,48.8409012],[2.3637334,48.8405929]]]]},"properties":{"code_section":"75113000AK","code_commune":"75113","section_courte":"AK"}},{"type":"Feature","geometry":{"type":"MultiPolygon","coordinates":[[[[2.3586951,48.8370502],[2.359301,48.8365895],[2.361816,48.8399611],[2.3577963,48.8386831],[2.3583088,48.8380114],[2.3580891,48.837511],[2.3586951,48.8370502]]]]},"properties":{"code_section":"75113000AL","code_commune":"75113","section_courte":"AL"}},{"type":"Feature","geometry":{"type":"MultiPolygon","coordinates":[[[[2.3616589,48.8397485],[2.3599762,48.8375111],[2.3605706,48.8373227],[2.3606427,48.8372427],[2.3607777,48.8372127],[2.3611089,48.8367581],[2.3617806,48.836804],[2.3635611,48.8373725],[2.3629567,48.8381968],[2.3624496,48.8389274],[2.3624981,48.8389429],[2.3619845,48.8396438],[2.3616589,48.8397485]]]]},"properties":{"code_section":"75113000AM","code_commune":"75113","section_courte":"AM"}},{"type":"Feature","geometry":{"type":"MultiPolygon","coordinates":[[[[2.3599762,48.8375111],[2.359301,48.8365895],[2.3614917,48.835713],[2.362748,48.8350428],[2.3628268,48.8354763],[2.3645459,48.8360251],[2.3635611,48.8373725],[2.3617806,48.836804],[2.3611089,48.8367581],[2.3607777,48.8372127],[2.3606427,48.8372427],[2.3605706,48.8373227],[2.3599762,48.8375111]]]]},"properties":{"code_section":"75113000AN","code_commune":"75113","section_courte":"AN"}},{"type":"Feature","geometry":{"type":"MultiPolygon","coordinates":[[[[2.362748,48.8350428],[2.3614917,48.835713],[2.3609035,48.8354074],[2.3635468,48.8334352],[2.3672104,48.8346578],[2.3669877,48.8347186],[2.3662287,48.8354504],[2.3661051,48.8354031],[2.3655117,48.8361778],[2.3646392,48.8358975],[2.3645459,48.8360251],[2.3628268,48.8354763],[2.362748,48.8350428]]]]},"properties":{"code_section":"75113000AO","code_commune":"75113","section_courte":"AO"}},{"type":"Feature","geometry":{"type":"MultiPolygon","coordinates":[[[[2.3607289,48.8345723],[2.3615526,48.8333836],[2.3598557,48.8339266],[2.3585283,48.8321273],[2.3587487,48.8318422],[2.3635468,48.8334352],[2.3616081,48.8348809],[2.3610615,48.8347156],[2.3607289,48.8345723]]]]},"properties":{"code_section":"75113000AP","code_commune":"75113","section_courte":"AP"}},{"type":"Feature","geometry":{"type":"MultiPolygon","coordinates":[[[[2.3614917,48.835713],[2.359301,48.8365895],[2.3585389,48.8355682],[2.3612296,48.8334872],[2.3615526,48.8333836],[2.3607289,48.8345723],[2.3610615,48.8347156],[2.3616081,48.8348809],[2.3609035,48.8354074],[2.3614917,48.835713]]]]},"properties":{"code_section":"75113000AQ","code_commune":"75113","section_courte":"AQ"}},{"type":"Feature","geometry":{"type":"MultiPolygon","coordinates":[[[[2.358199,48.8377612],[2.3583088,48.8380114],[2.3577963,48.8386831],[2.355351,48.8379036],[2.3552216,48.8375],[2.3562651,48.8366631],[2.3577507,48.8372312],[2.358331,48.8364348],[2.3580147,48.8363076],[2.3586429,48.8357002],[2.359301,48.8365895],[2.3580891,48.837511],[2.358199,48.8377612]]]]},"properties":{"code_section":"75113000AR","code_commune":"75113","section_courte":"AR"}},{"type":"Feature","geometry":{"type":"MultiPolygon","coordinates":[[[[2.3533215,48.8349825],[2.3534786,48.8350541],[2.3543251,48.8356454],[2.3547374,48.8359911],[2.355351,48.8379036],[2.3518692,48.8367962],[2.3531646,48.8349108],[2.3533215,48.8349825]]]]},"properties":{"code_section":"75113000AS","code_commune":"75113","section_courte":"AS"}},{"type":"Feature","geometry":{"type":"MultiPolygon","coordinates":[[[[2.3562612,48.8366661],[2.3552216,48.8375],[2.3547374,48.8359911],[2.3543251,48.8356454],[2.3534786,48.8350541],[2.3531646,48.8349108],[2.3535549,48.8343585],[2.3543328,48.8346832],[2.3562167,48.8355912],[2.358331,48.8364348],[2.3577507,48.8372312],[2.3562612,48.8366661]]]]},"properties":{"code_section":"75113000AT","code_commune":"75113","section_courte":"AT"}},{"type":"Feature","geometry":{"type":"MultiPolygon","coordinates":[[[[2.3586429,48.8357002],[2.3580147,48.8363076],[2.3562167,48.8355912],[2.3547343,48.8348761],[2.3568232,48.8332356],[2.3586429,48.8357002]]]]},"properties":{"code_section":"75113000AU","code_commune":"75113","section_courte":"AU"}},{"type":"Feature","geometry":{"type":"MultiPolygon","coordinates":[[[[2.3547343,48.8348761],[2.3535549,48.8343585],[2.3550404,48.8322289],[2.3560786,48.8322474],[2.3568232,48.8332356],[2.3547343,48.8348761]]]]},"properties":{"code_section":"75113000AV","code_commune":"75113","section_courte":"AV"}},{"type":"Feature","geometry":{"type":"MultiPolygon","coordinates":[[[[2.3606819,48.8336624],[2.3612296,48.8334872],[2.3585389,48.8355682],[2.3567714,48.8331671],[2.3588117,48.8325102],[2.3598557,48.8339266],[2.3606819,48.8336624]]]]},"properties":{"code_section":"75113000AW","code_commune":"75113","section_courte":"AW"}},{"type":"Feature","geometry":{"type":"MultiPolygon","coordinates":[[[[2.3585283,48.8321273],[2.3588117,48.8325102],[2.3567714,48.8331671],[2.3560786,48.8322474],[2.3550404,48.8322289],[2.3555767,48.8314253],[2.3561477,48.830966],[2.3587487,48.8318422],[2.3585283,48.8321273]]]]},"properties":{"code_section":"75113000AX","code_commune":"75113","section_courte":"AX"}},{"type":"Feature","geometry":{"type":"MultiPolygon","coordinates":[[[[2.3591257,48.8289614],[2.360138,48.829452],[2.3589446,48.8304876],[2.3580104,48.8315938],[2.3561477,48.830966],[2.3581137,48.8284707],[2.3591257,48.8289614]]]]},"properties":{"code_section":"75113000AY","code_commune":"75113","section_courte":"AY"}},{"type":"Feature","geometry":{"type":"MultiPolygon","coordinates":[[[[2.359805,48.8263141],[2.3624303,48.827578],[2.360138,48.829452],[2.3581137,48.8284707],[2.359805,48.8263141]]]]},"properties":{"code_section":"75113000AZ","code_commune":"75113","section_courte":"AZ"}},{"type":"Feature","geometry":{"type":"MultiPolygon","coordinates":[[[[2.3611177,48.8269461],[2.359805,48.8263141],[2.3599449,48.8261363],[2.363708,48.8266424],[2.3645578,48.8277559],[2.3606854,48.8292403],[2.3605207,48.8291345],[2.3624303,48.827578],[2.3611177,48.8269461]]]]},"properties":{"code_section":"75113000BA","code_commune":"75113","section_courte":"BA"}},{"type":"Feature","geometry":{"type":"MultiPolygon","coordinates":[[[[2.3685692,48.8272989],[2.3676284,48.8280598],[2.3668569,48.8285175],[2.3652675,48.8290067],[2.365347,48.8288693],[2.363708,48.8266424],[2.3685692,48.8272989]]]]},"properties":{"code_section":"75113000BB","code_commune":"75113","section_courte":"BB"}},{"type":"Feature","geometry":{"type":"MultiPolygon","coordinates":[[[[2.3645273,48.8277676],[2.365347,48.8288693],[2.3652675,48.8290067],[2.3622069,48.8302351],[2.3606854,48.8292403],[2.3645273,48.8277676]]]]},"properties":{"code_section":"75113000BC","code_commune":"75113","section_courte":"BC"}},{"type":"Feature","geometry":{"type":"MultiPolygon","coordinates":[[[[2.3598423,48.8321613],[2.3598094,48.8321923],[2.3580104,48.8315938],[2.3589446,48.8304876],[2.3605207,48.8291345],[2.3622069,48.8302351],[2.3617532,48.8304846],[2.3604762,48.8315615],[2.3598423,48.8321613]]]]},"properties":{"code_section":"75113000BD","code_commune":"75113","section_courte":"BD"}},{"type":"Feature","geometry":{"type":"MultiPolygon","coordinates":[[[[2.364112,48.8313047],[2.365275,48.8320846],[2.3635468,48.8334352],[2.3598094,48.8321923],[2.3604762,48.8315615],[2.3611254,48.8310141],[2.3634348,48.8317858],[2.364112,48.8313047]]]]},"properties":{"code_section":"75113000BE","code_commune":"75113","section_courte":"BE"}},{"type":"Feature","geometry":{"type":"MultiPolygon","coordinates":[[[[2.3633467,48.8317564],[2.3611254,48.8310141],[2.3617532,48.8304846],[2.3622069,48.8302351],[2.3652675,48.8290067],[2.3653221,48.8292419],[2.366401,48.8312468],[2.365275,48.8320846],[2.364112,48.8313047],[2.3634348,48.8317858],[2.3633467,48.8317564]]]]},"properties":{"code_section":"75113000BF","code_commune":"75113","section_courte":"BF"}},{"type":"Feature","geometry":{"type":"MultiPolygon","coordinates":[[[[2.3683454,48.8291883],[2.3673577,48.8299281],[2.3678216,48.8301897],[2.366401,48.8312468],[2.3653221,48.8292419],[2.3652675,48.8290067],[2.3668569,48.8285175],[2.3673275,48.8282596],[2.3675834,48.8284093],[2.3676116,48.8284875],[2.3675441,48.8285378],[2.3683454,48.8291883]]]]},"properties":{"code_section":"75113000BG","code_commune":"75113","section_courte":"BG"}},{"type":"Feature","geometry":{"type":"MultiPolygon","coordinates":[[[[2.3709891,48.8299636],[2.3704252,48.8303372],[2.3692639,48.8297],[2.3691749,48.8297035],[2.3683454,48.8291883],[2.3675441,48.8285378],[2.3676116,48.8284875],[2.3675834,48.8284093],[2.3673275,48.8282596],[2.3676284,48.8280598],[2.3685692,48.8272989],[2.371389,48.827681],[2.3729204,48.828485],[2.3719385,48.8295643],[2.3717717,48.8297026],[2.3715529,48.82959],[2.3709891,48.8299636]]]]},"properties":{"code_section":"75113000BH","code_commune":"75113","section_courte":"BH"}},{"type":"Feature","geometry":{"type":"MultiPolygon","coordinates":[[[[2.3724294,48.8290247],[2.3729204,48.828485],[2.3755986,48.8299398],[2.3753852,48.8302084],[2.3747869,48.8308029],[2.3743471,48.8310323],[2.3717717,48.8297026],[2.3719385,48.8295643],[2.3724294,48.8290247]]]]},"properties":{"code_section":"75113000BI","code_commune":"75113","section_courte":"BI"}},{"type":"Feature","geometry":{"type":"MultiPolygon","coordinates":[[[[2.371353,48.8316883],[2.369872,48.830703],[2.3715529,48.82959],[2.3743471,48.8310323],[2.3719054,48.8321948],[2.3716821,48.8319071],[2.371353,48.8316883]]]]},"properties":{"code_section":"75113000BJ","code_commune":"75113","section_courte":"BJ"}},{"type":"Feature","geometry":{"type":"MultiPolygon","coordinates":[[[[2.3676385,48.8321683],[2.369872,48.830703],[2.3716821,48.8319071],[2.3719054,48.8321948],[2.3696596,48.8332735],[2.3676385,48.8321683]]]]},"properties":{"code_section":"75113000BK","code_commune":"75113","section_courte":"BK"}},{"type":"Feature","geometry":{"type":"MultiPolygon","coordinates":[[[[2.3698446,48.8300187],[2.3704252,48.8303372],[2.3676385,48.8321683],[2.3662895,48.8313293],[2.3678216,48.8301897],[2.3673577,48.8299281],[2.3683454,48.8291883],[2.3691749,48.8297035],[2.3692639,48.8297],[2.3698446,48.8300187]]]]},"properties":{"code_section":"75113000BL","code_commune":"75113","section_courte":"BL"}},{"type":"Feature","geometry":{"type":"MultiPolygon","coordinates":[[[[2.364411,48.83276],[2.3662895,48.8313293],[2.3676385,48.8321683],[2.3649839,48.8339176],[2.3635468,48.8334352],[2.364411,48.83276]]]]},"properties":{"code_section":"75113000BM","code_commune":"75113","section_courte":"BM"}},{"type":"Feature","geometry":{"type":"MultiPolygon","coordinates":[[[[2.3663111,48.833043],[2.3676385,48.8321683],[2.3696596,48.8332735],[2.3685981,48.8337801],[2.3672104,48.8346578],[2.3649839,48.8339176],[2.3663111,48.833043]]]]},"properties":{"code_section":"75113000BN","code_commune":"75113","section_courte":"BN"}},{"type":"Feature","geometry":{"type":"MultiPolygon","coordinates":[[[[2.3707461,48.8359519],[2.3696609,48.835484],[2.3672104,48.8346578],[2.3685981,48.8337801],[2.3696596,48.8332735],[2.3696142,48.8333496],[2.3701926,48.8335798],[2.3700963,48.8336853],[2.3729987,48.8348212],[2.3717134,48.8361771],[2.3719082,48.8362739],[2.3717288,48.8364634],[2.3707461,48.8359519]]]]},"properties":{"code_section":"75113000BO","code_commune":"75113","section_courte":"BO"}},{"type":"Feature","geometry":{"type":"MultiPolygon","coordinates":[[[[2.3770763,48.8360126],[2.3748072,48.838107],[2.3717288,48.8364634],[2.3719082,48.8362739],[2.3717134,48.8361771],[2.3732213,48.8345895],[2.3753567,48.835769],[2.3757703,48.8354081],[2.3770763,48.8360126]]]]},"properties":{"code_section":"75113000BP","code_commune":"75113","section_courte":"BP"}},{"type":"Feature","geometry":{"type":"MultiPolygon","coordinates":[[[[2.3788303,48.8329175],[2.3763563,48.8348953],[2.3753567,48.835769],[2.3732213,48.8345895],[2.3761781,48.8314639],[2.3788303,48.8329175]]]]},"properties":{"code_section":"75113000BQ","code_commune":"75113","section_courte":"BQ"}},{"type":"Feature","geometry":{"type":"MultiPolygon","coordinates":[[[[2.3701926,48.8335798],[2.3696142,48.8333496],[2.3696596,48.8332735],[2.3729139,48.8317122],[2.3730984,48.8317876],[2.3731755,48.8317505],[2.3745361,48.8325196],[2.3746313,48.8324184],[2.3750984,48.8326107],[2.3729987,48.8348212],[2.3700963,48.8336853],[2.3701926,48.8335798]]]]},"properties":{"code_section":"75113000BR","code_commune":"75113","section_courte":"BR"}},{"type":"Feature","geometry":{"type":"MultiPolygon","coordinates":[[[[2.3746313,48.8324184],[2.3745361,48.8325196],[2.3731755,48.8317505],[2.3730984,48.8317876],[2.3729139,48.8317122],[2.3747869,48.8308029],[2.3753852,48.8302084],[2.3755986,48.8299398],[2.3786888,48.8316362],[2.3785661,48.8317722],[2.3781308,48.8315311],[2.3773791,48.832122],[2.3761781,48.8314639],[2.3750984,48.8326107],[2.3746313,48.8324184]]]]},"properties":{"code_section":"75113000BS","code_commune":"75113","section_courte":"BS"}},{"type":"Feature","geometry":{"type":"MultiPolygon","coordinates":[[[[2.3777278,48.8338197],[2.3788303,48.8329175],[2.3773791,48.832122],[2.3781308,48.8315311],[2.3785661,48.8317722],[2.3786888,48.8316362],[2.3809925,48.8329081],[2.3789264,48.8344946],[2.3770763,48.8360126],[2.3757703,48.8354081],[2.3763563,48.8348953],[2.3777278,48.8338197]]]]},"properties":{"code_section":"75113000BT","code_commune":"75113","section_courte":"BT"}},{"type":"Feature","geometry":{"type":"MultiPolygon","coordinates":[[[[2.3814253,48.8309759],[2.3821068,48.8304158],[2.3833235,48.8310709],[2.3809925,48.8329081],[2.3779308,48.8312178],[2.3780831,48.8310982],[2.3778468,48.8309675],[2.3788889,48.8301286],[2.3800613,48.8306235],[2.3803928,48.830181],[2.3814708,48.8306272],[2.3811752,48.8308601],[2.3814253,48.8309759]]]]},"properties":{"code_section":"75113000BU","code_commune":"75113","section_courte":"BU"}},{"type":"Feature","geometry":{"type":"MultiPolygon","coordinates":[[[[2.3838173,48.8291822],[2.3851577,48.8296248],[2.3833235,48.8310709],[2.3821068,48.8304158],[2.3814253,48.8309759],[2.3811752,48.8308601],[2.3814708,48.8306272],[2.3803928,48.830181],[2.3800613,48.8306235],[2.3788889,48.8301286],[2.3805295,48.8283946],[2.3829949,48.8294162],[2.3834446,48.829059],[2.3838173,48.8291822]]]]},"properties":{"code_section":"75113000BV","code_commune":"75113","section_courte":"BV"}},{"type":"Feature","geometry":{"type":"MultiPolygon","coordinates":[[[[2.3812727,48.8275964],[2.3819986,48.8269721],[2.3823712,48.8269413],[2.3849112,48.8281079],[2.3849649,48.8280586],[2.3862361,48.8286806],[2.3851577,48.8296248],[2.3834446,48.829059],[2.3829949,48.8294162],[2.3805295,48.8283946],[2.3812727,48.8275964]]]]},"properties":{"code_section":"75113000BW","code_commune":"75113","section_courte":"BW"}},{"type":"Feature","geometry":{"type":"MultiPolygon","coordinates":[[[[2.3849112,48.8281079],[2.3823712,48.8269413],[2.3821014,48.8269636],[2.3820916,48.8269035],[2.3822233,48.8267906],[2.3821012,48.8267361],[2.3826505,48.8261568],[2.3828753,48.8262315],[2.3829854,48.8261372],[2.3822593,48.8259031],[2.3823891,48.8258223],[2.3825482,48.8257638],[2.3830332,48.8256714],[2.3835803,48.8256809],[2.3838906,48.8257343],[2.3855345,48.826222],[2.3858786,48.8262547],[2.3864354,48.8262507],[2.3864415,48.8263798],[2.3863417,48.8266858],[2.3857776,48.8273613],[2.3870625,48.8279798],[2.3862361,48.8286806],[2.3849649,48.8280586],[2.3849112,48.8281079]]]]},"properties":{"code_section":"75113000BX","code_commune":"75113","section_courte":"BX"}},{"type":"Feature","geometry":{"type":"MultiPolygon","coordinates":[[[[2.3870625,48.8279798],[2.3857776,48.8273613],[2.3863417,48.8266858],[2.3864415,48.8263798],[2.3864354,48.8262507],[2.3867819,48.8262371],[2.3877597,48.8255383],[2.3889142,48.8250569],[2.3897726,48.8255156],[2.3902582,48.8257274],[2.3875868,48.8275827],[2.3870625,48.8279798]]]]},"properties":{"code_section":"75113000BY","code_commune":"75113","section_courte":"BY"}},{"type":"Feature","geometry":{"type":"MultiPolygon","coordinates":[[[[2.3870113,48.8243633],[2.3889142,48.8250569],[2.3877597,48.8255383],[2.3867819,48.8262371],[2.3861923,48.8262595],[2.3855345,48.826222],[2.3838906,48.8257343],[2.3835803,48.8256809],[2.3830332,48.8256714],[2.3825482,48.8257638],[2.3825479,48.8254689],[2.3844934,48.8244243],[2.3852021,48.8237197],[2.3870113,48.8243633]]]]},"properties":{"code_section":"75113000BZ","code_commune":"75113","section_courte":"BZ"}},{"type":"Feature","geometry":{"type":"MultiPolygon","coordinates":[[[[2.380134,48.8251994],[2.378754,48.8247262],[2.3796028,48.8237292],[2.3800881,48.8239265],[2.3802795,48.8237272],[2.3825916,48.8239189],[2.3833375,48.8230565],[2.3852021,48.8237197],[2.3844934,48.8244243],[2.3825479,48.8254689],[2.3825482,48.8257638],[2.3822593,48.8259031],[2.380134,48.8251994]]]]},"properties":{"code_section":"75113000CA","code_commune":"75113","section_courte":"CA"}},{"type":"Feature","geometry":{"type":"MultiPolygon","coordinates":[[[[2.3777994,48.8229955],[2.3790627,48.8212298],[2.3790314,48.8212182],[2.3790848,48.8211442],[2.3807624,48.821696],[2.3815236,48.8224111],[2.3833375,48.8230565],[2.3825916,48.8239189],[2.3802795,48.8237272],[2.3800881,48.8239265],[2.3777994,48.8229955]]]]},"properties":{"code_section":"75113000CB","code_commune":"75113","section_courte":"CB"}},{"type":"Feature","geometry":{"type":"MultiPolygon","coordinates":[[[[2.378422,48.825116],[2.3763562,48.8244375],[2.3769057,48.824082],[2.3749873,48.8234476],[2.3758302,48.8223195],[2.3772367,48.8226777],[2.3778683,48.8228998],[2.3777994,48.8229955],[2.3796028,48.8237292],[2.378422,48.825116]]]]},"properties":{"code_section":"75113000CC","code_commune":"75113","section_courte":"CC"}},{"type":"Feature","geometry":{"type":"MultiPolygon","coordinates":[[[[2.3789091,48.8252873],[2.378422,48.825116],[2.378754,48.8247262],[2.3829854,48.8261372],[2.3828753,48.8262315],[2.3826505,48.8261568],[2.3821012,48.8267361],[2.3822233,48.8267906],[2.3820916,48.8269035],[2.3821014,48.8269636],[2.3819986,48.8269721],[2.3812727,48.8275964],[2.3795701,48.8267587],[2.3781129,48.8262527],[2.3793963,48.8254585],[2.3789091,48.8252873]]]]},"properties":{"code_section":"75113000CD","code_commune":"75113","section_courte":"CD"}},{"type":"Feature","geometry":{"type":"MultiPolygon","coordinates":[[[[2.3768567,48.8278376],[2.3781129,48.8262527],[2.3795701,48.8267587],[2.3812727,48.8275964],[2.3799183,48.829045],[2.3788852,48.8286161],[2.378362,48.8291699],[2.3766843,48.828462],[2.3768412,48.8282097],[2.37665,48.8281725],[2.3768567,48.8278376]]]]},"properties":{"code_section":"75113000CE","code_commune":"75113","section_courte":"CE"}},{"type":"Feature","geometry":{"type":"MultiPolygon","coordinates":[[[[2.3758283,48.8293854],[2.37665,48.8281725],[2.3768412,48.8282097],[2.3766843,48.828462],[2.378362,48.8291699],[2.3788852,48.8286161],[2.3799183,48.829045],[2.3788015,48.8302098],[2.3778468,48.8309675],[2.3780831,48.8310982],[2.3779308,48.8312178],[2.37547,48.8298715],[2.3758283,48.8293854]]]]},"properties":{"code_section":"75113000CF","code_commune":"75113","section_courte":"CF"}},{"type":"Feature","geometry":{"type":"MultiPolygon","coordinates":[[[[2.3768825,48.8278002],[2.3761862,48.8288994],[2.37547,48.8298715],[2.371389,48.827681],[2.3742251,48.8270825],[2.3741618,48.8271472],[2.376685,48.8277144],[2.3768825,48.8278002]]]]},"properties":{"code_section":"75113000CG","code_commune":"75113","section_courte":"CG"}},{"type":"Feature","geometry":{"type":"MultiPolygon","coordinates":[[[[2.3728071,48.8273818],[2.371389,48.827681],[2.3745982,48.8255772],[2.3774134,48.8262102],[2.3780576,48.8263214],[2.3768825,48.8278002],[2.376685,48.8277144],[2.3741618,48.8271472],[2.3742251,48.8270825],[2.3728071,48.8273818]]]]},"properties":{"code_section":"75113000CH","code_commune":"75113","section_courte":"CH"}},{"type":"Feature","geometry":{"type":"MultiPolygon","coordinates":[[[[2.3780576,48.8263214],[2.3774134,48.8262102],[2.3745982,48.8255772],[2.3763562,48.8244375],[2.3793963,48.8254585],[2.3781129,48.8262527],[2.3780576,48.8263214]]]]},"properties":{"code_section":"75113000CI","code_commune":"75113","section_courte":"CI"}},{"type":"Feature","geometry":{"type":"MultiPolygon","coordinates":[[[[2.3727832,48.8221592],[2.3724436,48.8214903],[2.3758302,48.8223195],[2.3749873,48.8234476],[2.3769057,48.824082],[2.3763562,48.8244375],[2.3755369,48.8241297],[2.3709142,48.8233658],[2.3716215,48.8223331],[2.3731227,48.8228279],[2.3727832,48.8221592]]]]},"properties":{"code_section":"75113000CJ","code_commune":"75113","section_courte":"CJ"}},{"type":"Feature","geometry":{"type":"MultiPolygon","coordinates":[[[[2.3790848,48.8211442],[2.3790314,48.8212182],[2.3790627,48.8212298],[2.3778683,48.8228998],[2.3772367,48.8226777],[2.3749362,48.8220886],[2.3755865,48.8210137],[2.3754245,48.8209714],[2.3754864,48.8209229],[2.3759637,48.8201188],[2.3790848,48.8211442]]]]},"properties":{"code_section":"75113000CK","code_commune":"75113","section_courte":"CK"}},{"type":"Feature","geometry":{"type":"MultiPolygon","coordinates":[[[[2.3745088,48.8196427],[2.3759637,48.8201188],[2.3754864,48.8209229],[2.3754245,48.8209714],[2.3737469,48.8205332],[2.3736277,48.8207222],[2.3726129,48.8204526],[2.3723816,48.8206371],[2.3720933,48.8207939],[2.3718025,48.820264],[2.3708574,48.8207478],[2.3706822,48.8206032],[2.3706038,48.8204773],[2.3705539,48.8202994],[2.3705949,48.8200443],[2.3715898,48.8186856],[2.3745088,48.8196427]]]]},"properties":{"code_section":"75113000CL","code_commune":"75113","section_courte":"CL"}},{"type":"Feature","geometry":{"type":"MultiPolygon","coordinates":[[[[2.3731227,48.8228279],[2.3692739,48.8215545],[2.3718025,48.820264],[2.3720933,48.8207939],[2.3723816,48.8206371],[2.3726129,48.8204526],[2.3736277,48.8207222],[2.3737469,48.8205332],[2.3755865,48.8210137],[2.3749362,48.8220886],[2.3724436,48.8214903],[2.3731227,48.8228279]]]]},"properties":{"code_section":"75113000CM","code_commune":"75113","section_courte":"CM"}},{"type":"Feature","geometry":{"type":"MultiPolygon","coordinates":[[[[2.3693976,48.8215969],[2.3716215,48.8223331],[2.3699553,48.8248558],[2.3680362,48.8240875],[2.3693976,48.8215969]]]]},"properties":{"code_section":"75113000CN","code_commune":"75113","section_courte":"CN"}},{"type":"Feature","geometry":{"type":"MultiPolygon","coordinates":[[[[2.3701188,48.8245668],[2.3709142,48.8233658],[2.3755369,48.8241297],[2.3763562,48.8244375],[2.3745982,48.8255772],[2.372491,48.8250151],[2.371991,48.8256024],[2.3719044,48.8251775],[2.3710155,48.8248737],[2.3710863,48.8247883],[2.3706256,48.8246317],[2.3705026,48.8247971],[2.3700604,48.8246672],[2.3701188,48.8245668]]]]},"properties":{"code_section":"75113000CO","code_commune":"75113","section_courte":"CO"}},{"type":"Feature","geometry":{"type":"MultiPolygon","coordinates":[[[[2.3710155,48.8248737],[2.3719044,48.8251775],[2.371991,48.8256024],[2.372491,48.8250151],[2.3745982,48.8255772],[2.371389,48.827681],[2.3685692,48.8272989],[2.3700604,48.8246672],[2.3705026,48.8247971],[2.3706256,48.8246317],[2.3710863,48.8247883],[2.3710155,48.8248737]]]]},"properties":{"code_section":"75113000CP","code_commune":"75113","section_courte":"CP"}},{"type":"Feature","geometry":{"type":"MultiPolygon","coordinates":[[[[2.3692807,48.8260448],[2.3685692,48.8272989],[2.3664678,48.8270162],[2.3680362,48.8240875],[2.3699553,48.8248558],[2.3692807,48.8260448]]]]},"properties":{"code_section":"75113000CQ","code_commune":"75113","section_courte":"CQ"}},{"type":"Feature","geometry":{"type":"MultiPolygon","coordinates":[[[[2.3642062,48.8240633],[2.3670539,48.822644],[2.3686968,48.8229081],[2.3676983,48.8247634],[2.367086,48.8245206],[2.3671518,48.8243439],[2.3663425,48.824137],[2.3664767,48.8238872],[2.3663342,48.823855],[2.3662103,48.8240663],[2.3660055,48.8240169],[2.3659864,48.8240433],[2.3660569,48.8241044],[2.3649093,48.8246773],[2.3642062,48.8240633]]]]},"properties":{"code_section":"75113000CR","code_commune":"75113","section_courte":"CR"}},{"type":"Feature","geometry":{"type":"MultiPolygon","coordinates":[[[[2.3676983,48.8247634],[2.3664678,48.8270162],[2.363708,48.8266424],[2.3624109,48.8249608],[2.3642062,48.8240633],[2.3649093,48.8246773],[2.3660569,48.8241044],[2.3659864,48.8240433],[2.3660055,48.8240169],[2.3662103,48.8240663],[2.3663342,48.823855],[2.3664767,48.8238872],[2.3663425,48.824137],[2.3671518,48.8243439],[2.367086,48.8245206],[2.3676983,48.8247634]]]]},"properties":{"code_section":"75113000CS","code_commune":"75113","section_courte":"CS"}},{"type":"Feature","geometry":{"type":"MultiPolygon","coordinates":[[[[2.360725,48.8251493],[2.3619097,48.8236379],[2.3624596,48.8249365],[2.3624109,48.8249608],[2.363708,48.8266424],[2.3599449,48.8261363],[2.360725,48.8251493]]]]},"properties":{"code_section":"75113000CT","code_commune":"75113","section_courte":"CT"}},{"type":"Feature","geometry":{"type":"MultiPolygon","coordinates":[[[[2.3657064,48.8233089],[2.3624596,48.8249365],[2.3619097,48.8236379],[2.3631616,48.8220406],[2.3657064,48.8233089]]]]},"properties":{"code_section":"75113000CU","code_commune":"75113","section_courte":"CU"}},{"type":"Feature","geometry":{"type":"MultiPolygon","coordinates":[[[[2.3633286,48.8218311],[2.3647048,48.8200818],[2.3693976,48.8215969],[2.3686968,48.8229081],[2.3670539,48.822644],[2.3657064,48.8233089],[2.3631616,48.8220406],[2.3633286,48.8218311]]]]},"properties":{"code_section":"75113000CV","code_commune":"75113","section_courte":"CV"}},{"type":"Feature","geometry":{"type":"MultiPolygon","coordinates":[[[[2.3708574,48.8207478],[2.3692739,48.8215545],[2.3647048,48.8200818],[2.365667,48.8188539],[2.3691171,48.8200687],[2.370561,48.820154],[2.3706038,48.8204773],[2.3706822,48.8206032],[2.3708574,48.8207478]]]]},"properties":{"code_section":"75113000CW","code_commune":"75113","section_courte":"CW"}},{"type":"Feature","geometry":{"type":"MultiPolygon","coordinates":[[[[2.365667,48.8188539],[2.3669604,48.8171851],[2.3715897,48.8186858],[2.3706661,48.8199203],[2.370561,48.820154],[2.3691171,48.8200687],[2.365667,48.8188539]]]]},"properties":{"code_section":"75113000CX","code_commune":"75113","section_courte":"CX"}},{"type":"Feature","geometry":{"type":"MultiPolygon","coordinates":[[[[2.3623617,48.8160461],[2.3634007,48.8160579],[2.3669604,48.8171851],[2.3656191,48.8189124],[2.3652514,48.8188406],[2.3648564,48.8189845],[2.3626213,48.8179898],[2.3626882,48.8179303],[2.3626533,48.8179008],[2.3624088,48.8179078],[2.3624886,48.817835],[2.3618694,48.8178517],[2.3618377,48.8174263],[2.3621858,48.8175046],[2.3626447,48.8166185],[2.3623907,48.8165533],[2.3623617,48.8160461]]]]},"properties":{"code_section":"75113000CY","code_commune":"75113","section_courte":"CY"}},{"type":"Feature","geometry":{"type":"MultiPolygon","coordinates":[[[[2.3610334,48.8191637],[2.3603174,48.8190576],[2.3595001,48.8190112],[2.3597746,48.8180886],[2.3626213,48.8179898],[2.3648564,48.8189845],[2.3652514,48.8188406],[2.3656191,48.8189124],[2.3647048,48.8200818],[2.3620654,48.8192337],[2.3610334,48.8191637]]]]},"properties":{"code_section":"75113000CZ","code_commune":"75113","section_courte":"CZ"}},{"type":"Feature","geometry":{"type":"MultiPolygon","coordinates":[[[[2.3564961,48.8166786],[2.3564169,48.815978],[2.3623617,48.8160461],[2.3623907,48.8165533],[2.3626447,48.8166185],[2.3621858,48.8175046],[2.3618377,48.8174263],[2.3618694,48.8178516],[2.3624886,48.817835],[2.3624088,48.8179078],[2.3626533,48.8179008],[2.3626882,48.8179303],[2.3626213,48.8179898],[2.3595602,48.818101],[2.3590989,48.8180507],[2.3590004,48.8181045],[2.3577642,48.8178712],[2.3577226,48.8179633],[2.3566318,48.8177505],[2.3564961,48.8166786]]]]},"properties":{"code_section":"75113000DA","code_commune":"75113","section_courte":"DA"}},{"type":"Feature","geometry":{"type":"MultiPolygon","coordinates":[[[[2.3533848,48.8184359],[2.3533974,48.8178086],[2.3559175,48.8159723],[2.3564169,48.815978],[2.3566318,48.8177505],[2.3566611,48.8177563],[2.3564856,48.8181035],[2.3562071,48.8184047],[2.3561213,48.8184706],[2.3533848,48.8184359]]]]},"properties":{"code_section":"75113000DB","code_commune":"75113","section_courte":"DB"}},{"type":"Feature","geometry":{"type":"MultiPolygon","coordinates":[[[[2.3577642,48.8178712],[2.3590004,48.8181045],[2.3590989,48.8180507],[2.3595602,48.818101],[2.3597746,48.8180886],[2.3594599,48.819146],[2.3583724,48.8192142],[2.3575814,48.8193882],[2.3569675,48.8198552],[2.3568163,48.8201448],[2.3560112,48.8207648],[2.355539,48.8205682],[2.3554003,48.8195486],[2.3556859,48.8191251],[2.355821,48.8187571],[2.3559434,48.8186043],[2.356243,48.8183743],[2.3564247,48.8181859],[2.3566611,48.8177563],[2.3577226,48.8179633],[2.3577642,48.8178712]]]]},"properties":{"code_section":"75113000DC","code_commune":"75113","section_courte":"DC"}},{"type":"Feature","geometry":{"type":"MultiPolygon","coordinates":[[[[2.355539,48.8205682],[2.3560112,48.8207648],[2.3551876,48.8210674],[2.3549227,48.821067],[2.354724,48.8211247],[2.3541038,48.8212229],[2.3537359,48.8211926],[2.3525645,48.8211857],[2.350487,48.8212107],[2.3517029,48.8200446],[2.35267,48.8193402],[2.3529661,48.8190691],[2.3533848,48.8184359],[2.3561213,48.8184706],[2.3558534,48.8187081],[2.3556859,48.8191251],[2.3554003,48.8195486],[2.355539,48.8205682]]]]},"properties":{"code_section":"75113000DD","code_commune":"75113","section_courte":"DD"}},{"type":"Feature","geometry":{"type":"MultiPolygon","coordinates":[[[[2.3533974,48.8178086],[2.3533848,48.8184359],[2.3529661,48.8190691],[2.35267,48.8193402],[2.3517029,48.8200446],[2.3503905,48.8198133],[2.3483606,48.8188475],[2.3479698,48.8183296],[2.3490114,48.8179817],[2.3498211,48.817278],[2.3523994,48.8185337],[2.3533974,48.8178086]]]]},"properties":{"code_section":"75113000DE","code_commune":"75113","section_courte":"DE"}},{"type":"Feature","geometry":{"type":"MultiPolygon","coordinates":[[[[2.3479698,48.8183296],[2.3474806,48.8176803],[2.3473735,48.8176951],[2.3473445,48.8176595],[2.3472665,48.8177068],[2.3442105,48.8180381],[2.3440723,48.8174175],[2.3439744,48.815766],[2.3444974,48.8155766],[2.3444336,48.8161062],[2.3469201,48.8158646],[2.3498211,48.817278],[2.3490114,48.8179817],[2.3479698,48.8183296]]]]},"properties":{"code_section":"75113000DF","code_commune":"75113","section_courte":"DF"}},{"type":"Feature","geometry":{"type":"MultiPolygon","coordinates":[[[[2.3474806,48.8176803],[2.3483606,48.8188475],[2.3487417,48.8190388],[2.348016,48.8201887],[2.3453354,48.8194525],[2.3445855,48.8193829],[2.3442105,48.8180381],[2.3472665,48.8177068],[2.3473445,48.8176595],[2.3473735,48.8176951],[2.3474806,48.8176803]]]]},"properties":{"code_section":"75113000DG","code_commune":"75113","section_courte":"DG"}},{"type":"Feature","geometry":{"type":"MultiPolygon","coordinates":[[[[2.3502668,48.8212761],[2.3470144,48.8212962],[2.3470132,48.8212355],[2.3464888,48.8212355],[2.3460221,48.8196416],[2.348016,48.8201887],[2.3487417,48.8190388],[2.3503905,48.8198133],[2.3517029,48.8200446],[2.350487,48.8212107],[2.3502661,48.8212237],[2.3502668,48.8212761]]]]},"properties":{"code_section":"75113000DH","code_commune":"75113","section_courte":"DH"}},{"type":"Feature","geometry":{"type":"MultiPolygon","coordinates":[[[[2.346438,48.8221781],[2.3464275,48.8222127],[2.3424827,48.8214741],[2.3426792,48.8211937],[2.3438811,48.8203599],[2.3446304,48.819542],[2.3445855,48.8193829],[2.3453354,48.8194525],[2.3460221,48.8196416],[2.3464888,48.8212355],[2.3470132,48.8212355],[2.3470297,48.8221773],[2.346438,48.8221781]]]]},"properties":{"code_section":"75113000DI","code_commune":"75113","section_courte":"DI"}},{"type":"Feature","geometry":{"type":"MultiPolygon","coordinates":[[[[2.3440457,48.8225854],[2.3436673,48.8227906],[2.3420444,48.8220897],[2.3424827,48.8214741],[2.3464275,48.8222127],[2.3464073,48.8225189],[2.3451568,48.8235482],[2.3440457,48.8225854]]]]},"properties":{"code_section":"75113000DJ","code_commune":"75113","section_courte":"DJ"}},{"type":"Feature","geometry":{"type":"MultiPolygon","coordinates":[[[[2.3428209,48.8239085],[2.3414634,48.8239748],[2.3414366,48.8236694],[2.3417268,48.822694],[2.3420444,48.8220897],[2.3436673,48.8227906],[2.3440498,48.8225835],[2.3451783,48.823573],[2.3432742,48.8251906],[2.3429467,48.8245024],[2.3429051,48.8239043],[2.3428209,48.8239085]]]]},"properties":{"code_section":"75113000DK","code_commune":"75113","section_courte":"DK"}},{"type":"Feature","geometry":{"type":"MultiPolygon","coordinates":[[[[2.3451783,48.823573],[2.3466948,48.8248802],[2.3466489,48.8249349],[2.3472019,48.8256373],[2.3416597,48.826473],[2.3416923,48.8260373],[2.3414634,48.8239748],[2.3429051,48.8239043],[2.3429467,48.8245024],[2.3432742,48.8251906],[2.3451783,48.823573]]]]},"properties":{"code_section":"75113000DL","code_commune":"75113","section_courte":"DL"}},{"type":"Feature","geometry":{"type":"MultiPolygon","coordinates":[[[[2.3503888,48.8239403],[2.3485381,48.8240041],[2.3466948,48.8248802],[2.3451568,48.8235482],[2.3464073,48.8225189],[2.346438,48.8221781],[2.3493372,48.8221842],[2.3488588,48.8229692],[2.3503888,48.8239403]]]]},"properties":{"code_section":"75113000DM","code_commune":"75113","section_courte":"DM"}},{"type":"Feature","geometry":{"type":"MultiPolygon","coordinates":[[[[2.3505284,48.8249498],[2.3511043,48.8253142],[2.3503749,48.8258097],[2.3472019,48.8256373],[2.3466489,48.8249349],[2.3466948,48.8248802],[2.3485381,48.8240041],[2.3510723,48.8239188],[2.3503302,48.8248744],[2.3504909,48.8249759],[2.3505284,48.8249498]]]]},"properties":{"code_section":"75113000DN","code_commune":"75113","section_courte":"DN"}},{"type":"Feature","geometry":{"type":"MultiPolygon","coordinates":[[[[2.3493372,48.8221842],[2.3526906,48.8221527],[2.3532376,48.8236369],[2.353068,48.8237048],[2.3529955,48.8238476],[2.3503888,48.8239403],[2.3488588,48.8229692],[2.3493372,48.8221842]]]]},"properties":{"code_section":"75113000DO","code_commune":"75113","section_courte":"DO"}},{"type":"Feature","geometry":{"type":"MultiPolygon","coordinates":[[[[2.3470297,48.8221773],[2.3470144,48.8212962],[2.3502668,48.8212761],[2.3502661,48.8212237],[2.350487,48.8212107],[2.3525645,48.8211857],[2.3525562,48.8217874],[2.3526906,48.8221527],[2.3470297,48.8221773]]]]},"properties":{"code_section":"75113000DP","code_commune":"75113","section_courte":"DP"}},{"type":"Feature","geometry":{"type":"MultiPolygon","coordinates":[[[[2.3552882,48.8214398],[2.3552937,48.8214909],[2.3587316,48.8215017],[2.3582529,48.8230107],[2.3554102,48.8229317],[2.3554158,48.8230016],[2.3534785,48.8236646],[2.3532376,48.8236369],[2.3525562,48.8217874],[2.3525645,48.8211857],[2.3537359,48.8211926],[2.3541038,48.8212229],[2.354724,48.8211247],[2.3549227,48.821067],[2.3552461,48.8210467],[2.3552882,48.8214398]]]]},"properties":{"code_section":"75113000DQ","code_commune":"75113","section_courte":"DQ"}},{"type":"Feature","geometry":{"type":"MultiPolygon","coordinates":[[[[2.3552461,48.8210467],[2.3560112,48.8207648],[2.3568163,48.8201448],[2.3569675,48.8198552],[2.3575814,48.8193882],[2.3583724,48.8192142],[2.3594599,48.819146],[2.3587316,48.8215017],[2.3552937,48.8214909],[2.3552461,48.8210467]]]]},"properties":{"code_section":"75113000DR","code_commune":"75113","section_courte":"DR"}},{"type":"Feature","geometry":{"type":"MultiPolygon","coordinates":[[[[2.3590573,48.8204255],[2.3595001,48.8190112],[2.3603174,48.8190576],[2.3610334,48.8191637],[2.3620654,48.8192337],[2.3647048,48.8200818],[2.3633286,48.8218311],[2.3608918,48.8210604],[2.3609646,48.8207596],[2.3590573,48.8204255]]]]},"properties":{"code_section":"75113000DS","code_commune":"75113","section_courte":"DS"}},{"type":"Feature","geometry":{"type":"MultiPolygon","coordinates":[[[[2.3608918,48.8210604],[2.3633286,48.8218311],[2.36242,48.8229851],[2.3604943,48.8224909],[2.3585091,48.822193],[2.3590573,48.8204255],[2.3609646,48.8207596],[2.3608918,48.8210604]]]]},"properties":{"code_section":"75113000DT","code_commune":"75113","section_courte":"DT"}},{"type":"Feature","geometry":{"type":"MultiPolygon","coordinates":[[[[2.360725,48.8251493],[2.3578083,48.8244332],[2.3585091,48.822193],[2.3604943,48.8224909],[2.36242,48.8229851],[2.360725,48.8251493]]]]},"properties":{"code_section":"75113000DU","code_commune":"75113","section_courte":"DU"}},{"type":"Feature","geometry":{"type":"MultiPolygon","coordinates":[[[[2.3582529,48.8230107],[2.3575857,48.8251413],[2.3564402,48.8249042],[2.3553754,48.8248453],[2.3535754,48.8239415],[2.3536161,48.8238088],[2.3534785,48.8236646],[2.3554158,48.8230016],[2.3554102,48.8229317],[2.3582529,48.8230107]]]]},"properties":{"code_section":"75113000DV","code_commune":"75113","section_courte":"DV"}},{"type":"Feature","geometry":{"type":"MultiPolygon","coordinates":[[[[2.3505095,48.8246435],[2.3510723,48.8239188],[2.3529955,48.8238476],[2.353068,48.8237048],[2.3532376,48.8236369],[2.3534785,48.8236646],[2.3536161,48.8238088],[2.3535754,48.8239415],[2.3553754,48.8248453],[2.3552223,48.8260751],[2.3503749,48.8258097],[2.3511043,48.8253142],[2.3505284,48.8249498],[2.3504909,48.8249759],[2.3503302,48.8248744],[2.3505095,48.8246435]]]]},"properties":{"code_section":"75113000DW","code_commune":"75113","section_courte":"DW"}},{"type":"Feature","geometry":{"type":"MultiPolygon","coordinates":[[[[2.3578083,48.8244332],[2.360725,48.8251493],[2.3599449,48.8261363],[2.3572676,48.8261913],[2.3552223,48.8260751],[2.3553754,48.8248453],[2.3564402,48.8249042],[2.3575857,48.8251413],[2.3578083,48.8244332]]]]},"properties":{"code_section":"75113000DX","code_commune":"75113","section_courte":"DX"}},{"type":"Feature","geometry":{"type":"MultiPolygon","coordinates":[[[[2.3565965,48.8283223],[2.3572676,48.8261913],[2.3599449,48.8261363],[2.3579815,48.8286379],[2.3568667,48.8283602],[2.3565965,48.8283223]]]]},"properties":{"code_section":"75113000DY","code_commune":"75113","section_courte":"DY"}},{"type":"Feature","geometry":{"type":"MultiPolygon","coordinates":[[[[2.3531728,48.8270218],[2.353655,48.8259905],[2.3572676,48.8261913],[2.3565965,48.8283223],[2.355248,48.8279429],[2.3540395,48.8275032],[2.3537645,48.8274656],[2.3534204,48.8275483],[2.3527562,48.8281341],[2.3526909,48.828053],[2.3531728,48.8270218]]]]},"properties":{"code_section":"75113000DZ","code_commune":"75113","section_courte":"DZ"}},{"type":"Feature","geometry":{"type":"MultiPolygon","coordinates":[[[[2.3579815,48.8286379],[2.3561477,48.830966],[2.3557519,48.8307939],[2.3557911,48.8307335],[2.3547946,48.8306469],[2.3527562,48.8281341],[2.3534204,48.8275483],[2.3537645,48.8274656],[2.3540395,48.8275032],[2.355248,48.8279429],[2.3565965,48.8283223],[2.3568667,48.8283602],[2.3579815,48.8286379]]]]},"properties":{"code_section":"75113000EA","code_commune":"75113","section_courte":"EA"}},{"type":"Feature","geometry":{"type":"MultiPolygon","coordinates":[[[[2.3541555,48.8309723],[2.3527343,48.8305193],[2.3528177,48.8289231],[2.3527562,48.8281341],[2.3547946,48.8306469],[2.3557911,48.8307335],[2.3557519,48.8307939],[2.3561477,48.830966],[2.3555767,48.8314253],[2.3541555,48.8309723]]]]},"properties":{"code_section":"75113000EB","code_commune":"75113","section_courte":"EB"}},{"type":"Feature","geometry":{"type":"MultiPolygon","coordinates":[[[[2.3495371,48.8295549],[2.3491148,48.8295968],[2.3484076,48.8297904],[2.3477094,48.8288765],[2.3475933,48.8286329],[2.349041,48.8279641],[2.3495473,48.8276702],[2.3527562,48.8281341],[2.3528177,48.8289231],[2.3527343,48.8305193],[2.3499149,48.8296237],[2.3495371,48.8295549]]]]},"properties":{"code_section":"75113000EC","code_commune":"75113","section_courte":"EC"}},{"type":"Feature","geometry":{"type":"MultiPolygon","coordinates":[[[[2.3527562,48.8281341],[2.3490258,48.8275957],[2.3481682,48.8269419],[2.3472019,48.8256373],[2.353655,48.8259905],[2.3526909,48.828053],[2.3527562,48.8281341]]]]},"properties":{"code_section":"75113000ED","code_commune":"75113","section_courte":"ED"}},{"type":"Feature","geometry":{"type":"MultiPolygon","coordinates":[[[[2.3463647,48.8277321],[2.3456305,48.8278977],[2.3451987,48.8259392],[2.3472019,48.8256373],[2.3481682,48.8269419],[2.3490258,48.8275957],[2.3495473,48.8276702],[2.349041,48.8279641],[2.3475933,48.8286329],[2.3470991,48.8275663],[2.3463647,48.8277321]]]]},"properties":{"code_section":"75113000EE","code_commune":"75113","section_courte":"EE"}},{"type":"Feature","geometry":{"type":"MultiPolygon","coordinates":[[[[2.3484076,48.8297904],[2.3459092,48.8304759],[2.3456305,48.8278977],[2.3470991,48.8275663],[2.3477094,48.8288765],[2.3484076,48.8297904]]]]},"properties":{"code_section":"75113000EF","code_commune":"75113","section_courte":"EF"}},{"type":"Feature","geometry":{"type":"MultiPolygon","coordinates":[[[[2.3459092,48.8304759],[2.3442072,48.8309433],[2.343792,48.8298581],[2.3433394,48.8291569],[2.3428173,48.828538],[2.3456305,48.8278977],[2.3459092,48.8304759]]]]},"properties":{"code_section":"75113000EG","code_commune":"75113","section_courte":"EG"}},{"type":"Feature","geometry":{"type":"MultiPolygon","coordinates":[[[[2.3429866,48.8287117],[2.342747,48.828761],[2.3415041,48.8288103],[2.3416151,48.8281174],[2.3416597,48.826473],[2.3451987,48.8259392],[2.3456305,48.8278977],[2.3428173,48.828538],[2.3429866,48.8287117]]]]},"properties":{"code_section":"75113000EH","code_commune":"75113","section_courte":"EH"}},{"type":"Feature","geometry":{"type":"MultiPolygon","coordinates":[[[[2.3428556,48.8313173],[2.3411494,48.8317903],[2.341212,48.8313893],[2.3412578,48.8302773],[2.3413457,48.8294022],[2.3415041,48.8288103],[2.342747,48.828761],[2.3429866,48.8287117],[2.3433394,48.8291569],[2.343792,48.8298581],[2.3442072,48.8309433],[2.3428556,48.8313173]]]]},"properties":{"code_section":"75113000EI","code_commune":"75113","section_courte":"EI"}},{"type":"Feature","geometry":{"type":"MultiPolygon","coordinates":[[[[2.3429173,48.8313002],[2.3442072,48.8309433],[2.3448357,48.8341569],[2.3443108,48.8339851],[2.3422064,48.8334634],[2.3412667,48.8331179],[2.341142,48.8324924],[2.3411494,48.8317903],[2.3429173,48.8313002]]]]},"properties":{"code_section":"75113000EJ","code_commune":"75113","section_courte":"EJ"}},{"type":"Feature","geometry":{"type":"MultiPolygon","coordinates":[[[[2.3463142,48.8350281],[2.341585,48.8348139],[2.3412667,48.8331179],[2.3422064,48.8334634],[2.3443108,48.8339851],[2.3455674,48.8343969],[2.3460142,48.8346441],[2.3463142,48.8350281]]]]},"properties":{"code_section":"75113000EK","code_commune":"75113","section_courte":"EK"}},{"type":"Feature","geometry":{"type":"MultiPolygon","coordinates":[[[[2.3418938,48.8368405],[2.341585,48.8348139],[2.3463142,48.8350281],[2.3466903,48.836068],[2.3452397,48.8362816],[2.3451879,48.8360059],[2.3439761,48.8365288],[2.343736,48.8362891],[2.343391,48.8364357],[2.3434412,48.8364959],[2.3418938,48.8368405]]]]},"properties":{"code_section":"75113000EL","code_commune":"75113","section_courte":"EL"}},{"type":"Feature","geometry":{"type":"MultiPolygon","coordinates":[[[[2.3451879,48.8360059],[2.3452397,48.8362816],[2.3466903,48.836068],[2.3470757,48.8373102],[2.3420713,48.838364],[2.3418938,48.8368405],[2.3434412,48.8364959],[2.343391,48.8364357],[2.343736,48.8362891],[2.3439761,48.8365288],[2.3451879,48.8360059]]]]},"properties":{"code_section":"75113000EM","code_commune":"75113","section_courte":"EM"}},{"type":"Feature","geometry":{"type":"MultiPolygon","coordinates":[[[[2.3498168,48.8357978],[2.3503719,48.8358823],[2.3525427,48.8358079],[2.3518692,48.8367962],[2.3516626,48.8367799],[2.3470757,48.8373102],[2.3465802,48.8357355],[2.3463142,48.8350281],[2.3496094,48.8360747],[2.3498168,48.8357978]]]]},"properties":{"code_section":"75113000EN","code_commune":"75113","section_courte":"EN"}},{"type":"Feature","geometry":{"type":"MultiPolygon","coordinates":[[[[2.3476303,48.8330251],[2.3483058,48.8333032],[2.3489537,48.8325988],[2.3501844,48.8335936],[2.3509823,48.8332182],[2.351208,48.8328821],[2.3516426,48.833571],[2.3516778,48.8338518],[2.3515368,48.8341812],[2.3512304,48.8345951],[2.3507946,48.8349654],[2.3489332,48.8345446],[2.3485213,48.8357264],[2.3463142,48.8350281],[2.3460142,48.8346441],[2.3469547,48.8327472],[2.3476303,48.8330251]]]]},"properties":{"code_section":"75113000EO","code_commune":"75113","section_courte":"EO"}},{"type":"Feature","geometry":{"type":"MultiPolygon","coordinates":[[[[2.3443561,48.8316798],[2.3469547,48.8327472],[2.3460142,48.8346441],[2.3455674,48.8343969],[2.3448357,48.8341569],[2.3443561,48.8316798]]]]},"properties":{"code_section":"75113000EP","code_commune":"75113","section_courte":"EP"}},{"type":"Feature","geometry":{"type":"MultiPolygon","coordinates":[[[[2.3472084,48.8322074],[2.3469547,48.8327472],[2.3443561,48.8316798],[2.3442072,48.8309433],[2.3470203,48.8301694],[2.3481519,48.830986],[2.3472084,48.8322074]]]]},"properties":{"code_section":"75113000EQ","code_commune":"75113","section_courte":"EQ"}},{"type":"Feature","geometry":{"type":"MultiPolygon","coordinates":[[[[2.3476303,48.8330251],[2.3469547,48.8327472],[2.3472084,48.8322074],[2.3481519,48.830986],[2.3497288,48.8319763],[2.350724,48.8325175],[2.351208,48.8328821],[2.3509823,48.8332182],[2.3501844,48.8335936],[2.3489537,48.8325988],[2.3483058,48.8333032],[2.3476303,48.8330251]]]]},"properties":{"code_section":"75113000ER","code_commune":"75113","section_courte":"ER"}},{"type":"Feature","geometry":{"type":"MultiPolygon","coordinates":[[[[2.3526105,48.8304828],[2.3527518,48.8316633],[2.351663,48.8321037],[2.3511187,48.831915],[2.3507791,48.8316916],[2.3506225,48.8316489],[2.3504727,48.8316872],[2.3499009,48.8320691],[2.3481519,48.830986],[2.3470203,48.8301694],[2.3491148,48.8295968],[2.3495371,48.8295549],[2.3499149,48.8296237],[2.3526105,48.8304828]]]]},"properties":{"code_section":"75113000ES","code_commune":"75113","section_courte":"ES"}},{"type":"Feature","geometry":{"type":"MultiPolygon","coordinates":[[[[2.3550404,48.8322289],[2.3542184,48.833405],[2.3531918,48.8326618],[2.3527963,48.8320473],[2.3526105,48.8304828],[2.3555767,48.8314253],[2.3550404,48.8322289]]]]},"properties":{"code_section":"75113000ET","code_commune":"75113","section_courte":"ET"}},{"type":"Feature","geometry":{"type":"MultiPolygon","coordinates":[[[[2.3527518,48.8316633],[2.3527963,48.8320473],[2.3531918,48.8326618],[2.3542184,48.833405],[2.3533417,48.8346583],[2.3525593,48.8343922],[2.3523431,48.8342506],[2.3521488,48.8340274],[2.3517782,48.8332604],[2.350724,48.8325175],[2.3499009,48.8320691],[2.3504727,48.8316872],[2.3506225,48.8316489],[2.3507791,48.8316916],[2.3511187,48.831915],[2.351663,48.8321037],[2.3527518,48.8316633]]]]},"properties":{"code_section":"75113000EU","code_commune":"75113","section_courte":"EU"}},{"type":"Feature","geometry":{"type":"MultiPolygon","coordinates":[[[[2.3512304,48.8345951],[2.3515368,48.8341812],[2.3516778,48.8338518],[2.3516426,48.833571],[2.351208,48.8328821],[2.3517782,48.8332604],[2.3521488,48.8340274],[2.3523431,48.8342506],[2.3525593,48.8343922],[2.3533417,48.8346583],[2.3525427,48.8358079],[2.3503719,48.8358823],[2.3498183,48.8357959],[2.3496094,48.8360747],[2.3485213,48.8357264],[2.3489332,48.8345446],[2.3507946,48.8349654],[2.3512304,48.8345951]]]]},"properties":{"code_section":"75113000EV","code_commune":"75113","section_courte":"EV"}}]}