{"type":"FeatureCollection","features":[{"type":"Feature","geometry":{"type":"MultiPolygon","coordinates":[[[[2.3418924,48.8368276],[2.3420713,48.838364],[2.3397399,48.8388534],[2.336729,48.8396534],[2.3366688,48.8387661],[2.3355823,48.8376596],[2.3382681,48.836713],[2.3388561,48.8376352],[2.3418924,48.8368276]]]]},"properties":{"code_section":"75114000AB","code_commune":"75114","section_courte":"AB"}},{"type":"Feature","geometry":{"type":"MultiPolygon","coordinates":[[[[2.3330346,48.8390362],[2.331186,48.8377132],[2.3315005,48.8368752],[2.3322169,48.836988],[2.3334381,48.8364729],[2.3334958,48.8365358],[2.334168,48.836223],[2.3356689,48.8377481],[2.3352807,48.8379134],[2.3353272,48.8379595],[2.3333241,48.8388593],[2.3330346,48.8390362]]]]},"properties":{"code_section":"75114000AC","code_commune":"75114","section_courte":"AC"}},{"type":"Feature","geometry":{"type":"MultiPolygon","coordinates":[[[[2.3330959,48.8389977],[2.3333241,48.8388593],[2.3353272,48.8379595],[2.3352807,48.8379134],[2.3356689,48.8377481],[2.3366688,48.8387661],[2.3367286,48.8396535],[2.3338065,48.8406092],[2.3308332,48.838652],[2.331186,48.8377132],[2.3330346,48.8390362],[2.3330959,48.8389977]]]]},"properties":{"code_section":"75114000AD","code_commune":"75114","section_courte":"AD"}},{"type":"Feature","geometry":{"type":"MultiPolygon","coordinates":[[[[2.3338065,48.8406092],[2.3298241,48.8419261],[2.3296397,48.8418483],[2.3308332,48.838652],[2.3338065,48.8406092]]]]},"properties":{"code_section":"75114000AE","code_commune":"75114","section_courte":"AE"}},{"type":"Feature","geometry":{"type":"MultiPolygon","coordinates":[[[[2.3295057,48.8385345],[2.3301055,48.8393261],[2.3306514,48.8391477],[2.3297788,48.8414873],[2.3278096,48.8403402],[2.3276739,48.8402359],[2.327019,48.8393681],[2.3295057,48.8385345]]]]},"properties":{"code_section":"75114000AF","code_commune":"75114","section_courte":"AF"}},{"type":"Feature","geometry":{"type":"MultiPolygon","coordinates":[[[[2.3278096,48.8403402],[2.3297788,48.8414873],[2.3296397,48.8418483],[2.3298241,48.8419261],[2.3263805,48.8430605],[2.3247329,48.8411092],[2.3276182,48.8401448],[2.3276739,48.8402359],[2.3278096,48.8403402]]]]},"properties":{"code_section":"75114000AG","code_commune":"75114","section_courte":"AG"}},{"type":"Feature","geometry":{"type":"MultiPolygon","coordinates":[[[[2.3225702,48.8418902],[2.3247329,48.8411092],[2.3263805,48.8430605],[2.3247117,48.8436153],[2.3225702,48.8418902]]]]},"properties":{"code_section":"75114000AH","code_commune":"75114","section_courte":"AH"}},{"type":"Feature","geometry":{"type":"MultiPolygon","coordinates":[[[[2.3247329,48.8411092],[2.32257,48.8418903],[2.3214907,48.8410091],[2.322136,48.8394381],[2.3235662,48.8396595],[2.3247329,48.8411092]]]]},"properties":{"code_section":"75114000AI","code_commune":"75114","section_courte":"AI"}},{"type":"Feature","geometry":{"type":"MultiPolygon","coordinates":[[[[2.3276182,48.8401448],[2.3247329,48.8411092],[2.3235662,48.8396595],[2.3221363,48.8394382],[2.3225612,48.838402],[2.3228295,48.8387639],[2.3231936,48.8386282],[2.323547,48.8387543],[2.3240377,48.8385045],[2.3242854,48.8388224],[2.3259398,48.8382765],[2.3260601,48.8383425],[2.3262207,48.8383336],[2.3276182,48.8401448]]]]},"properties":{"code_section":"75114000AJ","code_commune":"75114","section_courte":"AJ"}},{"type":"Feature","geometry":{"type":"MultiPolygon","coordinates":[[[[2.329432,48.8385592],[2.327019,48.8393681],[2.3262207,48.8383336],[2.3261014,48.8383484],[2.3260045,48.8383244],[2.3259311,48.8382645],[2.3259167,48.8381908],[2.3259763,48.8381127],[2.3260862,48.8380746],[2.3262075,48.8380833],[2.3263111,48.8381475],[2.3309045,48.8366204],[2.3309555,48.836485],[2.3310377,48.8364489],[2.3313552,48.8368494],[2.3315005,48.8368752],[2.3306514,48.8391477],[2.3301055,48.8393261],[2.3295057,48.8385345],[2.329432,48.8385592]]]]},"properties":{"code_section":"75114000AK","code_commune":"75114","section_courte":"AK"}},{"type":"Feature","geometry":{"type":"MultiPolygon","coordinates":[[[[2.3228295,48.8387639],[2.3225612,48.838402],[2.3232055,48.8368177],[2.3240226,48.8372315],[2.3276332,48.8360177],[2.3286413,48.837375],[2.3263111,48.8381475],[2.3261878,48.8380785],[2.3260253,48.8380901],[2.3259233,48.8381702],[2.3259398,48.8382765],[2.3242854,48.8388224],[2.3240377,48.8385045],[2.323547,48.8387543],[2.3231936,48.8386282],[2.3228295,48.8387639]]]]},"properties":{"code_section":"75114000AL","code_commune":"75114","section_courte":"AL"}},{"type":"Feature","geometry":{"type":"MultiPolygon","coordinates":[[[[2.3232055,48.8368177],[2.3234492,48.8362268],[2.3268562,48.8349742],[2.3276332,48.8360177],[2.3240226,48.8372315],[2.3232055,48.8368177]]]]},"properties":{"code_section":"75114000AM","code_commune":"75114","section_courte":"AM"}},{"type":"Feature","geometry":{"type":"MultiPolygon","coordinates":[[[[2.3276332,48.8360177],[2.3268562,48.8349742],[2.3315318,48.8332448],[2.3323543,48.8342067],[2.3322823,48.8342258],[2.3325449,48.8345057],[2.3323731,48.8345751],[2.3322477,48.8348833],[2.3303149,48.8355634],[2.3299965,48.8351719],[2.3276332,48.8360177]]]]},"properties":{"code_section":"75114000AN","code_commune":"75114","section_courte":"AN"}},{"type":"Feature","geometry":{"type":"MultiPolygon","coordinates":[[[[2.3286413,48.837375],[2.3276332,48.8360177],[2.3299965,48.8351719],[2.3303149,48.8355634],[2.3322477,48.8348833],[2.3323731,48.8345751],[2.3325449,48.8345057],[2.334168,48.836223],[2.3334958,48.8365358],[2.3334381,48.8364729],[2.3322169,48.836988],[2.3313552,48.8368494],[2.3310377,48.8364489],[2.3309555,48.836485],[2.3309045,48.8366204],[2.3286413,48.837375]]]]},"properties":{"code_section":"75114000AO","code_commune":"75114","section_courte":"AO"}},{"type":"Feature","geometry":{"type":"MultiPolygon","coordinates":[[[[2.3325449,48.8345057],[2.3322823,48.8342258],[2.3360789,48.8331793],[2.3369682,48.8346071],[2.3351294,48.8345233],[2.3350731,48.8351022],[2.3351791,48.8352372],[2.3337887,48.8358352],[2.3325449,48.8345057]]]]},"properties":{"code_section":"75114000AP","code_commune":"75114","section_courte":"AP"}},{"type":"Feature","geometry":{"type":"MultiPolygon","coordinates":[[[[2.3382681,48.836713],[2.3355823,48.8376596],[2.3337887,48.8358352],[2.3351791,48.8352372],[2.3350731,48.8351022],[2.3351294,48.8345233],[2.3369682,48.8346071],[2.3382681,48.836713]]]]},"properties":{"code_section":"75114000AQ","code_commune":"75114","section_courte":"AQ"}},{"type":"Feature","geometry":{"type":"MultiPolygon","coordinates":[[[[2.3388561,48.8376352],[2.3369682,48.8346071],[2.341585,48.8348139],[2.3418924,48.8368276],[2.3388561,48.8376352]]]]},"properties":{"code_section":"75114000AR","code_commune":"75114","section_courte":"AR"}},{"type":"Feature","geometry":{"type":"MultiPolygon","coordinates":[[[[2.3376745,48.8327432],[2.3411494,48.8317903],[2.341142,48.8324924],[2.341585,48.8348139],[2.3369682,48.8346071],[2.3360789,48.8331793],[2.3376745,48.8327432]]]]},"properties":{"code_section":"75114000AS","code_commune":"75114","section_courte":"AS"}},{"type":"Feature","geometry":{"type":"MultiPolygon","coordinates":[[[[2.3393692,48.8320002],[2.3367218,48.8308839],[2.33669,48.8303651],[2.3412578,48.8302773],[2.341212,48.8313893],[2.3411494,48.8317903],[2.3395191,48.8322386],[2.3393692,48.8320002]]]]},"properties":{"code_section":"75114000AT","code_commune":"75114","section_courte":"AT"}},{"type":"Feature","geometry":{"type":"MultiPolygon","coordinates":[[[[2.3416151,48.8281174],[2.3415716,48.8285319],[2.3413457,48.8294022],[2.3412578,48.8302773],[2.33669,48.8303651],[2.3365823,48.8286992],[2.3392406,48.8283818],[2.3392567,48.8284432],[2.3416151,48.8281174]]]]},"properties":{"code_section":"75114000AU","code_commune":"75114","section_courte":"AU"}},{"type":"Feature","geometry":{"type":"MultiPolygon","coordinates":[[[[2.3365823,48.8286992],[2.3365297,48.8277726],[2.3367101,48.8271997],[2.3416597,48.826473],[2.3416151,48.8281174],[2.3392567,48.8284432],[2.3392406,48.8283818],[2.3365823,48.8286992]]]]},"properties":{"code_section":"75114000AV","code_commune":"75114","section_courte":"AV"}},{"type":"Feature","geometry":{"type":"MultiPolygon","coordinates":[[[[2.3365971,48.8272162],[2.3351107,48.8274319],[2.336302,48.8242565],[2.3395986,48.8246168],[2.3415177,48.8246271],[2.3416923,48.8260373],[2.3416597,48.826473],[2.3365971,48.8272162]]]]},"properties":{"code_section":"75114000AW","code_commune":"75114","section_courte":"AW"}},{"type":"Feature","geometry":{"type":"MultiPolygon","coordinates":[[[[2.3355955,48.8231996],[2.3358527,48.8231295],[2.3359797,48.8228393],[2.3361447,48.8226329],[2.3363632,48.8224789],[2.3366562,48.8223556],[2.3369792,48.8222979],[2.337535,48.8223346],[2.3380476,48.8221587],[2.3384646,48.8222917],[2.3384444,48.8224786],[2.3385339,48.8225437],[2.3383059,48.8231423],[2.3382589,48.823765],[2.3382962,48.8238951],[2.3384269,48.82403],[2.3385803,48.8241053],[2.3395504,48.8243352],[2.3397078,48.8244285],[2.3398772,48.8246031],[2.3395986,48.8246168],[2.336302,48.8242565],[2.3361188,48.8241828],[2.3355174,48.8232209],[2.3355955,48.8231996]]]]},"properties":{"code_section":"75114000AX","code_commune":"75114","section_courte":"AX"}},{"type":"Feature","geometry":{"type":"MultiPolygon","coordinates":[[[[2.3422132,48.8218512],[2.3420444,48.8220897],[2.3417268,48.822694],[2.3414366,48.8236694],[2.3415177,48.8246271],[2.3398772,48.8246031],[2.3397078,48.8244285],[2.3395504,48.8243352],[2.3386882,48.8241399],[2.3384269,48.82403],[2.3382962,48.8238951],[2.3382589,48.823765],[2.3383059,48.8231423],[2.3385339,48.8225437],[2.3384444,48.8224786],[2.3384738,48.8222787],[2.3387032,48.8221689],[2.3388021,48.8221876],[2.3391751,48.8219421],[2.3391705,48.8218957],[2.3393677,48.8218895],[2.3395105,48.821904],[2.3396511,48.8219564],[2.3397576,48.8221275],[2.3397762,48.8222973],[2.3399104,48.8223019],[2.3402411,48.822164],[2.3405407,48.8219842],[2.3406834,48.8218323],[2.3408043,48.8215711],[2.3412198,48.821616],[2.3422132,48.8218512]]]]},"properties":{"code_section":"75114000AY","code_commune":"75114","section_courte":"AY"}},{"type":"Feature","geometry":{"type":"MultiPolygon","coordinates":[[[[2.3391536,48.8202037],[2.340833,48.8198475],[2.3445855,48.8193829],[2.3446304,48.819542],[2.3438811,48.8203599],[2.3426792,48.8211937],[2.3422132,48.8218512],[2.3412198,48.821616],[2.3408043,48.8215711],[2.3406834,48.8218323],[2.3405407,48.8219842],[2.3402411,48.822164],[2.3399104,48.8223019],[2.3397762,48.8222973],[2.3397576,48.8221275],[2.3396511,48.8219564],[2.3394396,48.8218927],[2.3391705,48.8218957],[2.3389797,48.821696],[2.3389976,48.8215252],[2.339195,48.8212003],[2.3394837,48.8209136],[2.3396819,48.8208159],[2.3393423,48.8208485],[2.3394968,48.8205647],[2.3392646,48.8203958],[2.3391536,48.8202037]]]]},"properties":{"code_section":"75114000AZ","code_commune":"75114","section_courte":"AZ"}},{"type":"Feature","geometry":{"type":"MultiPolygon","coordinates":[[[[2.3355174,48.8232209],[2.3342901,48.8212913],[2.3391536,48.8202037],[2.3392646,48.8203958],[2.3394968,48.8205647],[2.3393423,48.8208485],[2.3396819,48.8208159],[2.3395237,48.8208867],[2.3393308,48.821049],[2.3391336,48.8212812],[2.3389976,48.8215252],[2.3389797,48.821696],[2.3391705,48.8218957],[2.3391751,48.8219421],[2.3388021,48.8221876],[2.3387032,48.8221689],[2.3384646,48.8222917],[2.3380476,48.8221587],[2.337535,48.8223346],[2.3369792,48.8222979],[2.3365915,48.8223766],[2.3363054,48.8225119],[2.3361041,48.8226738],[2.3359439,48.822903],[2.3358527,48.8231295],[2.3355174,48.8232209]]]]},"properties":{"code_section":"75114000BC","code_commune":"75114","section_courte":"BC"}},{"type":"Feature","geometry":{"type":"MultiPolygon","coordinates":[[[[2.3391536,48.8202037],[2.3343401,48.8212789],[2.3335087,48.8196498],[2.3383854,48.8185704],[2.338468,48.818731],[2.3386502,48.8186911],[2.3387041,48.8187973],[2.3387654,48.8187842],[2.3389589,48.8191525],[2.3387976,48.8192748],[2.3387612,48.8194378],[2.3391536,48.8202037]]]]},"properties":{"code_section":"75114000BD","code_commune":"75114","section_courte":"BD"}},{"type":"Feature","geometry":{"type":"MultiPolygon","coordinates":[[[[2.3440734,48.8174275],[2.3445855,48.8193829],[2.340833,48.8198475],[2.3391536,48.8202037],[2.3387612,48.8194378],[2.3387976,48.8192748],[2.3389589,48.8191525],[2.3387654,48.8187842],[2.3387041,48.8187973],[2.3386502,48.8186911],[2.338468,48.818731],[2.3383854,48.8185704],[2.3413443,48.8179177],[2.3414329,48.8179267],[2.3414916,48.8179752],[2.3416227,48.8179453],[2.341718,48.8181366],[2.3424369,48.8178447],[2.3426747,48.8176727],[2.3440734,48.8174275]]]]},"properties":{"code_section":"75114000BE","code_commune":"75114","section_courte":"BE"}},{"type":"Feature","geometry":{"type":"MultiPolygon","coordinates":[[[[2.3404648,48.8164062],[2.3417117,48.8163403],[2.3430847,48.8160884],[2.3439744,48.815766],[2.3440734,48.8174275],[2.3426747,48.8176727],[2.3424369,48.8178447],[2.341718,48.8181366],[2.3416227,48.8179453],[2.3414916,48.8179752],[2.3413649,48.8179158],[2.3401861,48.8181699],[2.3396063,48.8176294],[2.3405123,48.8168507],[2.3404648,48.8164062]]]]},"properties":{"code_section":"75114000BF","code_commune":"75114","section_courte":"BF"}},{"type":"Feature","geometry":{"type":"MultiPolygon","coordinates":[[[[2.3375318,48.8165613],[2.3404648,48.8164062],[2.3405123,48.8168507],[2.3396063,48.8176294],[2.3401861,48.8181699],[2.3356004,48.8191894],[2.3353264,48.8186435],[2.3365877,48.8177679],[2.336524,48.8176622],[2.3368,48.8175976],[2.3366661,48.8173209],[2.3375963,48.8171154],[2.3375318,48.8165613]]]]},"properties":{"code_section":"75114000BG","code_commune":"75114","section_courte":"BG"}},{"type":"Feature","geometry":{"type":"MultiPolygon","coordinates":[[[[2.3335087,48.8196498],[2.3327145,48.8181539],[2.3323737,48.8182179],[2.3317535,48.8170393],[2.3337286,48.8167622],[2.3375318,48.8165613],[2.3375963,48.8171154],[2.3366661,48.8173209],[2.3368,48.8175976],[2.336524,48.8176622],[2.3365877,48.8177679],[2.3353264,48.8186435],[2.3356004,48.8191894],[2.3335087,48.8196498]]]]},"properties":{"code_section":"75114000BH","code_commune":"75114","section_courte":"BH"}},{"type":"Feature","geometry":{"type":"MultiPolygon","coordinates":[[[[2.3299212,48.820939],[2.3292667,48.8188961],[2.3327145,48.8181539],[2.3337658,48.8201403],[2.3332911,48.8202451],[2.3332649,48.8202005],[2.3299212,48.820939]]]]},"properties":{"code_section":"75114000BI","code_commune":"75114","section_courte":"BI"}},{"type":"Feature","geometry":{"type":"MultiPolygon","coordinates":[[[[2.3337658,48.8201403],[2.3343401,48.8212789],[2.3303473,48.8221691],[2.3299212,48.820939],[2.3332649,48.8202005],[2.3332911,48.8202451],[2.3337658,48.8201403]]]]},"properties":{"code_section":"75114000BJ","code_commune":"75114","section_courte":"BJ"}},{"type":"Feature","geometry":{"type":"MultiPolygon","coordinates":[[[[2.3328658,48.8238495],[2.3308555,48.8236349],[2.3303473,48.8221691],[2.3342901,48.8212913],[2.3357052,48.8235116],[2.3350152,48.8235676],[2.3334029,48.8236198],[2.3329028,48.8237304],[2.3328658,48.8238495]]]]},"properties":{"code_section":"75114000BK","code_commune":"75114","section_courte":"BK"}},{"type":"Feature","geometry":{"type":"MultiPolygon","coordinates":[[[[2.3357052,48.8235116],[2.3361188,48.8241828],[2.336302,48.8242565],[2.3357901,48.8256193],[2.3353504,48.8255756],[2.3317123,48.8259381],[2.3308555,48.8236349],[2.3328658,48.8238495],[2.3329028,48.8237305],[2.3334029,48.8236198],[2.3350152,48.8235676],[2.3357052,48.8235116]]]]},"properties":{"code_section":"75114000BL","code_commune":"75114","section_courte":"BL"}},{"type":"Feature","geometry":{"type":"MultiPolygon","coordinates":[[[[2.3317123,48.8259381],[2.3353504,48.8255756],[2.3357901,48.8256193],[2.3351107,48.8274319],[2.3325605,48.8278106],[2.3317123,48.8259381]]]]},"properties":{"code_section":"75114000BM","code_commune":"75114","section_courte":"BM"}},{"type":"Feature","geometry":{"type":"MultiPolygon","coordinates":[[[[2.3340835,48.8301399],[2.33279,48.8282404],[2.3325605,48.8278106],[2.3367101,48.8271997],[2.3365297,48.8277726],[2.3366357,48.8293361],[2.3359718,48.8293796],[2.3354434,48.8293169],[2.3347839,48.8292885],[2.3344298,48.8292322],[2.3340835,48.8301399]]]]},"properties":{"code_section":"75114000BN","code_commune":"75114","section_courte":"BN"}},{"type":"Feature","geometry":{"type":"MultiPolygon","coordinates":[[[[2.3344216,48.8306494],[2.3340835,48.8301399],[2.3344298,48.8292322],[2.3347839,48.8292885],[2.3354434,48.8293169],[2.3359718,48.8293796],[2.3366357,48.8293361],[2.3367218,48.8308839],[2.3360015,48.8306141],[2.33465,48.8309943],[2.3344216,48.8306494]]]]},"properties":{"code_section":"75114000BO","code_commune":"75114","section_courte":"BO"}},{"type":"Feature","geometry":{"type":"MultiPolygon","coordinates":[[[[2.3360789,48.8331793],[2.33465,48.8309943],[2.3360015,48.8306141],[2.3367218,48.8308839],[2.3393692,48.8320002],[2.3395191,48.8322386],[2.3360789,48.8331793]]]]},"properties":{"code_section":"75114000BP","code_commune":"75114","section_courte":"BP"}},{"type":"Feature","geometry":{"type":"MultiPolygon","coordinates":[[[[2.3310388,48.8326811],[2.3304193,48.8319577],[2.3334989,48.8309817],[2.3335973,48.830723],[2.3342994,48.8307581],[2.3344216,48.8306494],[2.3360789,48.8331793],[2.3332843,48.8339537],[2.3332359,48.8339095],[2.3333433,48.8336587],[2.3330185,48.8332672],[2.3326743,48.8332017],[2.3327541,48.8329875],[2.332128,48.8328313],[2.3321468,48.8327889],[2.3320327,48.8327938],[2.3312446,48.8326052],[2.3310388,48.8326811]]]]},"properties":{"code_section":"75114000BQ","code_commune":"75114","section_courte":"BQ"}},{"type":"Feature","geometry":{"type":"MultiPolygon","coordinates":[[[[2.3304193,48.8319577],[2.3283187,48.8295865],[2.3338495,48.8297964],[2.3344216,48.8306494],[2.3342994,48.8307581],[2.3335973,48.830723],[2.3334989,48.8309817],[2.3304193,48.8319577]]]]},"properties":{"code_section":"75114000BR","code_commune":"75114","section_courte":"BR"}},{"type":"Feature","geometry":{"type":"MultiPolygon","coordinates":[[[[2.3303403,48.8278193],[2.3325605,48.8278106],[2.33279,48.8282404],[2.3338495,48.8297964],[2.3298646,48.8296429],[2.3303403,48.8278193]]]]},"properties":{"code_section":"75114000BS","code_commune":"75114","section_courte":"BS"}},{"type":"Feature","geometry":{"type":"MultiPolygon","coordinates":[[[[2.3268666,48.8278359],[2.3303416,48.8278148],[2.3298646,48.8296429],[2.3283187,48.8295865],[2.3258712,48.8302735],[2.3268666,48.8278359]]]]},"properties":{"code_section":"75114000BT","code_commune":"75114","section_courte":"BT"}},{"type":"Feature","geometry":{"type":"MultiPolygon","coordinates":[[[[2.330719,48.8261206],[2.3317123,48.8259381],[2.3325605,48.8278106],[2.3268666,48.8278359],[2.3266064,48.8268783],[2.3288947,48.8261216],[2.3289621,48.8261548],[2.3299018,48.8255612],[2.330719,48.8261206]]]]},"properties":{"code_section":"75114000BU","code_commune":"75114","section_courte":"BU"}},{"type":"Feature","geometry":{"type":"MultiPolygon","coordinates":[[[[2.3298878,48.8255701],[2.3289621,48.8261548],[2.325911,48.8247342],[2.3258482,48.8244851],[2.327714,48.8240679],[2.3277604,48.8240978],[2.3304124,48.823584],[2.3308555,48.8236349],[2.3317123,48.8259381],[2.3307145,48.8261214],[2.3298878,48.8255701]]]]},"properties":{"code_section":"75114000BV","code_commune":"75114","section_courte":"BV"}},{"type":"Feature","geometry":{"type":"MultiPolygon","coordinates":[[[[2.3251915,48.8271492],[2.3249095,48.8267516],[2.3237937,48.8248675],[2.3258309,48.8244159],[2.325911,48.8247342],[2.3288947,48.8261216],[2.3266064,48.8268783],[2.326458,48.8268103],[2.3251915,48.8271492]]]]},"properties":{"code_section":"75114000BW","code_commune":"75114","section_courte":"BW"}},{"type":"Feature","geometry":{"type":"MultiPolygon","coordinates":[[[[2.3260554,48.8244398],[2.3258482,48.8244851],[2.3258309,48.8244159],[2.3237937,48.8248675],[2.322648,48.8226198],[2.3267399,48.8217789],[2.326569,48.8230045],[2.3275321,48.8239495],[2.327714,48.8240679],[2.3260554,48.8244398]]]]},"properties":{"code_section":"75114000BX","code_commune":"75114","section_courte":"BX"}},{"type":"Feature","geometry":{"type":"MultiPolygon","coordinates":[[[[2.3283009,48.82145],[2.329926,48.8209531],[2.3308555,48.8236349],[2.3304124,48.823584],[2.3277604,48.8240978],[2.3275321,48.8239495],[2.326569,48.8230045],[2.3267399,48.8217789],[2.3283009,48.82145]]]]},"properties":{"code_section":"75114000BY","code_commune":"75114","section_courte":"BY"}},{"type":"Feature","geometry":{"type":"MultiPolygon","coordinates":[[[[2.3258338,48.8196673],[2.3292667,48.8188961],[2.329926,48.8209531],[2.3283009,48.82145],[2.3258242,48.8219751],[2.325494,48.8218032],[2.3258338,48.8196673]]]]},"properties":{"code_section":"75114000BZ","code_commune":"75114","section_courte":"BZ"}},{"type":"Feature","geometry":{"type":"MultiPolygon","coordinates":[[[[2.320473,48.822002],[2.3201941,48.8215629],[2.3199153,48.8209866],[2.3258338,48.8196673],[2.325494,48.8218032],[2.3258242,48.8219751],[2.322648,48.8226198],[2.3224767,48.8223763],[2.3221738,48.8220521],[2.3207518,48.8224409],[2.320473,48.822002]]]]},"properties":{"code_section":"75114000CD","code_commune":"75114","section_courte":"CD"}},{"type":"Feature","geometry":{"type":"MultiPolygon","coordinates":[[[[2.317009,48.8235537],[2.3145057,48.8224546],[2.3141583,48.822264],[2.3199153,48.8209866],[2.3201941,48.8215629],[2.3207518,48.8224409],[2.3183431,48.8230993],[2.317009,48.8235537]]]]},"properties":{"code_section":"75114000CE","code_commune":"75114","section_courte":"CE"}},{"type":"Feature","geometry":{"type":"MultiPolygon","coordinates":[[[[2.3225624,48.8224981],[2.3232142,48.8237451],[2.3193348,48.8245773],[2.317009,48.8235537],[2.3183431,48.8230993],[2.3221738,48.8220521],[2.3225624,48.8224981]]]]},"properties":{"code_section":"75114000CF","code_commune":"75114","section_courte":"CF"}},{"type":"Feature","geometry":{"type":"MultiPolygon","coordinates":[[[[2.3216488,48.8255877],[2.3209152,48.8258739],[2.3195842,48.8261702],[2.3183136,48.8248058],[2.3232142,48.8237451],[2.3237937,48.8248675],[2.3212684,48.8254178],[2.3216488,48.8255877]]]]},"properties":{"code_section":"75114000CG","code_commune":"75114","section_courte":"CG"}},{"type":"Feature","geometry":{"type":"MultiPolygon","coordinates":[[[[2.3209974,48.8275942],[2.3202066,48.8268388],[2.3195842,48.8261702],[2.3209152,48.8258739],[2.3216488,48.8255877],[2.3212684,48.8254178],[2.3237937,48.8248675],[2.3249095,48.8267516],[2.3251915,48.8271492],[2.3243368,48.8267728],[2.3209974,48.8275942]]]]},"properties":{"code_section":"75114000CH","code_commune":"75114","section_courte":"CH"}},{"type":"Feature","geometry":{"type":"MultiPolygon","coordinates":[[[[2.3266152,48.8284488],[2.3263636,48.8290616],[2.3231324,48.829867],[2.3221462,48.8286875],[2.3209974,48.8275942],[2.3243368,48.8267728],[2.3251915,48.8271492],[2.326458,48.8268103],[2.3266064,48.8268783],[2.3268666,48.8278359],[2.3266152,48.8284488]]]]},"properties":{"code_section":"75114000CI","code_commune":"75114","section_courte":"CI"}},{"type":"Feature","geometry":{"type":"MultiPolygon","coordinates":[[[[2.3263636,48.8290616],[2.3253948,48.8314351],[2.3244252,48.8316304],[2.323504,48.830297],[2.3231324,48.829867],[2.3263636,48.8290616]]]]},"properties":{"code_section":"75114000CJ","code_commune":"75114","section_courte":"CJ"}},{"type":"Feature","geometry":{"type":"MultiPolygon","coordinates":[[[[2.3258712,48.8302735],[2.3283187,48.8295865],[2.3299087,48.8313761],[2.3251146,48.8326134],[2.3244252,48.8316304],[2.3253948,48.8314351],[2.3258712,48.8302735]]]]},"properties":{"code_section":"75114000CK","code_commune":"75114","section_courte":"CK"}},{"type":"Feature","geometry":{"type":"MultiPolygon","coordinates":[[[[2.3333433,48.8336587],[2.3332359,48.8339095],[2.3332843,48.8339537],[2.3323543,48.8342067],[2.3315318,48.8332448],[2.3291396,48.8341309],[2.3274281,48.832022],[2.3299087,48.8313761],[2.3310388,48.8326811],[2.3312446,48.8326052],[2.3320327,48.8327938],[2.3321468,48.8327889],[2.332128,48.8328313],[2.3327541,48.8329875],[2.3326743,48.8332017],[2.3330185,48.8332672],[2.3333433,48.8336587]]]]},"properties":{"code_section":"75114000CL","code_commune":"75114","section_courte":"CL"}},{"type":"Feature","geometry":{"type":"MultiPolygon","coordinates":[[[[2.3262713,48.8323177],[2.3274281,48.832022],[2.3291396,48.8341309],[2.3268562,48.8349742],[2.3251146,48.8326134],[2.3262713,48.8323177]]]]},"properties":{"code_section":"75114000CM","code_commune":"75114","section_courte":"CM"}},{"type":"Feature","geometry":{"type":"MultiPolygon","coordinates":[[[[2.3246502,48.8330235],[2.3247723,48.8329656],[2.3243029,48.8341294],[2.3258128,48.8335595],[2.3268562,48.8349742],[2.3234492,48.8362268],[2.3237471,48.835491],[2.3229911,48.8354277],[2.3218028,48.8343744],[2.3246502,48.8330235]]]]},"properties":{"code_section":"75114000CN","code_commune":"75114","section_courte":"CN"}},{"type":"Feature","geometry":{"type":"MultiPolygon","coordinates":[[[[2.3217844,48.834147],[2.3217661,48.8339195],[2.3211204,48.8333323],[2.3204705,48.8323293],[2.3219798,48.8317637],[2.3222444,48.8320732],[2.3244252,48.8316304],[2.3258128,48.8335595],[2.3243029,48.8341294],[2.3247723,48.8329656],[2.3218028,48.8343744],[2.3217844,48.834147]]]]},"properties":{"code_section":"75114000CO","code_commune":"75114","section_courte":"CO"}},{"type":"Feature","geometry":{"type":"MultiPolygon","coordinates":[[[[2.3192754,48.8327949],[2.3203733,48.8321797],[2.3211204,48.8333323],[2.3217661,48.8339195],[2.3218028,48.8343744],[2.3203196,48.8350989],[2.3189454,48.8343978],[2.3174732,48.8335939],[2.3190136,48.8326033],[2.3192754,48.8327949]]]]},"properties":{"code_section":"75114000CP","code_commune":"75114","section_courte":"CP"}},{"type":"Feature","geometry":{"type":"MultiPolygon","coordinates":[[[[2.3174732,48.8335939],[2.3141303,48.8318148],[2.3171619,48.8311423],[2.3193013,48.8305042],[2.3203733,48.8321797],[2.3192754,48.8327949],[2.3190136,48.8326033],[2.3174732,48.8335939]]]]},"properties":{"code_section":"75114000CQ","code_commune":"75114","section_courte":"CQ"}},{"type":"Feature","geometry":{"type":"MultiPolygon","coordinates":[[[[2.3212252,48.8320465],[2.3204705,48.8323293],[2.3193013,48.8305042],[2.3226516,48.8292987],[2.323504,48.830297],[2.3244252,48.8316304],[2.3222444,48.8320732],[2.3219798,48.8317637],[2.3212252,48.8320465]]]]},"properties":{"code_section":"75114000CR","code_commune":"75114","section_courte":"CR"}},{"type":"Feature","geometry":{"type":"MultiPolygon","coordinates":[[[[2.319413,48.8282858],[2.3209974,48.8275942],[2.3221462,48.8286875],[2.3226516,48.8292987],[2.319249,48.8305242],[2.3163734,48.828593],[2.3170136,48.8282183],[2.3178286,48.8289773],[2.319413,48.8282858]]]]},"properties":{"code_section":"75114000CS","code_commune":"75114","section_courte":"CS"}},{"type":"Feature","geometry":{"type":"MultiPolygon","coordinates":[[[[2.316724,48.8283877],[2.3163734,48.828593],[2.3151947,48.8277997],[2.3169018,48.826751],[2.3195842,48.8261702],[2.3202066,48.8268388],[2.3209974,48.8275942],[2.3178286,48.8289773],[2.3170136,48.8282183],[2.316724,48.8283877]]]]},"properties":{"code_section":"75114000CT","code_commune":"75114","section_courte":"CT"}},{"type":"Feature","geometry":{"type":"MultiPolygon","coordinates":[[[[2.3152174,48.8302396],[2.3142864,48.8306905],[2.3138242,48.8303863],[2.3166152,48.8287564],[2.319249,48.8305242],[2.3171619,48.8311423],[2.3161484,48.8297888],[2.3152174,48.8302396]]]]},"properties":{"code_section":"75114000CU","code_commune":"75114","section_courte":"CU"}},{"type":"Feature","geometry":{"type":"MultiPolygon","coordinates":[[[[2.3152174,48.8302396],[2.3161484,48.8297888],[2.3171619,48.8311423],[2.3141303,48.8318148],[2.3117427,48.830688],[2.3128856,48.8299024],[2.3138242,48.8303863],[2.3142864,48.8306905],[2.3152174,48.8302396]]]]},"properties":{"code_section":"75114000CV","code_commune":"75114","section_courte":"CV"}},{"type":"Feature","geometry":{"type":"MultiPolygon","coordinates":[[[[2.312314,48.8302952],[2.3117427,48.830688],[2.3098479,48.8297902],[2.3109733,48.8288387],[2.3115975,48.8291851],[2.3127213,48.8283141],[2.3133722,48.828674],[2.314963,48.8276431],[2.3166152,48.8287564],[2.3138242,48.8303863],[2.3128856,48.8299024],[2.312314,48.8302952]]]]},"properties":{"code_section":"75114000CW","code_commune":"75114","section_courte":"CW"}},{"type":"Feature","geometry":{"type":"MultiPolygon","coordinates":[[[[2.3160483,48.8272753],[2.3151947,48.8277997],[2.3138137,48.8268673],[2.314263,48.8265849],[2.3138815,48.8258098],[2.3183136,48.8248058],[2.3195842,48.8261702],[2.3169018,48.826751],[2.3160483,48.8272753]]]]},"properties":{"code_section":"75114000CX","code_commune":"75114","section_courte":"CX"}},{"type":"Feature","geometry":{"type":"MultiPolygon","coordinates":[[[[2.3113857,48.8276063],[2.3118694,48.8272285],[2.3118043,48.8271881],[2.3116053,48.8267961],[2.3113759,48.8268462],[2.3114693,48.8270248],[2.3109817,48.8271322],[2.3109598,48.8270892],[2.3106571,48.8271498],[2.3104482,48.8270456],[2.3105022,48.8270033],[2.3102913,48.826584],[2.3138815,48.8258098],[2.314263,48.8265849],[2.3138137,48.8268673],[2.314963,48.8276431],[2.3133722,48.828674],[2.3127213,48.8283141],[2.3123588,48.8285951],[2.31217,48.8282193],[2.3121244,48.8282293],[2.31206,48.8280953],[2.3121321,48.8280794],[2.311979,48.8277763],[2.3115571,48.8278657],[2.311445,48.827646],[2.3113857,48.8276063]]]]},"properties":{"code_section":"75114000CY","code_commune":"75114","section_courte":"CY"}},{"type":"Feature","geometry":{"type":"MultiPolygon","coordinates":[[[[2.3119112,48.8248942],[2.3135219,48.82467],[2.3140894,48.825765],[2.3088912,48.8268931],[2.3085189,48.8264168],[2.3082984,48.8257661],[2.3096503,48.8255789],[2.3111595,48.8250985],[2.3119112,48.8248942]]]]},"properties":{"code_section":"75114000CZ","code_commune":"75114","section_courte":"CZ"}},{"type":"Feature","geometry":{"type":"MultiPolygon","coordinates":[[[[2.3145781,48.8227503],[2.3149039,48.8228932],[2.3150761,48.822705],[2.3193348,48.8245773],[2.3140894,48.825765],[2.3135219,48.82467],[2.3139521,48.824611],[2.3136092,48.8239521],[2.3134886,48.8238979],[2.3134297,48.8238209],[2.3133625,48.8236142],[2.3134106,48.8234499],[2.3132056,48.8230466],[2.3145781,48.8227503]]]]},"properties":{"code_section":"75114000DE","code_commune":"75114","section_courte":"DE"}},{"type":"Feature","geometry":{"type":"MultiPolygon","coordinates":[[[[2.3119112,48.8248942],[2.3111595,48.8250985],[2.3082805,48.8235654],[2.3141583,48.822264],[2.3145057,48.8224546],[2.3150761,48.822705],[2.3149039,48.8228932],[2.3145652,48.8227447],[2.3132056,48.8230466],[2.3134106,48.8234499],[2.3133625,48.8236142],[2.3134297,48.8238209],[2.3134886,48.8238979],[2.3136092,48.8239521],[2.3139521,48.824611],[2.3119112,48.8248942]]]]},"properties":{"code_section":"75114000DF","code_commune":"75114","section_courte":"DF"}},{"type":"Feature","geometry":{"type":"MultiPolygon","coordinates":[[[[2.3046206,48.8243824],[2.3082805,48.8235654],[2.3111595,48.8250985],[2.3096503,48.8255789],[2.307256,48.8259046],[2.3056521,48.826415],[2.3046206,48.8243824]]]]},"properties":{"code_section":"75114000DG","code_commune":"75114","section_courte":"DG"}},{"type":"Feature","geometry":{"type":"MultiPolygon","coordinates":[[[[2.3012872,48.8251355],[2.3046206,48.8243824],[2.3056521,48.826415],[2.3046167,48.8267422],[2.3046802,48.826961],[2.3043753,48.8270612],[2.3040072,48.8268735],[2.3033137,48.8268934],[2.3011831,48.8251583],[2.3012872,48.8251355]]]]},"properties":{"code_section":"75114000DH","code_commune":"75114","section_courte":"DH"}},{"type":"Feature","geometry":{"type":"MultiPolygon","coordinates":[[[[2.3040072,48.8268735],[2.3043753,48.8270612],[2.3046802,48.826961],[2.3046167,48.8267422],[2.307256,48.8259046],[2.3082984,48.8257661],[2.3085189,48.8264168],[2.3088912,48.8268931],[2.3045165,48.8278721],[2.3033137,48.8268934],[2.3040072,48.8268735]]]]},"properties":{"code_section":"75114000DI","code_commune":"75114","section_courte":"DI"}},{"type":"Feature","geometry":{"type":"MultiPolygon","coordinates":[[[[2.3076274,48.8271842],[2.308514,48.8276087],[2.3073861,48.8286239],[2.3074621,48.8287839],[2.3068548,48.8297732],[2.3045165,48.8278721],[2.3076274,48.8271842]]]]},"properties":{"code_section":"75114000DJ","code_commune":"75114","section_courte":"DJ"}},{"type":"Feature","geometry":{"type":"MultiPolygon","coordinates":[[[[2.3118694,48.8272285],[2.3113857,48.8276063],[2.311445,48.827646],[2.3115571,48.8278657],[2.311979,48.8277763],[2.3121321,48.8280794],[2.31206,48.8280953],[2.3121244,48.8282293],[2.31217,48.8282193],[2.3123588,48.8285951],[2.3115975,48.8291851],[2.3109733,48.8288387],[2.3098479,48.8297902],[2.3076206,48.8287625],[2.3074621,48.8287839],[2.3073861,48.8286239],[2.308514,48.8276086],[2.3076274,48.8271842],[2.3102913,48.826584],[2.3105022,48.8270033],[2.3104482,48.8270456],[2.3106571,48.8271498],[2.3109598,48.8270892],[2.3109817,48.8271322],[2.3114693,48.8270248],[2.3113759,48.8268462],[2.3116053,48.8267961],[2.3118043,48.8271881],[2.3118694,48.8272285]]]]},"properties":{"code_section":"75114000DK","code_commune":"75114","section_courte":"DK"}},{"type":"Feature","geometry":{"type":"MultiPolygon","coordinates":[[[[2.3071739,48.8292534],[2.3074621,48.8287839],[2.3076206,48.8287625],[2.3109177,48.8302845],[2.309141,48.8315457],[2.3068548,48.8297732],[2.3071739,48.8292534]]]]},"properties":{"code_section":"75114000DL","code_commune":"75114","section_courte":"DL"}},{"type":"Feature","geometry":{"type":"MultiPolygon","coordinates":[[[[2.3092155,48.8314929],[2.3109177,48.8302845],[2.3141303,48.8318148],[2.3135993,48.8319471],[2.3108595,48.8329895],[2.3091548,48.8315784],[2.309141,48.8315457],[2.3092155,48.8314929]]]]},"properties":{"code_section":"75114000DM","code_commune":"75114","section_courte":"DM"}},{"type":"Feature","geometry":{"type":"MultiPolygon","coordinates":[[[[2.3111056,48.8331409],[2.3110067,48.8330621],[2.3109492,48.8330722],[2.3108595,48.8329895],[2.3135993,48.8319471],[2.3141303,48.8318148],[2.3171624,48.8334315],[2.3159477,48.8342552],[2.3149925,48.833721],[2.3141494,48.8341042],[2.3130322,48.8346865],[2.3111056,48.8331409]]]]},"properties":{"code_section":"75114000DN","code_commune":"75114","section_courte":"DN"}},{"type":"Feature","geometry":{"type":"MultiPolygon","coordinates":[[[[2.3144709,48.8358675],[2.3130322,48.8346865],[2.3141494,48.8341042],[2.3149925,48.833721],[2.3159477,48.8342552],[2.3171624,48.8334315],[2.3189454,48.8343978],[2.3177888,48.8352901],[2.3190535,48.8360251],[2.3166726,48.8354838],[2.3161406,48.8358409],[2.3158245,48.835651],[2.3149962,48.836305],[2.3144709,48.8358675]]]]},"properties":{"code_section":"75114000DO","code_commune":"75114","section_courte":"DO"}},{"type":"Feature","geometry":{"type":"MultiPolygon","coordinates":[[[[2.3159825,48.8357459],[2.3161406,48.8358409],[2.3166726,48.8354838],[2.3190535,48.8360251],[2.3183231,48.8371824],[2.3180068,48.8375533],[2.3173033,48.8382564],[2.3149962,48.836305],[2.3158245,48.835651],[2.3159825,48.8357459]]]]},"properties":{"code_section":"75114000DP","code_commune":"75114","section_courte":"DP"}},{"type":"Feature","geometry":{"type":"MultiPolygon","coordinates":[[[[2.3191819,48.8360546],[2.3190535,48.8360251],[2.3177888,48.8352901],[2.3189454,48.8343978],[2.3203196,48.8350989],[2.3218028,48.8343744],[2.3229911,48.8354277],[2.3218376,48.835992],[2.3211934,48.8356076],[2.320152,48.8364807],[2.3191819,48.8360546]]]]},"properties":{"code_section":"75114000DQ","code_commune":"75114","section_courte":"DQ"}},{"type":"Feature","geometry":{"type":"MultiPolygon","coordinates":[[[[2.3232056,48.8368177],[2.3228479,48.8377035],[2.3213627,48.837027],[2.3209257,48.8374797],[2.319658,48.8374025],[2.3183231,48.8371824],[2.3190535,48.8360251],[2.3191819,48.8360546],[2.320152,48.8364807],[2.3211934,48.8356076],[2.3218376,48.835992],[2.3229911,48.8354277],[2.3237471,48.835491],[2.3232056,48.8368177]]]]},"properties":{"code_section":"75114000DR","code_commune":"75114","section_courte":"DR"}},{"type":"Feature","geometry":{"type":"MultiPolygon","coordinates":[[[[2.3188306,48.8376747],[2.3180068,48.8375533],[2.3183231,48.8371824],[2.319658,48.8374024],[2.3209257,48.8374797],[2.3213627,48.837027],[2.3228479,48.8377034],[2.3218366,48.8401677],[2.321391,48.83979],[2.3213052,48.8398322],[2.3188306,48.8376747]]]]},"properties":{"code_section":"75114000DS","code_commune":"75114","section_courte":"DS"}},{"type":"Feature","geometry":{"type":"MultiPolygon","coordinates":[[[[2.3180068,48.8375533],[2.3188306,48.8376747],[2.3213052,48.8398322],[2.3199475,48.8405206],[2.3173033,48.8382564],[2.3180068,48.8375533]]]]},"properties":{"code_section":"75114000DT","code_commune":"75114","section_courte":"DT"}}]}